{"type":"Feature","properties":{"GID_2":"AUS.8.67_1","GID_0":"AUS","country":"Australia","GID_1":"AUS.8_1","state":"SouthAustralia","NL_NAME_1":"NA","county":"WestTorrens","VARNAME_2":"NA","NL_NAME_2":"NA","TYPE_2":"City","ENGTYPE_2":"City","CC_2":"48410","HASC_2":"NA","name":"WestTorrens.county"},
"geometry":{"type": "MultiPolygon","coordinates": [[[[138.577,-34.9092,20.0388],[138.5618,-34.9123,19.1905],[138.5556,-34.911,14.0332],[138.5542,-34.9139,15.2234],[138.5477,-34.9137,13.3944],[138.5427,-34.9177,12.8083],[138.5409,-34.9151,13.2646],[138.5362,-34.9163,12.237],[138.5367,-34.9177,14.979],[138.535,-34.9186,11.1047],[138.5254,-34.9176,9.4333],[138.517,-34.9251,7.6037],[138.5112,-34.9218,6.1649],[138.5063,-34.9221,4.7765],[138.5081,-34.935,4.5552],[138.5094,-34.9356,4.5552],[138.5076,-34.9369,3.9403],[138.5084,-34.951,2.8107],[138.503,-34.9514,0.0],[138.5086,-34.9644,3.5831],[138.5166,-34.9639,3.0224],[138.5167,-34.9627,3.2952],[138.5191,-34.9652,2.915],[138.523,-34.965,5.4753],[138.5249,-34.9709,5.775],[138.5284,-34.9708,7.2097],[138.5288,-34.9744,7.8698],[138.532,-34.9738,9.1339],[138.5324,-34.9756,10.0593],[138.5378,-34.9759,9.8968],[138.5723,-34.9585,26.5245],[138.5719,-34.953,23.1951],[138.5829,-34.9424,28.2631],[138.577,-34.9092,20.0388]]]]}}