{"type":"Feature","properties":{"GID_2":"AUS.10.28_1","GID_0":"AUS","country":"Australia","GID_1":"AUS.10_1","state":"Victoria","NL_NAME_1":"NA","county":"GreaterShepparton","VARNAME_2":"NA","NL_NAME_2":"NA","TYPE_2":"City","ENGTYPE_2":"City","CC_2":"22830","HASC_2":"AU.VI.GS","name":"GreaterShepparton.county"},
"geometry":{"type": "MultiPolygon","coordinates": [[[[145.7984,-36.2991,136.3853],[145.6315,-36.2991,120.5223],[145.6316,-36.1992,119.553],[145.2603,-36.1993,95.0373],[145.2602,-36.1972,99.2795],[145.2569,-36.196,115.5967],[145.2582,-36.1927,110.2296],[145.2552,-36.1938,104.7166],[145.2516,-36.192,99.92],[145.2535,-36.1901,98.2351],[145.2522,-36.1874,95.9854],[145.2556,-36.1859,96.6946],[145.2558,-36.1843,99.7213],[145.2524,-36.1844,102.6469],[145.2487,-36.1876,109.2619],[145.2488,-36.1805,109.9441],[145.2457,-36.1786,97.7712],[145.2454,-36.1759,100.4665],[145.2433,-36.1767,95.94],[145.2438,-36.1802,102.7038],[145.2406,-36.179,98.1071],[145.2401,-36.1717,97.7735],[145.2366,-36.1738,96.218],[145.2374,-36.1773,96.4762],[145.2353,-36.1764,100.1243],[145.2351,-36.1699,98.2126],[145.2319,-36.1683,93.2049],[145.238,-36.1663,97.8093],[145.2377,-36.1649,101.5536],[145.2326,-36.1652,95.8585],[145.2297,-36.1709,92.703],[145.2278,-36.1689,94.3163],[145.2306,-36.1659,95.9709],[145.2299,-36.1646,96.0408],[145.2247,-36.1705,96.9976],[145.2229,-36.1701,93.5058],[145.2222,-36.168,105.9556],[145.2236,-36.1653,93.6407],[145.2211,-36.1627,98.7758],[145.2267,-36.1607,108.8747],[145.2292,-36.1616,106.0177],[145.2303,-36.1604,112.9625],[145.229,-36.1589,112.2702],[145.2232,-36.1594,107.3213],[145.2168,-36.1656,93.5788],[145.2128,-36.1617,103.4817],[145.2145,-36.1591,105.3439],[145.2119,-36.1588,99.6447],[145.2067,-36.1646,102.115],[145.2096,-36.1663,91.8566],[145.2089,-36.1678,91.8566],[145.2041,-36.1666,94.9904],[145.2033,-36.1614,103.5777],[145.1994,-36.1608,98.7344],[145.1956,-36.1625,91.4819],[145.1957,-36.1608,105.3872],[145.2003,-36.159,109.7598],[145.2005,-36.1574,109.7739],[145.194,-36.1591,108.4802],[145.1927,-36.1635,104.6998],[145.1981,-36.1638,95.6785],[145.1983,-36.1654,99.206],[145.1888,-36.1654,93.4058],[145.1907,-36.1716,92.813],[145.1876,-36.1747,95.8898],[145.1918,-36.1754,95.5128],[145.1945,-36.1736,93.4725],[145.1956,-36.1747,108.5266],[145.192,-36.1794,98.4779],[145.181,-36.1782,92.2604],[145.1843,-36.1823,93.5376],[145.1826,-36.185,99.885],[145.1806,-36.1816,96.5927],[145.1782,-36.1804,94.657],[145.1765,-36.1815,100.542],[145.1725,-36.1767,99.1187],[145.172,-36.1699,92.4872],[145.1751,-36.1684,107.2329],[145.1734,-36.1674,108.0877],[145.1702,-36.1693,97.3733],[145.1694,-36.1679,110.863],[145.1728,-36.1665,108.0877],[145.1725,-36.1652,102.9259],[145.1666,-36.1678,93.5825],[145.1655,-36.1668,97.4033],[145.1665,-36.165,96.6751],[145.1643,-36.1636,101.1715],[145.1655,-36.161,96.5744],[145.1589,-36.1602,101.0308],[145.1577,-36.1577,96.4428],[145.1472,-36.1608,92.8974],[145.1463,-36.1626,86.9324],[145.1453,-36.1608,103.5766],[145.1468,-36.1585,109.9096],[145.1442,-36.1553,111.92],[145.1401,-36.1591,128.8402],[145.1388,-36.1581,120.6407],[145.1389,-36.1545,116.6395],[145.1366,-36.1545,112.724],[145.1359,-36.1573,114.4242],[145.1341,-36.1553,108.6251],[145.1323,-36.157,106.5292],[145.1346,-36.1614,107.229],[145.1312,-36.1609,100.3206],[145.1301,-36.1621,98.5647],[145.132,-36.1638,97.0797],[145.1354,-36.1636,96.3662],[145.1385,-36.1663,93.4286],[145.1351,-36.1681,92.2278],[145.1382,-36.1712,96.1953],[145.1335,-36.174,100.2382],[145.1324,-36.1706,105.0006],[145.1303,-36.1705,105.2887],[145.1296,-36.1715,110.1889],[145.1321,-36.1748,94.9426],[145.1276,-36.1764,108.5936],[145.1327,-36.1786,106.5211],[145.1316,-36.1847,106.8945],[145.132,-36.2844,106.5592],[145.1503,-36.2843,105.3819],[145.1503,-36.3431,107.599],[145.032,-36.343,105.2346],[145.032,-36.499,123.778],[145.1498,-36.499,113.8164],[145.1514,-36.5271,113.0239],[145.1576,-36.5305,122.3849],[145.154,-36.538,123.658],[145.1535,-36.5577,122.6439],[145.1548,-36.5596,124.0356],[145.1499,-36.5601,122.1705],[145.15,-36.5872,148.3942],[145.1317,-36.5873,126.077],[145.1317,-36.6755,147.9967],[145.1685,-36.6753,134.3441],[145.1686,-36.6901,126.6815],[145.1778,-36.69,135.2957],[145.1721,-36.6973,126.7042],[145.1786,-36.7005,126.4193],[145.1836,-36.6979,119.4726],[145.1813,-36.6919,127.4194],[145.1857,-36.6863,119.9421],[145.2134,-36.6857,123.3998],[145.2217,-36.6872,122.3238],[145.2232,-36.6859,120.1452],[145.2203,-36.6795,117.0026],[145.2235,-36.6754,117.8529],[145.221,-36.673,118.0578],[145.2219,-36.6701,115.6042],[145.2161,-36.6697,117.599],[145.2123,-36.6634,117.424],[145.2039,-36.6614,124.7122],[145.2066,-36.6595,131.0658],[145.2119,-36.6602,118.0042],[145.205,-36.6548,117.8207],[145.2097,-36.6521,123.9692],[145.2124,-36.648,123.1129],[145.2165,-36.6488,123.0683],[145.2177,-36.6467,125.6711],[145.2287,-36.6468,123.5244],[145.2287,-36.642,123.0774],[145.3025,-36.6419,122.1768],[145.3007,-36.6385,122.1731],[145.2982,-36.6396,122.847],[145.2978,-36.6343,122.8371],[145.3067,-36.6328,124.9989],[145.3059,-36.6312,123.3129],[145.3089,-36.6292,123.2891],[145.3097,-36.6251,122.8358],[145.3067,-36.6224,126.9519],[145.3087,-36.6183,121.8388],[145.3062,-36.6172,121.0907],[145.3115,-36.6141,123.3601],[145.3047,-36.6135,125.8424],[145.3189,-36.6124,122.1019],[145.3536,-36.5561,119.6679],[145.5785,-36.556,135.1935],[145.5785,-36.5545,136.6248],[145.5805,-36.5543,136.08],[145.5903,-36.5599,139.8375],[145.592,-36.5633,139.0903],[145.6317,-36.5633,145.2177],[145.6316,-36.499,132.0955],[145.7319,-36.499,175.8245],[145.7313,-36.4426,144.7463],[145.7242,-36.4345,139.7946],[145.7244,-36.4246,145.3996],[145.7352,-36.4261,141.294],[145.7396,-36.4312,142.0332],[145.7379,-36.4342,142.9924],[145.742,-36.4351,142.3521],[145.747,-36.4337,144.1143],[145.7534,-36.4357,145.7785],[145.7638,-36.4362,142.7171],[145.7661,-36.4417,144.3507],[145.7684,-36.4414,143.8637],[145.7715,-36.4447,144.6372],[145.7754,-36.4438,146.532],[145.7985,-36.3308,140.6221],[145.7984,-36.2991,136.3853]]]]}}