{"type":"Feature","properties":{"GID_2":"AUS.10.1_1","GID_0":"AUS","country":"Australia","GID_1":"AUS.10_1","state":"Victoria","NL_NAME_1":"NA","county":"Alpine","VARNAME_2":"NA","NL_NAME_2":"NA","TYPE_2":"Shire","ENGTYPE_2":"Shire","CC_2":"20110","HASC_2":"AU.VI.AL","name":"Alpine.county"},
"geometry":{"type": "MultiPolygon","coordinates": [[[[146.6516,-37.12,1526.4429],[146.6552,-37.1224,1287.0635],[146.6652,-37.1243,1078.7167],[146.6689,-37.1301,998.3627],[146.672,-37.1304,974.0325],[146.6813,-37.137,853.5141],[146.6823,-37.1418,810.5435],[146.6811,-37.1427,810.5435],[146.6845,-37.145,796.4284],[146.689,-37.1454,768.4805],[146.6936,-37.1501,753.9396],[146.7047,-37.1529,792.271],[146.7177,-37.1588,694.9728],[146.7244,-37.1583,726.9348],[146.7271,-37.156,697.3822],[146.7417,-37.1553,651.7357],[146.7441,-37.1564,657.5355],[146.7454,-37.1497,618.8005],[146.7466,-37.1504,618.8005],[146.7513,-37.1474,630.8621],[146.7551,-37.1501,620.1611],[146.7578,-37.1471,598.4819],[146.7633,-37.1459,585.7775],[146.763,-37.1478,593.0588],[146.7708,-37.1505,589.3052],[146.7726,-37.1551,574.8421],[146.7762,-37.1584,612.4105],[146.7774,-37.164,559.5],[146.7805,-37.1651,570.4135],[146.7823,-37.1678,600.7468],[146.7823,-37.1713,576.3461],[146.7879,-37.1777,544.9216],[146.7978,-37.1801,537.2119],[146.8042,-37.1843,528.7839],[146.8036,-37.1857,523.6127],[146.814,-37.1863,510.1143],[146.8154,-37.1888,510.1116],[146.8233,-37.1918,513.5121],[146.8261,-37.1984,496.4033],[146.8247,-37.1998,485.4346],[146.826,-37.2037,490.0508],[146.8296,-37.203,487.433],[147.337,-37.2755,1270.2249],[147.3848,-37.2115,1370.8252],[147.3824,-37.2084,1352.4403],[147.3846,-37.2045,1297.1016],[147.3835,-37.2022,1302.0796],[147.3742,-37.1988,1318.7526],[147.3691,-37.1986,1314.6605],[147.3679,-37.1952,1311.0684],[147.3616,-37.1898,1340.5437],[147.3585,-37.1802,1332.3893],[147.3464,-37.1706,1295.7112],[147.3472,-37.1676,1274.0582],[147.3445,-37.1607,1264.4875],[147.3382,-37.1576,1265.1304],[147.336,-37.1539,1233.4302],[147.3315,-37.1531,1266.8801],[147.3322,-37.1496,1269.9048],[147.3293,-37.1471,1246.9602],[147.3287,-37.1437,1202.3136],[147.3251,-37.1417,1174.7418],[147.3285,-37.1333,1211.9352],[147.3277,-37.1281,1251.6577],[147.3235,-37.1253,1254.7156],[147.3254,-37.1214,1241.0527],[147.3157,-37.1138,1255.3418],[147.3592,-37.1143,1048.5712],[147.3636,-37.1098,1027.9167],[147.3624,-37.107,1044.0851],[147.365,-37.1015,1015.109],[147.3672,-37.1011,1038.5514],[147.37,-37.1033,1043.2368],[147.3733,-37.1001,1020.2371],[147.3754,-37.1008,1023.1614],[147.3805,-37.0987,1017.3381],[147.3793,-37.0912,1115.5132],[147.3817,-37.0881,1139.8409],[147.3828,-37.0826,1220.6177],[147.3808,-37.0816,1236.3455],[147.3803,-37.0587,1117.9907],[147.3905,-37.0524,919.674],[147.3895,-37.0485,963.4574],[147.3855,-37.0494,932.6952],[147.3859,-37.0476,974.1121],[147.3922,-37.0457,934.6694],[147.3902,-37.0452,931.0539],[147.3895,-37.042,960.2431],[147.3879,-37.0416,972.5076],[147.3909,-37.0395,947.4004],[147.388,-37.0353,977.2667],[147.3891,-37.0314,965.5733],[147.3867,-37.03,962.4041],[147.3714,-37.03,965.1459],[147.3622,-37.0346,1009.8301],[147.3553,-37.0328,1004.9489],[147.3506,-37.0365,994.2997],[147.3493,-37.0361,985.2906],[147.349,-37.0326,1003.1964],[147.3421,-37.0319,999.465],[147.3422,-37.0297,998.301],[147.3388,-37.0287,1005.6832],[147.3367,-37.0297,1027.2468],[147.3183,-37.0208,1050.5945],[147.3135,-37.0199,1048.9329],[147.3054,-37.0121,1050.1013],[147.2982,-37.0105,1083.0652],[147.2938,-37.007,1058.7094],[147.2849,-37.0053,1073.4677],[147.2807,-37.0084,1082.3914],[147.2745,-37.009,1081.1927],[147.2694,-37.0088,1110.1487],[147.2678,-37.0059,1150.927],[147.2633,-37.0067,1169.8458],[147.2811,-36.9264,1818.9709],[147.2883,-36.9233,1732.6116],[147.2928,-36.917,1700.1476],[147.2894,-36.9101,1693.3801],[147.2892,-36.9052,1694.7806],[147.2949,-36.901,1716.1875],[147.2972,-36.895,1702.7568],[147.3005,-36.8934,1671.1169],[147.3001,-36.8899,1661.9231],[147.307,-36.8908,1627.9182],[147.3071,-36.8829,1627.8861],[147.3166,-36.8848,1638.0466],[147.3208,-36.8826,1606.165],[147.322,-36.8799,1609.9918],[147.3175,-36.8762,1605.667],[147.3173,-36.8742,1612.8396],[147.323,-36.8712,1623.0355],[147.3243,-36.8675,1644.8066],[147.329,-36.8652,1693.4563],[147.3376,-36.866,1739.5118],[147.3417,-36.8618,1742.0009],[147.3398,-36.8566,1749.7014],[147.3421,-36.8509,1755.5952],[147.3358,-36.8445,1864.3176],[147.3354,-36.8419,1859.3685],[147.3384,-36.838,1855.4504],[147.3333,-36.8299,1844.6923],[147.3211,-36.8288,1872.8458],[147.3181,-36.8315,1819.1125],[147.3146,-36.8316,1768.4147],[147.3104,-36.8305,1773.3538],[147.3075,-36.8275,1750.7054],[147.3027,-36.8319,1751.7297],[147.2942,-36.828,1768.6464],[147.2829,-36.827,1827.3612],[147.2921,-36.8226,1661.9846],[147.2935,-36.811,1635.348],[147.275,-36.7933,1619.9891],[147.2729,-36.7881,1561.043],[147.2688,-36.7838,1657.1897],[147.2679,-36.7798,1643.863],[147.2693,-36.7768,1600.4349],[147.277,-36.7731,1414.6705],[147.2798,-36.7676,1352.7723],[147.2858,-36.7684,1470.4177],[147.2903,-36.7657,1540.556],[147.2923,-36.7565,1599.9125],[147.288,-36.753,1706.1904],[147.2889,-36.7403,1961.2163],[147.2905,-36.7378,1949.1053],[147.2966,-36.7339,1909.8315],[147.3124,-36.7317,1940.6486],[147.3148,-36.7239,1702.2755],[147.3109,-36.7122,1439.2938],[147.3147,-36.7077,1255.9049],[147.3142,-36.7007,1114.6001],[147.3084,-36.6898,1214.6453],[147.2961,-36.6856,1075.5443],[147.2905,-36.682,1154.2532],[147.286,-36.6842,1191.0225],[147.2775,-36.683,1132.421],[147.2683,-36.6766,1061.762],[147.2608,-36.677,1079.8656],[147.2549,-36.6709,1112.1006],[147.2481,-36.675,1154.3687],[147.2423,-36.6734,1158.2383],[147.2337,-36.6741,1192.8018],[147.2277,-36.6709,1345.6018],[147.2157,-36.671,1291.02],[147.207,-36.6647,1160.5521],[147.1999,-36.6501,1092.2224],[147.1888,-36.6446,1031.8169],[147.185,-36.641,1064.0408],[147.1805,-36.6412,1027.9762],[147.1733,-36.6388,1061.4349],[147.1735,-36.6339,1032.5554],[147.1675,-36.63,1007.3088],[147.1674,-36.6252,1100.556],[147.1749,-36.6162,1160.7896],[147.1739,-36.6127,1114.7295],[147.1753,-36.6071,1047.3776],[147.172,-36.6025,1074.1079],[147.1682,-36.5868,1068.1742],[147.1703,-36.583,1149.8384],[147.1651,-36.5786,1007.0431],[147.165,-36.5717,1011.5917],[147.1612,-36.5668,1190.6748],[147.1553,-36.5645,1127.2866],[147.1485,-36.5642,1084.4657],[147.148,-36.5599,1022.2844],[147.1424,-36.5556,975.0812],[147.1259,-36.5514,1276.6377],[147.127,-36.5388,1135.0322],[147.1292,-36.5331,1229.5665],[147.1211,-36.5248,1125.7579],[147.1237,-36.5205,1066.3987],[147.1181,-36.5198,1058.8801],[147.1144,-36.5124,914.1839],[147.1119,-36.5037,932.4662],[147.1181,-36.4998,924.537],[147.1142,-36.4995,912.035],[147.1128,-36.4955,886.0816],[147.1102,-36.4954,887.6029],[147.1089,-36.4892,864.7103],[147.1069,-36.4877,926.0046],[147.1081,-36.4851,872.076],[147.1131,-36.4826,901.4619],[147.1093,-36.4816,907.0607],[147.1084,-36.4799,887.7],[147.1098,-36.4727,866.6095],[147.1139,-36.4702,854.1828],[147.1156,-36.4714,801.7772],[147.118,-36.4693,841.5172],[147.1185,-36.4653,914.1883],[147.1256,-36.4677,876.2982],[147.1218,-36.4646,944.8981],[147.1208,-36.4591,894.8554],[147.1237,-36.4544,870.7635],[147.1233,-36.4483,929.7085],[147.1254,-36.4479,987.3589],[147.1208,-36.425,749.5443],[147.0906,-36.4209,533.771],[147.0836,-36.4229,430.1235],[147.0815,-36.4178,358.0325],[147.0461,-36.4273,210.8799],[147.0468,-36.4249,209.1256],[147.0455,-36.4238,208.1187],[147.0482,-36.4232,206.7915],[147.0479,-36.4217,207.2463],[147.0459,-36.4216,208.7191],[147.048,-36.4203,206.422],[147.048,-36.4188,205.7776],[147.0465,-36.4191,206.1645],[147.0475,-36.4172,205.9784],[147.044,-36.4171,206.5016],[147.0453,-36.4156,206.5208],[147.0432,-36.415,205.6832],[147.0374,-36.4165,204.7449],[147.0394,-36.4125,203.4172],[147.0374,-36.41,206.1019],[147.0397,-36.4083,203.3002],[147.0359,-36.4045,214.6441],[147.0377,-36.4045,205.2069],[147.0367,-36.4025,215.4177],[147.0401,-36.4017,206.4536],[147.0377,-36.4003,201.902],[147.0395,-36.3996,201.6414],[147.039,-36.3977,204.8208],[147.043,-36.3946,202.7519],[147.0436,-36.3969,200.8228],[147.0457,-36.3949,197.8533],[147.0442,-36.3941,199.5451],[147.0383,-36.3952,201.8855],[147.0176,-36.3927,356.5165],[146.9348,-36.4083,1027.0159],[146.933,-36.4176,760.48],[146.9224,-36.4163,600.9349],[146.9208,-36.4246,496.9953],[146.9146,-36.4237,475.6469],[146.9133,-36.4293,467.4975],[146.9146,-36.4301,476.9915],[146.9021,-36.4306,501.1057],[146.8973,-36.4352,489.8387],[146.892,-36.435,491.4882],[146.8815,-36.4543,399.4319],[146.8649,-36.4522,391.4327],[146.869,-36.4447,417.7484],[146.8526,-36.4426,498.5466],[146.8509,-36.4514,417.7149],[146.8035,-36.4466,993.1537],[146.8033,-36.4514,1027.6309],[146.7258,-36.4592,836.9561],[146.7214,-36.4657,817.6285],[146.7225,-36.4687,798.9798],[146.7196,-36.4724,816.8586],[146.7197,-36.4767,805.2297],[146.714,-36.4791,738.981],[146.7119,-36.4816,687.7419],[146.7009,-36.4817,636.524],[146.6952,-36.4799,609.3323],[146.6888,-36.4838,587.793],[146.6813,-36.4835,487.3609],[146.6826,-36.485,468.2459],[146.6714,-36.4915,435.7829],[146.6577,-36.4884,322.0347],[146.6567,-36.4908,320.5272],[146.6534,-36.4892,306.5164],[146.6483,-36.4909,293.5334],[146.6467,-36.5,289.8772],[146.6434,-36.4996,315.4765],[146.6426,-36.5041,293.8043],[146.6488,-36.5048,277.35],[146.6475,-36.5116,235.6371],[146.6394,-36.5158,217.891],[146.6343,-36.5225,190.4563],[146.6438,-36.5284,192.0917],[146.6453,-36.5258,196.2679],[146.6483,-36.5248,195.9064],[146.6545,-36.5272,195.8127],[146.6564,-36.5246,196.2611],[146.656,-36.5203,196.5157],[146.6615,-36.5237,198.5536],[146.6632,-36.5282,193.483],[146.6702,-36.5357,195.991],[146.6674,-36.536,206.2947],[146.6658,-36.54,228.0287],[146.6612,-36.539,204.0877],[146.6615,-36.5449,248.4743],[146.6591,-36.548,256.6829],[146.6582,-36.5529,286.8932],[146.6668,-36.5581,334.4522],[146.6709,-36.5585,345.4669],[146.6693,-36.5615,391.5208],[146.6705,-36.569,517.108],[146.6628,-36.5726,578.7582],[146.6604,-36.5774,554.9487],[146.6478,-36.5903,546.1577],[146.6472,-36.5967,544.6078],[146.6494,-36.601,576.5851],[146.6449,-36.6096,562.6542],[146.6448,-36.6142,556.577],[146.6391,-36.6178,586.9363],[146.6366,-36.6225,588.2334],[146.6263,-36.6269,613.8044],[146.622,-36.6313,608.1849],[146.623,-36.6394,667.0441],[146.6187,-36.6422,652.3071],[146.6196,-36.6445,625.5507],[146.6169,-36.647,605.9605],[146.6155,-36.6531,598.9391],[146.6194,-36.6579,583.5285],[146.6187,-36.6641,584.6725],[146.6218,-36.668,609.691],[146.6226,-36.6719,601.8004],[146.6261,-36.6733,608.5409],[146.6274,-36.6763,646.5464],[146.6311,-36.6788,623.6064],[146.6309,-36.6828,601.6038],[146.6245,-36.685,533.9676],[146.6259,-36.6871,571.9868],[146.6216,-36.6905,529.3385],[146.6184,-36.6984,547.6385],[146.6085,-36.7039,542.3312],[146.6077,-36.7081,553.2778],[146.6045,-36.7081,509.7807],[146.6054,-36.7108,528.7408],[146.6021,-36.7118,490.8924],[146.6002,-36.7108,482.3556],[146.5998,-36.7133,510.2689],[146.5665,-36.7411,1057.6636],[146.6315,-36.8053,291.8127],[146.6426,-36.8128,416.975],[146.6405,-36.816,463.2177],[146.6412,-36.8292,683.061],[146.6391,-36.8318,682.9865],[146.6376,-36.8391,695.6144],[146.6378,-36.8467,754.9402],[146.6272,-36.8531,857.2517],[146.6257,-36.8566,850.4918],[146.635,-36.8683,803.888],[146.6439,-36.8698,833.925],[146.6444,-36.8779,823.8382],[146.6419,-36.8819,846.3132],[146.643,-36.8877,805.3673],[146.6455,-36.8914,895.0429],[146.6419,-36.8997,928.6938],[146.6401,-36.9103,924.3384],[146.6447,-36.9149,955.3176],[146.6451,-36.9209,989.8346],[146.6504,-36.9261,1062.4757],[146.6458,-36.9306,997.9437],[146.6436,-36.9352,958.8946],[146.6485,-36.9395,879.3484],[146.6501,-36.9444,907.7703],[146.6537,-36.9478,926.264],[146.6551,-36.9554,961.1624],[146.6526,-36.9585,915.5595],[146.6553,-36.9622,944.5261],[146.6546,-36.9701,955.4293],[146.6582,-36.9708,965.0197],[146.6629,-36.9779,928.9945],[146.6679,-36.9817,928.2601],[146.6723,-36.9828,1023.3397],[146.674,-37.1133,1454.2131],[146.6688,-37.1148,1380.3386],[146.661,-37.114,1267.236],[146.6563,-37.117,1411.4232],[146.6525,-37.1164,1481.0621],[146.6516,-37.12,1526.4429]],
[[147.2572,-36.8419,1222.5189],[147.2584,-36.8364,1234.7285],[147.2677,-36.841,1228.4967],[147.2713,-36.8461,1258.7603],[147.2738,-36.8464,1310.6285],[147.2776,-36.859,1426.7214],[147.288,-36.862,1504.8655],[147.2906,-36.8657,1510.751],[147.2898,-36.8698,1589.168],[147.2925,-36.8714,1572.109],[147.2838,-36.8787,1630.5621],[147.2717,-36.8774,1626.078],[147.2624,-36.8832,1670.012],[147.245,-36.8834,1603.1621],[147.235,-36.8716,1523.1772],[147.2364,-36.871,1477.9973],[147.235,-36.8695,1469.6069],[147.2381,-36.8684,1511.2759],[147.2402,-36.8715,1696.6414],[147.2412,-36.871,1645.7538],[147.2394,-36.8681,1543.8074],[147.2478,-36.8661,1487.4473],[147.2464,-36.8642,1439.2268],[147.2419,-36.8641,1399.1764],[147.241,-36.8591,1394.1404],[147.2484,-36.849,1310.8086],[147.2455,-36.8463,1237.0686],[147.2452,-36.8436,1259.1848],[147.2572,-36.8419,1222.5189]],
[[147.173,-37.0095,1333.856],[147.1688,-37.0088,1283.2478],[147.1662,-37.0102,1228.8662],[147.1652,-37.006,1292.9509],[147.1623,-37.0057,1439.0551],[147.1571,-37.0068,1305.0486],[147.1527,-37.0101,1224.0796],[147.1526,-37.012,1191.6183],[147.1449,-37.0077,1227.5353],[147.1397,-37.004,1253.8823],[147.1441,-36.9969,1493.4263],[147.1456,-36.9884,1787.4211],[147.1444,-36.9858,1775.7472],[147.1381,-36.9846,1617.8594],[147.1328,-36.9898,1374.3926],[147.1332,-36.9967,1281.8848],[147.1266,-36.9946,1335.0986],[147.1227,-36.9998,1603.7108],[147.1046,-37.0027,1610.6544],[147.0736,-37.0174,1440.7606],[147.074,-37.0134,1459.3689],[147.0625,-37.0049,1098.8905],[147.0613,-36.9978,1457.272],[147.0643,-36.9963,1312.5895],[147.0808,-37.0018,1491.8176],[147.0971,-37.0021,1572.1852],[147.121,-36.9722,1668.3047],[147.1255,-36.9702,1646.8768],[147.1278,-36.9654,1564.3853],[147.1326,-36.9643,1508.9357],[147.1309,-36.9633,1548.6024],[147.134,-36.9621,1541.0994],[147.1343,-36.9585,1437.4219],[147.1441,-36.9593,1603.5669],[147.1501,-36.9581,1728.46],[147.1618,-36.9721,1745.4713],[147.1671,-36.9909,1442.9937],[147.1719,-36.987,1489.3612],[147.1762,-36.9872,1470.9746],[147.1751,-36.9831,1478.517],[147.1774,-36.9818,1504.9235],[147.1873,-36.9835,1470.8228],[147.1915,-36.9879,1457.5029],[147.1894,-36.9909,1464.7029],[147.1844,-36.991,1517.7836],[147.1832,-36.9953,1479.877],[147.188,-36.9966,1480.1378],[147.1877,-36.9996,1480.0934],[147.193,-37.0062,1477.7241],[147.1981,-37.0217,1585.5225],[147.197,-37.0224,1588.0627],[147.194,-37.0197,1612.6472],[147.1899,-37.0134,1592.0402],[147.1799,-37.0096,1550.338],[147.173,-37.0095,1333.856]]]]}}