{"type":"Feature","properties":{"GID_2":"AUS.11.104_1","GID_0":"AUS","country":"Australia","GID_1":"AUS.11_1","state":"WesternAustralia","NL_NAME_1":"NA","county":"PortHedland","VARNAME_2":"NA","NL_NAME_2":"NA","TYPE_2":"Town","ENGTYPE_2":"Town","CC_2":"57280","HASC_2":"AU.WA.PO","name":"PortHedland.county"},
"geometry":{"type": "MultiPolygon","coordinates": [[[[117.7564,-20.5888,0.9584],[117.7535,-20.5911,0.0],[117.7605,-20.5894,4.7876],[117.768,-20.5849,0.0],[117.7652,-20.5851,2.5476],[117.7564,-20.5888,0.9584]]],
[[[117.7795,-20.5847,7.6249],[117.7763,-20.5842,0.9706],[117.7757,-20.5822,1.0538],[117.7719,-20.5824,0.0],[117.7697,-20.5845,0.0],[117.7751,-20.5898,0.0],[117.781,-20.5876,6.5696],[117.7795,-20.5847,7.6249]]],
[[[117.9626,-20.5479,0.8829],[117.9621,-20.5484,2.1751],[117.9629,-20.549,2.1751],[117.9635,-20.5484,2.0066],[117.9626,-20.5479,0.8829]]],
[[[117.8703,-20.522,2.4395],[117.8742,-20.5162,0.0],[117.8707,-20.5161,0.0],[117.854,-20.5286,1.7834],[117.8451,-20.5375,0.8006],[117.8452,-20.5392,2.0535],[117.856,-20.533,0.8683],[117.8608,-20.5333,0.0],[117.8703,-20.522,2.4395]]],
[[[117.9558,-20.4853,0.5],[117.9552,-20.4866,1.6721],[117.9565,-20.4873,1.6721],[117.9564,-20.4855,0.5],[117.9558,-20.4853,0.5]]],
[[[117.9611,-20.4745,0.0],[117.9604,-20.4741,0.0],[117.9581,-20.4752,0.0],[117.9597,-20.4758,0.0],[117.9611,-20.4745,0.0]]],
[[[117.9273,-20.4726,0.0],[117.9281,-20.4748,0.0],[117.9324,-20.4745,0.0],[117.9316,-20.4706,0.0],[117.9273,-20.4726,0.0]]],
[[[117.9183,-20.4768,0.897],[117.9217,-20.4745,10.4558],[117.9254,-20.4743,4.2293],[117.9308,-20.4645,0.379],[117.9265,-20.4665,7.5645],[117.9183,-20.4768,0.897]]],
[[[117.9524,-20.4769,0.0],[117.9523,-20.4774,0.0],[117.953,-20.4774,0.0],[117.9524,-20.4769,0.0]]],
[[[117.9532,-20.4757,0.0],[117.9535,-20.4769,0.0],[117.9541,-20.4756,0.0],[117.9532,-20.4757,0.0]]],
[[[118.8946,-19.8896,0.0],[118.9,-19.8938,5.2697],[118.9021,-19.8919,9.1518],[118.8973,-19.8855,0.0],[118.8926,-19.8876,0.0],[118.8946,-19.8896,0.0]]],
[[[119.098,-19.5888,1.7414],[119.1001,-19.5926,1.5716],[119.101,-19.5882,4.2093],[119.0985,-19.5838,0.1725],[119.0972,-19.5869,2.7765],[119.098,-19.5888,1.7414]]],
[[[118.5318,-21.8098,341.2526],[118.5884,-21.8098,318.6624],[118.5884,-21.9604,467.9012],[118.7473,-21.9603,457.9323],[118.7473,-22.0013,428.4853],[119.0101,-22.0013,389.0366],[119.0114,-21.9836,376.7679],[119.0007,-21.9621,367.2432],[119.0007,-21.9115,350.064],[119.0623,-21.9115,376.2164],[119.0623,-21.8241,365.1709],[119.1811,-21.8241,362.9548],[119.1811,-21.6656,363.8277],[119.1223,-21.6656,371.2192],[119.1223,-21.5691,477.6351],[119.0569,-21.5691,319.712],[119.0569,-21.4892,280.2325],[119.0626,-21.4892,289.2325],[119.0626,-21.373,270.532],[118.8927,-21.373,220.4149],[118.8319,-21.2384,179.6588],[118.8319,-21.2345,181.7673],[118.8374,-21.2207,181.1674],[118.8377,-21.1748,174.7142],[118.8359,-21.1655,170.2387],[118.8308,-21.1564,169.3046],[118.8156,-21.1383,164.8685],[118.8012,-21.1383,158.5962],[118.8012,-21.1332,161.5726],[118.6968,-21.1332,152.463],[118.6968,-20.9144,143.4786],[118.8281,-20.9148,123.5549],[118.8283,-20.8564,115.404],[118.8201,-20.8565,113.5015],[118.8201,-20.8118,103.8811],[118.9156,-20.8119,129.2948],[118.9157,-20.6324,93.2213],[118.994,-20.6324,95.7847],[118.994,-20.6228,87.3746],[118.9882,-20.6229,88.2638],[118.988,-20.5898,82.0795],[119.1844,-20.5898,52.7088],[119.1844,-20.5828,51.8211],[119.3973,-20.5828,57.2915],[119.3973,-20.3648,32.6688],[119.512,-20.3648,69.6251],[119.512,-20.0458,0.0],[119.4966,-20.0333,0.0],[119.4916,-20.0258,0.4988],[119.4885,-20.025,0.5292],[119.4903,-20.018,2.351],[119.4749,-20.0127,0.0],[119.471,-20.0057,0.3315],[119.4698,-20.0113,4.6741],[119.4661,-20.0133,1.1573],[119.4515,-20.0144,0.0],[119.4501,-20.0177,0.0],[119.443,-20.0172,0.0],[119.4389,-20.0161,1.3458],[119.44,-20.0119,0.0],[119.4322,-20.0063,8.7562],[119.4296,-20.0014,5.8629],[119.4199,-19.995,0.8648],[119.4152,-19.9945,0.0],[119.4122,-19.995,0.8537],[119.4069,-19.9991,0.9068],[119.3855,-19.9988,0.0],[119.3846,-20.0025,0.0],[119.3819,-20.0048,2.6625],[119.3814,-20.0032,0.1989],[119.3769,-20.0054,1.5159],[119.3744,-20.0037,0.0],[119.3717,-20.0081,1.2031],[119.3686,-20.0073,3.2046],[119.3711,-20.0069,2.1984],[119.3747,-20.0025,2.9612],[119.3776,-20.0038,1.1126],[119.3796,-20.0031,0.2232],[119.3812,-19.9964,0.0],[119.3734,-19.9915,1.5701],[119.3673,-19.9919,0.5894],[119.3383,-19.9862,0.0],[119.3237,-19.9884,1.307],[119.3208,-19.9904,2.6135],[119.3224,-19.9875,0.0],[119.3201,-19.9887,0.0],[119.3053,-19.9827,0.0],[119.2856,-19.9781,2.9518],[119.2725,-19.977,1.7486],[119.2718,-19.9758,1.4148],[119.2752,-19.9751,0.0],[119.2583,-19.9721,0.5117],[119.2426,-19.9645,0.0],[119.2405,-19.9691,0.0],[119.2415,-19.9711,0.4549],[119.2436,-19.9707,2.9151],[119.2449,-19.9676,2.7007],[119.2485,-19.9706,3.0234],[119.2449,-19.9686,3.1226],[119.2437,-19.972,2.9061],[119.24,-19.9717,2.0935],[119.2389,-19.9687,2.3899],[119.24,-19.9649,0.0],[119.2381,-19.9614,0.0],[119.2183,-19.9532,0.6179],[119.193,-19.9507,0.0],[119.1853,-19.9514,0.4393],[119.1736,-19.9577,0.0],[119.1716,-19.9566,0.0],[119.1731,-19.9626,0.0],[119.1685,-19.9769,0.0235],[119.1679,-19.9886,0.0],[119.1736,-19.9913,3.6174],[119.1762,-19.9945,3.8686],[119.175,-19.9941,3.5775],[119.1762,-19.9992,3.8301],[119.1748,-19.9986,3.5831],[119.1725,-19.9921,3.48],[119.1681,-19.9919,0.5996],[119.1722,-20.0077,1.3826],[119.1741,-20.0092,0.635],[119.1895,-20.0115,2.3968],[119.1883,-20.0126,2.3968],[119.1917,-20.0147,2.5537],[119.1943,-20.014,3.4738],[119.2106,-20.0173,3.2111],[119.2125,-20.0212,0.7469],[119.2071,-20.0237,0.7735],[119.1957,-20.0195,3.2715],[119.1901,-20.0206,1.6581],[119.18,-20.0184,0.4759],[119.1744,-20.0152,3.4571],[119.1684,-20.0152,3.4932],[119.1587,-20.0041,2.4172],[119.1606,-20.0121,3.9678],[119.1572,-20.007,3.3559],[119.156,-19.994,0.288],[119.1507,-19.9861,1.4336],[119.1508,-19.9829,0.4083],[119.1471,-19.9786,0.4949],[119.136,-19.9707,0.0],[119.1187,-19.9617,0.0],[119.1068,-19.9591,0.0],[119.0997,-19.9593,0.0],[119.0966,-19.9606,0.0],[119.0883,-19.9704,0.0],[119.0875,-19.9799,0.0],[119.0895,-19.9807,3.6158],[119.0913,-19.984,3.4039],[119.0925,-19.981,3.8988],[119.0935,-19.9818,3.135],[119.0918,-19.9855,3.4689],[119.0937,-19.9885,2.8595],[119.0901,-19.9887,0.5176],[119.092,-19.9909,1.7051],[119.088,-19.9926,0.0],[119.0868,-19.9963,1.9623],[119.0684,-20.0154,0.0],[119.0535,-20.0232,0.2323],[119.0431,-20.0219,0.0],[119.04,-20.0245,0.0],[119.042,-20.0274,1.6286],[119.0371,-20.026,0.0],[119.0317,-20.0275,0.3663],[119.0312,-20.0298,3.2475],[119.0246,-20.0292,0.0],[119.0235,-20.0301,2.8003],[119.0244,-20.0311,2.8003],[119.0222,-20.0313,3.0291],[119.0222,-20.0297,2.8764],[119.0265,-20.0266,0.0],[119.0122,-20.0336,0.8093],[119.0033,-20.0352,0.0],[118.9954,-20.0346,0.0],[118.9938,-20.0358,0.0],[118.9854,-20.0552,0.0],[118.9829,-20.0737,0.0],[118.9764,-20.0955,1.1225],[118.9679,-20.1136,0.0],[118.9591,-20.127,0.0],[118.9409,-20.1448,7.3387],[118.9247,-20.1531,1.2434],[118.9091,-20.1579,0.0],[118.8965,-20.1678,0.0],[118.8795,-20.1943,0.9511],[118.8673,-20.2091,0.0],[118.863,-20.2167,1.1159],[118.8603,-20.2254,0.0],[118.8607,-20.2275,0.3776],[118.8626,-20.2214,4.9585],[118.8629,-20.2318,0.2984],[118.865,-20.2364,0.0],[118.8745,-20.239,0.3352],[118.8782,-20.2425,1.329],[118.8789,-20.2438,2.8998],[118.8735,-20.2489,3.5],[118.8715,-20.2537,3.5],[118.8753,-20.2593,3.5],[118.8827,-20.2611,3.5],[118.8738,-20.2602,3.5],[118.8695,-20.2534,3.5],[118.8719,-20.247,3.5],[118.8761,-20.2449,3.5],[118.8745,-20.2423,0.4126],[118.863,-20.2386,0.0],[118.8597,-20.233,0.0],[118.8531,-20.2299,2.7405],[118.8521,-20.2282,0.9113],[118.8539,-20.228,0.0],[118.8513,-20.2255,0.0],[118.8421,-20.2306,0.2818],[118.8353,-20.2453,1.756],[118.8398,-20.2483,1.1246],[118.8327,-20.2499,0.3724],[118.8298,-20.2589,1.3039],[118.8362,-20.2607,0.5738],[118.841,-20.2653,0.8266],[118.8447,-20.2614,2.3073],[118.8473,-20.2623,3.1606],[118.8406,-20.2661,0.8266],[118.8377,-20.2655,3.2817],[118.8342,-20.2619,3.6269],[118.8324,-20.2623,0.8008],[118.8288,-20.2652,0.0],[118.8294,-20.2711,0.9488],[118.8278,-20.2727,0.7514],[118.8428,-20.2804,0.7202],[118.8458,-20.2869,0.0],[118.8493,-20.2895,3.2983],[118.8525,-20.2893,2.7886],[118.8603,-20.2821,1.4103],[118.8548,-20.2906,1.1572],[118.8463,-20.2897,0.7515],[118.8408,-20.2821,3.8631],[118.8226,-20.276,2.0275],[118.8217,-20.2766,0.0],[118.8237,-20.2797,2.4035],[118.8206,-20.2863,1.9928],[118.8244,-20.2855,1.9883],[118.8209,-20.2878,1.9928],[118.8185,-20.2858,2.7061],[118.8215,-20.2815,2.8623],[118.8207,-20.278,1.2815],[118.8158,-20.281,0.0],[118.806,-20.2811,0.7381],[118.8044,-20.2832,0.0],[118.8082,-20.2842,0.5388],[118.8059,-20.2881,2.6866],[118.8067,-20.2847,1.0562],[118.8043,-20.2855,2.5201],[118.7978,-20.2789,0.0],[118.7932,-20.2811,2.3272],[118.7801,-20.283,1.6845],[118.7682,-20.2817,2.1301],[118.7629,-20.2861,0.0],[118.7509,-20.2875,0.0],[118.7395,-20.2958,0.6882],[118.7164,-20.3071,0.0],[118.6903,-20.3158,0.3395],[118.6768,-20.3267,0.0],[118.6774,-20.328,0.8758],[118.6806,-20.3271,3.9553],[118.6839,-20.3239,3.2979],[118.6873,-20.3272,0.9552],[118.6841,-20.326,1.1897],[118.6787,-20.3303,1.9662],[118.6796,-20.3354,2.9368],[118.6778,-20.3374,4.9813],[118.6783,-20.3403,4.0477],[118.6766,-20.3396,3.0993],[118.6767,-20.3375,1.6071],[118.6657,-20.3429,4.246],[118.6647,-20.3423,3.2895],[118.6671,-20.3397,5.0926],[118.6737,-20.3353,0.7631],[118.6745,-20.3323,3.8219],[118.6679,-20.3288,0.4835],[118.6551,-20.3311,3.5],[118.6544,-20.3304,3.5],[118.6667,-20.3268,3.1458],[118.6673,-20.3253,0.6305],[118.6523,-20.3159,1.0391],[118.6418,-20.3125,7.4736],[118.6384,-20.3063,4.2482],[118.6392,-20.3017,5.6196],[118.6414,-20.3012,3.9222],[118.6405,-20.2986,1.0895],[118.6314,-20.2987,1.3413],[118.6146,-20.3059,0.0],[118.5981,-20.3082,7.1547],[118.5941,-20.3041,3.55],[118.5965,-20.2891,0.0],[118.5975,-20.2881,0.0],[118.5994,-20.2912,0.0],[118.6004,-20.2905,0.0],[118.598,-20.2866,0.0],[118.5954,-20.2902,0.0],[118.5902,-20.3027,0.8913],[118.5894,-20.307,2.9559],[118.591,-20.3081,9.5709],[118.5784,-20.3085,0.8896],[118.5744,-20.3109,3.3364],[118.573,-20.3162,5.2274],[118.5885,-20.3246,2.3758],[118.5865,-20.3258,0.0],[118.5871,-20.3271,0.0],[118.5918,-20.3297,0.0],[118.6032,-20.3246,0.0],[118.6068,-20.3246,1.9488],[118.6105,-20.3271,0.4707],[118.6156,-20.3265,0.5005],[118.6242,-20.3332,1.3592],[118.6251,-20.3295,2.5772],[118.6296,-20.3344,2.2726],[118.6264,-20.3334,2.7955],[118.6238,-20.3348,2.1239],[118.6253,-20.336,2.1239],[118.6238,-20.336,2.1239],[118.616,-20.329,0.7296],[118.6123,-20.3316,3.2714],[118.6085,-20.3316,2.0839],[118.6157,-20.3406,3.1154],[118.62,-20.3419,2.964],[118.6173,-20.3424,2.3766],[118.6135,-20.341,1.6249],[118.6124,-20.3374,1.357],[118.6056,-20.3312,0.0],[118.5874,-20.3354,0.6753],[118.5918,-20.3408,1.0361],[118.6005,-20.3452,0.0],[118.6029,-20.3491,0.9729],[118.6084,-20.3466,1.8482],[118.6128,-20.3475,1.8647],[118.6031,-20.3515,2.7215],[118.5967,-20.3449,1.4805],[118.5942,-20.35,1.8637],[118.5951,-20.3521,3.2477],[118.5978,-20.353,1.6362],[118.5959,-20.3545,2.1043],[118.5934,-20.3519,1.3302],[118.5928,-20.3449,3.6719],[118.5912,-20.3437,2.0287],[118.5885,-20.3443,2.8803],[118.5853,-20.3393,0.6396],[118.5802,-20.3373,0.0],[118.5784,-20.339,0.0],[118.5802,-20.343,1.7202],[118.5794,-20.3454,0.0],[118.5832,-20.3506,5.0472],[118.5786,-20.3577,2.528],[118.581,-20.35,1.1712],[118.5782,-20.3462,2.7388],[118.576,-20.3378,0.8925],[118.5761,-20.3434,1.6659],[118.572,-20.3464,2.4015],[118.5713,-20.3452,1.4878],[118.5747,-20.3431,1.6659],[118.5728,-20.3392,1.4938],[118.574,-20.3335,2.9427],[118.5762,-20.3323,2.887],[118.5744,-20.328,0.6556],[118.569,-20.3312,0.0],[118.5682,-20.3389,2.5357],[118.5666,-20.3358,1.9394],[118.563,-20.3354,1.7166],[118.5609,-20.3437,3.8228],[118.5567,-20.3463,3.4655],[118.5562,-20.3498,2.1955],[118.552,-20.3463,2.567],[118.5534,-20.34,2.3114],[118.5606,-20.3409,4.3839],[118.5608,-20.3378,0.9719],[118.5565,-20.3364,2.5339],[118.5561,-20.3344,3.0499],[118.5577,-20.3356,2.5299],[118.56,-20.3348,0.0],[118.5633,-20.3296,0.6694],[118.558,-20.3186,0.0],[118.5585,-20.3167,0.2671],[118.5609,-20.3176,2.5543],[118.5664,-20.3258,1.9684],[118.5695,-20.3225,2.213],[118.5654,-20.318,4.738],[118.5704,-20.3201,0.0],[118.5666,-20.3176,2.3442],[118.5681,-20.3155,5.7707],[118.5659,-20.3151,6.6206],[118.5637,-20.3108,8.2703],[118.5654,-20.308,6.2588],[118.5674,-20.3087,7.3492],[118.5668,-20.3054,9.0756],[118.5689,-20.3009,14.5773],[118.5737,-20.3016,0.3929],[118.5687,-20.2943,0.0],[118.562,-20.2944,0.0],[118.5263,-20.3054,0.4526],[118.5383,-20.3074,2.1697],[118.5473,-20.3048,1.9595],[118.5538,-20.3088,4.1618],[118.5573,-20.3136,0.7035],[118.5549,-20.3148,1.188],[118.5481,-20.3106,2.2645],[118.5454,-20.3183,0.0],[118.5468,-20.3209,3.3941],[118.5433,-20.3196,0.6821],[118.5405,-20.3217,0.7853],[118.5406,-20.3276,3.785],[118.546,-20.3311,2.4951],[118.5473,-20.3348,1.6578],[118.5433,-20.3385,2.4628],[118.5424,-20.3378,2.5588],[118.5456,-20.3344,1.6135],[118.5451,-20.3315,3.1028],[118.5388,-20.3294,0.0],[118.5339,-20.3312,2.6602],[118.5373,-20.3277,2.2982],[118.5366,-20.3244,0.9652],[118.5309,-20.3239,3.8571],[118.5321,-20.3226,3.516],[118.5364,-20.3226,1.1449],[118.5396,-20.3192,0.0],[118.54,-20.3135,0.0],[118.5367,-20.3117,3.5626],[118.5062,-20.3277,0.0],[118.5111,-20.3278,4.0715],[118.5146,-20.3304,0.4334],[118.5179,-20.3308,3.0884],[118.5128,-20.3314,3.7509],[118.513,-20.3339,3.9581],[118.5098,-20.3391,0.0],[118.5066,-20.3401,4.4255],[118.5063,-20.3429,0.0],[118.511,-20.3464,2.7332],[118.5084,-20.3464,3.3271],[118.5064,-20.3488,2.7182],[118.5045,-20.3405,0.0],[118.5112,-20.3321,0.5636],[118.5107,-20.3306,0.0],[118.503,-20.332,1.5631],[118.5006,-20.3342,3.3598],[118.491,-20.3343,0.0],[118.4866,-20.3305,0.0],[118.495,-20.3281,1.5914],[118.4875,-20.326,0.0],[118.4794,-20.3292,0.5546],[118.4857,-20.34,0.9227],[118.4936,-20.3406,3.3944],[118.4959,-20.3436,3.2201],[118.4958,-20.3468,2.2297],[118.4893,-20.351,1.0845],[118.4882,-20.3498,1.0845],[118.4939,-20.346,0.8305],[118.493,-20.3436,0.0],[118.4865,-20.3436,3.1093],[118.4858,-20.3463,3.73],[118.4806,-20.3468,2.655],[118.4775,-20.3495,2.9719],[118.4782,-20.3469,1.0962],[118.4686,-20.3442,0.0],[118.464,-20.3394,0.0],[118.4558,-20.3351,0.3332],[118.4489,-20.3372,2.6848],[118.4475,-20.3409,0.7565],[118.4499,-20.3427,4.7242],[118.4503,-20.3467,3.4939],[118.4482,-20.343,1.2118],[118.4445,-20.3421,0.6898],[118.4392,-20.3447,2.5177],[118.435,-20.3428,2.0071],[118.4303,-20.3459,4.8346],[118.428,-20.3447,4.1623],[118.4342,-20.3413,2.2668],[118.4391,-20.3428,1.3811],[118.4396,-20.3385,0.8375],[118.4312,-20.3374,0.0],[118.4237,-20.3396,4.7686],[118.4169,-20.3396,2.1989],[118.4121,-20.3442,1.8083],[118.4151,-20.3454,2.7217],[118.4089,-20.3492,1.1013],[118.4115,-20.3536,0.6817],[118.4107,-20.3566,0.8167],[118.4128,-20.358,5.0166],[118.4116,-20.3611,0.549],[118.4038,-20.3643,4.1902],[118.4094,-20.3585,4.9208],[118.4006,-20.3486,0.2459],[118.3913,-20.3475,0.4175],[118.3868,-20.3497,0.0],[118.386,-20.3521,1.8465],[118.3835,-20.3497,1.5343],[118.3791,-20.3514,3.4233],[118.3761,-20.3567,3.124],[118.3808,-20.362,2.5242],[118.3792,-20.3696,2.46],[118.379,-20.3612,2.345],[118.3723,-20.3583,0.73],[118.3729,-20.3513,0.0],[118.3687,-20.3514,0.4229],[118.3692,-20.3662,3.2797],[118.3678,-20.3696,5.9514],[118.3635,-20.3715,5.5572],[118.3655,-20.3731,4.0358],[118.3636,-20.374,2.7647],[118.3615,-20.3708,0.0],[118.3631,-20.3668,0.902],[118.3591,-20.3587,0.0],[118.3559,-20.36,0.0],[118.3518,-20.3581,2.5218],[118.348,-20.3601,4.2438],[118.3465,-20.3631,3.2859],[118.3441,-20.3601,1.1275],[118.3458,-20.358,2.4043],[118.3493,-20.3574,0.7543],[118.3459,-20.3559,3.0958],[118.3528,-20.3566,0.0],[118.3536,-20.3553,0.0],[118.3488,-20.3512,0.0],[118.3448,-20.3423,3.2908],[118.3461,-20.3299,0.7734],[118.3279,-20.341,2.6189],[118.3208,-20.341,0.7719],[118.3097,-20.3456,3.237],[118.3008,-20.3459,0.4946],[118.2888,-20.3486,0.6713],[118.2903,-20.3508,0.9384],[118.3035,-20.3494,9.1161],[118.3087,-20.3528,4.1348],[118.3105,-20.3562,4.7448],[118.3154,-20.3547,2.2394],[118.3165,-20.3557,2.2394],[118.3159,-20.3589,3.3012],[118.3178,-20.3609,2.7838],[118.3171,-20.3639,2.2869],[118.3183,-20.3654,1.7926],[118.3159,-20.3638,2.2869],[118.3174,-20.3618,3.3367],[118.3147,-20.3602,2.2506],[118.3148,-20.3561,1.8718],[118.3104,-20.3583,4.1579],[118.3101,-20.3626,2.8361],[118.3084,-20.3643,2.2125],[118.3093,-20.3601,3.6607],[118.3076,-20.3562,0.0],[118.2978,-20.3516,1.1161],[118.2926,-20.3539,1.5535],[118.295,-20.3551,6.5992],[118.2942,-20.3601,2.4052],[118.2891,-20.3607,0.0],[118.2886,-20.3633,2.8586],[118.2835,-20.3674,5.81],[118.2819,-20.364,2.2107],[118.2859,-20.3633,0.0],[118.285,-20.3592,0.0],[118.281,-20.3534,0.2615],[118.2573,-20.3589,1.5705],[118.2583,-20.3628,4.1529],[118.2524,-20.3696,1.3012],[118.2543,-20.372,2.7939],[118.2541,-20.375,3.5447],[118.2572,-20.3777,2.3253],[118.2539,-20.3777,0.8869],[118.251,-20.3732,3.8358],[118.2474,-20.3736,5.1318],[118.2465,-20.3707,0.2385],[118.2442,-20.3698,0.0],[118.2423,-20.3708,0.643],[118.2411,-20.3744,4.1919],[118.236,-20.3752,3.8482],[118.2402,-20.3719,0.0],[118.2388,-20.3699,0.0],[118.2327,-20.3681,0.6949],[118.2252,-20.3669,0.0],[118.2155,-20.3709,0.0],[118.2247,-20.3706,4.0513],[118.2139,-20.3732,2.029],[118.2111,-20.3793,0.0],[118.2004,-20.3897,5.2177],[118.2004,-20.3937,4.2403],[118.1962,-20.4038,3.3683],[118.1956,-20.3996,2.6638],[118.1983,-20.3952,4.1205],[118.1989,-20.3855,6.1389],[118.2007,-20.3869,0.7313],[118.202,-20.3814,2.291],[118.2067,-20.3798,0.6899],[118.2055,-20.3764,4.1373],[118.1977,-20.3756,2.8754],[118.1944,-20.3767,6.1022],[118.1934,-20.3798,5.453],[118.1914,-20.3772,3.6881],[118.1805,-20.3809,3.7212],[118.1777,-20.3799,2.9442],[118.1746,-20.3845,2.74],[118.1661,-20.3852,2.8405],[118.1651,-20.3829,2.6247],[118.1646,-20.3775,2.6313],[118.1659,-20.3759,2.4986],[118.1642,-20.3747,2.7079],[118.1653,-20.3715,3.3213],[118.1695,-20.369,2.7208],[118.1843,-20.365,2.9166],[118.1934,-20.3692,3.1638],[118.1924,-20.3715,3.0633],[118.1982,-20.3695,2.5511],[118.1933,-20.3655,4.5033],[118.1861,-20.3646,2.9273],[118.1805,-20.3602,2.6372],[118.1782,-20.3604,2.7301],[118.1801,-20.3581,2.5842],[118.1862,-20.358,3.0413],[118.1936,-20.3621,2.856],[118.1959,-20.3656,3.5313],[118.1975,-20.3638,4.362],[118.1998,-20.3689,2.5511],[118.1998,-20.3641,3.6843],[118.1976,-20.3612,1.7572],[118.1841,-20.356,2.9725],[118.185,-20.3542,3.341],[118.1874,-20.3552,3.3824],[118.1837,-20.3467,3.8301],[118.1766,-20.3517,2.7094],[118.1802,-20.3533,3.325],[118.176,-20.3549,2.7643],[118.1823,-20.354,2.9268],[118.1821,-20.356,2.8007],[118.1786,-20.356,2.8073],[118.1744,-20.3594,2.8831],[118.1736,-20.3582,2.8831],[118.1723,-20.3591,3.645],[118.1745,-20.355,3.1459],[118.1739,-20.354,2.6972],[118.1723,-20.3561,2.9369],[118.1713,-20.355,2.9369],[118.173,-20.3509,9.7268],[118.1848,-20.3456,3.1252],[118.19,-20.3556,5.2093],[118.1948,-20.3591,4.8599],[118.2002,-20.3601,1.9285],[118.1955,-20.3504,1.1025],[118.1946,-20.3404,0.0],[118.1964,-20.3401,0.0],[118.1967,-20.3379,0.0],[118.193,-20.3359,2.4791],[118.1816,-20.3364,7.147],[118.1609,-20.3579,5.0255],[118.1348,-20.3716,9.2618],[118.1286,-20.377,7.4152],[118.1103,-20.3877,0.0],[118.1091,-20.3923,4.3626],[118.1067,-20.3941,1.9185],[118.1068,-20.398,0.5285],[118.1085,-20.3981,4.2172],[118.1098,-20.4011,3.4536],[118.1035,-20.4004,2.6987],[118.1055,-20.397,0.6133],[118.105,-20.3944,0.3261],[118.1032,-20.3948,2.4814],[118.0948,-20.3983,0.0],[118.0702,-20.4158,0.0],[118.0501,-20.4221,1.6001],[118.0474,-20.4296,4.4971],[118.0387,-20.4415,0.0],[118.0258,-20.4535,0.0],[118.0178,-20.4587,0.0],[117.9923,-20.4722,4.368],[117.9525,-20.4792,0.0],[117.9546,-20.4808,1.1438],[117.9569,-20.4788,1.7959],[117.9596,-20.4799,3.7619],[117.9561,-20.4811,1.9096],[117.9575,-20.4853,3.9107],[117.9629,-20.4867,3.0905],[117.9653,-20.4911,3.5881],[117.9616,-20.4877,3.0905],[117.9557,-20.4884,3.4117],[117.9538,-20.4831,2.8171],[117.9503,-20.4813,1.0787],[117.9481,-20.4779,0.0],[117.9438,-20.4778,0.0],[117.9438,-20.4796,2.0756],[117.9392,-20.4816,1.2251],[117.9399,-20.4852,1.9581],[117.9424,-20.4862,4.4724],[117.9393,-20.4882,1.4383],[117.9433,-20.4976,4.5403],[117.9414,-20.5066,4.0594],[117.9422,-20.5109,3.2297],[117.9403,-20.5096,1.5901],[117.9379,-20.5115,1.2876],[117.9315,-20.5266,0.0],[117.9348,-20.5288,0.6594],[117.9429,-20.5305,0.7989],[117.944,-20.5275,1.8366],[117.9428,-20.5238,1.6714],[117.9504,-20.5159,3.5701],[117.9486,-20.5118,3.2259],[117.9494,-20.5104,2.3183],[117.9617,-20.5066,3.1728],[117.9601,-20.509,3.2191],[117.9576,-20.5082,2.9581],[117.9535,-20.5116,2.8274],[117.9514,-20.5116,3.3112],[117.9534,-20.5161,2.4759],[117.9484,-20.52,1.3273],[117.9507,-20.5184,1.8923],[117.9544,-20.5192,2.797],[117.9574,-20.5159,2.8113],[117.9592,-20.517,2.7353],[117.9547,-20.5213,2.0592],[117.951,-20.52,2.0633],[117.9484,-20.5226,1.8885],[117.9469,-20.5327,2.1696],[117.9427,-20.5368,1.7891],[117.9457,-20.5391,1.9406],[117.9503,-20.538,0.7376],[117.9532,-20.5393,1.9917],[117.9597,-20.5468,0.1453],[117.9652,-20.5417,3.8762],[117.9618,-20.5389,1.8136],[117.9624,-20.5344,3.1887],[117.9659,-20.5346,2.6378],[117.9715,-20.5315,2.4194],[117.9697,-20.5278,2.3372],[117.971,-20.5252,2.5707],[117.9735,-20.5315,2.4194],[117.972,-20.5337,2.1086],[117.9643,-20.5367,2.3719],[117.967,-20.5408,2.9357],[117.9641,-20.5469,1.9014],[117.9677,-20.548,1.9507],[117.969,-20.5434,2.2711],[117.9728,-20.5417,2.4603],[117.9718,-20.5472,2.6978],[117.9746,-20.5489,2.4331],[117.9747,-20.5508,2.5912],[117.9706,-20.5484,2.4445],[117.9706,-20.5444,2.8203],[117.969,-20.5486,1.9507],[117.9628,-20.5502,2.411],[117.9593,-20.5494,1.2758],[117.9585,-20.5533,1.3048],[117.9609,-20.5565,1.3888],[117.9602,-20.562,2.3018],[117.9589,-20.5607,2.0553],[117.9596,-20.5554,0.9037],[117.9572,-20.5522,2.805],[117.9578,-20.5478,0.1462],[117.9546,-20.5457,1.4352],[117.9511,-20.5469,1.6694],[117.9454,-20.5462,0.0],[117.9486,-20.5487,0.049],[117.9495,-20.5518,2.9285],[117.9484,-20.5532,2.1706],[117.9484,-20.5498,4.6463],[117.9461,-20.5504,0.7721],[117.9444,-20.5579,1.3057],[117.9404,-20.559,1.339],[117.9433,-20.5604,2.6629],[117.9409,-20.5626,2.0512],[117.9433,-20.5661,2.793],[117.9418,-20.567,2.6621],[117.9417,-20.5644,2.9357],[117.9391,-20.5634,2.4483],[117.9409,-20.5607,2.3952],[117.9363,-20.5574,2.1752],[117.9345,-20.5585,2.4652],[117.9356,-20.5557,1.9034],[117.9384,-20.5573,2.144],[117.9438,-20.5568,1.3057],[117.9441,-20.5523,1.4686],[117.9413,-20.5467,0.1051],[117.9354,-20.5442,0.9155],[117.9333,-20.5466,2.514],[117.9346,-20.5427,0.0],[117.9322,-20.5414,1.1755],[117.9272,-20.5422,1.3982],[117.9291,-20.5407,0.1012],[117.9198,-20.5436,0.8596],[117.9142,-20.5471,0.555],[117.9123,-20.5555,0.0506],[117.9163,-20.5584,0.9491],[117.9205,-20.5569,1.7331],[117.9246,-20.561,3.1041],[117.9185,-20.5588,3.186],[117.9147,-20.5627,3.5553],[117.9178,-20.5654,0.5667],[117.9237,-20.5657,1.4099],[117.9303,-20.5709,2.6214],[117.9203,-20.5667,1.4196],[117.9147,-20.5719,3.2858],[117.9149,-20.5734,2.2515],[117.9115,-20.5742,1.7103],[117.9122,-20.5766,2.1176],[117.9087,-20.5755,2.5081],[117.9146,-20.5704,1.4563],[117.9159,-20.5673,0.9324],[117.912,-20.5638,0.6157],[117.9052,-20.5612,2.2846],[117.9004,-20.5619,2.2552],[117.906,-20.5594,0.4291],[117.9061,-20.5568,0.389],[117.9033,-20.5537,1.3798],[117.9005,-20.5528,0.9571],[117.8979,-20.5546,1.7147],[117.8965,-20.5535,1.7026],[117.8901,-20.5582,2.9767],[117.8953,-20.5518,1.2961],[117.89,-20.5496,0.9271],[117.8817,-20.552,1.0462],[117.8718,-20.5611,0.4845],[117.8698,-20.5668,1.1785],[117.871,-20.5718,1.3352],[117.8763,-20.573,1.4072],[117.8787,-20.5756,1.2784],[117.8784,-20.5811,0.0],[117.881,-20.5777,2.459],[117.8844,-20.5765,2.2826],[117.8851,-20.5741,2.1624],[117.8914,-20.573,2.5063],[117.8861,-20.5754,1.5041],[117.8847,-20.5783,0.6472],[117.8898,-20.5785,2.455],[117.8934,-20.5837,2.5211],[117.8963,-20.5835,2.6435],[117.898,-20.5853,2.5441],[117.8935,-20.5857,1.9523],[117.8885,-20.5794,2.1713],[117.8858,-20.582,1.3117],[117.8822,-20.5796,2.9246],[117.8802,-20.5823,0.1596],[117.8765,-20.5824,2.9228],[117.8743,-20.5795,0.0],[117.8675,-20.5819,0.0],[117.8646,-20.5844,0.02],[117.8594,-20.5974,0.527],[117.86,-20.604,0.0856],[117.8634,-20.6067,1.856],[117.8652,-20.6051,3.4389],[117.8646,-20.6075,4.0042],[117.8613,-20.6077,0.5142],[117.86,-20.6113,3.9311],[117.8578,-20.6085,3.575],[117.8581,-20.6056,1.0861],[117.8541,-20.606,0.701],[117.8545,-20.6084,3.9362],[117.8515,-20.608,0.9156],[117.8432,-20.6157,0.6905],[117.8224,-20.6262,0.5373],[117.8169,-20.6316,1.1186],[117.8141,-20.6321,0.4205],[117.811,-20.6349,1.4467],[117.8112,-20.6364,2.4768],[117.7961,-20.6479,0.2458],[117.7931,-20.652,2.4488],[117.7942,-20.6556,2.37],[117.7913,-20.6555,0.9942],[117.7903,-20.6534,0.0],[117.7842,-20.6539,0.2824],[117.7783,-20.657,0.0],[117.7754,-20.6612,0.0],[117.7743,-20.6642,5.0763],[117.7757,-20.6679,2.721],[117.7819,-20.6674,1.8475],[117.7857,-20.672,0.7061],[117.7889,-20.6694,2.9574],[117.7927,-20.6694,2.5423],[117.7941,-20.6749,0.0],[117.7957,-20.6754,1.1757],[117.8074,-20.6729,2.4182],[117.9292,-20.6742,15.3078],[117.9292,-20.7942,30.7558],[118.0094,-20.7942,31.1251],[118.0094,-20.8253,36.6076],[118.0713,-20.8253,40.5829],[118.0713,-20.8295,41.0668],[118.091,-20.8295,45.7523],[118.091,-20.8348,42.8611],[118.1136,-20.8222,42.2827],[118.1386,-20.8043,40.1661],[118.1858,-20.8043,46.4884],[118.1858,-20.8541,49.9108],[118.1604,-20.8541,48.8206],[118.1604,-20.8749,54.3606],[118.2119,-20.8749,56.9166],[118.2119,-20.9265,65.9126],[118.2042,-20.9265,64.6942],[118.2043,-21.0805,104.7607],[118.0157,-21.0805,128.5286],[118.0157,-21.2391,132.1998],[118.0695,-21.2391,163.7805],[118.0695,-21.2965,330.0476],[118.1465,-21.2965,295.164],[118.1465,-21.3452,216.3833],[118.111,-21.3452,334.6469],[118.111,-21.4166,233.6142],[118.0854,-21.4166,247.4469],[118.0854,-21.4792,239.7628],[118.156,-21.4792,384.6405],[118.156,-21.387,257.8462],[118.2051,-21.387,204.469],[118.2051,-21.49,363.1691],[118.2309,-21.49,243.2871],[118.2309,-21.5301,357.0999],[118.1991,-21.5301,455.265],[118.1991,-21.6081,379.7926],[118.2535,-21.6081,430.046],[118.2535,-21.6845,465.7201],[118.3697,-21.6845,449.3982],[118.3697,-21.6577,268.7078],[118.5022,-21.6577,371.3707],[118.5022,-21.6962,356.926],[118.5511,-21.6962,315.5832],[118.5511,-21.7688,288.6484],[118.5318,-21.7688,337.8655],[118.5318,-21.8098,341.2526]],
[[118.574,-20.3131,3.5996],[118.574,-20.313,3.5996],[118.5742,-20.3128,1.7436],[118.5741,-20.313,3.5996],[118.574,-20.3131,3.5996]]],
[[[118.2002,-20.3615,0.6164],[118.1999,-20.3619,0.6164],[118.2032,-20.368,0.0],[118.2035,-20.3649,0.0],[118.2002,-20.3615,0.6164]]],
[[[118.4598,-20.3191,1.1396],[118.46,-20.3205,1.6062],[118.4574,-20.3221,3.1418],[118.4604,-20.322,1.0318],[118.4622,-20.319,1.0508],[118.4654,-20.318,0.0],[118.4639,-20.3175,0.0],[118.4598,-20.3191,1.1396]]],
[[[118.5268,-20.3102,9.769],[118.5235,-20.3084,4.4845],[118.5118,-20.3091,0.0],[118.5027,-20.3123,0.3641],[118.4996,-20.3157,0.4725],[118.4995,-20.3186,1.1071],[118.5042,-20.322,1.8065],[118.5107,-20.3238,0.0],[118.515,-20.3202,2.8397],[118.5168,-20.3208,0.0],[118.5206,-20.314,3.4629],[118.5269,-20.314,1.3492],[118.5268,-20.3102,9.769]]],
[[[118.8512,-20.2245,0.0],[118.853,-20.2247,0.0],[118.85,-20.2222,0.0],[118.8498,-20.2229,0.0],[118.8512,-20.2245,0.0]]],
[[[118.8071,-20.0195,0.0],[118.8099,-20.0212,0.0],[118.8106,-20.0184,0.0],[118.807,-20.0178,0.0],[118.8071,-20.0195,0.0]]],
[[[119.4978,-20.0113,0.4448],[119.4967,-20.0108,0.226],[119.4934,-20.0135,0.1634],[119.4974,-20.0117,0.4448],[119.4978,-20.0113,0.4448]]],
[[[119.4418,-20.0066,0.6532],[119.4404,-20.0084,0.4514],[119.441,-20.0101,0.0],[119.4425,-20.0084,0.6331],[119.4418,-20.0066,0.6532]]],
[[[119.0889,-19.9812,3.6158],[119.0882,-19.9814,0.0],[119.0889,-19.983,3.2591],[119.0892,-19.9825,3.1294],[119.0889,-19.9812,3.6158]]]]}}