{"type":"Feature","properties":{"GID_2":"AUS.5.148_1","GID_0":"AUS","country":"Australia","GID_1":"AUS.5_1","state":"NewSouthWales","NL_NAME_1":"NA","county":"Wollondilly","VARNAME_2":"NA","NL_NAME_2":"NA","TYPE_2":"Area","ENGTYPE_2":"Area","CC_2":"18400","HASC_2":"AU.NS.WL","name":"Wollondilly.county"},
"geometry":{"type": "MultiPolygon","coordinates": [[[[150.1852,-33.8804,167.5818],[150.1792,-33.88,195.6886],[150.1786,-33.8839,191.4641],[150.1729,-33.8857,245.4385],[150.1722,-33.8878,196.965],[150.1686,-33.8891,205.9698],[150.1649,-33.8882,215.2685],[150.1642,-33.8862,264.1313],[150.1596,-33.887,215.9958],[150.1559,-33.8931,241.42],[150.1592,-33.8974,238.9453],[150.1691,-33.899,317.1794],[150.1698,-33.9039,281.6673],[150.1651,-33.9124,269.5252],[150.1652,-33.9154,274.9595],[150.1688,-33.9194,490.9626],[150.1712,-33.9289,827.509],[150.1706,-33.9343,948.1885],[150.1752,-33.939,1005.4834],[150.1756,-33.9452,1089.8018],[150.1803,-33.9455,1143.6035],[150.1832,-33.9501,1022.4017],[150.1904,-33.9504,979.0143],[150.201,-33.9455,958.3522],[150.21,-33.9374,954.5095],[150.2148,-33.9364,894.9359],[150.2188,-33.9384,772.462],[150.217,-33.9478,618.1202],[150.2412,-33.952,224.4625],[150.2332,-33.9614,201.3631],[150.2372,-33.9655,208.3637],[150.2321,-33.9681,205.1498],[150.2322,-33.9713,224.5976],[150.2282,-33.974,267.3509],[150.2285,-33.9787,229.2028],[150.2237,-33.9797,224.8239],[150.2166,-33.9874,223.8426],[150.211,-33.9897,223.4225],[150.2088,-33.9937,221.2224],[150.209,-33.9978,229.6134],[150.2024,-34.0004,220.7717],[150.2016,-34.0049,229.4816],[150.1929,-34.0056,273.118],[150.1903,-34.0105,234.6441],[150.183,-34.0119,254.2552],[150.1818,-34.018,267.9067],[150.1754,-34.0164,249.5008],[150.1724,-34.0194,266.5479],[150.1714,-34.0229,240.189],[150.1688,-34.0208,250.2472],[150.1655,-34.0228,277.1446],[150.1694,-34.0273,291.6624],[150.1602,-34.03,249.1549],[150.1591,-34.0321,261.3787],[150.1672,-34.0331,262.3159],[150.168,-34.0355,270.2189],[150.1602,-34.0378,280.8318],[150.1568,-34.034,276.989],[150.1547,-34.0354,295.1506],[150.1551,-34.0411,273.8553],[150.1531,-34.0432,322.3572],[150.1449,-34.0436,270.1013],[150.1471,-34.0453,281.4316],[150.1465,-34.048,324.0595],[150.1427,-34.0488,287.6333],[150.1407,-34.051,304.4222],[150.1432,-34.0572,296.1264],[150.1429,-34.0647,289.7458],[150.1455,-34.0681,286.2042],[150.1457,-34.0714,298.7253],[150.1423,-34.0733,340.815],[150.1379,-34.0709,320.1742],[150.1369,-34.0744,288.7245],[150.1318,-34.0728,323.3379],[150.1295,-34.0736,312.5306],[150.128,-34.0769,294.6408],[150.1337,-34.0804,306.4231],[150.1328,-34.0822,343.1315],[150.1266,-34.0793,317.6369],[150.1234,-34.0757,312.765],[150.117,-34.0779,342.6311],[150.1159,-34.0807,329.7964],[150.1186,-34.0891,327.2763],[150.1177,-34.092,344.4684],[150.1149,-34.0904,347.0289],[150.1143,-34.0856,318.4337],[150.109,-34.0849,331.2587],[150.1129,-34.0894,317.312],[150.1068,-34.091,352.3289],[150.1077,-34.0931,360.4744],[150.1118,-34.095,379.5698],[150.1113,-34.1006,417.961],[150.113,-34.1029,382.95119999999997],[150.1049,-34.1093,473.6781],[150.1053,-34.1182,455.7385],[150.1062,-34.1208,464.9062],[150.1128,-34.1267,514.0082],[150.11,-34.1309,568.012],[150.1133,-34.1365,706.0118],[150.1128,-34.1395,727.4653],[150.1234,-34.1413,823.2375],[150.1228,-34.1439,858.7466],[150.125,-34.1492,918.8176],[150.1149,-34.151,887.795],[150.1125,-34.1478,873.4149],[150.1077,-34.1463,817.3282],[150.1045,-34.1418,808.0667],[150.1052,-34.1385,858.495],[150.0939,-34.1365,884.4934],[150.0889,-34.1311,854.1229],[150.0895,-34.1257,876.6827],[150.0854,-34.1206,931.2619],[150.0821,-34.1211,905.2256],[150.0782,-34.1264,897.9448],[150.0714,-34.1314,949.1322],[150.0634,-34.1277,874.5247],[150.0542,-34.1283,944.274],[150.0538,-34.1259,948.2498],[150.0495,-34.1253,1001.4019],[150.045,-34.12,1045.668],[150.0396,-34.1204,1034.3804],[150.0315,-34.1277,1053.1814],[150.0246,-34.1302,857.9914],[150.0218,-34.1291,826.2069],[150.0187,-34.1321,850.4424],[150.0208,-34.1334,813.9862],[150.0195,-34.1384,787.366],[150.0151,-34.1424,714.1216],[150.0146,-34.1444,765.8713],[150.0173,-34.1455,713.0049],[150.0183,-34.144,735.4976],[150.0229,-34.1443,761.0272],[150.0248,-34.1483,718.7803],[150.0266,-34.1466,684.3846],[150.0291,-34.1473,661.3298],[150.0279,-34.1451,687.6151],[150.0292,-34.1438,684.2841],[150.0311,-34.1449,675.6359],[150.0309,-34.1468,661.3298],[150.0324,-34.1461,675.6359],[150.0332,-34.1492,623.9582],[150.0359,-34.1451,633.7963],[150.0376,-34.1457,684.4169],[150.0371,-34.1479,624.4072],[150.0418,-34.1485,607.7276],[150.0439,-34.1461,624.7028],[150.0444,-34.1478,573.0755],[150.0464,-34.1475,615.6439],[150.0454,-34.1489,635.1992],[150.0467,-34.1505,565.2823],[150.0445,-34.1524,608.954],[150.047,-34.1577,560.5026],[150.0459,-34.1603,549.4074],[150.0504,-34.1618,525.0591],[150.0549,-34.1734,487.8398],[150.0609,-34.1724,479.0411],[150.0619,-34.1763,459.5352],[150.0593,-34.1773,483.8503],[150.0634,-34.1836,437.1452],[150.0627,-34.1899,431.7701],[150.0657,-34.1953,406.6147],[150.0636,-34.1962,420.2153],[150.0649,-34.1985,403.8641],[150.0628,-34.2007,378.0062],[150.0638,-34.2057,367.8001],[150.0597,-34.2069,393.9258],[150.0572,-34.2101,362.5638],[150.0597,-34.217,373.2731],[150.0544,-34.2242,346.2555],[150.0513,-34.2253,362.0467],[150.053,-34.2305,345.4893],[150.0498,-34.2346,323.7574],[150.0566,-34.2343,363.0403],[150.0585,-34.2372,303.8418],[150.0616,-34.238,315.7296],[150.0598,-34.2425,317.2998],[150.0572,-34.2439,303.1937],[150.0575,-34.2472,281.2508],[150.0542,-34.2472,285.032],[150.0534,-34.2488,275.7579],[150.0598,-34.2557,276.4714],[150.06,-34.2586,275.2808],[150.0566,-34.2616,236.317],[150.0612,-34.2693,227.9604],[150.0742,-34.2686,218.0092],[150.076,-34.2708,217.0321],[150.082,-34.2729,215.4343],[150.0866,-34.271,217.6599],[150.0913,-34.2664,238.3904],[150.0965,-34.2663,230.4112],[150.0981,-34.2681,227.6568],[150.0951,-34.2753,207.2198],[150.0962,-34.2788,220.9244],[150.1039,-34.2788,205.0731],[150.1216,-34.2849,204.6062],[150.1238,-34.2862,240.515],[150.1272,-34.294,194.6226],[150.1351,-34.2932,192.8987],[150.1391,-34.3002,193.0034],[150.1478,-34.2951,184.1662],[150.1506,-34.2953,199.0518],[150.1542,-34.2982,181.2313],[150.1555,-34.3052,184.9668],[150.1622,-34.3082,188.5032],[150.1732,-34.3067,172.9226],[150.1799,-34.3076,172.3395],[150.1861,-34.3026,187.9429],[150.1972,-34.3045,176.0136],[150.2108,-34.2919,161.7918],[150.2116,-34.2797,162.7126],[150.2221,-34.2756,154.652],[150.2249,-34.2718,159.168],[150.2262,-34.2571,157.4673],[150.2306,-34.2493,146.4748],[150.2321,-34.2419,150.2883],[150.2293,-34.2348,158.0374],[150.2305,-34.2309,152.5953],[150.2356,-34.2277,175.9139],[150.2551,-34.2256,136.9103],[150.262,-34.2138,131.2059],[150.2659,-34.2125,130.1317],[150.2694,-34.2148,150.1794],[150.2692,-34.2168,163.382],[150.2708,-34.2178,163.1473],[150.2714,-34.2229,171.3665],[150.2702,-34.2234,170.3485],[150.2782,-34.2245,219.0672],[150.2771,-34.2272,221.9101],[150.2859,-34.2285,318.9873],[150.2865,-34.2257,318.0269],[150.3313,-34.2322,423.8286],[150.3309,-34.2375,247.9409],[150.3467,-34.2339,198.9249],[150.3528,-34.2347,194.1517],[150.3517,-34.239,211.1316],[150.3566,-34.2397,204.0535],[150.3572,-34.2369,216.1854],[150.5483,-34.2645,322.5477],[150.5513,-34.2669,306.0482],[150.5489,-34.277,322.3568],[150.5457,-34.2809,326.0879],[150.5454,-34.2842,364.382],[150.5393,-34.2896,363.8122],[150.5406,-34.2917,348.3156],[150.5434,-34.2919,340.9596],[150.5419,-34.2945,353.2449],[150.563,-34.2975,363.5958],[150.5615,-34.3048,388.0391],[150.5644,-34.3052,372.2491],[150.5656,-34.3103,375.8314],[150.5624,-34.3115,388.1977],[150.5657,-34.3234,421.0431],[150.5603,-34.3244,437.8357],[150.5621,-34.3312,447.9366],[150.581,-34.3175,398.1499],[150.5944,-34.3193,372.1429],[150.6015,-34.3144,373.6943],[150.7457,-34.3374,292.7907],[150.7509,-34.3019,334.5309],[150.7917,-34.3071,329.3492],[150.7928,-34.3033,325.1704],[150.8168,-34.3064,289.0939],[150.8143,-34.3005,286.0],[150.8156,-34.295,286.0],[150.8066,-34.2807,286.0],[150.8052,-34.2713,286.0],[150.8156,-34.2695,286.0],[150.8273,-34.2749,288.555],[150.8388,-34.2748,286.0],[150.8528,-34.28,286.0],[150.8763,-34.2597,445.444],[150.8806,-34.2588,426.0463],[150.8863,-34.2428,388.4528],[150.8922,-34.2359,343.6017],[150.8975,-34.2333,311.8369],[150.8975,-34.2316,314.0139],[150.8913,-34.2294,307.2632],[150.8938,-34.2215,302.3773],[150.89,-34.2126,350.181],[150.9082,-34.2152,375.0661],[150.9089,-34.2112,372.2097],[150.9047,-34.2106,376.5759],[150.9046,-34.2092,373.824],[150.9107,-34.1978,374.0414],[150.907,-34.1931,363.584],[150.8995,-34.1881,326.7488],[150.8993,-34.1896,331.5764],[150.8853,-34.1875,338.7287],[150.884,-34.1896,322.1018],[150.8795,-34.1871,303.4041],[150.8739,-34.1878,284.4842],[150.8695,-34.182,279.9268],[150.8622,-34.1831,283.5341],[150.8556,-34.1776,261.4708],[150.8535,-34.1789,233.8349],[150.8551,-34.1834,242.5219],[150.8542,-34.1846,288.8302],[150.8486,-34.1817,229.7467],[150.8519,-34.1789,222.476],[150.8457,-34.1788,218.8251],[150.8451,-34.1758,238.977],[150.8416,-34.1767,222.102],[150.7521,-34.1639,73.9805],[150.7548,-34.1608,77.7994],[150.7496,-34.1512,76.4813],[150.7563,-34.1413,102.3311],[150.7549,-34.1356,77.4771],[150.7499,-34.1316,63.3301],[150.7537,-34.1284,67.0297],[150.7567,-34.1219,69.2321],[150.7526,-34.1172,69.0976],[150.7468,-34.1167,65.0676],[150.7409,-34.1186,64.8252],[150.7377,-34.1146,64.1383],[150.7368,-34.1098,69.9629],[150.7419,-34.0811,70.0365],[150.7395,-34.078,69.9503],[150.7069,-34.0779,67.4846],[150.7115,-34.0819,66.8184],[150.7149,-34.0829,67.764],[150.7158,-34.0849,70.6435],[150.7148,-34.0897,65.6638],[150.7094,-34.0934,67.5021],[150.6741,-34.0876,89.2316],[150.6732,-34.0893,96.165],[150.6606,-34.087,101.8933],[150.6489,-34.082,113.3276],[150.6539,-34.0716,115.1906],[150.6597,-34.0705,108.3096],[150.662,-34.0671,110.8037],[150.6568,-34.0649,99.6538],[150.6589,-34.0581,89.1627],[150.658,-34.0559,89.8196],[150.6605,-34.0537,80.5355],[150.6621,-34.049,73.0743],[150.6611,-34.0483,73.0743],[150.6663,-34.0404,68.55],[150.6661,-34.0376,65.9236],[150.6688,-34.036,60.9289],[150.6694,-34.0317,59.5424],[150.6721,-34.0292,59.9336],[150.6705,-34.0264,55.4234],[150.6672,-34.028,58.3092],[150.6606,-34.0271,61.2252],[150.6559,-34.0198,58.1307],[150.652,-34.0168,57.2266],[150.6499,-34.0084,75.5248],[150.661,-34.0,61.4223],[150.6698,-33.9915,64.318],[150.6709,-33.9885,55.4998],[150.6696,-33.9859,73.1679],[150.6658,-33.9849,55.3133],[150.6509,-33.9853,58.0117],[150.6421,-33.9775,54.4155],[150.6286,-33.9725,54.0803],[150.6294,-33.957,51.866],[150.6236,-33.9602,76.4284],[150.6182,-33.9561,99.4208],[150.6198,-33.9474,84.0392],[150.627,-33.9355,66.63],[150.6249,-33.9313,114.4255],[150.6231,-33.9319,116.9695],[150.6177,-33.9296,123.4958],[150.6183,-33.9267,137.2967],[150.6395,-33.9298,38.9961],[150.6396,-33.9275,45.6184],[150.6457,-33.9232,37.5454],[150.6491,-33.9158,34.1188],[150.6488,-33.9138,37.5372],[150.6441,-33.9098,32.5773],[150.6385,-33.9089,33.783],[150.6346,-33.9021,35.6759],[150.6348,-33.8872,32.5986],[150.6387,-33.8832,32.3782],[150.64,-33.8782,32.1657],[150.6392,-33.8711,32.0433],[150.6366,-33.8665,33.1242],[150.6386,-33.8617,32.2176],[150.6357,-33.8563,33.9351],[150.634,-33.8561,41.5966],[150.6315,-33.8605,40.1732],[150.6267,-33.8625,59.6396],[150.62,-33.861,61.7009],[150.6174,-33.8623,42.8546],[150.6128,-33.8618,62.1405],[150.6108,-33.8587,18.877],[150.5943,-33.8699,201.097],[150.5919,-33.8692,209.5636],[150.59,-33.8739,195.6115],[150.5857,-33.8761,209.8843],[150.5814,-33.8749,222.8326],[150.5802,-33.8727,230.8825],[150.5745,-33.8718,251.7292],[150.5652,-33.8783,284.979],[150.5641,-33.8816,289.5781],[150.5661,-33.8857,276.2812],[150.5609,-33.8888,280.9297],[150.5604,-33.8915,299.1928],[150.5443,-33.8954,370.2925],[150.5397,-33.8932,374.3761],[150.5395,-33.8857,391.0976],[150.5296,-33.8766,408.6826],[150.5228,-33.8769,415.8208],[150.5151,-33.8698,398.1498],[150.5067,-33.8685,449.2354],[150.5017,-33.8649,488.4573],[150.4889,-33.8727,484.8243],[150.4889,-33.8748,449.1848],[150.4934,-33.8768,484.9285],[150.4919,-33.8844,519.1694],[150.4872,-33.8839,525.7927],[150.4817,-33.8873,535.2802],[150.4766,-33.8867,577.4742],[150.4762,-33.8894,562.0823],[150.4695,-33.8977,559.0934],[150.4642,-33.9006,569.3457],[150.4611,-33.8995,577.6699],[150.4577,-33.8928,596.4038],[150.4501,-33.8891,554.5475],[150.449,-33.8865,566.6123],[150.4449,-33.886,579.9974],[150.4437,-33.8842,599.952],[150.4297,-33.8844,581.5286],[150.4258,-33.883,604.7229],[150.4245,-33.877,619.0355],[150.4196,-33.8757,623.5729],[150.4182,-33.8711,656.5392],[150.4118,-33.8669,630.5656],[150.4084,-33.8664,666.6629],[150.4054,-33.8628,696.5206],[150.4051,-33.8561,670.6062],[150.4082,-33.8517,662.8801],[150.4066,-33.8476,674.3513],[150.413,-33.8404,664.2266],[150.4095,-33.8298,683.746],[150.4186,-33.8147,690.5319],[150.4178,-33.8092,718.288],[150.3648,-33.8017,147.3418],[150.3612,-33.8077,154.3434],[150.3587,-33.8084,156.4618],[150.3649,-33.8112,167.728],[150.3627,-33.8162,147.1331],[150.36,-33.8166,150.9606],[150.3607,-33.8189,136.2777],[150.3568,-33.8257,140.0869],[150.3561,-33.8323,140.4286],[150.3531,-33.8337,135.0667],[150.3581,-33.8351,139.0983],[150.3591,-33.8377,138.6793],[150.3543,-33.8371,142.8517],[150.3539,-33.8425,143.1961],[150.3505,-33.8414,132.0513],[150.3478,-33.8441,132.8235],[150.3441,-33.843,137.9763],[150.3428,-33.8451,141.6863],[150.3395,-33.8439,153.3977],[150.3388,-33.8468,149.7396],[150.334,-33.8477,140.4758],[150.3389,-33.8504,124.5303],[150.3406,-33.8565,126.6719],[150.3246,-33.8561,137.5879],[150.3198,-33.8531,122.973],[150.321,-33.8494,116.0741],[150.3121,-33.8517,132.5533],[150.3064,-33.8458,118.2549],[150.3016,-33.8455,116.0659],[150.2903,-33.8519,130.0708],[150.2796,-33.8508,167.0711],[150.2719,-33.8598,176.5727],[150.266,-33.8591,140.2338],[150.2653,-33.8651,151.3333],[150.2541,-33.8718,148.1739],[150.2471,-33.8692,219.4731],[150.2456,-33.8779,153.4972],[150.2386,-33.8793,215.603],[150.2352,-33.8844,153.5671],[150.2143,-33.8822,174.3697],[150.2066,-33.8851,162.948],[150.1963,-33.8778,204.4888],[150.1891,-33.8861,165.6145],[150.1871,-33.8851,168.979],[150.1852,-33.8804,167.5818]]]]}}