{"type":"Feature","properties":{"GID_2":"AUS.10.9_1","GID_0":"AUS","country":"Australia","GID_1":"AUS.10_1","state":"Victoria","NL_NAME_1":"NA","county":"Boroondara","VARNAME_2":"NA","NL_NAME_2":"NA","TYPE_2":"City","ENGTYPE_2":"City","CC_2":"21110","HASC_2":"AU.VI.BO","name":"Boroondara.county"},
"geometry":{"type": "MultiPolygon","coordinates": [[[[145.0402,-37.7842,13.0084],[145.041,-37.7855,14.6003],[145.0453,-37.7842,13.2263],[145.0431,-37.787,14.5879],[145.0413,-37.786,13.6437],[145.0404,-37.7898,16.479],[145.0319,-37.7899,15.2938],[145.0282,-37.7869,16.9231],[145.0132,-37.7857,16.2259],[145.0195,-37.7921,11.8061],[145.0141,-37.7921,14.7682],[145.0139,-37.7936,13.6353],[145.0208,-37.7983,49.319],[145.0185,-37.8002,13.5322],[145.0211,-37.8029,30.7898],[145.0164,-37.803,28.3667],[145.0124,-37.7991,20.6805],[145.007,-37.8009,11.8481],[145.0066,-37.799,11.1684],[145.0096,-37.7965,10.3565],[145.0046,-37.7981,26.444],[145.0032,-37.7957,13.7227],[144.9993,-37.7975,10.4338],[145.0077,-37.8039,7.1056],[145.0046,-37.8053,18.814],[145.0003,-37.8042,15.1929],[144.9994,-37.8057,7.8531],[145.0008,-37.8072,11.863],[145.0085,-37.8076,26.4381],[145.0095,-37.8105,10.5257],[145.0157,-37.8106,11.0876],[145.0144,-37.8163,10.4353],[145.0166,-37.8252,6.0701],[145.0218,-37.8254,8.7323],[145.0231,-37.828,7.1547],[145.0283,-37.831,5.3187],[145.0244,-37.8344,7.7411],[145.0277,-37.8376,5.9965],[145.0388,-37.8388,8.9803],[145.0403,-37.8456,8.7462],[145.0423,-37.8473,9.6235],[145.0597,-37.8547,16.9746],[145.06,-37.8582,18.7701],[145.0628,-37.8599,20.1891],[145.0618,-37.8656,21.0791],[145.0661,-37.8684,25.8078],[145.069,-37.8743,25.7197],[145.075,-37.8759,34.9858],[145.0808,-37.873,31.3967],[145.0921,-37.8718,37.171],[145.0999,-37.8262,103.4259],[145.0988,-37.8244,94.4916],[145.1003,-37.8232,94.4916],[145.1027,-37.812,100.9756],[145.1016,-37.8119,100.9756],[145.1049,-37.8032,77.0918],[145.1035,-37.7976,61.4867],[145.1067,-37.7922,40.2748],[145.1047,-37.7912,41.7111],[145.0975,-37.7802,29.4105],[145.0814,-37.7791,18.0271],[145.0783,-37.7769,16.0655],[145.0744,-37.7797,21.7015],[145.0671,-37.7809,15.3488],[145.0669,-37.7837,17.5985],[145.0606,-37.78,14.6266],[145.0555,-37.7825,15.27],[145.0545,-37.7812,14.2931],[145.0534,-37.7838,14.521],[145.0558,-37.784,16.1876],[145.0547,-37.7851,16.8045],[145.0476,-37.7799,19.67],[145.0437,-37.7803,14.2422],[145.0402,-37.7842,13.0084]]]]}}