{"type":"Feature","properties":{"GID_2":"AUS.11.110_1","GID_0":"AUS","country":"Australia","GID_1":"AUS.11_1","state":"WesternAustralia","NL_NAME_1":"NA","county":"ScottandSeringapatamReefs","VARNAME_2":"NA","NL_NAME_2":"NA","TYPE_2":"Islands","ENGTYPE_2":"Islands","CC_2":"NA","HASC_2":"NA","name":"ScottandSeringapatamReefs.county"},
"geometry":{"type": "MultiPolygon","coordinates": [[[[121.7417,-14.1092,0.0],[121.7479,-14.0778,0.0],[121.7479,-14.0707,0.0],[121.7441,-14.0631,0.0],[121.7231,-14.0961,0.0],[121.7233,-14.0986,0.0],[121.7264,-14.0916,0.0],[121.7222,-14.1096,0.0],[121.7178,-14.1194,0.0],[121.7165,-14.128,0.0],[121.7162,-14.1506,0.0],[121.7197,-14.1604,0.0],[121.7491,-14.1845,0.0],[121.748,-14.185,0.0],[121.7498,-14.1866,0.0],[121.7649,-14.1964,0.0],[121.805,-14.2092,0.0],[121.8312,-14.2106,0.0],[121.8745,-14.1935,0.0],[121.8945,-14.1802,0.0],[121.9183,-14.1687,0.0],[121.9497,-14.1507,0.0],[121.9725,-14.1254,0.0],[121.9782,-14.1054,0.0],[121.9806,-14.0869,0.0],[121.973,-14.0755,0.0],[121.9702,-14.065,0.0],[121.9616,-14.0645,0.0],[121.964,-14.0783,0.0],[121.964,-14.0907,0.0],[121.9673,-14.105,0.0],[121.963,-14.1216,0.0],[121.9411,-14.1468,0.0],[121.9069,-14.1702,0.0],[121.8854,-14.1792,0.0],[121.8774,-14.1802,0.0],[121.8726,-14.1744,0.0],[121.8364,-14.1873,0.0],[121.8226,-14.1944,0.0],[121.8017,-14.1954,0.0],[121.7703,-14.1835,0.0],[121.7565,-14.1725,0.0],[121.7479,-14.1611,0.0],[121.737,-14.154,0.0],[121.7457,-14.147,0.0],[121.746,-14.1416,0.0],[121.7409,-14.1355,0.0],[121.7385,-14.1275,0.0],[121.7395,-14.125,0.0],[121.7429,-14.1238,0.0],[121.7412,-14.1174,0.0],[121.7417,-14.1092,0.0]]],
[[[121.7801,-14.056,0.0],[121.7786,-14.0431,0.0],[121.7739,-14.04,0.0],[121.7651,-14.0406,0.0],[121.7589,-14.0448,0.0],[121.7601,-14.0495,0.0],[121.7645,-14.051,0.0],[121.7711,-14.0564,0.0],[121.7812,-14.0725,0.0],[121.7855,-14.0729,0.0],[121.7801,-14.056,0.0]]],
[[[121.9064,-13.9139,0.0],[121.8953,-13.8902,0.0],[121.8829,-13.88,0.0],[121.8687,-13.8764,0.0],[121.8476,-13.8804,0.0],[121.8396,-13.8862,0.0],[121.8374,-13.9062,0.0],[121.8411,-13.9193,0.0],[121.8393,-13.9331,0.0],[121.8302,-13.9419,0.0],[121.816,-13.951,0.0],[121.8091,-13.9735,0.0],[121.8091,-13.9841,0.0],[121.8152,-13.9954,0.0],[121.8254,-14.0019,0.0],[121.8445,-14.0109,0.0],[121.8447,-14.0012,0.0],[121.8327,-13.9939,0.0],[121.8272,-13.9859,0.0],[121.8265,-13.9699,0.0],[121.8309,-13.9597,0.0],[121.8451,-13.9437,0.0],[121.852,-13.9313,0.0],[121.8542,-13.92,0.0],[121.8545,-13.9029,0.0],[121.8571,-13.8913,0.0],[121.8627,-13.8889,0.0],[121.8622,-13.8855,0.0],[121.876,-13.8873,0.0],[121.8793,-13.8902,0.0],[121.8804,-13.9018,0.0],[121.8837,-13.8956,0.0],[121.8898,-13.896,0.0],[121.8935,-13.9004,0.0],[121.8964,-13.9084,0.0],[121.8935,-13.9211,0.0],[121.8971,-13.928,0.0],[121.9029,-13.916,0.0],[121.9064,-13.9139,0.0]]],
[[[121.8796,-14.0281,0.0],[121.8844,-14.027,0.0],[121.9375,-13.9921,0.0],[121.9459,-13.9779,0.0],[121.9462,-13.9593,0.0],[121.9386,-13.947,0.0],[121.9237,-13.936,0.0],[121.9135,-13.9255,0.0],[121.908,-13.9166,0.0],[121.9018,-13.9226,0.0],[121.935,-13.9553,0.0],[121.935,-13.975,0.0],[121.9211,-13.991,0.0],[121.9073,-13.9972,0.0],[121.8978,-14.0077,0.0],[121.888,-14.0135,0.0],[121.8775,-14.0179,0.0],[121.8706,-14.0161,0.0],[121.8615,-14.007,0.0],[121.8538,-14.0077,0.0],[121.847,-14.013,0.0],[121.8491,-14.0161,0.0],[121.8604,-14.0245,0.0],[121.8796,-14.0281,0.0]]],
[[[122.0187,-13.6414,0.0],[122.0227,-13.6353,0.0],[122.0207,-13.633,0.0],[122.0011,-13.624,0.0],[121.9941,-13.6251,0.0],[121.9803,-13.6425,0.0],[121.9744,-13.654,0.0],[121.9731,-13.6637,0.0],[121.9769,-13.6761,0.0],[121.9898,-13.6899,0.0],[122.0094,-13.7007,0.0],[122.048,-13.6958,0.0],[122.0559,-13.6863,0.0],[122.0527,-13.6777,0.0],[122.0234,-13.6361,0.0],[122.0193,-13.642,0.0],[122.0435,-13.6761,0.0],[122.0462,-13.6836,0.0],[122.0419,-13.6888,0.0],[122.0329,-13.6903,0.0],[122.0153,-13.6901,0.0],[122.0038,-13.6881,0.0],[121.9943,-13.6784,0.0],[121.9891,-13.6687,0.0],[121.9868,-13.6581,0.0],[121.9913,-13.6411,0.0],[121.9968,-13.6357,0.0],[122.0026,-13.6335,0.0],[122.0092,-13.6339,0.0],[122.0187,-13.6414,0.0]]]]}}