{"type":"Feature","properties":{"GID_2":"AUS.10.49_1","GID_0":"AUS","country":"Australia","GID_1":"AUS.10_1","state":"Victoria","NL_NAME_1":"NA","county":"Monash","VARNAME_2":"NA","NL_NAME_2":"NA","TYPE_2":"City","ENGTYPE_2":"City","CC_2":"24970","HASC_2":"AU.VI.MS","name":"Monash.county"},
"geometry":{"type": "MultiPolygon","coordinates": [[[[145.0921,-37.8718,37.171],[145.0882,-37.893,59.2426],[145.0841,-37.8918,58.2162],[145.0782,-37.8871,50.4695],[145.0742,-37.9081,54.8643],[145.0852,-37.9095,55.6888],[145.0825,-37.924,58.2501],[145.1416,-37.9314,56.328],[145.1434,-37.9246,67.1395],[145.1567,-37.9331,61.491],[145.22,-37.9396,38.4798],[145.2183,-37.9368,42.8057],[145.2111,-37.9356,46.2006],[145.2104,-37.9335,42.4965],[145.2065,-37.9313,43.6629],[145.2069,-37.9282,42.7038],[145.2049,-37.9261,43.9752],[145.2057,-37.9239,42.9879],[145.2028,-37.9192,50.5181],[145.2059,-37.9106,45.2533],[145.2052,-37.9053,50.7001],[145.2033,-37.9033,50.4792],[145.2073,-37.9016,52.9262],[145.2083,-37.8991,53.7113],[145.207,-37.8967,54.5663],[145.2016,-37.8953,57.4574],[145.1998,-37.8907,56.518],[145.1956,-37.8879,57.6396],[145.196,-37.8861,58.6144],[145.1945,-37.8854,62.2584],[145.1955,-37.8833,62.5325],[145.1908,-37.8807,61.5123],[145.1921,-37.8741,65.0026],[145.1934,-37.8742,65.8338],[145.1922,-37.8716,65.4702],[145.1956,-37.8652,66.0607],[145.0951,-37.8533,83.3371],[145.0921,-37.8718,37.171]]]]}}