{"type": "Feature","bbox": [138.56,-34.6321,139.1274,-34.1876],"geometry": {"type": "MultiPolygon","coordinates": [[[[139.1013,-34.4117,376.4712],[139.0989,-34.4097,379.9996],[139.1001,-34.4041,395.7393],[139.0938,-34.401,411.2144],[139.0963,-34.3946,414.3394],[139.0984,-34.393,433.5375],[139.0983,-34.3855,436.9179],[139.1035,-34.3825,424.5098],[139.1087,-34.3824,434.715],[139.1122,-34.3789,428.2311],[139.1151,-34.3644,420.4517],[139.1128,-34.3619,420.9819],[139.1168,-34.3517,407.7343],[139.1138,-34.3484,427.6543],[139.1104,-34.3482,428.0549],[139.1074,-34.3371,451.8048],[139.1044,-34.3344,459.511],[139.106,-34.332,458.2182],[139.1049,-34.3303,458.6148],[139.1132,-34.32,487.9436],[139.1223,-34.3181,501.1539],[139.1274,-34.315,512.9116],[139.0341,-34.3067,279.4214],[139.0359,-34.3034,277.3323],[139.0358,-34.2971,294.6911],[139.0428,-34.291,302.8148],[139.0404,-34.2896,295.2053],[139.0433,-34.2822,291.7734],[139.0415,-34.2735,293.0396],[139.0487,-34.2673,310.8063],[139.0449,-34.2609,300.0405],[139.0482,-34.2607,301.3906],[139.0495,-34.2563,313.1848],[139.0485,-34.2536,318.6718],[139.0505,-34.2508,308.298],[139.048,-34.249,313.9722],[139.0485,-34.2448,319.8534],[139.0447,-34.2443,315.0648],[139.0424,-34.2417,316.3981],[139.0281,-34.2425,320.8667],[139.0209,-34.2451,321.6024],[139.0177,-34.2423,324.1722],[139.0104,-34.2464,325.9702],[139.0092,-34.246,323.9306],[139.0092,-34.2431,325.5157],[139.0077,-34.2429,325.5547],[139.001,-34.2488,328.9887],[138.9978,-34.2559,327.0193],[138.9957,-34.2564,333.157],[138.9911,-34.254,360.4495],[138.9842,-34.2585,331.6475],[138.985,-34.2536,331.4245],[138.9781,-34.2544,336.2531],[138.9758,-34.2271,377.0844],[138.9658,-34.2018,467.4071],[138.9704,-34.1979,445.2631],[138.9716,-34.1936,439.2083],[138.9268,-34.198,396.9679],[138.9091,-34.1978,393.9529],[138.9092,-34.191,412.5386],[138.9029,-34.1919,414.4229],[138.9029,-34.1876,437.3077],[138.8648,-34.1883,374.1399],[138.8648,-34.1935,376.33],[138.8384,-34.1935,420.909],[138.8358,-34.2124,431.5771],[138.8282,-34.2118,440.2204],[138.8286,-34.2167,435.0147],[138.8319,-34.2197,446.3742],[138.8409,-34.221,413.6163],[138.839,-34.2317,413.3555],[138.8279,-34.2312,437.3307],[138.8272,-34.2383,457.4645],[138.8333,-34.2503,442.4213],[138.8327,-34.264,423.4076],[138.8367,-34.2629,424.74],[138.8383,-34.2662,429.4295],[138.8393,-34.2811,417.9988],[138.8408,-34.284,420.8171],[138.8397,-34.2966,375.5107],[138.8388,-34.2958,362.1596],[138.837,-34.3006,411.4997],[138.7794,-34.2983,199.7221],[138.7865,-34.318,207.7096],[138.7865,-34.3367,171.0651],[138.7847,-34.3414,170.0279],[138.7723,-34.3539,134.5594],[138.7685,-34.355,131.8749],[138.7644,-34.3591,133.2801],[138.7642,-34.3622,126.8107],[138.7614,-34.3652,131.6313],[138.748,-34.3663,130.5774],[138.7461,-34.3631,123.5085],[138.7397,-34.3616,121.0898],[138.7384,-34.3621,121.0898],[138.7393,-34.3681,121.9998],[138.7346,-34.3672,118.3862],[138.73,-34.3706,118.2657],[138.7285,-34.369,117.7133],[138.7213,-34.3691,118.0738],[138.7213,-34.3657,112.9653],[138.7182,-34.3646,114.0131],[138.7192,-34.3633,110.108],[138.7182,-34.361,126.3437],[138.7147,-34.3614,114.5872],[138.7064,-34.3582,107.4645],[138.7016,-34.3593,105.8049],[138.7007,-34.3616,110.9817],[138.695,-34.3611,107.9002],[138.6902,-34.3626,101.3303],[138.6875,-34.3662,107.056],[138.6824,-34.3648,115.2009],[138.6824,-34.36,97.408],[138.6788,-34.3626,98.5719],[138.6732,-34.3615,96.6011],[138.6701,-34.3628,91.1582],[138.6671,-34.361,98.2714],[138.6622,-34.3681,101.1014],[138.6561,-34.3731,90.2612],[138.6572,-34.3755,82.5962],[138.6562,-34.3772,82.237],[138.648,-34.3799,84.7308],[138.6431,-34.3783,90.1333],[138.6412,-34.3806,78.9483],[138.6365,-34.3784,78.3019],[138.6366,-34.3819,82.0554],[138.6312,-34.3837,80.0674],[138.631,-34.3888,75.2274],[138.6277,-34.3894,74.5441],[138.6262,-34.3932,76.2727],[138.6198,-34.3936,72.6305],[138.6129,-34.3889,73.1726],[138.6011,-34.3902,70.4547],[138.5971,-34.3932,61.6629],[138.5957,-34.3975,63.171],[138.591,-34.3979,76.5499],[138.5873,-34.4024,60.088],[138.5738,-34.3975,57.6111],[138.575,-34.402,57.9316],[138.5726,-34.4029,58.1221],[138.571,-34.4064,56.1583],[138.5728,-34.4087,54.1481],[138.5664,-34.409,53.9175],[138.56,-34.415,56.4356],[138.5632,-34.4142,50.5845],[138.5663,-34.4181,51.4994],[138.5617,-34.4241,49.6684],[138.5638,-34.4254,49.9848],[138.5663,-34.423,51.1372],[138.5665,-34.4268,48.6188],[138.5714,-34.4327,50.174],[138.5715,-34.4349,47.4045],[138.5666,-34.4394,50.2685],[138.5698,-34.4418,45.9391],[138.5677,-34.449,52.4983],[138.6298,-34.4748,62.4116],[138.6302,-34.6287,29.793],[138.6321,-34.631,28.7478],[138.6346,-34.6295,28.6268],[138.6382,-34.6321,29.8812],[138.6463,-34.6306,32.8576],[138.6465,-34.6287,31.5426],[138.652,-34.6272,32.6642],[138.6502,-34.6261,31.5748],[138.6518,-34.6255,31.5768],[138.6505,-34.624,31.5437],[138.6537,-34.6232,31.9741],[138.6532,-34.6219,31.9849],[138.6556,-34.6233,32.3608],[138.6558,-34.6218,32.0545],[138.658,-34.6217,31.5824],[138.6607,-34.6237,31.2257],[138.6627,-34.6198,34.7281],[138.6674,-34.6201,34.4829],[138.6692,-34.6175,33.7718],[138.667,-34.6151,35.632],[138.6682,-34.6131,34.1585],[138.6712,-34.6158,35.4595],[138.6794,-34.6134,35.8917],[138.6798,-34.6156,36.0051],[138.6844,-34.6159,34.0316],[138.6847,-34.6181,37.1728],[138.6881,-34.6177,37.9291],[138.6897,-34.6158,38.7611],[138.6906,-34.6176,36.0207],[138.6982,-34.6178,38.6782],[138.7017,-34.6152,40.7613],[138.7035,-34.618,39.0889],[138.705,-34.6144,41.7726],[138.7098,-34.6173,41.0759],[138.7116,-34.6163,41.4839],[138.7095,-34.6154,43.5656],[138.7133,-34.613,38.2403],[138.7153,-34.615,45.5443],[138.7167,-34.6125,44.5891],[138.7145,-34.6116,41.1731],[138.7166,-34.6096,44.7134],[138.7183,-34.6121,44.2484],[138.7227,-34.6122,44.3833],[138.7267,-34.6077,43.2944],[138.7289,-34.6075,43.5994],[138.7256,-34.6045,47.2018],[138.7309,-34.593,56.1139],[138.7327,-34.5842,55.6359],[138.7465,-34.5717,90.3823],[138.7483,-34.587,58.3252],[138.7558,-34.5882,59.5813],[138.7582,-34.5836,51.8113],[138.7521,-34.5809,54.3487],[138.7514,-34.5783,53.8817],[138.7579,-34.5767,60.4245],[138.7598,-34.5729,69.8556],[138.7629,-34.5716,82.2949],[138.7618,-34.5692,58.9904],[138.7696,-34.5687,68.3255],[138.7704,-34.567,66.7562],[138.769,-34.5655,65.5388],[138.7733,-34.5605,67.146],[138.7907,-34.5626,73.3059],[138.7912,-34.5609,74.0598],[138.7889,-34.5599,84.2682],[138.7883,-34.5564,74.281],[138.7924,-34.5574,74.5734],[138.7961,-34.5554,90.8538],[138.7932,-34.5526,106.6882],[138.7939,-34.5513,80.021],[138.7964,-34.5522,78.9602],[138.8035,-34.5508,88.1129],[138.8058,-34.5559,82.4308],[138.8006,-34.5587,92.2482],[138.8017,-34.5605,95.5623],[138.8072,-34.5603,88.9527],[138.8079,-34.5578,115.222],[138.8132,-34.5578,100.336],[138.813,-34.5624,90.1939],[138.82,-34.561,111.9187],[138.8206,-34.5637,96.9131],[138.8257,-34.5649,95.5129],[138.8233,-34.5688,96.6011],[138.8269,-34.5704,100.2979],[138.8325,-34.564,99.55],[138.831,-34.5593,109.6981],[138.8321,-34.5545,109.1593],[138.8372,-34.5561,105.5215],[138.8383,-34.5552,105.5215],[138.8372,-34.5541,103.4448],[138.8401,-34.553,106.309],[138.8516,-34.5574,112.4058],[138.8516,-34.5538,117.2152],[138.8563,-34.5529,131.5635],[138.8539,-34.5504,120.8156],[138.8577,-34.5508,120.2729],[138.8605,-34.5487,126.0868],[138.8616,-34.5535,142.3324],[138.8672,-34.5544,131.5724],[138.8674,-34.5583,139.3439],[138.8704,-34.5564,127.5456],[138.8721,-34.5575,162.27],[138.8721,-34.5587,145.0545],[138.8687,-34.5597,130.1551],[138.8687,-34.567,133.7139],[138.8726,-34.5699,143.0067],[138.8742,-34.5742,142.4751],[138.882,-34.5733,146.9205],[138.8907,-34.5691,177.9036],[138.8922,-34.5714,164.7542],[138.8963,-34.5676,175.3879],[138.898,-34.5694,163.6757],[138.9001,-34.5683,164.5041],[138.9022,-34.5724,167.4512],[138.9091,-34.5767,187.859],[138.9136,-34.5768,190.6573],[138.9137,-34.5749,186.7125],[138.916,-34.5796,190.8954],[138.9152,-34.5842,191.6499],[138.9196,-34.585,203.8423],[138.9242,-34.5837,194.9167],[138.9284,-34.5648,214.0796],[138.9309,-34.5608,228.0529],[138.9359,-34.5591,229.8653],[138.9366,-34.556,228.5011],[138.9402,-34.5552,227.2851],[138.9471,-34.5442,229.9843],[138.9366,-34.5388,262.3466],[138.9388,-34.5354,263.4851],[138.9454,-34.5344,234.2424],[138.9488,-34.5316,237.1896],[138.9479,-34.5289,245.1433],[138.9499,-34.5273,241.6592],[138.9492,-34.5256,238.7151],[138.9594,-34.5153,245.8134],[138.9594,-34.5113,256.682],[138.9633,-34.5062,250.4482],[138.9703,-34.5071,255.4918],[138.9701,-34.4988,256.0877],[138.9782,-34.4904,260.3513],[138.9773,-34.4886,260.891],[138.9697,-34.4862,275.6761],[138.9782,-34.4664,273.9722],[138.9747,-34.4601,285.9208],[138.9732,-34.4499,294.0112],[139.002,-34.4585,276.3445],[139.0576,-34.4245,346.1602],[139.0796,-34.42,356.2168],[139.1013,-34.4117,376.4712]]]]}
,"properties": {"GID_2": "AUS.8.27_1","GID_0": "AUS","country": "Australia","GID_1": "AUS.8_1","state": "SouthAustralia","NL_NAME_1": "NA","county": "Light","VARNAME_2": "NA","NL_NAME_2": "NA","TYPE_2": "RegionalCouncil","ENGTYPE_2": "RegionalCouncil","CC_2": "43650","HASC_2": "AU.SA.LI","name": "Light.county","area_km2": 1278.7772,"hist_schema_id": "Elevation0-9000","hist_area_km2": {"25": 27.4725,"50": 76.7664,"75": 96.9574,"100": 69.0712,"125": 60.2314,"150": 93.2432,"175": 117.4113,"200": 73.0487,"225": 67.2833,"250": 87.638,"275": 126.774,"300": 91.5667,"325": 75.5152,"350": 80.734,"375": 67.6398,"400": 40.9757,"425": 18.2517,"450": 6.253,"475": 1.2259,"500": 0.7005,"525": 0.0175}}}