{"type": "Feature","bbox": [122.9617,-12.532,123.5556,-12.2372],"geometry": {"type": "MultiPolygon","coordinates": [[[[123.5554,-12.5318,0.0],[123.5556,-12.5302,0.0],[123.5524,-12.531,0.0],[123.5534,-12.532,0.0],[123.5554,-12.5318,0.0]]],
[[[123.1319,-12.2472,0.0],[123.1292,-12.2478,0.0],[123.1318,-12.2498,0.0],[123.1269,-12.2481,0.0],[123.1253,-12.25,0.0],[123.1261,-12.2528,0.0],[123.1308,-12.2569,0.0],[123.1342,-12.2494,0.0],[123.1319,-12.2472,0.0]]],
[[[123.1346,-12.2441,0.0],[123.1341,-12.2395,0.0],[123.1323,-12.2372,0.0],[123.1303,-12.2436,0.0],[123.1346,-12.2441,0.0]]],
[[[123.0365,-12.2581,0.0],[123.0343,-12.2572,0.0],[123.0355,-12.2598,0.0],[123.0341,-12.2629,0.0],[123.0342,-12.2594,0.0],[123.0327,-12.2618,0.0],[123.0294,-12.2626,0.0],[123.0311,-12.2658,0.0],[123.0303,-12.2669,0.0],[123.0264,-12.2642,0.0],[123.0197,-12.2708,0.0],[123.0189,-12.2722,0.0],[123.0208,-12.2756,0.0],[123.025,-12.2758,0.0],[123.0267,-12.2725,0.0],[123.0322,-12.2747,0.0],[123.0308,-12.2769,0.0],[123.0292,-12.2767,0.0],[123.0303,-12.2781,0.0],[123.0369,-12.2794,0.0],[123.0386,-12.2761,0.0],[123.0431,-12.2767,0.0],[123.0497,-12.2744,0.0],[123.0489,-12.2767,0.0],[123.05,-12.2775,0.0],[123.0539,-12.2747,0.0],[123.0581,-12.2767,0.0],[123.064,-12.2737,0.0],[123.0668,-12.2748,0.0],[123.0661,-12.2714,0.0],[123.0678,-12.2675,0.0],[123.0656,-12.2602,0.0],[123.0625,-12.2629,0.0],[123.063,-12.2649,0.0],[123.0604,-12.2654,0.0],[123.0581,-12.2686,0.0],[123.0515,-12.2575,0.0],[123.0489,-12.2613,0.0],[123.0444,-12.2614,0.0],[123.04,-12.2689,0.0],[123.0372,-12.2656,0.0],[123.0365,-12.2581,0.0]]],
[[[123.1189,-12.255,0.0],[123.1143,-12.2501,0.0],[123.11,-12.255,0.0],[123.1061,-12.2642,0.0],[123.0989,-12.2544,0.0],[123.0925,-12.2589,0.0],[123.0919,-12.2653,0.0],[123.0865,-12.2701,0.0],[123.0869,-12.2681,0.0],[123.0883,-12.2667,0.0],[123.0822,-12.2606,0.0],[123.0779,-12.263,0.0],[123.0783,-12.2647,0.0],[123.075,-12.2683,0.0],[123.0808,-12.2722,0.0],[123.08,-12.2758,0.0],[123.0811,-12.2769,0.0],[123.0839,-12.2764,0.0],[123.084,-12.2738,0.0],[123.0855,-12.274,0.0],[123.0851,-12.2764,0.0],[123.0881,-12.2742,0.0],[123.0919,-12.2744,0.0],[123.0936,-12.2748,0.0],[123.0944,-12.2781,0.0],[123.0964,-12.2744,0.0],[123.0961,-12.2778,0.0],[123.0986,-12.2789,0.0],[123.1006,-12.2736,0.0],[123.1031,-12.2742,0.0],[123.1042,-12.2764,0.0],[123.1066,-12.2738,0.0],[123.1061,-12.2761,0.0],[123.1072,-12.2764,0.0],[123.1086,-12.2736,0.0],[123.113,-12.2755,0.0],[123.1118,-12.2722,0.0],[123.1143,-12.2738,0.0],[123.1158,-12.2721,0.0],[123.1174,-12.2741,0.0],[123.1183,-12.2722,0.0],[123.1213,-12.2748,0.0],[123.1224,-12.2726,0.0],[123.1214,-12.2716,0.0],[123.115,-12.2708,0.0],[123.1261,-12.2708,0.0],[123.1233,-12.2691,0.0],[123.1275,-12.2661,0.0],[123.1269,-12.2639,0.0],[123.1294,-12.2617,0.0],[123.13,-12.2578,0.0],[123.1282,-12.2574,0.0],[123.1258,-12.2533,0.0],[123.1239,-12.2553,0.0],[123.1208,-12.2536,0.0],[123.1236,-12.2578,0.0],[123.1228,-12.2586,0.0],[123.1189,-12.255,0.0]]],
[[[123.0189,-12.2589,0.0],[123.0161,-12.2586,0.0],[123.015,-12.2661,0.0],[123.0164,-12.2683,0.0],[123.0194,-12.2608,0.0],[123.0189,-12.2589,0.0]]],
[[[122.9689,-12.2408,0.9099],[122.9669,-12.2397,2.8182],[122.9617,-12.2411,0.9567],[122.97,-12.2453,0.4607],[122.9711,-12.2436,3.8136],[122.9689,-12.2408,0.9099]]]]}
,"properties": {"GID_1": "AUS.1_1","GID_0": "AUS","country": "Australia","state": "AshmoreandCartierIslands","VARNAME_1": "NA","NL_NAME_1": "NA","TYPE_1": "Territory","ENGTYPE_1": "Territory","CC_1": "12","HASC_1": "AU.AS","ISO_1": "NA","name": "AshmoreandCartierIslands.state","area_km2": 17.87973,"hist_schema_id": "Elevation0-9000","hist_area_km2": {"0": 17.77613,"25": 0.10359}}}