{"type": "Feature","bbox": [116.7248,-35.067,117.4881,-34.7533],"geometry": {"type": "MultiPolygon","coordinates": [[[[117.2603,-35.027,0.0],[117.261,-35.0268,0.0],[117.2611,-35.0263,0.0],[117.2603,-35.0263,0.0],[117.2603,-35.027,0.0]]],
[[[117.2629,-35.0258,0.0],[117.2634,-35.026,0.0],[117.2638,-35.0256,0.0],[117.2631,-35.0254,0.0],[117.2629,-35.0258,0.0]]],
[[[117.262,-35.0257,0.0],[117.2625,-35.0259,0.0],[117.2627,-35.0258,0.0],[117.2616,-35.0254,0.0],[117.262,-35.0257,0.0]]],
[[[117.1528,-35.064,0.0],[117.1505,-35.0633,0.0],[117.1519,-35.064,0.0],[117.1511,-35.067,0.0],[117.157,-35.0669,0.0],[117.1563,-35.0656,0.0],[117.1528,-35.064,0.0]]],
[[[117.2594,-35.0277,0.0],[117.2539,-35.0277,2.3277],[117.2533,-35.0289,0.0],[117.2571,-35.029,0.0],[117.2594,-35.0277,0.0]]],
[[[117.4875,-34.8871,21.6923],[117.4881,-34.7636,71.7893],[117.4825,-34.7636,83.3225],[117.4824,-34.7611,87.4288],[117.474,-34.7611,145.4297],[117.474,-34.7575,111.726],[117.4488,-34.759,112.7387],[117.447,-34.7604,114.1955],[117.4497,-34.7642,125.5026],[117.4563,-34.7675,152.0547],[117.4466,-34.7679,133.3648],[117.4467,-34.7691,148.8841],[117.4291,-34.7692,132.0562],[117.429,-34.7672,137.4506],[117.4243,-34.767,147.4128],[117.408,-34.7695,187.5644],[117.3761,-34.7697,152.6207],[117.3634,-34.7644,180.1878],[117.3404,-34.7657,193.6442],[117.3231,-34.7644,185.0495],[117.3229,-34.7536,194.5935],[116.8425,-34.7533,120.5334],[116.8355,-34.7575,148.0054],[116.8381,-34.7625,119.7733],[116.8349,-34.764,127.5535],[116.8347,-34.766,106.3794],[116.8263,-34.7688,109.4666],[116.823,-34.7719,106.2468],[116.8141,-34.7695,121.1293],[116.8179,-34.7777,118.2393],[116.8172,-34.7855,95.2996],[116.8154,-34.7865,96.9602],[116.8125,-34.7834,103.9636],[116.8099,-34.7885,92.0552],[116.8071,-34.7896,94.4662],[116.8083,-34.7901,94.4662],[116.8076,-34.792,102.1614],[116.8051,-34.7918,98.2816],[116.7972,-34.798,91.6826],[116.7996,-34.7979,97.3917],[116.8045,-34.8026,96.0061],[116.8033,-34.8057,87.2848],[116.8067,-34.8083,94.1786],[116.8047,-34.8101,96.234],[116.8106,-34.8107,88.8931],[116.8087,-34.8148,88.2804],[116.8115,-34.8149,94.5118],[116.811,-34.8193,87.0321],[116.8063,-34.8193,100.3202],[116.8078,-34.8241,99.0463],[116.8106,-34.8251,88.8064],[116.8007,-34.8284,114.2383],[116.7979,-34.8318,104.3845],[116.8004,-34.835,97.0213],[116.7997,-34.8363,87.8575],[116.7894,-34.8417,73.6234],[116.7751,-34.8378,98.5642],[116.7755,-34.841,83.1684],[116.773,-34.8431,119.5677],[116.7751,-34.8471,89.3391],[116.7718,-34.8511,77.3266],[116.7722,-34.8536,68.3621],[116.7666,-34.853,78.9492],[116.7656,-34.856,78.5072],[116.7626,-34.8558,84.3518],[116.7624,-34.8576,72.3608],[116.7591,-34.8582,78.9165],[116.7574,-34.8604,79.3728],[116.757,-34.8689,71.3571],[116.7597,-34.8733,71.4705],[116.7538,-34.8718,60.8843],[116.7465,-34.8788,59.6502],[116.7427,-34.8725,59.7797],[116.7351,-34.8719,57.8748],[116.739,-34.8768,59.2069],[116.7318,-34.879,54.8501],[116.729,-34.8782,54.942],[116.7279,-34.8821,63.5198],[116.7298,-34.8817,68.4721],[116.7305,-34.8834,63.4222],[116.7294,-34.8851,84.1006],[116.7259,-34.8855,66.9437],[116.7266,-34.8883,78.0454],[116.7248,-34.8905,57.8779],[116.7295,-34.8914,71.4058],[116.7315,-34.896,67.1562],[116.7348,-34.8973,87.4422],[116.7408,-34.9038,60.2196],[116.7452,-34.9032,73.886],[116.7456,-34.9003,78.3663],[116.7545,-34.8982,64.718],[116.7572,-34.8983,59.6315],[116.7585,-34.9009,57.8517],[116.7646,-34.9032,77.659],[116.7697,-34.9018,57.9249],[116.772,-34.8985,51.0205],[116.774,-34.902,47.3059],[116.7821,-34.8998,95.6768],[116.7824,-34.9044,64.155],[116.7902,-34.9079,54.8543],[116.7881,-34.9103,47.029],[116.7895,-34.912,49.3122],[116.7884,-34.9141,43.4795],[116.7897,-34.918,59.3894],[116.7923,-34.92,46.9097],[116.7892,-34.9204,48.0786],[116.7883,-34.9226,46.0763],[116.7852,-34.9202,44.0177],[116.7852,-34.925,61.8848],[116.7801,-34.9298,47.0293],[116.7827,-34.9298,51.3123],[116.7876,-34.9358,38.4618],[116.7953,-34.937,46.9499],[116.7928,-34.9391,39.1787],[116.8019,-34.9439,38.8118],[116.801,-34.9471,51.3769],[116.8077,-34.9512,49.5463],[116.8122,-34.9498,51.6355],[116.8128,-34.9478,70.8548],[116.8194,-34.9471,34.4119],[116.8269,-34.9528,59.434],[116.8266,-34.9542,40.1127],[116.8226,-34.9549,51.6676],[116.8253,-34.9559,76.9249],[116.8233,-34.9583,33.7157],[116.8254,-34.9607,59.6679],[116.8199,-34.9613,48.8418],[116.8141,-34.9655,38.0247],[116.8113,-34.9632,31.3999],[116.8096,-34.9668,45.7169],[116.8055,-34.9668,38.0733],[116.8018,-34.97,26.7254],[116.8061,-34.9732,46.836],[116.8117,-34.9731,23.1927],[116.8227,-34.9806,4.3461],[116.8159,-34.9835,19.4507],[116.8166,-34.9852,40.0348],[116.822,-34.9858,23.5744],[116.8189,-34.9871,4.3118],[116.8218,-34.9889,13.353],[116.8124,-34.9918,1.6826],[116.8109,-34.9999,3.2619],[116.8064,-35.0023,1.951],[116.7877,-35.0042,0.5],[116.7785,-35.0007,4.0197],[116.7709,-35.0024,2.0949],[116.7643,-35.0009,0.0],[116.7543,-35.0013,0.6643],[116.743,-35.0096,10.6636],[116.7375,-35.0164,3.7813],[116.7358,-35.0198,0.0],[116.7367,-35.0259,0.0],[116.7349,-35.0296,0.0],[116.7377,-35.0299,2.6313],[116.7419,-35.0225,0.0],[116.7484,-35.0183,0.0],[116.7681,-35.0147,0.0],[116.7809,-35.016,4.6076],[116.7915,-35.0185,2.5161],[116.8136,-35.0273,7.615],[116.8242,-35.034,2.9336],[116.8259,-35.0377,11.585],[116.8235,-35.0398,0.0],[116.8289,-35.039,21.9123],[116.8261,-35.0423,3.9372],[116.8269,-35.0433,0.0],[116.8311,-35.0428,19.2454],[116.835,-35.0393,35.488],[116.8356,-35.041,0.3765],[116.8381,-35.0393,9.3717],[116.8444,-35.0403,10.6871],[116.8484,-35.0454,20.6674],[116.846,-35.0473,14.3609],[116.8464,-35.0494,9.685],[116.8538,-35.0479,75.362],[116.859,-35.0508,28.4991],[116.8591,-35.0534,0.0],[116.862,-35.0566,0.0],[116.8617,-35.0536,8.7959],[116.8659,-35.0485,9.322],[116.8718,-35.0482,0.0],[116.8752,-35.0507,2.6796],[116.8795,-35.0482,0.0],[116.8846,-35.0478,18.5962],[116.8888,-35.0501,6.3],[116.8908,-35.055,0.0],[116.8928,-35.0543,15.5615],[116.8959,-35.0567,0.0],[116.8997,-35.0547,0.5144],[116.9038,-35.0548,0.0],[116.906,-35.0558,17.6016],[116.9058,-35.0587,3.2741],[116.9128,-35.0582,2.8243],[116.9158,-35.0603,4.3875],[116.9156,-35.0624,0.9817],[116.9177,-35.0614,0.0],[116.918,-35.0631,1.5584],[116.9212,-35.0643,1.5207],[116.9248,-35.0636,1.7171],[116.9267,-35.06,0.0],[116.9246,-35.0536,0.0],[116.9284,-35.0527,1.3618],[116.9289,-35.0472,1.3342],[116.9314,-35.0441,0.0],[116.9294,-35.0418,8.343],[116.9333,-35.0402,0.0],[116.9344,-35.035,0.0],[116.9446,-35.0259,13.8716],[116.9561,-35.0212,0.0],[116.9568,-35.0194,0.0],[116.9708,-35.0194,4.2405],[116.9851,-35.0219,2.1546],[116.9968,-35.0267,0.0],[117.0106,-35.0296,1.0421],[117.0163,-35.0321,4.3249],[117.0165,-35.0339,0.0],[117.0196,-35.0355,0.0],[117.0197,-35.0339,14.4896],[117.0247,-35.0321,5.9138],[117.0238,-35.0285,0.0],[117.0335,-35.0251,0.0],[117.0557,-35.0304,4.2046],[117.058,-35.0285,0.0],[117.0602,-35.0287,14.3743],[117.0646,-35.0314,35.2924],[117.0632,-35.034,3.1864],[117.0709,-35.0383,0.0],[117.0749,-35.0363,0.0],[117.0721,-35.0332,23.6951],[117.0734,-35.0318,2.8049],[117.0769,-35.0345,0.6038],[117.0773,-35.0317,0.9199],[117.0821,-35.0301,0.0],[117.089,-35.0309,70.8531],[117.0923,-35.033,0.0],[117.0979,-35.0324,25.6586],[117.1026,-35.0344,12.6032],[117.104,-35.0376,0.0],[117.1055,-35.0369,0.0],[117.1093,-35.0391,17.4153],[117.1101,-35.0415,0.0],[117.1112,-35.0399,0.0],[117.1175,-35.042,16.5113],[117.1306,-35.0482,0.0],[117.1341,-35.0509,71.5423],[117.1331,-35.0524,0.0],[117.1348,-35.0551,0.0],[117.1378,-35.0526,58.4002],[117.1411,-35.0522,18.1542],[117.1489,-35.0584,2.6937],[117.1486,-35.0602,0.0],[117.1505,-35.0615,0.0],[117.1561,-35.0581,0.0],[117.151,-35.0553,0.0],[117.1536,-35.0478,13.0292],[117.1568,-35.0456,4.6676],[117.1643,-35.0448,0.0],[117.1617,-35.0417,1.8895],[117.1633,-35.04,0.0],[117.1603,-35.0388,2.6184],[117.16,-35.0352,0.0],[117.1613,-35.0309,0.0],[117.1647,-35.027,3.1457],[117.1824,-35.0191,13.0656],[117.1952,-35.0171,4.1366],[117.2217,-35.0193,16.7272],[117.2261,-35.0233,0.0],[117.2345,-35.0236,2.0126],[117.2366,-35.0271,0.0],[117.23779999999999,-35.0255,9.0195],[117.2382,-35.027,0.0],[117.2475,-35.0293,2.5548],[117.2556,-35.0265,0.0],[117.2555,-35.0254,6.344],[117.2612,-35.0246,0.0],[117.2633,-35.0209,17.3708],[117.2658,-35.0205,17.5802],[117.2685,-35.0222,1.8332],[117.2721,-35.0211,17.7205],[117.3154,-35.0372,12.5396],[117.3172,-35.0396,15.5083],[117.3166,-35.0428,0.0],[117.3186,-35.0405,15.5083],[117.323,-35.0438,0.0],[117.3278,-35.0436,0.0],[117.3336,-35.0408,0.184],[117.3309,-35.0376,41.3337],[117.3356,-35.0371,3.5392],[117.335,-35.0357,22.4143],[117.337,-35.0346,0.9787],[117.3334,-35.0324,32.3015],[117.3335,-35.0307,5.3539],[117.3311,-35.0303,13.7391],[117.3327,-35.0247,0.0],[117.3316,-35.0241,0.5591],[117.3307,-35.0263,5.6953],[117.3289,-35.0254,3.2866],[117.3304,-35.0213,0.0],[117.3274,-35.0207,0.0],[117.3264,-35.0174,0.0],[117.3288,-35.0087,0.7001],[117.3371,-35.0049,1.127],[117.3357,-35.0009,0.0],[117.3363,-34.9956,0.8974],[117.3344,-34.9939,11.249],[117.3363,-34.9954,0.8974],[117.3391,-34.9933,1.1439],[117.3394,-34.9912,12.2905],[117.3419,-34.9914,0.0],[117.3488,-34.987,6.0148],[117.3535,-34.9884,4.7142],[117.354,-34.9913,2.6788],[117.3524,-34.992,2.6788],[117.353,-34.9922,2.6788],[117.3542,-34.9915,3.1268],[117.3548,-34.993,0.0],[117.3557,-34.9907,11.0085],[117.3584,-34.9905,0.0],[117.3606,-34.9862,15.2077],[117.3631,-34.9854,0.0],[117.3628,-34.9813,0.0],[117.365,-34.98,0.0],[117.364,-34.9775,7.9789],[117.3663,-34.9743,9.5043],[117.3677,-34.9749,0.0],[117.3671,-34.9724,2.5549],[117.3692,-34.9695,6.4181],[117.3769,-34.9687,4.7569],[117.3805,-34.9716,0.0],[117.3867,-34.969,21.0022],[117.3971,-34.9716,2.7585],[117.3984,-34.9732,0.0],[117.4049,-34.9735,2.8597],[117.4106,-34.9791,5.3931],[117.4191,-34.9827,7.9258],[117.4208,-34.9854,1.3424],[117.4246,-34.9833,1.7779],[117.4291,-34.9861,0.9287],[117.4311,-34.9821,1.147],[117.4375,-34.98,2.4456],[117.4418,-34.973,0.0],[117.4487,-34.9681,5.7316],[117.4554,-34.967,1.4477],[117.4614,-34.9714,0.0],[117.4633,-34.9706,1.4672],[117.4653,-34.9625,2.5468],[117.4676,-34.9597,4.4473],[117.466,-34.9529,8.9954],[117.4697,-34.9492,5.6656],[117.4724,-34.9497,8.0611],[117.472,-34.9444,14.4783],[117.4755,-34.9442,12.446],[117.4736,-34.9416,10.6836],[117.4739,-34.9389,11.0241],[117.4756,-34.9399,9.4321],[117.4762,-34.9377,12.1735],[117.4745,-34.9375,11.5726],[117.4743,-34.9346,12.4973],[117.4725,-34.9348,11.3886],[117.4772,-34.928,15.1903],[117.4748,-34.9246,14.7979],[117.4763,-34.9204,11.752],[117.4742,-34.9199,15.6415],[117.4733,-34.9175,9.5129],[117.4763,-34.9134,16.5079],[117.4758,-34.9122,18.0679],[117.482,-34.9093,15.4447],[117.4795,-34.9056,12.9063],[117.4827,-34.9047,18.5308],[117.4789,-34.9019,18.4776],[117.4815,-34.9009,18.1866],[117.4809,-34.8992,19.0081],[117.4844,-34.8951,19.9243],[117.4864,-34.8948,20.2829],[117.4851,-34.8919,19.4691],[117.4875,-34.8871,21.6923]]]]}
,"properties": {"GID_2": "AUS.11.39_1","GID_0": "AUS","country": "Australia","GID_1": "AUS.11_1","state": "WesternAustralia","NL_NAME_1": "NA","county": "Denmark","VARNAME_2": "NA","NL_NAME_2": "NA","TYPE_2": "Shire","ENGTYPE_2": "Shire","CC_2": "52730","HASC_2": "AU.WA.DE","name": "Denmark.county","area_km2": 1859.969,"hist_schema_id": "Elevation0-9000","hist_area_km2": {"0": 113.643,"25": 224.045,"50": 246.146,"75": 324.938,"100": 312.708,"125": 298.725,"150": 161.286,"175": 90.972,"200": 45.206,"225": 19.433,"250": 10.563,"275": 5.239,"300": 3.637,"325": 1.514,"350": 0.957,"375": 0.418,"400": 0.261,"425": 0.209,"450": 0.07}}}