{"type": "Feature","bbox": [138.4392,-32.9433,138.8901,-32.1203],"geometry": {"type": "MultiPolygon","coordinates": [[[[138.4401,-32.3232,435.7094],[138.4392,-32.9433,484.7309],[138.7207,-32.9423,478.1608],[138.7195,-32.7683,427.6655],[138.8901,-32.7675,515.7643],[138.8901,-32.4146,331.5904],[138.8265,-32.4147,660.9829],[138.8254,-32.1597,481.1992],[138.7545,-32.1596,604.6879],[138.7545,-32.1203,609.4661],[138.4395,-32.121,384.3864],[138.4401,-32.3232,435.7094]]]]}
,"properties": {"GID_2": "AUS.8.43_1","GID_0": "AUS","country": "Australia","GID_1": "AUS.8_1","state": "SouthAustralia","NL_NAME_1": "NA","county": "Orroroo/Carrieton","VARNAME_2": "NA","NL_NAME_2": "NA","TYPE_2": "DistrictCouncil","ENGTYPE_2": "DistrictCouncil","CC_2": "45400","HASC_2": "AU.SA.OC","name": "Orroroo_Carrieton.county","area_km2": 3325.296,"hist_schema_id": "Elevation0-9000","hist_area_km2": {"300": 29.438,"325": 53.516,"350": 208.954,"375": 254.571,"400": 280.899,"425": 312.005,"450": 362.82,"475": 438.809,"500": 415.316,"525": 335.52,"550": 242.217,"575": 169.24,"600": 111.835,"625": 58.086,"650": 30.272,"675": 13.01,"700": 5.448,"725": 2.054,"750": 0.893,"775": 0.303,"800": 0.054,"825": 0.036}}}