{"type": "Feature","bbox": [131.6461,-22.5809,138.0012,-16.5022],"geometry": {"type": "MultiPolygon","coordinates": [[[[131.6461,-18.3244,211.0054],[132.0219,-18.3241,214.7998],[132.0252,-20.2574,353.4355],[132.1839,-20.393,399.3666],[132.7562,-20.8529,424.6808],[132.7556,-21.0772,449.9279],[133.1611,-21.0772,461.0655],[133.161,-21.1947,480.5373],[133.3264,-21.1948,432.7287],[133.3264,-20.7229,408.366],[133.6572,-20.7229,366.1084],[133.6571,-20.922,393.5149],[133.6604,-21.4077,472.3391],[133.7715,-21.4084,495.8774],[133.7715,-21.5683,513.5038],[133.8908,-21.5683,522.8405],[133.8846,-21.5978,600.431],[133.8713,-21.6165,556.7467],[133.8524,-21.6359,524.762],[133.8485,-21.6508,539.4026],[133.8441,-21.6572,514.7781],[133.8318,-21.6612,512.9388],[133.8082,-21.6876,514.9766],[133.7913,-21.6972,500.4306],[134.372,-21.6997,495.4603],[134.3707,-21.8462,534.1366],[134.4257,-21.8459,539.2997],[134.5251,-21.9451,517.3671],[134.5404,-21.948,522.8015],[134.6091,-22.0449,487.365],[134.6004,-22.1205,484.6895],[134.579,-22.1256,508.1299],[134.5641,-22.1391,493.8765],[134.5441,-22.1521,484.5923],[134.5484,-22.1871,488.6212],[134.5398,-22.2225,492.8242],[134.5603,-22.2291,493.7986],[134.5465,-22.2639,498.5906],[134.5408,-22.2893,500.9688],[134.5307,-22.2974,501.8726],[134.6165,-22.2972,508.3627],[134.6166,-22.3545,535.3961],[134.6278,-22.3545,517.8831],[134.627,-22.4568,534.3418],[134.6331,-22.4617,542.3942],[134.6279,-22.4684,537.7753],[134.6273,-22.4816,535.1483],[134.8854,-22.4816,502.7775],[134.8854,-22.1655,488.9557],[135.152,-22.164,454.7265],[135.1497,-22.5486,479.107],[135.4006,-22.5481,474.0516],[135.4006,-22.4805,573.5791],[135.467,-22.4518,527.0852],[135.6074,-22.5518,493.5734],[135.7702,-22.5538,489.9398],[135.8636,-22.57,419.2941],[135.899,-22.5809,383.2701],[135.9169,-22.5405,388.0682],[135.9799,-22.5475,380.149],[135.9799,-22.1655,370.5217],[136.1506,-22.1654,331.3693],[136.2451,-22.091,349.3082],[136.2498,-22.09,349.7499],[136.252,-22.0858,346.0663],[136.2825,-22.0635,338.085],[136.2933,-22.0598,330.5347],[136.3058,-22.0602,328.6998],[136.3122,-22.0582,326.4761],[136.3342,-22.0366,332.5698],[136.3725,-22.0057,337.0045],[136.4029,-21.9888,314.3836],[136.4166,-21.9964,305.8932],[136.4209,-21.9949,310.0072],[136.427,-21.9879,312.1604],[136.4523,-21.9795,320.8587],[136.4901,-21.9784,298.0084],[136.4901,-21.9981,299.4399],[137.6814,-21.9984,202.3983],[137.6815,-21.9293,219.0856],[137.9976,-21.9292,223.6679],[137.996,-18.9985,246.8104],[137.9966,-18.8682,249.6556],[138.0012,-18.6465,220.2761],[138.0012,-17.6114,267.4085],[137.592,-17.6114,263.6089],[137.592,-17.4998,265.6838],[136.8263,-17.4999,313.2542],[136.8263,-17.4547,304.188],[136.0616,-17.4547,246.5543],[136.0608,-17.2657,225.7609],[135.881,-17.2657,227.0971],[135.881,-16.9537,194.8586],[135.9402,-16.919,173.3626],[135.7764,-16.793,185.0365],[135.7764,-16.9537,193.2863],[135.5846,-16.9537,154.2177],[135.5846,-17.1207,194.1403],[135.0754,-17.1215,291.5247],[135.0755,-16.5022,187.9826],[134.8479,-16.5022,239.1521],[134.8479,-16.6476,232.9032],[134.4426,-16.6478,282.8144],[134.4426,-16.8665,250.6284],[133.5883,-16.8663,258.4575],[133.5883,-17.1224,229.1194],[133.2893,-17.1227,222.2768],[133.2818,-17.0936,222.3537],[133.2594,-17.0902,225.8743],[133.2594,-17.0756,226.4285],[133.2116,-17.0756,227.8259],[133.2115,-16.8655,228.7403],[132.9629,-16.8656,236.0278],[132.9638,-16.7927,232.82],[132.7374,-16.7927,245.3113],[132.7374,-16.5832,289.4095],[132.402,-16.5832,288.7832],[132.402,-17.3063,254.877],[132.0923,-17.3062,239.841],[132.0928,-17.5964,225.0875],[132.1223,-17.5964,224.4677],[132.1223,-17.818,207.2002],[131.6466,-17.8181,210.0615],[131.6461,-18.3244,211.0054]]]]}
,"properties": {"GID_2": "AUS.6.2_1","GID_0": "AUS","country": "Australia","GID_1": "AUS.6_1","state": "NorthernTerritory","NL_NAME_1": "NA","county": "Barkly","VARNAME_2": "NA","NL_NAME_2": "NA","TYPE_2": "Shire","ENGTYPE_2": "Shire","CC_2": "70420","HASC_2": "NA","name": "Barkly.county","area_km2": 323784.0,"hist_schema_id": "Elevation0-9000","hist_area_km2": {"100": 54.48,"125": 141.52,"150": 440.95,"175": 984.71,"200": 26635.8,"225": 78306.0,"250": 70648.66,"275": 41351.75,"300": 27248.66,"325": 18298.8,"350": 13401.33,"375": 11701.04,"400": 10303.99,"425": 7548.05,"450": 5798.51,"475": 4819.48,"500": 2990.75,"525": 1772.54,"550": 835.34,"575": 333.28,"600": 108.87,"625": 39.96,"650": 13.85,"675": 5.18}}}