{"type":"Feature","properties":{"GID_2":"AUS.8.32_1","GID_0":"AUS","country":"Australia","GID_1":"AUS.8_1","state":"SouthAustralia","NL_NAME_1":"NA","county":"Marion","VARNAME_2":"NA","NL_NAME_2":"NA","TYPE_2":"City","ENGTYPE_2":"City","CC_2":"44060","HASC_2":"AU.SA.MA","name":"Marion.county"},
"geometry":{"type": "MultiPolygon","coordinates": [[[[138.5118,-35.0409,0.0],[138.5085,-35.0441,7.4526],[138.5025,-35.0607,4.1812],[138.4968,-35.0704,10.0887],[138.4953,-35.0746,0.0],[138.4957,-35.0803,25.6873],[138.4937,-35.0844,2.3119],[138.4857,-35.0909,0.9975],[138.4894,-35.091,57.7043],[138.4928,-35.0933,60.8847],[138.4956,-35.0906,39.8059],[138.5386,-35.0889,91.9792],[138.5419,-35.087,110.0053],[138.5539,-35.0715,153.1441],[138.5552,-35.0645,172.7013],[138.5599,-35.0598,177.6434],[138.5594,-35.0502,186.6569],[138.5611,-35.0449,174.9599],[138.5595,-35.0397,148.6687],[138.5605,-35.0368,116.2347],[138.5561,-35.0311,73.5887],[138.5589,-35.0265,57.4631],[138.5762,-35.011,62.137],[138.5723,-34.9585,26.5245],[138.5291,-34.9794,8.4724],[138.5296,-34.9869,10.3902],[138.5237,-34.9872,8.2401],[138.5267,-34.9914,10.0121],[138.5308,-34.9911,12.0343],[138.5299,-34.9957,12.1037],[138.5335,-35.0372,84.1544],[138.5245,-35.0375,59.3693],[138.5247,-35.0404,71.8811],[138.5154,-35.0422,40.252],[138.5118,-35.0409,0.0]]]]}}