{"type": "Feature","bbox": [145.9513,-41.9746,147.1401,-41.3245],"geometry": {"type": "MultiPolygon","coordinates": [[[[146.7693,-41.7267,1155.7034],[146.7723,-41.725,1126.1644],[146.7791,-41.713,677.1333],[146.7718,-41.7001,458.9637],[146.7745,-41.697,484.3098],[146.7726,-41.6955,472.5794],[146.7751,-41.6852,543.8291],[146.7767,-41.6854,498.4612],[146.7775,-41.6822,509.4392],[146.7813,-41.6826,433.1652],[146.786,-41.6799,400.5508],[146.7888,-41.6829,389.2467],[146.793,-41.6824,396.9629],[146.7982,-41.6846,422.5651],[146.807,-41.6817,343.1813],[146.8095,-41.6826,327.4485],[146.8105,-41.6812,345.3758],[146.8186,-41.68,309.4865],[146.8214,-41.681,313.249],[146.8259,-41.6789,298.5498],[146.8287,-41.6812,294.9061],[146.8319,-41.6806,296.0753],[146.837,-41.6828,289.2211],[146.8423,-41.6832,302.287],[146.8447,-41.6804,290.2841],[146.8517,-41.6819,257.0054],[146.8546,-41.6841,247.6481],[146.8711,-41.6705,229.2583],[146.8722,-41.6715,226.4835],[146.879,-41.6677,218.3861],[146.8886,-41.6677,214.2535],[146.8955,-41.665,207.9428],[146.8962,-41.6661,207.9428],[146.9046,-41.6656,202.9664],[146.9088,-41.6675,199.8916],[146.9118,-41.6668,203.2738],[146.9174,-41.6773,195.9034],[146.9201,-41.6776,212.1114],[146.922,-41.682,192.8784],[146.9257,-41.6813,191.6989],[146.9274,-41.6788,193.9768],[146.9272,-41.6713,187.4335],[146.9315,-41.6735,187.521],[146.9338,-41.6709,191.6819],[146.9359,-41.672,186.8767],[146.9372,-41.6668,184.0212],[146.9416,-41.6669,183.4847],[146.9422,-41.665,183.423],[146.9445,-41.6644,185.5167],[146.9442,-41.6615,180.5867],[146.9459,-41.661,181.2288],[146.9475,-41.6562,180.2175],[146.9451,-41.6538,180.5879],[146.9532,-41.649,177.3212],[146.955,-41.6493,176.9866],[146.9548,-41.6476,175.7566],[146.9575,-41.645,175.2651],[146.9538,-41.6433,173.7348],[146.9514,-41.64,172.8642],[146.9541,-41.6373,171.6084],[146.9512,-41.6333,170.8802],[146.9516,-41.6304,169.8774],[146.9593,-41.6227,167.4271],[146.9626,-41.616,166.819],[146.9656,-41.614,166.2389],[146.9678,-41.6056,164.17],[146.9893,-41.5847,160.0718],[146.9967,-41.5793,158.5594],[147.0291,-41.5838,184.1815],[147.0317,-41.5725,172.0958],[147.0516,-41.5753,176.9867],[147.0564,-41.5805,180.205],[147.0649,-41.5761,161.9882],[147.0549,-41.5654,160.1464],[147.0851,-41.5494,130.3288],[147.0847,-41.5469,130.7051],[147.0908,-41.5436,130.3709],[147.0919,-41.5419,130.1212],[147.0895,-41.5441,134.9229],[147.0946,-41.5378,130.7588],[147.0846,-41.5371,130.5353],[147.0776,-41.5288,134.5927],[147.0682,-41.5234,128.3429],[147.0886,-41.5099,150.7528],[147.0939,-41.5131,168.3678],[147.1004,-41.5072,205.9361],[147.1025,-41.5085,235.0451],[147.1292,-41.493899999999996,204.5863],[147.126,-41.4905,182.5869],[147.1401,-41.483,125.6209],[147.1337,-41.4764,187.5113],[147.1289,-41.4775,183.4445],[147.1297,-41.4755,185.4338],[147.1282,-41.4738,176.6924],[147.1241,-41.4744,174.6075],[147.1207,-41.4708,172.8751],[147.115,-41.4733,165.628],[147.1033,-41.4659,88.3502],[147.0989,-41.4609,146.9123],[147.1002,-41.4575,119.931],[147.0891,-41.4522,116.7187],[147.0846,-41.4469,129.0371],[147.0786,-41.4454,131.0657],[147.075,-41.4488,135.8635],[147.0755,-41.4512,132.0082],[147.069,-41.4542,126.5],[147.0729,-41.4568,130.7221],[147.0679,-41.4553,126.5],[147.0655,-41.4589,130.4023],[147.0318,-41.4373,219.3572],[147.033,-41.4355,191.1187],[147.0313,-41.4332,185.9912],[147.0322,-41.431,187.2132],[147.0297,-41.4276,177.3532],[147.0304,-41.4258,170.1442],[147.008,-41.4452,300.3379],[146.994,-41.4434,213.6247],[146.9961,-41.4318,328.748],[146.972,-41.429,207.43],[146.966,-41.4249,194.5469],[146.9497,-41.4181,179.4018],[146.9343,-41.4085,204.2956],[146.9378,-41.4052,229.3544],[146.9294,-41.4002,227.2969],[146.9313,-41.3994,231.0315],[146.9264,-41.391,243.3921],[146.9288,-41.3902,231.3056],[146.9282,-41.3894,232.9065],[146.9177,-41.3847,206.8578],[146.9103,-41.3778,205.1832],[146.9,-41.3865,242.2942],[146.8728,-41.3912,239.8293],[146.8254,-41.3836,232.1674],[146.8253,-41.3851,207.1934],[146.819,-41.3824,206.5373],[146.8195,-41.3794,238.1314],[146.8096,-41.3782,226.6798],[146.8095,-41.3754,236.6465],[146.8025,-41.3747,264.3334],[146.8011,-41.3772,289.261],[146.7993,-41.377,336.9644],[146.7986,-41.3804,360.2963],[146.7834,-41.3782,299.9389],[146.7836,-41.3772,318.8077],[146.7716,-41.3757,301.9156],[146.6975,-41.3553,353.5284],[146.7036,-41.3327,282.9166],[146.6199,-41.3245,171.4753],[146.6175,-41.3379,183.5748],[146.5896,-41.3348,216.0557],[146.587,-41.3476,163.7536],[146.5809,-41.3469,154.9872],[146.5829,-41.3531,153.2102],[146.5866,-41.3537,150.9086],[146.5899,-41.3564,144.5559],[146.5899,-41.3617,145.0013],[146.5573,-41.3579,159.4831],[146.5576,-41.3561,162.4919],[146.5482,-41.355,169.8022],[146.5456,-41.3674,170.6485],[146.5281,-41.365,161.6812],[146.4948,-41.3779,87.506],[146.5023,-41.3898,57.1613],[146.4964,-41.3955,51.9287],[146.4843,-41.3988,65.9507],[146.4836,-41.4054,59.9493],[146.4802,-41.4054,57.0378],[146.474,-41.4011,71.8268],[146.4683,-41.4053,61.6215],[146.4668,-41.411,69.0489],[146.4681,-41.4131,62.8065],[146.4681,-41.42,93.8853],[146.4613,-41.4239,69.8418],[146.4592,-41.4272,73.6475],[146.4662,-41.4329,78.2162],[146.4685,-41.4376,83.3683],[146.4632,-41.4479,76.7629],[146.4678,-41.4547,103.2531],[146.4557,-41.4564,84.6149],[146.4498,-41.4587,108.9219],[146.4536,-41.463,86.9266],[146.4498,-41.4659,112.414],[146.4538,-41.4691,92.3137],[146.4472,-41.473,95.283],[146.4569,-41.4744,123.356],[146.4589,-41.4765,109.4886],[146.4574,-41.4795,91.0006],[146.4557,-41.4797,116.4127],[146.458,-41.4823,124.6286],[146.4667,-41.4793,93.5705],[146.4665,-41.476,117.721],[146.4772,-41.4785,99.7506],[146.4802,-41.4837,101.9394],[146.4872,-41.4874,99.7841],[146.494,-41.4886,116.2221],[146.4976,-41.4958,102.7344],[146.4908,-41.5027,125.5858],[146.4941,-41.5148,157.9975],[146.4703,-41.5136,714.0315],[146.4618,-41.5109,660.4108],[146.4532,-41.5115,690.7606],[146.451,-41.5103,700.0656],[146.4464,-41.512,668.0564],[146.4389,-41.5112,673.0667],[146.4158,-41.5132,709.177],[146.3823,-41.5067,697.1948],[146.3531,-41.5086,360.0829],[146.3211,-41.5047,255.3261],[146.2596,-41.4904,1047.5929],[146.2293,-41.4879,479.5028],[146.1888,-41.513,699.9483],[146.1875,-41.5195,710.8995],[146.1986,-41.5228,623.5343],[146.1853,-41.5713,735.2923],[146.1933,-41.5722,754.1733],[146.1924,-41.5758,746.6576],[146.1863,-41.5749,734.9641],[146.1855,-41.578,748.5384],[146.1773,-41.5769,736.5834],[146.1741,-41.5888,744.3504],[146.1819,-41.5897,760.2184],[146.1789,-41.6026,762.6234],[146.1832,-41.6032,767.0459],[146.1818,-41.6089,761.2376],[146.189,-41.6098,762.0413],[146.1864,-41.6183,783.7484],[146.1741,-41.6162,706.6595],[146.1767,-41.6072,713.0713],[146.173,-41.6018,730.4258],[146.0568,-41.5798,750.5065],[146.0491,-41.5799,747.4492],[146.0491,-41.578,802.0795],[146.0268,-41.577,732.7037],[145.9513,-41.6847,1500.4862],[146.0505,-41.9746,1434.798],[146.3138,-41.9259,1097.3467],[146.3145,-41.9243,1093.0],[146.3228,-41.9219,1101.6914],[146.3256,-41.9186,1097.2089],[146.3364,-41.916,1055.689],[146.3362,-41.9127,1057.4469],[146.3467,-41.906,1030.9211],[146.3485,-41.9079,1030.9402],[146.351,-41.9072,1027.1044],[146.3465,-41.9016,1029.9341],[146.3483,-41.8994,1026.8356],[146.3454,-41.891,1030.9645],[146.3618,-41.8853,1063.295],[146.3606,-41.8838,1057.9645],[146.3628,-41.8803,1072.5721],[146.361,-41.8795,1062.2668],[146.36,-41.8759,1064.3209],[146.3751,-41.8555,1177.4517],[146.3881,-41.8424,1205.0155],[146.3899,-41.827,1229.5486],[146.3913,-41.8265,1227.8254],[146.3797,-41.8203,1236.1099],[146.3776,-41.8152,1238.5],[146.3787,-41.8137,1239.5492],[146.3816,-41.8151,1248.9731],[146.3804,-41.8123,1238.7939],[146.3833,-41.8132,1247.0353],[146.3811,-41.8097,1242.37],[146.3827,-41.809,1239.3823],[146.3826,-41.8069,1239.5984],[146.3777,-41.8071,1245.9659],[146.3791,-41.8085,1238.5],[146.377,-41.8092,1240.5696],[146.3792,-41.8098,1238.5],[146.3789,-41.8116,1238.7939],[146.3768,-41.8118,1238.5],[146.3754,-41.8101,1239.1428],[146.3764,-41.8092,1242.0493],[146.3712,-41.8057,1251.0149],[146.3703,-41.803,1256.1046],[146.3648,-41.8016,1265.6813],[146.3672,-41.8004,1261.9353],[146.3595,-41.7932,1268.4902],[146.3603,-41.7916,1264.3174],[146.3589,-41.7924,1261.8855],[146.3559,-41.7893,1260.9291],[146.3558,-41.7879,1262.9607],[146.358,-41.7892,1262.7454],[146.355,-41.7862,1265.6899],[146.3551,-41.784,1268.2322],[146.3527,-41.7829,1264.801],[146.3502,-41.7761,1242.0593],[146.3848,-41.7604,1377.2393],[146.3907,-41.7437,1254.9818],[146.4333,-41.7308,1339.1267],[146.5032,-41.7309,1268.3169],[146.5068,-41.7321,1214.3925],[146.5043,-41.7342,1240.0803],[146.5084,-41.7374,1254.2258],[146.5238,-41.7386,1256.0771],[146.5263,-41.7401,1259.0898],[146.5257,-41.7427,1245.337],[146.5286,-41.744,1236.5232],[146.5401,-41.7461,1201.4971],[146.541,-41.7427,1116.8022],[146.5444,-41.7407,1112.4655],[146.5477,-41.7399,1195.1527],[146.5506,-41.741,1176.3602],[146.5556,-41.7386,1168.0328],[146.5632,-41.7429,1157.2695],[146.5776,-41.746,1121.0535],[146.5939,-41.743899999999996,1127.7404],[146.614,-41.7504,1104.6077],[146.6173,-41.7545,1025.0005],[146.623,-41.7577,1107.8982],[146.6209,-41.7541,1064.3562],[146.6211,-41.7476,1045.9528],[146.624,-41.7435,1111.9211],[146.6238,-41.741,1064.3824],[146.628,-41.7369,1090.7921],[146.6418,-41.7413,1109.8384],[146.6473,-41.7467,1112.8357],[146.6454,-41.743,1088.7653],[146.6484,-41.7412,1141.0747],[146.649,-41.7389,1121.8696],[146.6473,-41.7379,994.8224],[146.6498,-41.7365,1072.0691],[146.6498,-41.7328,1093.2502],[146.6484,-41.7319,1093.2502],[146.6495,-41.7305,1074.9479],[146.6539,-41.7307,1123.0022],[146.6602,-41.7339,1148.9973],[146.6753,-41.7306,1140.8892],[146.6912,-41.7329,1139.0409],[146.6929,-41.7309,1202.1649],[146.6872,-41.7285,996.7301],[146.6915,-41.7218,1204.1334],[146.7001,-41.721,1201.9637],[146.7109,-41.7171,1230.4269],[146.7148,-41.7139,1238.7979],[146.7205,-41.7138,1245.8602],[146.7224,-41.7189,1179.9263],[146.7174,-41.7306,1164.5518],[146.7101,-41.7311,1180.002],[146.7177,-41.7349,1193.7192],[146.7186,-41.7369,1190.7134],[146.7252,-41.7373,1164.3004],[146.726,-41.7394,1181.8506],[146.7284,-41.7382,1186.5139],[146.732,-41.7398,1202.4786],[146.7368,-41.7382,1178.8264],[146.7353,-41.7361,1178.7412],[146.7357,-41.731,1189.2415],[146.7331,-41.7313,1174.8071],[146.7323,-41.7278,1136.5317],[146.7363,-41.724,1119.1786],[146.7418,-41.7219,1178.4463],[146.7449,-41.7181,1169.9623],[146.7586,-41.7173,1139.5504],[146.7703,-41.7222,1125.3446],[146.7713,-41.7249,1147.636],[146.7693,-41.7267,1155.7034]],
[[146.3479,-41.8997,1027.8677],[146.3478,-41.8998,1027.8677],[146.3477,-41.8996,1026.0259],[146.3478,-41.8996,1027.8677],[146.3479,-41.8997,1027.8677]]]]}
,"properties": {"GID_2": "AUS.9.23_1","GID_0": "AUS","country": "Australia","GID_1": "AUS.9_1","state": "Tasmania","NL_NAME_1": "NA","county": "MeanderValley","VARNAME_2": "NA","NL_NAME_2": "NA","TYPE_2": "Municipality","ENGTYPE_2": "Municipality","CC_2": "64210","HASC_2": "AU.TS.MV","name": "MeanderValley.county","area_km2": 3326.291,"hist_schema_id": "Elevation0-9000","hist_area_km2": {"50": 2.036,"75": 3.752,"100": 4.244,"125": 22.775,"150": 169.981,"175": 257.528,"200": 175.144,"225": 158.655,"250": 159.501,"275": 209.73,"300": 143.963,"325": 101.519,"350": 82.389,"375": 66.926,"400": 55.02,"425": 48.49,"450": 44.349,"475": 50.044,"500": 40.86,"525": 41.2,"550": 39.93,"575": 38.301,"600": 46.591,"625": 44.501,"650": 43.31,"675": 42.678,"700": 43.759,"725": 45.431,"750": 42.85,"775": 41.88,"800": 36.104,"825": 36.918,"850": 52.911,"875": 57.554,"900": 40.933,"925": 37.565,"950": 38.657,"975": 39.426,"1000": 40.551,"1025": 48.209,"1050": 49.932,"1075": 51.596,"1100": 58.806,"1125": 71.566,"1150": 71.74,"1175": 60.183,"1200": 56.697,"1225": 48.963,"1250": 42.374,"1275": 36.005,"1300": 26.522,"1325": 16.524,"1350": 13.472,"1375": 10.928,"1400": 9.113,"1425": 3.226,"1450": 1.058,"1475": 0.789,"1500": 0.363,"1525": 0.111,"1550": 0.047,"1575": 0.095}}}