{"type":"Feature","properties":{"GID_2":"AUS.7.5_1","GID_0":"AUS","country":"Australia","GID_1":"AUS.7_1","state":"Queensland","NL_NAME_1":"NA","county":"Barcoo","VARNAME_2":"NA","NL_NAME_2":"NA","TYPE_2":"Shire","ENGTYPE_2":"Shire","CC_2":"30450","HASC_2":"AU.QL.BQ","name":"Barcoo.county"},
"geometry":{"type": "MultiPolygon","coordinates": [[[[140.9979,-26.7616,79.1524],[141.1229,-26.7751,113.7399],[141.1337,-26.6964,112.5112],[141.2144,-26.7038,106.5316],[141.2189,-26.6632,104.9503],[141.3961,-26.6625,134.1488],[141.5434,-26.6766,129.3968],[141.5839,-26.7219,141.2703],[141.6547,-26.729,165.4681],[141.6627,-26.7261,153.5217],[141.6725,-26.7307,152.0173],[141.692,-26.7343,170.7575],[141.6971,-26.7334,170.7014],[141.703,-26.7363,163.0454],[141.7258,-26.734,171.3226],[141.7564,-26.7372,141.0435],[141.7729,-26.7417,118.0837],[141.8181,-26.747,84.5754],[141.8204,-26.7461,84.8997],[141.8223,-26.7444,85.458],[141.8207,-26.7422,85.2094],[141.8214,-26.7398,85.0961],[141.827,-26.7393,85.9995],[141.8295,-26.7368,85.9949],[141.8286,-26.7319,86.6075],[141.8344,-26.7316,86.642],[141.8297,-26.7259,86.3506],[141.8302,-26.7231,86.6974],[141.8331,-26.7222,86.2271],[141.8354,-26.7181,86.0402],[141.8294,-26.7118,86.3239],[141.8344,-26.7007,85.7324],[141.8332,-26.6898,85.7443],[141.8257,-26.6819,85.827],[141.8192,-26.6786,85.8562],[141.8164,-26.6736,86.9671],[141.8115,-26.669,86.2918],[141.81,-26.6648,86.4403],[141.8025,-26.6591,86.4744],[141.8088,-26.6295,86.9276],[141.8019,-26.6228,87.3774],[141.7973,-26.6206,87.0241],[141.7942,-26.616,87.5261],[141.7932,-26.6096,87.7591],[141.7877,-26.6046,88.8413],[141.7857,-26.6002,87.7676],[141.782,-26.5982,87.8733],[141.7737,-26.5787,88.2746],[141.7684,-26.5742,88.5233],[141.7633,-26.5641,90.2065],[141.757,-26.5579,88.1861],[141.7559,-26.5507,87.7244],[141.7602,-26.5369,87.6953],[141.7496,-26.522,88.613],[141.7433,-26.5194,88.8248],[141.7358,-26.5136,88.297],[141.7345,-26.5113,88.3723],[141.7367,-26.5074,89.0405],[141.7311,-26.4998,88.5628],[141.7299,-26.4902,89.1255],[141.7249,-26.4895,89.4864],[141.7256,-26.4869,89.2993],[141.7232,-26.4842,89.3573],[141.7185,-26.485,89.479],[141.7195,-26.4809,89.4947],[141.7174,-26.4805,89.5588],[141.7137,-26.4744,89.4757],[141.7149,-26.4702,89.4297],[141.7131,-26.4652,89.0642],[141.7092,-26.4611,89.4846],[141.7107,-26.4561,89.8141],[141.7061,-26.4491,89.535],[141.7096,-26.4476,89.6755],[141.7108,-26.4448,89.6245],[141.7096,-26.4378,90.0119],[141.7065,-26.4304,90.1618],[141.702,-26.4278,90.3919],[141.7017,-26.426,90.3239],[141.7016,-26.4234,90.3952],[141.706,-26.4185,90.4167],[141.704,-26.4164,90.3102],[141.7059,-26.4129,90.3006],[141.7053,-26.4075,90.6435],[141.6978,-26.3958,90.8227],[141.6962,-26.3845,90.8996],[141.7042,-26.3656,91.1145],[141.7092,-26.3581,92.5749],[141.7107,-26.3498,91.5416],[141.7973,-26.3575,92.81],[141.798,-26.3502,92.2782],[141.8913,-26.3582,93.2233],[141.8911,-26.3665,92.8594],[142.0552,-26.381,95.7897],[142.056,-26.3746,96.2487],[142.0708,-26.3834,95.4548],[142.0769,-26.3685,96.5916],[142.0786,-26.3577,97.0794],[142.0777,-26.3411,97.0606],[142.0789,-26.3363,97.1319],[142.0832,-26.3358,97.4426],[142.0901,-26.3276,97.6423],[142.0935,-26.3191,98.2287],[142.0914,-26.3188,97.8617],[142.0958,-26.3114,98.3523],[142.0982,-26.2979,98.4586],[142.1004,-26.2952,98.3679],[142.1054,-26.2935,98.8236],[142.1095,-26.2875,98.8505],[142.1113,-26.2702,99.2957],[142.1152,-26.2651,99.1407],[142.1159,-26.257,99.5271],[142.1199,-26.2518,99.8243],[142.1197,-26.2377,99.4059],[142.1458,-26.2153,100.4417],[142.1617,-26.1974,101.0522],[142.147,-26.1017,103.5571],[142.1532,-26.0159,105.7906],[142.1732,-25.8555,107.0431],[142.194,-25.8576,107.2843],[142.2011,-25.8123,108.3037],[142.2125,-25.8094,109.2015],[142.2126,-25.8075,108.9029],[142.2248,-25.8013,109.1628],[142.2392,-25.7893,109.7552],[142.2536,-25.7861,110.2567],[142.2619,-25.7883,110.298],[142.276,-25.7889,110.0137],[142.2841,-25.7845,110.5825],[142.2887,-25.7852,110.9093],[142.2969,-25.7794,111.3561],[142.3089,-25.777,111.1406],[142.3221,-25.7665,111.3931],[142.3251,-25.7667,111.3793],[142.3326,-25.7626,111.7644],[142.3362,-25.7633,111.9662],[142.3371,-25.7609,112.6415],[142.346,-25.7632,112.204],[142.3512,-25.7627,112.1115],[142.3559,-25.7574,112.4841],[142.3717,-25.752,113.3015],[142.3861,-25.7382,114.2295],[142.3928,-25.7398,114.5749],[142.4087,-25.7378,113.647],[142.4229,-25.7323,113.2404],[142.4279,-25.7279,113.8952],[142.4416,-25.725,113.5393],[142.4443,-25.7217,113.6553],[142.4527,-25.7171,114.3022],[142.4577,-25.7121,114.879],[142.4647,-25.6998,115.9094],[142.4715,-25.6966,115.6181],[142.4831,-25.6813,117.3022],[142.4894,-25.6777,117.2178],[142.4907,-25.669,116.5982],[142.5035,-25.6592,117.6639],[142.5155,-25.6438,117.5256],[142.531,-25.6374,117.903],[142.5345,-25.6377,117.885],[142.5406,-25.6296,118.2614],[142.5455,-25.6265,119.128],[142.5457,-25.6246,118.2596],[142.5526,-25.6216,119.4827],[142.5563,-25.6177,118.649],[142.5633,-25.6159,118.8652],[142.565,-25.6122,118.8345],[142.571,-25.6074,119.2854],[142.7385,-25.6205,119.2266],[142.7353,-25.6266,120.4853],[142.7353,-25.6333,119.9421],[142.7325,-25.6412,120.2196],[142.7279,-25.6445,120.0199],[142.7195,-25.6458,120.4433],[142.728,-25.6537,120.5697],[142.9023,-25.6707,124.0514],[142.8857,-25.8148,135.4579],[142.9722,-25.8223,130.5181],[142.9802,-25.7191,128.398],[143.1992,-25.737,161.6826],[143.2107,-25.6249,151.2632],[143.2873,-25.6329,166.8947],[143.3641,-25.6388,184.054],[143.3685,-25.6421,189.6195],[143.3758,-25.6414,197.8516],[143.3933,-25.6508,186.541],[143.3945,-25.6464,194.7324],[143.448,-25.6518,201.6132],[143.4543,-25.598,215.0529],[143.4177,-25.5946,211.6526],[143.4288,-25.4974,214.6454],[143.4303,-25.4962,215.9205],[143.4296,-25.4914,206.108],[143.4261,-25.4891,200.2656],[143.4257,-25.4869,196.3084],[143.43,-25.4805,197.6152],[143.4393,-25.3866,194.879],[143.4364,-25.3833,197.6662],[143.4375,-25.3737,211.2065],[143.4414,-25.3714,214.9322],[143.4417,-25.3682,211.9931],[143.4743,-25.371,202.2166],[143.5939,-25.2814,192.6049],[143.6077,-25.2993,214.1127],[143.6105,-25.2991,212.3964],[143.611,-25.3023,216.1416],[143.6143,-25.3042,217.8357],[143.6169,-25.3096,254.6032],[143.6205,-25.3125,229.4924],[143.6274,-25.311,225.7993],[143.6381,-25.3045,223.0835],[143.6452,-25.3064,228.4496],[143.6509,-25.3121,233.8208],[143.6628,-25.3166,238.3962],[143.6679,-25.322,243.4809],[143.6746,-25.3248,261.773],[143.678,-25.3246,255.8594],[143.6804,-25.3291,252.7215],[143.7015,-25.3433,244.9867],[143.7026,-25.3484,237.6721],[143.7068,-25.3519,231.4612],[143.7145,-25.354,235.5969],[143.7353,-25.364,249.0171],[143.7533,-25.3815,234.9338],[143.7528,-25.3849,240.2111],[143.7666,-25.403199999999998,243.756],[143.802,-25.4881,351.2812],[143.821,-25.4895,311.4091],[143.8214,-25.487,294.891],[143.92,-25.497,243.8953],[143.9976,-25.5858,235.6078],[143.9984,-25.5828,238.5238],[144.01,-25.5844,240.747],[144.0345,-25.5813,251.8608],[144.0707,-25.558,257.4989],[144.0701,-25.5531,254.16],[144.0722,-25.5416,248.6152],[144.0838,-25.5343,246.9326],[144.0909,-25.5335,250.5199],[144.0962,-25.5231,248.1771],[144.0996,-25.5216,249.7752],[144.1004,-25.5187,248.2124],[144.1058,-25.5143,238.5813],[144.1063,-25.5077,228.3685],[144.1082,-25.5055,236.6729],[144.1117,-25.5053,229.8717],[144.1141,-25.5012,259.5195],[144.1123,-25.4785,263.422],[144.1204,-25.4746,260.2543],[144.1252,-25.4646,285.7734],[144.12,-25.4482,290.334],[144.1216,-25.4433,290.452],[144.1505,-25.4334,288.9593],[144.1618,-25.4125,288.5678],[144.1687,-25.3943,290.7535],[144.162,-25.3759,292.8221],[144.1555,-25.371,293.4923],[144.1577,-25.3584,295.1877],[144.2164,-25.2643,319.5478],[144.2252,-25.2554,321.2218],[144.2318,-25.2308,323.2306],[144.2102,-25.1936,245.3457],[144.196,-25.1654,269.6731],[144.1978,-25.1613,274.5828],[144.2003,-25.1596,281.8742],[144.2003,-25.1555,313.2841],[144.2533,-25.1169,319.9345],[144.1816,-25.0363,343.3266],[144.1495,-25.0602,253.6526],[144.0084,-24.9019,211.8398],[144.0154,-24.8964,213.4767],[143.9659,-24.8454,179.2641],[143.958,-24.8426,178.054],[143.9446,-24.8294,174.4412],[143.9284,-24.8414,178.6857],[143.8946,-24.8029,175.7447],[143.8857,-24.8141,174.3141],[143.8834,-24.8329,170.5423],[143.8795,-24.8388,169.5533],[143.8585,-24.8487,168.2842],[143.8425,-24.8521,170.4997],[143.8392,-24.8578,168.8524],[143.8209,-24.8649,167.6686],[143.7543,-24.9236,166.2265],[143.7456,-24.9263,165.2996],[143.7339,-24.941,165.3188],[143.7298,-24.9514,164.5813],[143.7236,-24.9587,164.0508],[143.7176,-24.9853,163.0984],[143.7019,-25.0003,161.894],[143.6951,-25.0093,161.7749],[143.6642,-25.0165,161.2475],[143.6266,-24.9725,177.8724],[143.6197,-24.9674,183.3071],[143.619,-24.9634,176.7199],[143.6103,-24.9532,182.2775],[143.6004,-24.9574,201.6898],[143.5969,-24.9573,192.3964],[143.5941,-24.965699999999998,190.0326],[143.5841,-24.9677,206.3293],[143.5751,-24.9747,190.4925],[143.5749,-24.9804,188.4565],[143.5786,-24.9862,183.2245],[143.5789,-24.9907,184.6584],[143.5726,-25.0006,192.1799],[143.5642,-25.0052,187.3011],[143.5592,-25.0118,196.9083],[143.4301,-24.8693,230.2745],[143.4309,-24.859,228.2016],[143.4344,-24.8546,230.5374],[143.4349,-24.847,239.2333],[143.515,-24.7884,286.3424],[143.5162,-24.7762,289.0323],[143.5703,-24.738,306.7773],[143.5949,-24.7401,316.8065],[143.6061,-24.7324,318.5484],[143.5359,-24.6423,246.2111],[143.7203,-24.5082,207.7879],[143.7462,-24.5379,206.1594],[143.757,-24.5469,198.2847],[143.7696,-24.446,207.1777],[143.7586,-24.4449,210.6375],[143.7599,-24.4367,206.1699],[143.758,-24.4364,207.0085],[143.6936,-24.4405,203.7436],[143.7026,-24.3513,194.721],[143.7106,-24.3518,192.8442],[143.7165,-24.3072,184.1369],[143.7255,-24.3081,182.9128],[143.7269,-24.296,181.1137],[143.7311,-24.2964,181.9177],[143.7442,-24.1865,188.8074],[143.6302,-24.1756,181.101],[143.6367,-24.1182,181.3658],[143.463,-24.1013,171.1493],[143.4595,-24.1305,167.5989],[143.3746,-24.1204,158.0371],[143.3724,-24.1263,156.8943],[143.3731,-24.1295,156.9806],[143.3654,-24.1341,157.1858],[143.3656,-24.1418,157.4752],[143.3623,-24.1433,156.8135],[143.3614,-24.1519,156.5313],[143.3629,-24.1623,156.4719],[143.3616,-24.1726,156.7019],[143.355,-24.1823,155.4722],[143.3472,-24.188,155.1255],[143.3429,-24.1967,155.3018],[143.3459,-24.2098,157.2316],[143.3446,-24.2147,155.8355],[143.3478,-24.2214,155.6537],[143.347,-24.2258,155.0957],[143.3374,-24.2298,155.0657],[143.3347,-24.2327,156.2882],[143.3347,-24.2368,155.2778],[143.3388,-24.2373,156.0064],[143.3391,-24.2391,156.4471],[143.3369,-24.2416,155.7864],[143.3286,-24.2446,155.716],[143.3311,-24.2486,154.9028],[143.3305,-24.2508,154.4803],[143.3213,-24.2503,155.0374],[143.3183,-24.2582,155.5358],[143.311,-24.2574,155.1772],[143.3104,-24.2609,155.0995],[143.3072,-24.2649,154.5172],[143.3069,-24.271,155.0729],[143.2974,-24.2784,153.0912],[143.2812,-24.2835,155.1365],[143.1542,-24.2726,175.3027],[143.1004,-24.2701,195.229],[143.0948,-24.2179,178.2633],[143.0967,-24.2176,185.5383],[143.1038,-24.1382,174.7416],[143.0401,-24.1344,193.1872],[143.0444,-24.0834,177.0612],[143.0464,-24.0836,176.6998],[143.069,-23.8785,192.1611],[142.9341,-23.8672,219.1801],[142.95,-23.7079,214.9583],[142.7878,-23.6951,285.5075],[142.6308,-23.677,261.1708],[142.4548,-23.6662,192.6122],[142.457,-23.6172,189.5455],[142.3954,-23.6138,181.2859],[142.3973,-23.586,178.3479],[142.1596,-23.5707,169.0629],[142.1004,-24.0952,205.7134],[142.0527,-24.1334,194.7311],[142.0238,-24.1677,180.6247],[141.9193,-24.0574,205.6179],[141.8058,-24.1548,210.3972],[141.9647,-24.3109,194.626],[141.9221,-24.3433,194.1015],[141.93,-24.3526,199.615],[141.8635,-24.4031,203.6977],[141.9705,-24.52,145.9098],[141.9626,-24.5302,145.2156],[141.9484,-24.5364,144.5503],[141.9279,-24.5382,147.9737],[141.924,-24.5417,143.6149],[141.9083,-24.5494,143.1052],[141.9014,-24.5561,142.6759],[141.8787,-24.56,142.601],[141.8731,-24.564,142.9269],[141.8678,-24.5731,141.5011],[141.8624,-24.5768,141.1918],[141.8564,-24.587,139.6593],[141.8295,-24.6037,138.4889],[141.8225,-24.6122,138.4902],[141.8134,-24.6185,136.708],[141.7969,-24.621,136.5408],[141.7943,-24.623,136.5029],[141.7903,-24.6218,136.0116],[141.7766,-24.6238,135.9737],[141.7631,-24.6332,134.4195],[141.7461,-24.631,134.4002],[141.7345,-24.6335,133.0541],[141.731,-24.6367,132.8712],[141.5231,-24.5836,156.9542],[141.5233,-24.5793,151.9837],[141.518,-24.5776,154.997],[141.4301,-24.4835,133.5799],[141.3755,-24.4829,142.3635],[141.3611,-24.6291,142.7519],[141.2389,-24.7251,129.5303],[141.2425,-24.686,133.1232],[141.0845,-24.6742,133.3763],[140.9616,-24.6735,116.6196],[140.8387,-24.6689,81.8008],[140.8371,-24.6919,84.868],[140.8834,-24.695,92.687],[140.8743,-24.842,108.3679],[140.813,-24.8384,106.8168],[140.8024,-24.9862,84.1091],[140.879,-24.9926,90.5449],[140.8592,-25.2216,71.7835],[140.6985,-25.2102,65.7311],[140.6763,-25.4645,61.74],[140.7738,-25.4731,66.4721],[140.8244,-25.5253,69.1165],[140.8383,-25.4953,71.1949],[140.8363,-25.4934,71.446],[140.8414,-25.4875,71.083],[140.8637,-25.4806,72.236],[140.8705,-25.4748,72.8011],[140.8699,-25.4734,72.9368],[140.8725,-25.4714,73.3695],[140.8725,-25.4692,72.5806],[140.8803,-25.466,72.3345],[140.9142,-25.5273,104.3466],[140.8967,-25.681,112.302],[140.9227,-25.6826,178.5101],[140.9209,-25.7146,168.1957],[140.9377,-25.716,151.6288],[140.9096,-25.9963,84.8211],[140.9994,-25.9964,89.5229],[140.9994,-26.734,95.8258],[140.9979,-26.7616,79.1524]]]]}}