{"type": "Feature","bbox": [144.9465,-37.7,145.241,-37.4017],"geometry": {"type": "MultiPolygon","coordinates": [[[[145.0677,-37.6869,110.6664],[145.0996,-37.6895,51.8441],[145.1019,-37.6872,52.5088],[145.102,-37.684,50.9318],[145.1037,-37.6832,61.7865],[145.102,-37.682,64.7549],[145.0902,-37.681399999999996,83.2189],[145.0916,-37.6794,78.2987],[145.0865,-37.6813,78.5733],[145.0844,-37.6803,71.915],[145.0835,-37.6768,64.0714],[145.0866,-37.6776,68.4896],[145.0857,-37.6743,82.6189],[145.0891,-37.6742,75.3173],[145.0839,-37.6693,84.5587],[145.092,-37.6674,79.281],[145.0919,-37.6653,76.4146],[145.0892,-37.6643,98.1121],[145.0904,-37.6633,98.1121],[145.0933,-37.6642,78.6881],[145.0951,-37.6619,85.6361],[145.0966,-37.6648,103.7873],[145.0978,-37.6626,113.7177],[145.1037,-37.6612,101.8867],[145.1035,-37.657,101.18],[145.1078,-37.6582,131.5725],[145.1019,-37.6547,120.1356],[145.1025,-37.6527,123.0001],[145.105,-37.6542,106.692],[145.1076,-37.6535,142.0198],[145.1038,-37.6522,106.4165],[145.1033,-37.6504,104.7843],[145.1077,-37.6485,151.2776],[145.1044,-37.6469,124.2637],[145.1057,-37.6451,114.1773],[145.103,-37.6427,116.9269],[145.1046,-37.6406,116.8698],[145.1015,-37.6403,110.7005],[145.1022,-37.6384,110.8606],[145.1078,-37.6401,119.0076],[145.1097,-37.639,135.3189],[145.1102,-37.6374,137.9028],[145.1081,-37.6379,115.3405],[145.1097,-37.635,132.1843],[145.1089,-37.6333,127.0619],[145.1115,-37.6328,147.7086],[145.1087,-37.6312,130.948],[145.1143,-37.6306,134.3594],[145.1132,-37.6283,128.1508],[145.115,-37.6272,139.8678],[145.1186,-37.628,150.8343],[145.1201,-37.6263,136.7236],[145.1224,-37.6267,141.4823],[145.1225,-37.6225,131.1738],[145.128,-37.623,167.0185],[145.1287,-37.6192,163.8519],[145.1358,-37.6199,202.689],[145.1445,-37.5703,204.0762],[145.1495,-37.5653,194.8003],[145.165,-37.558,208.6913],[145.1689,-37.5513,214.8611],[145.1669,-37.5482,230.1822],[145.1752,-37.5431,244.5585],[145.1799,-37.5364,243.993],[145.2055,-37.5392,278.3494],[145.2068,-37.5319,342.8557],[145.194,-37.5305,273.1007],[145.1968,-37.527,364.2641],[145.1967,-37.5237,450.6729],[145.2107,-37.5252,403.2965],[145.2117,-37.5194,417.6907],[145.2284,-37.5214,445.7078],[145.2267,-37.5159,506.4745],[145.2344,-37.5173,259.4113],[145.2355,-37.5101,265.7202],[145.2263,-37.5087,453.6889],[145.2312,-37.503,396.6244],[145.2357,-37.5033,277.762],[145.2352,-37.4988,289.495],[145.2381,-37.4952,374.7436],[145.241,-37.4777,515.6458],[145.2255,-37.4743,512.8046],[145.221,-37.4717,520.934],[145.2164,-37.4644,519.3096],[145.2096,-37.4594,525.5272],[145.2002,-37.444,602.9309],[145.1857,-37.444,672.5469],[145.1887,-37.4368,686.0433],[145.187,-37.4226,695.9222],[145.1774,-37.4232,707.2097],[145.1714,-37.42,723.4543],[145.1659,-37.4131,727.932],[145.1619,-37.415,729.2283],[145.1559,-37.4128,735.9338],[145.1508,-37.4144,717.9518],[145.1498,-37.4196,712.3171],[145.147,-37.4218,726.905],[145.1463,-37.4282,739.7242],[145.1414,-37.4283,775.2374],[145.1298,-37.419,703.8152],[145.125,-37.4103,682.3265],[145.1153,-37.4102,638.0485],[145.1129,-37.4022,609.472],[145.1111,-37.4017,609.472],[145.1107,-37.4032,605.4459],[145.1051,-37.4056,596.1885],[145.1077,-37.4083,591.7497],[145.1046,-37.4124,588.1367],[145.0855,-37.425,436.4301],[145.0793,-37.4263,402.38],[145.0789,-37.4324,394.8152],[145.0824,-37.4354,354.6906],[145.0808,-37.4398,347.8528],[145.0678,-37.4386,261.0635],[145.0679,-37.4461,266.3776],[145.0729,-37.4506,263.1669],[145.0008,-37.4424,295.4906],[144.994,-37.4812,279.3351],[144.987,-37.4999,259.2433],[145.0072,-37.5022,265.3958],[145.0037,-37.5038,263.5408],[145.0043,-37.5065,265.9305],[145.002,-37.5097,265.1845],[144.9971,-37.5085,258.2085],[144.9971,-37.5117,256.9468],[144.9919,-37.5154,250.4671],[144.9759,-37.5141,249.3759],[144.9744,-37.5161,247.6603],[144.9762,-37.5198,241.9453],[144.9743,-37.5255,232.1472],[144.9728,-37.5258,231.0361],[144.9762,-37.5275,229.3818],[144.9763,-37.5301,228.4086],[144.9735,-37.5316,225.5111],[144.9725,-37.5353,221.4676],[144.9687,-37.5347,219.9474],[144.9632,-37.5397,219.289],[144.9603,-37.5395,218.6555],[144.9595,-37.5425,218.9308],[144.9538,-37.5451,219.3796],[144.9538,-37.5498,220.5179],[144.961,-37.5568,214.4249],[144.9639,-37.5573,213.2381],[144.9655,-37.5602,209.9062],[144.9632,-37.5672,205.5633],[144.9653,-37.5735,201.184],[144.9624,-37.5776,200.3817],[144.9632,-37.5794,202.234],[144.9566,-37.5825,199.6635],[144.9585,-37.5851,184.7201],[144.957,-37.5858,184.7201],[144.9588,-37.5911,188.8533],[144.9559,-37.5913,180.1532],[144.9548,-37.5954,181.632],[144.953,-37.5964,180.7253],[144.9523,-37.6068,176.4191],[144.9465,-37.6074,173.9903],[144.9505,-37.6112,176.407],[144.9524,-37.6107,170.5208],[144.9519,-37.6133,166.5067],[144.954,-37.6137,164.6915],[144.956,-37.6168,162.8483],[144.9554,-37.6192,162.2333],[144.9573,-37.6208,161.7552],[144.9528,-37.6232,160.4557],[144.9555,-37.6238,159.4484],[144.9556,-37.6261,157.2502],[144.9587,-37.6277,155.1246],[144.9574,-37.6318,147.1169],[144.9585,-37.6344,149.9003],[144.965,-37.6355,143.3984],[144.9669,-37.6383,146.1578],[144.9689,-37.6386,138.3716],[144.9702,-37.6404,136.7237],[144.9693,-37.6431,134.8432],[144.9711,-37.6433,139.8134],[144.9763,-37.6501,130.9565],[144.9746,-37.6524,133.9923],[144.977,-37.6582,124.4954],[144.9722,-37.6593,126.3421],[144.9735,-37.6608,124.1004],[144.9722,-37.6631,122.7007],[144.9757,-37.6654,115.107],[144.9739,-37.6713,113.8693],[144.9763,-37.6717,104.2264],[144.9749,-37.6739,112.1288],[144.9778,-37.6766,92.7182],[144.9724,-37.677,97.7868],[144.9746,-37.6801,86.0515],[144.9726,-37.681,86.198],[144.9715,-37.6841,89.444],[144.9707,-37.6882,88.5695],[144.9737,-37.6892,91.2636],[144.9721,-37.691,85.6163],[145.0435,-37.6996,94.2307],[145.0582,-37.7,109.2676],[145.0599,-37.6952,89.1939],[145.0677,-37.6869,110.6664]]]]}
,"properties": {"GID_2": "AUS.10.75_1","GID_0": "AUS","country": "Australia","GID_1": "AUS.10_1","state": "Victoria","NL_NAME_1": "NA","county": "Whittlesea","VARNAME_2": "NA","NL_NAME_2": "NA","TYPE_2": "City","ENGTYPE_2": "City","CC_2": "27070","HASC_2": "AU.VI.WS","name": "Whittlesea.county","area_km2": 489.7295,"hist_schema_id": "Elevation0-9000","hist_area_km2": {"50": 0.1846,"75": 1.5605,"100": 22.1657,"125": 33.839,"150": 40.7859,"175": 64.8851,"200": 85.6413,"225": 61.8438,"250": 35.2031,"275": 34.572,"300": 25.3579,"325": 13.6625,"350": 8.6488,"375": 6.7981,"400": 5.7044,"425": 5.3339,"450": 4.9302,"475": 6.0571,"500": 6.5286,"525": 4.2745,"550": 2.239,"575": 1.633,"600": 1.953,"625": 2.1719,"650": 1.8688,"675": 2.6938,"700": 4.7649,"725": 3.0308,"750": 0.9092,"775": 0.4378,"800": 0.0505}}}