{"type": "Feature","bbox": [141.4666,-14.4649,142.1822,-12.5604],"geometry": {"type": "MultiPolygon","coordinates": [[[[141.8945,-12.8012,11.8213],[141.8469,-12.9428,66.3152],[141.7439,-12.9992,53.7441],[141.8414,-13.3072,34.2672],[141.8135,-13.357,29.7894],[141.7524,-13.357,22.819],[141.7533,-13.2871,1.8311],[141.6917,-13.2399,5.6075],[141.6961,-13.2645,0.0],[141.6934,-13.279,1.8411],[141.6897,-13.2885,2.3822],[141.677,-13.3103,2.6746],[141.6554,-13.3353,0.0],[141.6547,-13.3398,3.4021],[141.6254,-13.378,0.8597],[141.6169,-13.3985,0.0],[141.6077,-13.429,0.0],[141.5992,-13.4483,0.0],[141.5899,-13.4643,0.0],[141.5699,-13.4859,2.3934],[141.5707,-13.4877,6.0124],[141.5659,-13.4901,2.6452],[141.5686,-13.4902,5.0065],[141.5649,-13.4953,0.9533],[141.5629,-13.4977,0.0],[141.5576,-13.4973,0.6689],[141.5506,-13.5069,0.0],[141.5233,-13.5721,0.9626],[141.5112,-13.6165,0.0],[141.5032,-13.6577,0.0],[141.4994,-13.7127,0.0],[141.4897,-13.7713,6.583],[141.4795,-13.8045,4.5663],[141.4695,-13.8493,4.1297],[141.4666,-13.8714,0.0],[141.4682,-13.9231,0.0],[141.4715,-13.9268,1.7269],[141.472,-13.9317,0.0],[141.4818,-13.9533,0.0],[141.4952,-13.9741,0.0],[141.5118,-13.9945,0.0],[141.5665,-14.0486,4.6637],[141.5862,-14.0779,4.359],[141.5948,-14.1004,4.1777],[141.5963,-14.1023,2.7408],[141.599,-14.1017,7.7655],[141.597,-14.107,2.1342],[141.6,-14.114,2.9233],[141.6007,-14.1339,3.9973],[141.5942,-14.1524,0.2698],[141.5944,-14.1624,1.0986],[141.5967,-14.1669,0.0],[141.5994,-14.1659,0.0],[141.6042,-14.1689,0.0],[141.6064,-14.1802,0.0],[141.6095,-14.183,0.0],[141.6142,-14.1832,0.0],[141.6151,-14.1856,2.5516],[141.613,-14.1904,5.4508],[141.6144,-14.1969,1.914],[141.6272,-14.2088,3.9966],[141.6257,-14.2153,2.6108],[141.6229,-14.2131,8.0311],[141.6203,-14.2151,4.046],[141.6238,-14.2166,3.6159],[141.6262,-14.2209,2.135],[141.622,-14.2256,9.536],[141.6226,-14.2284,5.1713],[141.63,-14.2263,3.05],[141.6285,-14.2304,5.7211],[141.6318,-14.2335,1.8524],[141.6305,-14.2357,3.6154],[141.6317,-14.2392,4.5208],[141.6344,-14.2374,1.0347],[141.6358,-14.2411,3.6479],[141.6377,-14.2395,3.6084],[141.638,-14.2426,4.8952],[141.6413,-14.2432,2.7534],[141.6436,-14.2409,2.2379],[141.642,-14.2352,6.1782],[141.6439,-14.2341,5.2108],[141.6497,-14.2406,3.1771],[141.6533,-14.2399,2.0829],[141.6559,-14.2351,2.32],[141.6625,-14.2402,3.5959],[141.6682,-14.238,5.7555],[141.673,-14.241,4.9987],[141.6751,-14.2377,5.0716],[141.675,-14.2339,5.4294],[141.6786,-14.2341,7.0362],[141.6794,-14.2315,5.306],[141.6831,-14.2298,5.785],[141.6884,-14.2323,7.3603],[141.6902,-14.2356,7.2174],[141.6949,-14.2356,8.579],[141.6991,-14.2403,8.3237],[141.7056,-14.2431,9.1961],[141.7123,-14.2514,10.1918],[141.7171,-14.2524,11.5856],[141.7228,-14.2581,12.7302],[141.7311,-14.262,14.5931],[141.7337,-14.2667,12.4671],[141.739,-14.2707,12.9584],[141.7507,-14.2735,13.9386],[141.7562,-14.2794,14.5489],[141.7613,-14.2807,13.8492],[141.7709,-14.2868,17.89],[141.7789,-14.2954,19.0907],[141.7843,-14.304,16.8986],[141.7979,-14.3073,19.826],[141.8042,-14.3171,19.4061],[141.8114,-14.3217,20.2098],[141.8131,-14.3394,22.7232],[141.8148,-14.3421,21.0805],[141.8363,-14.3507,21.4165],[141.8408,-14.3493,23.4943],[141.8461,-14.3631,25.884],[141.8581,-14.3741,29.0142],[141.8563,-14.3825,23.1151],[141.8569,-14.387,24.3608],[141.8511,-14.3921,23.9041],[141.8501,-14.4009,24.3685],[141.8659,-14.407,27.9769],[141.8753,-14.4171,26.6328],[141.8753,-14.4211,24.653199999999998],[141.8793,-14.426,28.4968],[141.8951,-14.4321,24.8962],[141.9049,-14.4337,26.2842],[141.9117,-14.4307,30.2824],[141.9576,-14.4368,29.9239],[141.9619,-14.4412,32.5277],[141.9664,-14.4553,33.902],[141.9697,-14.4595,42.0272],[141.9849,-14.4649,34.9225],[141.999,-14.4645,33.5089],[142.0054,-14.4058,48.5976],[142.0088,-14.3527,46.2331],[141.9812,-14.3512,43.9491],[141.9796,-14.1933,24.1404],[141.9714,-14.1916,23.1008],[141.967,-14.1948,21.9519],[141.9807,-13.9905,38.6363],[141.9191,-13.8187,49.1064],[141.9339,-13.7308,18.2741],[141.9595,-13.708,19.6609],[142.0445,-13.5709,98.2318],[142.1158,-13.2846,62.6541],[142.0815,-13.1387,24.7278],[142.1622,-12.7824,23.0839],[142.1708,-12.7683,26.072],[142.1088,-12.7407,9.2504],[142.0086,-12.8589,16.3063],[141.9122,-12.7495,4.8937],[141.8945,-12.8012,11.8213]]],
[[[141.8032,-12.7474,12.5867],[141.839,-12.6877,0.5],[141.8306,-12.6863,5.1412],[141.8256,-12.6879,0.5],[141.8165,-12.6998,10.568],[141.8179,-12.69,6.8356],[141.8227,-12.6857,5.931],[141.8259,-12.6854,4.3896],[141.8277,-12.6796,6.7076],[141.8273,-12.6768,5.3904],[141.8211,-12.6718,2.4276],[141.8058,-12.6781,0.0],[141.8055,-12.6809,0.0],[141.8038,-12.6795,0.0],[141.8049,-12.6836,1.2932],[141.8023,-12.7046,3.4977],[141.7977,-12.7217,0.0],[141.7773,-12.7754,0.0],[141.772,-12.7845,0.0],[141.768,-12.8023,3.6172],[141.7636,-12.8135,0.0],[141.8032,-12.7474,12.5867]]],
[[[142.1287,-12.567,5.6097],[142.1822,-12.607,37.1349],[142.1698,-12.5634,9.3799],[142.1684,-12.5669,8.1152],[142.1644,-12.5664,9.0015],[142.1594,-12.5693,8.7318],[142.1564,-12.5639,10.4281],[142.1511,-12.5647,8.7858],[142.1467,-12.561,8.0938],[142.1369,-12.5604,8.127],[142.1336,-12.5612,13.1313],[142.1287,-12.567,5.6097]]]]}
,"properties": {"GID_2": "AUS.7.1_1","GID_0": "AUS","country": "Australia","GID_1": "AUS.7_1","state": "Queensland","NL_NAME_1": "NA","county": "Aurukun","VARNAME_2": "NA","NL_NAME_2": "NA","TYPE_2": "Shire","ENGTYPE_2": "Shire","CC_2": "30250","HASC_2": "AU.QL.AU","name": "Aurukun.county","area_km2": 7374.253,"hist_schema_id": "Elevation0-9000","hist_area_km2": {"0": 2282.08,"25": 3178.798,"50": 1265.364,"75": 547.315,"100": 100.387,"125": 0.309}}}