{"type":"Feature","properties":{"GID_2":"AUS.10.7_1","GID_0":"AUS","country":"Australia","GID_1":"AUS.10_1","state":"Victoria","NL_NAME_1":"NA","county":"Bayside","VARNAME_2":"NA","NL_NAME_2":"NA","TYPE_2":"City","ENGTYPE_2":"City","CC_2":"20910","HASC_2":"AU.VI.BS","name":"Bayside.county"},
"geometry":{"type": "MultiPolygon","coordinates": [[[[145.0517,-37.9868,0.0],[145.0553,-37.9677,41.8403],[145.0377,-37.9424,36.0881],[145.0365,-37.9356,34.0184],[145.0225,-37.9206,29.8778],[145.026,-37.9022,19.948],[145.0063,-37.8997,10.7314],[145.001,-37.8886,10.5899],[144.9971,-37.884,10.4198],[144.9923,-37.8833,4.8577],[144.9907,-37.8917,5.3615],[144.985,-37.8909,0.0],[144.9858,-37.8966,5.1007999999999996],[144.9834,-37.9015,0.0],[144.9837,-37.906,0.3585],[144.9857,-37.9086,6.7317],[144.9848,-37.9134,0.0],[144.9874,-37.92,1.4191],[144.9855,-37.9262,7.5608],[144.9899,-37.9291,6.3682],[144.9992,-37.9405,14.5433],[144.9991,-37.9417,15.3606],[144.9922,-37.94,0.0],[144.9931,-37.9442,0.0],[145.0012,-37.9506,0.0],[145.0098,-37.9606,0.0],[145.0114,-37.9675,0.0],[145.0094,-37.9696,0.0],[145.014,-37.9745,4.9351],[145.0179,-37.9818,0.0],[145.027,-37.9881,2.1188],[145.0308,-37.9946,0.0],[145.0383,-37.9964,0.0],[145.043,-37.991,15.9734],[145.0517,-37.9868,0.0]]]]}}