{"type": "Feature","bbox": [147.6874,-36.8061,148.5704,-35.5407],"geometry": {"type": "MultiPolygon","coordinates": [[[[147.6903,-35.9375,209.072],[147.7046,-35.9297,215.0054],[147.7098,-35.9289,215.0667],[147.7179,-35.9389,211.4923],[147.7169,-35.9429,210.6506],[147.7184,-35.9453,211.3068],[147.7286,-35.9475,211.081],[147.7413,-35.9565,212.9635],[147.7495,-35.9575,214.0595],[147.7569,-35.9548,212.9187],[147.7634,-35.9588,212.7362],[147.7733,-35.9589,214.1374],[147.7734,-35.9601,213.4367],[147.768,-35.9612,214.6012],[147.7667,-35.9638,214.8559],[147.7684,-35.9654,214.5386],[147.773,-35.9649,214.7235],[147.7769,-35.9686,218.4336],[147.7803,-35.9659,217.7674],[147.789,-35.9671,214.6577],[147.7964,-35.9638,217.504],[147.8062,-35.9651,216.8725],[147.8112,-35.9673,223.5598],[147.8135,-35.9716,217.5542],[147.8158,-35.9718,217.8816],[147.8132,-35.976,216.9171],[147.8175,-35.9797,223.5084],[147.8218,-35.9787,218.5505],[147.8252,-35.9804,220.9394],[147.8295,-35.9782,221.9966],[147.8308,-35.9797,217.9887],[147.8348,-35.9797,219.811],[147.8426,-35.9863,220.2663],[147.8484,-35.9851,219.7798],[147.8496,-35.9897,223.9883],[147.8602,-35.9872,221.354],[147.862,-35.9923,222.1589],[147.8664,-35.9897,222.1053],[147.8701,-35.9936,223.3512],[147.8731,-35.991,222.3642],[147.8821,-35.9966,223.3375],[147.8814,-35.9991,222.5566],[147.8829,-36.0018,230.1865],[147.8862,-36.0008,222.8717],[147.8851,-35.9983,225.0604],[147.8887,-35.9977,223.2484],[147.8975,-35.9999,224.5188],[147.8992,-35.9955,224.564],[147.8957,-35.993,224.6163],[147.9018,-35.9925,234.4112],[147.9064,-35.9959,225.6586],[147.9126,-35.9953,227.4868],[147.914,-35.998,226.2589],[147.9085,-36.0015,226.4484],[147.9115,-36.0029,227.2848],[147.9141,-36.0016,226.8285],[147.9165,-36.0048,226.4424],[147.914,-36.0091,227.8145],[147.9171,-36.0112,226.9548],[147.9128,-36.0181,235.8265],[147.9162,-36.02,227.5609],[147.9105,-36.0214,235.4137],[147.9151,-36.0231,227.534],[147.9115,-36.0266,230.7385],[147.9271,-36.031,229.5964],[147.9316,-36.0361,233.8933],[147.924,-36.0355,233.613],[147.9246,-36.0375,233.2119],[147.9281,-36.0376,228.7609],[147.9246,-36.0392,229.4946],[147.9234,-36.0418,229.0142],[147.9307,-36.0444,229.9801],[147.9337,-36.0476,229.1807],[147.9373,-36.0465,229.7798],[147.9377,-36.0424,231.9182],[147.943,-36.0438,233.2737],[147.9457,-36.0466,231.1814],[147.9493,-36.0461,233.3714],[147.9499,-36.0436,232.2457],[147.953,-36.044,232.9952],[147.9588,-36.041,260.5041],[147.96,-36.0421,232.4055],[147.9567,-36.0428,235.0453],[147.9565,-36.0442,235.6929],[147.965,-36.0469,233.4576],[147.9667,-36.0459,233.8574],[147.9659,-36.0437,234.8765],[147.9681,-36.0401,236.3865],[147.9715,-36.0396,232.6424],[147.9685,-36.0433,233.4701],[147.9704,-36.0434,234.3314],[147.9743,-36.0385,233.5276],[147.9731,-36.0408,232.6424],[147.9743,-36.0469,234.5596],[147.9799,-36.046,234.5296],[147.9813,-36.0403,234.4433],[147.9824,-36.041,234.89],[147.981,-36.0428,235.147],[147.9818,-36.0448,235.4639],[147.9842,-36.0429,235.8283],[147.9879,-36.0431,236.9324],[147.984,-36.0448,236.7126],[147.9872,-36.0464,234.9695],[147.9857,-36.0495,235.8874],[147.9874,-36.0523,236.2471],[147.9888,-36.0519,238.3841],[147.9883,-36.0492,235.6165],[147.9919,-36.0525,235.6904],[147.9921,-36.0487,237.4593],[147.9997,-36.0462,235.0],[147.9967,-36.0507,237.0643],[147.9971,-36.0564,239.8423],[147.9992,-36.0585,236.5],[147.9965,-36.0599,238.6653],[147.9974,-36.0614,238.4995],[147.9962,-36.0628,238.4995],[147.9947,-36.0611,239.4097],[147.9944,-36.0628,243.6087],[147.9913,-36.0641,238.4733],[147.9946,-36.0642,237.4672],[147.9945,-36.0656,237.916],[147.9906,-36.0664,238.1404],[147.9895,-36.0685,239.0048],[147.9895,-36.0704,238.0107],[147.992,-36.07,242.1925],[147.9902,-36.0728,240.0369],[147.9924,-36.0744,240.7618],[147.9886,-36.0755,238.8736],[147.9885,-36.0789,240.3147],[147.9929,-36.0811,242.5318],[147.988,-36.0823,243.4995],[147.9824,-36.0779,241.5026],[147.9815,-36.0801,242.2389],[147.9842,-36.0831,246.5381],[147.9802,-36.0866,241.2467],[147.985,-36.0909,243.1393],[147.9892,-36.09,242.5674],[147.9869,-36.0915,243.4924],[147.9874,-36.0931,245.2586],[147.9938,-36.0927,243.815],[147.9911,-36.0956,244.3631],[147.9928,-36.0973,244.1243],[147.9934,-36.0949,243.9987],[147.9955,-36.0957,244.198],[147.996,-36.0977,243.9836],[147.994,-36.1004,246.2731],[147.9992,-36.0987,245.4139],[147.9958,-36.1026,245.9871],[147.9977,-36.1047,246.7026],[147.994,-36.1053,246.2144],[147.9957,-36.1088,248.4175],[147.9911,-36.1113,249.5144],[147.9957,-36.1107,250.0335],[147.9963,-36.1126,247.7921],[147.9933,-36.1119,248.4007],[147.9923,-36.1149,249.6223],[147.9982,-36.1159,249.9399],[147.9931,-36.1166,249.8851],[147.9954,-36.1187,250.2803],[147.9906,-36.1211,250.6546],[147.9975,-36.1248,262.9721],[148.0005,-36.1244,251.2914],[147.9994,-36.1284,251.8407],[148.0034,-36.1322,250.036],[148.0025,-36.1361,251.0142],[147.9998,-36.1365,252.6131],[148.001,-36.1393,253.201],[148.0041,-36.1404,253.4501],[148.0035,-36.137,252.6259],[148.0054,-36.1358,251.7187],[148.0067,-36.1364,254.6194],[148.0053,-36.1398,253.346],[148.0087,-36.1406,254.3399],[148.0082,-36.1378,254.6194],[148.01,-36.1359,252.706],[148.0105,-36.1393,252.674],[148.014,-36.1374,252.7478],[148.0204,-36.1417,255.1865],[148.0235,-36.1398,256.3498],[148.0291,-36.14,255.2141],[148.0329,-36.1429,254.6609],[148.0377,-36.1408,260.526],[148.034,-36.1487,260.0792],[148.0358,-36.1505,257.7979],[148.0353,-36.1525,257.866],[148.0315,-36.1495,259.3687],[148.0291,-36.1553,260.0927],[148.0229,-36.1536,261.8998],[148.0271,-36.1617,260.8704],[148.0311,-36.1613,260.4437],[148.0348,-36.163,261.4028],[148.0339,-36.1647,261.3498],[148.0303,-36.165,260.9704],[148.0291,-36.1687,261.7407],[148.0252,-36.1684,262.0933],[148.0237,-36.1708,263.0384],[148.0264,-36.1735,265.1794],[148.0262,-36.1759,263.3096],[148.0234,-36.1739,263.9232],[148.0218,-36.1765,264.7632],[148.0231,-36.1796,264.2331],[148.022,-36.1814,264.9061],[148.0256,-36.1856,267.1277],[148.0244,-36.1879,267.2854],[148.0292,-36.188,268.7636],[148.0322,-36.1935,269.1909],[148.035,-36.1927,269.614],[148.0366,-36.1947,271.2204],[148.035,-36.1959,269.9809],[148.0363,-36.1978,272.0182],[148.0391,-36.1979,271.2426],[148.0383,-36.2021,272.3948],[148.0406,-36.207,273.7455],[148.037,-36.2094,275.6152],[148.0388,-36.2131,277.6862],[148.0362,-36.2151,277.2592],[148.0372,-36.2173,276.7635],[148.0333,-36.2159,277.5282],[148.0301,-36.2227,278.6622],[148.0275,-36.2217,280.4827],[148.0261,-36.223,297.392],[148.0269,-36.226,284.3324],[148.0316,-36.229,283.0534],[148.032,-36.2328,291.5621],[148.0349,-36.2342,283.1877],[148.034,-36.2377,291.5569],[148.0354,-36.2406,286.0913],[148.0295,-36.2435,288.0936],[148.0288,-36.247,332.1362],[148.0343,-36.2506,289.0024],[148.0361,-36.2531,292.1285],[148.0344,-36.2555,291.1938],[148.0387,-36.2592,292.1527],[148.0388,-36.2621,292.5905],[148.0328,-36.2659,294.4848],[148.0352,-36.2727,321.8328],[148.0329,-36.2753,298.9567],[148.0377,-36.2804,301.2092],[148.0338,-36.2822,299.5556],[148.0361,-36.2849,301.6487],[148.0401,-36.2841,304.554],[148.0383,-36.2896,304.4778],[148.0401,-36.2926,304.681],[148.0352,-36.2923,304.7933],[148.0394,-36.2989,306.4391],[148.0439,-36.2995,308.0556],[148.0412,-36.3005,306.5879],[148.0425,-36.3044,307.1295],[148.0407,-36.3061,308.581],[148.0381,-36.3052,308.7216],[148.035,-36.3106,352.5851],[148.0385,-36.3146,312.0992],[148.0433,-36.3133,311.6838],[148.0465,-36.3152,332.3064],[148.0471,-36.3185,314.5722],[148.0503,-36.319,314.8173],[148.0549,-36.3167,321.3568],[148.0589,-36.32,319.774],[148.058,-36.3224,320.8888],[148.0512,-36.3246,322.0953],[148.0515,-36.3288,323.9904],[148.0556,-36.3344,324.9544],[148.0526,-36.3363,350.5352],[148.0538,-36.3413,360.9968],[148.0507,-36.3421,343.8173],[148.0478,-36.3465,342.0612],[148.0482,-36.3491,342.3743],[148.0453,-36.3517,405.7301],[148.0479,-36.353,345.3902],[148.049,-36.3556,339.4996],[148.0447,-36.3538,382.418],[148.0421,-36.3573,368.8506],[148.0423,-36.3604,344.7567],[148.0377,-36.3668,349.4402],[148.0411,-36.3675,357.9204],[148.0449,-36.3657,376.9736],[148.046,-36.3671,401.9239],[148.0433,-36.3677,356.5668],[148.0403,-36.3717,361.1189],[148.0437,-36.3748,362.1263],[148.0382,-36.3785,365.7362],[148.0452,-36.3812,367.2208],[148.0453,-36.3825,389.2955],[148.0383,-36.3877,392.2867],[148.0375,-36.3901,386.7312],[148.0426,-36.3921,380.5478],[148.0464,-36.3906,393.7545],[148.047,-36.3962,382.215],[148.0497,-36.3989,393.9617],[148.0582,-36.4008,406.1357],[148.0584,-36.4067,414.2847],[148.0546,-36.4087,395.4373],[148.06,-36.4155,410.4287],[148.0763,-36.418,409.6974],[148.0803,-36.4221,458.3192],[148.0793,-36.4252,448.123],[148.0815,-36.4264,423.2448],[148.083,-36.4308,435.3734],[148.0869,-36.432,428.5778],[148.0878,-36.435,437.5871],[148.0883,-36.4376,445.0284],[148.0863,-36.44,470.7081],[148.0877,-36.4421,438.5038],[148.0876,-36.4519,462.9087],[148.1017,-36.4571,478.5496],[148.1109,-36.4571,489.3718],[148.1237,-36.463,485.3609],[148.1247,-36.4649,481.5974],[148.1224,-36.471,501.8467],[148.124,-36.4726,504.6079],[148.1249,-36.4792,502.834],[148.1191,-36.4819,497.4715],[148.1264,-36.4853,492.8088],[148.1176,-36.4955,495.2016],[148.1249,-36.4987,501.1294],[148.1258,-36.5013,498.8797],[148.1284,-36.5026,513.7009],[148.1281,-36.5085,502.1728],[148.13,-36.5132,505.8778],[148.1398,-36.5254,509.3922],[148.1365,-36.5307,513.0439],[148.1369,-36.5328,518.9529],[148.1337,-36.5343,522.7522],[148.134,-36.5391,528.1478],[148.1287,-36.5416,523.4965],[148.1293,-36.5459,526.545],[148.1243,-36.5506,555.8029],[148.1334,-36.563,564.9805],[148.1334,-36.5669,583.3936],[148.1357,-36.5674,545.9829],[148.1375,-36.5656,548.5438],[148.147,-36.5633,556.912],[148.1505,-36.5583,559.1353],[148.1519,-36.5611,555.2305],[148.1588,-36.5656,563.3531],[148.1566,-36.5716,581.2151],[148.1626,-36.5728,577.3392],[148.1607,-36.5798,597.7192],[148.1651,-36.5782,597.269],[148.1659,-36.5744,611.9316],[148.1694,-36.5737,589.9753],[148.1713,-36.5781,600.7428],[148.1761,-36.5775,610.415],[148.1792,-36.58,612.4945],[148.1901,-36.5766,604.0386],[148.1912,-36.5779,604.0386],[148.1896,-36.5809,612.6824],[148.1903,-36.5849,621.7173],[148.197,-36.5856,609.7159],[148.2018,-36.5881,627.2502],[148.2035,-36.5864,623.95],[148.206,-36.5869,675.9847],[148.2036,-36.5888,627.2502],[148.2047,-36.5925,623.077],[148.2068,-36.5937,641.0814],[148.2106,-36.593,635.4592],[148.2114,-36.5953,676.0433],[148.2176,-36.5984,632.9532],[148.2127,-36.6008,649.6168],[148.2159,-36.6045,644.0946],[148.2114,-36.6064,650.8051],[148.2098,-36.6104,645.2927],[148.2083,-36.6111,645.2927],[148.2083,-36.6087,669.7087],[148.2069,-36.6083,653.9424],[148.2028,-36.6119,668.4048],[148.2101,-36.6127,689.682],[148.2144,-36.6106,711.8018],[148.2135,-36.615,675.2691],[148.2164,-36.6166,710.7684],[148.2142,-36.62,672.465],[148.2189,-36.6187,673.5502],[148.2207,-36.6256,709.4875],[148.2164,-36.6286,685.3573],[148.2151,-36.6345,694.9212],[148.2119,-36.6329,814.2178],[148.2134,-36.6373,695.0955],[148.2162,-36.6397,751.0666],[148.2122,-36.6398,717.8591],[148.2097,-36.645,735.7097],[148.2097,-36.6469,748.5134],[148.2116,-36.6479,695.2303],[148.2112,-36.6505,699.2059],[148.2084,-36.6511,713.8667],[148.2065,-36.6537,721.322],[148.2031,-36.6538,776.2145],[148.2039,-36.6565,771.9622],[148.2005,-36.6596,727.4592],[148.2035,-36.6623,716.6154],[148.1976,-36.6648,732.7752],[148.1962,-36.6678,725.7933],[148.1993,-36.6704,724.7762],[148.1993,-36.6722,728.0057],[148.1902,-36.675,736.6025],[148.1895,-36.679,758.2111],[148.184,-36.6832,734.1494],[148.185,-36.6854,765.375],[148.1876,-36.6861,837.8025],[148.1857,-36.688,756.9101],[148.1891,-36.6881,755.8734],[148.1849,-36.6924,767.7561],[148.1821,-36.6921,744.9993],[148.1809,-36.6972,758.4272],[148.1731,-36.7026,754.6726],[148.1718,-36.7105,759.7946],[148.1696,-36.7134,800.0562],[148.1681,-36.7141,772.2355],[148.1657,-36.7113,765.7894],[148.1626,-36.7115,775.0638],[148.1618,-36.7155,780.3789],[148.1546,-36.7202,795.7603],[148.1491,-36.7197,780.1515],[148.1391,-36.7322,793.4204],[148.1343,-36.7318,803.2119],[148.1307,-36.7347,829.3987],[148.1367,-36.7384,817.9861],[148.1348,-36.7435,842.0105],[148.1319,-36.7449,810.504],[148.1332,-36.747,811.4242],[148.1327,-36.7508,811.6195],[148.1286,-36.7504,825.0892],[148.1285,-36.7527,816.7103],[148.1205,-36.7563,823.5536],[148.1202,-36.7594,821.1031],[148.1261,-36.7594,855.7833],[148.1221,-36.7622,826.8849],[148.1216,-36.7647,835.6434],[148.1161,-36.7657,841.0421],[148.1129,-36.7681,849.0873],[148.1108,-36.774,841.7197],[148.1047,-36.7805,890.1972],[148.1055,-36.7848,851.1297],[148.1037,-36.788,886.1098],[148.1016,-36.7889,861.5166],[148.0979,-36.7873,888.4761],[148.1002,-36.7916,865.2482],[148.1047,-36.7898,869.0551],[148.1105,-36.7983,908.6443],[148.108,-36.7988,901.2803],[148.1089,-36.8009,905.5929],[148.1125,-36.8,915.1837],[148.1201,-36.8061,953.0392],[148.1225,-36.8011,999.205],[148.1263,-36.8014,1025.3302],[148.1268,-36.7965,997.9527],[148.1297,-36.7957,1005.0708],[148.1351,-36.7971,1020.041],[148.134,-36.7951,1021.7469],[148.1365,-36.7958,1033.394],[148.1368,-36.7945,1069.2595],[148.1464,-36.7954,1100.7478],[148.149,-36.7942,1097.1147],[148.1487,-36.7919,1095.2249],[148.1517,-36.7931,1132.4548],[148.1563,-36.79,1122.5886],[148.1577,-36.7902,1122.7318],[148.157,-36.7915,1128.9565],[148.1585,-36.7932,1171.4375],[148.1638,-36.7924,1156.0809],[148.1639,-36.7948,1176.9351],[148.1682,-36.7925,1179.4207],[148.1761,-36.7967,1182.9261],[148.1795,-36.7963,1211.829],[148.1825,-36.8049,1252.4392],[148.1867,-36.8041,1262.1035],[148.1949,-36.7963,1309.2755],[148.2007,-36.7986,1366.7578],[148.2023,-36.7969,1371.1589],[148.2007,-36.7911,1391.7659],[148.2028,-36.785,1435.5355],[148.2017,-36.7721,1622.0985],[148.208,-36.7634,1747.4484],[148.2075,-36.7551,1800.3254],[148.2117,-36.752,1656.9294],[148.2326,-36.7465,1453.4536],[148.2334,-36.739,1395.2762],[148.2406,-36.73,1367.8984],[148.2354,-36.7229,1350.0701],[148.2383,-36.716,1323.657],[148.2384,-36.7069,1293.812],[148.2411,-36.7054,1295.1282],[148.2514,-36.706,1253.2537],[148.2545,-36.6916,1280.8597],[148.2518,-36.688,1283.274],[148.2525,-36.6826,1273.1263],[148.2498,-36.679,1271.8978],[148.2468,-36.6676,1260.7671],[148.2436,-36.6649,1277.8906],[148.2391,-36.6641,1268.0321],[148.2423,-36.654,1263.5483],[148.2457,-36.6501,1275.0815],[148.25,-36.6255,1306.5422],[148.2572,-36.6168,1487.6891],[148.2738,-36.619,1601.17],[148.2849,-36.6139,1566.8906],[148.2903,-36.6091,1690.8041],[148.3049,-36.6106,1779.7294],[148.3031,-36.6004,1604.4326],[148.3113,-36.5956,1741.5066],[148.2977,-36.5877,1725.4166],[148.2959,-36.5809,1792.6351],[148.2876,-36.5689,1821.6603],[148.2778,-36.5605,1802.0623],[148.2712,-36.5592,1817.2708],[148.2693,-36.5493,1759.7382],[148.2542,-36.5465,1803.0488],[148.2504,-36.5437,1804.3887],[148.2514,-36.5401,1808.4369],[148.2597,-36.531,1699.2729],[148.2611,-36.5273,1638.3711],[148.2544,-36.5165,1771.2648],[148.2478,-36.512,1933.8129],[148.2471,-36.5098,1973.6316],[148.2503,-36.5023,2022.3578],[148.2589,-36.5006,2090.5964],[148.2574,-36.4975,2054.6184],[148.2638,-36.482,2149.4172],[148.2706,-36.4821,2146.6509],[148.2689,-36.4708,2109.6902],[148.2713,-36.4686,2084.5415],[148.2697,-36.466,2094.8918],[148.2728,-36.4623,2137.1626],[148.2731,-36.459,2166.6809],[148.2626,-36.4566,2189.4375],[148.2634,-36.4524,2110.2312],[148.2653,-36.4526,2170.9263],[148.2706,-36.4391,2012.2871],[148.2796,-36.4249,2023.1641],[148.2802,-36.4214,2062.2734],[148.2864,-36.4158,2052.6489],[148.2877,-36.4093,2073.7649],[148.2929,-36.4106,2093.5315],[148.2937,-36.4086,2083.7322],[148.3041,-36.4018,2097.2678],[148.3044,-36.3964,2125.5562],[148.3071,-36.3929,2132.5767],[148.3106,-36.3916,2146.856],[148.3148,-36.3933,2173.1062],[148.3196,-36.3869,2049.5002],[148.3288,-36.3833,1984.2097],[148.3315,-36.3777,1866.0273],[148.3324,-36.37,1969.0698],[148.3345,-36.3693,1977.0048],[148.3372,-36.3715,1934.5312],[148.3426,-36.3685,1903.2137],[148.3426,-36.3662,1898.3132],[148.3456,-36.364,1924.6533],[148.3463,-36.359,1980.6157],[148.3519,-36.3571,1987.7566],[148.3549,-36.3518,2035.1293],[148.3535,-36.3483,2006.5917],[148.3574,-36.3405,1933.7506],[148.3673,-36.3396,1982.2915],[148.3656,-36.3302,1973.2896],[148.3686,-36.3252,1958.3987],[148.3714,-36.326,1959.5991],[148.3734,-36.3247,1963.8729],[148.3719,-36.3158,1978.1677],[148.3747,-36.306399999999996,1942.9495],[148.3687,-36.2998,1941.9014],[148.3729,-36.288,1967.2826],[148.3773,-36.2872,1946.6355],[148.3826,-36.29,1875.4019],[148.3911,-36.2884,1907.5264],[148.3964,-36.2906,1970.7308],[148.4052,-36.2791,2007.4806],[148.4099,-36.2783,2043.3],[148.4117,-36.2686,1934.7626],[148.4158,-36.2635,1896.3579],[148.4202,-36.2615,1869.88],[148.4254,-36.2628,1875.8691],[148.431,-36.2569,1928.2916],[148.4338,-36.2493,1893.6631],[148.4347,-36.2399,1947.2041],[148.4275,-36.2339,1879.1665],[148.4281,-36.2263,1881.8179],[148.4243,-36.2197,1868.0983],[148.4261,-36.2153,1867.1696],[148.4247,-36.2107,1861.4879],[148.4256,-36.2047,1907.1577],[148.4269,-36.2033,1903.5948],[148.4352,-36.202,1846.2819],[148.4352,-36.1954,1842.558],[148.4376,-36.1938,1849.9342],[148.4373,-36.1873,1851.7036],[148.4387,-36.1856,1849.5118],[148.4342,-36.1812,1822.5211],[148.4336,-36.1781,1826.8972],[148.4411,-36.1705,1768.4609],[148.441,-36.1659,1738.0322],[148.4524,-36.1495,1726.4583],[148.4599,-36.1441,1732.3853],[148.4587,-36.1402,1763.9827],[148.4567,-36.1392,1748.8762],[148.4582,-36.1369,1774.9915],[148.4575,-36.1307,1735.9868],[148.4534,-36.1267,1754.5044],[148.4587,-36.1225,1707.7789],[148.4598,-36.1185,1760.6377],[148.4668,-36.1199,1714.4458],[148.4707,-36.1189,1660.5179],[148.4728,-36.1162,1653.1378],[148.4789,-36.1136,1677.6552],[148.4769,-36.1062,1713.7343],[148.4806,-36.1042,1667.6213],[148.4821,-36.1006,1600.0458],[148.4866,-36.0983,1601.5674],[148.4891,-36.1001,1590.4355],[148.4944,-36.0984,1533.8898],[148.513,-36.0877,1645.2014],[148.5221,-36.0903,1661.0376],[148.526,-36.088,1631.5742],[148.5323,-36.0958,1623.5247],[148.5381,-36.0995,1644.9038],[148.5498,-36.1026,1748.6262],[148.5525,-36.1057,1761.3076],[148.5617,-36.105,1682.9889],[148.5615,-36.1009,1651.3307],[148.5662,-36.0952,1611.0796],[148.5662,-36.0918,1602.3712],[148.5626,-36.0876,1622.7679],[148.558,-36.0866,1620.7917],[148.5533,-36.0828,1584.0707],[148.5648,-36.0757,1552.4286],[148.5704,-36.0657,1629.4617],[148.5698,-36.0635,1657.5699],[148.5659,-36.0618,1645.5854],[148.5617,-36.0563,1631.5754],[148.5612,-36.0516,1580.8469],[148.5538,-36.0412,1635.6777],[148.5567,-36.0365,1616.8087],[148.5574,-36.0266,1568.5485],[148.5603,-36.0226,1548.5582],[148.5602,-36.0196,1559.3905],[148.5574,-36.0161,1606.8519],[148.5588,-36.0149,1618.6267],[148.5609,-36.0043,1637.2927],[148.5567,-35.9992,1649.3761],[148.5517,-36.0008,1672.73],[148.5351,-36.0,1697.7623],[148.5332,-35.9978,1680.1855],[148.5364,-35.9948,1677.2719],[148.536,-35.9925,1687.1107],[148.5314,-35.9902,1688.8909],[148.5275,-35.9847,1690.1179],[148.517,-35.9812,1704.3773],[148.5147,-35.9785,1686.1434],[148.5143,-35.9734,1696.3425],[148.4976,-35.9681,1645.2836],[148.494,-35.9639,1674.241],[148.4943,-35.9588,1678.1426],[148.4875,-35.9555,1675.7574],[148.4881,-35.9524,1675.9429],[148.4831,-35.9462,1612.6075],[148.4739,-35.9456,1616.4938],[148.4689,-35.9419,1586.739],[148.4581,-35.9982,1241.1794],[148.4557,-36.0021,1217.5541],[148.4533,-36.0031,1276.889],[148.4497,-36.0029,1210.6448],[148.45,-35.9998,1201.3394],[148.4478,-36.0002,1205.7909],[148.4398,-35.9944,1199.2906],[148.4424,-35.9905,1176.6183],[148.4369,-35.9864,1167.8718],[148.4413,-35.9839,1189.6888],[148.4401,-35.9822,1168.7598],[148.435,-35.9815,1176.897],[148.4341,-35.9775,1167.4817],[148.437,-35.9748,1155.3757],[148.4326,-35.9714,1155.6648],[148.4295,-35.971,1148.8186],[148.428,-35.9686,1157.0659],[148.4232,-35.9716,1146.7743],[148.4103,-35.9654,1143.0],[148.4036,-35.9714,1165.3875],[148.4003,-35.9723,1145.396],[148.393,-35.9694,1143.0],[148.3953,-35.9674,1143.0],[148.3944,-35.9654,1143.0],[148.3872,-35.9642,1131.8584],[148.382,-35.9645,1106.6221],[148.3691,-35.9768,1079.951],[148.3655,-35.9744,1047.6315],[148.3672,-35.9724,1057.7347],[148.3667,-35.9701,1043.072],[148.3639,-35.9709,1065.4438],[148.3635,-35.9744,1028.9086],[148.3577,-35.9719,1008.575],[148.3541,-35.9744,1013.3359],[148.3515,-35.9716,1066.057],[148.3525,-35.9688,1051.2675],[148.3499,-35.9667,1013.0167],[148.3623,-35.9639,1029.7809],[148.3589,-35.9615,974.3258],[148.3608,-35.9551,953.502],[148.3589,-35.9518,923.5425],[148.3606,-35.9495,959.7007],[148.3646,-35.9495,928.701],[148.3616,-35.9436,909.6705],[148.3633,-35.9404,851.2341],[148.3602,-35.9321,830.8252],[148.362,-35.9304,879.3923],[148.3617,-35.9251,875.8149],[148.3577,-35.9216,844.2576],[148.3661,-35.916,774.6704],[148.3594,-35.9105,784.8201],[148.3629,-35.9082,780.3369],[148.3627,-35.9055,742.9496],[148.3674,-35.9014,720.6425],[148.365,-35.9005,714.7842],[148.3623,-35.9028,711.6635],[148.3589,-35.8953,695.7425],[148.3617,-35.8931,692.4418],[148.3681,-35.8788,720.198],[148.3677,-35.8754,664.0155],[148.3626,-35.8726,697.1541],[148.367,-35.8645,631.5496],[148.366,-35.8617,638.1639],[148.3696,-35.86,609.6514],[148.364,-35.8577,615.9164],[148.3636,-35.851,644.9939],[148.3604,-35.8508,599.0288],[148.3593,-35.8487,612.4954],[148.3634,-35.8416,597.5355],[148.362,-35.8377,670.8097],[148.3696,-35.8379,572.6358],[148.371,-35.8353,632.2614],[148.3665,-35.833,564.231],[148.3618,-35.8334,654.6154],[148.3613,-35.8276,579.5452],[148.3562,-35.8261,562.8293],[148.358,-35.822,568.7621],[148.3639,-35.8241,558.0856],[148.3665,-35.8211,565.192],[148.3645,-35.812,553.902],[148.3587,-35.8045,541.5],[148.3586,-35.8007,541.5],[148.3536,-35.7877,541.0],[148.3534,-35.7837,540.875],[148.356,-35.7801,540.5],[148.3547,-35.7765,540.5],[148.3593,-35.7729,540.8559],[148.3586,-35.7696,540.125],[148.3549,-35.7647,540.0],[148.3516,-35.753,546.1104],[148.344,-35.7538,540.0],[148.3426,-35.752,540.0],[148.3426,-35.7473,540.0],[148.3359,-35.7416,540.0],[148.3394,-35.7341,540.0],[148.3403,-35.7275,540.0],[148.3347,-35.7206,540.0],[148.3312,-35.7189,540.0],[148.3327,-35.7126,540.0],[148.3263,-35.7093,540.0],[148.3259,-35.7051,540.0],[148.3202,-35.7011,540.0],[148.3217,-35.6832,540.0],[148.3197,-35.6744,540.0],[148.3178,-35.6788,540.0],[148.3145,-35.6807,540.0],[148.2979,-35.6828,548.2917],[148.2881,-35.6886,588.4407],[148.2861,-35.6882,593.6984],[148.2826,-35.7045,901.5826],[148.2729,-35.7031,1145.6227],[148.2748,-35.6942,832.3599],[148.1433,-35.6739,1313.6913],[148.1452,-35.6679,1324.7393],[148.1388,-35.6626,1328.8284],[148.1365,-35.6581,1309.8466],[148.137,-35.6566,1310.4655],[148.1419,-35.655,1289.4227],[148.1399,-35.6466,1298.1863],[148.1483,-35.6471,1250.4126],[148.1397,-35.6307,1171.7189],[148.141,-35.6189,1176.2924],[148.1357,-35.6128,1106.2114],[148.1329,-35.6014,1088.4159],[148.1289,-35.6008,1109.649],[148.1183,-35.6061,1097.5577],[148.111,-35.6014,1028.0609],[148.1051,-35.6017,1021.3694],[148.0984,-35.6036,1042.9412],[148.0986,-35.607,1039.7262],[148.0945,-35.6122,1013.7578],[148.0907,-35.6118,998.9148],[148.0939,-35.6057,993.9995],[148.0922,-35.6019,976.0676],[148.0928,-35.5977,1001.3685],[148.089,-35.5929,1001.6983],[148.0923,-35.584,992.1434],[148.0888,-35.5737,953.7264],[148.0928,-35.5625,975.7332],[148.0587,-35.5585,791.7266],[148.0575,-35.5608,785.6897],[148.053,-35.5588,777.7424],[148.0495,-35.5611,770.1978],[148.0445,-35.5601,756.5451],[148.0398,-35.5648,735.9676],[148.0377,-35.5633,735.4309],[148.032,-35.5663,742.9805],[148.026,-35.565,716.6812],[148.0177,-35.5689,688.8423],[148.0176,-35.5656,684.1758],[148.0144,-35.5656,688.2297],[148.0126,-35.5671,675.6688],[148.0128,-35.5691,671.1669],[148.0106,-35.5691,658.1294],[148.0081,-35.5718,646.5809],[148.0076,-35.5747,617.2802],[148.0048,-35.5744,611.5665],[148.0028,-35.5718,614.4694],[147.9966,-35.5706,590.9513],[147.9888,-35.572,546.7411],[147.9818,-35.57,511.0421],[147.9763,-35.571,488.2397],[147.9746,-35.5728,470.9677],[147.9713,-35.5694,486.1386],[147.967,-35.57,458.7506],[147.9644,-35.5682,440.1187],[147.9564,-35.5718,427.278],[147.9189,-35.5676,364.4348],[147.9218,-35.5629,376.0595],[147.921,-35.5588,359.179],[147.9169,-35.5605,361.9554],[147.9151,-35.5596,364.6567],[147.9151,-35.5574,355.0756],[147.9116,-35.5559,348.0454],[147.891,-35.5533,460.786],[147.8927,-35.5443,364.7387],[147.8633,-35.5407,441.1835],[147.8622,-35.5469,515.8806],[147.8473,-35.5449,521.8508],[147.8434,-35.5646,520.158],[147.8457,-35.5658,535.7308],[147.8501,-35.5613,548.0128],[147.8553,-35.5599,653.3625],[147.8594,-35.5692,676.8379],[147.8726,-35.5868,683.2406],[147.8847,-35.6131,698.4121],[147.8885,-35.6153,737.2695],[147.89,-35.6195,737.7494],[147.8928,-35.6211,730.3118],[147.8976,-35.6336,714.6332],[147.8915,-35.6312,697.2078],[147.8849,-35.6354,667.5105],[147.8799,-35.636,668.5144],[147.8759,-35.6338,675.505],[147.871,-35.6418,678.866],[147.8681,-35.6429,661.7775],[147.8595,-35.638,644.3516],[147.8475,-35.638,640.3112],[147.8336,-35.6416,648.8563],[147.8282,-35.6453,643.965],[147.8263,-35.6449,646.8728],[147.8214,-35.6493,651.1636],[147.8189,-35.6493,653.3079],[147.8208,-35.6517,640.2464],[147.8187,-35.6585,642.1307],[147.8119,-35.6622,657.6196],[147.8084,-35.6748,661.1483],[147.8014,-35.6781,666.3561],[147.8023,-35.68,673.3676],[147.8009,-35.6851,672.8961],[147.8035,-35.6879,664.9414],[147.8041,-35.692,673.3477],[147.8041,-35.6957,671.1041],[147.802,-35.6996,671.6251],[147.8038,-35.7035,666.6752],[147.8104,-35.7061,661.4259],[147.8123,-35.7091,668.8376],[147.813,-35.7122,676.3381],[147.8107,-35.7181,686.6246],[147.8079,-35.7209,687.9928],[147.8189,-35.7431,688.6851],[147.8192,-35.7468,681.3414],[147.8138,-35.7544,697.9495],[147.8157,-35.7598,710.7139],[147.8117,-35.7653,715.9933],[147.8122,-35.77,722.0798],[147.8074,-35.7779,722.4673],[147.804,-35.7799,726.3052],[147.802,-35.7858,748.777],[147.8021,-35.79,758.7692],[147.8041,-35.7937,753.3994],[147.8022,-35.794,745.8161],[147.8015,-35.8014,749.5743],[147.7882,-35.802,805.371],[147.7875,-35.8039,845.1533],[147.7831,-35.8054,877.5189],[147.7736,-35.8072,869.6266],[147.7711,-35.8062,860.7109],[147.77,-35.812,797.1121],[147.7717,-35.8126,779.4905],[147.7726,-35.8166,741.7598],[147.7669,-35.8292,732.0972],[147.7694,-35.8295,729.8669],[147.77,-35.832,714.1404],[147.7615,-35.8318,720.05],[147.7637,-35.8364,592.6409],[147.7606,-35.8398,537.4738],[147.7463,-35.8381,455.2391],[147.7401,-35.8339,428.8529],[147.7349,-35.8331,378.9213],[147.7311,-35.837,350.1263],[147.7166,-35.8378,296.8823],[147.7096,-35.8411,272.6853],[147.7094,-35.8454,265.5151],[147.7067,-35.846,266.2635],[147.7081,-35.8504,258.9446],[147.7014,-35.8587,255.6362],[147.7021,-35.8614,249.5481],[147.7064,-35.8635,251.9875],[147.7069,-35.8679,248.0018],[147.7043,-35.8719,243.1463],[147.708,-35.8746,241.3711],[147.7076,-35.8793,250.013],[147.6909,-35.8862,234.0426],[147.6884,-35.8888,226.4389],[147.6928,-35.8937,225.5309],[147.6964,-35.9121,220.0013],[147.695,-35.9162,219.3948],[147.6895,-35.9163,216.4091],[147.6874,-35.9181,216.1161],[147.6878,-35.923,212.7519],[147.6933,-35.9311,211.2377],[147.6897,-35.9357,211.5358],[147.6903,-35.9375,209.072]]]]}
,"properties": {"GID_2": "AUS.5.127_1","GID_0": "AUS","country": "Australia","GID_1": "AUS.5_1","state": "NewSouthWales","NL_NAME_1": "NA","county": "Tumbarumba","VARNAME_2": "NA","NL_NAME_2": "NA","TYPE_2": "Area","ENGTYPE_2": "Area","CC_2": "17450","HASC_2": "AU.NS.TU","name": "Tumbarumba.county","area_km2": 4390.794,"hist_schema_id": "Elevation0-9000","hist_area_km2": {"200": 1.116,"225": 31.443,"250": 61.552,"275": 69.874,"300": 70.121,"325": 62.887,"350": 57.008,"375": 54.749,"400": 56.236,"425": 59.639,"450": 62.634,"475": 67.994,"500": 77.731,"525": 98.015,"550": 121.583,"575": 128.992,"600": 150.383,"625": 161.343,"650": 151.424,"675": 133.292,"700": 118.513,"725": 111.315,"750": 98.918,"775": 87.898,"800": 83.663,"825": 81.039,"850": 74.245,"875": 67.119,"900": 63.273,"925": 58.989,"950": 54.29,"975": 55.117,"1000": 52.165,"1025": 56.424,"1050": 63.52,"1075": 64.755,"1100": 63.217,"1125": 64.345,"1150": 68.748,"1175": 79.157,"1200": 68.931,"1225": 59.556,"1250": 53.057,"1275": 50.147,"1300": 54.484,"1325": 48.826,"1350": 43.778,"1375": 40.976,"1400": 43.6,"1425": 45.697,"1450": 49.801,"1475": 58.986,"1500": 59.225,"1525": 62.755,"1550": 63.713,"1575": 64.012,"1600": 55.222,"1625": 45.151,"1650": 36.508,"1675": 29.525,"1700": 25.005,"1725": 19.863,"1750": 20.41,"1775": 24.123,"1800": 23.252,"1825": 17.764,"1850": 15.213,"1875": 11.55,"1900": 11.513,"1925": 10.878,"1950": 8.897,"1975": 6.248,"2000": 5.036,"2025": 3.208,"2050": 2.166,"2075": 2.286,"2100": 1.825,"2125": 1.501,"2150": 0.972,"2175": 0.307,"2200": 0.102}}}