{"type":"Feature","properties":{"GID_2":"AUS.5.135_1","GID_0":"AUS","country":"Australia","GID_1":"AUS.5_1","state":"NewSouthWales","NL_NAME_1":"NA","county":"WaggaWagga","VARNAME_2":"NA","NL_NAME_2":"NA","TYPE_2":"City","ENGTYPE_2":"City","CC_2":"17750","HASC_2":"AU.NS.WW","name":"WaggaWagga.county"},
"geometry":{"type": "MultiPolygon","coordinates": [[[[146.8485,-34.8081,162.5203],[146.8426,-34.8378,160.5724],[146.8466,-34.8424,160.7605],[146.8463,-34.8445,160.3252],[146.8396,-34.8606,156.0764],[146.8354,-34.8601,156.5382],[146.8328,-34.8729,155.103],[146.8292,-34.8782,150.0086],[146.8322,-34.8812,163.7859],[146.836,-34.8811,154.8996],[146.8379,-34.8791,155.0428],[146.8416,-34.8811,162.1905],[146.8416,-34.8861,154.2426],[146.8358,-34.8884,162.3785],[146.8328,-34.8933,156.7382],[146.8343,-34.8941,153.9636],[146.8379,-34.8919,153.0888],[146.8396,-34.8929,159.9758],[146.8437,-34.8985,160.9579],[146.8424,-34.9027,153.7372],[146.8327,-34.9065,166.0484],[146.8319,-34.9051,163.0721],[146.7845,-34.9241,156.3499],[146.7826,-34.9347,156.2533],[146.7791,-34.9396,157.6917],[146.7796,-34.947,158.0533],[146.7851,-34.9528,160.4376],[146.7879,-34.9535,158.9815],[146.7878,-34.9559,159.1962],[146.7935,-34.9584,159.3202],[146.7966,-34.9696,162.828],[146.7988,-34.9706,162.1084],[146.8008,-34.9681,162.485],[146.8043,-34.9693,162.4691],[146.8042,-34.9725,161.4649],[146.808,-34.9761,161.1239],[146.8089,-34.9851,160.8601],[146.7942,-35.0582,170.1973],[146.7916,-35.0562,167.881],[146.7888,-35.0706,177.1599],[146.7842,-35.0701,178.2517],[146.7788,-35.0984,234.8445],[146.7825,-35.0989,231.3002],[146.7885,-35.1045,264.1182],[146.7945,-35.1055,244.0842],[146.806,-35.1171,231.0146],[146.805,-35.1221,231.4923],[146.8121,-35.1231,216.7822],[146.8187,-35.1314,221.2265],[146.8283,-35.1327,224.6568],[146.8266,-35.1411,227.1707],[146.8324,-35.1484,224.4817],[146.843,-35.1499,224.2426],[146.8412,-35.1592,223.327],[146.846,-35.1653,227.6081],[146.8438,-35.1766,210.2863],[146.8596,-35.1726,213.9674],[146.8561,-35.1807,226.3067],[146.9302,-35.1616,171.6512],[146.932,-35.1677,171.5211],[146.9355,-35.1711,172.2357],[146.9446,-35.1722,172.7613],[146.9452,-35.1689,172.3207],[146.9905,-35.1747,179.6838],[146.9902,-35.1766,179.5974],[147.016,-35.1799,183.2078],[147.0149,-35.1857,184.1295],[147.0323,-35.1878,185.7153],[147.034,-35.1852,185.8674],[147.0508,-35.1872,185.9843],[147.0534,-35.1733,182.6794],[147.0573,-35.1738,183.2258],[147.0582,-35.1692,182.458],[147.1493,-35.1809,209.0043],[147.1399,-35.2319,249.7223],[147.1415,-35.2321,243.5228],[147.1388,-35.2465,247.052],[147.1468,-35.2474,223.8154],[147.141,-35.2541,226.9217],[147.1478,-35.2533,221.5341],[147.1544,-35.2614,223.6673],[147.1554,-35.2602,222.7321],[147.1575,-35.2611,224.8461],[147.1591,-35.2642,222.4579],[147.1639,-35.2666,224.7454],[147.1653,-35.2702,226.08],[147.1708,-35.2722,226.8539],[147.1732,-35.2753,228.4609],[147.1728,-35.2784,228.5067],[147.1747,-35.2797,228.0047],[147.1745,-35.2815,229.2021],[147.1768,-35.2816,228.1389],[147.1779,-35.2847,230.2193],[147.1853,-35.2908,232.3013],[147.1926,-35.291,232.7271],[147.2023,-35.2975,235.8763],[147.2047,-35.2961,236.0117],[147.2084,-35.2966,237.799],[147.2107,-35.3004,237.1452],[147.2139,-35.2991,238.7296],[147.2163,-35.3,239.8161],[147.2166,-35.302,240.4832],[147.2216,-35.3024,240.0648],[147.2242,-35.3002,239.6721],[147.2247,-35.3037,241.412],[147.2315,-35.3039,241.3168],[147.2299,-35.3152,243.7833],[147.2328,-35.3184,246.1499],[147.232,-35.3241,244.1709],[147.2289,-35.3264,245.7767],[147.2312,-35.3281,247.2177],[147.2284,-35.3314,248.6075],[147.229,-35.3355,250.0105],[147.2314,-35.3357,250.3789],[147.2307,-35.3389,251.6294],[147.2153,-35.3371,251.0272],[147.2139,-35.3447,254.996],[147.2081,-35.3361,250.7054],[147.1977,-35.3273,250.3336],[147.1949,-35.342,262.0479],[147.1921,-35.3416,269.2655],[147.1915,-35.3448,261.9334],[147.184,-35.3444,273.508],[147.1819,-35.3551,277.1152],[147.1796,-35.3548,280.4504],[147.1776,-35.3648,290.6704],[147.1682,-35.3636,327.5404],[147.1655,-35.378,320.7211],[147.1796,-35.3798,312.1019],[147.1779,-35.3888,290.1449],[147.1814,-35.3892,290.7618],[147.18,-35.3965,284.926],[147.1736,-35.4027,309.6258],[147.1694,-35.4036,296.3138],[147.1667,-35.4158,272.2606],[147.179,-35.4174,292.3511],[147.1765,-35.4303,298.8301],[147.1857,-35.4315,313.6523],[147.184,-35.4399,347.8318],[147.179,-35.4393,340.1275],[147.1786,-35.4418,328.1703],[147.1639,-35.4387,306.2253],[147.1599,-35.4645,317.9081],[147.1638,-35.4618,328.7175],[147.1662,-35.4568,324.3847],[147.1716,-35.4549,319.757],[147.1749,-35.4571,322.5298],[147.185,-35.4485,327.0632],[147.1881,-35.4523,328.2553],[147.1941,-35.4547,346.5395],[147.1923,-35.4621,330.8766],[147.1954,-35.4661,346.4401],[147.211,-35.4727,413.716],[147.2173,-35.471,381.1895],[147.2231,-35.4715,368.818],[147.2264,-35.4737,364.5892],[147.2326,-35.4695,352.2908],[147.2345,-35.4714,363.8666],[147.2379,-35.4705,355.9477],[147.2376,-35.4729,354.4797],[147.2426,-35.4783,354.7163],[147.2456,-35.4871,373.7056],[147.2508,-35.4912,378.6648],[147.2632,-35.4886,352.273],[147.2664,-35.4921,371.567],[147.269,-35.491,371.9375],[147.274,-35.492,360.6803],[147.2752,-35.4939,374.986],[147.2802,-35.4939,357.706],[147.2836,-35.5003,377.0944],[147.2913,-35.4996,371.2515],[147.2939,-35.5013,383.371],[147.2973,-35.4958,383.0724],[147.303,-35.4956,396.4384],[147.3056,-35.4993,401.5528],[147.3139,-35.4999,382.9777],[147.3281,-35.5041,412.6649],[147.3335,-35.5095,414.8178],[147.3421,-35.5093,417.8727],[147.3539,-35.5121,419.5568],[147.3608,-35.5154,423.6097],[147.3638,-35.5139,428.4645],[147.3783,-35.5252,438.9838],[147.378,-35.5308,452.6419],[147.3843,-35.5299,475.2587],[147.3881,-35.532,490.5462],[147.3845,-35.5356,469.2713],[147.3874,-35.5368,470.2536],[147.388,-35.5389,472.3842],[147.3846,-35.5429,460.2481],[147.3823,-35.5509,504.1859],[147.3867,-35.5554,542.518],[147.385,-35.5592,580.6623],[147.3915,-35.5636,528.6765],[147.3958,-35.5594,546.9945],[147.3953,-35.5548,461.7917],[147.4017,-35.5503,421.4707],[147.4038,-35.5448,417.7137],[147.4109,-35.5417,416.5629],[147.4146,-35.536,394.9942],[147.419,-35.5336,429.742],[147.424,-35.5347,409.6787],[147.4272,-35.5395,427.462],[147.4302,-35.5371,423.4682],[147.4382,-35.5374,415.3748],[147.4446,-35.5301,442.2979],[147.4563,-35.531,481.3416],[147.4579,-35.5337,466.2032],[147.4675,-35.5392,497.1968],[147.481,-35.5452,560.5701],[147.4883,-35.5457,543.7277],[147.4884,-35.5408,497.466],[147.4927,-35.5359,486.5573],[147.4951,-35.5303,465.4742],[147.5004,-35.5285,481.4521],[147.5017,-35.5221,471.9926],[147.4982,-35.5138,458.5162],[147.5002,-35.5088,462.8277],[147.5061,-35.5064,470.9263],[147.5181,-35.497,482.9981],[147.5198,-35.4933,491.9648],[147.5149,-35.4883,521.5171],[147.5221,-35.4822,528.9311],[147.5229,-35.4838,522.1101],[147.5274,-35.4844,520.2194],[147.5291,-35.4882,500.2836],[147.5285,-35.4908,513.2276],[147.5329,-35.4928,501.0089],[147.5358,-35.4917,505.1833],[147.5362,-35.4935,499.91],[147.5431,-35.4938,500.4732],[147.5462,-35.497,523.9698],[147.5489,-35.4963,535.2775],[147.5533,-35.4986,556.2726],[147.556,-35.5017,540.7925],[147.5566,-35.5057,517.7457],[147.5672,-35.5109,505.4751],[147.5692,-35.5159,518.3701],[147.5823,-35.5171,544.9867],[147.5886,-35.5243,651.2607],[147.5928,-35.5235,662.6619],[147.5943,-35.5266,628.5118],[147.6005,-35.5294,624.0875],[147.601,-35.5321,633.2405],[147.6089,-35.5401,588.795],[147.6312,-35.5472,593.3162],[147.637,-35.5458,614.6262],[147.6447,-35.5391,588.1351],[147.6501,-35.5389,577.9539],[147.6578,-35.5414,590.2014],[147.6606,-35.5446,632.6561],[147.6681,-35.5467,552.7156],[147.6812,-35.5567,545.9217],[147.6856,-35.5342,449.3318],[147.7386,-35.5411,311.0662],[147.7416,-35.5369,310.7089],[147.7372,-35.5311,298.9983],[147.7557,-35.5335,371.3496],[147.7542,-35.5359,398.2683],[147.7544,-35.5447,399.9922],[147.7798,-35.5475,357.7834],[147.7794,-35.5496,351.0328],[147.7893,-35.5516,369.7717],[147.7916,-35.5515,360.329],[147.7925,-35.5472,328.041],[147.7943,-35.5506,335.8643],[147.8068,-35.5522,402.3829],[147.8074,-35.5494,422.5245],[147.8121,-35.5494,424.8001],[147.8454,-35.5546,526.4501],[147.8473,-35.5449,521.8508],[147.8622,-35.5469,515.8806],[147.8633,-35.5407,441.1835],[147.8927,-35.5443,364.7387],[147.891,-35.5533,460.786],[147.9298,-35.5585,457.8239],[147.9314,-35.5502,450.5117],[147.922,-35.5488,372.2905],[147.9231,-35.5427,427.6184],[147.9154,-35.5417,370.0726],[147.914,-35.5389,387.9886],[147.9081,-35.5382,365.3869],[147.9095,-35.531,377.4752],[147.9071,-35.5308,380.1805],[147.908,-35.5262,428.2479],[147.9256,-35.5285,569.4781],[147.928,-35.5163,588.4347],[147.9048,-35.5133,383.209],[147.9063,-35.5051,419.6662],[147.9046,-35.5049,387.7382],[147.9072,-35.49,415.5862],[147.9,-35.4927,388.8086],[147.8994,-35.4891,425.6655],[147.8838,-35.4885,352.1519],[147.8857,-35.479,392.6047],[147.8831,-35.4786,384.8323],[147.886,-35.4641,476.9958],[147.8805,-35.4634,440.2466],[147.8815,-35.4581,538.4036],[147.873,-35.457,421.0851],[147.8751,-35.4466,471.8953],[147.872,-35.4461,414.3448],[147.8728,-35.4421,391.0301],[147.8894,-35.4443,617.2517],[147.8932,-35.4244,499.6222],[147.9082,-35.4263,600.0491],[147.9089,-35.4214,643.2251],[147.8979,-35.4126,643.8805],[147.8943,-35.3991,733.3358],[147.8999,-35.3808,697.0064],[147.898,-35.3783,722.0463],[147.8899,-35.3766,696.9829],[147.8887,-35.3746,690.5321],[147.8901,-35.3725,690.4001],[147.8858,-35.363,656.4688],[147.8853,-35.3581,683.2723],[147.8747,-35.3574,636.0129],[147.8677,-35.359,653.8845],[147.865,-35.3545,628.7694],[147.8656,-35.3493,609.092],[147.8617,-35.3471,552.1861],[147.8592,-35.3399,551.314],[147.8543,-35.3399,559.6715],[147.8518,-35.3359,551.6606],[147.853,-35.3337,576.7294],[147.8465,-35.3302,579.7206],[147.8475,-35.3272,565.464],[147.8513,-35.326,556.2545],[147.85,-35.3244,564.7284],[147.8511,-35.3209,571.8384],[147.8489,-35.3186,565.1043],[147.8512,-35.3171,563.3285],[147.8452,-35.3136,551.4707],[147.8437,-35.308,577.2513],[147.8469,-35.3034,534.4768],[147.8455,-35.3003,544.4573],[147.8467,-35.2915,560.6806],[147.8555,-35.2829,539.6013],[147.8545,-35.2816,539.6013],[147.8558,-35.2791,554.6104],[147.8543,-35.2781,554.6104],[147.8566,-35.2758,531.6932],[147.8544,-35.2692,534.4385],[147.8557,-35.2659,530.7776],[147.8531,-35.264,527.4846],[147.8521,-35.2595,507.1842],[147.8421,-35.2568,555.9375],[147.8419,-35.2538,549.9263],[147.8383,-35.2498,555.8599],[147.8399,-35.2477,551.9489],[147.8367,-35.244,557.0754],[147.8403,-35.2381,544.4287],[147.8369,-35.2347,516.2893],[147.8335,-35.2262,527.2085],[147.834,-35.2217,539.1439],[147.8206,-35.2198,442.0549],[147.8107,-35.2156,408.561],[147.8093,-35.2124,355.6884],[147.7978,-35.2109,353.3344],[147.7988,-35.2057,428.2642],[147.7957,-35.2029,430.9292],[147.7951,-35.1992,439.4534],[147.7885,-35.1989,393.6187],[147.7865,-35.1962,354.6458],[147.7793,-35.194,303.5938],[147.78,-35.1904,351.93],[147.7771,-35.1855,356.5432],[147.7717,-35.1846,328.5804],[147.7667,-35.1634,334.8897],[147.7636,-35.1612,336.7082],[147.7647,-35.1564,352.3329],[147.762,-35.1476,366.2868],[147.765,-35.1437,374.6401],[147.7625,-35.1413,399.6024],[147.7669,-35.1353,413.8408],[147.7539,-35.1295,428.2556],[147.751,-35.1253,448.3006],[147.7541,-35.1193,448.9998],[147.7527,-35.117,448.0794],[147.7454,-35.1149,422.4263],[147.7406,-35.1106,375.9151],[147.7357,-35.1101,381.4879],[147.7345,-35.1045,355.7133],[147.7327,-35.1036,355.7133],[147.7354,-35.102,347.106],[147.7368,-35.0962,357.9736],[147.7329,-35.0942,356.752],[147.7332,-35.0918,373.6212],[147.7197,-35.0905,318.5799],[147.708,-35.0934,280.8911],[147.6938,-35.0914,200.9071],[147.6949,-35.0888,191.1307],[147.6917,-35.0861,192.666],[147.6861,-35.0851,190.6018],[147.6888,-35.0781,191.5025],[147.6921,-35.0559,225.8359],[147.6673,-35.0528,237.3808],[147.6669,-35.055,224.5752],[147.6568,-35.0537,232.4414],[147.6576,-35.0502,247.1445],[147.646,-35.0494,296.3584],[147.6471,-35.0434,247.5658],[147.6426,-35.0428,255.3124],[147.6439,-35.0357,275.2061],[147.6351,-35.0345,283.596],[147.6376,-35.0183,313.0422],[147.6309,-35.0174,333.2994],[147.6335,-35.0037,381.7632],[147.5991,-34.9977,379.5489],[147.6004,-34.9868,415.2972],[147.5529,-34.9807,310.2107],[147.5553,-34.9766,311.1208],[147.4457,-34.9645,218.6994],[147.44,-34.9711,219.2604],[147.4312,-34.9754,216.7397],[147.4244,-34.97,214.8875],[147.4146,-34.9686,212.5403],[147.4164,-34.9591,233.0435],[147.4141,-34.9563,242.9348],[147.3597,-34.9507,259.7805],[147.3605,-34.9464,253.4572],[147.3457,-34.9445,230.173],[147.3456,-34.9529,225.6454],[147.317,-34.9495,254.3951],[147.3133,-34.9451,261.9779],[147.3222,-34.9461,275.7679],[147.3247,-34.9376,277.2295],[147.3156,-34.9368,262.4267],[147.3176,-34.925,266.796],[147.3127,-34.9244,272.8587],[147.3161,-34.9064,280.6103],[147.2698,-34.9009,231.5489],[147.2673,-34.8981,242.5083],[147.2273,-34.8928,260.0744],[147.2258,-34.8994,262.6028],[147.0905,-34.8805,213.4231],[147.0974,-34.8436,208.1308],[147.0901,-34.8427,212.5455],[147.0931,-34.8246,203.8561],[147.0848,-34.8236,205.3715],[147.0808,-34.8455,201.5402],[146.994,-34.8344,179.2905],[146.9943,-34.8328,179.2262],[146.9593,-34.8294,176.4724],[146.9567,-34.8438,173.7575],[146.9513,-34.8432,173.611],[146.9541,-34.8288,176.3777],[146.9054,-34.8228,172.698],[146.9039,-34.8298,172.4954],[146.8699,-34.8253,163.9638],[146.8713,-34.8178,165.1957],[146.8535,-34.8156,162.9756],[146.8548,-34.8089,163.7711],[146.8485,-34.8081,162.5203]]]]}}