{"type":"Feature","properties":{"GID_2":"AUS.5.69_1","GID_0":"AUS","country":"Australia","GID_1":"AUS.5_1","state":"NewSouthWales","NL_NAME_1":"NA","county":"Inverell","VARNAME_2":"NA","NL_NAME_2":"NA","TYPE_2":"Area","ENGTYPE_2":"Area","CC_2":"14200","HASC_2":"AU.NS.IN","name":"Inverell.county"},
"geometry":{"type": "MultiPolygon","coordinates": [[[[151.4268,-29.2875,399.7375],[151.4246,-29.2828,428.4438],[151.4185,-29.2761,377.4357],[151.4158,-29.2648,376.6887],[151.4121,-29.2595,369.7375],[151.4129,-29.2574,391.8737],[151.4196,-29.2549,367.675],[151.4181,-29.2484,368.5885],[151.4151,-29.2444,366.2264],[151.4033,-29.243,353.8346],[151.3959,-29.2374,349.5748],[151.387,-29.2238,342.2656],[151.3777,-29.2143,346.3464],[151.3802,-29.2071,336.8479],[151.3779,-29.1957,332.2134],[151.3727,-29.1854,328.8422],[151.3687,-29.1869,328.4939],[151.3665,-29.1855,329.2613],[151.3658,-29.174,322.73],[151.3592,-29.1728,324.7472],[151.3474,-29.177,322.196],[151.3393,-29.1773,322.7622],[151.3204,-29.1666,320.4858],[151.3146,-29.1654,319.6187],[151.312,-29.1614,318.7027],[151.3088,-29.1475,319.9596],[151.3099,-29.1442,317.925],[151.3161,-29.1383,314.6639],[151.3155,-29.1345,316.2914],[151.3047,-29.1221,313.8084],[151.303,-29.116,313.5074],[151.2972,-29.1128,314.7812],[151.2897,-29.1113,313.0185],[151.2817,-29.1044,311.0289],[151.2795,-29.1005,309.7951],[151.2778,-29.0937,310.1984],[151.2795,-29.0895,306.3342],[151.2755,-29.0778,306.1541],[151.2843,-29.0655,303.8979],[151.2843,-29.0591,304.1596],[151.2889,-29.0503,307.1647],[151.2849,-29.0374,303.7694],[151.2758,-29.0353,301.649],[151.2711,-29.0303,304.6292],[151.2744,-29.0241,300.2839],[151.2819,-29.0191,301.8661],[151.284,-29.0055,295.9899],[151.2781,-28.9954,296.8382],[151.2764,-28.987,296.4436],[151.2768,-28.9847,296.3917],[151.2807,-28.9837,298.1602],[151.2826,-28.9806,296.735],[151.2721,-28.9732,298.5622],[151.2804,-28.961,296.1104],[151.2823,-28.9543,294.2971],[151.2816,-28.9489,293.7803],[151.275,-28.9392,290.8338],[151.2678,-28.9364,293.7554],[151.2652,-28.9331,289.5145],[151.2587,-28.9321,288.0506],[151.2439,-28.9243,288.1896],[151.2408,-28.9199,288.9753],[151.2385,-28.9089,285.1009],[151.2347,-28.9047,291.3815],[151.2312,-28.9079,291.4659],[151.228,-28.9085,291.4243],[151.2088,-28.9015,287.9954],[151.2066,-28.8923,282.8571],[151.2002,-28.8843,286.5314],[151.1851,-28.8787,278.8314],[151.174,-28.88,280.3148],[151.1644,-28.8708,277.583],[151.1613,-28.8655,278.5451],[151.1515,-28.8651,279.4035],[151.1447,-28.861,278.6014],[151.1393,-28.8617,277.2588],[151.133,-28.8602,277.3064],[151.1247,-28.8513,276.1277],[151.1156,-28.8504,275.6269],[151.1086,-28.8428,276.9967],[151.1044,-28.8443,273.9559],[151.1028,-28.8364,272.8118],[151.0968,-28.8381,273.0806],[151.0883,-28.8344,273.1027],[151.0832,-28.8344,272.042],[151.0677,-28.8447,269.5858],[151.0599,-28.8459,269.9928],[151.0548,-28.8494,270.5443],[151.0524,-28.8486,270.61],[151.0533,-28.8455,269.7532],[151.0521,-28.8439,270.836],[151.0453,-28.8445,268.0748],[151.0443,-28.8405,269.8181],[151.0392,-28.8386,268.451],[151.0429,-28.8344,268.3525],[151.0414,-28.8305,268.0632],[151.0374,-28.8278,268.1886],[151.0376,-28.8191,266.5708],[151.0421,-28.815,265.4005],[151.0419,-28.7992,264.5344],[151.0337,-28.7939,264.7657],[151.0248,-28.7931,263.9616],[151.0264,-28.7864,263.1353],[151.0251,-28.7788,265.3737],[151.0193,-28.772,263.6224],[151.029,-28.7705,260.8154],[151.0283,-28.7614,259.8762],[151.0253,-28.7536,259.4906],[151.0132,-28.7452,261.062],[151.0112,-28.7412,265.3748],[150.9835,-28.7356,256.0097],[150.9802,-28.7323,258.7747],[150.9704,-28.7316,255.2923],[150.963,-28.7372,249.951],[150.9608,-28.7351,255.3519],[150.9545,-28.7364,255.2315],[150.9484,-28.7344,254.4178],[150.9452,-28.7287,254.7039],[150.9382,-28.7309,253.0543],[150.9377,-28.7254,252.8407],[150.9321,-28.7221,250.5234],[150.9309,-28.7055,253.8155],[150.9241,-28.6985,250.766],[150.9197,-28.7002,250.0589],[150.9145,-28.6975,252.3038],[150.9064,-28.6877,251.8492],[150.8996,-28.687,249.6966],[150.894,-28.6882,247.8154],[150.8914,-28.6909,247.9641],[150.8906,-28.6946,248.27],[150.8889,-28.6952,248.8407],[150.8852,-28.6954,247.79],[150.8844,-28.6905,248.5179],[150.8806,-28.6886,248.5101],[150.8765,-28.6934,248.342],[150.874,-28.6938,247.7591],[150.8703,-28.6861,249.4393],[150.8685,-28.6854,251.4846],[150.8632,-28.6874,247.6441],[150.8528,-28.6803,247.2769],[150.8521,-28.6771,246.4711],[150.8484,-28.6731,245.2608],[150.8396,-28.6722,245.6497],[150.8299,-28.667,244.3309],[150.8193,-28.6666,248.8321],[150.8164,-28.6631,248.0922],[150.819,-28.6598,245.2012],[150.8188,-28.6573,246.7743],[150.8043,-28.6532,244.4457],[150.7958,-28.6552,243.7498],[150.7814,-28.6441,243.3614],[150.7736,-28.6441,241.9714],[150.766,-28.6376,242.5262],[150.7574,-28.639,242.0903],[150.7531,-28.6336,242.1874],[150.7283,-28.6345,241.582],[150.7256,-28.6361,240.505],[150.7242,-28.6398,237.6306],[150.7105,-28.6446,234.5718],[150.7086,-28.6474,236.1542],[150.7086,-28.652,235.8259],[150.701,-28.6548,236.0906],[150.6924,-28.6534,235.4952],[150.6817,-28.6614,239.2173],[150.6791,-28.6603,235.6362],[150.676,-28.6551,235.1066],[150.6765,-28.6523,232.7273],[150.6734,-28.6502,235.6791],[150.6648,-28.6562,238.6794],[150.6412,-28.6651,231.3809],[150.632,-28.6766,233.8045],[150.6269,-28.6725,226.8917],[150.6258,-28.669,236.2039],[150.6205,-28.6686,232.1056],[150.6176,-28.6735,231.4182],[150.6062,-28.6706,232.8161],[150.6002,-28.6708,227.8846],[150.6002,-28.6651,230.1776],[150.5806,-28.6555,231.6924],[150.5694,-28.6591,227.8633],[150.5655,-28.6619,231.8709],[150.5614,-28.6618,227.1521],[150.5567,-28.6545,230.6021],[150.5529,-28.6532,228.6012],[150.5482,-28.6585,225.0358],[150.5528,-28.6634,230.4121],[150.5509,-28.67,229.3552],[150.5351,-28.672,228.6052],[150.5279,-28.6695,230.9076],[150.5253,-28.6661,228.2621],[150.5321,-28.6621,230.4715],[150.5359,-28.6627,226.9152],[150.5392,-28.6612,224.6992],[150.5378,-28.6573,230.8437],[150.5315,-28.6555,231.1811],[150.525,-28.6543,227.6247],[150.5211,-28.6553,224.4322],[150.5185,-28.6604,229.2656],[150.5148,-28.6618,225.0631],[150.4931,-28.6594,222.7444],[150.4871,-28.6574,225.5008],[150.4843,-28.6598,226.6243],[150.4834,-28.6621,227.6959],[150.4861,-28.6634,226.2904],[150.4858,-28.6654,222.041],[150.4794,-28.6727,227.6673],[150.4795,-28.6746,227.8686],[150.4829,-28.6764,227.0095],[150.4877,-28.675,227.1475],[150.491,-28.6758,226.1189],[150.4997,-28.6826,227.0589],[150.5128,-28.684,225.9931],[150.5211,-28.6806,231.8494],[150.5226,-28.6863,229.2774],[150.5307,-28.6918,227.2024],[150.5297,-28.6996,227.679],[150.5332,-28.6996,227.2924],[150.5342,-28.7041,227.3004],[150.536,-28.7042,231.6613],[150.5389,-28.7077,228.6584],[150.54,-28.7047,228.9297],[150.5417,-28.7055,230.5592],[150.543,-28.7043,229.5914],[150.5441,-28.7,229.966],[150.5476,-28.7038,231.9299],[150.5542,-28.7058,231.6843],[150.5545,-28.7087,232.0679],[150.5577,-28.7052,230.7639],[150.5603,-28.7064,232.2354],[150.5615,-28.705,229.6766],[150.564,-28.7092,230.1362],[150.5682,-28.7083,232.8638],[150.5712,-28.7052,230.9619],[150.5735,-28.708,232.782],[150.5766,-28.7057,233.7961],[150.5837,-28.7092,232.2327],[150.5826,-28.7119,232.5961],[150.5899,-28.7113,230.8019],[150.5913,-28.7133,232.4902],[150.5998,-28.7174,233.5775],[150.6005,-28.7197,232.4296],[150.6055,-28.7206,232.3889],[150.6049,-28.7242,232.8578],[150.6111,-28.7247,231.63],[150.6144,-28.7275,234.3034],[150.6131,-28.7304,234.0642],[150.6142,-28.7315,233.4777],[150.6176,-28.7297,234.2599],[150.6291,-28.73,236.2476],[150.6328,-28.728,236.1599],[150.6342,-28.7299,237.2175],[150.6331,-28.7325,237.6411],[150.6373,-28.7337,236.2602],[150.6398,-28.7369,236.2028],[150.6431,-28.7358,238.3189],[150.6457,-28.7376,236.6313],[150.6495,-28.7363,239.1855],[150.652,-28.7399,237.8058],[150.6548,-28.7365,235.6108],[150.6581,-28.7384,236.6599],[150.6647,-28.7332,237.3002],[150.666,-28.7356,236.0448],[150.6626,-28.7391,235.1678],[150.6699,-28.7421,237.9869],[150.673,-28.7395,239.2498],[150.6653,-28.7821,244.9458],[150.6686,-28.7843,245.0047],[150.6667,-28.7858,245.0306],[150.6682,-28.7884,245.6798],[150.6699,-28.7881,245.7797],[150.6699,-28.791,245.9287],[150.6724,-28.7939,246.467],[150.6694,-28.7954,246.4162],[150.6703,-28.7978,246.2895],[150.6682,-28.7963,246.7277],[150.664,-28.7995,249.9281],[150.6642,-28.8011,247.2199],[150.6606,-28.802,249.8138],[150.6603,-28.8051,247.4074],[150.6566,-28.8071,248.6335],[150.6563,-28.8109,248.8753],[150.6538,-28.8105,249.1526],[150.6491,-28.8136,249.6118],[150.6445,-28.8131,250.144],[150.6433,-28.8261,251.9037],[150.6376,-28.8261,252.0402],[150.6379,-28.8284,252.6584],[150.6357,-28.8315,253.3051],[150.6387,-28.8345,253.1353],[150.6392,-28.8364,253.4773],[150.6377,-28.8371,254.1661],[150.6411,-28.8407,254.3684],[150.639,-28.8453,255.1561],[150.6351,-28.8454,255.7018],[150.6371,-28.8471,256.0953],[150.6363,-28.8504,256.1618],[150.6343,-28.851,256.6942],[150.6337,-28.8552,257.9521],[150.6297,-28.8573,258.9744],[150.6295,-28.8617,259.7003],[150.6257,-28.8645,260.6532],[150.6263,-28.8662,260.5218],[150.623,-28.8661,261.347],[150.6218,-28.8715,262.7963],[150.6179,-28.8755,263.1725],[150.6153,-28.8829,265.6791],[150.6118,-28.887,265.4472],[150.6096,-28.9042,269.847],[150.6132,-28.9062,268.6057],[150.6166,-28.9154,272.1299],[150.6194,-28.918,272.8293],[150.6191,-28.922,272.6638],[150.6152,-28.9234,273.2847],[150.615,-28.9248,273.6057],[150.6214,-28.9289,275.8587],[150.6234,-28.9351,276.3504],[150.6288,-28.939,277.3475],[150.6312,-28.9431,278.554],[150.6283,-28.9477,278.5443],[150.6244,-28.9501,279.4344],[150.6252,-28.9557,279.6472],[150.6228,-28.9593,278.8852],[150.6246,-28.9612,280.7326],[150.6213,-28.9641,280.908],[150.6219,-28.9744,282.9557],[150.6134,-28.984,285.6222],[150.6175,-28.9899,285.6885],[150.6149,-28.992,286.4565],[150.6152,-28.9959,286.8022],[150.6115,-28.9984,287.5033],[150.6116,-29.0,287.1536],[150.6202,-29.0112,289.5991],[150.624,-29.0122,290.7622],[150.6273,-29.0096,289.7245],[150.6272,-29.0119,289.8535],[150.6305,-29.0139,289.5235],[150.6305,-29.0152,290.3147],[150.627,-29.0168,290.795],[150.6292,-29.0209,291.1829],[150.6262,-29.0243,293.2275],[150.6282,-29.0254,293.5396],[150.633,-29.0234,293.5834],[150.6314,-29.0267,293.8933],[150.6371,-29.0339,295.2444],[150.6346,-29.0354,294.9266],[150.6344,-29.0373,296.4171],[150.6387,-29.038,295.7452],[150.6408,-29.0405,296.6644],[150.6447,-29.0416,298.0964],[150.6465,-29.0454,297.4604],[150.6494,-29.0457,297.5822],[150.6487,-29.0511,299.3229],[150.6545,-29.0567,301.5916],[150.6674,-29.058,302.0358],[150.665,-29.0649,304.0234],[150.6664,-29.0667,304.0526],[150.6701,-29.0646,304.6216],[150.6689,-29.0743,304.8801],[150.6778,-29.0754,308.1832],[150.6813,-29.0796,308.7583],[150.684,-29.0783,309.0901],[150.6845,-29.0725,309.1187],[150.6873,-29.0721,309.6025],[150.688,-29.0814,311.7159],[150.6935,-29.0842,311.1031],[150.6954,-29.0885,314.7128],[150.6987,-29.0877,313.0903],[150.7007,-29.0837,312.8603],[150.7049,-29.0867,313.5723],[150.7052,-29.0899,314.4749],[150.7018,-29.0978,318.4727],[150.7036,-29.0998,317.7072],[150.7075,-29.0979,316.341],[150.7083,-29.0948,317.2367],[150.7131,-29.0987,319.7794],[150.7186,-29.0979,320.3036],[150.7199,-29.0958,319.0655],[150.7223,-29.0966,319.9481],[150.7236,-29.1005,324.1887],[150.7206,-29.1038,320.6376],[150.7259,-29.1086,322.1932],[150.7256,-29.1166,323.6423],[150.7337,-29.1201,324.1451],[150.7314,-29.1237,328.7448],[150.7318,-29.1258,328.5377],[150.7393,-29.1303,330.8859],[150.7377,-29.132,330.6762],[150.7383,-29.1335,331.6445],[150.7491,-29.1348,330.3439],[150.7479,-29.1382,331.2349],[150.7438,-29.142,330.7674],[150.7482,-29.1443,330.9773],[150.7475,-29.1473,330.3695],[150.7523,-29.151,332.2963],[150.7451,-29.165,338.241],[150.7525,-29.1744,338.2138],[150.7503,-29.1787,337.0372],[150.7516,-29.1842,340.766],[150.7488,-29.1871,339.2646],[150.749,-29.1905,341.262],[150.7504,-29.1918,339.2837],[150.7576,-29.1907,353.6786],[150.7549,-29.2059,346.9177],[150.7638,-29.2085,352.7327],[150.759,-29.2186,350.9162],[150.7621,-29.2192,350.5239],[150.7633,-29.2222,349.5934],[150.7599,-29.2271,351.5922],[150.7587,-29.2313,351.2332],[150.7597,-29.2338,353.4509],[150.7561,-29.2408,356.1666],[150.7556,-29.2437,358.1691],[150.7573,-29.2454,354.5774],[150.7532,-29.2484,363.3909],[150.7549,-29.2538,358.7403],[150.7498,-29.262,363.1045],[150.7517,-29.2634,364.5398],[150.7576,-29.2631,364.1332],[150.7567,-29.2679,365.454],[150.7543,-29.27,365.444],[150.7639,-29.2692,393.5685],[150.759,-29.2764,368.7865],[150.7645,-29.2806,386.0819],[150.7642,-29.2852,373.7482],[150.7703,-29.2858,379.6539],[150.7739,-29.2897,375.3886],[150.7744,-29.2925,384.1147],[150.7705,-29.2985,383.8186],[150.7786,-29.301,394.9313],[150.7755,-29.3078,383.0585],[150.784,-29.3083,385.4823],[150.7857,-29.3153,393.3564],[150.7959,-29.3139,391.0644],[150.8019,-29.3215,389.9723],[150.8027,-29.3247,387.3273],[150.7978,-29.3243,393.8611],[150.7965,-29.3275,417.9544],[150.7998,-29.3286,392.4266],[150.8,-29.3321,395.5725],[150.8027,-29.3298,391.7853],[150.8047,-29.3303,392.8794],[150.8055,-29.3353,400.8766],[150.7989,-29.3363,398.2626],[150.8028,-29.3368,403.7654],[150.8009,-29.3402,399.2129],[150.8097,-29.3499,404.8749],[150.8117,-29.3552,407.5002],[150.8112,-29.3586,405.9951],[150.8146,-29.3592,409.3226],[150.8149,-29.3623,415.8323],[150.8175,-29.3617,413.0512],[150.8196,-29.3691,413.4029],[150.8228,-29.3716,415.3922],[150.8174,-29.3779,418.0368],[150.8239,-29.3848,422.9206],[150.8231,-29.3875,423.2018],[150.82,-29.388,423.9269],[150.8202,-29.3905,424.6746],[150.8302,-29.3965,536.5822],[150.8279,-29.4119,527.4546],[150.8503,-29.4147,553.6844],[150.8517,-29.4079,568.4663],[150.8787,-29.4116,573.7245],[150.8781,-29.4151,578.8413],[150.8904,-29.4172,582.1102],[150.8834,-29.4592,609.9935],[150.8636,-29.4565,568.4919],[150.8599,-29.4759,577.943],[150.8659,-29.4767,590.1252],[150.8642,-29.4863,601.3137],[150.8585,-29.4855,601.4736],[150.8558,-29.5005,646.2686],[150.8588,-29.5009,639.837],[150.8568,-29.5125,662.5254],[150.8289,-29.5195,547.298],[150.8257,-29.5223,529.6503],[150.8041,-29.5298,526.1095],[150.7814,-29.5461,459.2209],[150.7719,-29.5503,455.8175],[150.7678,-29.5546,465.9498],[150.7603,-29.558,445.174],[150.7597,-29.5622,450.2696],[150.757,-29.5626,451.6519],[150.756,-29.5657,450.2333],[150.7491,-29.5694,432.7968],[150.7462,-29.5654,432.8211],[150.7437,-29.5703,412.0528],[150.7402,-29.5694,423.2503],[150.7363,-29.5711,391.6155],[150.7333,-29.5693,389.1614],[150.7247,-29.6208,529.4954],[150.7285,-29.6215,526.1219],[150.7261,-29.6355,477.9632],[150.7203,-29.639,484.07],[150.7175,-29.6429,473.3461],[150.7117,-29.6436,461.0957],[150.7125,-29.6443,462.8699],[150.7092,-29.6483,451.7977],[150.7119,-29.6568,440.4612],[150.7041,-29.6633,436.833],[150.6993,-29.6637,420.6501],[150.696,-29.6673,418.9047],[150.6974,-29.6713,412.1528],[150.6845,-29.6803,381.4578],[150.6843,-29.6819,380.6959],[150.6878,-29.6814,382.4586],[150.6913,-29.6853,369.2669],[150.6906,-29.6885,364.4187],[150.6921,-29.6893,365.5415],[150.6924,-29.6942,360.2053],[150.6901,-29.7011,357.173],[150.6947,-29.7036,365.5754],[150.6937,-29.7054,355.0497],[150.6873,-29.7056,351.709],[150.689,-29.7111,347.9974],[150.6824,-29.7136,345.1792],[150.6856,-29.7178,345.5733],[150.6849,-29.7204,344.5437],[150.6868,-29.7249,345.6731],[150.6798,-29.7283,337.0041],[150.6798,-29.7308,335.5061],[150.6834,-29.7331,336.9925],[150.6795,-29.739,337.9285],[150.6811,-29.7422,332.0758],[150.6804,-29.7444,331.8865],[150.6755,-29.7489,330.1003],[150.6765,-29.7561,329.1659],[150.669,-29.7605,327.0413],[150.6708,-29.7631,324.6531],[150.67,-29.7651,327.6641],[150.663,-29.7644,332.0463],[150.6582,-29.7667,335.9895],[150.6622,-29.7696,321.7018],[150.6583,-29.774,321.6788],[150.6515,-29.7714,316.859],[150.6472,-29.7732,312.5812],[150.6483,-29.7765,320.8919],[150.6591,-29.7777,318.5041],[150.6677,-29.7758,323.3213],[150.6725,-29.7785,323.1416],[150.6731,-29.7721,328.1703],[150.6798,-29.7675,329.8538],[150.6844,-29.7693,326.194],[150.6834,-29.7725,327.4341],[150.6864,-29.7773,333.223],[150.6914,-29.7691,336.8228],[150.6963,-29.7698,334.5367],[150.7032,-29.774,334.9879],[150.7073,-29.7715,340.3582],[150.7134,-29.7711,355.7104],[150.717,-29.7764,345.0291],[150.7209,-29.7775,340.9124],[150.7245,-29.7771,341.3835],[150.7297,-29.7713,343.9958],[150.7326,-29.7725,345.0621],[150.7347,-29.7799,353.583],[150.7416,-29.7841,350.6329],[150.7421,-29.7869,350.0005],[150.7454,-29.79,351.4224],[150.7585,-29.7861,356.5269],[150.7605,-29.7824,359.7559],[150.764,-29.784,359.7781],[150.7669,-29.7817,359.1288],[150.7782,-29.7868,364.8847],[150.7801,-29.7899,374.1392],[150.7808,-29.7883,367.3964],[150.7832,-29.789,369.7007],[150.7832,-29.7907,370.051],[150.7898,-29.7939,374.793],[150.7944,-29.7988,378.4343],[150.7949,-29.8019,380.7274],[150.7995,-29.8047,391.1193],[150.7981,-29.8151,398.7734],[150.8054,-29.8281,413.2642],[150.813,-29.833,434.7634],[150.82,-29.8305,489.0132],[150.8254,-29.8318,574.4932],[150.8273,-29.829,559.042],[150.832,-29.8295,579.033],[150.8415,-29.8359,601.5452],[150.8427,-29.8341,601.9065],[150.8516,-29.836,595.7891],[150.854,-29.8346,600.1172],[150.8569,-29.8351,605.8179],[150.8578,-29.8381,606.0358],[150.8632,-29.8432,616.5154],[150.8629,-29.848,623.1504],[150.8665,-29.8485,624.7269],[150.8661,-29.8506,630.9147],[150.8692,-29.8511,633.0927],[150.8683,-29.8555,643.6318],[150.8771,-29.8569,660.6569],[150.8763,-29.8606,700.9556],[150.8807,-29.8613,674.2585],[150.8799,-29.865,685.6812],[150.8774,-29.8658,694.1049],[150.8764,-29.8738,691.1907],[150.8842,-29.875,681.2963],[150.8831,-29.8806,670.118],[150.8941,-29.8848,653.4969],[150.8935,-29.8879,662.262],[150.9033,-29.8926,698.9255],[150.9068,-29.8924,661.7025],[150.9077,-29.8946,656.2494],[150.9107,-29.8959,674.0154],[150.9101,-29.9014,664.2982],[150.9135,-29.9028,665.094],[150.9231,-29.9048,569.8018],[150.9305,-29.8997,564.0],[150.9476,-29.9042,564.0],[150.9598,-29.9015,564.0],[150.9648,-29.8974,564.0],[150.9689,-29.9021,564.0],[150.977,-29.9,564.0],[150.9814,-29.9017,564.0],[150.9842,-29.9008,564.0],[150.9911,-29.9078,564.0],[150.9922,-29.9048,564.0],[150.9942,-29.9067,564.0],[150.9987,-29.9064,564.0],[150.9996,-29.9006,564.0],[151.0027,-29.9034,564.0],[151.0104,-29.9047,564.0],[151.0118,-29.8983,564.0],[151.0308,-29.8985,586.246],[151.0322,-29.9006,600.3866],[151.0368,-29.9018,614.842],[151.0406,-29.8963,622.569],[151.0449,-29.8988,624.8612],[151.051,-29.8966,632.306],[151.0565,-29.899,639.1405],[151.0783,-29.8959,687.5757],[151.0824,-29.8984,668.6058],[151.0895,-29.8941,686.3575],[151.0916,-29.8956,699.4722],[151.0907,-29.8988,715.7367],[151.1025,-29.9081,742.4773],[151.1,-29.9121,742.6663],[151.1008,-29.9168,748.4673],[151.099,-29.9229,750.4993],[151.1022,-29.9252,755.5933],[151.1077,-29.9251,758.6412],[151.1133,-29.9166,761.3168],[151.1154,-29.9169,761.9219],[151.1201,-29.9215,762.3387],[151.1268,-29.919,762.611],[151.1279,-29.9203,764.1982],[151.133,-29.9195,768.5155],[151.1348,-29.9219,767.2277],[151.1378,-29.9223,766.1202],[151.1423,-29.92,767.6755],[151.1475,-29.9232,770.3864],[151.1605,-29.9185,769.6307],[151.1629,-29.9234,771.6881],[151.1672,-29.9248,776.9888],[151.1717,-29.9237,771.4957],[151.1723,-29.9282,772.9772],[151.1773,-29.9347,777.1163],[151.1768,-29.9385,771.9097],[151.1835,-29.941,780.3228],[151.1861,-29.94,788.5811],[151.1876,-29.9367,793.2443],[151.1917,-29.9366,798.401],[151.196,-29.9331,808.4291],[151.1983,-29.9284,824.3601],[151.1972,-29.9264,824.0043],[151.2016,-29.9077,858.5632],[151.2442,-29.9139,909.0312],[151.244,-29.9153,908.0118],[151.2563,-29.917,922.3067],[151.2566,-29.9151,920.5634],[151.2696,-29.9167,925.5372],[151.2702,-29.9131,907.5739],[151.2993,-29.9166,955.8984],[151.3005,-29.9099,941.6473],[151.3193,-29.9124,934.6148],[151.3192,-29.9188,959.6092],[151.3233,-29.9195,952.9254],[151.3223,-29.9253,941.3085],[151.3307,-29.9264,945.0345],[151.3303,-29.9287,942.2665],[151.3345,-29.9293,949.5562],[151.335,-29.9311,945.3386],[151.3346,-29.9334,948.1879],[151.3297,-29.9328,939.5529],[151.3257,-29.9557,920.8701],[151.3201,-29.955,902.0432],[151.3193,-29.96,861.8347],[151.3208,-29.9612,861.8347],[151.3359,-29.9643,891.0459],[151.3514,-29.964,906.3217],[151.3683,-29.9672,962.2748],[151.3716,-29.9501,976.9746],[151.3656,-29.9492,1012.2563],[151.3667,-29.9434,1016.1034],[151.3697,-29.9439,995.9458],[151.3704,-29.94,986.3819],[151.3722,-29.9402,990.6318],[151.3735,-29.941,989.6405],[151.373,-29.944,992.1262],[151.3799,-29.9449,983.4261],[151.379,-29.9502,985.7609],[151.398,-29.9545,1005.6084],[151.3973,-29.9587,1047.7186],[151.4171,-29.9668,1100.2743],[151.4196,-29.9655,1085.4189],[151.4191,-29.969,1078.0725],[151.4243,-29.9714,1084.9915],[151.4245,-29.9703,1095.0636],[151.4262,-29.9709,1095.0636],[151.4227,-29.9772,1096.5031],[151.4233,-29.9799,1097.5568],[151.4253,-29.9811,1093.647],[151.4266,-29.9881,1195.8035],[151.431,-29.9876,1184.3502],[151.4329,-29.9899,1210.3624],[151.4398,-29.9919,1206.614],[151.4429,-29.9906,1187.76],[151.4483,-29.9968,1143.0015],[151.454,-29.9959,1194.4937],[151.4548,-29.9913,1174.7979],[151.471,-29.9915,1163.447],[151.4869,-29.9844,1147.7449],[151.4952,-29.9874,1162.963],[151.4963,-29.9823,1185.8961],[151.5003,-29.9826,1199.6567],[151.5066,-29.9791,1220.2195],[151.512,-29.9793,1213.5609],[151.5164,-29.9774,1211.0105],[151.519,-29.9739,1198.4038],[151.5238,-29.9748,1208.0082],[151.5291,-29.9682,1207.9347],[151.5329,-29.9684,1201.6179],[151.5356,-29.9614,1229.6342],[151.5451,-29.9605,1273.1903],[151.5529,-29.9563,1306.5575],[151.5615,-29.9546,1296.535],[151.5726,-29.9477,1333.1382],[151.5786,-29.9477,1324.0437],[151.5869,-29.9408,1365.4949],[151.5933,-29.9419,1374.7581],[151.5967,-29.94,1389.7278],[151.6034,-29.9427,1384.7654],[151.6046,-29.938,1381.7966],[151.6038,-29.9309,1411.9946],[151.5957,-29.929,1399.9188],[151.5987,-29.92,1338.5049],[151.5956,-29.9192,1339.7972],[151.5925,-29.9156,1359.5054],[151.5921,-29.9118,1353.9434],[151.5852,-29.9056,1354.1243],[151.5866,-29.9009,1355.4265],[151.5905,-29.8969,1355.9496],[151.5932,-29.8888,1347.1179],[151.5959,-29.8874,1355.5662],[151.5919,-29.8822,1366.6339],[151.5936,-29.8785,1344.6666],[151.5874,-29.8744,1351.2958],[151.5843,-29.8772,1318.151],[151.5744,-29.8761,1322.233],[151.5681,-29.8802,1344.094],[151.5615,-29.8786,1341.3285],[151.5636,-29.8679,1286.9309],[151.5649,-29.8673,1281.0726],[151.5635,-29.8574,1210.9502],[151.5652,-29.8552,1230.0745],[151.5639,-29.8496,1205.2925],[151.5526,-29.8377,1210.4877],[151.5534,-29.8298,1207.1434],[151.5495,-29.8244,1206.8832],[151.5494,-29.8116,1336.7775],[151.555,-29.8041,1169.946],[151.555,-29.8016,1160.5667],[151.5473,-29.7902,1133.7651],[151.5479,-29.7846,1112.1901],[151.5452,-29.7828,1063.717],[151.5468,-29.7748,1007.0942],[151.5444,-29.7745,1011.8018],[151.5471,-29.76,994.1667],[151.5146,-29.7555,958.1539],[151.5153,-29.7518,1018.2609],[151.5048,-29.7504,1109.1069],[151.5068,-29.7402,1100.8584],[151.5129,-29.7409,1057.7332],[151.5134,-29.7382,1049.5397],[151.5181,-29.7388,1043.1984],[151.519,-29.7342,1025.0262],[151.5238,-29.7349,1039.8745],[151.5266,-29.7174,1027.795],[151.5239,-29.7171,1036.2742],[151.5196,-29.712,1026.1274],[151.5187,-29.7044,1101.4369],[151.514,-29.6982,1056.7795],[151.5159,-29.6882,1045.7942],[151.5179,-29.6884,1038.4326],[151.5185,-29.6851,1022.3644],[151.5307,-29.6866,958.4486],[151.5327,-29.6751,992.364],[151.5282,-29.6745,1036.7758],[151.5303,-29.6694,1019.9713],[151.5253,-29.6687,1030.2251],[151.5261,-29.6639,1001.6379],[151.522,-29.6634,998.0988],[151.5225,-29.6613,1013.3563],[151.5199,-29.6609,1017.4279],[151.5199,-29.6494,1003.7292],[151.5135,-29.6485,1001.6007],[151.5143,-29.6442,1010.2894],[151.5122,-29.6439,998.1416],[151.5114,-29.6483,1001.8993],[151.503,-29.64,1014.418],[151.4956,-29.6388,1016.7731],[151.4977,-29.6339,998.6607],[151.496,-29.6269,995.5687],[151.4914,-29.6263,969.8104],[151.4922,-29.6211,977.4562],[151.4889,-29.6207,968.8834],[151.4895,-29.6171,966.5154],[151.4811,-29.616,972.93],[151.4828,-29.6063,959.9061],[151.4769,-29.6055,958.6832],[151.4772,-29.6037,959.1909],[151.4752,-29.6034,957.7646],[151.4759,-29.5995,960.7778],[151.4738,-29.5881,957.9941],[151.4763,-29.5783,946.3895],[151.4754,-29.5768,956.2076],[151.4781,-29.5658,946.2004],[151.4819,-29.5637,924.4497],[151.4833,-29.5585,891.1848],[151.4874,-29.5532,857.0038],[151.4858,-29.5503,860.7104],[151.4883,-29.5461,843.5757],[151.4856,-29.5439,839.1169],[151.4819,-29.5339,862.4382],[151.4866,-29.5291,853.3528],[151.486,-29.5272,850.4426],[151.4786,-29.5173,830.3685],[151.4804,-29.5162,820.6729],[151.4798,-29.5136,822.1539],[151.4818,-29.5113,830.1232],[151.477,-29.509,821.7166],[151.465,-29.4935,825.505],[151.4752,-29.4404,754.522],[151.4574,-29.4332,794.3669],[151.4595,-29.4197,765.8978],[151.457,-29.415,753.0147],[151.4577,-29.407,736.2713],[151.4551,-29.3947,700.7111],[151.4604,-29.3873,683.0838],[151.4564,-29.3806,677.2187],[151.4598,-29.3793,670.3641],[151.4591,-29.3776,671.6763],[151.4612,-29.3752,654.5132],[151.4607,-29.3611,629.3948],[151.4562,-29.3591,620.8878],[151.4565,-29.3556,606.537],[151.4535,-29.3522,604.9495],[151.4534,-29.3483,599.1907],[151.4559,-29.3455,570.3397],[151.4524,-29.3408,522.0826],[151.4507,-29.3331,501.9394],[151.4478,-29.333,508.9228],[151.4463,-29.3312,499.6562],[151.4422,-29.3336,466.4836],[151.4431,-29.3301,446.3837],[151.439,-29.3283,422.0683],[151.4346,-29.3236,420.3742],[151.4344,-29.3202,439.7072],[151.4362,-29.3181,410.7765],[151.4318,-29.3135,405.9379],[151.4324,-29.3059,410.0933],[151.4284,-29.3002,396.9638],[151.4268,-29.2875,399.7375]]]]}}