{"type": "Feature","bbox": [145.7378,-18.9524,146.5081,-18.3643],"geometry": {"type": "MultiPolygon","coordinates": [[[[145.7597,-18.3941,117.527],[145.7575,-18.3958,68.1626],[145.759,-18.4024,48.7729],[145.7692,-18.4094,46.849],[145.7558,-18.4081,114.3858],[145.7552,-18.4149,173.2524],[145.7601,-18.4239,257.7561],[145.7575,-18.4259,285.2571],[145.7578,-18.4294,280.2621],[145.7546,-18.4308,338.3534],[145.756,-18.4351,393.188],[145.755,-18.4385,457.9683],[145.747,-18.4455,503.8828],[145.7442,-18.4506,559.3416],[145.7391,-18.45,582.4034],[145.7378,-18.4528,595.0839],[145.7412,-18.4616,646.5029],[145.7448,-18.462,610.1555],[145.7444,-18.4667,636.8334],[145.7789,-18.492,139.9223],[145.7601,-18.5147,554.4094],[145.7721,-18.5237,568.6687],[145.7908,-18.5008,572.2975],[145.8136,-18.5308,427.9705],[145.8147,-18.5362,409.7356],[145.8108,-18.5432,386.9712],[145.8134,-18.5465,496.339],[145.8142,-18.5512,543.176],[145.8189,-18.5541,592.6879],[145.8196,-18.5571,595.8331],[145.8253,-18.5605,585.5436],[145.8259,-18.5632,591.9864],[145.8335,-18.5676,607.6985],[145.832,-18.5718,579.9246],[145.8335,-18.5727,523.1416],[145.8338,-18.5768,605.4547],[145.8365,-18.5773,578.7869],[145.8362,-18.5794,597.2633],[145.8441,-18.5925,575.2631],[145.8417,-18.5961,609.5468],[145.8324,-18.5987,601.3319],[145.8098,-18.5859,459.9372],[145.8106,-18.5787,386.9621],[145.7956,-18.5773,435.5712],[145.7922,-18.6065,609.2742],[145.8024,-18.6075,571.0372],[145.8022,-18.609,563.0611],[145.8059,-18.6118,559.6724],[145.8048,-18.6162,564.6681],[145.8164,-18.6173,596.5364],[145.8018,-18.7506,692.432],[145.7958,-18.7511,698.8427],[145.7958,-18.7549,680.0477],[145.7936,-18.7563,655.6761],[145.7922,-18.7607,633.5319],[145.7958,-18.7643,619.0339],[145.7993,-18.7646,637.6068],[145.8017,-18.7684,644.8691],[145.8028,-18.7708,650.5614],[145.8019,-18.7781,662.8038],[145.7928,-18.7788,647.9871],[145.7906,-18.7996,674.1652],[145.792,-18.8017,665.0889],[145.791,-18.8039,652.7441],[145.7853,-18.8071,632.6814],[145.7771,-18.8064,669.6785],[145.7752,-18.8172,686.2607],[145.7789,-18.8207,655.5511],[145.7853,-18.8206,659.7334],[145.7941,-18.8302,655.8467],[145.7975,-18.8314,671.8561],[145.7966,-18.843,598.9764],[145.8185,-18.8451,667.8564],[145.8197,-18.8423,689.7642],[145.826,-18.8448,660.3222],[145.8296,-18.8494,666.7185],[145.8333,-18.848,664.8695],[145.8377,-18.8559,695.3469],[145.8379,-18.8613,705.0922],[145.8478,-18.8642,711.2736],[145.8521,-18.8685,732.686],[145.8561,-18.8651,719.0254],[145.8657,-18.8625,728.4657],[145.8647,-18.8758,683.1973],[145.9354,-18.8828,725.1149],[145.9378,-18.8598,773.8211],[145.9473,-18.8635,790.5485],[145.9518,-18.8612,753.6384],[145.96,-18.8675,783.4962],[145.9595,-18.8738,791.3716],[145.9658,-18.8795,791.2628],[145.9767,-18.8779,776.4083],[145.9885,-18.8822,769.8596],[145.9913,-18.8818,769.1613],[145.9982,-18.8741,801.2375],[145.9996,-18.8776,776.8593],[146.0076,-18.886,751.6227],[146.0078,-18.8963,740.1232],[146.0024,-18.9034,745.0674],[146.0112,-18.9065,741.0589],[146.0149,-18.9108,737.3179],[146.0159,-18.915,761.2079],[146.0231,-18.9192,738.7324],[146.0271,-18.9167,746.0181],[146.0263,-18.9123,725.622],[146.0286,-18.9108,731.7207],[146.0425,-18.9191,746.2365],[146.0468,-18.9163,738.7388],[146.0527,-18.9166,756.6129],[146.0559,-18.9104,777.5068],[146.0578,-18.9116,756.0289],[146.0616,-18.9094,762.9884],[146.064,-18.9051,762.9417],[146.0705,-18.9077,751.8787],[146.0733,-18.9134,743.9569],[146.0784,-18.9146,738.6531],[146.0807,-18.9188,750.4072],[146.0792,-18.9211,755.5073],[146.0803,-18.9227,770.3124],[146.0836,-18.9213,751.2178],[146.0874,-18.9244,723.6113],[146.0931,-18.9216,723.9055],[146.1018,-18.9299,793.1704],[146.1103,-18.933,836.9171],[146.1129,-18.9321,823.9307],[146.1154,-18.9285,837.7908],[146.1189,-18.9291,840.5887],[146.1188,-18.9265,832.5509],[146.1263,-18.9236,862.7924],[146.1313,-18.9237,872.4624],[146.1324,-18.9224,869.2902],[146.1405,-18.9234,904.8435],[146.1429,-18.9267,929.1072],[146.1481,-18.9279,930.4413],[146.1542,-18.9229,929.2225],[146.1581,-18.9289,929.6804],[146.1665,-18.9322,937.0927],[146.1671,-18.9355,921.6636],[146.1725,-18.9387,933.8303],[146.1827,-18.9382,950.7169],[146.1921,-18.9436,945.4967],[146.1974,-18.9442,948.7906],[146.1961,-18.9416,943.3407],[146.1965,-18.9361,939.301],[146.2006,-18.9304,793.7535],[146.1978,-18.9273,778.3336],[146.2011,-18.9233,717.2524],[146.2086,-18.9191,709.7751],[146.2125,-18.9241,709.1654],[146.2234,-18.9319,684.2915],[146.2467,-18.9423,259.7256],[146.2578,-18.9447,321.9499],[146.2622,-18.9518,257.3398],[146.2652,-18.9502,192.5238],[146.2766,-18.9524,32.8392],[146.2811,-18.9491,23.7397],[146.2877,-18.9523,16.1465],[146.2913,-18.9422,12.5978],[146.2896,-18.9383,12.1408],[146.2905,-18.9348,10.5729],[146.2932,-18.9343,10.9185],[146.2993,-18.9378,11.7908],[146.3063,-18.9342,13.9161],[146.3067,-18.9286,5.0191],[146.3086,-18.927,8.8368],[146.3214,-18.929,0.7691],[146.3221,-18.9255,0.0],[146.317,-18.9181,0.9939],[146.3123,-18.916,0.0],[146.2898,-18.8919,5.0686],[146.2838,-18.8805,5.4249],[146.2822,-18.8698,0.0],[146.2786,-18.8688,3.1068],[146.273,-18.8601,0.0],[146.2761,-18.8544,0.6477],[146.2754,-18.8242,0.0],[146.2772,-18.8091,0.0],[146.2754,-18.8125,2.19],[146.2733,-18.8116,3.7674],[146.2775,-18.8048,0.0],[146.2818,-18.7865,2.2604],[146.2797,-18.7868,3.9482],[146.2793,-18.7853,4.3305],[146.2826,-18.7806,0.903],[146.2854,-18.7688,0.0],[146.2855,-18.7666,0.0],[146.2835,-18.7663,1.9682],[146.2832,-18.764,3.2995],[146.2876,-18.7601,2.0174],[146.2893,-18.7499,0.5616],[146.2867,-18.7554,6.2322],[146.2864,-18.7533,5.8746],[146.2889,-18.7486,0.0],[146.2894,-18.7417,0.7399],[146.2907,-18.7421,1.4004],[146.3018,-18.7051,0.0],[146.3212,-18.6626,0.0],[146.3385,-18.6303,0.0],[146.3392,-18.6233,0.5498],[146.3367,-18.6261,0.9299],[146.3321,-18.641,2.713],[146.3246,-18.6469,6.627],[146.3194,-18.6461,4.0725],[146.3196,-18.6413,0.0],[146.3237,-18.6376,1.4964],[146.3271,-18.6291,6.247],[146.3359,-18.616,0.0],[146.3389,-18.6068,0.0],[146.3388,-18.603,0.7201],[146.3375,-18.6023,1.8375],[146.3381,-18.5932,0.0],[146.3424,-18.5777,0.0],[146.3416,-18.5702,0.0],[146.3392,-18.5645,0.0],[146.3289,-18.5766,6.1562],[146.3289,-18.5744,0.0],[146.3245,-18.5778,0.8666],[146.3223,-18.5777,1.0453],[146.3334,-18.5704,0.0],[146.3341,-18.5653,0.4523],[146.3316,-18.5583,0.0],[146.3264,-18.5557,2.3327],[146.3211,-18.5573,0.9669],[146.3269,-18.5542,4.6704],[146.3329,-18.5563,0.0],[146.335,-18.562,2.2668],[146.3454,-18.5593,0.0],[146.3449,-18.5542,0.0],[146.3359,-18.5331,0.0],[146.338,-18.5284,0.0],[146.3375,-18.5258,0.0],[146.3239,-18.5226,0.0],[146.3184,-18.5186,0.0],[146.3135,-18.5219,0.0],[146.3024,-18.5153,1.1217],[146.2948,-18.5082,5.1816],[146.2907,-18.5068,3.4327],[146.2805,-18.5072,7.9812],[146.2679,-18.5052,4.2009],[146.2579,-18.4979,0.0],[146.2573,-18.4949,0.0],[146.2479,-18.4968,2.6468],[146.2465,-18.4989,1.9191],[146.2447,-18.4968,4.6681],[146.24,-18.4968,6.0498],[146.2393,-18.4992,5.3633],[146.2372,-18.4994,4.2922],[146.2336,-18.4966,1.6496],[146.2259,-18.4983,1.6314],[146.2225,-18.4956,0.0],[146.2104,-18.5082,2.9989],[146.2069,-18.5165,0.0],[146.1994,-18.5218,6.13],[146.1961,-18.5202,5.4123],[146.1906,-18.5233,19.8756],[146.1909,-18.5283,36.6208],[146.1863,-18.53,139.0579],[146.1875,-18.5333,147.3409],[146.1828,-18.532,240.2091],[146.1798,-18.5281,237.4507],[146.1796,-18.5247,331.9204],[146.1689,-18.5183,385.2393],[146.1674,-18.5157,500.8813],[146.1643,-18.5177,337.5434],[146.1559,-18.5188,371.4338],[146.1467,-18.517,406.6747],[146.1376,-18.5123,458.0025],[146.1286,-18.5103,419.4901],[146.1262,-18.5081,588.5549],[146.1217,-18.5079,722.9078],[146.1171,-18.5013,527.1136],[146.1171,-18.4967,577.2626],[146.1153,-18.4948,582.7719],[146.1173,-18.4913,548.9723],[146.1167,-18.4894,570.3475],[146.1207,-18.4873,594.5826],[146.122,-18.4845,612.1258],[146.1185,-18.48,691.5081],[146.1142,-18.478,709.5568],[146.1172,-18.4745,782.9738],[146.1203,-18.4744,819.5835],[146.1141,-18.4725,801.1962],[146.1109,-18.4695,720.4696],[146.1043,-18.4535,514.5573],[146.1001,-18.4512,454.87],[146.0938,-18.4514,483.6335],[146.0916,-18.4485,504.2358],[146.0935,-18.4402,427.1494],[146.1016,-18.4327,518.1651],[146.0987,-18.4276,426.2514],[146.0977,-18.4218,362.9958],[146.1007,-18.4166,419.9587],[146.0926,-18.4116,440.3532],[146.0856,-18.4012,451.2219],[146.0726,-18.4031,448.1386],[146.0492,-18.3926,884.4561],[146.0464,-18.3967,944.0732],[146.0355,-18.3877,837.9933],[146.0274,-18.3919,708.1022],[146.0222,-18.3883,708.575],[146.0183,-18.3897,738.916],[146.0112,-18.3886,806.6207],[146.0081,-18.3914,748.0394],[146.0046,-18.3913,751.5436],[146.001,-18.3936,728.9761],[145.992,-18.3938,632.7756],[145.9836,-18.3971,433.6716],[145.9798,-18.3953,435.1663],[145.9752,-18.3968,207.3208],[145.9618,-18.3944,213.5363],[145.9473,-18.3643,753.5031],[145.9334,-18.3705,930.2603],[145.9299,-18.3695,810.3435],[145.927,-18.371,813.4734],[145.9219,-18.3765,801.8359],[145.9146,-18.3791,756.4644],[145.9087,-18.3853,689.2112],[145.9086,-18.388,568.5232],[145.8972,-18.3976,586.6249],[145.8796,-18.4075,710.1003],[145.877,-18.4052,714.6961],[145.8771,-18.4023,709.1708],[145.8735,-18.4,717.9349],[145.8713,-18.4005,720.2034],[145.8709,-18.4025,714.6747],[145.8655,-18.4023,791.7504],[145.8654,-18.4043,796.4437],[145.8567,-18.4057,412.4901],[145.8477,-18.4047,250.1156],[145.8388,-18.4063,165.8056],[145.8328,-18.4021,362.7451],[145.8294,-18.4042,514.1312],[145.829,-18.4068,640.4769],[145.8256,-18.407,645.4359],[145.8194,-18.4039,664.7062],[145.816,-18.398,593.9811],[145.8182,-18.3952,500.3976],[145.8193,-18.3869,561.5074],[145.8158,-18.3859,560.2368],[145.8132,-18.3799,565.8304],[145.8086,-18.3777,605.1021],[145.8049,-18.3807,598.4048],[145.8069,-18.386,525.1271],[145.7998,-18.3878,428.3662],[145.7983,-18.3902,535.8684],[145.7939,-18.39,604.3112],[145.7937,-18.3975,596.1334],[145.7956,-18.3997,595.3828],[145.7924,-18.4034,619.1229],[145.7878,-18.4024,581.5143],[145.7825,-18.3942,562.5524],[145.7757,-18.399,337.6309],[145.7725,-18.3983,225.1387],[145.7698,-18.3997,199.3349],[145.7623,-18.394,154.2272],[145.7597,-18.3941,117.527]]],
[[[146.504,-18.5992,4.5033],[146.4974,-18.5916,10.1086],[146.4972,-18.5817,0.0],[146.4924,-18.5727,2.0292],[146.4843,-18.5674,6.0746],[146.4833,-18.5694,0.0],[146.4858,-18.5766,54.0911],[146.481,-18.5824,7.6045],[146.4813,-18.5854,0.0],[146.484,-18.5926,32.0762],[146.4882,-18.594,0.6218],[146.4909,-18.593,0.0],[146.4937,-18.5949,0.0],[146.4947,-18.5989,29.965699999999998],[146.4892,-18.6018,11.9946],[146.4912,-18.6102,2.3901],[146.4901,-18.6128,1.818],[146.4834,-18.6134,0.0],[146.486,-18.618,44.9588],[146.4897,-18.622,2.3371],[146.4922,-18.6225,18.8858],[146.4934,-18.6261,0.0],[146.498,-18.6295,64.9963],[146.5001,-18.6336,5.2491],[146.498,-18.6398,16.568],[146.4913,-18.6438,0.0],[146.4924,-18.6482,3.9217],[146.4903,-18.6507,3.5033],[146.487,-18.6501,11.5049],[146.4896,-18.6587,1.176],[146.4894,-18.6675,12.3204],[146.4931,-18.6661,20.9158],[146.4933,-18.663,12.9452],[146.4992,-18.6605,5.3689],[146.5041,-18.6539,6.4832],[146.503,-18.6512,0.0],[146.5049,-18.6442,0.0],[146.5041,-18.6398,8.3444],[146.5069,-18.6383,0.0],[146.5046,-18.6279,38.0581],[146.5079,-18.6263,11.5807],[146.5081,-18.6228,24.9904],[146.5002,-18.6123,0.4886],[146.5002,-18.6083,0.0],[146.5031,-18.6053,0.0],[146.504,-18.5992,4.5033]]],
[[[146.4984,-18.5631,3.1752],[146.5008,-18.563,0.0],[146.505,-18.5555,0.0],[146.5045,-18.5479,0.0],[146.5033,-18.5443,0.0],[146.4973,-18.5382,16.6157],[146.4915,-18.5385,14.5515],[146.4885,-18.5461,13.8815],[146.4905,-18.5518,22.8969],[146.489,-18.5578,16.3717],[146.4948,-18.5627,46.0578],[146.4984,-18.5631,3.1752]]],
[[[146.2369,-18.4981,4.2922],[146.2381,-18.4986,4.2922],[146.2382,-18.4973,1.2528],[146.2363,-18.4969,3.9425],[146.2369,-18.4981,4.2922]]]]}
,"properties": {"GID_2": "AUS.7.31_1","GID_0": "AUS","country": "Australia","GID_1": "AUS.7_1","state": "Queensland","NL_NAME_1": "NA","county": "Hinchinbrook","VARNAME_2": "NA","NL_NAME_2": "NA","TYPE_2": "Shire","ENGTYPE_2": "Shire","CC_2": "33800","HASC_2": "AU.QL.HI","name": "Hinchinbrook.county","area_km2": 2810.024,"hist_schema_id": "Elevation0-9000","hist_area_km2": {"0": 639.214,"25": 531.41,"50": 362.298,"75": 174.969,"100": 104.569,"125": 77.546,"150": 61.194,"175": 50.027,"200": 45.466,"225": 39.157,"250": 35.482,"275": 33.393,"300": 30.075,"325": 27.443,"350": 25.132,"375": 22.62,"400": 23.042,"425": 21.233,"450": 17.778,"475": 17.496,"500": 16.853,"525": 18.443,"550": 22.482,"575": 32.164,"600": 52.449,"625": 46.749,"650": 63.338,"675": 67.887,"700": 50.217,"725": 37.485,"750": 24.681,"775": 12.784,"800": 8.23,"825": 6.082,"850": 3.512,"875": 2.228,"900": 2.307,"925": 1.485,"950": 0.743,"975": 0.241,"1000": 0.121}}}