{"type": "Feature","bbox": [115.8605,-32.1145,115.9783,-31.9839],"geometry": {"type": "MultiPolygon","coordinates": [[[[115.9331,-31.9839,22.2645],[115.9272,-31.9889,16.9408],[115.9241,-31.9862,18.2003],[115.9185,-31.9908,20.2618],[115.9225,-31.9941,16.6305],[115.9129,-31.9937,23.8254],[115.9145,-31.9962,16.3032],[115.9064,-32.004,17.759],[115.9023,-32.0044,15.766],[115.9019,-32.0071,18.1072],[115.8968,-32.0114,8.9785],[115.8991,-32.0135,8.5428],[115.8996,-32.0167,7.158],[115.8976,-32.0201,2.6011],[115.9012,-32.0213,0.0],[115.9037,-32.0247,2.0006],[115.9017,-32.0276,0.7072],[115.9007,-32.0277,2.151],[115.9011,-32.0231,2.2642],[115.8984,-32.0233,3.1053],[115.8933,-32.0204,1.0397],[115.8888,-32.0241,0.9731],[115.8834,-32.0242,0.0],[115.8825,-32.028,1.7229],[115.8779,-32.0318,2.9628],[115.8683,-32.0313,1.2651],[115.8642,-32.0363,4.3862],[115.8605,-32.0381,0.5263],[115.861,-32.0446,2.1249],[115.8624,-32.0457,8.6652],[115.8613,-32.0473,8.07],[115.865,-32.0476,8.3553],[115.8687,-32.0451,12.8293],[115.8731,-32.0451,15.2887],[115.871,-32.0658,26.5222],[115.8796,-32.0674,28.5585],[115.8885,-32.0667,24.6276],[115.8815,-32.0724,29.0791],[115.892,-32.0818,27.9515],[115.8897,-32.0869,31.3198],[115.8906,-32.0921,29.4762],[115.9002,-32.1024,29.4435],[115.9152,-32.1145,30.3598],[115.9145,-32.1014,33.3397],[115.9234,-32.0697,24.1684],[115.9364,-32.0598,15.9894],[115.9302,-32.0543,16.3797],[115.9359,-32.0339,10.4312],[115.968,-32.0068,12.9153],[115.9707,-32.0091,11.5978],[115.9776,-32.0031,15.0564],[115.977,-31.9939,18.7438],[115.9783,-31.9883,19.7728],[115.9425,-31.9843,16.2792],[115.9372,-31.9875,15.3699],[115.9331,-31.9839,22.2645]]]]}
,"properties": {"GID_2": "AUS.11.19_1","GID_0": "AUS","country": "Australia","GID_1": "AUS.11_1","state": "WesternAustralia","NL_NAME_1": "NA","county": "Canning","VARNAME_2": "NA","NL_NAME_2": "NA","TYPE_2": "City","ENGTYPE_2": "City","CC_2": "51330","HASC_2": "AU.WA.CN","name": "Canning.county","area_km2": 65.2608,"hist_schema_id": "Elevation0-9000","hist_area_km2": {"0": 23.58412,"25": 41.0659,"50": 0.61078}}}