{"type": "Feature","bbox": [117.6692,-32.2366,118.3785,-31.6964],"geometry": {"type": "MultiPolygon","coordinates": [[[[117.6781,-31.8224,228.1105],[117.6783,-31.9319,360.3927],[117.6733,-31.9431,320.9526],[117.6733,-31.9499,321.2827],[117.6863,-31.9499,307.4387],[117.6863,-31.9682,284.4861],[117.6939,-31.9682,288.3284],[117.6956,-31.9895,271.2421],[117.7042,-31.9895,269.4806],[117.7042,-32.0042,261.3897],[117.6978,-32.0042,260.7296],[117.6978,-32.0079,259.5074],[117.6999,-32.0079,259.4652],[117.6998,-32.0664,287.8514],[117.7091,-32.0664,275.9507],[117.7091,-32.075,285.7449],[117.7058,-32.075,280.3691],[117.7058,-32.0888,288.6462],[117.702,-32.0888,290.8234],[117.702,-32.0948,293.8035],[117.6796,-32.0948,314.2905],[117.6795,-32.0971,314.5039],[117.6763,-32.0971,303.3268],[117.6763,-32.1061,331.7197],[117.6692,-32.1061,330.0011],[117.6692,-32.1199,319.8259],[117.67529999999999,-32.1199,321.938],[117.67529999999999,-32.1439,310.7023],[117.6838,-32.1439,323.7783],[117.6838,-32.1512,328.7196],[117.6752,-32.1512,320.593],[117.6754,-32.1621,306.0302],[117.7937,-32.16,324.1412],[117.7937,-32.1696,304.9865],[117.8058,-32.1697,308.3098],[117.8058,-32.1497,350.4553],[117.8348,-32.1496,364.5514],[117.8348,-32.1528,366.6487],[117.8573,-32.1527,340.802],[117.8573,-32.155,351.9038],[117.8653,-32.1551,332.6479],[117.8653,-32.1562,332.6479],[117.8727,-32.1562,333.0285],[117.8727,-32.1543,327.3847],[117.8913,-32.1543,324.5919],[117.9045,-32.1574,330.9129],[117.9245,-32.1575,326.3501],[117.9276,-32.1597,318.57],[117.9281,-32.1628,315.5611],[117.9538,-32.1628,291.5193],[117.9567,-32.1652,288.4151],[117.9814,-32.1651,284.1536],[117.9918,-32.1737,282.1731],[118.0169,-32.1736,270.7424],[118.017,-32.192,265.333],[118.0823,-32.1911,270.2254],[118.0823,-32.1958,264.1522],[118.0902,-32.1958,255.8497],[118.0848,-32.2015,256.3966],[118.078,-32.2282,255.3033],[118.1082,-32.2283,255.6333],[118.1082,-32.2304,255.399],[118.1251,-32.2304,255.3283],[118.1251,-32.2283,256.6083],[118.1403,-32.2282,271.8895],[118.1404,-32.2316,261.968],[118.1742,-32.2316,266.7524],[118.1743,-32.2366,269.1776],[118.1896,-32.2366,279.9828],[118.1896,-32.2309,270.8027],[118.2083,-32.2308,273.5408],[118.208,-32.1889,324.6786],[118.2066,-32.1889,324.6786],[118.2067,-32.0993,276.4655],[118.2165,-32.0993,272.6608],[118.2167,-32.0894,293.2307],[118.2274,-32.0893,287.0454],[118.2275,-32.0816,304.1442],[118.2448,-32.0814,295.1257],[118.2447,-32.0639,331.0547],[118.2682,-32.0636,289.8858],[118.2635,-32.0238,284.3666],[118.2939,-32.0238,300.8873],[118.2938,-31.9839,294.5349],[118.3182,-31.9839,339.2805],[118.3171,-31.8738,337.441],[118.3444,-31.8737,353.2388],[118.3444,-31.8537,341.0381],[118.37,-31.8536,353.4335],[118.37,-31.8022,328.6137],[118.3785,-31.8022,329.432],[118.3781,-31.6965,354.421],[118.2356,-31.6964,279.4362],[118.1665,-31.7102,269.0739],[118.1645,-31.7032,268.3457],[118.1131,-31.7134,267.9104],[118.1147,-31.7199,270.4924],[118.1042,-31.7199,279.7893],[118.0532,-31.72,299.3001],[118.0532,-31.7148,296.1475],[118.0272,-31.7148,302.538],[118.0272,-31.7098,308.493],[118.0196,-31.7095,313.3141],[118.0193,-31.7005,329.4606],[118.0061,-31.7013,352.5892],[117.9986,-31.6975,335.9566],[117.9931,-31.7008,329.8238],[117.9815,-31.7009,302.4121],[117.9816,-31.7087,297.282],[117.9919,-31.7087,309.2263],[117.9921,-31.8287,292.8357],[117.8792,-31.8286,294.9677],[117.8788,-31.8116,303.2146],[117.7939,-31.8114,284.9503],[117.7882,-31.8158,279.9503],[117.7473,-31.8167,230.2193],[117.749,-31.8204,230.1383],[117.7229,-31.81,229.2655],[117.7102,-31.8153,228.7488],[117.6956,-31.8178,227.8976],[117.6897,-31.8214,228.9713],[117.6818,-31.8234,228.0299],[117.6781,-31.8224,228.1105]]]]}
,"properties": {"GID_2": "AUS.11.15_1","GID_0": "AUS","country": "Australia","GID_1": "AUS.11_1","state": "WesternAustralia","NL_NAME_1": "NA","county": "BruceRock","VARNAME_2": "NA","NL_NAME_2": "NA","TYPE_2": "Shire","ENGTYPE_2": "Shire","CC_2": "51120","HASC_2": "AU.WA.BR","name": "BruceRock.county","area_km2": 2727.484,"hist_schema_id": "Elevation0-9000","hist_area_km2": {"225": 79.268,"250": 585.907,"275": 728.881,"300": 681.547,"325": 463.887,"350": 168.66,"375": 19.119,"400": 0.215}}}