{"type":"Feature","properties":{"GID_2":"AUS.9.21_1","GID_0":"AUS","country":"Australia","GID_1":"AUS.9_1","state":"Tasmania","NL_NAME_1":"NA","county":"Launceston","VARNAME_2":"NA","NL_NAME_2":"NA","TYPE_2":"City","ENGTYPE_2":"City","CC_2":"64010","HASC_2":"AU.TS.LC","name":"Launceston.county"},
"geometry":{"type": "MultiPolygon","coordinates": [[[[147.5904,-41.3807,498.3667],[147.4995,-41.2978,638.3194],[147.4902,-41.2967,618.4541],[147.3934,-41.2715,621.6431],[147.388,-41.2543,356.554],[147.3577,-41.2522,492.1743],[147.3546,-41.2503,495.895],[147.3463,-41.2515,597.82],[147.3459,-41.2529,597.82],[147.3419,-41.2523,515.5584],[147.2897,-41.2777,1171.3315],[147.2922,-41.2633,692.833],[147.2889,-41.2565,565.3015],[147.2892,-41.2436,295.5309],[147.2852,-41.2396,273.756],[147.2806,-41.2273,210.149],[147.2842,-41.2277,315.5269],[147.2893,-41.208,241.144],[147.2959,-41.2088,237.0419],[147.2979,-41.1994,304.2588],[147.2805,-41.1985,250.5308],[147.2809,-41.1963,292.9814],[147.2765,-41.1958,321.764],[147.2715,-41.1919,204.967],[147.2619,-41.1904,115.5959],[147.2613,-41.1758,127.3602],[147.2584,-41.1761,157.5411],[147.2624,-41.1575,141.262],[147.2664,-41.1579,114.8956],[147.2671,-41.1548,119.4094],[147.2631,-41.1543,150.4971],[147.2673,-41.1397,160.0569],[147.2664,-41.1233,110.3773],[147.2684,-41.1125,118.7545],[147.2434,-41.1101,196.5891],[147.249,-41.0919,101.4856],[147.2481,-41.0908,95.7274],[147.2126,-41.0861,74.2841],[147.2073,-41.0875,94.6813],[147.2067,-41.0908,76.1155],[147.2083,-41.091,71.8178],[147.207,-41.0969,92.4132],[147.2086,-41.0971,97.7639],[147.2083,-41.0987,101.9345],[147.2003,-41.1094,132.3554],[147.2008,-41.1132,116.4688],[147.2043,-41.1164,117.7293],[147.1934,-41.1149,107.7497],[147.1928,-41.1178,115.2199],[147.1881,-41.1172,116.5856],[147.1462,-41.1356,166.4914],[147.1441,-41.1431,191.3603],[147.1473,-41.1437,191.798],[147.1443,-41.1561,136.9105],[147.1459,-41.1563,134.93],[147.1449,-41.1605,117.6335],[147.1413,-41.16,98.1546],[147.1406,-41.1626,101.6572],[147.137,-41.1621,115.9607],[147.1365,-41.1642,115.8496],[147.1388,-41.1645,102.9984],[147.1299,-41.1994,83.2866],[147.1262,-41.2015,80.6627],[147.1244,-41.2001,88.1402],[147.1246,-41.1978,89.1574],[147.1102,-41.1959,150.4762],[147.1084,-41.2034,97.298],[147.1051,-41.2036,107.246],[147.1033,-41.2063,119.2276],[147.0999,-41.2074,123.8186],[147.0953,-41.2046,147.166],[147.093,-41.2134,238.3416],[147.0067,-41.2577,32.457],[147.0005,-41.2585,8.2847],[146.9993,-41.2617,13.0555],[147.0036,-41.2685,3.5614],[147.0076,-41.2696,3.3779],[147.0064,-41.2718,1.7513],[147.0106,-41.2717,17.6434],[147.0108,-41.2744,9.8421],[147.0154,-41.2764,2.033],[147.0156,-41.2783,6.1521],[147.0134,-41.2797,2.564],[147.0137,-41.2836,4.7892],[147.0092,-41.2826,0.9263],[147.0005,-41.2847,5.3092],[146.9912,-41.2892,0.3406],[146.99,-41.2918,7.8959],[146.9852,-41.2932,4.989],[146.9842,-41.2956,9.4706],[146.9788,-41.2988,5.4565],[146.9766,-41.3032,6.593],[146.9782,-41.3088,8.5817],[146.983,-41.3103,3.0681],[146.9877,-41.3142,8.6119],[147.0035,-41.3166,0.583],[147.0244,-41.3149,1.9385],[147.03,-41.3175,4.3359],[147.0422,-41.3197,1.4729],[147.0453,-41.3226,2.8969],[147.0419,-41.3247,2.7226],[147.0456,-41.3295,3.9942],[147.0458,-41.3366,1.0366],[147.0492,-41.3366,0.5071],[147.062,-41.3305,7.1288],[147.0724,-41.3307,9.4507],[147.0826,-41.3446,3.7289],[147.0755,-41.3504,0.5116],[147.0752,-41.3541,0.6724],[147.0764,-41.3531,2.1755],[147.0775,-41.3528,1.7084],[147.0811,-41.353,2.3731],[147.0825,-41.3517,1.7778],[147.0835,-41.352,1.7778],[147.0847,-41.3531,4.9096],[147.0842,-41.353,5.5809],[147.0833,-41.3521,1.7778],[147.0826,-41.3518,1.7778],[147.0811,-41.3532,2.3731],[147.0768,-41.3532,2.1755],[147.0753,-41.3545,0.6724],[147.0797,-41.3668,0.0],[147.0883,-41.3728,1.532],[147.0926,-41.3779,1.629],[147.0939,-41.3858,0.8757],[147.1128,-41.3962,2.2921],[147.1172,-41.403,0.5],[147.1278,-41.4109,7.7368],[147.1261,-41.4157,3.1556],[147.1199,-41.4179,0.5],[147.118,-41.4202,2.8355],[147.127,-41.4321,2.0231],[147.13,-41.4336,1.0363],[147.1323,-41.431399999999996,1.1538],[147.1421,-41.4293,2.2109],[147.1411,-41.4259,3.4738],[147.1445,-41.4174,1.953],[147.1471,-41.4168,1.2095],[147.1486,-41.4203,0.8532],[147.1511,-41.4211,1.547],[147.1528,-41.42,1.4458],[147.1531,-41.4165,1.5138],[147.1547,-41.416,2.1946],[147.1573,-41.4172,3.0126],[147.16,-41.4202,1.0682],[147.1588,-41.4239,1.2081],[147.1612,-41.4272,1.2455],[147.1638,-41.4258,2.1184],[147.1653,-41.4265,2.5114],[147.1645,-41.4292,1.5918],[147.1663,-41.4333,4.0097],[147.1698,-41.4324,2.0527],[147.1732,-41.4345,3.279],[147.1723,-41.4364,4.896],[147.1727,-41.4345,1.8044],[147.1708,-41.4341,2.0439],[147.1699,-41.4328,2.0527],[147.1683,-41.4345,2.9125],[147.1658,-41.4333,4.0097],[147.1639,-41.4292,1.5918],[147.1646,-41.4266,1.982],[147.1609,-41.4276,1.2455],[147.1581,-41.4238,1.5466],[147.1593,-41.4202,1.0682],[147.1567,-41.4174,3.0126],[147.1537,-41.4167,1.5138],[147.1532,-41.4205,1.4458],[147.1503,-41.4216,1.5804],[147.1475,-41.4203,1.414],[147.1459,-41.4172,1.953],[147.1421,-41.4256,1.6696],[147.1435,-41.4289,2.2109],[147.1363,-41.432,4.1693],[147.1328,-41.4322,1.1538],[147.1296,-41.435,0.5],[147.1305,-41.4395,1.6482],[147.1212,-41.4436,30.0474],[147.127,-41.44,14.5672],[147.1279,-41.4379,0.5],[147.1189,-41.4262,1.2047],[147.1147,-41.4291,81.391],[147.1169,-41.4308,63.8778],[147.1144,-41.4319,125.4698],[147.1154,-41.4356,94.2798],[147.1073,-41.4395,169.8964],[147.113,-41.4425,172.7657],[147.1129,-41.4437,178.4298],[147.1018,-41.4426,190.0217],[147.1014,-41.4449,158.6214],[147.1147,-41.4497,65.5965],[147.1139,-41.4533,40.5986],[147.1154,-41.4552,123.4733],[147.1148,-41.4575,73.9586],[147.1123,-41.4588,68.1206],[147.1091,-41.4561,132.782],[147.1069,-41.458,182.7428],[147.1111,-41.4599,72.9887],[147.1033,-41.4659,88.3502],[147.115,-41.4733,165.628],[147.1207,-41.4708,172.8751],[147.1241,-41.4744,174.6075],[147.1282,-41.4738,176.6924],[147.1297,-41.4755,185.4338],[147.1289,-41.4775,183.4445],[147.1337,-41.4764,187.5113],[147.1401,-41.483,125.6209],[147.126,-41.4905,182.5869],[147.1364,-41.5013,268.3791],[147.1477,-41.4951,161.5591],[147.154,-41.501,164.8028],[147.1694,-41.4929,88.8729],[147.1719,-41.4953,111.6304],[147.1717,-41.4989,127.4509],[147.1741,-41.502,115.1097],[147.1794,-41.4999,94.809],[147.188,-41.5083,164.1934],[147.1937,-41.5054,92.3698],[147.198,-41.5102,137.8732],[147.2222,-41.4937,46.0638],[147.2244,-41.4958,24.4992],[147.2241,-41.4981,21.7342],[147.2271,-41.4992,27.1222],[147.2305,-41.5081,35.9769],[147.2329,-41.507,45.4941],[147.2362,-41.5108,55.4336],[147.2286,-41.5147,33.3265],[147.2309,-41.5196,35.3498],[147.237,-41.5164,59.7922],[147.2485,-41.5282,84.5843],[147.2553,-41.5245,185.99],[147.2627,-41.5301,142.6737],[147.2782,-41.5217,211.1568],[147.2858,-41.5297,144.8557],[147.3028,-41.5204,233.1791],[147.3128,-41.5294,215.3427],[147.3468,-41.512,322.6662],[147.3678,-41.5363,479.1232],[147.388,-41.5561,621.3035],[147.4008,-41.5498,607.8994],[147.4064,-41.5562,638.5397],[147.432,-41.543,383.0598],[147.4281,-41.5387,435.0547],[147.4604,-41.5221,589.4965],[147.4616,-41.5233,569.5149],[147.4672,-41.5205,573.4489],[147.4686,-41.5219,585.5652],[147.4762,-41.5181,528.9236],[147.4864,-41.5286,592.7531],[147.4987,-41.522,489.0524],[147.5065,-41.5304,635.974],[147.5262,-41.5205,445.8741],[147.5274,-41.5163,439.0751],[147.5259,-41.5147,432.2264],[147.5399,-41.5075,498.1221],[147.5621,-41.5112,689.7476],[147.5719,-41.506,666.5549],[147.5789,-41.5136,754.244],[147.6481,-41.4784,593.1849],[147.6397,-41.4742,529.2939],[147.6459,-41.4707,636.738],[147.6414,-41.4655,610.7924],[147.6436,-41.4644,719.1371],[147.6376,-41.4574,640.5005],[147.634,-41.4592,571.3369],[147.6274,-41.4515,513.9573],[147.6287,-41.4282,947.2881],[147.6158,-41.4264,913.6523],[147.6192,-41.4092,1089.9446],[147.6064,-41.4074,879.1204],[147.6087,-41.3977,846.6963],[147.6018,-41.3931,575.2656],[147.5904,-41.3807,498.3667]]]]}}