{"type":"Feature","properties":{"GID_2":"AUS.6.1_1","GID_0":"AUS","country":"Australia","GID_1":"AUS.6_1","state":"NorthernTerritory","NL_NAME_1":"NA","county":"AliceSprings","VARNAME_2":"NA","NL_NAME_2":"NA","TYPE_2":"Town","ENGTYPE_2":"Town","CC_2":"70200","HASC_2":"AU.NT.AS","name":"AliceSprings.county"},
"geometry":{"type": "MultiPolygon","coordinates": [[[[133.8428,-23.6305,666.3525],[133.8108,-23.6305,711.1134],[133.8117,-23.7246,604.3821],[133.7819,-23.7246,622.1948],[133.726,-23.7476,586.6879],[133.726,-23.7761,596.8853],[133.7412,-23.7738,638.1177],[133.7414,-23.7871,579.9114],[133.7572,-23.7829,571.1506],[133.7563,-23.8134,560.6584],[133.8455,-23.8135,547.11],[133.8719,-23.792,548.3687],[133.8842,-23.8315,536.3066],[133.9404,-23.8315,528.8079],[133.9404,-23.781,540.6616],[133.9207,-23.781,545.2385],[133.9202,-23.7642,546.8431],[133.9216,-23.7618,546.1928],[133.9216,-23.7557,546.7216],[133.9404,-23.7557,550.3652],[133.9404,-23.6648,664.8884],[133.9195,-23.6648,635.8127],[133.9195,-23.6305,658.5895],[133.8428,-23.6305,666.3525]]]]}}