{"type": "Feature","bbox": [144.9833,-37.893,145.0921,-37.8296],"geometry": {"type": "MultiPolygon","coordinates": [[[[145.0244,-37.8344,7.7411],[145.021,-37.8321,6.1925],[145.0129,-37.8305,6.3628],[145.0097,-37.8335,8.9469],[145.0046,-37.8312,8.726],[145.0039,-37.8344,3.625],[144.9964,-37.8343,8.2251],[144.9911,-37.8331,17.8071],[144.9879,-37.8296,3.3609],[144.9833,-37.8557,12.0942],[145.0151,-37.8608,55.1807],[145.0325,-37.8683,47.8192],[145.0401,-37.8751,49.9514],[145.046,-37.8765,56.0919],[145.0518,-37.8828,47.2945],[145.0718,-37.8848,44.8886],[145.0803,-37.8879,56.148],[145.0841,-37.8918,58.2162],[145.0882,-37.893,59.2426],[145.0921,-37.8718,37.171],[145.0808,-37.873,31.3967],[145.075,-37.8759,34.9858],[145.0692,-37.8744,25.7197],[145.0656,-37.8678,23.7241],[145.0618,-37.8656,21.0791],[145.0628,-37.8599,20.1891],[145.06,-37.8582,18.7701],[145.0597,-37.8547,16.9746],[145.0423,-37.8473,9.6235],[145.0403,-37.8456,8.7462],[145.0388,-37.8388,8.9803],[145.0282,-37.8378,5.9965],[145.0244,-37.8344,7.7411]]]]}
,"properties": {"GID_2": "AUS.10.64_1","GID_0": "AUS","country": "Australia","GID_1": "AUS.10_1","state": "Victoria","NL_NAME_1": "NA","county": "Stonnington","VARNAME_2": "NA","NL_NAME_2": "NA","TYPE_2": "City","ENGTYPE_2": "City","CC_2": "26350","HASC_2": "AU.VI.SN","name": "Stonnington.county","area_km2": 25.31071,"hist_schema_id": "Elevation0-9000","hist_area_km2": {"0": 1.15536,"25": 10.99889,"50": 12.68771,"75": 0.46875}}}