{"type": "Feature","bbox": [148.9195,-29.1773,151.7074,-27.7465],"geometry": {"type": "MultiPolygon","coordinates": [[[[151.3658,-29.174,322.73],[151.3766,-29.1768,328.2736],[151.3953,-29.1772,330.4023],[151.4017,-29.171,327.7931],[151.4028,-29.1661,333.5001],[151.4106,-29.1526,336.8329],[151.4165,-29.1494,333.4243],[151.4283,-29.1475,335.9425],[151.4338,-29.1395,333.7838],[151.4518,-29.1269,334.8726],[151.4576,-29.1171,338.9131],[151.463,-29.0989,341.0073],[151.4759,-29.0918,342.9789],[151.4861,-29.0888,346.5574],[151.4914,-29.0776,347.3273],[151.4958,-29.0731,349.2047],[151.5013,-29.0719,350.392],[151.5031,-29.0688,352.8679],[151.5023,-29.0658,346.9737],[151.4971,-29.0629,347.4738],[151.4915,-29.0558,350.199],[151.4971,-29.0422,355.4219],[151.4953,-29.0349,351.5903],[151.4982,-29.0201,353.8558],[151.4997,-29.0174,355.1677],[151.5024,-29.0165,365.4819],[151.5058,-29.0099,356.0551],[151.4953,-29.0071,530.1979],[151.4931,-29.0037,533.2776],[151.4849,-29.0015,555.4203],[151.4754,-29.0054,620.7758],[151.4672,-28.9987,623.4521],[151.4583,-28.9992,634.0069],[151.4549,-29.0056,620.1854],[151.4555,-29.0106,573.666],[151.4467,-29.0177,572.2855],[151.4433,-29.0255,583.4534],[151.4436,-29.0323,620.7605],[151.4498,-29.0434,603.8255],[151.4476,-29.046,622.328],[151.4484,-29.0518,627.47],[151.4463,-29.0565,658.9915],[151.4468,-29.0601,662.7557],[151.4422,-29.0642,677.771],[151.4411,-29.0627,669.0247],[151.4386,-29.0633,659.1962],[151.4336,-29.0686,686.6556],[151.4321,-29.0637,678.249],[151.4287,-29.0649,664.045],[151.4257,-29.0616,666.7609],[151.4218,-29.0617,662.922],[151.419,-29.0641,674.0895],[151.4125,-29.0602,640.5128],[151.4059,-29.0596,614.8182],[151.4035,-29.0563,594.9255],[151.3987,-29.0539,589.2033],[151.3904,-29.055,581.6212],[151.3876,-29.0538,584.9381],[151.385,-29.0551,606.0002],[151.3857,-29.0599,603.9484],[151.3838,-29.0622,613.2217],[151.3798,-29.0588,588.1576],[151.3752,-29.059,615.0012],[151.3756,-29.0495,561.6936],[151.3677,-29.0453,561.7495],[151.3638,-29.0477,588.4661],[151.3605,-29.047,603.0458],[151.3566,-29.0386,606.252],[151.3517,-29.0329,597.2592],[151.3508,-29.0286,603.86],[151.3543,-29.0264,611.4454],[151.3556,-29.0226,568.3502],[151.3625,-29.0229,555.6488],[151.3658,-29.0204,547.6208],[151.3666,-29.0168,530.3264],[151.365,-29.0097,526.9043],[151.3625,-29.0065,534.7893],[151.3632,-29.0029,549.0863],[151.371,-29.0027,554.9171],[151.378,-28.9921,514.8497],[151.3792,-28.9798,522.8025],[151.3782,-28.9763,525.4017],[151.3822,-28.9691,585.4924],[151.3793,-28.9623,598.078],[151.3799,-28.9452,589.1946],[151.3783,-28.9283,629.117],[151.3808,-28.926,609.1271],[151.3797,-28.9228,602.7021],[151.3833,-28.9175,587.5451],[151.3876,-28.9013,584.0631],[151.3853,-28.901,592.6607],[151.384,-28.8933,609.9897],[151.3815,-28.8914,628.1388],[151.3844,-28.8873,637.4407],[151.3826,-28.8745,572.4964],[151.3851,-28.8716,581.7531],[151.3862,-28.866,562.9053],[151.3853,-28.8596,571.8637],[151.3868,-28.8562,584.3477],[151.3915,-28.8542,574.9134],[151.3927,-28.851,578.8276],[151.3902,-28.8405,585.279],[151.393,-28.8344,575.422],[151.4051,-28.8294,595.6237],[151.4182,-28.8161,577.8942],[151.4187,-28.8122,597.3096],[151.4222,-28.8077,623.4117],[151.4186,-28.7993,687.4129],[151.4192,-28.7941,679.9855],[151.427,-28.7859,672.7901],[151.4297,-28.785,678.0051],[151.4353,-28.7872,665.0945],[151.4402,-28.7799,639.9945],[151.4505,-28.7718,621.0846],[151.4536,-28.7593,633.7072],[151.4577,-28.7561,640.6649],[151.4679,-28.7532,630.3921],[151.4787,-28.7448,633.4833],[151.479,-28.7415,625.5037],[151.474,-28.7316,623.2335],[151.4878,-28.723,676.1825],[151.4915,-28.7197,677.8859],[151.4939,-28.7146,708.0629],[151.4967,-28.7148,703.5364],[151.5008,-28.7054,658.1285],[151.5173,-28.6909,683.9246],[151.5254,-28.6791,682.6997],[151.5317,-28.6484,675.8234],[151.536,-28.6488,684.8329],[151.5458,-28.6374,669.6201],[151.5453,-28.6244,682.1569],[151.5506,-28.6227,698.2383],[151.5578,-28.623,693.2117],[151.5615,-28.6206,667.4572],[151.5647,-28.6147,656.204],[151.5709,-28.6086,660.0795],[151.5696,-28.6021,652.4107],[151.5713,-28.5994,658.1772],[151.576,-28.5971,660.4072],[151.5752,-28.592,677.2815],[151.5813,-28.5861,669.831],[151.5906,-28.5825,654.8759],[151.5973,-28.5857,663.9169],[151.5992,-28.5851,671.95],[151.6048,-28.5751,677.268],[151.6008,-28.5667,671.8087],[151.6013,-28.5581,664.7508],[151.5964,-28.5558,676.4299],[151.5948,-28.5515,673.4653],[151.6156,-28.5455,661.235],[151.6395,-28.5245,664.8555],[151.6396,-28.5162,650.5342],[151.643,-28.5083,673.6703],[151.646,-28.4941,691.7675],[151.6391,-28.4761,724.5829],[151.6413,-28.4613,735.0647],[151.639,-28.4528,729.9611],[151.6489,-28.4462,733.5964],[151.6499,-28.4422,745.1891],[151.6617,-28.4437,772.2567],[151.6718,-28.4306,726.7321],[151.6783,-28.4285,725.272],[151.6808,-28.412,789.5012],[151.6877,-28.4087,781.2457],[151.6949,-28.4024,780.375],[151.6993,-28.396,775.0232],[151.7024,-28.3874,786.1281],[151.6994,-28.3825,787.2291],[151.6994,-28.378,778.7292],[151.6961,-28.3731,774.3279],[151.6948,-28.3661,773.0766],[151.6957,-28.3559,758.3354],[151.6932,-28.3517,754.3126],[151.6967,-28.3503,754.5713],[151.6961,-28.3472,748.0078],[151.7035,-28.3434,744.6551],[151.7074,-28.3388,756.3953],[151.7069,-28.3362,757.8013],[151.7022,-28.331,750.8403],[151.7045,-28.3265,749.3599],[151.7032,-28.3222,738.184],[151.6907,-28.3104,729.4829],[151.6869,-28.3116,713.1904],[151.6832,-28.3097,693.153],[151.6823,-28.3061,697.303],[151.6781,-28.3009,694.8812],[151.675,-28.3033,682.2891],[151.6689,-28.3007,681.0577],[151.665,-28.303,676.2855],[151.6608,-28.3014,671.174],[151.6521,-28.3018,669.3075],[151.6486,-28.2984,659.0275],[151.6478,-28.2932,653.3591],[151.6406,-28.2862,655.9673],[151.6401,-28.2805,656.7969],[151.6298,-28.2739,650.9977],[151.6206,-28.2762,663.0815],[151.6203,-28.2774,665.8303],[151.6149,-28.2774,659.6044],[151.6129,-28.2751,657.5685],[151.6053,-28.2774,644.6089],[151.5943,-28.2739,638.8751],[151.5891,-28.2741,628.4989],[151.5831,-28.2801,605.1595],[151.5697,-28.2797,593.7913],[151.5589,-28.2863,603.0494],[151.5518,-28.2857,603.191],[151.5465,-28.2894,601.679],[151.5439,-28.2892,597.9965],[151.5404,-28.2798,603.9716],[151.5361,-28.2763,598.5653],[151.5321,-28.278199999999998,597.8074],[151.5251,-28.2729,588.8599],[151.5241,-28.2686,567.8779],[151.5251,-28.2672,566.2164],[151.5173,-28.2658,581.9285],[151.5149,-28.2624,576.4356],[151.5087,-28.26,578.7542],[151.5046,-28.2407,626.8624],[151.506,-28.2376,602.683],[151.5043,-28.2343,610.0815],[151.4957,-28.2287,613.8893],[151.4895,-28.2279,653.9351],[151.483,-28.2221,635.5778],[151.4838,-28.2206,624.4822],[151.478,-28.2079,571.2601],[151.4823,-28.2031,567.8094],[151.4837,-28.195,561.4232],[151.4814,-28.19,564.3978],[151.4778,-28.1863,557.186],[151.4648,-28.1802,555.3632],[151.4418,-28.1523,525.7271],[151.4355,-28.1547,523.1206],[151.4234,-28.1559,497.3527],[151.4146,-28.1591,489.3375],[151.4099,-28.1631,488.5741],[151.402,-28.1629,487.4439],[151.3969,-28.1674,474.4952],[151.3918,-28.1602,481.3908],[151.3812,-28.1575,463.2299],[151.3764,-28.1541,467.6891],[151.3668,-28.1562,458.8606],[151.361,-28.1653,457.4736],[151.347,-28.17,445.953],[151.3401,-28.1782,439.4285],[151.3281,-28.1795,440.4174],[151.3211,-28.1778,451.3802],[151.3213,-28.1738,432.7599],[151.3199,-28.1726,433.2301],[151.3093,-28.1723,426.6266],[151.3024,-28.1801,412.4927],[151.2976,-28.1829,424.0289],[151.288,-28.1811,420.4797],[151.2806,-28.1844,428.6033],[151.2733,-28.1923,409.1135],[151.2059,-28.1835,324.2665],[151.207,-28.1774,328.0998],[151.1973,-28.1785,326.9452],[151.1967,-28.176,325.6581],[151.1946,-28.1755,325.0564],[151.1907,-28.1801,325.1875],[151.1849,-28.1818,325.1953],[151.185,-28.1837,326.8513],[151.1706,-28.1819,333.7681],[151.1732,-28.167,336.723],[151.1435,-28.1693,356.7761],[151.1403,-28.1727,347.5506],[151.1338,-28.1719,352.3781],[151.1255,-28.1764,365.9919],[151.0907,-28.1743,391.7859],[151.0919,-28.1675,402.8386],[151.0621,-28.1633,416.1433],[151.0598,-28.1618,445.2109],[151.0544,-28.1623,433.0863],[151.0467,-28.1671,409.6072],[151.0412,-28.1613,417.1178],[151.0427,-28.1585,418.6566],[151.0376,-28.1412,422.884],[151.0399,-28.1347,425.3207],[151.0446,-28.1313,428.5749],[151.0492,-28.124,440.1783],[151.05,-28.1166,442.1669],[151.0525,-28.1155,444.7562],[151.0553,-28.1082,455.3571],[151.0571,-28.1005,455.7206],[151.0557,-28.094,459.2979],[150.8562,-28.0696,372.9172],[150.8519,-28.0598,370.3229],[150.8364,-28.0651,372.2495],[150.8256,-28.0542,379.4254],[150.8267,-28.0391,372.5345],[150.8321,-28.0305,356.4639],[150.8052,-28.0148,367.1166],[150.7965,-28.0042,360.4293],[150.7951,-27.9925,358.7447],[150.7606,-27.9832,370.6675],[150.7592,-27.9768,368.831],[150.7509,-27.9698,369.8416],[150.742,-27.9756,363.8889],[150.7356,-27.971,366.5785],[150.735,-27.9485,354.6712],[150.7237,-27.9404,333.9789],[150.709,-27.9384,331.2457],[150.7085,-27.934,335.5369],[150.694,-27.9331,344.6612],[150.6775,-27.9188,349.186],[150.6742,-27.9037,342.3342],[150.6464,-27.8951,338.8887],[150.6448,-27.8507,341.6109],[150.6335,-27.8255,335.4309],[150.6212,-27.811,318.9963],[150.6036,-27.8062,318.672],[150.5925,-27.7903,311.4836],[150.575,-27.7793,299.1966],[150.5208,-27.7724,290.0737],[150.5137,-27.766,286.9805],[150.489,-27.7879,284.1355],[150.4582,-27.7603,279.3595],[150.4547,-27.7614,276.2297],[150.4548,-27.7648,272.129],[150.4507,-27.767,270.3494],[150.446,-27.7611,272.6085],[150.4412,-27.761,271.8129],[150.4394,-27.7625,275.3878],[150.4392,-27.7683,271.7568],[150.41,-27.7465,286.3884],[150.3831,-27.7643,276.9637],[150.3933,-27.7763,267.4353],[150.3929,-27.778199999999998,264.6601],[150.3869,-27.7833,273.115],[150.3788,-27.7826,281.9553],[150.3611,-27.7649,277.0878],[150.3351,-27.7614,273.8102],[150.3264,-27.8087,269.4105],[150.2742,-27.8028,268.4571],[150.2767,-27.8516,264.3688],[150.2461,-27.8518,262.3826],[150.2483,-27.9077,258.3374],[150.2321,-27.9058,259.1163],[150.2233,-27.8943,259.094],[150.1567,-27.9226,254.4297],[150.1363,-27.9105,253.0771],[150.1239,-27.9443,249.8832],[150.1171,-27.9439,249.1468],[150.1173,-27.9485,249.0103],[150.1216,-27.9505,249.4515],[150.1169,-27.9633,249.0468],[150.0695,-27.9582,251.1689],[150.0659,-27.9855,263.0614],[149.9318,-27.9672,255.8049],[149.7865,-28.0063,233.4415],[149.632,-27.9871,251.2616],[149.6274,-28.0145,260.821],[149.4574,-27.9929,241.6332],[149.4445,-28.0712,246.4491],[149.4303,-28.0698,255.6015],[149.4049,-28.2283,244.6424],[149.1888,-28.2,206.0284],[149.1884,-28.2038,205.8087],[149.1454,-28.1993,211.1665],[149.1432,-28.2003,212.7022],[149.0751,-28.193,196.7992],[149.0757,-28.1893,199.6779],[149.0401,-28.1858,196.651],[148.9594,-28.2885,202.7467],[148.9332,-28.4842,178.7909],[148.936,-28.4845,178.061],[148.924,-28.5591,177.5288],[148.936,-28.5604,176.4306],[148.9276,-28.6193,174.7093],[148.9238,-28.6204,175.0814],[148.9195,-28.6576,173.3272],[148.9869,-28.6642,175.6065],[148.9748,-28.7591,180.2518],[148.9907,-28.7606,179.1315],[148.9813,-28.8206,178.1425],[149.007,-28.8516,179.1504],[149.0429,-28.8913,163.6057],[149.0473,-28.8859,164.1582],[149.0482,-28.8865,163.8524],[149.0541,-28.8933,163.386],[149.0562,-28.9003,164.4024],[149.0603,-28.8948,164.1432],[149.0581,-28.8936,163.3743],[149.059,-28.8919,163.3636],[149.064,-28.8888,164.0819],[149.0595,-28.8862,164.2607],[149.0552,-28.8869,163.911],[149.0554,-28.8839,164.402],[149.0592,-28.8796,164.0271],[149.0634,-28.8783,163.3504],[149.0664,-28.8734,163.8837],[149.0701,-28.8719,164.4233],[149.0725,-28.864,164.1778],[149.0757,-28.8594,164.4113],[149.0801,-28.8584,165.4425],[149.0807,-28.8419,165.8948],[149.0863,-28.8425,165.5098],[149.0872,-28.8381,165.5162],[149.0905,-28.8373,165.9905],[149.0932,-28.8338,166.4906],[149.0964,-28.8343,166.062],[149.0971,-28.8317,168.1506],[149.0991,-28.8342,166.7091],[149.1028,-28.8334,167.92],[149.1032,-28.8381,166.5607],[149.1089,-28.8334,165.849],[149.1122,-28.8341,167.0355],[149.1133,-28.8317,167.2898],[149.111,-28.8308,166.3445],[149.1124,-28.8296,169.638],[149.1155,-28.8309,167.3599],[149.1193,-28.8294,166.9405],[149.1182,-28.833,167.6117],[149.1221,-28.8318,168.2231],[149.1224,-28.8346,166.8365],[149.1247,-28.8333,167.9633],[149.1282,-28.8353,167.8627],[149.128,-28.8316,169.0548],[149.1315,-28.8321,168.3784],[149.1311,-28.8296,168.2267],[149.1388,-28.8279,168.5077],[149.139,-28.8255,168.2915],[149.1434,-28.8222,167.6445],[149.1405,-28.822,168.5066],[149.1446,-28.8191,168.4639],[149.1424,-28.8189,169.3121],[149.1425,-28.8155,168.1438],[149.1398,-28.8159,168.1393],[149.1405,-28.8137,169.0572],[149.1366,-28.8125,167.7514],[149.1399,-28.8119,169.0266],[149.1398,-28.8072,168.616],[149.1439,-28.8061,168.0895],[149.1445,-28.8071,170.9686],[149.1429,-28.8079,172.0121],[149.1458,-28.8095,170.7921],[149.1479,-28.806,168.3623],[149.1487,-28.8086,170.3962],[149.1512,-28.8078,168.9026],[149.1604,-28.8107,170.071],[149.1608,-28.8071,171.7723],[149.1625,-28.8059,169.2983],[149.1667,-28.8087,172.5597],[149.1759,-28.8027,169.868],[149.1792,-28.803,168.5615],[149.1799,-28.7987,172.6418],[149.1837,-28.7969,171.6862],[149.1835,-28.7946,171.9834],[149.187,-28.794,171.2846],[149.1841,-28.7901,171.1444],[149.1867,-28.7867,170.5523],[149.1865,-28.782,170.4665],[149.1924,-28.7805,170.8549],[149.1887,-28.7752,170.2062],[149.1938,-28.7739,168.6174],[149.1949,-28.771,170.0675],[149.2074,-28.7695,172.582],[149.2073,-28.7659,170.7409],[149.2104,-28.7682,171.933],[149.2121,-28.7652,170.4543],[149.2139,-28.7656,173.7034],[149.214,-28.7637,172.9583],[149.2193,-28.7631,172.8681],[149.2212,-28.766,173.0565],[149.2227,-28.7642,173.9458],[149.225,-28.7645,173.004],[149.2242,-28.7626,172.7354],[149.2258,-28.7629,174.4769],[149.2263,-28.7611,172.2437],[149.2285,-28.7619,173.7275],[149.228,-28.7593,172.5153],[149.2302,-28.7584,172.9347],[149.2287,-28.7552,176.1268],[149.2319,-28.7559,173.2047],[149.2305,-28.7512,172.5151],[149.2324,-28.7516,173.9491],[149.2332,-28.7493,174.4577],[149.2368,-28.7506,174.0781],[149.237,-28.7489,175.6739],[149.2402,-28.7467,176.4894],[149.243,-28.7471,172.4572],[149.2412,-28.7455,175.7268],[149.247,-28.7389,174.2785],[149.2492,-28.7416,174.0378],[149.2517,-28.74,175.2202],[149.2538,-28.7422,174.0966],[149.2545,-28.7389,174.1734],[149.257,-28.7395,176.563],[149.2575,-28.7371,174.1087],[149.2623,-28.7343,174.2673],[149.2654,-28.7357,175.6222],[149.2636,-28.7397,175.9583],[149.2664,-28.7428,174.6449],[149.2692,-28.7435,174.522],[149.2738,-28.7371,175.8875],[149.2715,-28.7367,173.5778],[149.2713,-28.7339,173.7035],[149.2772,-28.732,175.6516],[149.2791,-28.7335,175.2276],[149.2804,-28.731,175.5168],[149.2831,-28.7331,174.5796],[149.2853,-28.7319,174.5943],[149.2828,-28.728,174.2888],[149.2849,-28.7259,176.0211],[149.2874,-28.7263,174.5092],[149.2871,-28.7214,175.7281],[149.2908,-28.7188,173.9781],[149.2935,-28.712,176.1619],[149.2971,-28.7099,175.1578],[149.3025,-28.7091,175.9489],[149.3102,-28.7121,177.2454],[149.3112,-28.7111,175.9329],[149.3143,-28.712,177.0331],[149.3159,-28.7103,177.1096],[149.318,-28.7141,176.8252],[149.3189,-28.7116,178.2744],[149.3226,-28.7096,176.1288],[149.3197,-28.7087,178.4267],[149.3201,-28.7062,177.5013],[149.323,-28.7078,177.9852],[149.328,-28.7075,178.2597],[149.3286,-28.7045,176.677],[149.3318,-28.7029,177.3111],[149.3292,-28.6994,176.0133],[149.3299,-28.6982,177.9196],[149.3361,-28.6983,176.3595],[149.3401,-28.6954,178.2028],[149.3467,-28.6967,176.5489],[149.3459,-28.6944,178.4138],[149.3477,-28.6912,175.9633],[149.3514,-28.6927,179.9562],[149.3525,-28.6886,179.2304],[149.359,-28.6843,177.7195],[149.362,-28.6851,177.9572],[149.3635,-28.6899,178.4652],[149.3669,-28.6923,181.7196],[149.3687,-28.6919,180.3948],[149.3679,-28.6889,179.1237],[149.3691,-28.6879,178.2463],[149.3759,-28.6926,180.4167],[149.3779,-28.6917,180.4356],[149.3786,-28.6891,178.8616],[149.3793,-28.6906,180.0354],[149.385,-28.6915,179.8524],[149.3855,-28.6948,180.7139],[149.3874,-28.6958,179.1354],[149.3913,-28.6919,178.3151],[149.3942,-28.6857,178.1436],[149.3939,-28.6773,179.061],[149.3967,-28.6774,177.6048],[149.3992,-28.6749,178.3413],[149.402,-28.6761,179.6077],[149.4054,-28.6753,180.6827],[149.4047,-28.6733,179.4493],[149.4143,-28.6668,180.1011],[149.4137,-28.6653,182.0644],[149.4107,-28.6674,182.9359],[149.4106,-28.6637,181.7032],[149.4157,-28.6628,182.2133],[149.4171,-28.661,185.5388],[149.417,-28.6551,182.6322],[149.423,-28.6553,182.7952],[149.423,-28.6538,181.6351],[149.4191,-28.6541,182.8318],[149.417,-28.6514,182.791],[149.4261,-28.6501,185.9646],[149.4259,-28.6471,179.7252],[149.428,-28.647,185.0195],[149.4281,-28.6443,182.4747],[149.4306,-28.6429,182.5545],[149.4292,-28.6405,180.9782],[149.4306,-28.64,182.9368],[149.43,-28.6377,177.6672],[149.4322,-28.6381,184.847],[149.4312,-28.6364,185.8159],[149.4329,-28.635,184.7558],[149.429,-28.6322,181.7959],[149.4283,-28.6292,183.7887],[149.4302,-28.6263,182.5539],[149.4325,-28.628,181.6483],[149.443,-28.6203,181.4958],[149.4403,-28.6189,178.464],[149.4414,-28.6165,185.6329],[149.4391,-28.6159,182.5765],[149.4395,-28.6121,182.1397],[149.4443,-28.609,184.2009],[149.4442,-28.6065,184.1039],[149.4517,-28.6043,182.1487],[149.4537,-28.5992,182.3673],[149.4525,-28.5949,184.9096],[149.4557,-28.596,184.8252],[149.4557,-28.593,185.9764],[149.4588,-28.5941,184.0],[149.4616,-28.5916,185.5325],[149.4672,-28.5964,181.8636],[149.4684,-28.592,184.8857],[149.4698,-28.5943,187.1418],[149.4716,-28.5927,186.7129],[149.4749,-28.5939,185.2233],[149.4773,-28.5879,183.0639],[149.4794,-28.5912,185.1535],[149.4808,-28.5898,184.9061],[149.4825,-28.5862,183.5229],[149.4814,-28.5829,182.6683],[149.4855,-28.5825,182.834],[149.4902,-28.5845,185.5897],[149.4924,-28.5809,183.9441],[149.4963,-28.5785,188.3011],[149.4971,-28.5807,184.6035],[149.499,-28.578,184.4907],[149.5027,-28.5804,182.3984],[149.5031,-28.5743,181.8235],[149.5098,-28.5771,184.8884],[149.5122,-28.5761,180.6603],[149.5139,-28.5817,185.0952],[149.5154,-28.5793,182.4327],[149.5182,-28.579,183.503],[149.5194,-28.5811,183.3037],[149.5217,-28.5791,182.3739],[149.5248,-28.5794,182.5602],[149.527,-28.5774,187.1198],[149.5264,-28.5751,180.9094],[149.5289,-28.5742,181.9691],[149.532,-28.5768,184.6297],[149.5358,-28.5744,182.529],[149.5368,-28.5764,184.3317],[149.5385,-28.5748,186.8017],[149.5422,-28.575,186.9131],[149.5435,-28.5767,185.5743],[149.5445,-28.5754,183.2285],[149.5506,-28.5768,185.4771],[149.5526,-28.5801,186.844],[149.5536,-28.5774,183.7542],[149.5578,-28.5797,184.3743],[149.5573,-28.5767,186.2826],[149.5618,-28.5739,182.6111],[149.5639,-28.575,185.973],[149.5651,-28.5725,183.7931],[149.5671,-28.5736,186.8914],[149.5686,-28.5711,184.9845],[149.5725,-28.5717,183.3624],[149.5743,-28.574,186.6922],[149.5767,-28.5721,184.562],[149.5775,-28.5734,186.1495],[149.5805,-28.5725,182.9685],[149.5842,-28.5744,185.9838],[149.5882,-28.5729,182.7352],[149.5901,-28.5757,186.1884],[149.5983,-28.5793,184.8609],[149.5996,-28.5817,187.6303],[149.5993,-28.5836,185.7043],[149.597,-28.5846,189.5953],[149.5977,-28.5888,189.5847],[149.6021,-28.5875,188.2253],[149.6031,-28.5854,185.4573],[149.6061,-28.5878,184.9882],[149.6035,-28.5889,189.6571],[149.6067,-28.594,186.0216],[149.6051,-28.5979,186.1658],[149.6105,-28.5974,187.997],[149.6107,-28.6009,187.6952],[149.6184,-28.5986,188.0025],[149.6194,-28.5961,185.0154],[149.6239,-28.5953,190.9625],[149.6255,-28.5933,187.6182],[149.6274,-28.596,188.8021],[149.631,-28.5952,188.5968],[149.6313,-28.5979,189.7368],[149.6346,-28.5954,187.1517],[149.6364,-28.5996,187.1388],[149.639,-28.598,189.2316],[149.6423,-28.5992,185.1173],[149.6456,-28.6038,187.5187],[149.6463,-28.6062,186.3506],[149.645,-28.6073,188.8574],[149.6462,-28.61,186.4497],[149.6483,-28.6106,188.9226],[149.6479,-28.6121,186.9856],[149.6536,-28.6131,189.0917],[149.656,-28.6155,188.7278],[149.6583,-28.6132,190.0117],[149.6573,-28.6114,187.9943],[149.6607,-28.6093,186.4306],[149.6643,-28.6124,188.6484],[149.6645,-28.6184,188.0153],[149.6685,-28.6194,189.8704],[149.6712,-28.6211,187.014],[149.6697,-28.6223,190.7212],[149.6706,-28.6235,190.351],[149.674,-28.6242,188.0253],[149.6718,-28.6292,189.1573],[149.6667,-28.6319,187.1181],[149.6703,-28.6325,189.6813],[149.6724,-28.6303,189.6224],[149.6724,-28.6334,188.0586],[149.6764,-28.6312,189.3339],[149.6781,-28.6345,191.3319],[149.6786,-28.6327,189.1061],[149.6809,-28.6339,191.3982],[149.6823,-28.6314,189.2297],[149.688,-28.6323,188.4765],[149.6878,-28.6292,190.627],[149.6898,-28.6282,189.6618],[149.6913,-28.6336,188.4186],[149.6931,-28.6318,190.0278],[149.6944,-28.633,188.4557],[149.6963,-28.6308,188.4256],[149.6982,-28.6327,189.8816],[149.7002,-28.63,190.9126],[149.7014,-28.631,190.9126],[149.7005,-28.6327,191.4496],[149.7031,-28.6337,190.4494],[149.7065,-28.6303,190.1139],[149.7049,-28.6295,192.5724],[149.7066,-28.6272,192.9785],[149.7046,-28.6279,193.1246],[149.7035,-28.6254,190.5848],[149.7061,-28.6256,189.3818],[149.7054,-28.6228,191.4963],[149.7099,-28.6203,192.8579],[149.7056,-28.622,191.4963],[149.7031,-28.6193,188.1694],[149.7039,-28.6165,188.4139],[149.7059,-28.6178,190.9537],[149.7089,-28.6131,190.1316],[149.7109,-28.6142,192.6585],[149.7132,-28.6119,190.7101],[149.7145,-28.6126,189.274],[149.7129,-28.6148,190.8896],[149.7138,-28.6163,190.1599],[149.7188,-28.6114,193.6976],[149.7233,-28.6128,193.1002],[149.7202,-28.6109,190.9615],[149.7212,-28.6092,190.0114],[149.7296,-28.6109,190.7375],[149.7272,-28.6119,196.8204],[149.7282,-28.6131,195.1877],[149.7263,-28.6137,192.1079],[149.7263,-28.6155,191.8098],[149.7298,-28.6152,191.9816],[149.731,-28.6167,191.8111],[149.733,-28.6143,189.6574],[149.7353,-28.6174,192.3872],[149.7369,-28.6158,192.4183],[149.739,-28.6172,191.316],[149.7388,-28.6146,192.4183],[149.7416,-28.6131,192.5287],[149.7419,-28.6154,192.4416],[149.745,-28.6184,190.152],[149.7457,-28.6164,191.2244],[149.7437,-28.6154,192.6],[149.7461,-28.612,192.6115],[149.7503,-28.6121,196.5911],[149.7511,-28.6108,190.1715],[149.7538,-28.6128,196.6503],[149.7533,-28.6107,193.0573],[149.7549,-28.6094,190.5625],[149.76,-28.615,194.8924],[149.7649,-28.6127,191.5945],[149.7678,-28.6141,193.074],[149.7675,-28.611,192.0852],[149.7724,-28.6142,195.0221],[149.7733,-28.6117,196.3362],[149.7711,-28.6104,191.4079],[149.7725,-28.6089,191.7678],[149.7754,-28.6101,193.6527],[149.7759,-28.6131,192.9455],[149.7797,-28.6098,192.9405],[149.7813,-28.6123,194.0863],[149.7838,-28.6121,195.9692],[149.784,-28.6141,192.821],[149.7861,-28.6136,195.6267],[149.7867,-28.6112,194.2107],[149.7977,-28.6102,193.5181],[149.8006,-28.6079,194.2495],[149.8017,-28.6095,195.0899],[149.8036,-28.6073,195.0375],[149.8098,-28.6074,197.6014],[149.8114,-28.6058,196.6032],[149.8131,-28.6083,199.2406],[149.8149,-28.6083,199.2406],[149.8193,-28.6158,195.0157],[149.8219,-28.609,196.0317],[149.8265,-28.6088,196.8759],[149.8266,-28.6069,196.8345],[149.8294,-28.6062,196.4441],[149.8304,-28.6037,194.6767],[149.8396,-28.6037,195.1773],[149.8448,-28.6105,194.6284],[149.8495,-28.6088,197.3835],[149.8508,-28.6056,195.727],[149.8537,-28.606,198.4497],[149.8546,-28.6043,197.7882],[149.8603,-28.6069,196.6727],[149.8604,-28.6045,199.993],[149.8627,-28.6049,196.9598],[149.8613,-28.6028,198.5858],[149.8625,-28.6022,199.3417],[149.8671,-28.6041,198.6489],[149.8683,-28.6073,200.4739],[149.8709,-28.6052,201.2133],[149.872,-28.607,197.5184],[149.8722,-28.6043,197.6372],[149.8743,-28.6034,202.9166],[149.8759,-28.6078,197.8074],[149.8782,-28.6094,199.8498],[149.8775,-28.6116,196.6083],[149.8829,-28.6094,196.2295],[149.8824,-28.6133,197.3321],[149.8844,-28.6122,199.7246],[149.8864,-28.6142,199.7596],[149.8864,-28.6123,199.037],[149.8909,-28.6127,198.2647],[149.8913,-28.6147,199.4484],[149.8871,-28.6156,199.0541],[149.8898,-28.6188,199.7013],[149.894,-28.6159,199.9039],[149.8991,-28.6219,199.5972],[149.8991,-28.6197,200.6423],[149.9052,-28.6188,200.4221],[149.903,-28.6155,198.1999],[149.9055,-28.6133,198.6025],[149.9075,-28.6147,197.5435],[149.9091,-28.6124,199.9944],[149.9084,-28.6103,201.4733],[149.9174,-28.6081,200.9189],[149.921,-28.6103,200.4324],[149.9253,-28.6089,201.1464],[149.9255,-28.611,201.2897],[149.9274,-28.6105,201.5009],[149.9297,-28.6131,198.8029],[149.9301,-28.6119,199.5895],[149.9332,-28.6126,200.8958],[149.9342,-28.6104,199.3867],[149.9363,-28.6101,199.6359],[149.9372,-28.6146,201.0795],[149.9419,-28.6179,203.7807],[149.9428,-28.6139,198.802],[149.9491,-28.6127,203.4771],[149.948,-28.6109,202.1233],[149.9506,-28.608,200.809],[149.953,-28.6095,201.2631],[149.9577,-28.6076,201.9991],[149.9575,-28.6101,202.0921],[149.9622,-28.6121,201.2309],[149.9616,-28.6085,204.3757],[149.9644,-28.6107,202.6323],[149.9644,-28.6081,205.4715],[149.9701,-28.6098,199.5927],[149.9716,-28.6077,199.6381],[149.977,-28.6135,200.6044],[149.977,-28.6108,203.4742],[149.9821,-28.6052,201.8283],[149.987,-28.6046,200.8393],[149.985,-28.6025,201.6346],[149.993,-28.6003,202.8216],[149.9945,-28.5939,203.747],[149.9986,-28.5949,202.3634],[149.9989,-28.5912,204.2343],[150.0031,-28.5927,202.3054],[150.0014,-28.5906,203.3622],[150.0057,-28.587,200.095],[150.0073,-28.5905,200.9826],[150.0092,-28.5909,202.6032],[150.0116,-28.5855,201.7174],[150.015,-28.5855,203.5688],[150.0132,-28.5832,198.4326],[150.0173,-28.5834,202.1878],[150.0161,-28.5807,202.7015],[150.0228,-28.5829,206.7375],[150.0267,-28.5792,202.3051],[150.0313,-28.581,207.0468],[150.031,-28.5837,205.9106],[150.0344,-28.5835,202.3802],[150.0363,-28.5858,201.0315],[150.0401,-28.5831,203.474],[150.0405,-28.5861,202.5059],[150.0437,-28.582,204.6],[150.0458,-28.5824,204.6822],[150.0452,-28.5868,203.3766],[150.0487,-28.5892,202.9064],[150.0513,-28.5854,202.325],[150.0565,-28.5864,206.8922],[150.0556,-28.5846,201.8489],[150.0576,-28.5834,202.776],[150.0573,-28.58,208.1378],[150.0594,-28.5785,206.5025],[150.0679,-28.5778,205.4157],[150.0698,-28.581,210.5201],[150.0705,-28.5772,205.3802],[150.0733,-28.5766,204.8394],[150.0726,-28.5801,206.9359],[150.0751,-28.5802,206.7201],[150.0758,-28.5821,205.8748],[150.0799,-28.5844,205.7918],[150.0826,-28.5827,205.7523],[150.0798,-28.5816,208.3037],[150.0816,-28.5775,204.9574],[150.0845,-28.5804,206.997],[150.0874,-28.5807,206.031],[150.0881,-28.5776,208.6111],[150.0852,-28.5758,208.8552],[150.0904,-28.5755,205.6576],[150.0904,-28.5788,204.6268],[150.0929,-28.5786,206.585],[150.0936,-28.574,205.7234],[150.091,-28.5687,210.7445],[150.0919,-28.5642,208.2988],[150.0972,-28.5634,208.3107],[150.1016,-28.5659,211.2064],[150.1052,-28.5653,208.5176],[150.1057,-28.5677,207.5805],[150.1109,-28.5703,206.7139],[150.1118,-28.5681,206.3026],[150.1155,-28.5679,207.2097],[150.1129,-28.563,209.3074],[150.1168,-28.564,207.8123],[150.117,-28.5617,207.2929],[150.1209,-28.5624,212.5128],[150.1215,-28.5597,211.3482],[150.1244,-28.5612,207.8373],[150.1264,-28.5649,209.2465],[150.128,-28.5624,210.6437],[150.1307,-28.5627,211.1338],[150.1314,-28.5653,213.9572],[150.1339,-28.5644,215.6962],[150.1316,-28.5635,218.0903],[150.1331,-28.5617,219.3284],[150.1368,-28.5601,216.2468],[150.1369,-28.5642,215.0051],[150.1385,-28.5653,208.1379],[150.1387,-28.5605,213.0764],[150.1413,-28.5599,213.139],[150.1432,-28.5618,210.4661],[150.1437,-28.5575,210.3287],[150.1482,-28.5583,209.32],[150.1478,-28.5527,208.592],[150.1523,-28.5502,212.2919],[150.1541,-28.551,209.4145],[150.1547,-28.5534,210.4688],[150.1523,-28.5555,213.6381],[150.1541,-28.5572,211.5538],[150.1551,-28.5548,211.4078],[150.1634,-28.5557,216.1189],[150.1666,-28.5511,209.6772],[150.1692,-28.5506,210.0102],[150.1702,-28.5546,213.0394],[150.1678,-28.5555,212.1208],[150.1698,-28.5572,215.3408],[150.1716,-28.5639,210.8553],[150.1719,-28.56,213.3402],[150.1736,-28.5583,216.9277],[150.1769,-28.559,215.0944],[150.1827,-28.5563,219.2878],[150.1841,-28.5586,212.5311],[150.1779,-28.5635,214.6981],[150.1866,-28.5652,211.5617],[150.1875,-28.5691,209.3885],[150.182,-28.5694,212.5658],[150.1867,-28.5728,215.0432],[150.1898,-28.5702,213.0107],[150.1898,-28.5675,214.6577],[150.1925,-28.5667,215.0655],[150.2012,-28.5688,211.4398],[150.2042,-28.5734,211.3747],[150.2076,-28.5727,211.1146],[150.2123,-28.5742,211.3647],[150.2137,-28.5729,212.2392],[150.2123,-28.5694,214.0408],[150.2132,-28.5675,210.7729],[150.2185,-28.5683,213.2472],[150.22,-28.5667,212.2715],[150.2262,-28.5688,211.747],[150.2291,-28.5677,214.036],[150.2335,-28.5611,212.1549],[150.2289,-28.5586,212.2932],[150.2304,-28.5557,213.3468],[150.2388,-28.5597,212.3437],[150.2382,-28.5573,215.7903],[150.2352,-28.5562,213.2526],[150.2361,-28.5538,213.7899],[150.2432,-28.5524,216.7588],[150.2447,-28.5546,214.36],[150.249,-28.5522,210.8977],[150.2531,-28.547,212.444],[150.2622,-28.5449,215.3699],[150.2695,-28.5398,212.29],[150.2722,-28.5393,216.4241],[150.2817,-28.5429,213.0883],[150.2896,-28.5372,212.8218],[150.296,-28.5397,213.5907],[150.3005,-28.5485,214.1343],[150.3091,-28.5506,217.4758],[150.3131,-28.5554,216.3672],[150.3206,-28.5572,213.9179],[150.3227,-28.5656,215.3015],[150.3276,-28.571,218.6994],[150.3427,-28.5753,216.2285],[150.3513,-28.5753,214.1911],[150.3493,-28.5814,215.2279],[150.3525,-28.5878,220.227],[150.3564,-28.5898,218.2545],[150.3633,-28.5895,218.912],[150.3631,-28.5959,218.5771],[150.3697,-28.5985,214.47559999999999],[150.3638,-28.6076,214.2221],[150.3698,-28.6117,214.4269],[150.3688,-28.6141,215.785],[150.37,-28.6206,220.165],[150.3759,-28.6224,218.8398],[150.3801,-28.6271,217.6392],[150.3875,-28.6254,222.0212],[150.3877,-28.628,224.9654],[150.3854,-28.6315,216.2228],[150.3879,-28.6339,214.6223],[150.3909,-28.6341,216.0704],[150.3976,-28.6286,221.516],[150.4018,-28.6273,224.5922],[150.4088,-28.6339,217.2988],[150.414,-28.6339,223.2803],[150.4163,-28.6359,224.1931],[150.416,-28.6466,224.6019],[150.4141,-28.6492,225.2964],[150.4152,-28.6508,217.5502],[150.4293,-28.6511,226.9854],[150.4377,-28.6616,221.9928],[150.4456,-28.6651,218.1173],[150.4535,-28.6656,218.8519],[150.4566,-28.6637,220.921],[150.4601,-28.6689,223.8183],[150.4708,-28.6629,223.0961],[150.4728,-28.6601,223.7213],[150.4817,-28.6638,222.7637],[150.4871,-28.6574,225.5008],[150.4931,-28.6594,222.7444],[150.5148,-28.6618,225.0631],[150.5185,-28.6604,229.2656],[150.5209,-28.6555,224.4322],[150.525,-28.6543,227.6247],[150.5374,-28.6571,230.8437],[150.5392,-28.6605,224.6992],[150.5381,-28.6621,230.5998],[150.5323,-28.662,230.4715],[150.5257,-28.6655,228.2621],[150.527,-28.6689,230.8727],[150.5351,-28.672,228.6052],[150.5441,-28.6715,226.212],[150.5506,-28.6701,229.3552],[150.5523,-28.668,228.8508],[150.5528,-28.6634,230.4121],[150.5482,-28.6585,225.0358],[150.5515,-28.654,231.8524],[150.5541,-28.6531,228.8185],[150.5567,-28.6545,230.6021],[150.5614,-28.6618,227.1521],[150.5655,-28.6619,231.8709],[150.5694,-28.6591,227.8633],[150.5806,-28.6555,231.6924],[150.6002,-28.6651,230.1776],[150.6002,-28.6708,227.8846],[150.6062,-28.6706,232.8161],[150.6176,-28.6735,231.4182],[150.6205,-28.6686,232.1056],[150.6258,-28.669,236.2039],[150.627,-28.6725,226.8917],[150.6325,-28.6766,233.8045],[150.6412,-28.6651,231.3809],[150.6648,-28.6562,238.6794],[150.6734,-28.6502,235.6791],[150.6765,-28.6523,232.7273],[150.676,-28.6551,235.1066],[150.6791,-28.6603,235.6362],[150.6817,-28.6614,239.2173],[150.6924,-28.6534,235.4952],[150.701,-28.6548,236.0906],[150.7086,-28.652,235.8259],[150.7086,-28.6474,236.1542],[150.7105,-28.6446,234.5718],[150.7242,-28.6398,237.6306],[150.7256,-28.6361,240.505],[150.7283,-28.6345,241.582],[150.7444,-28.6337,240.5872],[150.7461,-28.6347,239.1867],[150.7523,-28.6335,242.1874],[150.7548,-28.6344,242.0751],[150.7574,-28.639,242.0903],[150.766,-28.6376,242.5262],[150.7736,-28.6441,241.9714],[150.7814,-28.6441,243.3614],[150.7958,-28.6552,243.7498],[150.8043,-28.6532,244.4457],[150.8188,-28.6573,246.7743],[150.819,-28.6598,245.2012],[150.8164,-28.6631,248.0922],[150.8193,-28.6666,248.8321],[150.8299,-28.667,244.3309],[150.8396,-28.6722,245.6497],[150.8484,-28.6731,245.2608],[150.8521,-28.6771,246.4711],[150.8528,-28.6803,247.2769],[150.8632,-28.6874,247.6441],[150.8685,-28.6854,251.4846],[150.8703,-28.6861,249.4393],[150.874,-28.6938,247.7591],[150.8765,-28.6934,248.342],[150.8806,-28.6886,248.5101],[150.8844,-28.6905,248.5179],[150.8852,-28.6954,247.79],[150.8889,-28.6952,248.8407],[150.8906,-28.6946,248.27],[150.8914,-28.6909,247.9641],[150.894,-28.6882,247.8154],[150.8996,-28.687,249.6966],[150.9064,-28.6877,251.8492],[150.9145,-28.6975,252.3038],[150.9197,-28.7002,250.0589],[150.9241,-28.6985,250.766],[150.9309,-28.7055,253.8155],[150.9321,-28.7221,250.5234],[150.9377,-28.7254,252.8407],[150.9382,-28.7309,253.0543],[150.9452,-28.7287,254.7039],[150.9484,-28.7344,254.4178],[150.9545,-28.7364,255.2315],[150.9608,-28.7351,255.3519],[150.963,-28.7372,249.951],[150.9704,-28.7316,255.2923],[150.9802,-28.7323,258.7747],[150.9835,-28.7356,256.0097],[151.0107,-28.7408,265.3748],[151.0132,-28.7452,261.062],[151.0253,-28.7536,259.4906],[151.0282,-28.7612,261.837],[151.029,-28.7705,260.8154],[151.0193,-28.772,263.6224],[151.0251,-28.7788,265.3737],[151.0264,-28.7864,263.1353],[151.0248,-28.7931,263.9616],[151.0337,-28.7939,264.7657],[151.0419,-28.7992,264.5344],[151.0421,-28.815,265.4005],[151.0376,-28.8191,266.5708],[151.0374,-28.8278,268.1886],[151.0414,-28.8305,268.0632],[151.0429,-28.8344,268.3525],[151.0392,-28.8386,268.451],[151.0443,-28.8405,269.8181],[151.0453,-28.8445,268.0748],[151.0521,-28.8439,270.836],[151.0533,-28.8455,269.7532],[151.0524,-28.8486,270.61],[151.0548,-28.8494,270.5443],[151.0599,-28.8459,269.9928],[151.0677,-28.8447,269.5858],[151.0832,-28.8344,272.042],[151.0883,-28.8344,273.1027],[151.0968,-28.8381,273.0806],[151.1028,-28.8364,272.8118],[151.1044,-28.8443,273.9559],[151.1086,-28.8428,276.9967],[151.1156,-28.8504,275.6269],[151.1247,-28.8513,276.1277],[151.133,-28.8602,277.3064],[151.1393,-28.8617,277.2588],[151.1447,-28.861,278.6014],[151.1515,-28.8651,279.4035],[151.1613,-28.8655,278.5451],[151.1644,-28.8708,277.583],[151.174,-28.88,280.3148],[151.1851,-28.8787,278.8314],[151.2002,-28.8843,286.5314],[151.2066,-28.8923,282.8571],[151.2088,-28.9015,287.9954],[151.228,-28.9085,291.4243],[151.2312,-28.9079,291.4659],[151.2347,-28.9047,291.3815],[151.2385,-28.9089,285.1009],[151.2408,-28.9199,288.9753],[151.2439,-28.9243,288.1896],[151.2587,-28.9321,288.0506],[151.2652,-28.9331,289.5145],[151.2678,-28.9364,293.7554],[151.2748,-28.9389,290.8338],[151.2816,-28.9489,293.7803],[151.2823,-28.9543,294.2971],[151.2804,-28.961,296.1104],[151.2721,-28.9732,298.5622],[151.2826,-28.9806,296.735],[151.2807,-28.9837,298.1602],[151.2768,-28.9847,296.3917],[151.2764,-28.987,296.4436],[151.2781,-28.9954,296.8382],[151.284,-29.0055,295.9899],[151.2819,-29.0191,301.8661],[151.2744,-29.0241,300.2839],[151.2711,-29.0303,304.6292],[151.2758,-29.0353,301.649],[151.2849,-29.0374,303.7694],[151.2889,-29.0503,307.1647],[151.2843,-29.0591,304.1596],[151.2843,-29.0655,303.8979],[151.2756,-29.0775,306.1541],[151.2795,-29.0895,306.3342],[151.2779,-29.0926,310.0883],[151.2784,-29.0977,306.9493],[151.2814,-29.1041,311.0289],[151.2894,-29.111,310.6016],[151.2978,-29.113,321.0725],[151.303,-29.116,313.5074],[151.3047,-29.1221,313.8084],[151.3155,-29.1345,316.2914],[151.3161,-29.1383,314.6639],[151.3099,-29.1442,317.925],[151.3088,-29.1475,319.9596],[151.312,-29.1614,318.7027],[151.3146,-29.1654,319.6187],[151.3204,-29.1666,320.4858],[151.3393,-29.1773,322.7622],[151.3474,-29.177,322.196],[151.3592,-29.1728,324.7472],[151.3658,-29.174,322.73]]]]}
,"properties": {"GID_2": "AUS.7.29_1","GID_0": "AUS","country": "Australia","GID_1": "AUS.7_1","state": "Queensland","NL_NAME_1": "NA","county": "Goondiwindi","VARNAME_2": "NA","NL_NAME_2": "NA","TYPE_2": "Region","ENGTYPE_2": "Region","CC_2": "33610","HASC_2": "AU.QL.GO","name": "Goondiwindi.county","area_km2": 19283.3,"hist_schema_id": "Elevation0-9000","hist_area_km2": {"150": 0.24,"175": 1602.28,"200": 3784.54,"225": 3223.54,"250": 2557.3,"275": 1851.11,"300": 1301.78,"325": 1133.98,"350": 869.61,"375": 589.42,"400": 448.95,"425": 360.89,"450": 315.75,"475": 267.18,"500": 212.18,"525": 154.09,"550": 123.88,"575": 106.19,"600": 95.31,"625": 78.11,"650": 70.95,"675": 55.77,"700": 37.56,"725": 20.39,"750": 13.78,"775": 7.67,"800": 0.86}}}