{"type": "Feature","bbox": [114.9417,-30.2086,116.3708,-29.7487],"geometry": {"type": "MultiPolygon","coordinates": [[[[114.9421,-30.1387,0.0],[114.943,-30.1385,0.0],[114.9432,-30.1373,0.0],[114.9417,-30.1375,0.0],[114.9421,-30.1387,0.0]]],
[[[114.944,-30.1307,0.1979],[114.9453,-30.1302,0.0],[114.9449,-30.1292,0.0],[114.9436,-30.1297,0.1979],[114.944,-30.1307,0.1979]]],
[[[114.9564,-30.0373,0.0],[114.9568,-30.0375,0.0],[114.9572,-30.0369,0.0],[114.9566,-30.0369,0.0],[114.9564,-30.0373,0.0]]],
[[[114.9606,-30.0244,0.0],[114.9612,-30.0243,0.0],[114.9602,-30.0237,0.0],[114.9602,-30.024,0.0],[114.9606,-30.0244,0.0]]],
[[[115.0119,-29.9352,1.987],[114.9791,-29.9353,0.0],[114.9778,-29.9451,4.1924],[114.9743,-29.9465,0.0],[114.9747,-29.9514,0.0],[114.9725,-29.9596,5.682],[114.9652,-29.9722,2.9676],[114.9628,-29.9739,0.0],[114.9649,-29.985,0.0],[114.9631,-29.9948,0.0],[114.9683,-30.0023,5.0234],[114.9695,-30.0076,3.0863],[114.9673,-30.0128,2.0993],[114.9631,-30.0159,2.3525],[114.9638,-30.0219,0.9268],[114.9601,-30.0303,2.9341],[114.9595,-30.0395,3.1736],[114.9585,-30.0413,2.0246],[114.9566,-30.0414,0.0],[114.957,-30.0453,3.6766],[114.9548,-30.0488,1.7578],[114.9553,-30.0509,0.0],[114.9558,-30.0488,1.7578],[114.9586,-30.049,2.1602],[114.9653,-30.0545,6.6795],[114.966,-30.0625,0.0],[114.9647,-30.0669,1.3839],[114.9619,-30.0687,0.0],[114.9643,-30.0693,3.1015],[114.9638,-30.071,2.3249],[114.9624,-30.0706,0.0],[114.963,-30.0722,0.0],[114.9651,-30.0721,6.6655],[114.9681,-30.0749,0.0],[114.9722,-30.0719,1.253],[114.9773,-30.073,0.0],[114.9843,-30.0795,6.8689],[114.9945,-30.1121,11.1796],[114.9946,-30.1178,8.4594],[115.0017,-30.1321,0.0],[115.0016,-30.1383,0.0],[115.0039,-30.1443,4.2333],[115.0438,-30.1448,2.2679],[115.0437,-30.112,0.0],[115.0377,-30.1119,0.0],[115.0376,-30.0744,12.8546],[115.0794,-30.0743,52.9512],[115.0792,-30.1059,22.9886],[115.2128,-30.1063,222.6176],[115.2126,-30.1126,235.3142],[115.217,-30.1126,232.6647],[115.217,-30.1444,253.0863],[115.2344,-30.1445,208.7597],[115.2345,-30.1727,272.6514],[115.481,-30.1729,216.7233],[115.481,-30.2046,250.0543],[115.4848,-30.2053,245.9083],[115.5304,-30.2086,279.3277],[115.5725,-30.1987,243.19],[115.5811,-30.1911,249.7268],[115.5895,-30.1945,264.0402],[115.6472,-30.1906,266.515],[115.6879,-30.1772,282.4649],[115.6944,-30.1731,282.5026],[115.7658,-30.1422,269.5556],[115.7871,-30.1358,272.0902],[115.7949,-30.1349,271.2144],[115.7951,-30.2053,260.4354],[115.8359,-30.1955,252.0562],[115.8762,-30.1957,239.9701],[115.8763,-30.176,232.7044],[115.979,-30.1758,249.1927],[115.979,-30.1842,239.7483],[115.9921,-30.1844,239.1782],[115.9981,-30.1844,242.066],[115.9981,-30.1801,250.7458],[116.0062,-30.18,249.9263],[116.0069,-30.1779,253.0821],[116.12,-30.1777,294.3221],[116.12,-30.1835,292.1091],[116.1522,-30.1836,313.0373],[116.1522,-30.2,295.1111],[116.1662,-30.2,299.5622],[116.1762,-30.2025,300.6495],[116.1761,-30.1995,299.3723],[116.1857,-30.1996,302.5474],[116.1857,-30.1912,295.6038],[116.2636,-30.1914,314.6927],[116.2636,-30.1631,300.2627],[116.2957,-30.1631,280.3597],[116.2957,-30.1862,304.0933],[116.3537,-30.1861,284.2036],[116.3537,-30.1797,284.0632],[116.3567,-30.1797,285.6391],[116.3568,-30.1749,284.5114],[116.3707,-30.1747,297.4783],[116.3708,-30.1384,313.6198],[116.3587,-30.135,323.2625],[116.3588,-30.1272,331.1429],[116.3533,-30.1272,327.4396],[116.3534,-30.0691,296.8398],[116.3559,-30.0691,295.2473],[116.3559,-30.0328,286.7816],[116.3559,-30.0303,286.8797],[116.3534,-30.0303,287.2853],[116.3534,-30.0251,291.9489],[116.3564,-30.0215,289.5363],[116.3564,-29.9622,309.67],[116.3225,-29.9623,302.3936],[116.3221,-29.911,296.5991],[116.3202,-29.911,297.6498],[116.3202,-29.9045,292.0731],[116.3169,-29.9044,295.7873],[116.3169,-29.8954,287.1776],[116.3075,-29.8951,288.6506],[116.3072,-29.8603,295.9072],[116.2952,-29.8603,288.2522],[116.2953,-29.8334,266.4106],[116.2908,-29.8337,266.5369],[116.2896,-29.8205,275.4765],[116.3052,-29.8204,279.6106],[116.3052,-29.8148,275.1891],[116.2969,-29.8148,269.1849],[116.2969,-29.8065,269.5901],[116.2946,-29.8038,268.5],[116.2967,-29.8003,269.9644],[116.2915,-29.8036,268.7928],[116.2827,-29.8005,267.9309],[116.2714,-29.8005,271.869],[116.2732,-29.7913,284.909],[116.2461,-29.7914,276.7576],[116.2459,-29.7635,292.4669],[116.217,-29.7636,285.2354],[116.217,-29.7732,283.7462],[116.188,-29.7732,310.0748],[116.1879,-29.7636,314.4407],[116.18,-29.7636,301.4302],[116.1797,-29.7487,300.5296],[116.1629,-29.7489,318.2049],[116.1629,-29.7519,315.5043],[116.1379,-29.7519,316.7868],[116.1379,-29.7711,312.2584],[116.1335,-29.7711,309.3787],[116.1336,-29.7814,304.7036],[116.1119,-29.7812,306.8669],[116.1119,-29.7934,305.7677],[116.0895,-29.7932,307.4031],[116.0895,-29.7877,300.1779],[116.0263,-29.7876,308.8152],[116.0281,-29.8036,312.4391],[116.0279,-29.8229,279.0555],[116.0141,-29.8228,281.5008],[116.0055,-29.8267,298.0662],[116.0015,-29.8212,284.1201],[115.987,-29.8093,267.7567],[115.9716,-29.8171,263.6179],[115.971,-29.8204,264.4216],[115.9636,-29.8313,251.4184],[115.9654,-29.8365,248.2758],[115.9309,-29.8366,239.5468],[115.9309,-29.8526,242.2678],[115.898,-29.8526,243.798],[115.8976,-29.9041,234.6081],[115.8401,-29.9041,240.1718],[115.8346,-29.8921,252.3214],[115.7277,-29.8921,257.4638],[115.2561,-29.9469,101.9855],[115.211,-29.9464,75.2528],[115.2111,-29.9421,66.3287],[115.1344,-29.9421,43.5829],[115.1344,-29.9321,42.4019],[115.1442,-29.9173,42.3309],[115.1221,-29.9173,41.9725],[115.1136,-29.9325,42.2175],[115.1055,-29.9351,40.9983],[115.0119,-29.9352,1.987]]],
[[[114.9741,-29.945,0.0],[114.9746,-29.9448,0.0],[114.9739,-29.9441,0.0],[114.9737,-29.9444,0.0],[114.9741,-29.945,0.0]]],
[[[114.9746,-29.9412,0.0],[114.9751,-29.9414,0.0],[114.9754,-29.9413,0.0],[114.9747,-29.9406,0.0],[114.9746,-29.9412,0.0]]],
[[[114.9774,-29.9357,0.0],[114.9781,-29.9355,0.0],[114.9774,-29.9349,0.0],[114.9771,-29.9352,0.0],[114.9774,-29.9357,0.0]]],
[[[114.9611,-29.9759,0.0],[114.9615,-29.9754,0.0],[114.9608,-29.9754,0.0],[114.9608,-29.9757,0.0],[114.9611,-29.9759,0.0]]]]}
,"properties": {"GID_2": "AUS.11.29_1","GID_0": "AUS","country": "Australia","GID_1": "AUS.11_1","state": "WesternAustralia","NL_NAME_1": "NA","county": "Coorow","VARNAME_2": "NA","NL_NAME_2": "NA","TYPE_2": "Shire","ENGTYPE_2": "Shire","CC_2": "52030","HASC_2": "AU.WA.CW","name": "Coorow.county","area_km2": 4194.512,"hist_schema_id": "Elevation0-9000","hist_area_km2": {"0": 129.442,"25": 62.85,"50": 65.621,"75": 67.478,"100": 57.557,"125": 50.152,"150": 58.686,"175": 93.012,"200": 153.123,"225": 486.719,"250": 724.507,"275": 1055.333,"300": 793.299,"325": 372.667,"350": 24.065}}}