{"type":"Feature","properties":{"GID_2":"AUS.10.3_1","GID_0":"AUS","country":"Australia","GID_1":"AUS.10_1","state":"Victoria","NL_NAME_1":"NA","county":"Ballarat","VARNAME_2":"NA","NL_NAME_2":"NA","TYPE_2":"City","ENGTYPE_2":"City","CC_2":"20570","HASC_2":"AU.VI.BA","name":"Ballarat.county"},
"geometry":{"type": "MultiPolygon","coordinates": [[[[143.8827,-37.7142,342.7385],[143.883,-37.713,342.7385],[143.8925,-37.7123,368.3056],[143.8944,-37.7149,367.0035],[143.8981,-37.716,354.671],[143.9025,-37.7133,357.8452],[143.9158,-37.7129,379.0494],[143.9196,-37.71,386.3702],[143.9258,-37.711,416.2141],[143.9382,-37.7092,444.6574],[143.9395,-37.6967,450.5649],[143.9441,-37.6941,455.8418],[143.9487,-37.6733,472.8435],[143.9231,-37.669,504.6982],[143.9139,-37.6603,548.0751],[143.927,-37.6583,544.149],[143.9358,-37.6506,526.4128],[143.9182,-37.6481,637.6941],[143.9145,-37.6451,603.7009],[143.9152,-37.6384,582.5295],[143.9132,-37.6354,571.6603],[143.9133,-37.6268,571.7164],[143.9097,-37.6217,568.2192],[143.899,-37.6166,535.9371],[143.8958,-37.6076,537.1931],[143.8981,-37.5965,532.8464],[143.9026,-37.597,551.751],[143.9048,-37.5824,544.8761],[143.9161,-37.5837,537.4944],[143.9146,-37.5795,530.2318],[143.9187,-37.5797,532.2952],[143.9219,-37.5759,529.4441],[143.9294,-37.5775,535.3908],[143.932,-37.5751,537.4757],[143.9367,-37.5751,547.5909],[143.9365,-37.57,558.1111],[143.9417,-37.5726,561.8329],[143.9413,-37.5622,551.1678],[143.9507,-37.5599,575.2724],[143.9504,-37.5501,558.7219],[143.9319,-37.5349,538.2571],[143.9315,-37.5289,549.0594],[143.9342,-37.5245,560.663],[143.9324,-37.5143,553.592],[143.9361,-37.4956,553.7725],[143.9348,-37.4909,556.7289],[143.9377,-37.4754,555.8777],[143.8494,-37.4668,458.8909],[143.8529,-37.4628,462.3295],[143.8517,-37.4613,462.3295],[143.8577,-37.433,451.8883],[143.8432,-37.4311,427.9753],[143.8492,-37.4008,388.5524],[143.8588,-37.402,416.99],[143.8688,-37.3483,404.0357],[143.8416,-37.3453,377.743],[143.8408,-37.3426,378.7749],[143.8269,-37.3401,359.5487],[143.7932,-37.3437,363.481],[143.794,-37.3391,343.8023],[143.7899,-37.34,358.1854],[143.7914,-37.341,344.5475],[143.7905,-37.3419,351.5966],[143.7881,-37.3392,360.8548],[143.648,-37.3217,392.5349],[143.6322,-37.3998,577.1274],[143.6283,-37.4008,555.4975],[143.627,-37.4067,523.0895],[143.629,-37.4072,528.8131],[143.6281,-37.4094,520.8374],[143.6299,-37.4112,521.373],[143.6244,-37.4372,409.487],[143.6231,-37.437,406.1638],[143.6198,-37.4479,390.0],[143.6228,-37.4516,391.7579],[143.62,-37.465,399.4654],[143.6095,-37.4658,401.3378],[143.6092,-37.4671,406.624],[143.6215,-37.4677,401.3289],[143.6203,-37.4738,418.1022],[143.6183,-37.4762,414.5224],[143.6133,-37.5008,383.1852],[143.595,-37.5273,391.6632],[143.5993,-37.528,384.2535],[143.606,-37.5349,383.2118],[143.622,-37.5252,384.2445],[143.6254,-37.5295,377.5],[143.6324,-37.5327,382.2475],[143.6495,-37.533,383.5115],[143.6488,-37.5362,383.6949],[143.6686,-37.5384,394.415],[143.6622,-37.5724,413.2583],[143.6859,-37.5601,407.4684],[143.6929,-37.5583,396.9377],[143.7072,-37.5579,395.5994],[143.7099,-37.562,393.5877],[143.71,-37.5669,397.2863],[143.7211,-37.573,398.9261],[143.7284,-37.5795,409.632],[143.7453,-37.5872,439.5038],[143.757,-37.5945,408.8151],[143.7806,-37.5998,396.6134],[143.7959,-37.6051,392.8145],[143.8095,-37.6125,384.8618],[143.8123,-37.6119,386.8059],[143.832,-37.6187,390.015],[143.8345,-37.6222,379.2826],[143.8301,-37.6299,379.6556],[143.8316,-37.63,374.5773],[143.8303,-37.6366,374.4103],[143.8341,-37.6406,372.187],[143.8322,-37.6438,372.4134],[143.8383,-37.6525,369.3487],[143.835,-37.6522,367.3375],[143.8334,-37.6554,367.9461],[143.8358,-37.6597,367.4913],[143.8344,-37.665,367.731],[143.8368,-37.6655,368.2083],[143.8403,-37.6721,364.2614],[143.845,-37.6698,362.7841],[143.8468,-37.6722,363.7557],[143.8493,-37.6725,364.0417],[143.8484,-37.6745,361.8719],[143.8513,-37.6759,360.2064],[143.8494,-37.6777,364.656],[143.8534,-37.6784,358.9732],[143.8504,-37.68,359.8394],[143.8535,-37.682,361.7513],[143.8508,-37.6858,357.77],[143.8577,-37.6862,358.8218],[143.8541,-37.6921,353.7776],[143.8563,-37.6924,353.9843],[143.858,-37.6904,352.7209],[143.8628,-37.6892,364.9725],[143.8665,-37.6925,351.1302],[143.87,-37.6912,356.2317],[143.8709,-37.7033,347.2835],[143.8732,-37.7061,357.1701],[143.8723,-37.7084,347.3726],[143.877,-37.707,345.6385],[143.8801,-37.709,344.3019],[143.8796,-37.7123,354.3955],[143.8827,-37.7142,342.7385]]]]}}