{"type":"Feature","properties":{"GID_2":"AUS.11.130_1","GID_0":"AUS","country":"Australia","GID_1":"AUS.11_1","state":"WesternAustralia","NL_NAME_1":"NA","county":"Westonia","VARNAME_2":"NA","NL_NAME_2":"NA","TYPE_2":"Shire","ENGTYPE_2":"Shire","CC_2":"59030","HASC_2":"AU.WA.WT","name":"Westonia.county"},
"geometry":{"type": "MultiPolygon","coordinates": [[[[118.741,-31.5553,426.795],[118.7409,-31.4827,431.7939],[118.7363,-31.4827,436.0514],[118.7363,-31.4272,377.0328],[118.7398,-31.4065,400.2727],[118.7401,-31.3947,398.248],[118.7453,-31.3944,405.4019],[118.7452,-31.3917,404.2372],[118.7388,-31.3887,392.7024],[118.7388,-31.353,373.2764],[118.7628,-31.353,384.5542],[118.7628,-31.3285,368.3192],[118.7395,-31.3285,357.2731],[118.7395,-31.3192,356.413],[118.7425,-31.3192,357.8817],[118.7425,-31.3002,360.6225],[118.7386,-31.3002,355.0731],[118.7388,-31.2595,360.5277],[118.7592,-31.2436,375.1254],[118.7721,-31.2436,381.1534],[118.7729,-31.2181,422.5928],[118.8101,-31.2183,413.7343],[118.8111,-31.149,359.2332],[118.8236,-31.149,368.8686],[118.8235,-31.121,338.5082],[118.8485,-31.121,337.627],[118.8485,-31.101,330.1395],[118.8439,-31.101,328.8575],[118.8439,-31.0749,337.3427],[118.8704,-31.0749,341.8676],[118.8705,-31.05,358.1486],[118.8743,-31.05,357.6573],[118.8743,-31.0207,389.6879],[118.8677,-31.0066,380.1837],[118.8634,-31.0073,384.902],[118.8634,-30.9621,337.3782],[118.8914,-30.9621,325.9225],[118.8914,-30.9676,327.7988],[118.9184,-30.9676,326.3232],[118.9198,-30.9344,328.3008],[118.9302,-30.9327,324.0499],[118.9456,-30.9338,321.4786],[118.9575,-30.9263,323.2028],[118.9537,-30.9153,321.1556],[118.9449,-30.9031,325.1641],[118.9439,-30.8952,322.6638],[118.9297,-30.8853,328.7406],[118.9283,-30.8626,327.5631],[118.9118,-30.8626,327.3517],[118.9118,-30.8566,328.1384],[118.9173,-30.8472,332.3744],[118.8951,-30.8375,342.2985],[118.8772,-30.8375,354.8005],[118.8772,-30.8273,362.8238],[118.8596,-30.8273,371.0206],[118.8596,-30.8175,383.0622],[118.8255,-30.8175,368.9914],[118.8255,-30.8112,376.2222],[118.7849,-30.8112,376.1468],[118.7849,-30.7704,415.8982],[118.7618,-30.7701,389.4306],[118.7586,-30.7577,395.4337],[118.7729,-30.7579,412.6215],[118.7729,-30.721,429.2491],[118.7552,-30.721,411.0357],[118.7552,-30.6309,461.5677],[118.5082,-30.2133,492.6871],[118.5082,-30.2472,465.6163],[118.5151,-30.3039,501.3994],[118.5204,-30.3155,488.0264],[118.5203,-30.4908,444.001],[118.5051,-30.9987,345.7522],[118.5054,-31.1888,335.1412],[118.5092,-31.1962,353.1229],[118.5097,-31.2586,347.8861],[118.5135,-31.2707,365.8605],[118.5088,-31.2936,371.6231],[118.509,-31.3317,341.9831],[118.502,-31.3753,340.9296],[118.502,-31.4049,351.8322],[118.6019,-31.5367,337.3145],[118.6179,-31.5277,341.1044],[118.6311,-31.545,356.2462],[118.6434,-31.5382,350.6156],[118.6516,-31.5499,365.1826],[118.6755,-31.5499,367.6459],[118.6755,-31.5554,375.844],[118.741,-31.5553,426.795]]]]}}