{"type":"Feature","properties":{"GID_2":"AUS.8.61_1","GID_0":"AUS","country":"Australia","GID_1":"AUS.8_1","state":"SouthAustralia","NL_NAME_1":"NA","county":"UnincorporatedSouthAustralia","VARNAME_2":"NA","NL_NAME_2":"NA","TYPE_2":"UnincorporatedArea","ENGTYPE_2":"UnincorporatedArea","CC_2":"49399","HASC_2":"NA","name":"UnincorporatedSouthAustralia.county"},
"geometry":{"type": "MultiPolygon","coordinates": [[[[139.1859,-35.5136,0.9334],[139.1815,-35.5157,1.0924],[139.1765,-35.5134,0.6202],[139.1733,-35.5158,1.9834],[139.1744,-35.5184,2.333],[139.1771,-35.5189,1.0514],[139.1834,-35.5251,1.2504],[139.1837,-35.5268,2.0501],[139.188,-35.5277,0.8697],[139.1871,-35.5261,0.6072],[139.1907,-35.5255,1.77],[139.1992,-35.5289,1.0767],[139.203,-35.5288,1.6865],[139.2079,-35.5317,2.8933],[139.212,-35.5296,2.4802],[139.2226,-35.5304,0.9844],[139.226,-35.5347,1.7588],[139.228,-35.5347,0.5114],[139.2265,-35.5387,0.1278],[139.2288,-35.5415,3.4035],[139.2349,-35.5409,0.1806],[139.2345,-35.5433,1.5436],[139.241,-35.5458,0.5365],[139.2394,-35.5476,1.0489],[139.2418,-35.5525,0.7636],[139.2486,-35.5524,0.644],[139.2485,-35.5539,2.2864],[139.2508,-35.5542,1.2611],[139.2596,-35.5505,1.1281],[139.2532,-35.5593,0.4882],[139.2447,-35.5656,0.7521],[139.2416,-35.5709,0.6958],[139.2368,-35.5711,1.6543],[139.2413,-35.5718,-0.5266],[139.2381,-35.5758,6.8016],[139.2383,-35.5805,0.8365],[139.2365,-35.5814,0.6856],[139.2363,-35.5846,0.1509],[139.2379,-35.5864,1.3147],[139.246,-35.5874,0.3986],[139.2505,-35.5785,0.0],[139.2524,-35.5775,0.4735],[139.2499,-35.586,0.545],[139.2449,-35.5911,0.3301],[139.2445,-35.5936,0.0],[139.2315,-35.6056,0.9388],[139.2177,-35.6114,0.1396],[139.2089,-35.6127,2.6682],[139.2108,-35.6147,1.7],[139.21,-35.6154,1.7],[139.2119,-35.6153,0.5924],[139.2109,-35.6171,2.1899],[139.215,-35.6192,2.2629],[139.2132,-35.6242,2.1998],[139.2166,-35.6268,4.2604],[139.2241,-35.6264,0.3433],[139.2265,-35.6285,1.1529],[139.2285,-35.6277,0.8061],[139.2282,-35.6253,0.5971],[139.2352,-35.6266,1.552],[139.2445,-35.6225,0.2168],[139.2483,-35.6247,1.122],[139.2541,-35.6222,0.3267],[139.2598,-35.6245,0.0],[139.2655,-35.6246,0.492],[139.2617,-35.6341,0.1995],[139.2555,-35.6373,0.7625],[139.2548,-35.6394,0.2745],[139.2344,-35.6428,0.6463],[139.2107,-35.6517,0.532],[139.2032,-35.6519,0.5463],[139.2023,-35.6488,0.0993],[139.2035,-35.648,0.8619],[139.2,-35.6464,0.4999],[139.2007,-35.6508,0.6632],[139.2028,-35.6524,0.5463],[139.1992,-35.6514,0.2535],[139.1991,-35.6534,0.9577],[139.2045,-35.6543,-0.378],[139.2038,-35.6562,0.9828],[139.2058,-35.6571,0.3188],[139.2092,-35.6568,0.3358],[139.2088,-35.6584,0.0971],[139.2063,-35.658,0.0],[139.2065,-35.6592,0.0],[139.2167,-35.6611,0.7614],[139.2174,-35.6589,0.5432],[139.2176,-35.6614,0.7265],[139.2164,-35.6622,0.7265],[139.2109,-35.6614,0.8642],[139.2135,-35.6665,1.3063],[139.2097,-35.6693,1.0704],[139.2117,-35.67,0.2934],[139.2095,-35.6732,1.2159],[139.213,-35.6716,0.5468],[139.216,-35.667,0.2792],[139.2182,-35.6702,0.8417],[139.2167,-35.6701,0.9453],[139.2174,-35.6711,0.9453],[139.2199,-35.6694,0.0],[139.2232,-35.6716,1.3085],[139.2257,-35.6775,0.7664],[139.2194,-35.6837,1.4028],[139.2212,-35.6837,0.8797],[139.2314,-35.6945,1.151],[139.2355,-35.6959,0.235],[139.2471,-35.696,0.0],[139.2551,-35.6995,0.0778],[139.2546,-35.7038,3.108],[139.2561,-35.7055,1.4308],[139.2528,-35.7073,-0.1129],[139.2566,-35.7078,0.2975],[139.2562,-35.7106,0.6348],[139.2591,-35.709,0.1319],[139.2616,-35.7103,0.0],[139.259,-35.7151,0.0],[139.2556,-35.7145,1.3893],[139.2581,-35.7182,0.7839],[139.2551,-35.7193,-0.5707],[139.2559,-35.7213,0.0],[139.2535,-35.7236,0.4257],[139.2568,-35.7249,0.0],[139.2575,-35.7298,2.1302],[139.2598,-35.7285,0.1584],[139.2637,-35.7292,0.2872],[139.2621,-35.7306,1.1021],[139.2627,-35.7318,0.3938],[139.2585,-35.7325,3.9501],[139.2589,-35.7339,0.0],[139.2664,-35.7353,0.5491],[139.2741,-35.7295,0.7551],[139.2731,-35.7277,0.904],[139.2701,-35.7285,1.077],[139.2698,-35.7265,1.8734],[139.2755,-35.7277,2.4909],[139.2752,-35.7221,0.0],[139.2731,-35.7209,1.8822],[139.2704,-35.7216,0.3771],[139.2706,-35.7184,0.556],[139.2683,-35.7156,1.8761],[139.2688,-35.7136,0.4511],[139.271,-35.7155,1.193],[139.273,-35.7141,0.2372],[139.2731,-35.7099,0.3793],[139.2664,-35.7067,0.7656],[139.2623,-35.7069,0.3539],[139.2649,-35.7016,0.4618],[139.2605,-35.7015,0.1905],[139.2613,-35.6996,2.243],[139.2712,-35.697,1.5662],[139.2812,-35.6903,3.133],[139.3004,-35.6836,0.2382],[139.309,-35.6862,0.0],[139.3113,-35.6893,0.0],[139.3137,-35.6898,0.8718],[139.3307,-35.6896,3.3473],[139.3374,-35.687,2.72],[139.3414,-35.6813,1.7825],[139.3438,-35.6712,1.2331],[139.3473,-35.6407,1.1583],[139.346,-35.6363,0.444],[139.3477,-35.635,0.4262],[139.3506,-35.6178,0.4724],[139.3614,-35.6096,0.3798],[139.3749,-35.6093,0.499],[139.3758,-35.6077,0.2884],[139.3729,-35.6064,0.3763],[139.3752,-35.6044,0.9051],[139.3682,-35.5967,0.7706],[139.3526,-35.5845,0.5205],[139.3357,-35.574,0.3096],[139.3203,-35.5676,0.0],[139.3075,-35.558,0.0],[139.2925,-35.5511,0.1293],[139.2921,-35.5496,0.1293],[139.2829,-35.5451,0.0],[139.2805,-35.5424,0.2272],[139.2614,-35.5382,0.5084],[139.2581,-35.5323,1.0381],[139.2522,-35.5323,0.4777],[139.2494,-35.5291,1.3581],[139.2446,-35.5286,1.0774],[139.2275,-35.5177,6.7339],[139.2203,-35.5169,1.186],[139.2177,-35.5181,0.1944],[139.2146,-35.5154,0.5455],[139.2025,-35.5147,0.5992],[139.1949,-35.5107,3.0753],[139.1859,-35.5136,0.9334]],
[[139.268,-35.7314,1.0818],[139.269,-35.7311,0.0],[139.2695,-35.7321,0.0],[139.2677,-35.7324,1.0818],[139.268,-35.7314,1.0818]],
[[139.2616,-35.7275,0.5916],[139.2633,-35.7273,0.7035],[139.2637,-35.7276,0.7035],[139.2624,-35.7279,0.5916],[139.2616,-35.7275,0.5916]],
[[139.2633,-35.7266,0.7035],[139.2601,-35.727,0.5589],[139.2666,-35.7237,0.2773],[139.2664,-35.7268,0.6616],[139.2633,-35.7266,0.7035]],
[[139.2277,-35.6885,0.0],[139.2278,-35.6885,0.0],[139.2278,-35.689,0.0],[139.2274,-35.6887,0.0],[139.2277,-35.6885,0.0]],
[[139.2054,-35.6558,0.1812],[139.206,-35.6555,0.1812],[139.2063,-35.6562,0.1812],[139.2056,-35.656,0.1812],[139.2054,-35.6558,0.1812]],
[[139.2087,-35.6546,0.3259],[139.209,-35.6546,0.3259],[139.2091,-35.655,0.3259],[139.2088,-35.655,0.3259],[139.2087,-35.6546,0.3259]],
[[139.2061,-35.6546,0.1812],[139.2055,-35.654,0.2232],[139.2043,-35.6539,-0.378],[139.2054,-35.6535,0.2232],[139.2061,-35.6546,0.1812]],
[[139.2085,-35.6533,0.4756],[139.2084,-35.6537,0.4756],[139.208,-35.6535,0.4756],[139.2081,-35.6533,0.4756],[139.2085,-35.6533,0.4756]],
[[139.2061,-35.6527,0.381],[139.2064,-35.6528,0.381],[139.2063,-35.6532,0.2232],[139.206,-35.653,0.2232],[139.2061,-35.6527,0.381]],
[[139.2057,-35.6526,0.381],[139.2055,-35.6529,0.381],[139.2052,-35.6524,0.4706],[139.2053,-35.6524,0.381],[139.2057,-35.6526,0.381]],
[[139.2165,-35.652,0.4162],[139.2166,-35.6524,0.4162],[139.2164,-35.6524,0.4162],[139.2165,-35.652,0.4162]],
[[139.245,-35.5827,0.1445],[139.2442,-35.5826,0.0],[139.2452,-35.5823,0.1445],[139.2457,-35.5827,0.1445],[139.245,-35.5827,0.1445]],
[[139.2479,-35.5817,0.0],[139.2481,-35.5816,0.0],[139.2483,-35.5817,0.0],[139.248,-35.5818,0.0],[139.2479,-35.5817,0.0]]],
[[[136.1153,-35.3343,1.1576],[136.1111,-35.3328,0.1017],[136.111,-35.3348,2.335],[136.1144,-35.335,0.0],[136.115,-35.338,0.0],[136.1182,-35.3398,0.0],[136.1264,-35.3401,0.0],[136.1228,-35.3352,1.7254],[136.1153,-35.3343,1.1576]]],
[[[136.1191,-35.3193,0.0],[136.1183,-35.3169,3.432],[136.1152,-35.3179,1.133],[136.11,-35.3243,0.0],[136.1124,-35.3297,0.0],[136.1153,-35.3295,0.0],[136.1144,-35.325,4.0312],[136.1179,-35.3235,0.0],[136.1191,-35.3193,0.0]]],
[[[136.0685,-35.223,2.4266],[136.0618,-35.2241,2.7797],[136.0637,-35.2272,31.6572],[136.0615,-35.2269,17.9686],[136.0581,-35.2294,2.2989],[136.0555,-35.2355,2.1849],[136.0597,-35.2379,26.8675],[136.0671,-35.2388,0.0],[136.0723,-35.2375,9.0612],[136.072,-35.233,5.4923],[136.0683,-35.2291,1.6474],[136.0733,-35.2276,1.4595],[136.0704,-35.2264,4.8215],[136.0685,-35.223,2.4266]]],
[[[136.0755,-35.1656,1.4042],[136.0771,-35.1656,1.4042],[136.0775,-35.1652,1.4042],[136.0741,-35.1656,0.0],[136.0755,-35.1656,1.4042]]],
[[[136.458,-35.1363,45.1576],[136.4514,-35.1345,18.9459],[136.4548,-35.1368,56.8106],[136.4531,-35.1384,65.7631],[136.4538,-35.1447,16.0249],[136.4501,-35.1481,33.4313],[136.4459,-35.1473,12.671],[136.4415,-35.1487,24.7913],[136.4428,-35.1517,44.0006],[136.4417,-35.1569,23.5306],[136.4444,-35.1603,57.3278],[136.4531,-35.1661,32.27],[136.4606,-35.1653,0.0],[136.4636,-35.1624,31.2424],[136.4687,-35.1634,0.0],[136.4713,-35.1645,102.9238],[136.4728,-35.1677,30.9373],[136.4803,-35.1697,0.0],[136.4796,-35.1716,0.2259],[136.4819,-35.1713,0.0],[136.4859,-35.176,0.0],[136.4915,-35.1757,0.0],[136.4935,-35.1669,14.0168],[136.4948,-35.1666,14.0168],[136.4923,-35.1639,58.437],[136.4941,-35.1619,30.2277],[136.493,-35.1598,55.6771],[136.4707,-35.15,2.9602],[136.462,-35.1429,1.6115],[136.458,-35.1363,45.1576]]],
[[[136.4752,-35.1169,31.8496],[136.47,-35.1156,18.2991],[136.4681,-35.1175,34.4058],[136.4643,-35.1168,12.2698],[136.4637,-35.1182,0.0],[136.4677,-35.1224,0.0],[136.4731,-35.1235,0.0],[136.4788,-35.121,0.0],[136.4752,-35.1169,31.8496]]],
[[[136.0847,-35.2261,0.0],[136.0811,-35.2247,11.2496],[136.0762,-35.2271,7.8724],[136.0767,-35.2284,0.0],[136.0833,-35.228,0.0],[136.0847,-35.2261,0.0]]],
[[[136.1159,-34.9453,3.8477],[136.1071,-34.9324,1.6655],[136.1037,-34.9326,0.8436],[136.0973,-34.9405,0.7552],[136.0935,-34.9405,0.8499],[136.0919,-34.9389,0.0],[136.0908,-34.9414,4.922],[136.0828,-34.9454,0.0],[136.0788,-34.9521,1.1633],[136.0821,-34.9554,2.758],[136.0865,-34.9543,16.8108],[136.0892,-34.956,6.0578],[136.085,-34.9597,13.193],[136.0842,-34.9669,28.9745],[136.0896,-34.9689,10.7851],[136.1014,-34.9667,4.1346],[136.1099,-34.9687,2.9005],[136.1105,-34.9756,68.2032],[136.1119,-34.977,14.5891],[136.1171,-34.9784,24.9017],[136.1174,-34.9805,9.7806],[136.1219,-34.9836,11.72],[136.1379,-34.9918,44.0714],[136.1475,-34.9995,124.9481],[136.148,-35.0015,0.0],[136.1535,-35.0032,0.0],[136.1561,-35.0058,82.9661],[136.1574,-35.0088,16.5366],[136.1557,-35.0116,8.3965],[136.1585,-35.0144,72.5043],[136.1572,-35.0173,7.6492],[136.1592,-35.0208,7.1264],[136.1529,-35.0249,15.5585],[136.1474,-35.0247,3.5986],[136.1468,-35.0266,4.2216],[136.1541,-35.0348,61.6277],[136.1513,-35.0356,0.0],[136.1534,-35.0382,3.2566],[136.1521,-35.0397,0.0],[136.1558,-35.0407,42.4499],[136.1544,-35.0443,21.4682],[136.1558,-35.0472,28.709],[136.1619,-35.0512,50.18],[136.1624,-35.0537,17.7604],[136.1649,-35.0544,38.6295],[136.1631,-35.0547,1.8989],[136.1644,-35.056,22.6848],[136.1682,-35.0589,3.8293],[136.1716,-35.0579,24.7943],[136.1769,-35.0615,0.0],[136.179,-35.059,1.3263],[136.1781,-35.0547,20.1371],[136.1844,-35.0558,3.2641],[136.187,-35.0524,7.4421],[136.1893,-35.0523,20.5355],[136.1968,-35.0614,0.0],[136.1984,-35.0639,0.948],[136.1974,-35.0645,0.948],[136.2,-35.0654,1.0621],[136.2018,-35.0646,0.0],[136.2014,-35.0633,12.2486],[136.2033,-35.0641,0.0],[136.2024,-35.0562,9.1005],[136.2043,-35.0521,3.2195],[136.2014,-35.0511,0.0],[136.1979,-35.0524,6.6743],[136.195,-35.0499,3.5339],[136.1925,-35.0443,3.8382],[136.1924,-35.0399,3.4526],[136.1948,-35.0346,9.6068],[136.1925,-35.0337,11.5911],[136.193,-35.031,0.0],[136.1912,-35.0294,0.0],[136.1896,-35.0232,0.0],[136.1945,-35.0159,17.4618],[136.1896,-35.0105,0.0],[136.1897,-35.0044,0.0],[136.1883,-35.0041,0.0],[136.1859,-35.0076,0.0],[136.1783,-35.0066,19.6706],[136.1706,-35.0021,12.0633],[136.1689,-34.9978,1.3178],[136.1651,-34.9971,9.7482],[136.163,-34.9939,0.0],[136.158,-34.9937,17.5242],[136.1529,-34.9903,30.2143],[136.1415,-34.9788,5.0469],[136.1341,-34.9683,28.0941],[136.13,-34.9597,2.6805],[136.1295,-34.9524,0.0],[136.1159,-34.9453,3.8477]]],
[[[135.8687,-34.7778,0.5119],[135.8685,-34.7792,2.7179],[135.87,-34.7794,6.2776],[135.8769,-34.7764,0.0],[135.8794,-34.7731,4.1198],[135.879,-34.77,4.1861],[135.8736,-34.7716,0.0],[135.8721,-34.7757,4.1986],[135.8687,-34.7778,0.5119]]],
[[[138.5397,-34.8044,0.0],[138.5379,-34.8014,2.6807],[138.5313,-34.8033,2.8571],[138.5243,-34.8101,0.5356],[138.535,-34.8121,1.3411],[138.5397,-34.8111,1.673],[138.5441,-34.8061,0.0],[138.5397,-34.8044,0.0]]],
[[[135.9181,-34.6757,0.0],[135.9169,-34.6731,0.0],[135.9137,-34.6778,0.257],[135.9135,-34.6838,2.7812],[135.9155,-34.6905,3.1745],[135.9114,-34.6956,2.4682],[135.9181,-34.6978,12.4421],[135.9234,-34.7019,3.5558],[135.9212,-34.7132,7.6457],[135.927,-34.7176,5.5456],[135.9266,-34.7216,1.9881],[135.9317,-34.7254,2.2479],[135.9292,-34.7284,0.0],[135.929,-34.7328,1.1129],[135.9373,-34.7197,0.8463],[135.9426,-34.7211,5.3729],[135.9482,-34.7267,0.0],[135.9526,-34.7248,0.0],[135.9529,-34.7234,0.0],[135.9491,-34.7217,7.2093],[135.9475,-34.7146,9.867],[135.9451,-34.713,7.1601],[135.9416,-34.7136,4.0873],[135.9399,-34.7116,0.7032],[135.9409,-34.7073,3.6771],[135.9393,-34.7054,7.867],[135.9391,-34.6991,12.2116],[135.9429,-34.6943,5.4889],[135.9398,-34.6922,2.0259],[135.9387,-34.6877,1.4061],[135.9329,-34.6856,16.5401],[135.9314,-34.681,0.4329],[135.9214,-34.6831,4.8545],[135.9183,-34.6793,0.0],[135.9181,-34.6757,0.0]]],
[[[136.3441,-34.6506,2.4413],[136.3352,-34.6509,0.0],[136.3311,-34.6558,2.4893],[136.3295,-34.6627,4.9809],[136.3365,-34.6709,0.0],[136.3409,-34.6722,1.077],[136.3421,-34.6799,0.0],[136.3445,-34.6826,0.6695],[136.347,-34.683,0.0],[136.3477,-34.6795,0.0],[136.3442,-34.6755,4.769],[136.3451,-34.6723,1.9241],[136.3503,-34.6692,1.3859],[136.3522,-34.6652,3.2834],[136.358,-34.6651,0.0],[136.3591,-34.6638,2.3535],[136.3537,-34.6588,5.89],[136.3558,-34.6563,0.0],[136.3537,-34.6537,1.0998],[136.3441,-34.6506,2.4413]]],
[[[138.5199,-34.7585,1.8457],[138.5167,-34.7564,2.8377],[138.5135,-34.7582,0.0],[138.5189,-34.7632,0.4968],[138.5225,-34.7697,1.4787],[138.5188,-34.7814,2.0451],[138.5161,-34.7977,2.2831],[138.5186,-34.8056,1.9517],[138.5235,-34.809,1.7671],[138.5293,-34.8019,3.8138],[138.538,-34.8001,1.4858],[138.5452,-34.802,5.08],[138.5463,-34.799,3.6084],[138.5413,-34.7873,0.0],[138.5295,-34.7741,2.8623],[138.5246,-34.764,0.0],[138.5199,-34.7585,1.8457]]],
[[[138.5156,-34.7555,1.026],[138.5118,-34.7555,0.531],[138.5094,-34.7575,0.0],[138.5121,-34.7577,3.0505],[138.5156,-34.7555,1.026]]],
[[[135.9559,-34.5708,5.9298],[135.9528,-34.5678,0.0],[135.946,-34.5685,2.7568],[135.9461,-34.5747,4.2698],[135.9538,-34.5837,3.4845],[135.9518,-34.5875,0.0],[135.9527,-34.5938,2.6211],[135.9588,-34.589,1.8409],[135.9585,-34.5857,3.327],[135.9604,-34.5831,0.0],[135.9576,-34.5813,4.8953],[135.959,-34.5751,2.4829],[135.9559,-34.5708,5.9298]]],
[[[137.3662,-34.5334,0.0],[137.3662,-34.5329,0.0],[137.366,-34.5329,0.0],[137.3659,-34.5335,0.0],[137.3662,-34.5334,0.0]]],
[[[137.3632,-34.5309,0.0],[137.3631,-34.5308,0.0],[137.3629,-34.5309,0.0],[137.3631,-34.5312,0.0],[137.3632,-34.5309,0.0]]],
[[[137.4244,-34.4847,0.2572],[137.4239,-34.4852,0.2572],[137.4239,-34.4857,0.2572],[137.4244,-34.4853,0.2572],[137.4244,-34.4847,0.2572]]],
[[[137.4039,-34.4617,1.0952],[137.4037,-34.4624,1.0952],[137.4046,-34.4623,1.0952],[137.4047,-34.4618,1.0952],[137.4039,-34.4617,1.0952]]],
[[[137.3659,-34.4573,0.0],[137.3654,-34.455,4.1284],[137.3626,-34.4559,0.5522],[137.3626,-34.4571,1.3878],[137.3659,-34.4573,0.0]]],
[[[137.3655,-34.5332,0.0],[137.3651,-34.533,0.0],[137.3649,-34.5335,0.0],[137.3652,-34.5335,0.0],[137.3655,-34.5332,0.0]]],
[[[137.3556,-34.5348,0.0],[137.3555,-34.5346,0.0],[137.3554,-34.5345,0.0],[137.3553,-34.5348,0.0],[137.3556,-34.5348,0.0]]],
[[[137.355,-34.5345,0.0],[137.3551,-34.5343,0.0],[137.3548,-34.5343,0.0],[137.3549,-34.5346,0.0],[137.355,-34.5345,0.0]]],
[[[136.3056,-34.5051,1.2238],[136.3024,-34.502,1.5974],[136.2953,-34.5025,0.0642],[136.293,-34.5063,-0.1319],[136.2887,-34.5078,0.0],[136.2838,-34.5035,2.2664],[136.2799,-34.5039,2.8061],[136.2784,-34.5075,0.8497],[136.2797,-34.511,5.1051],[136.2766,-34.5187,0.0],[136.2781,-34.5233,2.3864],[136.2757,-34.527,0.0],[136.2769,-34.5358,0.0],[136.2706,-34.5421,1.6868],[136.2712,-34.5462,8.4852],[136.2749,-34.5493,0.0],[136.2838,-34.5483,0.6397],[136.2865,-34.5453,0.0],[136.2849,-34.5448,14.3638],[136.2838,-34.5406,0.357],[136.2808,-34.5406,3.2004],[136.2786,-34.5377,0.0],[136.2812,-34.5305,2.5748],[136.2875,-34.5303,0.0],[136.2836,-34.5264,0.3347],[136.2856,-34.5238,0.0],[136.2826,-34.5208,1.1295],[136.2845,-34.5155,1.3065],[136.294,-34.5066,0.0],[136.2969,-34.5056,4.0774],[136.3028,-34.5073,1.6553],[136.3056,-34.5051,1.2238]]],
[[[137.3687,-34.4655,1.7546],[137.3635,-34.4625,0.0],[137.3612,-34.463,0.0],[137.3611,-34.4686,4.0741],[137.3568,-34.4703,2.0265],[137.3566,-34.4756,13.9441],[137.354,-34.4761,0.0],[137.353,-34.4793,0.3229],[137.3497,-34.4795,1.465],[137.3501,-34.4818,9.6053],[137.3442,-34.4872,2.9364],[137.3397,-34.487,3.8158],[137.3383,-34.4885,0.0],[137.3391,-34.4934,12.0169],[137.3377,-34.4938,0.5409],[137.3392,-34.4982,16.6067],[137.3373,-34.4993,1.0911],[137.3397,-34.5016,7.7188],[137.3394,-34.5063,1.225],[137.342,-34.5091,3.4694],[137.3413,-34.5205,6.1352],[137.3427,-34.5232,1.9956],[137.3408,-34.5243,0.1791],[137.341,-34.5263,0.5436],[137.3489,-34.5282,0.742],[137.3515,-34.5341,1.7418],[137.3579,-34.5293,3.711],[137.3636,-34.5302,0.0],[137.3661,-34.5288,0.0],[137.3653,-34.5238,0.8595],[137.3682,-34.5199,0.0],[137.3715,-34.5059,1.3295],[137.3759,-34.5,1.3336],[137.3818,-34.4973,1.1306],[137.3782,-34.4932,0.2724],[137.3778,-34.4936,1.447],[137.3799,-34.4969,1.952],[137.3787,-34.4961,0.9943],[137.3763,-34.4925,0.5306],[137.3767,-34.486,0.1742],[137.3732,-34.4825,1.5922],[137.3762,-34.4748,0.0],[137.3758,-34.471,3.1224],[137.3749,-34.4688,0.2303],[137.3687,-34.4655,1.7546]]],
[[[140.403,-34.3336,32.1614],[140.3863,-34.3335,9.1103],[140.3916,-34.3388,8.0],[140.3991,-34.3596,8.0],[140.4172,-34.3826,8.0],[140.4311,-34.3974,10.2987],[140.4343,-34.3963,11.9175],[140.4375,-34.388,8.0],[140.4435,-34.3813,9.2172],[140.4494,-34.3795,11.4006],[140.4601,-34.3812,11.2587],[140.4707,-34.377,8.0],[140.4773,-34.3778,21.6638],[140.4874,-34.383,15.1712],[140.4875,-34.3869,12.0807],[140.4818,-34.3891,8.0],[140.4835,-34.3913,11.2424],[140.4881,-34.3927,11.2861],[140.4895,-34.3957,10.0644],[140.5019,-34.3947,12.2282],[140.5161,-34.3973,27.7243],[140.5195,-34.3809,32.2388],[140.5081,-34.3574,35.8799],[140.5122,-34.3516,40.8193],[140.5155,-34.3557,37.4773],[140.5228,-34.3567,17.9132],[140.5373,-34.3511,13.0517],[140.5281,-34.3349,11.8519],[140.5262,-34.3339,28.9817],[140.5256,-34.3354,26.2342],[140.5146,-34.3359,38.7207],[140.5145,-34.3272,36.4269],[140.5121,-34.3215,28.8052],[140.5101,-34.3184,27.0087],[140.5058,-34.3184,32.2684],[140.5058,-34.3143,32.0265],[140.5033,-34.3142,41.1049],[140.5055,-34.311,32.785],[140.5041,-34.3103,32.785],[140.5048,-34.3066,28.4915],[140.5006,-34.3066,33.5349],[140.5052,-34.3033,23.1904],[140.4906,-34.297,23.3212],[140.476,-34.2929,27.4003],[140.4762,-34.2946,31.5319],[140.4631,-34.2947,37.3762],[140.4619,-34.2973,35.6382],[140.4575,-34.2989,36.0613],[140.459,-34.3018,39.11],[140.4522,-34.313,36.1384],[140.4456,-34.3127,29.6367],[140.4456,-34.3167,31.7224],[140.4489,-34.3242,26.2401],[140.4573,-34.3279,26.2043],[140.4546,-34.3345,27.4944],[140.4406,-34.3304,28.6146],[140.4344,-34.3316,29.2659],[140.4286,-34.3353,27.101],[140.403,-34.3336,32.1614]]],
[[[137.366,-34.4531,0.7023],[137.3666,-34.4537,0.7023],[137.3668,-34.4536,0.7023],[137.3667,-34.4531,0.7023],[137.366,-34.4531,0.7023]]],
[[[137.3616,-34.4525,0.4565],[137.362,-34.4536,0.1021],[137.3621,-34.4522,0.4565],[137.3613,-34.4517,0.1268],[137.3616,-34.4525,0.4565]]],
[[[133.6037,-32.2434,1.3955],[133.6087,-32.241,0.3431],[133.6064,-32.2406,0.3509],[133.602,-32.2432,0.0],[133.5986,-32.2464,0.0],[133.5971,-32.2493,0.0],[133.5979,-32.2498,0.0],[133.5986,-32.2472,0.0],[133.6037,-32.2434,1.3955]]],
[[[133.34,-32.369,0.0],[133.3408,-32.369,0.0],[133.3409,-32.3688,0.0],[133.34,-32.3686,0.0],[133.34,-32.369,0.0]]],
[[[133.8477,-32.3761,2.4621],[133.8449,-32.3761,1.9685],[133.844,-32.3757,2.3573],[133.8464,-32.3768,2.6935],[133.8477,-32.3761,2.4621]]],
[[[133.3484,-32.3667,0.6718],[133.35,-32.3672,4.4475],[133.3522,-32.3663,1.0705],[133.35,-32.3656,1.4831],[133.3484,-32.3667,0.6718]]],
[[[133.3547,-32.3658,0.0],[133.355,-32.3661,0.0],[133.3555,-32.3659,0.1613],[133.3549,-32.3656,0.0],[133.3547,-32.3658,0.0]]],
[[[133.5614,-32.321,0.0],[133.5608,-32.3213,0.4204],[133.5605,-32.3223,0.4204],[133.5616,-32.3218,0.0],[133.5614,-32.321,0.0]]],
[[[133.608,-32.304,0.8717],[133.6079,-32.3047,0.0],[133.6084,-32.3049,0.2284],[133.6087,-32.3043,0.5123],[133.608,-32.304,0.8717]]],
[[[133.5321,-32.3152,0.0],[133.5321,-32.3148,0.0],[133.5296,-32.317,0.2444],[133.5311,-32.3166,0.698],[133.5321,-32.3152,0.0]]],
[[[133.5227,-32.3036,14.7887],[133.5204,-32.3008,3.3576],[133.515,-32.3013,14.8256],[133.5115,-32.3044,1.3604],[133.5063,-32.306,5.5514],[133.5032,-32.3097,0.0],[133.5035,-32.3158,8.9915],[133.5014,-32.3184,1.2507],[133.5067,-32.3192,2.9537],[133.5174,-32.3152,1.2649],[133.5222,-32.313,0.0],[133.5241,-32.3101,1.4821],[133.5278,-32.3091,13.56],[133.5307,-32.3049,4.2479],[133.5285,-32.3027,1.3226],[133.5227,-32.3036,14.7887]]],
[[[133.7617,-32.3655,0.0],[133.769,-32.364,0.3141],[133.7749,-32.3619,1.2714],[133.7596,-32.3642,0.0],[133.7617,-32.3655,0.0]]],
[[[133.845,-32.3647,0.315],[133.8429,-32.363,0.66],[133.8389,-32.3612,0.0],[133.8454,-32.3662,0.315],[133.845,-32.3647,0.315]]],
[[[133.8366,-32.3605,2.1462],[133.8375,-32.3611,1.1934],[133.838,-32.3608,1.1934],[133.8371,-32.3604,1.1934],[133.8366,-32.3605,2.1462]]],
[[[133.7596,-32.3605,0.0],[133.7575,-32.3591,0.0],[133.7589,-32.3618,0.0],[133.7602,-32.3616,0.0],[133.7582,-32.3603,0.0],[133.7596,-32.3605,0.0]]],
[[[133.8344,-32.3565,1.1197],[133.8327,-32.3536,0.4421],[133.8267,-32.3517,0.6424],[133.8162,-32.3547,1.906],[133.82,-32.3553,1.1785],[133.8244,-32.359,1.3611],[133.8253,-32.3581,1.3611],[133.8227,-32.3555,1.8317],[133.8268,-32.3582,2.8854],[133.83,-32.3577,1.3257],[133.8353,-32.3601,2.1462],[133.8327,-32.3579,1.1197],[133.8271,-32.3557,1.1769],[133.8271,-32.3547,1.1769],[133.8344,-32.3565,1.1197]]],
[[[133.6501,-32.2383,3.8488],[133.674,-32.2325,0.642],[133.6681,-32.2309,0.0],[133.6554,-32.2322,0.9417],[133.631,-32.2406,1.3378],[133.6238,-32.2393,1.3353],[133.5979,-32.2593,3.3771],[133.5817,-32.2684,4.919],[133.5758,-32.2679,3.3426],[133.5769,-32.2664,3.3426],[133.5754,-32.2645,2.5639],[133.5772,-32.266,3.035],[133.5791,-32.2653,3.6142],[133.5826,-32.2613,4.7779],[133.5845,-32.2558,3.0176],[133.5835,-32.2558,2.876],[133.5936,-32.251,0.0],[133.5857,-32.2542,0.7977],[133.5796,-32.254,2.0913],[133.5672,-32.2669,8.691],[133.5591,-32.2625,0.0],[133.5558,-32.2649,12.5254],[133.5509,-32.2637,0.0],[133.5482,-32.2664,0.0],[133.5505,-32.2678,5.7344],[133.5514,-32.2731,26.1177],[133.5402,-32.2788,0.0],[133.5407,-32.2809,10.1631],[133.5438,-32.282,3.993],[133.5447,-32.2977,5.0778],[133.5506,-32.3038,2.1981],[133.5497,-32.3081,0.32],[133.5567,-32.3079,6.4394],[133.5603,-32.3107,12.946],[133.5633,-32.3171,2.22],[133.5671,-32.3162,23.8538],[133.573,-32.3191,4.1785],[133.5749,-32.3183,1.8179],[133.5734,-32.3169,3.9957],[133.5807,-32.3133,1.2881],[133.5793,-32.3108,13.8863],[133.5803,-32.3066,2.1112],[133.5907,-32.3062,8.7805],[133.5939,-32.3041,6.6931],[133.5974,-32.305,1.1789],[133.6003,-32.3079,7.7125],[133.6078,-32.3012,12.6374],[133.608,-32.2937,11.8307],[133.612,-32.2828,3.0638],[133.6284,-32.2713,1.8743],[133.6189,-32.2736,3.7607],[133.6116,-32.2658,0.0],[133.6113,-32.2605,0.0],[133.6222,-32.2509,10.3157],[133.6357,-32.2448,0.4784],[133.638,-32.2423,2.1121],[133.6476,-32.2395,5.396],[133.6443,-32.2376,2.6964],[133.6501,-32.2383,3.8488]]],
[[[133.3473,-32.4812,0.0],[133.3468,-32.4788,0.0],[133.3432,-32.4809,5.555],[133.344,-32.4823,6.7034],[133.3473,-32.4812,0.0]]],
[[[133.3199,-32.4711,5.4679],[133.3192,-32.4695,0.0],[133.3176,-32.4699,3.622],[133.3132,-32.4773,3.8795],[133.3175,-32.4759,19.0362],[133.3202,-32.473,0.0],[133.3199,-32.4711,5.4679]]],
[[[133.6331,-32.4704,0.4286],[133.6324,-32.4706,0.2743],[133.6319,-32.4712,0.2743],[133.6342,-32.4705,0.4286],[133.6331,-32.4704,0.4286]]],
[[[133.6439,-32.4664,1.4198],[133.6427,-32.4679,0.0],[133.6462,-32.4659,0.0],[133.6445,-32.4659,0.1017],[133.6439,-32.4664,1.4198]]],
[[[133.6386,-32.4519,0.399],[133.6372,-32.4498,0.0],[133.6276,-32.452,1.4914],[133.6255,-32.4572,3.7751],[133.6279,-32.459,4.3705],[133.6309,-32.4573,28.1518],[133.6344,-32.462,3.5281],[133.6396,-32.4632,0.0],[133.6418,-32.4611,27.3309],[133.6486,-32.4607,0.4288],[133.6533,-32.4555,11.7992],[133.655,-32.4511,0.0],[133.6508,-32.45,1.0977],[133.6469,-32.4534,9.3276],[133.6422,-32.454,0.4722],[133.6386,-32.4519,0.399]]],
[[[133.6949,-32.434,0.0],[133.6929,-32.4327,0.0],[133.6902,-32.4376,0.0],[133.6943,-32.4338,3.4164],[133.6949,-32.434,0.0]]],
[[[133.3819,-32.3949,3.3317],[133.379,-32.3924,0.8212],[133.3758,-32.3938,7.6142],[133.3677,-32.3934,5.9089],[133.3691,-32.3987,4.3614],[133.3663,-32.3983,5.2941],[133.3667,-32.4029,13.5441],[133.3757,-32.403,1.1174],[133.3777,-32.3973,33.0296],[133.3819,-32.3949,3.3317]]],
[[[133.8497,-32.3793,2.0035],[133.8492,-32.3777,2.3952],[133.8468,-32.3783,3.792],[133.8468,-32.3789,3.792],[133.8497,-32.3793,2.0035]]],
[[[133.7191,-32.3989,0.4279],[133.7187,-32.3992,0.4279],[133.7188,-32.3994,0.4279],[133.7192,-32.3993,0.4279],[133.7191,-32.3989,0.4279]]],
[[[133.6812,-32.4381,2.0864],[133.6785,-32.4344,0.0],[133.6691,-32.4364,0.2371],[133.67,-32.4386,14.4656],[133.6681,-32.4427,7.0897],[133.6616,-32.444,0.0],[133.6611,-32.4479,0.3762],[133.6565,-32.4508,0.0],[133.658,-32.4515,27.5535],[133.6578,-32.4549,4.8526],[133.661,-32.4552,3.7091],[133.6709,-32.4473,13.7884],[133.6777,-32.4467,0.0349],[133.6781,-32.4437,21.7012],[133.6808,-32.4437,0.0],[133.6835,-32.4407,0.1253],[133.6812,-32.4381,2.0864]]],
[[[133.4851,-32.3685,2.856],[133.4862,-32.3676,0.5907],[133.4825,-32.3676,0.0],[133.4769,-32.3708,0.8159],[133.4783,-32.3731,0.0],[133.4754,-32.3764,0.0],[133.4761,-32.3814,0.0],[133.4821,-32.3837,0.8267],[133.4839,-32.3826,5.5435],[133.4852,-32.3805,0.7174],[133.4847,-32.3732,21.5417],[133.4871,-32.3711,1.6941],[133.4851,-32.3685,2.856]]],
[[[133.8145,-32.3554,3.0083],[133.7975,-32.3543,0.0],[133.7881,-32.3589,0.9706],[133.7943,-32.3637,0.4848],[133.8049,-32.3654,1.7404],[133.8197,-32.3763,0.0],[133.8393,-32.379,1.8572],[133.8497,-32.3856,1.3561],[133.8575,-32.3876,0.0],[133.8517,-32.3805,1.2021],[133.8451,-32.3807,2.0251],[133.8373,-32.3751,1.138],[133.8371,-32.3726,0.8447],[133.8405,-32.3734,1.9849],[133.8408,-32.372,1.5594],[133.8299,-32.3684,1.3635],[133.8359,-32.3715,1.6821],[133.8325,-32.3717,1.7952],[133.8262,-32.3687,1.2424],[133.8255,-32.3664,0.9909],[133.8213,-32.3655,0.5934],[133.8214,-32.3627,1.3119],[133.8244,-32.3631,2.0307],[133.8212,-32.3612,2.4544],[133.8206,-32.3625,1.3119],[133.8185,-32.3616,1.3214],[133.8196,-32.3634,0.9384],[133.8171,-32.3626,1.112],[133.8185,-32.3646,0.4116],[133.8112,-32.3626,0.6073],[133.8138,-32.3613,0.8916],[133.8119,-32.3594,2.4512],[133.8125,-32.3611,1.9461],[133.8103,-32.3612,1.4783],[133.8068,-32.3588,0.9739],[133.8131,-32.3585,3.5086],[133.8145,-32.3554,3.0083]]],
[[[136.0013,-33.0644,135.9394],[136.0013,-33.0543,143.1946],[135.8256,-33.0555,115.3293],[135.826,-33.1075,135.1925],[135.842,-33.1093,158.3248],[135.8523,-33.1127,139.9999],[135.8834,-33.1293,174.0701],[135.9603,-33.1337,120.418],[136.0013,-33.1334,122.1332],[136.0013,-33.0644,135.9394]]],
[[[137.6625,-32.9523,2.0719],[137.6675,-32.9541,2.0258],[137.6685,-32.9511,2.5615],[137.6639,-32.9353,3.3637],[137.6396,-32.9165,4.5936],[137.6341,-32.9176,4.1249],[137.6231,-32.9247,4.3953],[137.617,-32.9376,4.073],[137.5745,-32.9465,21.9812],[137.5831,-32.9845,17.818],[137.5761,-33.0097,14.5905],[137.5748,-33.0213,27.3925],[137.5724,-33.0246,39.5618],[137.5889,-33.0337,13.1302],[137.588,-33.035,21.628],[137.5903,-33.0361,20.9716],[137.5883,-33.039,16.9096],[137.5905,-33.0409,1.9292],[137.594,-33.0365,0.5525],[137.597,-33.0361,0.5666],[137.5933,-33.0312,0.6534],[137.5896,-33.0297,5.1702],[137.5886,-33.0269,3.0846],[137.5873,-33.0272,3.7676],[137.5858,-33.0212,5.6669],[137.5899,-33.0185,2.4084],[137.5921,-33.0212,0.2591],[137.5973,-33.0197,0.0],[137.5997,-33.0211,0.0],[137.6018,-33.0153,0.6129],[137.6011,-33.0129,0.4656],[137.5958,-33.0121,3.6555],[137.6002,-33.0079,5.1139],[137.6032,-33.0018,1.4778],[137.6006,-33.0012,0.5],[137.5963,-33.0068,5.906],[137.5951,-32.9988,4.0573],[137.6086,-32.9779,1.7816],[137.616,-32.9715,1.0599],[137.6305,-32.9642,2.2595],[137.6311,-32.9613,1.9895],[137.633,-32.9613,2.8613],[137.6346,-32.9587,1.5427],[137.6382,-32.96,0.824],[137.6414,-32.9553,1.5648],[137.6471,-32.9551,0.1828],[137.6495,-32.9532,1.2506],[137.6572,-32.9523,1.0989],[137.6572,-32.9509,2.282],[137.6625,-32.9523,2.0719]]],
[[[137.5354,-33.0098,38.5986],[137.5315,-33.0094,37.4089],[137.5329,-33.0131,26.3701],[137.5395,-33.0135,30.0707],[137.5403,-33.0119,32.9122],[137.5354,-33.0098,38.5986]]],
[[[137.5661,-33.022,34.6774],[137.5722,-33.0245,33.275],[137.5742,-33.0208,29.0581],[137.5768,-33.0003,14.0938],[137.5821,-32.9853,18.0018],[137.5737,-32.9467,21.9812],[137.5126,-32.9597,65.762],[137.5305,-33.0072,44.3131],[137.5661,-33.022,34.6774]]],
[[[137.5651,-33.0503,1.1313],[137.563,-33.0491,1.2332],[137.563,-33.0404,4.1422],[137.5555,-33.0399,4.8006],[137.5439,-33.0424,6.7982],[137.5539,-33.0695,0.9387],[137.5582,-33.0627,3.8981],[137.5562,-33.063,1.1813],[137.5565,-33.0605,1.6817],[137.5549,-33.0579,1.8668],[137.553,-33.0581,1.7777],[137.555,-33.0574,1.9206],[137.558,-33.06,3.5849],[137.5653,-33.0569,1.4195],[137.5648,-33.0557,2.0651],[137.5634,-33.0571,1.5837],[137.5639,-33.0558,2.0651],[137.5612,-33.0533,1.4397],[137.5657,-33.0549,2.7801],[137.5669,-33.0531,2.159],[137.5631,-33.0517,1.0644],[137.5664,-33.0513,2.1195],[137.5651,-33.0503,1.1313]]],
[[[133.1345,-32.6439,0.0],[133.1313,-32.6439,0.0],[133.1313,-32.6482,0.0],[133.1328,-32.648,0.0],[133.1345,-32.6439,0.0]]],
[[[133.2888,-32.5831,4.3618],[133.2874,-32.5833,4.3618],[133.2859,-32.5791,0.7371],[133.2838,-32.5789,7.4608],[133.2788,-32.5811,1.6405],[133.2763,-32.5848,0.0],[133.2777,-32.5873,15.5707],[133.2813,-32.5888,0.0],[133.2894,-32.5865,0.0],[133.2888,-32.5831,4.3618]]],
[[[133.287,-32.5548,29.0283],[133.2865,-32.5534,6.9659],[133.2837,-32.5541,2.349],[133.282,-32.5572,10.9867],[133.2826,-32.5595,7.1851],[133.286,-32.5603,14.0858],[133.286,-32.5641,22.2011],[133.2764,-32.5623,1.2343],[133.2754,-32.5655,5.1098],[133.2812,-32.5684,0.0],[133.2917,-32.5675,0.0],[133.2901,-32.5644,17.0781],[133.2948,-32.5628,14.591],[133.2988,-32.5566,0.0],[133.2907,-32.5583,35.6852],[133.287,-32.5548,29.0283]]],
[[[133.255,-32.5098,0.0],[133.2556,-32.5085,2.0301],[133.2538,-32.5069,5.4229],[133.2516,-32.5087,13.8412],[133.2494,-32.5074,0.0],[133.2492,-32.5102,0.0],[133.2515,-32.5134,0.0],[133.255,-32.5098,0.0]]],
[[[133.3361,-32.4859,19.0696],[133.3364,-32.4836,9.8402],[133.3305,-32.4841,1.1941],[133.3322,-32.4896,6.2334],[133.3342,-32.4902,21.2416],[133.3338,-32.4934,0.9343],[133.3371,-32.4899,2.6592],[133.3349,-32.4875,4.0833],[133.3361,-32.4859,19.0696]]],
[[[133.2611,-32.5076,3.4965],[133.2621,-32.508,0.0],[133.2641,-32.5044,0.0],[133.2612,-32.5063,3.4965],[133.2611,-32.5076,3.4965]]],
[[[133.3064,-32.5232,0.6845],[133.3077,-32.5231,0.6845],[133.3079,-32.5214,0.0],[133.3066,-32.522,1.9864],[133.3064,-32.5232,0.6845]]],
[[[133.2892,-32.4924,4.0953],[133.2884,-32.4906,0.4315],[133.2814,-32.4954,16.4917],[133.2773,-32.4946,5.5629],[133.2759,-32.4962,1.3262],[133.271,-32.496,0.0],[133.2678,-32.5005,0.2456],[133.2695,-32.5025,9.0481],[133.2778,-32.5042,38.337],[133.2814,-32.5102,14.7031],[133.2835,-32.5112,32.6183],[133.2822,-32.5154,33.2824],[133.2784,-32.5159,0.0],[133.2774,-32.5176,23.1679],[133.2791,-32.5191,3.6181],[133.2876,-32.5173,49.1409],[133.2886,-32.5189,42.2925],[133.2852,-32.5244,5.0552],[133.2876,-32.5285,0.0],[133.2921,-32.5243,29.048],[133.3045,-32.522,0.0],[133.3048,-32.5207,0.0],[133.3019,-32.5186,1.4578],[133.3034,-32.5153,36.4067],[133.3111,-32.5105,5.0151],[133.3097,-32.5077,27.6372],[133.3109,-32.5035,3.0429],[133.3076,-32.5023,7.6787],[133.3101,-32.4993,0.0],[133.3075,-32.4979,0.0],[133.301,-32.5033,12.9403],[133.2922,-32.5021,4.1209],[133.2854,-32.4963,5.2206],[133.2892,-32.4924,4.0953]]],
[[[133.3073,-32.4869,2.5056],[133.3108,-32.4861,16.9644],[133.3118,-32.4839,9.2127],[133.3092,-32.4835,4.8472],[133.3073,-32.4869,2.5056]]],
[[[140.9999,-29.4721,114.6373],[140.9991,-28.5386,97.3163],[140.9957,-28.0692,89.2489],[140.9975,-26.9092,73.5977],[140.9979,-26.7616,79.1524],[140.9994,-26.734,95.8258],[140.9994,-25.9964,89.5229],[133.1118,-25.9986,544.6623],[133.1088,-26.3517,449.5844],[133.1002,-26.3503,456.3929],[133.0893,-26.3588,469.2877],[133.0543,-26.4815,454.0036],[133.056,-26.5369,457.76369999999997],[133.0471,-26.6313,470.5823],[133.0995,-26.7174,475.0674],[133.3655,-26.7167,378.2547],[133.3319,-26.8081,389.0258],[133.3423,-26.8462,409.1091],[133.3514,-26.8623,414.0626],[133.3568,-26.8768,415.5209],[133.3662,-26.9111,399.2443],[133.3702,-26.9962,388.6081],[133.3715,-26.9991,385.4315],[133.4421,-27.0728,377.6468],[133.4926,-27.1469,367.5609],[133.4928,-27.2738,414.4167],[133.4465,-27.2736,387.8464],[133.4456,-27.5609,302.6487],[133.6758,-27.5604,279.5278],[133.6753,-27.8417,244.2926],[133.3599,-27.8421,281.8046],[133.3585,-28.115,272.6302],[132.9939,-28.1174,274.2822],[133.0028,-30.4868,197.2877],[133.0065,-30.487,185.1842],[133.0058,-30.5695,191.4276],[133.0003,-30.5683,194.2779],[132.9784,-30.5687,193.7801],[132.97,-30.566,193.4917],[132.9648,-30.5669,186.3066],[132.9476,-30.5635,194.8701],[132.9321,-30.5684,214.6235],[132.9158,-30.5683,213.7405],[132.9084,-30.5722,219.7157],[132.8887,-30.5713,214.9698],[132.8645,-30.5727,198.2061],[132.8586,-30.5711,201.2533],[132.8479,-30.5732,194.9362],[132.8384,-30.5701,195.031],[132.8265,-30.5633,197.1277],[132.8177,-30.5619,209.3339],[132.8085,-30.5539,211.9521],[132.7935,-30.552,231.349],[132.7851,-30.5488,211.9819],[132.779,-30.552,211.0075],[132.7723,-30.5498,210.5732],[132.7651,-30.5499,228.3274],[132.745,-30.5402,205.5445],[132.7358,-30.5405,199.2894],[132.7304,-30.5429,197.6227],[132.7198,-30.54,195.1272],[132.7072,-30.5359,174.5116],[132.7026,-30.5312,160.195],[132.6958,-30.5284,159.2254],[132.6911,-30.5243,161.9357],[132.6648,-30.5185,152.0878],[132.6661,-30.515,165.6988],[132.6601,-30.5134,171.6634],[132.6589,-30.5169,153.9757],[132.6481,-30.514,164.0675],[132.6424,-30.5149,157.1062],[132.6206,-30.509,161.2139],[132.5865,-30.5064,160.3567],[132.5709,-30.4994,164.2413],[132.5497,-30.4954,190.0707],[132.544,-30.4965,193.6231],[132.5353,-30.4938,181.665],[132.5243,-30.4955,186.1079],[132.5147,-30.4928,180.5472],[132.493,-30.492,184.6586],[132.4792,-30.4859,173.2201],[132.4381,-30.4822,159.5897],[132.4127,-30.4824,165.9835],[132.4023,-30.4863,146.7803],[132.3895,-30.4851,164.6274],[132.3679,-30.487,164.4785],[132.3556,-30.4858,159.0869],[132.3327,-30.489,149.586],[132.3206,-30.4883,152.6031],[132.313,-30.4922,142.765],[132.267,-30.4975,152.8],[132.2579,-30.5029,145.6711],[132.2338,-30.5058,172.2584],[132.2085,-30.5028,189.6161],[132.2032,-30.5009,189.4344],[132.1894,-30.5011,213.4299],[132.1769,-30.5042,238.4406],[132.1687,-30.5008,238.7376],[132.1554,-30.498,235.8193],[132.1351,-30.4853,222.9255],[132.1297,-30.4845,218.3474],[132.1217,-30.4805,211.3903],[132.1105,-30.4819,200.1778],[132.0919,-30.4724,185.3725],[132.0827,-30.4738,167.98],[132.0774,-30.4775,175.7517],[132.0726,-30.4785,175.691],[132.0278,-30.4685,138.1208],[132.0236,-30.4683,134.8417],[132.0162,-30.4709,126.3962],[132.0097,-30.4694,124.5797],[132.0036,-30.4701,127.0037],[131.9938,-30.4672,132.9339],[131.974,-30.4754,128.2039],[131.967,-30.4755,136.4087],[131.9605,-30.4734,132.5299],[131.9537,-30.4743,127.2815],[131.9492,-30.4724,128.9831],[131.9387,-30.4718,129.2799],[131.9086,-30.4636,128.4233],[131.8983,-30.4634,122.8438],[131.8925,-30.4651,121.3358],[131.8782,-30.4632,124.7752],[131.8691,-30.4589,121.5029],[131.8464,-30.4537,119.1224],[131.7984,-30.4632,102.8494],[131.6289,-30.4663,100.1025],[131.5056,-30.4814,110.9053],[131.537,-30.448,116.2663],[131.5945,-30.3476,131.4739],[131.5936,-30.3243,133.8309],[132.0017,-30.3165,231.2082],[131.9996,-29.7488,200.1595],[131.4994,-29.7483,191.0131],[131.5001,-30.3259,111.5151],[131.5926,-30.3243,133.8309],[131.5935,-30.3474,129.5379],[131.5361,-30.4475,115.8686],[131.5041,-30.4816,110.8562],[130.9856,-30.544,113.8581],[130.4177,-30.6096,120.9639],[130.4161,-30.5988,122.9936],[130.4044,-30.6001,121.9409],[130.3976,-30.5564,127.3649],[130.3905,-30.5398,124.3357],[130.3894,-30.54,123.7802],[130.3966,-30.5566,127.3649],[130.3994,-30.569,125.0948],[130.4034,-30.6002,121.8084],[130.3943,-30.6012,121.1184],[130.3959,-30.612,120.5041],[129.5181,-30.7077,141.3819],[129.5173,-30.7023,141.7283],[129.509,-30.7031,139.1431],[129.5097,-30.7085,139.9446],[129.0966,-30.7512,155.3262],[129.0014,-30.764,153.8464],[129.0013,-31.6871,5.53],[129.0167,-31.6846,0.0],[129.029,-31.6792,82.9869],[129.0528,-31.6742,60.963],[129.1006,-31.6691,8.1995],[129.1395,-31.6679,14.5123],[129.1947,-31.6587,9.1811],[129.2397,-31.656,16.1772],[129.2457,-31.6542,40.366],[129.2717,-31.652,23.179],[129.2892,-31.6518,14.7315],[129.2949,-31.6494,84.8564],[129.3174,-31.6479,77.2535],[129.3261,-31.6457,83.294],[129.338,-31.6461,62.7909],[129.3702,-31.6403,91.9474],[129.3904,-31.641,70.1302],[129.4328,-31.6372,47.8926],[129.463,-31.6318,51.5176],[129.4986,-31.6282,26.4705],[129.5278,-31.6227,78.9877],[129.5576,-31.6217,12.2429],[129.6297,-31.6157,80.2561],[129.6809,-31.6167,25.5729],[129.7024,-31.6138,72.4646],[129.7261,-31.6141,34.2903],[129.7719,-31.6079,71.437],[129.8431,-31.6077,60.4382],[129.8661,-31.604,32.4825],[129.886,-31.5956,37.1826],[129.9182,-31.5903,40.0772],[129.9384,-31.5886,38.7963],[129.9704,-31.5911,32.7052],[130.0107,-31.5861,58.1112],[130.0506,-31.5879,59.7524],[130.0873,-31.5858,66.8921],[130.1204,-31.5864,0.0],[130.1259,-31.5848,22.3902],[130.1338,-31.5798,30.4418],[130.1371,-31.5806,19.6382],[130.1522,-31.5765,21.0494],[130.2222,-31.5798,0.0],[130.2474,-31.5738,57.2434],[130.2751,-31.5737,30.2305],[130.3137,-31.5799,0.0],[130.3357,-31.5811,61.7352],[130.345,-31.5836,23.8316],[130.377,-31.5846,0.0],[130.3877,-31.5833,33.4513],[130.4068,-31.5848,0.0],[130.426,-31.5835,42.4309],[130.4888,-31.593,0.0],[130.5253,-31.5924,46.3502],[130.54,-31.5874,50.7884],[130.5679,-31.5857,55.8289],[130.5994,-31.5887,41.7804],[130.6643,-31.5997,0.0],[130.7345,-31.6061,48.6745],[130.7787,-31.6076,31.1184],[130.8061,-31.6056,15.9048],[130.8461,-31.5978,35.2265],[130.8934,-31.5798,9.7866],[130.9354,-31.5693,17.9512],[130.9573,-31.5603,17.4575],[130.9831,-31.5533,0.0],[130.987,-31.5506,23.4904],[131.0264,-31.5376,7.9342],[131.0576,-31.5215,18.3487],[131.0627,-31.5155,22.5141],[131.0656,-31.5058,42.7653],[131.0818,-31.4909,39.1745],[131.1016,-31.482,15.586],[131.1098,-31.4766,24.8685],[131.1149,-31.4758,17.2661],[131.1285,-31.4647,34.7094],[131.1486,-31.4637,1.5071],[131.1869,-31.472,3.0736],[131.228,-31.4864,4.9683],[131.2331,-31.4896,0.0],[131.2448,-31.4923,9.6804],[131.2721,-31.5045,5.4483],[131.2775,-31.5052,2.3165],[131.3185,-31.5217,4.8982],[131.3235,-31.5252,0.0],[131.3476,-31.5344,13.2508],[131.3519,-31.5374,7.1978],[131.3647,-31.5408,1.2663],[131.3722,-31.5457,2.3024],[131.3763,-31.5452,5.9433],[131.3847,-31.5487,2.7222],[131.3858,-31.5521,0.0],[131.388,-31.5521,2.4234],[131.3891,-31.5539,0.0],[131.3926,-31.5533,6.9998],[131.4025,-31.5578,12.0749],[131.4103,-31.5594,7.3576],[131.4142,-31.5624,1.1292],[131.4171,-31.562,3.8201],[131.4188,-31.564,2.1108],[131.4225,-31.5639,2.2237],[131.4353,-31.5702,1.1184],[131.4422,-31.5718,1.1903],[131.4551,-31.5788,0.0],[131.4996,-31.596,6.19],[131.57,-31.6276,4.4018],[131.683,-31.6814,0.0],[131.7586,-31.7203,1.4673],[131.7801,-31.734,1.7723],[131.8028,-31.7449,1.1417],[131.8291,-31.7623,0.0],[131.8519,-31.7789,17.7316],[131.8579,-31.7875,16.06],[131.9094,-31.8143,2.471],[131.9339,-31.8311,4.9186],[131.9541,-31.8423,9.6433],[132.0014,-31.8774,8.1003],[132.073,-31.9177,8.3463],[132.0833,-31.9295,0.0],[132.1041,-31.9415,12.6044],[132.1106,-31.9482,0.0],[132.1128,-31.9465,28.1096],[132.1173,-31.9554,4.696],[132.1157,-31.959,0.0],[132.1168,-31.9611,12.9561],[132.1217,-31.9678,12.3207],[132.1244,-31.9679,32.5794],[132.1255,-31.9708,8.5425],[132.128,-31.9713,0.0],[132.1287,-31.9748,0.0],[132.1315,-31.976,26.3873],[132.1309,-31.9803,12.6193],[132.1351,-31.9824,19.4835],[132.1459,-31.9936,0.0],[132.1477,-31.9994,10.4983],[132.1514,-32.0013,12.6688],[132.1512,-32.003,0.0],[132.1573,-32.0013,0.0],[132.1611,-32.0027,13.6341],[132.1612,-32.0047,0.0],[132.1662,-32.0047,2.3271],[132.1764,-32.0183,0.0],[132.184,-32.0182,0.0],[132.189,-32.0215,0.0],[132.1959,-32.0229,4.9117],[132.2006,-32.0273,5.2229],[132.2029,-32.0273,0.0],[132.2045,-32.0243,7.1908],[132.2075,-32.027,0.0],[132.2073,-32.0241,8.2519],[132.2132,-32.0271,3.8316],[132.2193,-32.0246,0.0],[132.22559999999999,-32.025,1.0596],[132.236,-32.0281,0.0],[132.2453,-32.028,0.9547],[132.2536,-32.0305,3.5994],[132.2554,-32.0295,21.1168],[132.2565,-32.0312,16.6354],[132.2604,-32.0322,0.0],[132.2688,-32.0317,5.0098],[132.2712,-32.0338,0.0],[132.2716,-32.0276,13.3617],[132.2767,-32.0241,29.4313],[132.2841,-32.0225,23.8871],[132.2886,-32.0229,37.7469],[132.2894,-32.0248,0.0],[132.2931,-32.0263,0.0],[132.2947,-32.0251,13.7563],[132.3034,-32.0275,0.9624],[132.3066,-32.0261,38.7365],[132.3083,-32.0284,0.0],[132.3183,-32.0263,5.4884],[132.3196,-32.0277,5.4884],[132.322,-32.0261,42.0582],[132.3231,-32.0274,1.685],[132.3251,-32.0262,35.1781],[132.3352,-32.0291,5.0391],[132.3361,-32.026,36.5515],[132.3377,-32.0269,1.0373],[132.341,-32.0227,0.0],[132.3404,-32.0181,0.0],[132.3432,-32.0145,6.1823],[132.3532,-32.0116,0.0],[132.3782,-32.0119,0.0],[132.3805,-32.0099,0.0],[132.3828,-32.0113,0.9411],[132.3839,-32.0157,2.9893],[132.3882,-32.0137,0.0],[132.3868,-32.0089,0.0],[132.3934,-32.0017,0.0],[132.4155,-31.9988,1.1743],[132.421,-31.9998,0.8358],[132.4308,-32.0068,0.0],[132.4329,-32.0097,0.0],[132.4315,-32.0118,0.7229],[132.4324,-32.0128,0.7229],[132.4379,-32.0107,18.6867],[132.4376,-32.013,2.6321],[132.4477,-32.0191,20.2104],[132.4494,-32.0227,1.8374],[132.4532,-32.024,0.0],[132.4581,-32.0219,16.3544],[132.4695,-32.0305,3.2415],[132.4732,-32.0301,0.0],[132.4761,-32.0258,1.2011],[132.4634,-32.0168,10.3741],[132.4604,-32.01,3.8559],[132.4523,-32.0089,0.7333],[132.4486,-32.0063,1.0717],[132.4451,-32.007,0.0],[132.446,-32.0088,1.2926],[132.4416,-32.007,1.0231],[132.4377,-32.0003,0.0],[132.4373,-31.9934,5.414],[132.4424,-31.9784,1.9386],[132.4498,-31.965699999999998,0.5051],[132.4677,-31.952,4.2993],[132.4825,-31.9448,0.0],[132.5376,-31.9341,1.5802],[132.5727,-31.933,0.0],[132.5962,-31.9345,8.9649],[132.63,-31.9415,0.0],[132.6438,-31.9464,0.0],[132.6458,-31.9455,0.0],[132.6532,-31.9502,0.0],[132.6537,-31.9483,2.4552],[132.6555,-31.9482,2.4552],[132.6583,-31.9552,4.0452],[132.6606,-31.9572,0.0],[132.6626,-31.9558,22.1053],[132.6663,-31.9571,3.2027],[132.6696,-31.9552,14.3698],[132.6701,-31.9569,2.1932],[132.6737,-31.9559,16.663],[132.677,-31.9576,8.4016],[132.6802,-31.9546,0.0],[132.6829,-31.955,0.0],[132.6869,-31.9507,1.3667],[132.6935,-31.9514,1.085],[132.696,-31.9542,3.6374],[132.7004,-31.9524,7.2429],[132.7036,-31.9528,22.763],[132.705,-31.9553,0.0],[132.709,-31.9537,13.9933],[132.7147,-31.9559,12.6396],[132.7179,-31.9539,0.908],[132.7306,-31.9542,4.0712],[132.7343,-31.9566,0.0],[132.7367,-31.9501,0.7559],[132.7466,-31.9493,1.5482],[132.7851,-31.9619,0.0],[132.8265,-31.9816,0.0],[132.849,-31.9946,3.7738],[132.8532,-32.0013,1.1168],[132.86,-32.0018,1.9679],[132.8701,-32.0092,11.4783],[132.8709,-32.0118,0.0],[132.8884,-32.0225,8.9723],[132.8912,-32.0257,0.0],[132.8941,-32.0262,11.3811],[132.8948,-32.0284,3.6679],[132.9011,-32.0321,14.5786],[132.9038,-32.0362,5.8867],[132.9176,-32.0405,2.9994],[132.9229,-32.0442,1.2325],[132.9252,-32.0485,0.7278],[132.9315,-32.0528,4.7703],[132.9338,-32.0525,6.7933],[132.9348,-32.0545,1.1049],[132.9473,-32.0543,7.0024],[132.9636,-32.0652,0.0],[132.9742,-32.0725,0.0],[132.9791,-32.0786,2.3535],[132.9783,-32.0812,0.0],[132.9816,-32.082,5.2196],[132.9817,-32.0893,4.8852],[132.9777,-32.0924,0.0],[132.9826,-32.0972,2.7197],[132.9821,-32.1,16.7178],[132.9797,-32.102,9.3528],[132.9796,-32.1065,0.0],[132.9831,-32.1035,8.9698],[132.9901,-32.1027,2.025],[132.9915,-32.099,0.0],[132.9881,-32.0976,16.4366],[132.9887,-32.0948,17.2612],[132.9968,-32.0879,22.1146],[133.0024,-32.0869,0.0],[133.003,-32.0837,4.5414],[133.0066,-32.0834,0.0],[133.0208,-32.0901,0.0],[133.0328,-32.098,0.0],[133.0535,-32.1041,0.0],[133.0883,-32.127,0.994],[133.1144,-32.1479,3.781],[133.1342,-32.1683,0.0],[133.1381,-32.1749,0.0],[133.14,-32.18,3.0075],[133.1369,-32.1853,0.0],[133.1337,-32.1874,4.9729],[133.1301,-32.1868,1.792],[133.131,-32.1892,17.2758],[133.1283,-32.1908,0.0],[133.129,-32.1935,0.0],[133.1313,-32.194,7.2548],[133.1333,-32.1979,18.655],[133.1308,-32.2023,0.4247],[133.1279,-32.2033,0.0],[133.1258,-32.2088,0.2198],[133.1335,-32.2041,2.1089],[133.1382,-32.1978,15.9129],[133.143,-32.1977,11.82],[133.1475,-32.1945,0.0],[133.1507,-32.1879,0.0],[133.1437,-32.1871,2.9784],[133.1428,-32.1834,7.9842],[133.1466,-32.1748,0.0],[133.1554,-32.171,1.9844],[133.1675,-32.1701,0.0],[133.1825,-32.1725,1.9723],[133.2135,-32.1855,0.0],[133.2127,-31.7521,89.5506],[133.2394,-31.7699,89.1883],[133.2856,-31.7832,105.17529999999999],[133.4578,-31.8119,101.86],[133.6105,-31.8117,100.1966],[133.6106,-31.8443,95.1359],[133.6752,-31.8443,139.598],[133.6751,-31.8554,153.3867],[133.727,-31.8554,122.2702],[133.8512,-31.8496,89.326],[133.8513,-31.8802,89.7802],[133.8884,-31.8803,84.6848],[134.0529,-31.965699999999998,80.9968],[134.0583,-31.9672,85.2373],[134.0763,-31.9787,92.1586],[134.0862,-31.9697,108.232],[134.0898,-31.9628,113.8435],[134.1201,-31.9758,139.6691],[134.1201,-31.868,133.6012],[134.2903,-31.8676,89.517],[134.2905,-32.0871,77.564],[134.5129,-32.0868,103.578],[134.513,-32.2321,86.9582],[134.8556,-32.231,89.1424],[134.8566,-32.5144,103.9697],[135.1367,-32.5141,100.7273],[135.1366,-32.6222,120.1636],[135.3085,-32.6216,121.8245],[135.3085,-32.7675,116.2544],[135.4804,-32.7673,128.0309],[135.4808,-32.912,142.6574],[135.8253,-32.9101,192.8967],[135.825,-32.7661,157.3894],[136.0014,-32.7651,195.6191],[136.0014,-32.8487,235.9477],[136.0833,-32.8387,225.5395],[136.1647,-32.8461,203.3944],[136.1779,-32.8407,195.2521],[136.2105,-32.8404,192.194],[136.2496,-32.8537,221.4057],[136.2534,-32.8569,233.574],[136.2534,-32.8151,200.1528],[136.2621,-32.8204,202.4736],[136.3139,-32.8246,229.0893],[136.3209,-32.8218,240.0222],[136.3703,-32.8113,297.3929],[136.3699,-32.8257,283.8055],[136.3918,-32.8259,341.726],[136.4178,-32.8488,337.5483],[136.4199,-32.8482,338.7757],[136.4243,-32.8535,335.2539],[136.4388,-32.8547,387.6048],[136.4386,-32.8623,360.4425],[136.453,-32.8811,352.8514],[136.4612,-32.881,338.275],[136.4577,-32.9069,327.8357],[136.4785,-32.9069,329.9691],[136.4965,-32.9381,299.631],[136.507,-32.95,293.4389],[136.51,-32.95,303.3098],[136.5094,-33.025,209.972],[136.5858,-33.0254,195.451],[136.5751,-33.0158,196.584],[136.5773,-33.0085,194.0],[136.5705,-33.0051,199.1975],[136.5716,-33.003,196.0997],[136.5768,-33.0021,195.754],[136.5781,-33.0001,195.7811],[136.5808,-33.0002,195.1754],[136.5852,-32.9969,197.8424],[136.5899,-32.9967,198.3834],[136.5948,-32.9987,195.4554],[136.5986,-32.9951,195.7205],[136.5984,-33.1246,231.081],[136.8109,-33.1239,201.7744],[136.8106,-33.327,241.1782],[137.2791,-33.3261,94.3187],[137.2788,-33.1544,121.082],[137.3135,-33.1544,119.8657],[137.3134,-33.0094,101.4869],[137.5067,-32.8776,71.129],[137.6147,-32.8775,11.9182],[137.6052,-32.7982,35.5433],[137.601,-32.7448,88.9371],[137.6025,-32.7447,93.6319],[137.5974,-32.6901,143.23],[137.596,-32.6873,144.5988],[137.5959,-32.6724,159.0848],[137.6202,-32.6731,273.4875],[137.6204,-32.3554,37.1506],[137.7606,-32.3548,10.8698],[137.7651,-32.3621,5.8645],[137.7541,-32.3773,13.3732],[137.7565,-32.3833,7.7968],[137.7508,-32.3897,2.6111],[137.7522,-32.4003,3.0455],[137.7475,-32.4027,9.9159],[137.7491,-32.4103,3.5548],[137.7467,-32.412,4.1161],[137.7486,-32.4154,1.3257],[137.9664,-32.4153,452.963],[137.9639,-32.3987,474.2838],[137.9676,-32.3777,655.7067],[137.9708,-32.3683,631.1293],[137.9693,-32.3631,654.7791],[137.971,-32.359,631.6186],[137.9718,-32.3459,621.4182],[137.9734,-32.3438,639.741],[137.9739,-32.3298,716.0219],[137.9715,-32.3292,671.8074],[137.9677,-32.3322,698.7314],[137.9606,-32.3313,781.6965],[137.9597,-32.3267,774.8508],[137.9627,-32.3235,789.1158],[137.9621,-32.3217,808.903],[137.9682,-32.3161,796.5855],[137.9668,-32.3121,805.7574],[137.9689,-32.3066,790.7795],[137.9621,-32.2992,621.986],[137.9603,-32.2992,604.1229],[137.963,-32.2943,607.6897],[137.9689,-32.293,610.4048],[137.9672,-32.2911,649.0855],[137.9677,-32.2858,623.2432],[137.9696,-32.2849,578.1995],[137.9703,-32.2812,568.7476],[137.9739,-32.2793,546.7924],[137.9713,-32.2731,583.4568],[137.9673,-32.2699,528.5405],[137.9632,-32.2699,491.7456],[137.9634,-32.2368,646.1223],[137.9781,-32.1514,800.8248],[138.0843,-31.9762,319.2942],[138.0846,-31.7397,72.9497],[138.7543,-31.7398,457.5969],[138.7543,-31.7994,597.1609],[138.7324,-31.8049,634.4818],[138.7006,-31.805,606.3844],[138.6997,-31.8075,623.605],[138.695,-31.8109,602.3069],[138.6817,-31.8125,584.511],[138.6755,-31.8183,585.986],[138.6633,-31.8263,560.3738],[138.6622,-31.8307,556.8352],[138.6634,-31.8354,555.6872],[138.6609,-31.8383,544.0341],[138.6539,-31.8422,543.6603],[138.6502,-31.8485,543.8887],[138.6413,-31.8514,517.2388],[138.6336,-31.8705,530.3124],[138.6371,-31.8699,536.759],[138.6437,-31.876,582.0369],[138.6313,-31.8916,498.6772],[138.6326,-31.894,516.6187],[138.6384,-31.8971,522.933],[138.6369,-31.9,507.4278],[138.6403,-31.91,573.0917],[138.642,-31.9103,550.9423],[138.6437,-31.9179,567.739],[138.6519,-31.9306,578.1126],[138.6527,-31.9497,543.4164],[138.6563,-31.9663,568.6523],[138.6561,-31.9676,568.6523],[138.6401,-31.9754,527.4569],[138.7546,-31.9752,716.0857],[138.7545,-32.1596,604.6879],[138.8254,-32.1597,481.1992],[138.8265,-32.4147,660.9829],[138.8901,-32.4146,331.5904],[138.8902,-32.5947,405.5858],[139.3535,-32.594,342.7162],[139.3553,-33.619,150.5397],[139.3566,-33.6546,142.9233],[139.3558,-33.803,127.67529999999999],[139.6998,-33.8008,54.0469],[139.6999,-33.8752,44.9046],[139.8571,-33.8753,59.9601],[139.8572,-33.9436,42.5252],[140.2159,-33.9453,58.7638],[140.2161,-34.174,8.4978],[140.2354,-34.1806,6.0],[140.2453,-34.1732,7.3513],[140.2557,-34.1694,15.5492],[140.2707,-34.1749,7.2059],[140.2825,-34.1838,11.3104],[140.2939,-34.1868,15.2014],[140.3068,-34.1731,9.423],[140.3226,-34.1613,6.954],[140.3235,-34.1515,56.952],[140.3202,-34.1513,56.2799],[140.3202,-34.1498,58.7753],[140.3239,-34.1464,64.5338],[140.3284,-34.1458,60.7283],[140.3284,-34.1364,63.3214],[140.3548,-34.1363,56.2176],[140.3553,-34.1327,57.106],[140.3702,-34.1209,56.8606],[140.3742,-34.1194,52.5086],[140.4062,-34.1335,34.6913],[140.4731,-34.1324,30.695],[140.4731,-34.1474,25.7907],[140.5078,-34.1473,48.9112],[140.5079,-34.176,39.5268],[140.543,-34.176,26.8052],[140.5429,-34.2047,37.4718],[140.6455,-34.2049,45.8451],[140.6452,-34.1987,47.7816],[140.6573,-34.1552,53.9391],[140.6578,-34.0853,49.3005],[140.6353,-34.0643,54.2077],[140.6641,-34.0639,26.668],[140.665,-34.0615,20.9506],[140.6996,-34.0651,19.9951],[140.7016,-34.0654,16.528],[140.7017,-34.0681,15.8363],[140.7055,-34.0722,16.7306],[140.7139,-34.0757,16.7863],[140.7195,-34.0748,15.8453],[140.7307,-34.0878,15.5],[140.7263,-34.0907,16.2567],[140.7298,-34.1011,17.8013],[140.7277,-34.1031,16.6868],[140.7286,-34.1076,16.1641],[140.7342,-34.1131,17.627],[140.7368,-34.1127,16.6225],[140.7366,-34.1176,16.2633],[140.7407,-34.1212,16.6524],[140.7467,-34.1213,15.6054],[140.7471,-34.123,16.8045],[140.7528,-34.1271,15.8428],[140.7506,-34.1297,15.6439],[140.7505,-34.1337,15.4847],[140.7579,-34.1426,17.0211],[140.761,-34.1437,17.1446],[140.7574,-34.1495,16.253],[140.7602,-34.1523,16.6949],[140.7641,-34.1528,16.2424],[140.7648,-34.1546,17.8379],[140.7614,-34.1562,17.0518],[140.761,-34.1598,13.5],[140.7577,-34.1638,17.9423],[140.7584,-34.1649,13.5],[140.773,-34.1595,13.9465],[140.7773,-34.157,13.5],[140.7797,-34.1534,20.9901],[140.7828,-34.1402,14.5325],[140.7771,-34.1412,15.4266],[140.7734,-34.1397,15.025],[140.7731,-34.1382,17.5184],[140.7798,-34.1318,16.676],[140.7821,-34.1244,14.4534],[140.7724,-34.1209,15.0178],[140.7718,-34.1156,14.0],[140.775,-34.1148,15.0454],[140.7833,-34.1175,14.0],[140.7916,-34.117,14.0],[140.7949,-34.1141,14.0],[140.7962,-34.1094,16.0808],[140.7921,-34.1055,14.0],[140.7823,-34.105,16.5683],[140.7762,-34.1076,14.7807],[140.7697,-34.1057,15.9303],[140.7626,-34.1095,14.7294],[140.7581,-34.1095,15.7383],[140.7567,-34.1055,19.2208],[140.7667,-34.1032,14.5],[140.7676,-34.099,17.8187],[140.7578,-34.0904,16.8634],[140.7539,-34.0794,18.2046],[140.7434,-34.0775,15.233],[140.7426,-34.0737,19.2626],[140.7441,-34.0712,16.5637],[140.7528,-34.0618,15.9036],[140.7665,-34.0594,17.2245],[140.7972,-34.071,17.5172],[140.8091,-34.072,18.489],[140.8054,-34.0694,15.4982],[140.806,-34.0671,15.7254],[140.8142,-34.0677,16.5646],[140.8156,-34.066,15.286],[140.8097,-34.0636,17.6049],[140.8088,-34.0617,15.0],[140.8133,-34.057,17.509],[140.8127,-34.0494,15.4625],[140.8158,-34.0486,15.45],[140.8195,-34.0532,17.6249],[140.8334,-34.0535,22.8237],[140.8337,-34.0516,15.9453],[140.8269,-34.052,17.0778],[140.8233,-34.0491,16.1597],[140.8236,-34.0424,15.5],[140.8275,-34.0402,15.5],[140.839,-34.0396,17.6236],[140.8428,-34.038,15.5],[140.8425,-34.0328,16.6296],[140.8342,-34.0286,17.2797],[140.8352,-34.0253,15.9177],[140.8442,-34.0272,15.945],[140.8454,-34.0256,19.2537],[140.8444,-34.0201,17.7088],[140.8472,-34.0183,17.4078],[140.8537,-34.0195,16.4263],[140.8551,-34.0144,23.9159],[140.8573,-34.0133,16.0],[140.864,-34.0141,19.8265],[140.864,-34.0207,16.7016],[140.8667,-34.022,16.5334],[140.8687,-34.0206,16.0],[140.8674,-34.0165,16.6396],[140.8691,-34.0146,17.0074],[140.8722,-34.0149,18.6175],[140.8779,-34.0204,18.3528],[140.8821,-34.0202,18.127],[140.8871,-34.0169,16.8373],[140.8882,-34.0112,16.0],[140.8809,-34.0018,16.622],[140.88,-33.9956,23.1445],[140.8842,-33.9945,17.8723],[140.8902,-34.0007,21.7401],[140.8938,-34.0012,19.3193],[140.899,-33.9998,23.1389],[140.9085,-33.9926,18.0],[140.9143,-33.9847,21.0575],[140.9131,-33.9805,21.3982],[140.9085,-33.9792,19.0808],[140.9032,-33.9825,18.0],[140.8976,-33.9825,19.0548],[140.8927,-33.9783,18.3213],[140.8916,-33.9752,19.0441],[140.8934,-33.9715,18.477],[140.9052,-33.9689,18.6458],[140.9236,-33.974,18.3053],[140.9238,-33.9716,18.5072],[140.9193,-33.9689,23.0261],[140.9206,-33.9649,19.3236],[140.9249,-33.9652,21.0615],[140.9276,-33.9676,19.1662],[140.9326,-33.9656,18.5],[140.936,-33.9687,18.6918],[140.9386,-33.969,18.7471],[140.9496,-33.9629,20.2155],[140.9538,-33.9633,19.1443],[140.9587,-33.9684,18.5],[140.959,-33.9791,18.9607],[140.9657,-33.9807,20.1305],[140.9693,-33.9835,21.9711],[140.9677,-33.9898,22.8715],[140.9683,-33.9961,21.6761],[140.9707,-33.9979,19.3176],[140.9763,-33.9972,19.6055],[140.9806,-34.0,18.9741],[140.9808,-34.0046,19.4492],[140.9759,-34.0073,20.3992],[140.9753,-34.0092,18.5],[140.9867,-34.0102,19.9936],[140.9805,-34.016,18.5],[140.9854,-34.0205,27.0573],[140.9854,-34.0268,19.7863],[140.9873,-34.0297,20.8405],[140.9898,-34.0317,20.4382],[140.9934,-34.0311,25.1096],[140.9947,-34.0229,25.9786],[140.9976,-34.0199,18.5],[141.003,-34.0219,21.6462],[140.9999,-29.4721,114.6373]],
[[133.6745,-27.0249,349.9223],[133.6412,-27.0474,377.8579],[133.6354,-27.0678,373.9244],[133.6386,-27.1201,386.2659],[133.6428,-27.1376,383.665],[133.4926,-27.1381,369.1013],[133.4926,-27.1434,367.8516],[133.4438,-27.0718,378.4977],[133.3722,-26.9958,388.7355],[133.3713,-26.9768,384.231],[133.3732,-26.974,385.2772],[133.3812,-26.9737,380.2333],[133.381,-26.9692,380.7474],[133.371,-26.9696,384.7849],[133.3683,-26.9109,396.4713],[133.3588,-26.8763,413.367],[133.3532,-26.8616,416.0034],[133.3424,-26.8424,415.3253],[133.3339,-26.8079,389.1763],[133.3676,-26.7167,378.2079],[133.4367,-26.7182,363.2586],[133.5013,-26.7168,353.5255],[133.7449,-26.7182,320.3357],[133.6745,-27.0249,349.9223]],
[[134.8072,-29.0517,212.8184],[134.7075,-29.0508,218.7272],[134.7078,-29.0279,223.575],[134.6941,-28.9816,216.4238],[134.7359,-28.971,191.0017],[134.8097,-29.003,184.8325],[134.8091,-29.0517,211.1091],[134.8072,-29.0517,212.8184]],
[[136.9152,-30.6235,106.8814],[136.843,-30.6235,100.5262],[136.843,-30.5001,96.7871],[136.8555,-30.5001,97.2052],[136.8524,-30.4874,96.1803],[136.8952,-30.4743,103.954],[136.8979,-30.4808,105.3703],[136.8979,-30.5001,102.9371],[136.9245,-30.5001,102.9785],[136.9152,-30.6235,106.8814]]]]}}