{"type":"Feature","properties":{"GID_2":"AUS.8.65_1","GID_0":"AUS","country":"Australia","GID_1":"AUS.8_1","state":"SouthAustralia","NL_NAME_1":"NA","county":"Walkerville","VARNAME_2":"NA","NL_NAME_2":"NA","TYPE_2":"Municipality","ENGTYPE_2":"Municipality","CC_2":"48260","HASC_2":"AU.SA.WV","name":"Walkerville.county"},
"geometry":{"type": "MultiPolygon","coordinates": [[[[138.6128,-34.9095,31.2982],[138.6153,-34.9052,31.3054],[138.6139,-34.8997,36.6713],[138.6183,-34.901,36.0613],[138.618,-34.8957,38.6806],[138.6223,-34.8963,39.1174],[138.6217,-34.8935,37.546],[138.6266,-34.8938,41.4919],[138.6283,-34.89,41.193],[138.6352,-34.8874,45.5506],[138.6264,-34.8794,62.1985],[138.6095,-34.8933,54.6911],[138.6034,-34.8936,54.671],[138.5973,-34.8986,51.2295],[138.6099,-34.9022,37.4366],[138.6127,-34.9054,34.7041],[138.6128,-34.9095,31.2982]]]]}}