{"type":"Feature","properties":{"GID_2":"AUS.5.109_1","GID_0":"AUS","country":"Australia","GID_1":"AUS.5_1","state":"NewSouthWales","NL_NAME_1":"NA","county":"PortMacquarie-Hastings","VARNAME_2":"NA","NL_NAME_2":"NA","TYPE_2":"Area","ENGTYPE_2":"Area","CC_2":"16380","HASC_2":"NA","name":"PortMacquarie-Hastings.county"},
"geometry":{"type": "MultiPolygon","coordinates": [[[[152.935,-31.4465,0.0],[152.9351,-31.4466,0.0],[152.9352,-31.4464,0.0],[152.9349,-31.4464,0.0],[152.935,-31.4465,0.0]]],
[[[152.9271,-31.4433,3.3669],[152.9274,-31.4434,3.3669],[152.9276,-31.4432,3.3669],[152.9273,-31.4432,3.3669],[152.9271,-31.4433,3.3669]]],
[[[152.9314,-31.4328,0.0],[152.9315,-31.433,0.0],[152.9317,-31.433,0.0],[152.9315,-31.4327,0.0],[152.9314,-31.4328,0.0]]],
[[[152.9232,-31.4294,0.0],[152.9233,-31.4296,2.751],[152.9234,-31.4291,0.0],[152.9232,-31.4293,0.0],[152.9232,-31.4294,0.0]]],
[[[152.9212,-31.4292,0.0],[152.9213,-31.4293,0.0],[152.9214,-31.4293,0.0],[152.9213,-31.4291,0.0],[152.9212,-31.4292,0.0]]],
[[[152.9211,-31.4289,0.0],[152.9211,-31.429,0.0],[152.9212,-31.429,0.0],[152.9213,-31.4288,0.0],[152.9211,-31.4289,0.0]]],
[[[152.8027,-31.7278,76.5621],[152.8044,-31.7281,17.8007],[152.8033,-31.7258,16.3344],[152.8051,-31.7256,0.0],[152.804,-31.7226,0.0],[152.8001,-31.7205,10.5782],[152.8011,-31.7197,0.0],[152.7996,-31.7181,0.2358],[152.801,-31.7181,0.0],[152.795,-31.7169,0.7367],[152.7928,-31.712,0.0],[152.7934,-31.7055,0.0],[152.7989,-31.6919,0.0],[152.8074,-31.6786,0.0],[152.8252,-31.6583,5.4378],[152.835,-31.6493,2.0766],[152.8404,-31.6483,0.0],[152.8422,-31.6448,0.0],[152.8436,-31.6454,0.0],[152.8495,-31.6413,9.6201],[152.8481,-31.6401,1.9054],[152.8422,-31.6421,14.4279],[152.838,-31.6392,0.0],[152.8381,-31.6362,0.0],[152.8348,-31.6347,0.0],[152.834,-31.6289,0.0],[152.8398,-31.6101,2.0289],[152.8429,-31.6043,6.7643],[152.8483,-31.6016,0.0],[152.8479,-31.5982,10.4211],[152.8401,-31.5894,0.0],[152.8412,-31.5828,4.0096],[152.8453,-31.5729,2.0906],[152.8598,-31.5496,0.0],[152.8769,-31.5296,2.7668],[152.9257,-31.4826,3.3371],[152.9333,-31.4763,0.0],[152.9378,-31.4761,13.5362],[152.9381,-31.472,24.8181],[152.9342,-31.4673,6.2704],[152.9355,-31.46,12.7443],[152.9368,-31.4593,1.4541],[152.9332,-31.4581,7.8488],[152.9312,-31.4526,0.0],[152.9334,-31.4476,1.5156],[152.9301,-31.4466,24.3831],[152.9268,-31.4432,3.3669],[152.9239,-31.4301,2.751],[152.9194,-31.429,1.5299],[152.9147,-31.4237,0.0],[152.9152,-31.408,0.0],[152.9221,-31.3884,7.0425],[152.9377,-31.3608,6.1667],[152.9598,-31.3311,2.2277],[152.9678,-31.3231,0.0],[152.9721,-31.3226,7.1293],[152.9714,-31.3203,9.4404],[152.9739,-31.3149,0.5695],[152.9764,-31.3141,0.0],[152.9743,-31.3118,0.9785],[152.9697,-31.3126,0.0],[152.9666,-31.3105,0.0],[152.8645,-31.2959,2.3933],[152.8642,-31.2877,8.4356],[152.8523,-31.286,18.924],[152.8522,-31.2878,4.8902],[152.8148,-31.2827,87.3729],[152.8142,-31.2814,87.3729],[152.8165,-31.2809,85.7176],[152.8145,-31.2774,59.0272],[152.8142,-31.2701,53.7208],[152.824,-31.2715,64.6474],[152.8294,-31.2451,41.2684],[152.8154,-31.243,64.616],[152.8175,-31.2403,42.7267],[152.8162,-31.2363,59.8723],[152.8181,-31.2278,28.2284],[152.763,-31.2194,54.4992],[152.7626,-31.2224,113.5652],[152.7607,-31.2221,85.1789],[152.7601,-31.2258,93.2901],[152.762,-31.226,101.3932],[152.7616,-31.2283,78.498],[152.7303,-31.224,162.378],[152.7327,-31.2145,186.2557],[152.7476,-31.2158,92.2467],[152.7516,-31.1947,114.2869],[152.7393,-31.1929,102.5391],[152.7404,-31.1873,127.8834],[152.7262,-31.1852,291.958],[152.728,-31.1763,150.0122],[152.7192,-31.1749,132.2183],[152.7177,-31.1825,234.1502],[152.706,-31.1807,169.1159],[152.7094,-31.1635,122.9158],[152.704,-31.1655,140.1969],[152.7061,-31.1506,157.1952],[152.6996,-31.1514,192.0402],[152.6933,-31.1415,274.0183],[152.69,-31.1398,322.0629],[152.6891,-31.1423,343.3884],[152.6812,-31.1408,251.1461],[152.6805,-31.1443,242.7523],[152.6786,-31.145,230.2253],[152.679,-31.149,236.1393],[152.6759,-31.1497,200.5214],[152.6738,-31.1535,245.0632],[152.6714,-31.1529,242.2816],[152.6688,-31.149,226.7969],[152.6631,-31.1513,174.5533],[152.6578,-31.1492,185.9127],[152.6497,-31.1545,324.3205],[152.6405,-31.1497,276.969],[152.6375,-31.1438,281.7726],[152.6322,-31.1386,307.075],[152.6285,-31.139,409.1142],[152.6248,-31.1357,445.1944],[152.62,-31.1348,435.3832],[152.6145,-31.136,531.6047],[152.6094,-31.1304,518.5961],[152.6059,-31.1298,484.9785],[152.5989,-31.1239,451.4429],[152.5936,-31.1245,442.3798],[152.5888,-31.1282,325.8549],[152.5777,-31.1281,257.4944],[152.5742,-31.1316,255.104],[152.5671,-31.1284,267.237],[152.5616,-31.1296,251.0401],[152.5606,-31.1418,343.2129],[152.5567,-31.1453,366.3281],[152.5562,-31.1482,415.3757],[152.5506,-31.1507,479.1143],[152.5478,-31.1484,487.1496],[152.5412,-31.152,402.4531],[152.5397,-31.1629,612.3403],[152.5252,-31.1646,621.3382],[152.5197,-31.1671,691.6842],[152.5139,-31.1676,811.3695],[152.5064,-31.1631,868.1892],[152.4973,-31.1649,838.5833],[152.491,-31.1681,1041.2471],[152.4814,-31.1644,930.8889],[152.4708,-31.1663,829.0568],[152.4624,-31.1596,886.2264],[152.459,-31.1595,969.5767],[152.4558,-31.1558,973.2975],[152.45,-31.1599,1029.2583],[152.4466,-31.159,1105.2596],[152.4422,-31.1606,1173.4519],[152.4327,-31.1584,1161.1815],[152.4253,-31.1625,1113.6522],[152.4195,-31.1613,1082.1757],[152.4131,-31.1654,1084.7319],[152.4062,-31.1631,1057.1893],[152.3983,-31.1643,1078.0759],[152.3937,-31.1668,1064.6184],[152.3891,-31.1646,1053.1484],[152.3865,-31.1667,1092.2323],[152.3822,-31.1648,1076.4946],[152.3802,-31.1613,1023.6831],[152.369,-31.1558,1112.902],[152.3716,-31.1493,1143.4479],[152.3667,-31.1405,1150.1417],[152.3682,-31.1364,1105.4794],[152.3561,-31.127,1130.6947],[152.3548,-31.1219,1123.9568],[152.3496,-31.117,1210.134],[152.3452,-31.1173,1191.3416],[152.3424,-31.1146,1182.2704],[152.3389,-31.114,1160.3665],[152.3366,-31.1163,1128.4539],[152.3435,-31.1244,1122.7236],[152.3426,-31.1283,1125.1205],[152.3333,-31.1264,1105.278],[152.3331,-31.1277,1105.278],[152.3309,-31.1275,1117.6418],[152.3166,-31.2029,1017.3654],[152.2547,-31.1945,982.9368],[152.2576,-31.2009,996.6521],[152.2517,-31.2063,1051.709],[152.2427,-31.2045,1066.5267],[152.2402,-31.2009,1015.9128],[152.2341,-31.1975,1062.7463],[152.2324,-31.1996,1069.2004],[152.2321,-31.2055,1091.5072],[152.2234,-31.2079,1009.5723],[152.2173,-31.2022,852.9407],[152.2125,-31.202,918.0433],[152.2094,-31.1976,927.7138],[152.2054,-31.1977,952.7352],[152.1997,-31.1936,950.6772],[152.179,-31.1995,1079.3817],[152.1753,-31.1982,1081.3696],[152.1707,-31.1907,1049.053],[152.1652,-31.1908,1061.9331],[152.1638,-31.1887,1058.6868],[152.1605,-31.1888,1084.9695],[152.1572,-31.1863,1086.8313],[152.1518,-31.1881,1075.7949],[152.147,-31.1981,1060.1914],[152.1482,-31.2048,1077.5824],[152.1525,-31.2059,1084.9734],[152.1541,-31.2093,1073.7856],[152.1527,-31.2148,1054.4238],[152.1535,-31.219,1055.7783],[152.1496,-31.2238,1072.8751],[152.1526,-31.2275,1093.0537],[152.1606,-31.23,1076.5559],[152.1597,-31.2354,1091.1691],[152.161,-31.2402,1090.1731],[152.1523,-31.2686,1127.0447],[152.1529,-31.273,1103.042],[152.1475,-31.2799,1129.4268],[152.1419,-31.2821,1119.7397],[152.1389,-31.2854,1106.1875],[152.1349,-31.2799,1112.7368],[152.1325,-31.2795,1123.9257],[152.1298,-31.2814,1112.3221],[152.1237,-31.2787,1090.7952],[152.0996,-31.3931,772.8293],[152.0966,-31.3883,805.7344],[152.0923,-31.3921,828.9397],[152.0873,-31.3917,809.8561],[152.0784,-31.3984,814.595],[152.0769,-31.4013,843.0997],[152.0747,-31.4003,850.6295],[152.0736,-31.4027,853.8841],[152.0706,-31.4037,857.9654],[152.069,-31.4032,892.1763],[152.0695,-31.3998,907.886],[152.0679,-31.3984,911.8955],[152.0656,-31.4091,875.0245],[152.0619,-31.4292,574.3643],[152.0645,-31.4306,594.6997],[152.0643,-31.4331,542.8181],[152.0658,-31.4334,542.8181],[152.0647,-31.4386,541.3717],[152.0684,-31.4427,529.206],[152.0703,-31.4411,549.6138],[152.0757,-31.4457,521.4067],[152.0769,-31.4447,519.8461],[152.0794,-31.4473,526.2706],[152.0829,-31.448,516.7098],[152.0853,-31.4498,504.7682],[152.0878,-31.4562,482.9654],[152.0858,-31.4597,469.517],[152.0834,-31.4589,451.1116],[152.0799,-31.4621,448.6468],[152.0808,-31.4717,483.493],[152.0785,-31.4735,475.727],[152.0823,-31.4751,418.6795],[152.0807,-31.4799,400.5837],[152.0844,-31.4837,367.4541],[152.0817,-31.4852,358.1728],[152.0834,-31.4873,365.872],[152.0821,-31.4906,355.9163],[152.0871,-31.4962,342.0066],[152.0831,-31.4995,314.9212],[152.0854,-31.5026,303.9265],[152.0857,-31.5072,287.7584],[152.1641,-31.5171,839.9357],[152.1652,-31.5135,903.4847],[152.1633,-31.5072,829.4788],[152.1657,-31.5001,844.7133],[152.1638,-31.4942,821.5201],[152.1602,-31.4909,814.509],[152.1592,-31.4826,817.8333],[152.154,-31.4794,953.2405],[152.1538,-31.4741,938.4752],[152.1507,-31.4684,962.827],[152.1512,-31.458,927.4277],[152.1473,-31.443,909.6411],[152.1545,-31.4458,901.5156],[152.1601,-31.4442,884.077],[152.1641,-31.4459,902.5005],[152.1672,-31.4508,906.2527],[152.1722,-31.452,871.9418],[152.1726,-31.4543,887.781],[152.1771,-31.4568,846.0814],[152.1751,-31.4701,722.7819],[152.1772,-31.4748,680.4258],[152.1797,-31.477,673.7057],[152.1879,-31.4792,665.3536],[152.1875,-31.487,639.657],[152.183,-31.4903,639.2582],[152.1828,-31.4965,606.3016],[152.1812,-31.4972,627.4716],[152.1821,-31.5043,599.5142],[152.1805,-31.5061,598.3435],[152.1821,-31.5081,597.3768],[152.1797,-31.5114,590.5809],[152.1798,-31.5165,609.3497],[152.1782,-31.5191,583.1063],[152.1809,-31.52,580.6498],[152.1823,-31.523,600.2113],[152.1908,-31.5269,555.7328],[152.1909,-31.5303,559.907],[152.1947,-31.532,555.9244],[152.1937,-31.5339,573.2903],[152.1982,-31.5382,526.2028],[152.2011,-31.5376,519.6017],[152.2055,-31.54,502.437],[152.2101,-31.5379,484.1729],[152.2097,-31.5363,484.1729],[152.2132,-31.5333,485.1375],[152.2124,-31.5303,497.384],[152.2097,-31.5293,490.0558],[152.2105,-31.5277,477.8663],[152.2126,-31.5278,491.2902],[152.2128,-31.524,481.8279],[152.2171,-31.5186,475.4222],[152.2165,-31.5147,468.4506],[152.2138,-31.5141,459.9924],[152.2161,-31.5137,454.7438],[152.2148,-31.5115,462.7237],[152.2179,-31.507,464.9258],[152.2198,-31.5063,461.2492],[152.2235,-31.5088,456.6264],[152.2299,-31.5095,442.9345],[152.2359,-31.5077,452.2303],[152.2375,-31.5087,462.3848],[152.239,-31.5047,455.8811],[152.2412,-31.5049,463.243],[152.2409,-31.503,450.2984],[152.2448,-31.5043,438.6291],[152.2501,-31.4986,427.4691],[152.2535,-31.4916,409.7419],[152.2513,-31.4897,420.9588],[152.2547,-31.4871,366.113],[152.2657,-31.4921,252.6884],[152.2687,-31.4976,238.0893],[152.2717,-31.4988,233.114],[152.2702,-31.5028,223.1994],[152.2716,-31.5044,229.3931],[152.2712,-31.507,229.7733],[152.274,-31.507,213.1282],[152.2815,-31.5177,205.7063],[152.2789,-31.5209,206.9094],[152.2806,-31.5234,188.402],[152.2857,-31.5206,189.8066],[152.288,-31.521,185.046],[152.2892,-31.5189,190.6624],[152.2923,-31.5206,180.6044],[152.2941,-31.5243,174.2223],[152.2963,-31.5243,181.0296],[152.3023,-31.5185,165.3881],[152.3028,-31.5158,194.0701],[152.3048,-31.5151,160.2744],[152.3056,-31.5128,182.4692],[152.3172,-31.5134,159.6191],[152.322,-31.5121,157.7902],[152.3257,-31.5137,158.7099],[152.3302,-31.5132,155.1531],[152.3353,-31.5158,154.7692],[152.3318,-31.5186,139.7394],[152.3335,-31.5215,156.3763],[152.3316,-31.5251,159.1946],[152.3416,-31.5251,125.8557],[152.3427,-31.5257,119.4466],[152.3419,-31.5289,132.9531],[152.3451,-31.5307,131.7199],[152.3396,-31.5346,129.9576],[152.3362,-31.5344,136.216],[152.3314,-31.54,163.023],[152.3317,-31.5418,130.1049],[152.3384,-31.5474,140.8867],[152.3417,-31.5476,147.9531],[152.3399,-31.5495,136.1585],[152.3427,-31.5514,149.2019],[152.341,-31.5533,143.1983],[152.3374,-31.5528,154.3154],[152.3329,-31.5553,149.0545],[152.3426,-31.5579,185.0553],[152.3412,-31.5607,152.0184],[152.3426,-31.566,186.6015],[152.338,-31.5687,157.5673],[152.3436,-31.5701,153.9305],[152.34,-31.572,156.9446],[152.3406,-31.5738,165.0039],[152.3492,-31.5764,178.3789],[152.3439,-31.5839,175.5565],[152.3356,-31.5832,173.2757],[152.3328,-31.5875,180.8061],[152.3276,-31.589,186.5814],[152.3291,-31.5937,199.047],[152.3232,-31.6007,215.8677],[152.319,-31.5998,229.0479],[152.3175,-31.6016,261.9095],[152.3174,-31.6119,399.5452],[152.3119,-31.6197,600.0334],[152.3129,-31.6233,605.4929],[152.3091,-31.6234,617.9446],[152.3084,-31.6247,630.8867],[152.3094,-31.627,638.396],[152.3117,-31.6273,620.0417],[152.3142,-31.6267,621.5474],[152.3152,-31.6244,609.6311],[152.3188,-31.6245,629.3374],[152.3233,-31.622,639.8532],[152.3332,-31.6231,577.0298],[152.3352,-31.6144,365.7753],[152.3484,-31.6163,511.7708],[152.347,-31.6237,471.3044],[152.3561,-31.625,329.9557],[152.3511,-31.6509,200.0812],[152.3583,-31.6534,254.6427],[152.3601,-31.6519,249.4376],[152.362,-31.6536,281.7065],[152.3636,-31.6517,266.1631],[152.3706,-31.6498,297.0683],[152.3763,-31.6517,327.4121],[152.383,-31.6505,330.0424],[152.3855,-31.6546,442.9207],[152.3949,-31.6559,554.8],[152.3917,-31.665,747.9124],[152.3987,-31.6654,621.92],[152.4006,-31.6675,638.3688],[152.4071,-31.6682,698.0066],[152.4088,-31.6647,726.0663],[152.4071,-31.6612,743.2064],[152.408,-31.6591,732.7025],[152.4156,-31.6536,695.067],[152.4186,-31.654,690.0708],[152.4201,-31.6459,690.3512],[152.427,-31.647,794.4799],[152.4266,-31.6489,680.9633],[152.4338,-31.6499,566.45],[152.4334,-31.652,530.082],[152.4393,-31.6528,564.2212],[152.4397,-31.6511,627.0283],[152.4443,-31.6519,615.0486],[152.4451,-31.6479,709.2205],[152.4503,-31.6452,727.8724],[152.4562,-31.648,678.806],[152.4605,-31.6472,727.1593],[152.4648,-31.6405,684.1536],[152.4741,-31.6426,644.5154],[152.4796,-31.6389,610.0724],[152.4905,-31.6406,534.505],[152.5029,-31.6371,520.8767],[152.4995,-31.6564,496.8092],[152.5017,-31.6609,467.741],[152.5369,-31.6653,263.5506],[152.5358,-31.6711,305.0179],[152.5433,-31.6722,260.5417],[152.5465,-31.6745,280.9676],[152.5578,-31.6748,192.1703],[152.5568,-31.68,168.2345],[152.5677,-31.682,290.7593],[152.5671,-31.6853,201.7477],[152.5772,-31.6862,189.9522],[152.5768,-31.6889,190.304],[152.5955,-31.6914,108.1932],[152.5948,-31.6952,136.2405],[152.6008,-31.696,146.5212],[152.6013,-31.6927,136.5823],[152.6075,-31.6935,163.7535],[152.6077,-31.6925,146.8014],[152.6285,-31.6941,155.9954],[152.6393,-31.6956,169.0642],[152.639,-31.6973,148.0503],[152.6724,-31.7016,462.6399],[152.6805,-31.704,434.0784],[152.6844,-31.7011,514.4443],[152.6861,-31.7018,391.5076],[152.6863,-31.7044,357.4427],[152.7215,-31.7095,6.577],[152.7283,-31.7017,14.7087],[152.7274,-31.7064,8.5266],[152.7312,-31.7135,3.424],[152.7447,-31.717,5.7337],[152.7355,-31.7245,10.8979],[152.7459,-31.7226,26.0822],[152.7472,-31.721,21.4804],[152.8027,-31.7278,76.5621]]]]}}