{"type": "Feature","bbox": [140.3202,-34.4563,140.667,-34.1194],"geometry": {"type": "MultiPolygon","coordinates": [[[[140.5995,-34.3231,11.281],[140.5885,-34.3186,10.5],[140.5864,-34.3146,10.5],[140.5965,-34.2914,12.5259],[140.6026,-34.2888,10.5],[140.6112,-34.2889,11.2819],[140.6189,-34.2928,11.8642],[140.6254,-34.2938,10.5],[140.6301,-34.2926,11.1575],[140.633,-34.2883,14.0244],[140.6327,-34.2852,10.5],[140.625,-34.2748,15.0074],[140.6236,-34.2683,10.5],[140.6236,-34.2594,10.875],[140.6281,-34.2503,12.1505],[140.6336,-34.2444,12.1034],[140.6442,-34.2402,11.0],[140.6455,-34.2419,11.0],[140.6417,-34.2498,11.0],[140.6452,-34.2526,12.1028],[140.6618,-34.2472,12.2196],[140.6651,-34.2441,11.0],[140.6628,-34.243,13.7983],[140.6662,-34.2362,15.944],[140.667,-34.2307,29.8537],[140.6642,-34.2266,52.9956],[140.6546,-34.2288,51.4651],[140.6478,-34.233,50.7691],[140.6446,-34.2301,54.4006],[140.6465,-34.2249,55.7836],[140.6455,-34.2049,45.8451],[140.5429,-34.2047,37.4718],[140.543,-34.176,26.8052],[140.5079,-34.176,39.5268],[140.5078,-34.1473,48.9112],[140.4731,-34.1474,25.7907],[140.4731,-34.1324,30.695],[140.4062,-34.1335,34.6913],[140.3742,-34.1194,52.5086],[140.3702,-34.1209,56.8606],[140.3553,-34.1327,57.106],[140.3548,-34.1363,56.2176],[140.3284,-34.1364,63.3214],[140.3284,-34.1458,60.7283],[140.3239,-34.1464,64.5338],[140.3202,-34.1498,58.7753],[140.3202,-34.1513,56.2799],[140.3235,-34.1515,56.952],[140.3226,-34.1613,6.954],[140.3288,-34.1556,31.4689],[140.3334,-34.1547,7.4006],[140.3356,-34.1567,6.5],[140.3352,-34.1609,6.7202],[140.3373,-34.1639,7.3827],[140.3498,-34.1676,8.4169],[140.3504,-34.1715,7.264],[140.3409,-34.1753,7.1767],[140.3388,-34.1824,6.992],[140.3441,-34.1865,8.0339],[140.3566,-34.187,6.5],[140.3617,-34.1918,7.9729],[140.3645,-34.1969,8.511],[140.3628,-34.2029,8.5573],[140.3601,-34.2056,7.0],[140.3463,-34.2126,8.301],[140.345,-34.2187,13.1675],[140.3493,-34.2199,9.2877],[140.3563,-34.2156,7.5],[140.3628,-34.2152,8.7006],[140.368,-34.2213,8.0],[140.3687,-34.2243,8.0],[140.3662,-34.2291,10.2674],[140.3669,-34.2309,8.7758],[140.3747,-34.2291,11.0771],[140.3794,-34.2321,8.0],[140.3806,-34.2349,8.0],[140.3895,-34.2351,9.8199],[140.3948,-34.2394,8.9622],[140.393,-34.2441,8.0],[140.3862,-34.2474,8.8122],[140.3856,-34.2503,8.0],[140.3956,-34.2566,8.5856],[140.3981,-34.2631,8.0],[140.3937,-34.266,8.533],[140.3826,-34.2625,10.1879],[140.3768,-34.2633,8.8443],[140.3721,-34.2666,10.6235],[140.3672,-34.2769,8.0],[140.3676,-34.283,9.4021],[140.3838,-34.3067,8.0],[140.384,-34.3114,8.0],[140.3794,-34.3189,9.7309],[140.3789,-34.323,8.0],[140.3863,-34.3335,9.1103],[140.4099,-34.3334,27.1438],[140.4286,-34.3353,27.101],[140.4344,-34.3316,29.2659],[140.4406,-34.3304,28.6146],[140.4546,-34.3345,27.4944],[140.4573,-34.3279,26.2043],[140.4489,-34.3242,26.2401],[140.4456,-34.3167,31.7224],[140.4456,-34.3127,29.6367],[140.4522,-34.313,36.1384],[140.459,-34.3018,39.11],[140.4575,-34.2989,36.0613],[140.4619,-34.2973,35.6382],[140.4631,-34.2947,37.3762],[140.4762,-34.2946,31.5319],[140.476,-34.2929,27.4003],[140.4906,-34.297,23.3212],[140.5052,-34.3033,23.1904],[140.5006,-34.3066,33.5349],[140.5048,-34.3066,28.4915],[140.5041,-34.3103,32.785],[140.5055,-34.311,32.785],[140.5033,-34.3142,41.1049],[140.5058,-34.3143,32.0265],[140.5058,-34.3184,32.2684],[140.5101,-34.3184,27.0087],[140.5121,-34.3215,28.8052],[140.5145,-34.3272,36.4269],[140.5146,-34.3359,38.7207],[140.5256,-34.3354,26.2342],[140.5262,-34.3339,28.9817],[140.5281,-34.3349,11.8519],[140.5373,-34.3511,13.0517],[140.5228,-34.3567,17.9132],[140.5155,-34.3557,37.4773],[140.5122,-34.3516,40.8193],[140.5081,-34.3574,35.8799],[140.5195,-34.3809,32.2388],[140.5161,-34.3973,27.7243],[140.5019,-34.3947,12.2282],[140.4895,-34.3957,10.0644],[140.4822,-34.4022,8.0],[140.4836,-34.4054,8.938],[140.4925,-34.4071,8.0],[140.4959,-34.4103,13.4325],[140.4955,-34.4224,13.7518],[140.4981,-34.4404,8.0],[140.5125,-34.4518,9.3118],[140.5252,-34.4563,24.5826],[140.527,-34.4559,8.7599],[140.5265,-34.4521,8.8452],[140.5293,-34.4517,10.1772],[140.5345,-34.4558,8.7866],[140.5394,-34.4557,8.0],[140.5473,-34.4528,14.2937],[140.5457,-34.449,10.9043],[140.5476,-34.4467,10.5847],[140.5657,-34.4474,8.0],[140.5729,-34.4433,9.5608],[140.571,-34.4376,12.3234],[140.5723,-34.4359,10.5647],[140.5817,-34.4346,10.5744],[140.5848,-34.4326,8.5],[140.588,-34.4278,10.2733],[140.5906,-34.4165,9.3387],[140.5851,-34.411,17.3282],[140.5767,-34.4134,11.1257],[140.5679,-34.4113,10.099],[140.5661,-34.4089,11.4066],[140.5657,-34.4035,12.115],[140.5618,-34.3988,8.5],[140.5672,-34.3949,8.5],[140.5938,-34.3903,14.4733],[140.5966,-34.3852,18.2245],[140.5927,-34.3827,11.9027],[140.5916,-34.3781,13.1647],[140.5969,-34.3722,8.5],[140.5968,-34.3664,8.5],[140.5925,-34.3626,12.6463],[140.5885,-34.3627,10.534],[140.5861,-34.3643,8.5],[140.5831,-34.3727,12.457],[140.5795,-34.373,21.6926],[140.5756,-34.3642,12.0671],[140.5685,-34.3659,11.8426],[140.5647,-34.3634,20.6904],[140.5665,-34.3605,10.4192],[140.5767,-34.3592,11.5694],[140.5772,-34.3565,9.8806],[140.5666,-34.3557,11.5352],[140.5624,-34.3499,10.4716],[140.5519,-34.3454,10.0],[140.5526,-34.343,12.4252],[140.555,-34.342,11.4611],[140.5655,-34.346,13.2217],[140.5744,-34.3467,28.1176],[140.5761,-34.3457,20.4395],[140.5768,-34.3424,10.0],[140.5713,-34.335,15.2742],[140.5715,-34.3299,11.8326],[140.5754,-34.328,15.6647],[140.593,-34.3252,10.0],[140.5986,-34.3259,11.2767],[140.5995,-34.3231,11.281]]]]}
,"properties": {"GID_2": "AUS.8.7_1","GID_0": "AUS","country": "Australia","GID_1": "AUS.8_1","state": "SouthAustralia","NL_NAME_1": "NA","county": "BerriandBarmera","VARNAME_2": "NA","NL_NAME_2": "NA","TYPE_2": "DistrictCouncil","ENGTYPE_2": "DistrictCouncil","CC_2": "40520","HASC_2": "AU.SA.BB","name": "BerriandBarmera.county","area_km2": 516.5897,"hist_schema_id": "Elevation0-9000","hist_area_km2": {"0": 87.7814,"25": 302.5197,"50": 126.1131,"75": 0.1755}}}