{"type": "Feature","bbox": [133.2127,-32.5425,134.513,-31.7521],"geometry": {"type": "MultiPolygon","coordinates": [[[[134.513,-32.2321,86.9582],[134.5129,-32.0868,103.578],[134.2905,-32.0871,77.564],[134.2903,-31.8676,89.517],[134.1201,-31.868,133.6012],[134.1201,-31.9758,139.6691],[134.0898,-31.9628,113.8435],[134.0862,-31.9697,108.232],[134.0763,-31.9787,92.1586],[134.0583,-31.9672,85.2373],[134.0529,-31.965699999999998,80.9968],[133.8884,-31.8803,84.6848],[133.8513,-31.8802,89.7802],[133.8512,-31.8496,89.326],[133.727,-31.8554,122.2702],[133.6751,-31.8554,153.3867],[133.6752,-31.8443,139.598],[133.6106,-31.8443,95.1359],[133.6105,-31.8117,100.1966],[133.4578,-31.8119,101.86],[133.2856,-31.7832,105.17529999999999],[133.2394,-31.7699,89.1883],[133.2127,-31.7521,89.5506],[133.2135,-32.1855,0.0],[133.2212,-32.187,0.0],[133.2323,-32.1919,0.0],[133.2464,-32.204,4.3727],[133.2523,-32.2049,10.4971],[133.2531,-32.2072,10.5734],[133.2512,-32.208,0.0],[133.2514,-32.2097,0.0],[133.2563,-32.2108,3.5173],[133.2591,-32.2098,0.3789],[133.2578,-32.2065,5.202],[133.2671,-32.2032,0.0],[133.2694,-32.1971,1.3289],[133.2752,-32.1949,0.0],[133.2758,-32.1925,3.5624],[133.2738,-32.1902,6.8195],[133.2747,-32.1866,10.7308],[133.2782,-32.1835,1.4796],[133.2854,-32.1816,0.0],[133.3119,-32.1809,11.2719],[133.3147,-32.1822,0.2735],[133.3235,-32.1799,0.0],[133.3266,-32.1819,2.5309],[133.3316,-32.1823,0.0],[133.3379,-32.1801,0.0],[133.3825,-32.1928,4.6078],[133.3891,-32.2002,0.0],[133.3951,-32.1951,0.346],[133.4027,-32.1971,9.0666],[133.4058,-32.2,0.0],[133.4083,-32.1985,8.6063],[133.4091,-32.1957,0.9902],[133.4131,-32.1946,0.0],[133.4194,-32.1963,3.5193],[133.421,-32.1984,0.0],[133.4235,-32.198,0.0],[133.4264,-32.194,12.2801],[133.4256,-32.1908,8.3201],[133.4283,-32.1922,0.2217],[133.4287,-32.191,0.2606],[133.4247,-32.188,16.5837],[133.4256,-32.1847,0.6609],[133.4346,-32.1793,3.4801],[133.4417,-32.1781,0.0],[133.4474,-32.1788,0.5226],[133.4792,-32.1922,1.4897],[133.4856,-32.1962,6.9615],[133.4859,-32.1996,0.0],[133.4882,-32.1997,0.0],[133.4858,-32.2035,0.0],[133.4877,-32.2061,1.5932],[133.4881,-32.2033,7.1758],[133.4916,-32.1997,0.0],[133.4918,-32.1956,3.0867],[133.4906,-32.1943,0.3082],[133.4864,-32.1944,8.0764],[133.4858,-32.1903,6.8976],[133.4829,-32.1884,5.4077],[133.4789,-32.1883,8.5471],[133.4788,-32.1858,1.8103],[133.4742,-32.1812,9.0358],[133.4732,-32.1771,2.9042],[133.4684,-32.1742,1.0068],[133.4641,-32.1738,8.0292],[133.4643,-32.1722,1.2889],[133.4567,-32.1726,0.0],[133.452,-32.1699,5.0141],[133.4466,-32.1727,5.3877],[133.4403,-32.1708,1.3706],[133.4387,-32.172,0.5175],[133.4386,-32.1705,0.0],[133.437,-32.1764,4.1639],[133.4341,-32.1779,0.6184],[133.4297,-32.1788,1.3359],[133.427,-32.1748,7.7679],[133.4266,-32.1804,3.3235],[133.426,-32.1751,7.7679],[133.4272,-32.1728,1.1072],[133.4305,-32.1723,0.5656],[133.4264,-32.1725,0.5832],[133.418,-32.1746,2.3282],[133.4153,-32.1784,2.4527],[133.4118,-32.1778,1.1778],[133.4128,-32.1769,0.3472],[133.4112,-32.1757,1.2792],[133.4148,-32.1699,0.3899],[133.4116,-32.1713,1.5914],[133.4044,-32.1682,-0.0012],[133.4009,-32.1691,0.2227],[133.3979,-32.1645,2.3207],[133.3999,-32.1629,0.2908],[133.3961,-32.1614,0.6698],[133.3955,-32.1596,0.2568],[133.3923,-32.1594,0.223],[133.398,-32.1567,0.1705],[133.396,-32.1552,0.0313],[133.3971,-32.1501,0.2007],[133.3936,-32.1484,0.4198],[133.3956,-32.1445,0.4157],[133.3951,-32.1416,0.3056],[133.4004,-32.1372,3.3998],[133.4104,-32.1361,0.6814],[133.4133,-32.1316,0.0],[133.4191,-32.1283,0.0],[133.4245,-32.1287,0.3946],[133.4273,-32.1319,0.2051],[133.4322,-32.1301,0.5317],[133.4381,-32.123,1.2587],[133.4379,-32.1249,0.1355],[133.4431,-32.1266,0.0],[133.4466,-32.1358,2.4039],[133.4514,-32.136,1.1874],[133.4491,-32.1197,1.1825],[133.451,-32.1127,0.4681],[133.4604,-32.1029,0.9818],[133.466,-32.1021,0.8437],[133.4679,-32.1,1.1085],[133.4728,-32.1001,0.4614],[133.4783,-32.1043,0.0],[133.4809,-32.1032,0.3286],[133.4843,-32.1042,0.3127],[133.4822,-32.1082,0.2476],[133.4837,-32.1102,0.1958],[133.4895,-32.1098,0.6289],[133.4883,-32.1111,0.5829],[133.4895,-32.1129,0.7799],[133.48,-32.116,0.3595],[133.4804,-32.1177,0.6676],[133.4845,-32.1185,0.3411],[133.4864,-32.121,0.0],[133.4857,-32.1242,0.1533],[133.4831,-32.1263,0.0],[133.4924,-32.1286,1.3135],[133.4995,-32.1284,0.9502],[133.5029,-32.1311,0.2493],[133.5003,-32.1388,0.5774],[133.5013,-32.1392,0.5162],[133.4987,-32.1402,0.403],[133.4941,-32.1459,0.0446],[133.4968,-32.1506,0.0],[133.5034,-32.155,0.2675],[133.5044,-32.1537,2.1451],[133.5113,-32.1533,0.5777],[133.517,-32.1469,0.5165],[133.519,-32.1435,0.6738],[133.5174,-32.1419,2.1746],[133.5177,-32.1455,0.2186],[133.516,-32.1472,0.5165],[133.5165,-32.1422,2.1746],[133.5143,-32.1437,0.873],[133.5129,-32.1408,1.6723],[133.5117,-32.142,0.699],[133.5126,-32.1443,0.5665],[133.5103,-32.144,0.7728],[133.5097,-32.1463,0.8902],[133.5069,-32.1428,1.1308],[133.5045,-32.1437,0.4361],[133.5048,-32.1419,0.5179],[133.5075,-32.1408,1.026],[133.509,-32.1372,0.6787],[133.5151,-32.1347,1.2211],[133.5132,-32.1319,0.4986],[133.5173,-32.1337,1.13],[133.5253,-32.1274,0.5318],[133.5208,-32.1313,1.6705],[133.5191,-32.1357,1.6788],[133.5195,-32.1399,0.3688],[133.5209,-32.1408,0.9216],[133.5251,-32.1371,0.9009],[133.5228,-32.1412,0.8341],[133.5249,-32.1429,0.7935],[133.5216,-32.1517,0.0],[133.5221,-32.1553,1.7352],[133.5379,-32.1673,1.0722],[133.5535,-32.1696,0.0],[133.5558,-32.159,8.9526],[133.5672,-32.1552,0.0],[133.5713,-32.1499,0.0],[133.5775,-32.1468,0.0],[133.5791,-32.1435,4.0449],[133.5847,-32.141,3.9289],[133.5778,-32.1325,0.4401],[133.5771,-32.1299,3.7629],[133.5791,-32.1262,1.5024],[133.574,-32.1227,1.4167],[133.5725,-32.1175,1.2569],[133.5804,-32.1078,1.2383],[133.5779,-32.1041,0.1582],[133.5816,-32.0959,1.1462],[133.5923,-32.0873,1.6744],[133.5999,-32.0845,2.589],[133.6136,-32.086,1.8899],[133.621,-32.0921,2.693],[133.6282,-32.0906,0.9647],[133.628,-32.0938,0.1342],[133.6329,-32.0954,0.0917],[133.6306,-32.1001,0.3288],[133.6366,-32.1007,0.996],[133.6365,-32.099,2.722],[133.6438,-32.0959,2.6334],[133.6514,-32.0987,0.3994],[133.6538,-32.1021,2.3257],[133.6529,-32.1035,0.0],[133.661,-32.1057,4.37],[133.6659,-32.1038,1.7109],[133.6682,-32.1048,0.754],[133.6716,-32.1071,0.0],[133.671,-32.1094,0.4354],[133.6726,-32.1122,0.9142],[133.6702,-32.1209,1.1814],[133.6721,-32.1282,7.1007],[133.6705,-32.135,5.2083],[133.6669,-32.1386,3.3361],[133.6559,-32.1431,4.6513],[133.6476,-32.1413,5.6426],[133.6427,-32.1446,0.2523],[133.6435,-32.1488,2.3301],[133.6478,-32.1522,1.0651],[133.6618,-32.1474,1.3631],[133.6658,-32.1439,2.1948],[133.6747,-32.1426,5.6679],[133.6841,-32.1477,4.994],[133.6929,-32.1552,9.2464],[133.6946,-32.1614,3.0862],[133.6915,-32.1654,12.1169],[133.6892,-32.166,0.7759],[133.6869,-32.1708,1.9474],[133.6881,-32.1791,-0.0129],[133.6838,-32.1849,2.9555],[133.683,-32.1929,7.7862],[133.6789,-32.1962,0.7075],[133.6791,-32.2026,0.8821],[133.6876,-32.1994,12.9745],[133.6995,-32.1987,0.0],[133.7024,-32.1967,2.8141],[133.7149,-32.195,0.0],[133.7228,-32.1963,0.0],[133.7256,-32.1983,0.0],[133.7332,-32.1987,1.769],[133.738,-32.2038,12.1676],[133.7362,-32.2076,2.6041],[133.7451,-32.2016,0.3222],[133.7567,-32.2058,5.8982],[133.7596,-32.2098,-0.1058],[133.7592,-32.2162,0.0],[133.7622,-32.2249,1.7155],[133.7588,-32.2313,4.333],[133.7557,-32.2319,0.6982],[133.7554,-32.2353,2.3859],[133.7574,-32.2413,0.0],[133.7643,-32.2491,2.3143],[133.7629,-32.2566,5.7232],[133.7657,-32.2586,2.4939],[133.7654,-32.261,1.2936],[133.7697,-32.2638,6.1196],[133.7736,-32.2633,0.0],[133.7762,-32.2573,17.5601],[133.7816,-32.2542,11.0878],[133.7863,-32.2533,2.1443],[133.7922,-32.2546,0.0],[133.7971,-32.2527,6.056],[133.7995,-32.2495,6.7546],[133.7988,-32.2483,6.7546],[133.8012,-32.247,1.8659],[133.8005,-32.245,1.9832],[133.8082,-32.2432,0.0],[133.8047,-32.2402,0.7521],[133.8082,-32.2329,1.2828],[133.806,-32.2312,0.9469],[133.8143,-32.2315,0.537],[133.8214,-32.234,0.6994],[133.8255,-32.2376,1.2008],[133.8271,-32.2428,1.2631],[133.8211,-32.2442,0.3008],[133.8181,-32.2472,0.0],[133.8254,-32.2479,8.1377],[133.8257,-32.2511,0.1938],[133.8293,-32.2546,0.2927],[133.8284,-32.2561,0.0],[133.8354,-32.254,4.1257],[133.8429,-32.2563,1.8042],[133.8477,-32.2629,8.168],[133.8539,-32.2676,8.027],[133.8598,-32.2784,2.4315],[133.8667,-32.2788,4.3409],[133.8694,-32.2805,1.4592],[133.8766,-32.2914,2.7083],[133.8801,-32.3062,1.8953],[133.8826,-32.3062,12.2594],[133.8837,-32.3094,0.4487],[133.8899,-32.3106,3.9591],[133.902,-32.3182,2.0326],[133.911,-32.3326,11.2098],[133.912,-32.3382,1.3347],[133.9216,-32.3512,4.3148],[133.9232,-32.3565,1.726],[133.931,-32.3618,0.0],[133.9343,-32.3722,0.5305],[133.9327,-32.3799,0.5659],[133.9343,-32.3819,0.0035],[133.9393,-32.38,1.9523],[133.945,-32.3806,1.3991],[133.9511,-32.3885,2.2615],[133.952,-32.3989,3.8812],[133.9506,-32.4022,1.7399],[133.948,-32.4034,2.8535],[133.949,-32.4081,1.7581],[133.9469,-32.4116,3.2146],[133.9414,-32.4125,0.0],[133.9419,-32.4153,2.1971],[133.9382,-32.419,0.9568],[133.9386,-32.4206,1.2064],[133.9342,-32.4198,1.3054],[133.9312,-32.4229,0.9232],[133.9309,-32.4217,0.9232],[133.9251,-32.424,-0.1029],[133.9238,-32.4268,1.1309],[133.9183,-32.4269,1.4929],[133.9193,-32.4283,0.9583],[133.9176,-32.427,1.4929],[133.9167,-32.4282,1.1076],[133.914,-32.4276,1.2751999999999999],[133.9081,-32.4243,1.548],[133.9013,-32.4295,0.9751],[133.9043,-32.4249,1.0572],[133.9026,-32.4228,1.4046],[133.9009,-32.428,0.9751],[133.8938,-32.4288,0.8066],[133.8934,-32.4267,1.6029],[133.8913,-32.4267,1.2922],[133.8875,-32.4231,1.125],[133.889,-32.42,1.1858],[133.8937,-32.4188,1.5559],[133.8918,-32.4158,0.8734],[133.899,-32.416,0.8745],[133.8973,-32.4134,0.7342],[133.9018,-32.4125,0.9199],[133.9043,-32.413,1.075],[133.904,-32.4152,1.441],[133.9056,-32.4134,1.1903],[133.9039,-32.4109,1.3008],[133.8951,-32.4098,0.9323],[133.8912,-32.4113,1.824],[133.8969,-32.4129,0.7476],[133.8945,-32.4141,0.8467],[133.889,-32.4115,3.8602],[133.8883,-32.4092,1.3201],[133.8912,-32.4103,1.6361],[133.8922,-32.4091,0.8268],[133.8909,-32.4083,0.8268],[133.8937,-32.4086,1.8481],[133.8895,-32.4066,1.1882],[133.8867,-32.4024,0.9998],[133.8927,-32.4014,1.5926],[133.8939,-32.4034,2.1387],[133.893,-32.4005,1.7112],[133.8896,-32.3988,0.9989],[133.8918,-32.399,1.3465],[133.8941,-32.4006,1.7112],[133.8943,-32.4016,2.1277],[133.8949,-32.4004,1.0474],[133.8934,-32.3989,0.9519],[133.8972,-32.3996,2.0089],[133.8897,-32.3979,0.8508],[133.8774,-32.4004,0.4856],[133.8716,-32.3981,1.5868],[133.8668,-32.3992,1.5918],[133.8675,-32.4204,1.1913],[133.8645,-32.428,2.4903],[133.8625,-32.4293,0.0],[133.8626,-32.4367,5.6871],[133.8557,-32.4458,0.0],[133.8562,-32.4475,0.0],[133.8535,-32.4515,2.4626],[133.855,-32.4539,0.0147],[133.8535,-32.459,7.4627],[133.8506,-32.4614,1.5493],[133.8624,-32.4835,2.0939],[133.8593,-32.4899,24.9127],[133.855,-32.49,0.3871],[133.8507,-32.4931,2.2456],[133.8523,-32.4986,2.8332],[133.8513,-32.501,8.4426],[133.847,-32.5037,13.3187],[133.8473,-32.5078,20.9196],[133.8531,-32.5091,7.4461],[133.8571,-32.5195,0.0],[133.8563,-32.5297,1.0249],[133.8538,-32.5322,3.0254],[133.8501,-32.5327,1.4105],[133.8486,-32.5357,2.0399],[133.8487,-32.5414,0.7086],[133.8506,-32.5425,7.8741],[133.8526,-32.5421,12.08],[133.8558,-32.5338,12.4418],[133.8595,-32.5319,1.1558],[133.8629,-32.5326,5.1587],[133.8669,-32.5373,3.4444],[133.8714,-32.5339,21.4361],[133.8725,-32.5348,0.4637],[133.8766,-32.5327,10.6962],[133.8814,-32.537,0.0],[133.8937,-32.5412,3.6617],[133.8955,-32.537,1.2545],[133.8934,-32.5349,1.6388],[133.893,-32.5311,0.3691],[133.8962,-32.5233,2.7062],[133.9,-32.5202,4.854],[133.9088,-32.5175,0.0],[133.9053,-32.513,1.0556],[133.9074,-32.5088,3.6986],[133.9187,-32.4968,0.4571],[133.9227,-32.4949,0.978],[133.9456,-32.4933,0.0],[133.955,-32.4944,1.6129],[133.9643,-32.4967,1.0417],[133.9754,-32.5025,2.856],[133.9916,-32.5054,0.9195],[133.9958,-32.5007,4.654],[133.9929,-32.4966,10.0797],[133.9936,-32.4944,1.1609],[133.9915,-32.4892,0.5925],[133.9951,-32.4845,2.6054],[134.0032,-32.4796,0.9612],[134.0087,-32.4738,1.1767],[134.0232,-32.4667,1.4463],[134.0325,-32.4643,0.1842],[134.037,-32.4598,0.0],[134.0479,-32.4593,1.9454],[134.0567,-32.461,2.4019],[134.0785,-32.4696,0.0],[134.0862,-32.4708,0.1721],[134.0864,-32.4656,0.0],[134.0823,-32.4665,0.7583],[134.0701,-32.4585,0.2376],[134.0619,-32.4563,0.5608],[134.0614,-32.4447,0.1931],[134.0583,-32.4414,0.3099],[134.0554,-32.4408,0.2882],[134.0587,-32.4409,0.3212],[134.0619,-32.4441,0.2101],[134.0628,-32.4558,0.0976],[134.0739,-32.4591,0.5634],[134.0812,-32.4573,1.1603],[134.0824,-32.4585,1.8872],[134.0814,-32.4596,0.8118],[134.0739,-32.4607,0.0],[134.0801,-32.4628,0.4546],[134.0825,-32.4656,0.3634],[134.0838,-32.4651,0.136],[134.083,-32.4621,1.2667],[134.0863,-32.4582,0.0],[134.08461939163496,-32.458781749049429,0.0],[134.0863,-32.4572,0.4879],[134.0916,-32.4565,0.0073],[134.0907,-32.454,0.7391],[134.093,-32.455,0.0483],[134.0969,-32.4527,0.4841],[134.097,-32.4547,0.1261],[134.0995,-32.4535,0.2669],[134.0998,-32.4512,0.6312],[134.1028,-32.4501,0.2879],[134.104,-32.4512,0.2879],[134.1007,-32.4523,0.2023],[134.0972,-32.4569,0.0],[134.0922,-32.4568,-0.1236],[134.0922,-32.4579,-0.1236],[134.1063,-32.457,0.6524],[134.12,-32.4539,2.4824],[134.12,-32.3774,27.6572],[134.513,-32.3773,81.3935],[134.513,-32.2321,86.9582]],
[[134.08459292929294,-32.458790909090908,0.0],[134.08461939163496,-32.458781749049429,0.0],[134.0846,-32.4588,0.0],[134.08459292929294,-32.458790909090908,0.0]],
[[134.08459292929294,-32.458790909090908,0.0],[134.0837,-32.4591,0.0],[134.081,-32.4554,0.5658],[134.082,-32.4564,1.0859],[134.0841,-32.4554,1.4278],[134.0832,-32.457,1.0859],[134.08459292929294,-32.458790909090908,0.0]]]]}
,"properties": {"GID_2": "AUS.8.10_1","GID_0": "AUS","country": "Australia","GID_1": "AUS.8_1","state": "SouthAustralia","NL_NAME_1": "NA","county": "Ceduna","VARNAME_2": "NA","NL_NAME_2": "NA","TYPE_2": "DistrictCouncil","ENGTYPE_2": "DistrictCouncil","CC_2": "41010","HASC_2": "AU.SA.CE","name": "Ceduna.county","area_km2": 5425.604,"hist_schema_id": "Elevation0-9000","hist_area_km2": {"0": 405.907,"25": 994.864,"50": 1298.828,"75": 1455.47,"100": 788.673,"125": 319.596,"150": 152.421,"175": 9.845}}}