{"type": "Feature","bbox": [143.4633,-37.2367,144.0138,-36.7211],"geometry": {"type": "MultiPolygon","coordinates": [[[[143.9494,-37.1945,252.418],[143.9515,-37.1939,254.9107],[143.9516,-37.191,250.7349],[143.955,-37.1884,251.3182],[143.9542,-37.1859,248.5732],[143.9569,-37.1832,248.4691],[143.9601,-37.1827,246.025],[143.9626,-37.1765,244.7719],[143.9617,-37.1732,244.2366],[143.9593,-37.1728,241.6055],[143.9596,-37.1709,240.6126],[143.9615,-37.1704,242.5894],[143.9589,-37.1683,242.1498],[143.9608,-37.1645,240.0273],[143.9639,-37.1633,238.9009],[143.9635,-37.1581,238.032],[143.9617,-37.1554,237.7614],[143.963,-37.1487,234.2936],[143.9552,-37.1399,230.1508],[143.9582,-37.1374,229.2964],[143.961,-37.1304,227.1692],[143.9629,-37.1293,228.3905],[143.961,-37.1237,222.4078],[143.9628,-37.1175,226.0268],[143.9618,-37.1158,219.5184],[143.9653,-37.1109,220.1264],[143.9635,-37.1075,216.2563],[143.9658,-37.1043,216.1593],[143.9646,-37.1007,229.1168],[143.9696,-37.0975,216.9468],[143.9699,-37.0927,217.9828],[143.972,-37.0916,211.022],[143.9745,-37.093,213.2723],[143.9781,-37.0992,215.0035],[143.9798,-37.0994,209.2851],[143.9822,-37.0958,207.0],[143.9815,-37.0922,208.6102],[143.9862,-37.0867,207.0],[143.9945,-37.0847,211.3172],[143.9995,-37.0788,207.0],[144.0121,-37.0768,207.0],[144.0138,-37.074,207.0],[144.0126,-37.0668,207.0],[144.0064,-37.059,207.0],[143.9917,-37.0541,207.0],[143.9897,-37.0476,207.0],[143.9838,-37.0429,207.0],[143.9814,-37.0369,207.0],[143.9754,-37.0328,207.0],[143.9734,-37.0294,207.0],[143.8995,-37.0211,214.6212],[143.8957,-37.0236,215.9165],[143.8997,-37.0006,204.0659],[143.8823,-36.9986,200.338],[143.8842,-36.9863,198.6924],[143.8312,-36.9807,180.6024],[143.8359,-36.9786,179.6152],[143.834,-36.9736,180.7328],[143.837,-36.9718,179.5191],[143.8365,-36.9692,176.8152],[143.8346,-36.9684,180.9004],[143.8363,-36.9633,179.5294],[143.8414,-36.9619,177.7467],[143.8456,-36.9629,177.604],[143.8472,-36.96,176.5408],[143.8463,-36.9577,181.0888],[143.8518,-36.9573,176.2702],[143.8599,-36.95,175.1946],[143.8556,-36.9471,174.9125],[143.8557,-36.9441,174.8159],[143.8522,-36.9373,173.9473],[143.8486,-36.9346,173.4085],[143.8498,-36.9304,171.1613],[143.8465,-36.9281,170.2193],[143.8539,-36.9226,167.9109],[143.8575,-36.9163,166.9605],[143.863,-36.9155,167.9587],[143.8633,-36.9096,165.4599],[143.8672,-36.907,167.7889],[143.8655,-36.9039,164.7323],[143.8664,-36.9013,166.6098],[143.8558,-36.9,179.6491],[143.8585,-36.8858,168.9969],[143.8492,-36.8849,167.6978],[143.8464,-36.8805,167.1077],[143.8028,-36.8741,190.2156],[143.7902,-36.8747,207.4044],[143.7678,-36.869,201.8555],[143.7568,-36.8678,208.9823],[143.7542,-36.8609,214.1051],[143.7561,-36.8603,212.6368],[143.7552,-36.8576,217.614],[143.7589,-36.8429,240.1598],[143.7178,-36.8375,204.6584],[143.7017,-36.8234,213.166],[143.6859,-36.8194,217.3141],[143.6797,-36.8164,220.4116],[143.677,-36.8116,230.2487],[143.6802,-36.7992,232.6095],[143.6748,-36.7689,252.3881],[143.6674,-36.7563,260.6032],[143.6719,-36.7568,263.0636],[143.6743,-36.7495,268.9177],[143.6745,-36.7423,294.3246],[143.665,-36.7411,282.7759],[143.6696,-36.7237,290.3704],[143.6324,-36.7211,389.5569],[143.6328,-36.7283,335.0298],[143.6292,-36.7324,335.619],[143.6284,-36.7358,324.2713],[143.5738,-36.729,237.9364],[143.5685,-36.7418,236.9988],[143.5503,-36.7398,247.9312],[143.5483,-36.7429,243.5981],[143.5394,-36.7405,247.9728],[143.4954,-36.7409,203.8739],[143.4957,-36.7554,221.1474],[143.4633,-36.7554,187.2584],[143.4657,-36.76,186.1621],[143.4713,-36.761,186.5269],[143.4754,-36.7658,186.3687],[143.4799,-36.7677,190.3635],[143.4776,-36.7707,188.0744],[143.4806,-36.7743,188.6008],[143.4867,-36.7776,189.0775],[143.4901,-36.7893,190.3074],[143.4958,-36.7956,192.2218],[143.498,-36.7948,191.897],[143.5006,-36.7971,191.9884],[143.5018,-36.8039,198.5031],[143.5052,-36.8051,192.4356],[143.5069,-36.8079,192.2652],[143.5075,-36.8128,192.1591],[143.5041,-36.8139,193.254],[143.5041,-36.8179,194.2169],[143.499,-36.8215,195.0932],[143.4988,-36.8266,197.6668],[143.5012,-36.8299,197.8042],[143.5006,-36.8386,194.8363],[143.5102,-36.8486,198.2678],[143.511,-36.8586,198.7674],[143.5076,-36.8623,197.9717],[143.5103,-36.8687,199.316],[143.5075,-36.8738,198.1609],[143.5079,-36.8787,199.0934],[143.5047,-36.8798,200.8892],[143.5055,-36.8809,200.8892],[143.502,-36.8871,201.0722],[143.4953,-36.8911,202.6759],[143.4882,-36.8883,206.4129],[143.4863,-36.8933,202.1656],[143.482,-36.895,203.1288],[143.4849,-36.9004,203.1844],[143.4755,-36.9058,202.9065],[143.4765,-36.9085,204.6],[143.4742,-36.9101,203.6661],[143.4674,-36.9115,206.3893],[143.4669,-36.9168,206.0476],[143.469,-36.9254,206.2836],[143.4668,-36.9307,207.7255],[143.4699,-36.9314,209.664],[143.4725,-36.9388,211.4675],[143.507,-36.9427,208.0874],[143.5065,-36.9454,207.6672],[143.5424,-36.9492,227.1166],[143.5434,-36.944,229.8478],[143.5772,-36.9484,323.2286],[143.582,-36.9451,287.9784],[143.5935,-36.9562,264.6727],[143.5747,-36.969,236.7469],[143.5775,-36.9717,231.8321],[143.5758,-36.9815,225.8675],[143.5947,-36.9889,228.2499],[143.6037,-36.9899,217.3909],[143.602,-36.9995,207.7331],[143.5942,-36.9986,214.4079],[143.5921,-37.0108,223.6171],[143.5797,-37.0094,222.8613],[143.5757,-37.0318,238.9055],[143.5625,-37.0336,237.9819],[143.552,-37.0942,266.9637],[143.5651,-37.0956,230.1042],[143.5609,-37.098,233.3849],[143.5623,-37.0999,231.8875],[143.5599,-37.1085,231.9882],[143.5627,-37.1133,233.7712],[143.5627,-37.1164,236.0088],[143.5643,-37.1169,236.7314],[143.5649,-37.1141,238.5278],[143.5674,-37.113,235.7057],[143.5706,-37.1163,241.7604],[143.5725,-37.1157,236.0778],[143.5735,-37.113,237.8122],[143.5782,-37.1152,239.3018],[143.5789,-37.1233,240.8842],[143.5817,-37.1256,240.4567],[143.5809,-37.1283,242.4057],[143.5829,-37.1319,242.9407],[143.5806,-37.1392,245.2319],[143.5741,-37.1426,245.8636],[143.5706,-37.1502,248.7595],[143.5665,-37.1525,250.1781],[143.5635,-37.1519,248.8369],[143.5573,-37.1561,263.0108],[143.5554,-37.1592,258.2726],[143.5519,-37.1587,250.5275],[143.5535,-37.1627,259.0619],[143.5511,-37.1681,252.5487],[143.5535,-37.1707,257.9703],[143.5498,-37.176,256.988],[143.5516,-37.1783,256.6782],[143.5509,-37.1805,263.5491],[143.5854,-37.1846,285.8095],[143.5823,-37.2017,299.2033],[143.6406,-37.2083,277.1832],[143.6364,-37.2308,313.8962],[143.6656,-37.2343,307.0855],[143.6652,-37.2367,303.5772],[143.6717,-37.2332,297.1789],[143.6766,-37.2343,298.7158],[143.679,-37.2326,299.7831],[143.6817,-37.234,292.3165],[143.687,-37.229,297.1463],[143.6904,-37.2296,281.8529],[143.6921,-37.2323,277.7193],[143.7027,-37.2297,272.2635],[143.7046,-37.2309,270.1875],[143.7078,-37.2294,275.8086],[143.7097,-37.231,264.5701],[143.7139,-37.2303,277.5269],[143.7148,-37.2277,259.6335],[143.7168,-37.2274,260.8737],[143.7163,-37.2251,252.3331],[143.7195,-37.2239,248.9027],[143.7201,-37.2218,248.0693],[143.7243,-37.221,250.2423],[143.7228,-37.2174,242.6935],[143.727,-37.2137,240.93],[143.7298,-37.2194,261.7164],[143.7326,-37.2146,244.8441],[143.7443,-37.2211,260.8819],[143.7533,-37.2309,299.2884],[143.7589,-37.2331,309.5754],[143.7663,-37.2282,333.073],[143.8202,-37.2352,290.2237],[143.8221,-37.2259,296.9205],[143.8335,-37.2263,261.8763],[143.8369,-37.2328,273.2086],[143.8584,-37.2353,315.3863],[143.8603,-37.2343,313.9124],[143.8672,-37.1953,282.1152],[143.875,-37.1864,265.7227],[143.9494,-37.1945,252.418]]]]}
,"properties": {"GID_2": "AUS.10.15_1","GID_0": "AUS","country": "Australia","GID_1": "AUS.10_1","state": "Victoria","NL_NAME_1": "NA","county": "CentralGoldfields","VARNAME_2": "NA","NL_NAME_2": "NA","TYPE_2": "Shire","ENGTYPE_2": "Shire","CC_2": "21670","HASC_2": "AU.VI.CG","name": "CentralGoldfields.county","area_km2": 1532.934,"hist_schema_id": "Elevation0-9000","hist_area_km2": {"150": 0.526,"175": 94.033,"200": 346.261,"225": 403.951,"250": 350.431,"275": 187.442,"300": 101.944,"325": 33.804,"350": 7.74,"375": 3.136,"400": 2.052,"425": 0.781,"450": 0.509,"475": 0.255,"500": 0.034,"525": 0.034}}}