{"type":"Feature","properties":{"GID_2":"AUS.5.27_1","GID_0":"AUS","country":"Australia","GID_1":"AUS.5_1","state":"NewSouthWales","NL_NAME_1":"NA","county":"Campbelltown","VARNAME_2":"NA","NL_NAME_2":"NA","TYPE_2":"City","ENGTYPE_2":"City","CC_2":"11500","HASC_2":"AU.SA.CA","name":"Campbelltown.county"},
"geometry":{"type": "MultiPolygon","coordinates": [[[[150.7419,-34.0807,70.0365],[150.737,-34.1128,69.9747],[150.7401,-34.1184,64.8252],[150.7468,-34.1167,65.0676],[150.7526,-34.1172,69.0976],[150.7567,-34.1219,69.2321],[150.7537,-34.1284,67.0297],[150.7499,-34.1316,63.3301],[150.7549,-34.1356,77.4771],[150.7563,-34.1413,102.3311],[150.7496,-34.1512,76.4813],[150.7548,-34.1608,77.7994],[150.7521,-34.1639,73.9805],[150.8416,-34.1767,222.102],[150.8451,-34.1758,238.977],[150.8457,-34.1788,218.8251],[150.8519,-34.1789,222.476],[150.8486,-34.1817,229.7467],[150.8542,-34.1846,288.8302],[150.8551,-34.1834,242.5219],[150.8535,-34.1789,233.8349],[150.8556,-34.1776,261.4708],[150.8622,-34.1831,283.5341],[150.8706,-34.1825,279.9268],[150.8739,-34.1878,284.4842],[150.8792,-34.1871,303.4041],[150.884,-34.1896,322.1018],[150.8853,-34.1875,338.7287],[150.8993,-34.1896,331.5764],[150.899,-34.1872,320.4242],[150.9043,-34.1841,277.7468],[150.9068,-34.1649,213.3537],[150.914,-34.1594,223.0158],[150.9156,-34.156,200.1144],[150.9167,-34.1522,201.3212],[150.9151,-34.1504,179.3004],[150.9187,-34.1469,175.6253],[150.9197,-34.1418,187.5289],[150.9179,-34.1379,200.9723],[150.9225,-34.1339,184.5533],[150.9227,-34.1264,168.6279],[150.9292,-34.1244,163.0],[150.926,-34.1175,163.0],[150.9335,-34.1094,163.0],[150.9366,-34.0951,211.0896],[150.9253,-34.0933,238.2476],[150.9233,-34.0898,218.1255],[150.9323,-34.0846,164.2445],[150.9342,-34.0816,156.981],[150.9335,-34.0779,150.1872],[150.9372,-34.0754,133.811],[150.938,-34.0708,120.8305],[150.9357,-34.0685,120.4504],[150.9375,-34.0646,107.86279999999999],[150.9343,-34.0586,94.9649],[150.9371,-34.0549,88.4921],[150.9357,-34.05,94.4368],[150.9378,-34.0482,94.4384],[150.9408,-34.04,102.0278],[150.9079,-34.0353,114.7074],[150.9066,-34.0335,114.1743],[150.8998,-34.0358,106.2492],[150.8953,-34.0353,111.2282],[150.892,-34.0329,105.121],[150.8867,-34.0321,70.8773],[150.8868,-34.0189,58.4296],[150.8892,-34.0046,42.6296],[150.8915,-34.0043,43.6196],[150.8923,-34.0056,30.1077],[150.8929,-34.0195,38.6372],[150.8993,-34.0208,33.6918],[150.9069,-34.0175,33.0376],[150.9035,-34.015,60.8409],[150.9015,-34.0072,41.0177],[150.9126,-34.0003,14.1456],[150.909,-33.9978,19.189],[150.9078,-33.9904,21.4028],[150.9132,-33.9648,13.5758],[150.903,-33.9634,14.679],[150.9007,-33.9654,16.1694],[150.9011,-33.9636,18.6618],[150.8993,-33.9619,23.4677],[150.8904,-33.961,61.1006],[150.8868,-33.9582,53.8632],[150.8692,-33.9697,46.7069],[150.8517,-33.9764,85.925299999999993],[150.8445,-33.9844,86.2567],[150.8342,-33.9796,97.021],[150.8284,-33.9735,113.3224],[150.8209,-33.9759,98.9032],[150.8151,-33.9678,93.3837],[150.7946,-34.0065,114.4467],[150.7948,-34.0115,118.9724],[150.7877,-34.0155,134.9156],[150.7917,-34.0201,146.7264],[150.7896,-34.0208,122.7554],[150.7892,-34.0236,113.9786],[150.7909,-34.0334,125.4598],[150.7841,-34.0427,176.366],[150.7866,-34.0465,116.7264],[150.7811,-34.0541,145.7188],[150.7823,-34.059,132.6165],[150.7765,-34.0644,141.2234],[150.7747,-34.0703,141.6494],[150.7664,-34.0781,155.8245],[150.7419,-34.0807,70.0365]]]]}}