{"type": "Feature","bbox": [148.8111,-30.9063,150.3938,-29.7493],"geometry": {"type": "MultiPolygon","coordinates": [[[[148.8111,-30.6734,213.3175],[148.9228,-30.6243,218.4359],[148.9483,-30.6547,225.9977],[148.9747,-30.6348,223.8977],[148.9707,-30.6297,219.358],[148.9695,-30.6194,213.3311],[148.992,-30.6221,220.0516],[149.0068,-30.6132,217.174],[149.0257,-30.6056,221.7044],[149.0525,-30.6398,231.7805],[149.0514,-30.6465,232.8736],[149.0362,-30.6561,228.7697],[149.0478,-30.7132,246.0375],[149.117,-30.7135,249.1948],[149.1197,-30.7162,255.2158],[149.1199,-30.7185,250.5837],[149.1151,-30.7226,256.3081],[149.1126,-30.7275,254.2459],[149.1171,-30.7416,257.1769],[149.1114,-30.7518,260.8832],[149.1129,-30.755,262.4106],[149.1209,-30.7564,264.9897],[149.1281,-30.7743,269.8974],[149.1272,-30.7777,271.4422],[149.1215,-30.7807,272.4535],[149.1228,-30.7855,272.6354],[149.1219,-30.7975,277.9132],[149.1549,-30.7849,289.1911],[149.2074,-30.9063,353.9231],[149.3112,-30.8635,397.7157],[149.4062,-30.8757,357.139],[149.408,-30.8816,372.0992],[149.4952,-30.8929,395.1896],[149.5185,-30.8632,338.9293],[149.522,-30.8643,336.7213],[149.5235,-30.8665,337.6981],[149.6586,-30.884,435.9164],[149.6562,-30.8795,431.7466],[149.6588,-30.87,417.8008],[149.6641,-30.8701,415.9038],[149.6703,-30.8616,409.2514],[149.6796,-30.8617,420.8717],[149.6897,-30.8654,415.6236],[149.693,-30.8634,418.8952],[149.7583,-30.8718,356.5009],[149.7611,-30.8554,350.5554],[149.7883,-30.8591,324.8171],[149.7935,-30.8288,342.9368],[149.8138,-30.8315,325.5963],[149.8161,-30.8307,322.6583],[149.8195,-30.8122,323.2419],[149.8027,-30.8099,343.9427],[149.8079,-30.7811,328.8384],[149.823,-30.7831,312.7446],[149.8242,-30.781,308.4297],[149.8267,-30.7668,316.1899],[149.824,-30.7664,318.1034],[149.825,-30.7593,314.4859],[149.8613,-30.7644,300.4816],[149.864,-30.7516,299.0269],[149.8866,-30.7547,276.4773],[149.8852,-30.7621,275.5486],[149.9727,-30.7738,248.6369],[149.9768,-30.7704,247.3723],[149.982,-30.7763,247.6753],[149.9892,-30.7745,246.5999],[149.9901,-30.7729,245.0468],[149.9901,-30.771,246.0279],[149.984,-30.7658,245.7995],[149.9847,-30.7622,245.1371],[149.9947,-30.7541,244.3476],[150.0048,-30.75,245.4124],[150.0031,-30.7429,244.341],[150.0085,-30.7417,244.514],[150.0097,-30.7373,243.5362],[150.0114,-30.7365,243.1199],[150.0196,-30.741,242.79],[150.0332,-30.7423,245.0593],[150.0302,-30.7608,246.5306],[150.0373,-30.7618,246.1443],[150.0351,-30.7737,246.7234],[150.0439,-30.7749,245.9843],[150.0528,-30.8003,246.8235],[150.1019,-30.8054,248.2572],[150.1121,-30.7506,246.5108],[150.1107,-30.7487,245.8321],[150.1304,-30.7515,246.5259],[150.1312,-30.7473,250.7721],[150.1487,-30.7494,269.1994],[150.149,-30.752,270.8094],[150.1603,-30.7536,264.2226],[150.1616,-30.747,253.5551],[150.2643,-30.7629,313.5683],[150.2686,-30.7398,288.6544],[150.2758,-30.7408,291.6713],[150.2768,-30.7358,291.3345],[150.2828,-30.7366,302.0573],[150.2844,-30.7288,295.9993],[150.2956,-30.7304,343.2004],[150.3024,-30.6945,324.9074],[150.2904,-30.7017,311.9304],[150.2931,-30.6876,319.1554],[150.2911,-30.6873,317.6618],[150.2955,-30.6744,326.7166],[150.3044,-30.6757,335.4612],[150.3048,-30.6736,339.2972],[150.3245,-30.6764,362.3628],[150.3374,-30.6745,389.5879],[150.3394,-30.6637,467.5199],[150.3472,-30.6643,418.3891],[150.3484,-30.6626,429.8719],[150.3539,-30.6615,431.4406],[150.3555,-30.6499,495.1469],[150.3494,-30.6356,546.6348],[150.3528,-30.6334,556.7366],[150.3625,-30.6322,609.4148],[150.3753,-30.6255,595.8613],[150.3795,-30.6214,661.3019],[150.3878,-30.6182,729.8497],[150.3888,-30.6163,754.9277],[150.3878,-30.6115,826.3765],[150.3911,-30.6053,875.0022],[150.3868,-30.6038,861.5501],[150.3839,-30.6057,779.0364],[150.3846,-30.602,895.5511],[150.3783,-30.6027,866.4864],[150.3771,-30.5994,880.5618],[150.3717,-30.5946,828.6014],[150.3708,-30.5873,787.6648],[150.3639,-30.5841,832.8088],[150.368,-30.5818,776.9954],[150.3702,-30.5762,594.1508],[150.3623,-30.574,535.3184],[150.3589,-30.5666,552.5364],[150.3604,-30.5594,538.2596],[150.3737,-30.5612,614.1054],[150.3727,-30.5667,796.4666],[150.3907,-30.5693,832.1028],[150.3917,-30.563,834.4103],[150.3883,-30.5599,834.5772],[150.3905,-30.5577,837.3866],[150.3887,-30.551,826.8905],[150.3938,-30.5471,847.1072],[150.3661,-30.5434,708.6082],[150.3685,-30.5301,662.9631],[150.3548,-30.528199999999998,652.1373],[150.3565,-30.5197,652.6161],[150.3589,-30.52,679.215],[150.3625,-30.4986,536.1478],[150.3484,-30.4967,467.9377],[150.349,-30.4936,433.1921],[150.353,-30.492,443.3731],[150.3549,-30.4934,449.4588],[150.3642,-30.4891,485.8972],[150.3676,-30.4701,705.6027],[150.3609,-30.4688,684.2183],[150.3509,-30.473,593.6506],[150.3465,-30.4732,654.7646],[150.3463,-30.4695,708.2611],[150.3517,-30.4652,645.8525],[150.35,-30.4599,701.3608],[150.3516,-30.4575,689.2021],[150.3611,-30.4539,739.6093],[150.3641,-30.4457,691.3012],[150.3625,-30.4325,848.9913],[150.3557,-30.4281,841.4055],[150.3493,-30.415,895.5164],[150.3414,-30.4121,893.8805],[150.3388,-30.4151,913.5139],[150.3349,-30.4102,909.0706],[150.3316,-30.4089,934.8176],[150.3326,-30.4068,954.2776],[150.3286,-30.4025,1022.727],[150.3211,-30.4087,789.7465],[150.3202,-30.4111,767.3954],[150.3229,-30.4147,670.3952],[150.323,-30.4194,633.048],[150.3166,-30.4281,570.8052],[150.3139,-30.4292,571.7599],[150.3106,-30.4279,590.9747],[150.3065,-30.4318,671.7705],[150.3005,-30.4327,711.7653],[150.2986,-30.4301,693.4694],[150.2954,-30.4303,704.3455],[150.2919,-30.428,727.2716],[150.2832,-30.4308,852.3242],[150.2746,-30.4214,838.0248],[150.2702,-30.4207,861.8357],[150.2626,-30.4155,876.4755],[150.2515,-30.4135,854.7819],[150.2455,-30.406,871.3566],[150.2396,-30.4017,877.1995],[150.2313,-30.4025,835.5483],[150.2258,-30.3993,790.8386],[150.2248,-30.3963,790.2594],[150.2262,-30.3924,826.6414],[150.2377,-30.3846,843.4586],[150.2385,-30.3821,824.1693],[150.2359,-30.3785,832.2573],[150.2288,-30.3765,720.232],[150.224,-30.3709,844.8485],[150.2034,-30.375,832.9974],[150.1908,-30.3646,825.6015],[150.1883,-30.3597,859.7481],[150.1886,-30.3573,890.7816],[150.1955,-30.3456,932.2352],[150.1935,-30.3383,924.1418],[150.1941,-30.3317,1012.6306],[150.1913,-30.3262,931.236],[150.195,-30.3211,1052.2686],[150.1895,-30.3077,1115.9208],[150.183,-30.2995,1198.192],[150.1836,-30.2968,1194.4777],[150.1871,-30.2973,1167.1644],[150.1936,-30.2932,1178.7339],[150.1852,-30.2892,1243.9684],[150.1847,-30.2843,1314.1152],[150.1826,-30.2833,1315.4371],[150.1799,-30.2783,1324.2134],[150.1726,-30.2788,1416.4019],[150.169,-30.2749,1435.7527],[150.1659,-30.2739,1481.1357],[150.1685,-30.2717,1415.2312],[150.1695,-30.2674,1356.4943],[150.1756,-30.265,1425.0165],[150.1712,-30.2557,1090.5161],[150.1714,-30.2516,1056.4264],[150.1739,-30.2484,1017.6232],[150.173,-30.2436,1007.9437],[150.1685,-30.2394,1024.5697],[150.1671,-30.2285,1029.3447],[150.1629,-30.2218,1171.4651],[150.1588,-30.2224,1189.8948],[150.1505,-30.22,1292.861],[150.1464,-30.2156,1328.1339],[150.1473,-30.2126,1277.889],[150.1456,-30.2106,1237.9862],[150.1449,-30.2024,1352.8607],[150.1365,-30.2007,1188.519],[150.1327,-30.2033,1177.6141],[150.1298,-30.2031,1173.0276],[150.1281,-30.1986,1181.0439],[150.1244,-30.1956,1185.4967],[150.1144,-30.1934,1113.5205],[150.109,-30.1941,1089.6698],[150.1023,-30.1919,1170.8923],[150.0894,-30.1717,970.563],[150.0899,-30.1606,930.4191],[150.0853,-30.1555,919.8185],[150.0807,-30.1401,751.158],[150.0764,-30.1395,727.141],[150.0744,-30.1371,702.7156],[150.0765,-30.1327,722.9938],[150.0746,-30.1298,743.3682],[150.0772,-30.122,919.9603],[150.0739,-30.1143,1002.8844],[150.0757,-30.1074,1036.5597],[150.0742,-30.1054,1050.3873],[150.0746,-30.1011,927.8846],[150.0689,-30.0974,1007.8025],[150.0671,-30.0921,1139.3978],[150.0623,-30.0882,1264.7592],[150.066,-30.0812,950.267],[150.0644,-30.0709,803.6692],[150.0617,-30.0697,782.5462],[150.0588,-30.0569,749.6058],[150.0502,-30.0557,550.8291],[150.0558,-30.0237,508.5662],[150.0392,-30.0004,445.2237],[150.031,-30.0045,410.2549],[150.0287,-30.0028,398.9122],[150.0317,-29.9979,420.519],[150.0359,-29.9957,433.8215],[150.0305,-29.9881,405.3469],[150.0103,-29.9854,401.4034],[150.0098,-29.9877,399.7032],[149.9855,-29.9834,380.87],[149.9859,-29.9811,381.5917],[149.9689,-29.9781,369.6647],[149.9237,-29.9626,385.7728],[149.9272,-29.9494,338.3179],[149.9154,-29.9478,345.2165],[149.9179,-29.9341,324.9448],[149.9031,-29.9321,307.3578],[149.8994,-29.9211,287.4354],[149.9028,-29.9215,291.3778],[149.907,-29.9098,300.7652],[149.9105,-29.8847,281.8149],[149.8835,-29.881,295.906],[149.8787,-29.8837,283.9077],[149.8196,-29.8757,242.8902],[149.8187,-29.8804,247.46],[149.7897,-29.8764,235.327],[149.789,-29.8376,240.4426],[149.7862,-29.8372,238.4558],[149.7806,-29.8328,231.0233],[149.763,-29.8319,226.1391],[149.7557,-29.824,218.8512],[149.7527,-29.8236,218.2147],[149.759,-29.7835,215.8377],[149.7215,-29.7786,208.2936],[149.7207,-29.7827,208.2781],[149.7193,-29.7825,213.0028],[149.713,-29.8182,215.422],[149.7089,-29.8181,208.5719],[149.7069,-29.8212,207.6631],[149.7023,-29.818,205.8871],[149.7004,-29.819,205.2882],[149.7005,-29.8219,205.273],[149.6973,-29.8212,204.0262],[149.6892,-29.8234,203.4208],[149.6915,-29.8105,206.2668],[149.6588,-29.806,198.1931],[149.663,-29.7823,197.5295],[149.6463,-29.78,192.8425],[149.6472,-29.775,191.7821],[149.6449,-29.778199999999998,190.9886],[149.6353,-29.779,190.6551],[149.635,-29.7826,190.1365],[149.6265,-29.7856,189.2067],[149.6235,-29.7847,188.3553],[149.6223,-29.7886,188.2867],[149.6144,-29.7869,187.1207],[149.6109,-29.7894,187.0646],[149.6112,-29.7949,186.0206],[149.6056,-29.7964,186.2598],[149.6035,-29.801,185.7995],[149.5975,-29.8014,185.8019],[149.594,-29.7989,185.1075],[149.5912,-29.7991,184.9135],[149.5874,-29.8022,184.2249],[149.5826,-29.8022,184.6056],[149.5823,-29.809,183.336],[149.5738,-29.8092,183.0335],[149.5718,-29.8126,181.7565],[149.5679,-29.8111,181.7736],[149.5656,-29.8127,181.7299],[149.5647,-29.8118,181.7299],[149.5633,-29.8175,180.9456],[149.5586,-29.8159,179.3239],[149.5515,-29.8174,180.0101],[149.5472,-29.8158,179.4353],[149.5442,-29.8125,179.5273],[149.5379,-29.8134,179.4029],[149.5322,-29.8112,178.3126],[149.5288,-29.8139,179.0502],[149.516,-29.8144,178.5627],[149.5093,-29.8091,178.1034],[149.5083,-29.8052,177.8116],[149.5058,-29.8048,177.7797],[149.5035,-29.802,177.7245],[149.4933,-29.7999,177.0716],[149.4851,-29.7942,176.5988],[149.4812,-29.7948,176.7393],[149.4803,-29.7974,176.9813],[149.4762,-29.7982,176.5177],[149.4705,-29.7976,176.7791],[149.4661,-29.7932,176.7526],[149.4544,-29.7935,175.3341],[149.4529,-29.7923,175.4043],[149.4457,-29.7937,175.4617],[149.4394,-29.7901,175.5645],[149.4376,-29.791,175.3739],[149.4237,-29.787,175.126],[149.4218,-29.7872,174.6398],[149.4196,-29.7904,174.8926],[149.4171,-29.7891,175.3049],[149.4146,-29.7839,175.3667],[149.4112,-29.7852,175.3568],[149.405,-29.7835,175.1021],[149.3967,-29.785,175.1399],[149.3948,-29.7889,174.4702],[149.3918,-29.79,175.3388],[149.3885,-29.7881,174.3814],[149.3598,-29.7841,172.6592],[149.0828,-29.7493,161.399],[149.0658,-29.8587,160.9437],[149.0623,-29.8605,161.0755],[149.0591,-29.8762,163.0604],[149.048,-29.9535,163.2313],[149.0943,-29.9593,165.3015],[149.0812,-30.0345,166.4751],[149.0678,-30.0329,165.9709],[149.0614,-30.0728,165.8496],[149.0578,-30.075,165.8909],[149.0551,-30.0925,165.4976],[149.0511,-30.092,165.7003],[149.045,-30.0974,167.1894],[149.0237,-30.1055,165.3795],[149.0271,-30.1122,166.2085],[149.0229,-30.1138,168.591],[149.0204,-30.1293,165.2846],[148.997,-30.1268,165.5984],[149.001,-30.1223,164.4236],[149.002,-30.1164,164.6626],[148.9972,-30.1159,164.4897],[148.9933,-30.1174,164.0583],[148.9706,-30.1497,163.9827],[148.975,-30.1536,164.5484],[148.9749,-30.1561,164.5958],[148.9814,-30.1678,164.2471],[148.9428,-30.1878,164.1874],[148.9402,-30.2044,161.6905],[148.9381,-30.2044,161.6281],[148.9262,-30.2861,163.439],[148.9311,-30.2872,163.4812],[148.9288,-30.3002,166.1779],[148.9319,-30.2996,166.3513],[148.9296,-30.3133,163.2292],[148.9222,-30.3123,161.8412],[148.9197,-30.3268,161.0853],[148.9228,-30.3272,161.5344],[148.921,-30.3379,162.5306],[148.9184,-30.3387,162.3131],[148.9159,-30.3372,162.8927],[148.9161,-30.342,161.5905],[148.9124,-30.3399,161.2253],[148.9144,-30.3389,162.281],[148.914,-30.3371,162.7704],[148.9095,-30.3373,162.274],[148.9094,-30.3332,161.9278],[148.9059,-30.3365,163.0417],[148.9035,-30.3344,161.475],[148.8995,-30.3372,161.1783],[148.8954,-30.3352,163.0207],[148.8921,-30.3376,160.797],[148.8934,-30.3347,161.6264],[148.8899,-30.3341,160.4774],[148.8936,-30.3323,162.0948],[148.8952,-30.3288,160.5837],[148.8923,-30.3304,161.3592],[148.8918,-30.3286,161.8224],[148.8894,-30.3288,162.4393],[148.8897,-30.3268,160.6012],[148.8851,-30.3257,161.3299],[148.8793,-30.3611,166.4825],[148.8843,-30.3617,167.4903],[148.8796,-30.3674,168.6929],[148.8548,-30.5179,188.0975],[148.8517,-30.5314,192.9656],[148.8347,-30.5294,187.8639],[148.8111,-30.6734,213.3175]]]]}
,"properties": {"GID_2": "AUS.5.97_1","GID_0": "AUS","country": "Australia","GID_1": "AUS.5_1","state": "NewSouthWales","NL_NAME_1": "NA","county": "Narrabri","VARNAME_2": "NA","NL_NAME_2": "NA","TYPE_2": "Area","ENGTYPE_2": "Area","CC_2": "15750","HASC_2": "AU.NS.NB","name": "Narrabri.county","area_km2": 13027.12,"hist_schema_id": "Elevation0-9000","hist_area_km2": {"150": 74.29,"175": 3015.37,"200": 2154.66,"225": 1683.31,"250": 1340.32,"275": 1049.27,"300": 821.91,"325": 689.87,"350": 577.08,"375": 399.39,"400": 269.21,"425": 163.96,"450": 87.05,"475": 69.17,"500": 63.99,"525": 59.57,"550": 53.88,"575": 47.42,"600": 43.46,"625": 40.67,"650": 39.52,"675": 35.35,"700": 31.05,"725": 28.22,"750": 26.09,"775": 23.19,"800": 19.44,"825": 18.32,"850": 14.0,"875": 10.33,"900": 8.37,"925": 7.75,"950": 6.15,"975": 6.08,"1000": 5.44,"1025": 4.69,"1050": 4.82,"1075": 5.07,"1100": 4.54,"1125": 3.61,"1150": 3.42,"1175": 2.82,"1200": 2.27,"1225": 2.12,"1250": 1.72,"1275": 1.56,"1300": 1.21,"1325": 1.06,"1350": 1.08,"1375": 1.19,"1400": 1.15,"1425": 1.15,"1450": 0.31,"1475": 0.11}}}