{"type":"Feature","properties":{"featurecla":"River","scalerank":6,"rivernum":341,"dissolve":"341River","name":"Daly","name_alt":null,"note":null,"min_zoom":5.0,"strokeweig":0.2,"name_en":"Daly","min_label":6.0},
"geometry":{"type": "LineString","coordinates": [[131.84365234375002,-14.70574309688088,85.8183],[131.80478515625003,-14.696123956255889,79.2103],[131.78457031250002,-14.68743255000588,106.0296],[131.74951171875,-14.66619231563088,72.4635],[131.73281250000002,-14.66204192500588,71.2246],[131.718017578125,-14.656280206255886,76.1306],[131.71181640625002,-14.64153411250588,75.7907],[131.709228515625,-14.60051848750588,72.3513],[131.703857421875,-14.57903411250588,75.7635],[131.685302734375,-14.53460051875588,69.4824],[131.68125,-14.51482512813088,65.5293],[131.67919921875,-14.509307550005886,69.941],[131.6701171875,-14.491534112505889,66.952],[131.668212890625,-14.48040130000588,71.7032],[131.67138671875,-14.447295831255886,68.7586],[131.668212890625,-14.43547942500588,57.9329],[131.65029296875002,-14.413409112505889,67.1072],[131.62763671875,-14.40911223750588,65.1476],[131.60556640625003,-14.41033294063088,60.429],[131.58876953125002,-14.40496184688088,61.3096],[131.58173828125,-14.395538018755886,67.7727],[131.57900390625002,-14.38616301875588,63.6357],[131.578857421875,-14.36370208125588,63.4429],[131.575,-14.357452081255886,55.4029],[131.565673828125,-14.35369231563088,59.6314],[131.554443359375,-14.35051848750588,56.7948],[131.54482421875002,-14.34661223750588,58.1194],[131.47373046875003,-14.29583098750588,58.0737],[131.44521484375002,-14.26873137813088,59.1805],[131.42744140625,-14.24358489375588,54.6958],[131.41298828125002,-14.19939544063088,54.4668],[131.400390625,-14.18230559688088,60.0183],[131.36904296875002,-14.173370050005886,61.5266],[131.36123046875002,-14.16863372188088,53.8401],[131.35488281250002,-14.16301848750588,65.4715],[131.34765625,-14.14934661250588,54.9467],[131.33779296875002,-14.14885833125588,48.5518],[131.32822265625003,-14.15227630000588,51.3007],[131.32509765625002,-14.15496184688088,55.6497],[131.30185546875003,-14.139678643755886,40.8443],[131.25732421875,-14.07293059688088,45.7263]]}}