{"type":"Feature","properties":{"featurecla":"River","scalerank":6,"rivernum":341,"dissolve":"341River","name":"Daly1","name_alt":null,"note":null,"min_zoom":5.0,"strokeweig":0.25,"name_en":"Daly","min_label":6.0},
"geometry":{"type": "LineString","coordinates": [[131.25732421875,-14.07293059688088,45.7263],[131.2482421875,-14.06609465938088,42.2881],[131.224609375,-14.05681731563088,41.4091],[131.21240234375,-14.04876067500588,48.0399],[131.20742187500002,-14.034991143755889,43.0618],[131.216796875,-14.02190520625588,45.2878],[131.22998046875,-14.00945403438088,41.5568],[131.23623046875002,-13.99724700313088,41.8285],[131.229736328125,-13.98455169063088,40.1954],[131.216015625,-13.971221612505886,42.2377],[131.20126953125003,-13.96062590938088,40.8428],[131.181396484375,-13.951006768755889,38.0773],[131.182861328125,-13.93865325313088,34.6314],[131.209375,-13.89153411250588,39.0003],[131.21494140625003,-13.876006768755886,38.9032],[131.21240234375,-13.863799737505886,35.9632],[131.19960937500002,-13.855303643755889,40.5288],[131.18369140625003,-13.852080987505886,37.8424],[131.16757812500003,-13.853838800005889,38.7978],[131.15371093750002,-13.86003997188088,34.3881],[131.14951171875003,-13.84978606563088,39.4487],[131.1455078125,-13.842120050005889,23.3146],[131.140380859375,-13.836455987505886,27.5624],[131.13320312500002,-13.832061456255886,40.236],[131.12363281250003,-13.829620050005886,34.7238],[131.10996093750003,-13.828448175005889,29.3706],[131.09755859375002,-13.83001067500588,31.8224],[131.09228515625,-13.83587005000588,36.0732],[131.08779296875002,-13.842120050005889,38.4519],[131.07705078125002,-13.84514739375588,34.3643],[131.05429687500003,-13.84636809688088,34.2108],[131.04160156250003,-13.85149505000588,30.7011],[131.0390625,-13.86321380000588,28.8345],[131.03994140625002,-13.87688567500588,32.4948],[131.03759765625,-13.88738372188088,28.4947],[131.0224609375,-13.89812590938088,32.1996],[131.0029296875,-13.90178801875588,26.5195],[130.95849609375,-13.90105559688088,28.2607],[130.93710937500003,-13.903643487505889,48.141],[130.86474609375,-13.927276300005886,19.4045],[130.85556640625003,-13.928741143755886,23.6729],[130.84521484375,-13.92766692500588,81.472],[130.83837890625,-13.92327239375588,26.0695],[130.83515625,-13.916534112505886,13.591],[130.83095703125002,-13.910479425005889,16.8617],[130.80429687500003,-13.90252044063088,22.9907],[130.75527343750002,-13.876495050005886,19.2757],[130.74267578125,-13.867510675005889,18.32],[130.72597656250002,-13.82732512813088,35.8996],[130.71005859375003,-13.76458098750588,15.8336],[130.66835937500002,-13.702471612505889,13.6455],[130.66152343750002,-13.68254973750588,15.1494],[130.65673828125,-13.67253997188088,6.7516],[130.650390625,-13.668291925005889,9.2992],[130.630078125,-13.66521575313088,11.4435],[130.61826171875003,-13.665850518755889,17.2404],[130.613037109375,-13.671709893755889,16.5114],[130.60800781250003,-13.67571380000588,19.142],[130.596923828125,-13.674639581255889,11.8698],[130.58505859375003,-13.67131926875588,14.2451],[130.5783203125,-13.668291925005889,9.8167],[130.572509765625,-13.65984465938088,15.8178],[130.564697265625,-13.627276300005889,13.6854],[130.5537109375,-13.60857512813088,10.1597],[130.49951171875,-13.54534270625588,11.5301],[130.461669921875,-13.49016692500588,12.2901],[130.457763671875,-13.48088958125588,3.3794],[130.45517578125003,-13.472002862505889,4.0439],[130.45,-13.465362237505886,3.5093],[130.437744140625,-13.46282317500588,4.7831],[130.43076171875003,-13.46477630000588,4.7057],[130.42294921875003,-13.46941497188088,4.6013],[130.41650390625,-13.47527434688088,4.269],[130.413818359375,-13.48015715938088,1.2298],[130.4052734375,-13.48967864375588,3.3971],[130.38583984375003,-13.48626067500588,0.8791],[130.3517578125,-13.470245050005886,0.0],[130.324462890625,-13.44646575313088,5.6987],[130.306640625,-13.43401458125588,0.0],[130.28652343750002,-13.42864348750588,1.0077],[130.28183593750003,-13.41887786250588,0.0],[130.31503906250003,-13.370635675005886,3.0464],[130.324462890625,-13.35295989375588,4.5711]]}}