{"type":"Feature","properties":{"featurecla":"River","scalerank":8,"rivernum":745,"dissolve":"745River","name":"Roper","name_alt":null,"note":null,"min_zoom":7.0,"strokeweig":0.15,"name_en":"Roper","min_label":8.0},
"geometry":{"type": "LineString","coordinates": [[132.75068359375,-14.47014739375588,232.1526],[132.73974609375,-14.48211028438088,237.4535],[132.7197265625,-14.512530206255889,217.8908],[132.7060546875,-14.518584893755886,222.202],[132.65771484375,-14.57610442500588,200.9113],[132.64765625,-14.593096612505889,193.9079],[132.64931640625002,-14.616241143755886,190.9397],[132.6630859375,-14.630889581255886,183.1372],[132.68359375,-14.63860442500588,179.477],[132.7060546875,-14.64080169063088,177.7195],[132.71083984375002,-14.64299895625588,175.395],[132.7158203125,-14.64763762813088,174.0794],[132.72275390625003,-14.652373956255886,173.668],[132.743359375,-14.657061456255889,169.727],[132.748046875,-14.66350676875588,169.5671],[132.75146484375,-14.672393487505886,168.768],[132.75751953125,-14.682452081255889,171.5025],[132.76708984375,-14.69451262813088,167.3974],[132.77392578125,-14.69915130000588,168.0068],[132.784912109375,-14.70232512813088,163.2695],[132.796630859375,-14.701495050005889,162.1111],[132.81972656250002,-14.695830987505886,165.5383],[132.82958984375,-14.69915130000588,164.0471],[132.83876953125002,-14.70818450313088,157.99],[132.858642578125,-14.73796965938088,156.6171]]}}