{"type":"Feature","properties":{"featurecla":"River","scalerank":8,"rivernum":784,"dissolve":"784River","name":"Victoria","name_alt":null,"note":null,"min_zoom":7.0,"strokeweig":0.15,"name_en":"Victoria","min_label":8.0},
"geometry":{"type": "LineString","coordinates": [[130.14892578125,-17.82073333125588,372.4767],[130.207763671875,-17.82073333125588,348.5371],[130.2482421875,-17.813995050005886,344.5881],[130.28515625,-17.80242278438088,331.5425],[130.317578125,-17.79802825313088,310.1887],[130.344921875,-17.81389739375588,305.7951],[130.37490234375002,-17.866045831255889,294.8044],[130.379638671875,-17.87932708125588,286.5462],[130.386962890625,-17.889190362505886,285.6728],[130.46044921875,-17.948272393755886,274.3556],[130.475341796875,-17.954131768755886,288.1792],[130.56728515625002,-17.954620050005886,263.0378],[130.58779296875002,-17.951006768755889,247.5242],[130.60556640625003,-17.93792083125588,251.1545],[130.60976562500002,-17.93059661250588,244.3553],[130.615478515625,-17.91228606563088,253.5186],[130.619873046875,-17.90325286250588,259.0789],[130.6572265625,-17.86565520625588,260.3155]]}}