{"type":"Feature","properties":{"featurecla":"River","scalerank":8,"rivernum":745,"dissolve":"745River","name":"Roper1","name_alt":null,"note":null,"min_zoom":7.0,"strokeweig":0.2,"name_en":"Roper","min_label":8.0},
"geometry":{"type": "LineString","coordinates": [[132.858642578125,-14.73796965938088,156.6171],[132.865234375,-14.74797942500588,152.6898],[132.87294921875002,-14.757159112505889,156.8105],[132.88251953125,-14.765166925005886,163.718],[132.894775390625,-14.77190520625588,147.955],[132.90478515625,-14.773955987505886,148.2072],[132.92578125,-14.774737237505889,145.7951],[132.93564453125003,-14.77800872188088,148.0045],[132.94589843750003,-14.786944268755889,153.2636],[132.97314453125,-14.823077081255889,138.654],[133.0244140625,-14.86736419063088,133.4841],[133.0966796875,-14.915850518755889,128.1065],[133.102294921875,-14.91790130000588,128.7391],[133.11972656250003,-14.926788018755886,125.3543],[133.152587890625,-14.931475518755889,124.4037],[133.23876953125,-14.95403411250588,120.6683],[133.261474609375,-14.95623137813088,122.4892],[133.271240234375,-14.95403411250588,118.0453],[133.29052734375,-14.94475676875588,110.5537],[133.30214843750002,-14.94255950313088,108.0403],[133.311279296875,-14.94451262813088,106.9235],[133.322265625,-14.95354583125588,106.1795],[133.3330078125,-14.95623137813088,106.2093],[133.36591796875,-14.947295831255886,103.8491],[133.39394531250002,-14.92327239375588,100.1015],[133.449462890625,-14.847491143755889,101.9921],[133.45654296875,-14.840166925005889,93.3905],[133.45888671875002,-14.83587005000588,92.7143],[133.461181640625,-14.82952239375588,93.3204],[133.46445312500003,-14.82341887813088,92.6577],[133.47011718750002,-14.819659112505889,92.2949],[133.477294921875,-14.820342706255886,94.535],[133.48789062500003,-14.83025481563088,88.4432],[133.50498046875003,-14.835967706255886,87.8362],[133.5146484375,-14.841827081255886,85.5792],[133.52431640625002,-14.844073175005889,84.3075],[133.53515625,-14.83635833125588,84.018],[133.542236328125,-14.833330987505889,89.1876],[133.552001953125,-14.83440520625588,88.0351],[133.572509765625,-14.840166925005889,82.7452],[133.61337890625003,-14.842803643755886,76.9257],[133.766357421875,-14.826690362505886,63.8789],[133.78515625,-14.82854583125588,84.9295],[133.80126953125,-14.83367278438088,70.677],[133.81582031250002,-14.843584893755889,60.6975],[133.836669921875,-14.85393645625588,59.7333],[133.85898437500003,-14.85271575313088,59.2022],[133.90214843750005,-14.840166925005889,57.7489],[133.925537109375,-14.83977630000588,54.0882],[133.96748046875,-14.85076262813088,59.8724],[133.98769531250002,-14.853838800005889,49.4988],[134.00390625,-14.851104425005886,50.9755],[134.02099609375,-14.844561456255889,48.7992],[134.0361328125,-14.83562590938088,46.77],[134.046142578125,-14.826495050005889,44.9742]]}}