{"type":"Feature","properties":{"GID_2":"AUS.8.41_1","GID_0":"AUS","country":"Australia","GID_1":"AUS.8_1","state":"SouthAustralia","NL_NAME_1":"NA","county":"NorwoodPaynehamStPeters","VARNAME_2":"NA","NL_NAME_2":"NA","TYPE_2":"City","ENGTYPE_2":"City","CC_2":"45290","HASC_2":"NA","name":"NorwoodPaynehamStPeters.county"},
"geometry":{"type": "MultiPolygon","coordinates": [[[[138.6236,-34.9279,55.1695],[138.6415,-34.927,76.4783],[138.6419,-34.933,81.6243],[138.6508,-34.9326,96.1447],[138.6498,-34.9206,83.0858],[138.641,-34.921,68.5433],[138.6405,-34.9148,60.2517],[138.6583,-34.9139,88.7876],[138.6569,-34.8887,60.6727],[138.6478,-34.883,50.302],[138.6395,-34.8881,44.9533],[138.6361,-34.8871,45.0013],[138.6283,-34.89,41.193],[138.6266,-34.8938,41.4919],[138.622,-34.8933,37.546],[138.6221,-34.8964,39.1174],[138.6181,-34.8957,38.6806],[138.6183,-34.901,36.0613],[138.6139,-34.8997,36.6713],[138.6153,-34.9052,31.3054],[138.6128,-34.9095,31.2982],[138.6157,-34.9226,44.9741],[138.6236,-34.9279,55.1695]]]]}}