{"type":"Feature","properties":{"GID_2":"AUS.5.107_1","GID_0":"AUS","country":"Australia","GID_1":"AUS.5_1","state":"NewSouthWales","NL_NAME_1":"NA","county":"Penrith","VARNAME_2":"NA","NL_NAME_2":"NA","TYPE_2":"City","ENGTYPE_2":"City","CC_2":"16350","HASC_2":"AU.NS.PE","name":"Penrith.county"},
"geometry":{"type": "MultiPolygon","coordinates": [[[[150.8123,-33.6776,9.1385],[150.7964,-33.6602,30.8071],[150.7901,-33.6464,33.1141],[150.7822,-33.6375,20.0878],[150.7118,-33.6144,16.4026],[150.7014,-33.6124,7.5246],[150.6995,-33.6123,6.6181],[150.6937,-33.6206,16.0821],[150.6834,-33.6234,4.3645],[150.6772,-33.6308,31.9672],[150.6664,-33.6536,23.2601],[150.6678,-33.6596,18.1677],[150.6671,-33.6664,18.553],[150.6608,-33.6698,12.4446],[150.6589,-33.6731,17.5924],[150.6579,-33.677,14.6555],[150.6598,-33.6929,11.7183],[150.658,-33.7137,7.1808],[150.6558,-33.7169,7.0],[150.6497,-33.716,100.7049],[150.6484,-33.7219,156.7526],[150.6441,-33.7212,212.5706],[150.6425,-33.7302,143.0791],[150.647,-33.7309,68.0946],[150.6463,-33.7344,79.3925],[150.6441,-33.7341,103.3972],[150.6406,-33.748,102.3909],[150.6438,-33.7494,58.8999],[150.6449,-33.752,64.5604],[150.6417,-33.7576,95.6378],[150.6428,-33.7751,97.6404],[150.6396,-33.7792,67.6689],[150.643,-33.7798,52.6346],[150.6197,-33.8141,33.3743],[150.6091,-33.8226,42.8046],[150.5973,-33.8274,32.8406],[150.5928,-33.8325,62.3763],[150.588,-33.8449,55.9987],[150.5919,-33.8546,30.7612],[150.5959,-33.8572,34.9663],[150.6104,-33.8574,44.0902],[150.6128,-33.8618,62.1405],[150.6174,-33.8623,42.8546],[150.62,-33.861,61.7009],[150.6286,-33.862,50.6396],[150.6349,-33.856,39.6209],[150.6386,-33.8617,32.2176],[150.6366,-33.8665,33.1242],[150.6392,-33.8711,32.0433],[150.6397,-33.8764,31.0694],[150.6924,-33.8832,99.6437],[150.6894,-33.8797,105.2695],[150.6905,-33.8723,97.3916],[150.6983,-33.864,93.6449],[150.7106,-33.8651,69.0657],[150.7183,-33.869,59.1073],[150.781,-33.8775,46.4548],[150.7933,-33.8807,55.2584],[150.815,-33.8795,79.0011],[150.8235,-33.8359,89.0813],[150.819,-33.8352,82.0709],[150.8208,-33.8267,66.9878],[150.8116,-33.8251,56.4111],[150.8158,-33.8169,54.7229],[150.8134,-33.8127,51.0799],[150.8145,-33.8111,53.5945],[150.8136,-33.8094,51.8605],[150.8157,-33.8077,52.2718],[150.8141,-33.8046,55.8892],[150.8143,-33.7983,51.9101],[150.8104,-33.7942,50.5838],[150.8119,-33.7907,43.5253],[150.8115,-33.7881,41.1777],[150.8094,-33.7879,40.6962],[150.8101,-33.7839,40.2094],[150.8082,-33.7837,41.123],[150.808,-33.7811,41.7261],[150.8054,-33.7796,39.128],[150.8062,-33.7783,39.9905],[150.8035,-33.7772,39.7934],[150.8021,-33.7701,38.497],[150.7955,-33.7641,35.5501],[150.7916,-33.7557,35.123],[150.793,-33.7535,30.6933],[150.7888,-33.7512,34.4196],[150.7892,-33.7468,33.3919],[150.7866,-33.7462,29.3449],[150.7841,-33.7411,28.775],[150.7781,-33.7398,26.8202],[150.7756,-33.7363,27.2457],[150.7618,-33.7352,22.8271],[150.7617,-33.7324,24.0202],[150.7596,-33.7301,22.6548],[150.764,-33.7263,25.1045],[150.7625,-33.721,25.8533],[150.7642,-33.7186,21.5092],[150.7657,-33.7189,20.8338],[150.7677,-33.7136,18.4672],[150.7661,-33.7055,14.8339],[150.7678,-33.7056,17.0344],[150.772,-33.7014,14.0658],[150.7762,-33.7042,17.0254],[150.7788,-33.7022,14.1283],[150.7799,-33.7002,12.6533],[150.7789,-33.6969,17.3222],[150.7851,-33.6933,15.3953],[150.7848,-33.6918,12.9207],[150.7912,-33.6888,12.0596],[150.7904,-33.6867,10.8769],[150.7955,-33.6846,10.5745],[150.7968,-33.6792,12.7799],[150.8005,-33.6746,11.0903],[150.8046,-33.6745,12.5343],[150.8075,-33.6781,8.9738],[150.8123,-33.6776,9.1385]]]]}}