{"type": "Feature","bbox": [142.1744,-18.5783,145.8399,-16.0425],"geometry": {"type": "MultiPolygon","coordinates": [[[[145.021,-16.2209,1318.2837],[145.0116,-16.2249,1257.641],[145.0043,-16.2379,1282.7048],[145.0008,-16.2397,1298.505],[145.0004,-16.246,1288.3617],[144.9983,-16.2495,1244.2993],[144.9925,-16.2531,1294.0852],[144.9921,-16.2562,1274.0548],[144.9982,-16.2588,1320.7465],[144.9949,-16.2637,1287.0831],[144.9866,-16.2663,1242.3187],[144.9863,-16.269,1250.2837],[144.9829,-16.2702,1234.7057],[144.9758,-16.2796,1230.9319],[144.9784,-16.2853,1269.7506],[144.9843,-16.2874,1251.2161],[144.9846,-16.2947,1227.0194],[144.9879,-16.301,1269.2465],[144.9925,-16.3036,1264.5844],[144.9938,-16.3133,1152.8698],[144.9923,-16.3165,1189.3132],[144.9835,-16.321,1106.0171],[144.9805,-16.3247,1064.944],[144.9718,-16.3269,940.9446],[144.9706,-16.3328,985.6862],[144.9662,-16.3336,897.5333],[144.9607,-16.3389,849.9702],[144.9558,-16.3371,841.2346],[144.947,-16.3375,834.1815],[144.9424,-16.3446,764.6274],[144.9385,-16.3453,740.3953],[144.9344,-16.3443,732.8024],[144.9242,-16.3366,751.5834],[144.9168,-16.335,761.1177],[144.9037,-16.3383,721.5316],[144.8943,-16.3496,778.8412],[144.891,-16.35,801.6945],[144.8888,-16.348,809.9853],[144.8829,-16.3291,789.7213],[144.8805,-16.3266,767.0154],[144.8775,-16.3266,751.0405],[144.8736,-16.3285,719.0165],[144.8573,-16.3498,698.3463],[144.8457,-16.3577,723.6306],[144.8393,-16.3645,860.312],[144.827,-16.3622,896.462],[144.819,-16.3564,921.8397],[144.815,-16.3431,884.541],[144.8093,-16.3383,925.3719],[144.8013,-16.3223,957.3589],[144.7888,-16.3062,990.1562],[144.7714,-16.2939,984.8799],[144.7733,-16.2837,1004.9545],[144.7724,-16.279,911.8666],[144.7709,-16.2755,945.6274],[144.7649,-16.2718,975.9383],[144.7647,-16.2671,844.1946],[144.7617,-16.2625,820.8401],[144.7316,-16.2605,549.5476],[144.7172,-16.2513,504.2713],[144.7123,-16.253,497.8245],[144.7123,-16.2602,501.7843],[144.7104,-16.2663,495.5732],[144.7052,-16.2676,501.9823],[144.6976,-16.2657,510.3076],[144.695,-16.27,495.629],[144.6953,-16.2788,496.6131],[144.6897,-16.295,531.9196],[144.6934,-16.3064,500.1761],[144.691,-16.3212,549.5078],[144.6897,-16.324,551.1513],[144.6788,-16.3326,602.8415],[144.655,-16.3255,534.1749],[144.653,-16.323,531.8168],[144.6448,-16.32,539.7023],[144.6427,-16.3172,530.2117],[144.6344,-16.3185,538.4911],[144.6276,-16.3218,529.0335],[144.6203,-16.319,595.4703],[144.6129,-16.3114,612.2128],[144.5848,-16.3007,592.4271],[144.5819,-16.2988,767.022],[144.5782,-16.2906,793.0692],[144.5757,-16.2897,780.0978],[144.5616,-16.2917,756.127],[144.5577,-16.2957,797.4142],[144.5576,-16.2999,769.5635],[144.5458,-16.3033,589.4786],[144.5392,-16.2982,537.2972],[144.5294,-16.2983,520.2735],[144.5146,-16.3091,581.4956],[144.5141,-16.3143,588.2224],[144.5104,-16.3148,582.5323],[144.5097,-16.3168,555.8081],[144.5114,-16.3216,556.0253],[144.5155,-16.3239,605.2919],[144.5189,-16.3235,626.2469],[144.5184,-16.326,603.9821],[144.5211,-16.3338,599.7518],[144.5246,-16.3358,598.0895],[144.5251,-16.3404,580.7684],[144.5189,-16.3497,572.4944],[144.5129,-16.3501,569.7573],[144.5093,-16.3537,591.2028],[144.5068,-16.3546,580.0808],[144.5037,-16.3532,549.0657],[144.5,-16.3554,568.6124],[144.4957,-16.3521,567.455],[144.4941,-16.3486,562.2622],[144.4885,-16.3474,539.6847],[144.4861,-16.3493,537.3819],[144.476,-16.3448,557.8041],[144.4709,-16.3367,523.3395],[144.4662,-16.3382,544.2379],[144.4573,-16.3358,548.3335],[144.4507,-16.3315,521.3893],[144.4381,-16.3422,520.8439],[144.4321,-16.3406,513.4861],[144.4284,-16.3452,518.1035],[144.4152,-16.3499,540.8253],[144.4059,-16.3463,524.2685],[144.4068,-16.3412,546.3674],[144.4037,-16.3346,515.0488],[144.3899,-16.3246,489.8383],[144.3868,-16.3132,491.3957],[144.3824,-16.3104,473.6961],[144.3782,-16.3104,449.5098],[144.3683,-16.304,425.746],[144.3631,-16.3004,440.0042],[144.3542,-16.2902,425.8072],[144.3445,-16.2858,423.0441],[144.34,-16.2902,448.7142],[144.3338,-16.2913,424.1982],[144.3281,-16.2987,430.7004],[144.3237,-16.3137,420.1655],[144.3173,-16.3209,417.3142],[144.3176,-16.3308,429.9114],[144.3126,-16.3273,405.3367],[144.3065,-16.3294,408.1776],[144.3027,-16.3335,411.9851],[144.3026,-16.3364,414.0759],[144.2983,-16.3385,417.2626],[144.2928,-16.3377,410.5777],[144.2875,-16.3345,413.2968],[144.278,-16.3249,419.0034],[144.2728,-16.3249,394.9998],[144.2679,-16.3288,397.0202],[144.2664,-16.3354,415.3106],[144.263,-16.3365,413.6584],[144.2595,-16.3353,432.9849],[144.2536,-16.3411,372.429],[144.2467,-16.3432,328.7464],[144.2426,-16.3304,409.8256],[144.2371,-16.3286,413.2668],[144.2326,-16.3203,420.5303],[144.2287,-16.319,419.4174],[144.2254,-16.3153,423.9776],[144.2256,-16.3101,412.9946],[144.2283,-16.3084,405.8484],[144.2262,-16.2939,502.1371],[144.2283,-16.2902,442.9121],[144.2198,-16.2887,408.2426],[144.2183,-16.2853,405.4529],[144.22,-16.2852,405.4529],[144.2206,-16.2827,394.9764],[144.2228,-16.2835,405.0177],[144.2232,-16.2814,417.1144],[144.2164,-16.2741,392.0726],[144.2133,-16.2729,401.3278],[144.213,-16.2711,404.223],[144.1994,-16.2622,372.0814],[144.1932,-16.2619,390.0194],[144.1856,-16.2688,458.1848],[144.1823,-16.2638,385.0878],[144.1789,-16.2616,385.3865],[144.1777,-16.2583,409.4788],[144.1685,-16.2498,429.7713],[144.1617,-16.2482,424.3203],[144.162,-16.2411,457.7216],[144.1597,-16.2319,447.34],[144.1552,-16.2274,448.3184],[144.153,-16.2213,438.7196],[144.1464,-16.2168,437.5117],[144.1428,-16.2025,495.0736],[144.1364,-16.1946,426.9678],[144.1363,-16.1867,417.5009],[144.1245,-16.1849,443.8441],[144.1204,-16.1811,478.5786],[144.1167,-16.1493,461.82619999999997],[144.117,-16.1414,481.287],[144.1094,-16.1422,479.5296],[144.107,-16.137,389.4795],[144.1034,-16.1347,334.9258],[144.0971,-16.1319,345.0666],[144.0957,-16.1349,334.1054],[144.0942,-16.1349,322.4272],[144.0848,-16.1275,291.1657],[144.0826,-16.1307,295.6929],[144.0712,-16.1311,285.3426],[144.0683,-16.1353,285.317],[144.0635,-16.1373,281.9692],[144.0601,-16.1413,279.0748],[144.0573,-16.143,275.7951],[144.0515,-16.1426,275.7289],[144.0441,-16.148,273.8037],[144.0317,-16.1419,274.711],[144.016,-16.1387,264.4739],[144.0061,-16.1285,261.1728],[143.9967,-16.1245,259.6671],[143.9912,-16.1241,254.8533],[143.9735,-16.1161,258.3096],[143.9662,-16.1194,280.3827],[143.9656,-16.1162,254.8803],[143.9597,-16.1117,245.3889],[143.9501,-16.1085,250.1624],[143.9489,-16.1122,246.0094],[143.9406,-16.1144,245.2811],[143.9344,-16.1204,244.8788],[143.9338,-16.1266,239.4158],[143.9149,-16.1364,254.6529],[143.9108,-16.1321,257.9225],[143.9096,-16.128,255.6061],[143.9028,-16.1273,247.1589],[143.9027,-16.1223,267.3594],[143.8994,-16.1208,279.6992],[143.8982,-16.1165,265.8474],[143.8913,-16.1197,278.9159],[143.8905,-16.1159,297.4955],[143.8804,-16.1109,282.0478],[143.8799,-16.1063,251.3232],[143.874,-16.1061,264.8717],[143.8713,-16.1081,245.5994],[143.8693,-16.1167,227.9081],[143.8669,-16.1198,222.0116],[143.8534,-16.1296,213.6191],[143.854,-16.1357,211.8003],[143.8513,-16.1372,219.7001],[143.8438,-16.1367,210.9026],[143.8425,-16.1351,208.1717],[143.8317,-16.1324,213.486],[143.8221,-16.1375,227.2038],[143.8184,-16.1442,236.906],[143.8136,-16.1458,236.4865],[143.8088,-16.1542,282.4782],[143.8028,-16.1576,304.7987],[143.7974,-16.1564,250.2596],[143.7937,-16.1593,244.9353],[143.7909,-16.1572,240.5229],[143.7861,-16.1585,236.7696],[143.7789,-16.1568,235.0083],[143.7757,-16.1583,237.9528],[143.776,-16.1617,235.3588],[143.7736,-16.1644,244.9177],[143.7666,-16.1628,238.2276],[143.7646,-16.1608,237.9424],[143.7581,-16.1653,238.386],[143.7557,-16.1631,233.9647],[143.7522,-16.1633,237.5636],[143.7513,-16.1596,235.2393],[143.7465,-16.1572,232.297],[143.742,-16.1578,226.4428],[143.7386,-16.1555,229.8094],[143.7257,-16.154,247.1401],[143.7223,-16.152,257.8428],[143.7217,-16.1491,266.7949],[143.7175,-16.1448,234.4014],[143.7145,-16.1351,222.2451],[143.7124,-16.1334,220.9003],[143.7037,-16.1343,214.134],[143.6953,-16.1298,212.2209],[143.692,-16.1307,211.1832],[143.6895,-16.1276,209.0911],[143.6871,-16.128,206.2615],[143.6826,-16.1245,208.3878],[143.68,-16.1265,211.9439],[143.6725,-16.1234,215.199],[143.6699,-16.1183,225.7934],[143.666,-16.1164,229.8833],[143.6599,-16.1197,227.6891],[143.6574,-16.118,224.9871],[143.6525,-16.1067,205.088],[143.6451,-16.103,219.8623],[143.6422,-16.0954,217.5249],[143.6389,-16.0944,212.9651],[143.6436,-16.0855,214.2148],[143.6421,-16.0791,214.7949],[143.6384,-16.0765,216.5648],[143.6318,-16.0755,217.9803],[143.6258,-16.0776,218.2256],[143.6217,-16.0773,229.2402],[143.6177,-16.0726,231.3445],[143.6157,-16.0723,242.3692],[143.6124,-16.0781,218.3364],[143.601,-16.0752,207.7931],[143.5948,-16.0791,202.6363],[143.5888,-16.0796,203.8228],[143.5843,-16.0772,201.7515],[143.573,-16.0811,195.6241],[143.5596,-16.0792,203.3831],[143.5471,-16.0859,183.5959],[143.5455,-16.0887,185.6896],[143.5397,-16.0884,184.3125],[143.528,-16.0943,177.7795],[143.5176,-16.0888,171.4213],[143.5013,-16.0867,171.3779],[143.4946,-16.0806,187.2628],[143.489,-16.0809,185.8783],[143.4843,-16.0792,181.2375],[143.4805,-16.0744,170.0754],[143.4747,-16.071,166.5141],[143.4654,-16.0686,165.6191],[143.4654,-16.0633,163.141],[143.4703,-16.0584,162.0137],[143.4694,-16.0555,162.9993],[143.4568,-16.0562,172.0035],[143.4463,-16.0548,164.51],[143.4398,-16.0506,167.9145],[143.4371,-16.046,169.0251],[143.4308,-16.0447,164.5597],[143.4272,-16.0514,160.564],[143.421,-16.0546,157.1997],[143.4121,-16.0558,154.6385],[143.402,-16.0455,154.6007],[143.3902,-16.0425,149.4008],[143.3658,-16.0445,140.6974],[143.3558,-16.0479,138.3777],[143.3033,-16.0762,127.9126],[143.2987,-16.0832,130.0267],[143.2903,-16.084,126.8214],[143.2755,-16.0923,127.4133],[143.2553,-16.094,125.1453],[143.2486,-16.1008,124.4483],[143.2355,-16.1056,121.7246],[143.2231,-16.1075,121.0628],[143.1933,-16.102,119.5083],[143.1843,-16.0964,117.0762],[143.1686,-16.1015,114.9233],[143.1483,-16.1043,112.4047],[143.1406,-16.1029,114.0841],[143.1131,-16.1051,113.3258],[143.1043,-16.1021,108.8973],[143.0608,-16.1099,104.1197],[143.0543,-16.1134,103.7247],[143.0427,-16.113,101.6122],[143.0207,-16.0919,100.8624],[143.0155,-16.0932,99.2912],[143.0114,-16.0966,99.0294],[143.004,-16.095,98.0102],[142.9859,-16.0833,93.1568],[142.9557,-16.0766,97.7833],[142.9247,-16.0769,87.3589],[142.9046,-16.0847,84.7589],[142.8744,-16.0865,82.7021],[142.8557,-16.0849,80.7397],[142.8371,-16.0801,79.1833],[142.8031,-16.0793,75.6723],[142.7922,-16.0809,73.6717],[142.7853,-16.0775,74.6003],[142.7722,-16.0746,73.72],[142.7455,-16.0784,72.0058],[142.743,-16.0825,68.9755],[142.7391,-16.0833,69.6268],[142.7306,-16.0895,67.6536],[142.7108,-16.0755,58.2206],[142.7136,-16.0822,60.1281],[142.7166,-16.0846,61.2126],[142.7184,-16.0835,59.9698],[142.7213,-16.0854,58.8716],[142.7304,-16.0987,57.5],[142.7465,-16.1124,60.1767],[142.7466,-16.1142,66.5381],[142.6932,-16.173,69.8141],[142.637,-16.1253,62.2619],[142.5961,-16.1907,62.231],[142.5466,-16.5585,53.1147],[142.508,-16.9722,79.1908],[142.4214,-17.0874,74.2992],[142.4275,-17.0923,75.1107],[142.4287,-17.096,76.2673],[142.4339,-17.0982,76.5752],[142.4359,-17.1009,76.6448],[142.4402,-17.1013,78.7611],[142.4452,-17.105,78.1522],[142.4513,-17.1059,77.1685],[142.4559,-17.1083,80.8506],[142.4588,-17.1161,79.9388],[142.4623,-17.1182,80.9131],[142.4617,-17.1223,80.179],[142.4667,-17.1262,81.0784],[142.4684,-17.1307,84.6633],[142.4778,-17.139,84.7708],[142.4859,-17.1423,85.205],[142.4892,-17.1476,83.3996],[142.4967,-17.1513,85.6079],[142.5083,-17.1622,85.4389],[142.513,-17.1705,87.0313],[142.5196,-17.1717,87.7414],[142.5219,-17.1753,88.1575],[142.5351,-17.1768,88.536],[142.5407,-17.1755,89.3356],[142.4016,-17.3553,89.492],[142.3406,-17.2862,79.1388],[142.1744,-17.4332,78.5632],[142.1918,-17.4413,78.466],[142.1975,-17.4409,76.3441],[142.2022,-17.4436,75.7065],[142.2052,-17.4428,76.0696],[142.2259,-17.4458,77.9291],[142.2294,-17.4524,76.1198],[142.2491,-17.4651,76.2741],[142.2517,-17.4713,84.0191],[142.2592,-17.4766,77.2351],[142.2656,-17.4861,73.4128],[142.2672,-17.4922,87.0676],[142.268,-17.4915,74.745],[142.2756,-17.4983,85.0637],[142.2844,-17.4999,85.3281],[142.2916,-17.4969,85.1355],[142.3026,-17.489,87.9872],[142.3061,-17.4885,89.4875],[142.3213,-17.4958,88.5587],[142.3272,-17.4999,88.1924],[142.3292,-17.5036,91.9293],[142.3452,-17.5017,91.9726],[142.3497,-17.5033,91.621],[142.3586,-17.5033,91.2791],[142.3678,-17.5076,93.3226],[142.3872,-17.5301,94.1674],[142.4056,-17.5792,100.259],[142.4199,-17.6025,99.7353],[142.4284,-17.6062,97.8456],[142.4351,-17.612,104.552],[142.4536,-17.6343,98.5748],[142.4661,-17.6384,104.8543],[142.4868,-17.6503,107.1483],[142.4921,-17.6564,109.6099],[142.5016,-17.6583,111.8835],[142.5099,-17.6622,108.7255],[142.5153,-17.6616,111.9288],[142.5287,-17.653,104.7027],[142.5369,-17.6515,106.2702],[142.5528,-17.6516,110.9312],[142.558,-17.6491,107.9025],[142.5728,-17.6463,114.4103],[142.5853,-17.6483,114.8666],[142.5934,-17.6427,112.8026],[142.615,-17.6436,114.7287],[142.6202,-17.6454,115.6822],[142.6312,-17.6448,119.16],[142.6474,-17.6511,118.9331],[142.6651,-17.6426,117.0688],[142.6694,-17.6376,114.8238],[142.677,-17.6359,116.2723],[142.7069,-17.6411,121.8471],[142.724,-17.6483,126.0524],[142.7298,-17.6474,124.4926],[142.7328,-17.6451,124.4048],[142.7437,-17.6469,126.2772],[142.7627,-17.6458,126.1365],[142.7775,-17.6496,132.961],[142.7881,-17.6469,128.037],[142.7926,-17.6475,129.316],[142.8005,-17.6404,128.332],[142.8159,-17.6368,129.7988],[142.8217,-17.6308,130.6203],[142.8371,-17.6322,130.2478],[142.8449,-17.6292,132.0708],[142.849,-17.6242,131.3004],[142.8521,-17.6229,134.092],[142.8585,-17.625,135.7733],[142.8621,-17.622,135.5098],[142.8689,-17.6199,135.4402],[142.8798,-17.6203,135.6013],[142.8852,-17.6175,135.997],[142.8911,-17.6171,140.9524],[142.8996,-17.6087,139.4864],[142.9065,-17.606,134.3288],[142.92,-17.6033,143.0071],[142.9251,-17.6044,144.8003],[142.9432,-17.5978,142.8297],[142.9459,-17.5949,144.2955],[142.9527,-17.594,143.6956],[142.9583,-17.5966,153.1666],[142.9741,-17.5961,144.6326],[142.9716,-17.5838,144.7015],[142.9767,-17.5463,157.6538],[142.9806,-17.545,160.4826],[142.9836,-17.5485,160.866],[142.986,-17.5465,161.1699],[143.0032,-17.5473,161.4677],[143.0069,-17.5501,164.4443],[143.0152,-17.5451,165.8666],[143.0191,-17.5372,166.5867],[143.0481,-17.5483,167.2884],[143.0551,-17.5559,169.6927],[143.0664,-17.5539,169.6525],[143.0696,-17.5513,169.9802],[143.0708,-17.545,174.7359],[143.0733,-17.5439,174.4904],[143.1092,-17.5648,173.9188],[143.1248,-17.5647,176.3764],[143.127,-17.5592,185.4586],[143.1438,-17.5613,183.2562],[143.1587,-17.5581,187.9819],[143.1631,-17.5604,197.0653],[143.1721,-17.5605,195.0872],[143.1785,-17.5546,190.6339],[143.1857,-17.5534,191.189],[143.1879,-17.5577,192.4166],[143.1951,-17.5576,192.0265],[143.2051,-17.5529,194.2377],[143.2068,-17.5438,199.0151],[143.2127,-17.5369,193.028],[143.211,-17.5212,213.1308],[143.2135,-17.5166,214.0104],[143.222,-17.5181,211.4906],[143.2286,-17.5136,197.4514],[143.2477,-17.5154,192.5266],[143.255,-17.5128,198.9743],[143.2685,-17.5158,203.5855],[143.2728,-17.5185,205.3253],[143.2782,-17.5186,205.6987],[143.2896,-17.528,211.2908],[143.2982,-17.5296,205.463],[143.3022,-17.5263,211.1317],[143.3067,-17.5256,207.4622],[143.311,-17.5206,212.8884],[143.3228,-17.5214,214.3924],[143.3286,-17.5238,218.0631],[143.3298,-17.5417,214.6462],[143.3421,-17.5538,217.8617],[143.3568,-17.5569,220.3844],[143.3604,-17.5565,220.8662],[143.3697,-17.551,222.8414],[143.3815,-17.5506,224.0084],[143.3894,-17.5597,226.1761],[143.3945,-17.5602,222.5018],[143.3987,-17.57,222.4171],[143.407,-17.576,222.7874],[143.4132,-17.5765,222.6167],[143.4211,-17.5852,217.0008],[143.424,-17.583,219.7074],[143.4338,-17.5844,214.7406],[143.4397,-17.5874,213.2748],[143.4409,-17.5909,216.5133],[143.4537,-17.601,217.3582],[143.4542,-17.6054,221.2127],[143.4576,-17.6116,216.6016],[143.4769,-17.6098,220.9578],[143.4803,-17.6134,221.124],[143.4773,-17.6165,226.2505],[143.4805,-17.622,228.5311],[143.4977,-17.6243,222.5329],[143.5053,-17.6333,224.378],[143.5125,-17.6354,224.6271],[143.5158,-17.6467,231.5503],[143.5235,-17.6555,229.0002],[143.5378,-17.6579,228.9366],[143.547,-17.6576,234.3413],[143.5511,-17.6513,225.9499],[143.5635,-17.6465,236.9958],[143.5731,-17.647,238.6212],[143.5799,-17.6395,246.3113],[143.5813,-17.6219,246.5506],[143.5893,-17.6155,253.9542],[143.5929,-17.6152,245.2959],[143.6001,-17.6181,248.5596],[143.6037,-17.6207,249.3603],[143.6055,-17.6268,251.1729],[143.6082,-17.6263,251.4323],[143.6173,-17.6341,274.6021],[143.6234,-17.636,274.6439],[143.6283,-17.64,283.6669],[143.6327,-17.6418,273.9862],[143.6422,-17.6422,288.7766],[143.642,-17.6395,280.6421],[143.6508,-17.6329,290.702],[143.6533,-17.6251,285.3199],[143.6593,-17.6224,273.2639],[143.6707,-17.6203,265.6078],[143.6785,-17.6101,278.0664],[143.6828,-17.6131,273.2548],[143.6845,-17.6282,293.2541],[143.6899,-17.6329,305.0984],[143.7016,-17.6373,302.8561],[143.7101,-17.6448,315.7199],[143.7153,-17.6469,329.3131],[143.7177,-17.645,324.3514],[143.7205,-17.6454,323.5953],[143.7313,-17.6545,344.9109],[143.7389,-17.6532,347.142],[143.7407,-17.6466,339.6669],[143.7481,-17.6391,354.8172],[143.7602,-17.6386,363.813],[143.7736,-17.6481,384.5745],[143.7856,-17.6531,389.4418],[143.7937,-17.6537,398.9274],[143.8079,-17.6586,400.8364],[143.8199,-17.659,377.2846],[143.827,-17.6625,354.0584],[143.8333,-17.6702,351.4365],[143.9764,-17.6808,374.1325],[143.9706,-17.756,439.6539],[144.1425,-17.9544,505.4247],[144.31,-17.9686,628.3821],[144.3133,-17.9631,618.8535],[144.321,-17.9611,589.6818],[144.3236,-17.9576,593.1581],[144.3219,-17.9472,576.7208],[144.3244,-17.9455,574.8023],[144.3266,-17.9467,577.5125],[144.3296,-17.9455,582.7313],[144.3376,-17.949,582.4904],[144.3376,-17.9454,590.7267],[144.3416,-17.9453,591.4504],[144.3476,-17.9521,594.136],[144.3523,-17.9537,565.1353],[144.3538,-17.9601,556.9832],[144.3613,-17.9737,555.1077],[144.3641,-17.9728,546.7407],[144.3652,-17.9751,577.4655],[144.3679,-17.976,548.272],[144.3728,-17.9746,523.0553],[144.3954,-17.9851,507.9946],[144.4005,-17.9946,506.4114],[144.4061,-18.0009,507.2184],[144.4155,-18.0198,514.0555],[144.4396,-18.0428,532.27],[144.4559,-18.0553,542.6509],[144.4718,-18.0121,521.2832],[144.4752,-18.0149,524.7604],[144.4779,-18.0209,527.5398],[144.4867,-18.0196,535.2112],[144.4924,-18.0285,548.6888],[144.4946,-18.029,552.7366],[144.4964,-18.0323,557.9116],[144.5,-18.0326,560.4052],[144.5036,-18.0377,562.0569],[144.6036,-18.0469,693.0449],[144.6207,-18.0582,695.7769],[144.6303,-18.0688,697.9937],[144.6396,-18.0848,710.183],[144.6562,-18.1017,725.6587],[144.6669,-18.1085,737.803],[144.6856,-18.1243,771.1339],[144.6968,-18.1396,785.0533],[144.7104,-18.1508,783.8268],[144.7157,-18.1533,792.9252],[144.7222,-18.1595,804.831],[144.734,-18.1756,835.7378],[144.7468,-18.2085,913.3004],[144.752,-18.2161,960.5743],[144.7408,-18.3186,960.9207],[144.7601,-18.3563,929.9412],[144.7926,-18.3586,900.0699],[144.8272,-18.3719,819.9929],[144.8395,-18.3726,795.3363],[144.8481,-18.369,806.6021],[144.8552,-18.3696,809.7887],[144.8519,-18.4002,764.7047],[144.8444,-18.4082,758.0718],[144.8383,-18.4361,742.4323],[144.8366,-18.4932,672.2307],[144.8805,-18.4975,650.4958],[144.8783,-18.518,642.8081],[144.9241,-18.5229,603.2888],[144.9199,-18.5165,609.153],[144.9222,-18.5015,627.2913],[144.9516,-18.5043,618.7988],[144.9471,-18.498,620.9972],[144.953,-18.4844,631.3199],[144.9513,-18.4772,635.5362],[144.9551,-18.478,633.1312],[144.9572,-18.4834,630.9336],[144.9619,-18.4859,629.9476],[144.9642,-18.4821,631.095],[144.9629,-18.4742,633.3844],[144.9689,-18.4691,637.2667],[144.9712,-18.4719,634.483],[144.9708,-18.4745,629.5557],[144.9748,-18.4856,619.9187],[144.974,-18.4894,618.6205],[144.982,-18.4947,612.8409],[144.9811,-18.5071,602.808],[145.0484,-18.514,585.692],[145.0521,-18.5175,583.278],[145.0499,-18.5262,580.4019],[145.0531,-18.5316,578.8159],[145.0503,-18.5349,575.6827],[145.0565,-18.5414,567.8968],[145.0535,-18.5439,567.0483],[145.0549,-18.549,567.8113],[145.058,-18.5495,564.9614],[145.0618,-18.5539,557.8772],[145.0748,-18.5541,549.976],[145.0793,-18.5601,535.9678],[145.0879,-18.5608,529.2951],[145.0919,-18.5666,521.1713],[145.096,-18.5657,518.1689],[145.0995,-18.5672,514.248],[145.1042,-18.562,508.5141],[145.1102,-18.5607,507.6261],[145.1129,-18.5587,506.2435],[145.1125,-18.5575,505.7982],[145.1161,-18.556,506.8053],[145.1279,-18.5578,527.947],[145.134,-18.565,526.6028],[145.1339,-18.5687,520.8442],[145.131,-18.5725,497.3495],[145.1335,-18.5783,494.5747],[145.1397,-18.5727,492.6017],[145.1394,-18.5643,493.4102],[145.1578,-18.5457,495.7738],[145.1576,-18.5397,497.1332],[145.1609,-18.5344,496.9802],[145.1702,-18.5264,521.5001],[145.179,-18.5123,509.2679],[145.1825,-18.5114,502.0768],[145.1842,-18.4948,544.9874],[145.1743,-18.4939,506.4734],[145.1748,-18.4913,506.493],[145.1728,-18.489,508.3321],[145.1781,-18.4791,547.5941],[145.1857,-18.4798,548.3767],[145.182,-18.4721,551.4383],[145.1823,-18.4488,572.2213],[145.18,-18.4461,567.2583],[145.1833,-18.4318,544.0081],[145.1641,-18.415,568.1648],[145.1608,-18.4004,569.5635],[145.1633,-18.3954,569.578],[145.1617,-18.3917,574.7377],[145.1521,-18.3924,595.1353],[145.1501,-18.3941,588.2499],[145.1387,-18.3906,598.4377],[145.1342,-18.385,599.2925],[145.1327,-18.3795,611.7439],[145.1327,-18.378,611.7439],[145.1354,-18.3772,602.7273],[145.1324,-18.3718,607.7031],[145.1325,-18.3686,608.1602],[145.1353,-18.3615,606.6707],[145.1391,-18.3615,607.8177],[145.1375,-18.3596,607.4781],[145.1388,-18.3578,620.1891],[145.1449,-18.3608,617.4834],[145.1497,-18.3653,620.5161],[145.1564,-18.3643,617.1457],[145.1582,-18.363,617.1457],[145.1577,-18.3578,617.2402],[145.16,-18.3544,619.6479],[145.1595,-18.3517,620.1673],[145.1669,-18.3467,633.2455],[145.1947,-18.3495,640.6903],[145.1955,-18.3477,634.6282],[145.268,-18.355,657.7911],[145.26,-18.4273,594.9461],[145.2865,-18.43,577.7871],[145.2791,-18.4396,548.6233],[145.3024,-18.4556,517.4791],[145.297,-18.4642,515.9174],[145.3579,-18.5365,546.0069],[145.384,-18.5704,552.8558],[145.3904,-18.565,547.7173],[145.4942,-18.577,658.1884],[145.4997,-18.4624,563.3481],[145.7148,-18.4887,712.0284],[145.7169,-18.4877,733.5587],[145.7143,-18.4837,710.9001],[145.7143,-18.4803,686.8354],[145.7081,-18.4709,742.9009],[145.7126,-18.4679,667.7942],[145.7251,-18.4683,659.6266],[145.7252,-18.4662,652.9091],[145.7309,-18.4641,639.3627],[145.7324,-18.4618,639.9878],[145.7292,-18.4535,680.0959],[145.7361,-18.4573,693.5594],[145.739,-18.4501,582.4034],[145.7442,-18.4506,559.3416],[145.747,-18.4455,503.8828],[145.755,-18.4385,457.9683],[145.756,-18.4351,393.188],[145.7546,-18.4308,338.3534],[145.7578,-18.4294,280.2621],[145.7575,-18.4259,285.2571],[145.7601,-18.4239,257.7561],[145.7552,-18.4149,173.2524],[145.7558,-18.4081,114.3858],[145.7692,-18.4094,46.849],[145.7596,-18.4032,49.4927],[145.7578,-18.3959,68.1626],[145.7468,-18.3953,54.267],[145.746,-18.3895,56.1886],[145.748,-18.3806,56.9463],[145.7443,-18.3735,59.5391],[145.722,-18.3636,59.689],[145.7181,-18.357,62.3875],[145.7866,-18.3042,727.2484],[145.7955,-18.3086,848.6952],[145.8096,-18.3046,811.3574],[145.8082,-18.2995,867.0225],[145.8129,-18.2948,859.135],[145.8157,-18.2945,867.1657],[145.8152,-18.2857,779.5908],[145.8118,-18.2847,798.3274],[145.8117,-18.2815,793.2238],[145.8078,-18.2737,869.5535],[145.7995,-18.2681,891.5032],[145.8014,-18.2621,866.1353],[145.8047,-18.2579,862.9497],[145.804,-18.2516,925.041],[145.8073,-18.2456,905.3187],[145.8044,-18.2406,919.2208],[145.8004,-18.2373,884.3352],[145.8006,-18.2337,861.8702],[145.7981,-18.2339,896.0533],[145.7955,-18.2318,900.6523],[145.7932,-18.2325,908.4961],[145.7926,-18.2262,947.601],[145.7956,-18.2226,930.6439],[145.7928,-18.2205,861.8301],[145.7916,-18.2158,811.1017],[145.7866,-18.2148,751.3691],[145.7832,-18.2066,829.3837],[145.7802,-18.2033,910.8023],[145.7792,-18.1982,870.1785],[145.7876,-18.1904,864.9232],[145.7844,-18.1809,837.3745],[145.7757,-18.1766,831.6421],[145.7719,-18.1728,1026.4695],[145.7703,-18.1752,1045.2902],[145.7685,-18.174,1031.6859],[145.7648,-18.1677,851.7902],[145.7617,-18.1651,850.7916],[145.7577,-18.1644,810.608],[145.7515,-18.1566,897.3347],[145.7437,-18.1599,825.9635],[145.7348,-18.1568,932.1025],[145.7332,-18.1608,800.8017],[145.731,-18.1613,714.9363],[145.7265,-18.1677,672.6602],[145.7234,-18.1664,661.1415],[145.7215,-18.1675,650.8063],[145.7158,-18.1667,664.5515],[145.7093,-18.1725,694.1734],[145.7052,-18.179,801.3435],[145.6962,-18.1751,684.9576],[145.6932,-18.1711,658.8788],[145.6852,-18.1684,651.3997],[145.6833,-18.1648,639.184],[145.6843,-18.1577,643.9852],[145.6886,-18.1548,620.379],[145.688,-18.153199999999998,629.778],[145.6904,-18.1512,650.7133],[145.6984,-18.1504,644.449],[145.7035,-18.1411,768.6021],[145.7031,-18.1326,896.8795],[145.7007,-18.1289,925.1039],[145.7043,-18.1272,890.7389],[145.7042,-18.1181,864.8201],[145.7072,-18.1166,919.9014],[145.7058,-18.1145,907.5828],[145.7074,-18.1092,983.2407],[145.7037,-18.1032,859.8225],[145.7051,-18.1013,851.954],[145.6967,-18.0992,688.9364],[145.6929,-18.0953,885.6627],[145.6904,-18.0953,900.4644],[145.6891,-18.092,894.9606],[145.6827,-18.0957,876.4285],[145.6795,-18.1004,890.4026],[145.6795,-18.1029,905.7128],[145.6755,-18.103,934.5414],[145.6712,-18.0999,950.6689],[145.6677,-18.103,998.7375],[145.6628,-18.0942,844.2289],[145.656,-18.0931,723.1028],[145.6535,-18.09,687.9207],[145.6455,-18.0861,900.5288],[145.6419,-18.0815,925.3182],[145.644,-18.0753,912.189],[145.6428,-18.0676,930.4464],[145.647,-18.0624,907.7557],[145.6467,-18.0582,905.0951],[145.6528,-18.0557,843.4961],[145.6511,-18.0522,869.9047],[145.6525,-18.05,840.9213],[145.6499,-18.048,764.6394],[145.6502,-18.0387,770.5055],[145.6482,-18.0362,758.0195],[145.6494,-18.0337,751.2866],[145.6539,-18.0316,723.5287],[145.6535,-18.0294,765.0953],[145.6502,-18.0275,801.7891],[145.636,-18.0281,785.6624],[145.6313,-18.023,842.3452],[145.6222,-18.0212,953.7386],[145.6236,-18.0185,936.2496],[145.623,-18.0146,939.9861],[145.6255,-18.0103,892.3687],[145.6234,-18.008,931.059],[145.6254,-18.0005,828.9681],[145.6355,-17.995,832.1226],[145.6382,-17.9952,839.281],[145.638,-17.9904,847.2031],[145.6403,-17.9883,835.9953],[145.6377,-17.9857,831.5926],[145.6376,-17.982,828.1788],[145.6389,-17.9796,824.8789],[145.6408,-17.9797,827.5887],[145.641,-17.9756,831.4441],[145.6425,-17.9761,823.3596],[145.6458,-17.9721,865.3794],[145.6498,-17.9738,812.9769],[145.6532,-17.9714,805.3456],[145.6544,-17.9676,810.4037],[145.6501,-17.9636,803.0657],[145.6521,-17.9617,810.0135],[145.6508,-17.9601,802.206],[145.6523,-17.959,787.7358],[145.6519,-17.9574,809.6391],[145.6584,-17.9562,802.6686],[145.6577,-17.9531,808.0361],[145.66,-17.9484,791.125],[145.6621,-17.9488,806.1136],[145.6636,-17.9463,789.637],[145.67,-17.9485,808.136],[145.679,-17.9456,784.1962],[145.6819,-17.9401,818.158],[145.6797,-17.9338,823.0593],[145.6841,-17.9301,820.7483],[145.683,-17.9277,834.3243],[145.6859,-17.9254,853.8081],[145.6803,-17.9192,895.4166],[145.6809,-17.9071,923.5591],[145.6848,-17.9024,1031.4656],[145.6844,-17.898,1047.4012],[145.6801,-17.8914,932.4659],[145.6792,-17.8862,934.1146],[145.6732,-17.8782,947.3274],[145.6734,-17.8735,876.782],[145.6718,-17.8702,860.2705],[145.668,-17.8684,865.3799],[145.664,-17.8637,819.8552],[145.6573,-17.8644,831.0001],[145.6549,-17.8624,821.8536],[145.6552,-17.8552,771.6981],[145.6537,-17.8526,767.3451],[145.6547,-17.8496,736.4127],[145.6527,-17.8468,763.1984],[145.6518,-17.8367,781.7991],[145.6529,-17.8277,813.2919],[145.6572,-17.8266,871.2426],[145.6586,-17.8235,947.1802],[145.6554,-17.8158,909.5089],[145.6463,-17.8085,871.6312],[145.6423,-17.8026,848.545],[145.6384,-17.8042,840.5324],[145.6383,-17.808,826.5023],[145.6343,-17.8061,801.2435],[145.6316,-17.8013,799.1936],[145.6272,-17.8006,808.0284],[145.622,-17.7975,824.597],[145.6178,-17.7982,835.866],[145.6138,-17.8014,797.9504],[145.61,-17.7998,779.97],[145.6088,-17.7945,774.2847],[145.6055,-17.7958,794.6312],[145.6026,-17.7939,799.0322],[145.5974,-17.794,820.8676],[145.591,-17.7955,805.6948],[145.585,-17.7905,773.6466],[145.5796,-17.7912,750.7286],[145.5807,-17.7861,741.4768],[145.5797,-17.7837,729.183],[145.5726,-17.7829,716.6572],[145.577,-17.7408,756.6949],[145.6515,-17.7269,744.134],[145.6514,-17.7251,747.4625],[145.6472,-17.7219,763.3328],[145.6476,-17.7178,776.7576],[145.641,-17.7071,700.9823],[145.6434,-17.7017,678.9731],[145.6519,-17.6998,686.4489],[145.6566,-17.6937,734.2678],[145.6585,-17.6935,733.0869],[145.6602,-17.6893,697.9221],[145.6566,-17.686,688.2634],[145.6614,-17.6796,669.689],[145.6594,-17.6759,694.992],[145.651,-17.6722,682.497],[145.6485,-17.6681,688.3544],[145.6459,-17.6681,679.5204],[145.6407,-17.6568,682.7435],[145.6547,-17.6581,580.4399],[145.6544,-17.663,566.4418],[145.6605,-17.6689,571.2142],[145.6681,-17.6657,558.9666],[145.6732,-17.6665,556.8438],[145.6744,-17.6761,565.517],[145.6776,-17.6776,554.5573],[145.6803,-17.6759,557.89],[145.6824,-17.6788,555.1993],[145.6808,-17.6715,555.1382],[145.6785,-17.6705,558.8065],[145.6788,-17.6666,555.014],[145.6826,-17.6654,523.5035],[145.6861,-17.6621,522.5961],[145.6924,-17.6636,512.1037],[145.6954,-17.661,517.2335],[145.6942,-17.656,502.8587],[145.6973,-17.652,490.8024],[145.7074,-17.5568,357.6447],[145.7104,-17.5584,343.0495],[145.7155,-17.5543,304.4924],[145.7177,-17.5543,281.3788],[145.7223,-17.5572,216.0485],[145.7306,-17.5582,220.8615],[145.7399,-17.5509,170.7684],[145.7405,-17.5465,180.7286],[145.74,-17.5427,223.678],[145.7332,-17.5403,191.5096],[145.7312,-17.5384,185.8373],[145.731,-17.5336,224.4559],[145.7247,-17.5303,210.7212],[145.7244,-17.5263,224.2456],[145.7217,-17.5217,272.6197],[145.7238,-17.5137,213.8946],[145.7201,-17.51,255.0545],[145.7238,-17.5061,242.6503],[145.7161,-17.497,240.6695],[145.8339,-17.5086,117.8952],[145.8368,-17.4826,117.2155],[145.8346,-17.4763,187.6264],[145.8375,-17.4761,129.8467],[145.8399,-17.4542,235.9939],[145.8371,-17.453,284.0077],[145.8358,-17.4481,112.0532],[145.8342,-17.4501,93.8976],[145.8322,-17.4469,131.3075],[145.8321,-17.4376,297.1469],[145.8237,-17.4215,1035.5853],[145.8247,-17.4134,1110.0735],[145.8183,-17.3993,1575.0654],[145.8212,-17.3939,1504.7838],[145.8031,-17.3737,1071.812],[145.8015,-17.3702,1005.8583],[145.7896,-17.3633,770.0688],[145.7813,-17.3544,382.7675],[145.7828,-17.3477,307.869],[145.781,-17.3444,309.1721],[145.7867,-17.3332,209.7597],[145.788,-17.3233,164.133],[145.7849,-17.3193,147.175],[145.7907,-17.3127,148.1838],[145.7978,-17.3117,133.9751],[145.7945,-17.3044,116.9475],[145.8003,-17.3014,114.2393],[145.8005,-17.2965,124.8014],[145.7928,-17.288,107.0549],[145.7906,-17.281,105.8618],[145.7853,-17.2797,101.172],[145.7856,-17.2697,95.3199],[145.7826,-17.2633,101.041],[145.7794,-17.2629,102.1474],[145.7796,-17.2563,78.6889],[145.7746,-17.2518,80.0289],[145.7725,-17.2473,85.9846],[145.7735,-17.2389,75.5152],[145.7705,-17.2361,104.6666],[145.7601,-17.2388,72.1236],[145.756,-17.2474,97.7742],[145.7231,-17.2314,524.8835],[145.7172,-17.2136,489.6187],[145.7042,-17.2121,543.9047],[145.7045,-17.1746,151.2383],[145.6701,-17.1718,765.9998],[145.673,-17.1691,751.515],[145.6727,-17.1661,758.3887],[145.6749,-17.1641,759.4662],[145.6751,-17.1616,770.3538],[145.6705,-17.1583,801.7173],[145.6696,-17.1544,767.0173],[145.6612,-17.1544,793.7568],[145.6588,-17.1515,806.7389],[145.6592,-17.1467,812.1187],[145.6566,-17.1454,815.6828],[145.6542,-17.1391,815.7426],[145.6559,-17.1353,801.9313],[145.6547,-17.1343,804.6241],[145.6554,-17.1265,887.2095],[145.6526,-17.1245,827.8383],[145.6422,-17.1225,887.4523],[145.6394,-17.1186,855.7131],[145.6396,-17.114,860.6976],[145.6377,-17.1133,846.0956],[145.6365,-17.1091,956.083],[145.6393,-17.1059,941.858],[145.6372,-17.1032,824.9412],[145.6316,-17.1016,886.1632],[145.6305,-17.0989,872.0212],[145.6239,-17.0968,1073.8636],[145.6245,-17.091,1093.7788],[145.6224,-17.0896,1104.9166],[145.6236,-17.0856,1067.9453],[145.6275,-17.0837,1057.1138],[145.633,-17.0775,1066.259],[145.6323,-17.0725,1083.1816],[145.6275,-17.0696,1180.0822],[145.6252,-17.0706,1159.2987],[145.6226,-17.0677,1158.9033],[145.6187,-17.0693,1196.6912],[145.6156,-17.0676,1213.5343],[145.6173,-17.0645,1074.6307],[145.6164,-17.0633,1089.3777],[145.6197,-17.0587,1015.7822],[145.6146,-17.0515,979.9893],[145.615,-17.049,915.4876],[145.6192,-17.0444,881.1855],[145.6236,-17.0433,853.6786],[145.6306,-17.0371,948.8455],[145.6321,-17.0336,940.4758],[145.6355,-17.0319,961.5884],[145.6397,-17.0219,1261.7255],[145.6342,-17.0175,1237.8579],[145.6303,-17.0046,1045.6005],[145.633,-17.0033,974.8159],[145.6342,-16.9974,820.6687],[145.6371,-16.9961,816.7734],[145.6397,-16.9857,776.9629],[145.6514,-16.9774,550.7554],[145.6521,-16.9751,529.2297],[145.6548,-16.9747,612.0619],[145.6504,-16.9656,551.6322],[145.6512,-16.9628,568.795],[145.6498,-16.9571,529.6543],[145.6519,-16.9504,595.5255],[145.65,-16.9444,742.5494],[145.6567,-16.9344,1018.4531],[145.6574,-16.9303,1001.9552],[145.6615,-16.9287,961.5786],[145.6635,-16.9203,829.972],[145.6609,-16.9169,940.6101],[145.668,-16.9096,926.4537],[145.6736,-16.8941,711.2003],[145.6733,-16.892,701.5966],[145.6693,-16.8897,630.0198],[145.6658,-16.8843,479.3232],[145.664,-16.8843,451.3485],[145.6633,-16.8811,172.7348],[145.656,-16.8796,268.3275],[145.6511,-16.8806,309.3551],[145.654,-16.8749,242.5719],[145.6609,-16.8723,240.1115],[145.6619,-16.8698,251.7506],[145.6661,-16.8689,284.8745],[145.6662,-16.8666,314.8546],[145.6588,-16.8634,356.3817],[145.6549,-16.8586,269.3524],[145.6491,-16.8575,314.5776],[145.6439,-16.853,327.8496],[145.6599,-16.8462,366.403],[145.6623,-16.8481,410.6227],[145.6686,-16.8472,498.9816],[145.6694,-16.8453,488.8421],[145.6599,-16.8382,372.0723],[145.664,-16.8342,419.4648],[145.6659,-16.8198,598.0034],[145.6603,-16.8171,574.0876],[145.6597,-16.8124,511.9662],[145.6539,-16.8032,449.2639],[145.6562,-16.7922,404.522],[145.652,-16.7837,430.4673],[145.6517,-16.773,450.5865],[145.6486,-16.7688,457.926],[145.6491,-16.7617,541.3053],[145.6419,-16.751,606.7678],[145.6476,-16.7423,607.6661],[145.6416,-16.7376,604.5572],[145.6364,-16.7377,602.7042],[145.6335,-16.7361,576.9029],[145.6308,-16.7311,585.718],[145.6325,-16.7276,587.3143],[145.6313,-16.7246,588.2986],[145.6231,-16.7211,654.616],[145.6158,-16.7151,728.0339],[145.6057,-16.7146,707.241],[145.6008,-16.71,635.1166],[145.5865,-16.7059,498.6583],[145.5824,-16.7015,466.5838],[145.5755,-16.7012,461.9857],[145.5654,-16.6938,478.5539],[145.5515,-16.6925,653.1252],[145.5439,-16.687,700.3313],[145.5378,-16.677,658.386],[145.5302,-16.6754,581.5062],[145.5265,-16.6714,449.0262],[145.5224,-16.6715,469.6303],[145.5179,-16.675,481.2336],[145.5137,-16.6647,479.5068],[145.5171,-16.6603,453.5105],[145.5216,-16.6603,460.327],[145.5194,-16.6566,455.8113],[145.5213,-16.6536,464.0447],[145.52,-16.6488,476.9912],[145.524,-16.6452,480.3355],[145.5211,-16.6341,479.2135],[145.5304,-16.6259,516.5247],[145.5298,-16.6234,525.7076],[145.5227,-16.6231,556.8613],[145.5171,-16.6302,481.4216],[145.5147,-16.6298,485.428],[145.5018,-16.6406,578.4857],[145.4952,-16.642,822.958],[145.4907,-16.645,1040.3253],[145.4858,-16.6416,972.2177],[145.4725,-16.6446,479.5058],[145.469,-16.6465,477.3016],[145.4697,-16.649,509.5464],[145.4641,-16.6493,546.45],[145.4615,-16.6477,488.4633],[145.4588,-16.6489,468.972],[145.4549,-16.6444,445.1964],[145.4472,-16.6435,463.2009],[145.4492,-16.6107,398.5373],[145.4438,-16.6102,384.2108],[145.4359,-16.6036,403.2906],[145.4485,-16.6045,384.3391],[145.4491,-16.5994,380.187],[145.4418,-16.5986,374.9418],[145.4415,-16.5961,386.053],[145.4444,-16.5937,362.2173],[145.4425,-16.5792,64.8645],[145.4448,-16.5785,107.5625],[145.4456,-16.5754,55.6297],[145.4394,-16.5702,46.3326],[145.4319,-16.5695,207.9099],[145.4332,-16.552,329.3134],[145.4155,-16.5296,124.2466],[145.4134,-16.5313,198.0081],[145.4103,-16.5276,179.3509],[145.4115,-16.5267,119.4969],[145.4077,-16.5223,49.0558],[145.4107,-16.52,44.0747],[145.4041,-16.5123,64.6802],[145.3854,-16.5104,180.025],[145.3843,-16.5202,198.768],[145.3768,-16.5194,140.8329],[145.3722,-16.533,447.2512],[145.3675,-16.5366,438.4229],[145.3672,-16.5397,422.3106],[145.3629,-16.5433,433.2566],[145.3628,-16.5487,428.699],[145.3546,-16.5564,461.064],[145.3519,-16.5553,472.6822],[145.352,-16.5518,468.7031],[145.3493,-16.5515,459.4452],[145.3456,-16.5475,575.7461],[145.3356,-16.5468,714.2449],[145.3301,-16.5516,822.3443],[145.3258,-16.5518,888.5944],[145.3263,-16.5418,848.3062],[145.3198,-16.5409,798.5204],[145.3201,-16.5381,788.202],[145.3132,-16.5362,766.1827],[145.3093,-16.5311,731.1863],[145.305,-16.5329,783.2294],[145.3027,-16.5375,937.8255],[145.2988,-16.5384,1144.21],[145.2957,-16.5368,1164.4106],[145.2949,-16.5346,1139.5072],[145.2972,-16.5329,1082.842],[145.2972,-16.5311,1092.7173],[145.2902,-16.5298,1054.3976],[145.2843,-16.5213,1260.4252],[145.2847,-16.5192,1235.1228],[145.2795,-16.5186,1244.7795],[145.2804,-16.5154,1229.2588],[145.2739,-16.5126,1239.2057],[145.2721,-16.5101,1228.8268],[145.2719,-16.5043,1252.9558],[145.2761,-16.5029,1286.7219],[145.2764,-16.5006,1327.4763],[145.272,-16.4994,1285.5482],[145.2648,-16.5,1221.525],[145.2628,-16.4971,1213.0698],[145.2643,-16.4934,1186.5037],[145.2695,-16.4901,1257.5891],[145.2584,-16.4846,1108.9926],[145.2579,-16.4822,1074.5676],[145.2605,-16.4782,1178.3469],[145.2636,-16.478,1176.6671],[145.2627,-16.4751,1203.6749],[145.2658,-16.4719,1179.9536],[145.2688,-16.4725,1176.6763],[145.2697,-16.4665,1172.2695],[145.2677,-16.4658,1178.9243],[145.2594,-16.4682,1184.4718],[145.2523,-16.4643,1166.0698],[145.2429,-16.4643,1217.4202],[145.2443,-16.4575,1153.0745],[145.2402,-16.4494,1150.2897],[145.2404,-16.4456,1145.8054],[145.2359,-16.4459,1156.1826],[145.2286,-16.4421,1151.0891],[145.2254,-16.4363,1185.0759],[145.2258,-16.4315,1212.5422],[145.2217,-16.4291,1180.4121],[145.2223,-16.4269,1187.8569],[145.2184,-16.4237,1244.551],[145.2088,-16.42,1253.0953],[145.2087,-16.4165,1300.6208],[145.213,-16.4143,1292.8851],[145.2156,-16.4104,1316.2413],[145.214,-16.3999,1301.2166],[145.2061,-16.3967,1340.4785],[145.2005,-16.3984,1325.3156],[145.1954,-16.3947,1249.7703],[145.1904,-16.394,1181.1064],[145.1785,-16.3834,1097.2599],[145.1732,-16.376,1127.2367],[145.172,-16.3723,1094.1887],[145.1744,-16.3706,1065.1497],[145.1743,-16.3676,1062.6644],[145.169,-16.3596,1055.0814],[145.1664,-16.3589,1020.6473],[145.159,-16.3491,896.5546],[145.1537,-16.3509,809.8148],[145.1515,-16.349,821.0596],[145.1449,-16.3508,813.2033],[145.1403,-16.3466,794.928],[145.1428,-16.3379,784.8129],[145.1401,-16.3354,789.3263],[145.1406,-16.3324,781.6048],[145.1356,-16.3268,783.3289],[145.1385,-16.3081,831.9502],[145.1357,-16.3081,757.3063],[145.1297,-16.3041,833.5722],[145.1314,-16.3028,822.6544],[145.1336,-16.2863,805.5524],[145.1256,-16.2822,702.0723],[145.1216,-16.2825,729.1465],[145.1203,-16.2802,740.4029],[145.1165,-16.2796,775.1599],[145.1122,-16.2748,878.0194],[145.1086,-16.2755,872.2911],[145.1071,-16.2687,853.0558],[145.1019,-16.269,932.2898],[145.1009,-16.2665,954.1923],[145.0963,-16.2645,1010.6238],[145.0868,-16.2629,1113.6176],[145.0793,-16.2681,1149.3334],[145.0645,-16.2621,1105.1604],[145.061,-16.264,1160.5413],[145.0552,-16.2593,1112.5605],[145.0587,-16.2509,1096.792],[145.0617,-16.249,1156.105],[145.054,-16.243,1207.4666],[145.0544,-16.2408,1260.0682],[145.0336,-16.2306,1242.5059],[145.0248,-16.2313,1336.692],[145.0203,-16.229,1316.2781],[145.0209,-16.2264,1275.5023],[145.0262,-16.2244,1294.762],[145.021,-16.2209,1318.2837]]]]}
,"properties": {"GID_2": "AUS.7.63_1","GID_0": "AUS","country": "Australia","GID_1": "AUS.7_1","state": "Queensland","NL_NAME_1": "NA","county": "Tablelands","VARNAME_2": "NA","NL_NAME_2": "NA","TYPE_2": "Region","ENGTYPE_2": "Region","CC_2": "36810","HASC_2": "NA","name": "Tablelands.county","area_km2": 65009.92,"hist_schema_id": "Elevation0-9000","hist_area_km2": {"50": 101.34,"75": 3653.7,"100": 5137.71,"125": 4848.51,"150": 4574.88,"175": 3931.46,"200": 3004.63,"225": 2100.21,"250": 1902.59,"275": 1865.2,"300": 1713.27,"325": 1572.66,"350": 1444.36,"375": 1634.33,"400": 1734.47,"425": 1634.75,"450": 1511.39,"475": 1464.05,"500": 1504.13,"525": 1328.09,"550": 1250.12,"575": 1482.74,"600": 1615.49,"625": 1936.23,"650": 2133.2,"675": 1804.84,"700": 1532.6,"725": 1325.45,"750": 1053.05,"775": 797.93,"800": 655.06,"825": 477.31,"850": 361.44,"875": 309.0,"900": 269.48,"925": 254.59,"950": 220.69,"975": 172.05,"1000": 128.19,"1025": 111.35,"1050": 104.64,"1075": 95.25,"1100": 77.79,"1125": 52.2,"1150": 38.33,"1175": 26.03,"1200": 19.81,"1225": 16.35,"1250": 11.11,"1275": 7.56,"1300": 3.21,"1325": 1.68,"1350": 0.65}}}