{"type": "Feature","bbox": [167.91212,-29.08001,167.99635,-28.99749],"geometry": {"type": "Polygon","coordinates": [[[167.98414,-29.01784,0.0],[167.96583,-29.01181,0.0],[167.94557,-29.00123,0.0],[167.92652,-28.99749,77.1548],[167.91212,-29.01165,0.0],[167.92457,-29.00872,65.52],[167.93051,-29.01214,140.2057],[167.92994,-29.01946,134.7199],[167.92237,-29.02874,68.2814],[167.9183,-29.03639,0.0],[167.92018,-29.04551,0.0],[167.92433,-29.0556,0.0],[167.92644,-29.06634,0.0],[167.93263,-29.06634,0.0],[167.93971,-29.05576,39.7699],[167.95045,-29.05657,9.7223],[167.9607,-29.06561,0.0],[167.96664,-29.08001,0.0],[167.96648,-29.07578,0.0],[167.96795,-29.07204,0.0],[167.97006,-29.06894,0.0],[167.97348,-29.06634,0.0],[167.98504,-29.05926,0.0],[167.99464,-29.04258,34.2995],[167.99635,-29.02565,0.0],[167.98414,-29.01784,0.0]]]}
,"properties": {"ISO3166-1-Alpha-3": "NFK","country": "Norfolk Island","name": "Norfolk Island","area_km2": 41.24615,"hist_schema_id": "Elevation0-9000","hist_area_km2": {"0": 8.11872,"25": 1.35317,"50": 2.57654,"75": 7.00702,"100": 11.06723,"125": 6.67368,"150": 1.7613,"175": 1.00122,"200": 0.64894,"225": 0.48208,"250": 0.29666,"275": 0.16687,"300": 0.09271}}}