{"type": "Feature","bbox": [115.9186,-33.5525,116.4126,-32.9946],"geometry": {"type": "MultiPolygon","coordinates": [[[[116.2089,-33.0304,249.0634],[116.2091,-33.0851,259.4009],[116.1469,-33.0849,302.9012],[116.1467,-33.2242,259.7258],[116.1423,-33.2242,230.4969],[116.145,-33.2319,217.0],[116.0085,-33.2319,234.5957],[116.0312,-33.213,302.9461],[116.0305,-33.1914,252.8141],[116.0212,-33.1888,247.5891],[116.0187,-33.1862,236.932],[116.0194,-33.1847,236.932],[116.0154,-33.1829,231.0624],[116.0133,-33.1835,226.1592],[116.0125,-33.1877,225.195],[116.0101,-33.1904,233.1755],[116.0137,-33.2013,219.3795],[116.0133,-33.2039,205.8694],[116.0032,-33.207,206.3799],[116.002,-33.2101,201.9651],[115.9976,-33.2101,199.8607],[115.9926,-33.2127,203.9392],[115.9892,-33.2122,193.3357],[115.987,-33.2097,196.8454],[115.9828,-33.21,190.1529],[115.9804,-33.2126,195.1656],[115.9736,-33.214,193.6479],[115.9712,-33.2176,178.2879],[115.9684,-33.2168,174.1358],[115.9622,-33.2221,167.1788],[115.955,-33.223,179.8458],[115.9501,-33.2204,160.7928],[115.9463,-33.2219,150.5466],[115.947,-33.2899,288.2304],[115.9186,-33.29,241.4575],[115.9189,-33.3391,152.0669],[115.9243,-33.3391,184.4794],[115.9243,-33.3417,158.3436],[115.9279,-33.3417,166.086],[115.9279,-33.3489,220.5728],[115.919,-33.3489,215.5676],[115.9192,-33.3786,98.4088],[115.9241,-33.3802,101.5805],[115.937,-33.3781,102.8457],[115.9389,-33.3822,102.8648],[115.9392,-33.3889,101.4297],[115.9483,-33.3904,103.1951],[115.9506,-33.393,122.7379],[115.9546,-33.3925,112.7606],[115.9577,-33.3955,103.6726],[115.9622,-33.3955,107.7538],[115.9678,-33.4018,124.8745],[115.9798,-33.4016,159.0],[115.9783,-33.4031,179.9029],[115.9822,-33.4043,161.6743],[115.9814,-33.4112,192.0315],[115.9831,-33.4118,190.6965],[115.9852,-33.4085,179.1742],[115.9843,-33.4065,190.9401],[115.9863,-33.4056,195.1658],[115.9865,-33.4008,167.0128],[115.9925,-33.399,159.0],[115.9912,-33.4022,185.9439],[115.9932,-33.4034,161.4012],[115.9946,-33.4098,188.0089],[116.0009,-33.4083,181.9522],[116.0008,-33.4109,179.4595],[116.0036,-33.4137,161.1757],[116.002,-33.4238,197.7343],[116.0079,-33.4287,169.5919],[116.0052,-33.4317,169.3322],[116.0181,-33.4304,174.3598],[116.0122,-33.4291,170.7109],[116.0086,-33.4256,161.0884],[116.0121,-33.4224,176.9182],[116.0073,-33.4237,162.5925],[116.0055,-33.422,160.6935],[116.0083,-33.4193,159.0],[116.0086,-33.4136,169.7228],[116.0102,-33.4128,162.2612],[116.0084,-33.4114,162.2612],[116.01,-33.4083,162.1573],[116.0051,-33.4057,163.0958],[116.0067,-33.4039,168.3911],[116.0104,-33.4051,182.0272],[116.0111,-33.4026,161.132],[116.0155,-33.4017,167.3064],[116.0201,-33.4033,174.0318],[116.0205,-33.4008,175.5537],[116.0115,-33.3989,170.0638],[116.0092,-33.3962,159.0],[116.0105,-33.3938,162.5932],[116.0132,-33.3952,181.3907],[116.0135,-33.3931,174.0536],[116.0156,-33.3922,172.1371],[116.0116,-33.3903,169.7225],[116.0171,-33.3853,171.4917],[116.0133,-33.384,177.0365],[116.012,-33.3803,168.874],[116.0098,-33.3815,159.0],[116.0081,-33.3798,159.0],[116.0071,-33.3752,164.9799],[116.0085,-33.3729,201.5971],[116.0038,-33.3721,164.5854],[116.0056,-33.3671,177.723],[116.0019,-33.3673,159.6965],[116.0007,-33.3634,165.5804],[116.0077,-33.3607,164.7336],[116.0087,-33.3555,163.3264],[116.0169,-33.3561,186.4069],[116.016,-33.3544,159.0],[116.0233,-33.3474,160.3582],[116.0267,-33.3491,172.2424],[116.0329,-33.3472,170.6842],[116.0406,-33.3528,174.2185],[116.0442,-33.352,167.9506],[116.0445,-33.3539,184.8026],[116.0498,-33.3544,166.1735],[116.0545,-33.3508,187.6245],[116.0532,-33.3471,159.0],[116.058,-33.3477,169.654],[116.0579,-33.3607,241.0486],[116.0233,-33.3609,243.5757],[116.0237,-33.4405,233.2202],[116.0642,-33.4404,281.909],[116.0642,-33.485,216.3908],[116.1328,-33.4868,273.9658],[116.1328,-33.5133,250.7515],[116.1968,-33.5135,256.4666],[116.279,-33.5525,239.4797],[116.2991,-33.5525,201.2189],[116.2926,-33.5423,200.1814],[116.2945,-33.5398,207.0934],[116.2931,-33.5341,204.3743],[116.2886,-33.5289,197.6205],[116.2899,-33.526,197.2158],[116.2778,-33.5159,196.6936],[116.276,-33.5115,195.4858],[116.2659,-33.4994,197.4689],[116.2802,-33.4994,206.3791],[116.2802,-33.5015,199.4699],[116.3246,-33.5024,256.3735],[116.3246,-33.4952,247.5467],[116.3332,-33.4952,237.1331],[116.3332,-33.4729,242.6322],[116.3823,-33.4562,281.7096],[116.3828,-33.3433,280.0921],[116.3891,-33.3433,311.571],[116.3891,-33.3057,270.5496],[116.398,-33.2509,290.2625],[116.3976,-33.2442,260.3848],[116.399,-33.2439,260.3848],[116.399,-33.2315,265.3212],[116.4037,-33.2315,270.9547],[116.404,-33.1949,272.47],[116.4126,-33.1949,302.8988],[116.4124,-33.0858,263.2205],[116.4095,-33.0858,267.1438],[116.4094,-32.9946,254.0913],[116.3543,-32.9946,295.3691],[116.3543,-33.0118,336.9926],[116.2845,-33.0118,266.663],[116.2844,-33.0303,183.6313],[116.2089,-33.0304,249.0634]]]]}
,"properties": {"GID_2": "AUS.11.27_1","GID_0": "AUS","country": "Australia","GID_1": "AUS.11_1","state": "WesternAustralia","NL_NAME_1": "NA","county": "Collie","VARNAME_2": "NA","NL_NAME_2": "NA","TYPE_2": "Shire","ENGTYPE_2": "Shire","CC_2": "51890","HASC_2": "AU.WA.CE","name": "Collie.county","area_km2": 1712.478,"hist_schema_id": "Elevation0-9000","hist_area_km2": {"75": 0.106,"100": 1.168,"125": 3.118,"150": 16.521,"175": 34.57,"200": 156.94,"225": 302.06,"250": 426.11,"275": 390.231,"300": 235.098,"325": 116.237,"350": 27.371,"375": 2.948}}}