{"type": "Feature","bbox": [131.7587,-13.8085,135.0,-10.9659],"geometry": {"type": "MultiPolygon","coordinates": [[[[134.8058,-12.17,3.0982],[134.8064,-12.1089,4.0195],[134.7272,-12.0689,0.7695],[134.7236,-12.0092,1.8993],[134.7602,-11.9535,12.1906],[134.7582,-11.9517,5.1649],[134.7453,-11.9493,0.3293],[134.7455,-11.955,3.0451],[134.7421,-11.9588,4.4613],[134.7335,-11.9609,0.0],[134.7191,-11.9598,0.0],[134.716,-11.9631,1.6984],[134.7083,-11.9665,2.5431],[134.6909,-11.9653,4.0018],[134.6878,-11.9628,0.0],[134.6868,-11.9677,0.0],[134.6715,-11.9908,0.0],[134.6664,-12.0018,2.7384],[134.6559,-12.0151,2.7032],[134.642,-12.0257,0.0],[134.6017,-12.0506,0.8111],[134.5982,-12.051,0.0],[134.6024,-12.0497,1.1032],[134.6,-12.0494,0.0],[134.5821,-12.054,0.0],[134.5699,-12.0546,0.0],[134.5431,-12.0633,2.2227],[134.5154,-12.0687,1.0799],[134.5045,-12.0692,0.0],[134.4942,-12.0723,3.73],[134.4909,-12.0772,8.0152],[134.4928,-12.0716,5.1259],[134.4854,-12.0709,0.0],[134.4834,-12.0719,1.0905],[134.4839,-12.0738,6.221],[134.482,-12.0725,0.8225],[134.4811,-12.0738,4.3067],[134.4794,-12.0719,0.0],[134.4796,-12.0759,6.2129],[134.4777,-12.0706,0.0],[134.4756,-12.0709,0.0],[134.4769,-12.0722,2.4375],[134.4646,-12.0725,0.0],[134.4611,-12.0694,2.909],[134.4558,-12.0746,5.3533],[134.4529,-12.0748,7.8615],[134.4555,-12.0778,9.2234],[134.4512,-12.0743,11.0977],[134.4475,-12.0746,5.8009],[134.4498,-12.0733,11.3477],[134.4553,-12.0737,9.816],[134.4584,-12.0693,2.9322],[134.4609,-12.0683,2.909],[134.4672,-12.0702,12.698],[134.4652,-12.0651,0.0],[134.4683,-12.0686,10.1262],[134.4683,-12.0667,5.661],[134.4703,-12.0675,3.793],[134.4667,-12.0647,0.0],[134.4422,-12.067,1.8763],[134.4162,-12.0645,0.0],[134.3989,-12.0584,6.9702],[134.3963,-12.0524,0.0],[134.3928,-12.0521,0.0],[134.3887,-12.049,0.0],[134.3856,-12.0506,0.0],[134.3737,-12.0482,1.3819],[134.3648,-12.0449,0.0],[134.3646,-12.0426,0.0],[134.3562,-12.0422,1.3266],[134.348,-12.0391,0.0],[134.3315,-12.0273,0.0],[134.3279,-12.0225,0.0],[134.3065,-12.0084,0.3064],[134.2867,-11.9838,1.3877],[134.259,-11.9893,2.0404],[134.2518,-11.9882,5.6485],[134.2458,-11.9847,1.2519],[134.2446,-11.9858,1.2519],[134.2464,-11.9879,4.3049],[134.2459,-11.9911,0.0],[134.248,-11.9922,0.0],[134.2499,-11.9965,0.0],[134.2492,-12.0025,0.4073],[134.2535,-12.014099999999999,1.8225],[134.2535,-12.0341,3.0062],[134.2509,-12.0364,4.541],[134.2487,-12.0353,1.0978],[134.2424,-12.0389,3.6451],[134.2284,-12.0365,0.6769],[134.2226,-12.0475,5.9615],[134.2154,-12.0518,3.8111],[134.2152,-12.0539,0.2736],[134.2086,-12.0573,1.9091],[134.2056,-12.0651,3.4064],[134.1938,-12.0745,0.0],[134.1932,-12.0903,4.7042],[134.188,-12.1053,0.0],[134.1684,-12.1148,6.6468],[134.1633,-12.1065,3.7109],[134.1622,-12.1004,3.7301],[134.1728,-12.0783,0.0],[134.1791,-12.0696,3.2713],[134.1791,-12.059,2.6783],[134.1807,-12.0521,0.0],[134.1865,-12.045,0.0],[134.1879,-12.0395,9.2925],[134.1907,-12.0368,0.0],[134.1914,-12.0321,0.0],[134.1942,-12.0287,1.5603],[134.1871,-12.0244,1.5785],[134.1811,-12.015,0.0],[134.1821,-12.0124,0.0],[134.1787,-12.0074,4.0967],[134.1817,-12.0012,2.5847],[134.1817,-11.9942,0.5823],[134.1769,-11.9973,0.5198],[134.1751,-12.0019,1.3938],[134.1729,-12.0023,0.0],[134.1651,-11.9989,1.6504],[134.1623,-11.9939,5.3139],[134.1589,-11.9926,0.0712],[134.1564,-11.9937,1.1137],[134.152,-11.988,6.5674],[134.1499,-11.9828,0.2193],[134.1526,-11.9673,0.9505],[134.1499,-11.9635,0.4146],[134.1516,-11.9636,0.2804],[134.1557,-11.9687,0.0],[134.1685,-11.9725,0.4269],[134.1687,-11.9662,3.9301],[134.1712,-11.9624,7.5451],[134.1756,-11.9602,0.6992],[134.1754,-11.9568,3.1311],[134.1689,-11.9565,7.7156],[134.1505,-11.9391,1.0877],[134.14,-11.9239,0.2824],[134.136,-11.9204,0.0],[134.1342,-11.9206,1.1852],[134.1356,-11.9153,3.1475],[134.1323,-11.902,6.721],[134.1272,-11.8973,1.607],[134.1211,-11.8964,8.2119],[134.1199,-11.8974,5.9395],[134.1225,-11.9043,0.4311],[134.1207,-11.9076,4.1409],[134.1128,-11.9099,5.5007],[134.1098,-11.9082,0.1237],[134.1083,-11.9095,0.1237],[134.1091,-11.9114,1.9925],[134.1045,-11.9129,0.0],[134.1017,-11.9245,0.0],[134.0948,-11.9285,2.4705],[134.0859,-11.9262,0.0],[134.0809,-11.9296,0.3826],[134.075,-11.9368,0.2682],[134.0764,-11.9399,0.3903],[134.0748,-11.9418,0.4164],[134.0743,-11.9387,0.2451],[134.066,-11.9343,1.2383],[134.0716,-11.9335,0.152],[134.0722,-11.929,0.0406],[134.0707,-11.9278,1.0613],[134.0685,-11.9159,1.9008],[134.0716,-11.9113,0.0],[134.0801,-11.9043,-0.0286],[134.0755,-11.9014,0.0],[134.0784,-11.8982,0.0],[134.0707,-11.8981,2.5951],[134.0639,-11.8922,1.4989],[134.0611,-11.8854,0.0],[134.0612,-11.8823,0.1259],[134.0646,-11.8782,0.8678],[134.0636,-11.8695,0.3146],[134.0554,-11.8627,0.0886],[134.0527,-11.8636,3.8422],[134.0445,-11.8617,2.3723],[134.0395,-11.8555,1.5343],[134.0308,-11.855,0.8358],[134.0259,-11.8569,0.0],[134.0231,-11.8606,0.0],[134.0045,-11.8638,0.0],[134.0028,-11.8713,0.3454],[133.9922,-11.8813,1.2193],[133.9908,-11.8858,0.0],[133.992,-11.8873,0.9255],[133.9841,-11.895,0.0],[133.9568,-11.908,2.5346],[133.9395,-11.9124,0.0],[133.9326,-11.9171,0.0],[133.9332,-11.9203,1.1706],[133.9305,-11.9204,0.7375],[133.9309,-11.9185,0.5126],[133.9223,-11.9162,0.0],[133.9199,-11.9168,0.0],[133.9136,-11.9222,0.0],[133.9129,-11.9253,0.2999],[133.9108,-11.9238,0.1504],[133.9077,-11.9276,0.7809],[133.9092,-11.9231,0.1498],[133.914,-11.9175,0.2159],[133.9123,-11.9157,2.8351],[133.9136,-11.9127,1.5918],[133.9124,-11.9069,0.0],[133.9112,-11.909,0.0],[133.9059,-11.9084,1.2092],[133.9046,-11.9067,0.0],[133.9021,-11.9073,0.0],[133.8954,-11.9138,2.9508],[133.8888,-11.9128,1.2272],[133.8893,-11.9103,0.9864],[133.8933,-11.9127,0.9115],[133.8944,-11.9118,0.9052],[133.8918,-11.9103,1.0955],[133.8948,-11.9092,0.0],[133.8907,-11.908,0.0],[133.8906,-11.9098,1.0955],[133.888,-11.908,0.0],[133.8854,-11.9114,0.0],[133.8823,-11.9125,0.0],[133.876,-11.9105,0.1683],[133.8764,-11.9091,0.0],[133.8731,-11.9074,0.7865],[133.8753,-11.9061,0.4744],[133.875,-11.9043,0.2537],[133.8707,-11.9008,0.5248],[133.8677,-11.9014,0.542],[133.871,-11.8995,0.7401],[133.8771,-11.9033,0.2459],[133.8779,-11.9025,0.0],[133.8685,-11.8929,0.0],[133.8592,-11.8789,0.5084],[133.8537,-11.8773,0.0],[133.8495,-11.8794,0.0],[133.8461,-11.8781,0.0],[133.8421,-11.8799,0.0],[133.8358,-11.8721,1.4953],[133.8319,-11.8588,0.7399],[133.8306,-11.8658,1.888],[133.8296,-11.865,3.5866],[133.8297,-11.8615,2.5795],[133.8281,-11.8596,2.5028],[133.83,-11.8596,1.6972],[133.831,-11.853,0.0],[133.8273,-11.8467,0.0],[133.8248,-11.8462,0.0],[133.8226,-11.8427,0.0],[133.8231,-11.8381,0.3224],[133.8261,-11.8354,1.0701],[133.8258,-11.8317,1.3773],[133.8272,-11.8346,0.3067],[133.8339,-11.8325,1.3155],[133.8465,-11.8135,1.2032],[133.8607,-11.806,1.7594],[133.8676,-11.8051,0.797],[133.8786,-11.8073,2.8635],[133.8827,-11.8113,0.9188],[133.8899,-11.8124,5.8612],[133.8958,-11.8079,6.3457],[133.9017,-11.8057,0.0],[133.9003,-11.8032,5.9863],[133.9055,-11.785,2.482],[133.9163,-11.7724,4.3318],[133.9237,-11.7683,2.1652],[133.9267,-11.7684,1.2621],[133.9321,-11.7699,0.8656],[133.9344,-11.7757,0.6771],[133.9403,-11.7704,3.036],[133.9372,-11.7659,0.0],[133.932,-11.7666,1.0371],[133.9276,-11.764099999999999,0.0],[133.9218,-11.754,0.5449],[133.9191,-11.7448,0.0],[133.9156,-11.7424,0.0],[133.914,-11.7449,0.4302],[133.9051,-11.749,0.0],[133.8994,-11.7542,0.0],[133.8905,-11.7555,0.0],[133.8856,-11.7533,0.0],[133.8675,-11.7539,0.0],[133.8534,-11.7491,0.0],[133.8482,-11.7444,0.0],[133.8431,-11.7383,2.0976],[133.8392,-11.7251,0.636],[133.837,-11.7232,1.8973],[133.8325,-11.7238,0.0],[133.8233,-11.7286,0.0],[133.8124,-11.7302,0.0],[133.8034,-11.7286,0.3652],[133.7939,-11.7247,0.0],[133.7987,-11.73,0.0],[133.8071,-11.7309,0.0],[133.8087,-11.7338,1.7617],[133.7993,-11.733,8.9331],[133.7938,-11.7275,0.0],[133.7859,-11.7321,0.0],[133.7769,-11.741,0.0],[133.7765,-11.7483,0.0],[133.779,-11.754,0.0],[133.7736,-11.7611,0.0],[133.7385,-11.7826,0.3915],[133.6906,-11.7828,0.0],[133.6796,-11.7802,1.7836],[133.6701,-11.7739,0.0],[133.6646,-11.7796,0.6061],[133.6762,-11.7827,3.8961],[133.6779,-11.7873,0.0],[133.6909,-11.7891,3.4435],[133.692,-11.7941,0.0],[133.6909,-11.7948,0.7292],[133.6906,-11.7915,1.0082],[133.689,-11.7905,0.0],[133.678,-11.7886,0.0],[133.6679,-11.8021,0.0],[133.6559,-11.8091,0.2659],[133.6626,-11.8133,0.0],[133.6631,-11.8189,0.3191],[133.6501,-11.8254,0.0],[133.6389,-11.8251,0.0],[133.6311,-11.8321,0.4044],[133.631,-11.836,2.2706],[133.6261,-11.8372,0.9758],[133.623,-11.8347,0.3631],[133.6204,-11.8383,2.2402],[133.6135,-11.8377,0.0],[133.6111,-11.8428,1.0773],[133.6044,-11.8392,0.0],[133.5988,-11.8334,2.7904],[133.5969,-11.8331,4.1992],[133.5973,-11.8352,3.2975],[133.5952,-11.8337,5.2104],[133.6007,-11.8297,3.2939],[133.607,-11.8163,2.353],[133.6056,-11.8114,1.7154],[133.6021,-11.8092,0.0],[133.5915,-11.8098,2.6084],[133.5656,-11.8068,0.0],[133.561,-11.8095,0.0],[133.5546,-11.821,0.0],[133.5551,-11.8245,0.2802],[133.5492,-11.827,0.0],[133.545,-11.8264,1.4465],[133.5431,-11.8244,0.0],[133.5422,-11.8255,0.0],[133.5301,-11.813,2.2586],[133.5322,-11.81,0.0],[133.5311,-11.8068,5.036],[133.5342,-11.8034,0.0],[133.5328,-11.8026,1.7933],[133.5344,-11.8008,0.0],[133.5322,-11.7998,0.4675],[133.5289,-11.7911,5.2813],[133.536,-11.7799,5.6767],[133.5395,-11.7703,6.1059],[133.5386,-11.7655,1.8191],[133.5338,-11.7603,0.0743],[133.5266,-11.7622,0.4328],[133.5184,-11.7701,0.0],[133.5139,-11.7733,2.9159],[133.5115,-11.7732,0.0],[133.5092,-11.7763,0.228],[133.5012,-11.7812,0.0],[133.4934,-11.782,0.0],[133.4855,-11.7793,0.0],[133.4801,-11.7813,2.8964],[133.4783,-11.7849,1.7159],[133.4787,-11.7885,5.7007],[133.4729,-11.7917,2.571],[133.4615,-11.8017,5.6466],[133.4591,-11.802,3.1746],[133.4481,-11.7904,0.0],[133.4503,-11.7815,0.0],[133.4481,-11.7783,-0.0152],[133.4425,-11.777,0.4402],[133.4385,-11.774,0.0],[133.4227,-11.7775,0.0],[133.4156,-11.7773,0.0],[133.4104,-11.7796,1.8559],[133.3987,-11.7678,0.0],[133.3988,-11.7575,2.6568],[133.4133,-11.7587,0.6925],[133.4146,-11.7575,-0.082],[133.4113,-11.7531,0.0],[133.4101,-11.7481,0.1438],[133.4113,-11.7443,2.0608],[133.4158,-11.7415,0.2253],[133.4156,-11.7394,0.0],[133.4086,-11.7368,1.0953],[133.4028,-11.7321,0.0],[133.3904,-11.7427,0.6543],[133.3893,-11.7483,2.1471],[133.3856,-11.7521,1.3323],[133.3788,-11.7555,0.6693],[133.3715,-11.7553,-0.0526],[133.3692,-11.7577,0.0],[133.3764,-11.7674,3.0243],[133.3753,-11.771,2.3159],[133.3696,-11.7761,4.9383],[133.3599,-11.777,0.0],[133.3569,-11.7755,3.2745],[133.3546,-11.7724,2.4443],[133.3531,-11.7647,0.0],[133.3416,-11.7681,2.9662],[133.3328,-11.7667,0.9661],[133.3263,-11.7696,2.0456],[133.3209,-11.7698,4.0349],[133.3165,-11.7662,0.0],[133.3133,-11.76,0.0],[133.3098,-11.7582,3.0813],[133.3111,-11.7538,1.7251],[133.3081,-11.739,0.0],[133.3115,-11.7319,8.9633],[133.316,-11.7279,3.997],[133.3175,-11.7218,3.9686],[133.3204,-11.7196,4.3584],[133.3185,-11.7224,2.8123],[133.3197,-11.7243,3.1275],[133.3261,-11.7228,5.8264],[133.3406,-11.7272,1.4511],[133.3456,-11.7191,5.0346],[133.3545,-11.7179,1.4243],[133.3512,-11.7022,0.0],[133.3489,-11.6981,0.0],[133.3434,-11.6937,0.0],[133.336,-11.6928,0.0],[133.3026,-11.7038,0.0],[133.2994,-11.7044,0.0],[133.2955,-11.7028,0.0],[133.292,-11.7091,0.4377],[133.2852,-11.714,1.9873],[133.2839,-11.7177,0.0],[133.2716,-11.7228,0.0],[133.2699,-11.7253,5.7022],[133.2632,-11.7288,2.8239],[133.2526,-11.7308,0.0468],[133.2561,-11.7359,1.7426],[133.259,-11.7374,5.2223],[133.2675,-11.7366,6.8531],[133.2804,-11.74,6.2004],[133.2841,-11.7378,0.6736],[133.2816,-11.7406,5.2034],[133.2679,-11.7382,3.9667],[133.2623,-11.7397,4.7902],[133.2557,-11.7381,4.8414],[133.2523,-11.7319,1.7932],[133.231,-11.7325,0.0],[133.219,-11.7286,0.0],[133.1941,-11.7248,0.0],[133.1907,-11.7286,6.6718],[133.1922,-11.7267,2.6913],[133.1902,-11.7237,0.6246],[133.1652,-11.7138,0.0],[133.1499,-11.7022,0.0],[133.1444,-11.6942,2.451],[133.1452,-11.6884,5.7182],[133.1386,-11.6823,0.0],[133.1312,-11.6712,0.0],[133.1306,-11.663,3.8688],[133.1124,-11.6433,0.0],[133.1056,-11.6331,8.2974],[133.1066,-11.6265,0.0],[133.1029,-11.6174,0.0],[133.1031,-11.6126,0.0],[133.0941,-11.5998,0.2323],[133.0941,-11.5912,0.0],[133.0917,-11.5899,10.3813],[133.0818,-11.5754,0.0],[133.0696,-11.5483,0.0],[133.0708,-11.5411,28.0718],[133.0727,-11.5398,6.5482],[133.0764,-11.5295,0.0],[133.0769,-11.521,0.0],[133.0706,-11.5148,1.5027],[133.0591,-11.5132,0.0],[133.046,-11.5028,0.0],[133.0377,-11.4915,11.7087],[133.0312,-11.4772,0.0],[133.0243,-11.4691,0.0],[133.0119,-11.4445,0.0],[133.0079,-11.4328,0.0],[132.9966,-11.4253,0.0],[132.9923,-11.4261,0.0],[132.9772,-11.4185,0.0],[132.9724,-11.4199,0.6204],[132.9681,-11.4168,3.2844],[132.9607,-11.4006,0.0],[132.9573,-11.3959,0.9683],[132.9544,-11.3951,0.0],[132.9522,-11.3883,1.1171],[132.9491,-11.3849,1.8179],[132.9452,-11.3676,0.0],[132.9436,-11.3664,0.0],[132.9387,-11.3674,0.0],[132.9333,-11.3636,0.0],[132.9265,-11.347,8.9265],[132.9247,-11.3382,11.9997],[132.918,-11.3317,3.2507],[132.905,-11.3386,5.0693],[132.8979,-11.3399,4.6543],[132.8898,-11.3331,4.4871],[132.8854,-11.3341,0.0],[132.8846,-11.331,0.0],[132.8816,-11.3325,0.0],[132.8763,-11.3299,0.0],[132.872,-11.3298,2.1443],[132.865,-11.3401,-0.009],[132.866,-11.3422,3.6187],[132.8703,-11.3426,6.1633],[132.8805,-11.3475,5.6477],[132.8834,-11.3536,0.4124],[132.8905,-11.3583,4.1653],[132.8936,-11.3712,9.9604],[132.9016,-11.3742,8.9828],[132.9071,-11.3838,2.0972],[132.9092,-11.3847,2.043],[132.9051,-11.3882,0.9271],[132.9025,-11.3987,5.8849],[132.8997,-11.4027,0.0],[132.8999,-11.4068,0.0],[132.9039,-11.4131,3.0815],[132.9036,-11.4172,3.791],[132.8964,-11.4259,0.5724],[132.8858,-11.4298,0.0],[132.8804,-11.4278,0.0],[132.8731,-11.4169,0.0],[132.8663,-11.4161,0.0],[132.864,-11.419,1.725],[132.8634,-11.416,0.0],[132.8566,-11.411,1.4974],[132.8572,-11.405,0.0],[132.8513,-11.3965,0.0],[132.8511,-11.3935,0.0],[132.8482,-11.3928,0.0],[132.8422,-11.3951,0.9778],[132.8397,-11.3981,7.8948],[132.8232,-11.4047,0.9008],[132.8244,-11.4072,7.5339],[132.8237,-11.4104,1.5151],[132.8267,-11.4129,1.9475],[132.8255,-11.4207,0.9944],[132.8114,-11.4381,0.0],[132.8032,-11.4438,0.0],[132.7839,-11.4464,3.9501],[132.7817,-11.4501,0.7816],[132.7831,-11.4535,9.4442],[132.7782,-11.4701,2.7879],[132.7664,-11.4799,0.9368],[132.7678,-11.4812,6.406],[132.7673,-11.4836,1.6121],[132.763,-11.4886,2.1817],[132.7518,-11.4922,0.0],[132.7478,-11.4953,1.2121],[132.7477,-11.4984,2.078],[132.7435,-11.5061,0.9719],[132.7355,-11.5134,0.1557],[132.7329,-11.5191,0.0],[132.7234,-11.5227,0.0],[132.7145,-11.5233,0.0],[132.7093,-11.5225,0.0],[132.6946,-11.5142,0.0],[132.69,-11.5143,0.0],[132.6829,-11.5183,0.6773],[132.6672,-11.5149,1.3021],[132.6551,-11.5041,2.0878],[132.6378,-11.4775,0.0],[132.6337,-11.4579,0.7062],[132.6354,-11.4366,0.0],[132.6304,-11.4238,0.0],[132.622,-11.4103,0.0],[132.6169,-11.4073,0.0],[132.6022,-11.406,0.0],[132.5854,-11.3945,1.3763],[132.5703,-11.3728,0.0],[132.5648,-11.3721,0.753],[132.5592,-11.3679,0.0],[132.5526,-11.3549,2.7862],[132.5511,-11.3478,0.0],[132.547,-11.342,0.0],[132.5335,-11.3397,1.7621],[132.5285,-11.3405,0.0],[132.5205,-11.344,0.0],[132.52,-11.3475,0.6295],[132.5151,-11.3492,3.1192],[132.5172,-11.3513,2.8827],[132.5142,-11.3499,1.9812],[132.5199,-11.3454,1.284],[132.5133,-11.3371,2.416],[132.5125,-11.3309,0.7351],[132.5019,-11.3299,2.8342],[132.5035,-11.3185,6.0289],[132.5114,-11.3187,4.2467],[132.5172,-11.317,3.6346],[132.5114,-11.313,3.9587],[132.5066,-11.3124,0.0],[132.5053,-11.3101,0.0],[132.5071,-11.3064,0.0],[132.5118,-11.3038,1.5986],[132.5113,-11.3005,1.5465],[132.508,-11.2977,0.0],[132.5101,-11.2927,0.0],[132.5058,-11.296,5.6536],[132.5017,-11.2943,0.0],[132.4964,-11.3004,0.0],[132.4868,-11.2995,0.5524],[132.4887,-11.295,4.0727],[132.4959,-11.2888,2.4016],[132.4952,-11.2857,6.8496],[132.4973,-11.2822,8.0368],[132.5026,-11.283,0.0],[132.5041,-11.2849,0.6362],[132.5051,-11.2841,1.4418],[132.5038,-11.2777,3.7795],[132.5068,-11.2723,0.0],[132.501,-11.2682,3.5917],[132.4918,-11.2667,1.0322],[132.4876,-11.2608,0.0],[132.4767,-11.2584,0.0],[132.4731,-11.2479,0.0],[132.4667,-11.2423,0.0],[132.4636,-11.2339,0.0],[132.4527,-11.2238,4.5092],[132.451,-11.2181,6.6009],[132.4453,-11.2158,3.7917],[132.445,-11.2142,0.0],[132.4388,-11.2144,0.0],[132.4372,-11.2119,0.0],[132.4339,-11.2113,2.9855],[132.4332,-11.2139,0.0],[132.42,-11.2256,0.0],[132.4137,-11.2379,0.0],[132.4217,-11.2499,2.324],[132.4222,-11.2622,0.5109],[132.4207,-11.2656,0.0],[132.4141,-11.27,0.6616],[132.4093,-11.2646,0.0],[132.4061,-11.2645,0.0],[132.4053,-11.2683,1.7637],[132.4032,-11.269,0.0],[132.4044,-11.2714,0.0],[132.4022,-11.2719,0.0],[132.405,-11.2796,6.1642],[132.4031,-11.2889,3.7786],[132.3974,-11.2992,0.0],[132.3959,-11.2978,0.0],[132.3857,-11.2969,1.9598],[132.3848,-11.294,1.2002],[132.3862,-11.2879,0.0],[132.3844,-11.2874,0.0],[132.3777,-11.2956,0.0],[132.3737,-11.2955,0.0],[132.3723,-11.2899,3.9651],[132.3759,-11.2859,0.0],[132.3747,-11.2809,4.0457],[132.3788,-11.277,8.3029],[132.3792,-11.2746,7.2527],[132.3794,-11.2693,3.2973],[132.3776,-11.2648,0.5042],[132.3737,-11.2637,0.0],[132.3759,-11.2607,0.0],[132.377,-11.2533,0.9095],[132.3797,-11.2476,4.1874],[132.3791,-11.2314,8.0823],[132.3817,-11.225,8.0023],[132.3802,-11.2132,3.1348],[132.3823,-11.208,2.591],[132.3774,-11.2013,0.8818],[132.3693,-11.1983,0.9311],[132.3649,-11.1938,8.1695],[132.3649,-11.1871,1.7493],[132.3589,-11.1776,3.1758],[132.3568,-11.1627,4.0542],[132.3578,-11.1609,0.0],[132.3551,-11.1525,5.7985],[132.3569,-11.1489,2.459],[132.3514,-11.1417,0.0],[132.3413,-11.1339,0.0],[132.3404,-11.1282,1.6166],[132.3437,-11.1199,0.0],[132.3358,-11.1195,0.0],[132.3333,-11.1157,0.0],[132.3321,-11.1201,0.0],[132.3384,-11.1251,0.9296],[132.3373,-11.1283,0.0],[132.3388,-11.1302,1.5766],[132.3389,-11.1404,3.7757],[132.3312,-11.1508,0.0],[132.3195,-11.1559,0.0],[132.318,-11.1612,0.0],[132.3214,-11.1613,2.8615],[132.3222,-11.1656,3.8188],[132.3135,-11.172,0.0],[132.3057,-11.1732,0.0],[132.3019,-11.1699,0.0],[132.2953,-11.1695,2.0004],[132.2934,-11.1684,2.0004],[132.2934,-11.1665,0.0],[132.2879,-11.1649,0.0],[132.2868,-11.1675,0.0],[132.2816,-11.1711,0.0],[132.278,-11.1712,0.0],[132.2704,-11.1751,0.0],[132.2664,-11.1735,0.0],[132.2651,-11.1754,0.0],[132.2682,-11.187,0.0],[132.2675,-11.1899,0.0],[132.2688,-11.1926,3.4967],[132.2736,-11.1942,4.3871],[132.274,-11.1994,0.0],[132.2666,-11.2078,0.0],[132.2647,-11.2136,2.5851],[132.2678,-11.2189,0.6526],[132.2723,-11.22,1.5064],[132.2746,-11.2284,0.0],[132.28,-11.2297,6.1238],[132.2816,-11.2331,4.7797],[132.2826,-11.2403,0.0],[132.2777,-11.2449,0.0],[132.2802,-11.2484,2.8177],[132.2795,-11.2519,7.444],[132.2845,-11.2552,3.5479],[132.2874,-11.2626,3.9564],[132.2852,-11.2663,1.2995],[132.2823,-11.2673,0.3666],[132.284,-11.2712,2.8677],[132.2836,-11.2767,1.9644],[132.2744,-11.2665,1.3327],[132.2653,-11.2638,0.2593],[132.2602,-11.2566,9.485],[132.2592,-11.2489,1.8313],[132.2551,-11.2398,3.094],[132.2568,-11.2342,0.0],[132.252,-11.2336,10.5875],[132.2497,-11.2293,4.9446],[132.2499,-11.2216,0.0],[132.2459,-11.2234,0.9417],[132.2398,-11.2185,9.4662],[132.2391,-11.2141,12.033],[132.243,-11.2082,0.4616],[132.2419,-11.2037,0.0],[132.2435,-11.1974,0.0],[132.2393,-11.1956,0.0],[132.2372,-11.1974,0.0],[132.2309,-11.1968,4.3728],[132.2251,-11.1889,8.8067],[132.2262,-11.1837,1.771],[132.2284,-11.183,0.6117],[132.2275,-11.1803,0.0],[132.2257,-11.1788,0.0],[132.2248,-11.1822,0.0],[132.2179,-11.1845,0.0],[132.2115,-11.1832,1.1559],[132.206,-11.1784,3.0112],[132.2025,-11.17,0.7335],[132.196,-11.1649,1.8196],[132.1932,-11.16,0.4312],[132.1903,-11.1474,14.4137],[132.193,-11.1431,0.2776],[132.1868,-11.1303,0.0],[132.183,-11.1278,0.0],[132.1754,-11.1277,0.0],[132.1636,-11.1299,0.7118],[132.1562,-11.1276,0.0],[132.1506,-11.123,0.0],[132.1403,-11.1238,0.0],[132.1356,-11.1224,0.0],[132.1434,-11.1338,0.8621],[132.1441,-11.1423,0.0],[132.1413,-11.1537,2.3647],[132.1446,-11.1555,7.9811],[132.1479,-11.1543,14.8742],[132.1512,-11.1561,7.2941],[132.1563,-11.1557,15.4806],[132.1586,-11.1593,12.3877],[132.162,-11.1608,20.5844],[132.1636,-11.1692,0.0],[132.1614,-11.1743,0.0],[132.1608,-11.1837,0.0],[132.1694,-11.1851,2.1207],[132.1847,-11.2031,3.4011],[132.1917,-11.2052,2.5959],[132.1946,-11.2077,7.1138],[132.1976,-11.2143,3.1193],[132.1975,-11.2199,0.0],[132.2025,-11.2268,4.3089],[132.1994,-11.2373,4.0725],[132.1984,-11.2355,5.033],[132.2008,-11.232,1.8531],[132.2012,-11.2273,4.3089],[132.199,-11.2258,2.9],[132.1948,-11.2347,1.8785],[132.1887,-11.2415,0.5793],[132.1841,-11.2428,0.0],[132.1799,-11.2407,0.0],[132.1837,-11.2461,10.8695],[132.1859,-11.245,9.9259],[132.1902,-11.2486,0.0],[132.1899,-11.2543,0.0],[132.1922,-11.2611,1.4117],[132.1973,-11.2662,7.1652],[132.1977,-11.2694,0.0],[132.1925,-11.2787,0.0],[132.1946,-11.2804,1.3931],[132.1941,-11.2791,1.2089],[132.1969,-11.2752,6.9317],[132.1971,-11.28,1.9649],[132.1955,-11.2817,1.6463],[132.1927,-11.2797,2.8521],[132.1913,-11.2807,1.4735],[132.1955,-11.2857,3.9061],[132.192,-11.293,1.1233],[132.1926,-11.2975,4.2525],[132.1756,-11.313,0.0],[132.1726,-11.3234,0.8631],[132.1781,-11.3201,3.8712],[132.1892,-11.3035,1.4404],[132.194,-11.301,7.0374],[132.1975,-11.3012,5.3839],[132.2024,-11.3055,2.2163],[132.211,-11.3078,5.6246],[132.2142,-11.3151,1.5561],[132.2194,-11.316,1.6688],[132.2217,-11.3193,5.6303],[132.2267,-11.3215,2.23],[132.2269,-11.3278,0.0],[132.2309,-11.3304,3.3571],[132.2365,-11.3399,1.9102],[132.2358,-11.3441,1.5492],[132.2308,-11.3501,0.0],[132.2301,-11.3585,1.0214],[132.2313,-11.363,0.0],[132.2243,-11.3688,0.0],[132.2195,-11.3695,0.0],[132.2153,-11.3654,0.0],[132.2014,-11.358,2.0784],[132.1968,-11.3515,1.1385],[132.1936,-11.3502,0.8044],[132.1903,-11.351,0.0],[132.1893,-11.3549,0.4032],[132.1838,-11.362,0.0],[132.1829,-11.3654,6.525],[132.1884,-11.3801,1.6159],[132.1911,-11.3818,1.9577],[132.1991,-11.3808,2.763],[132.2,-11.3825,3.4372],[132.1978,-11.3975,0.0],[132.205,-11.3972,3.6852],[132.2072,-11.3997,4.4251],[132.2064,-11.4098,0.0],[132.2081,-11.4134,1.6583],[132.2015,-11.4172,1.5341],[132.1977,-11.4166,4.1307],[132.1941,-11.4088,0.0],[132.1851,-11.4051,0.5653],[132.1792,-11.3974,0.0],[132.176,-11.3969,0.0],[132.1753,-11.3983,1.028],[132.1787,-11.4025,4.9792],[132.1813,-11.4109,0.0],[132.1808,-11.4163,0.0],[132.175,-11.4209,0.0],[132.1694,-11.4201,3.6295],[132.1665,-11.4161,8.4361],[132.1673,-11.4152,8.4361],[132.1643,-11.4126,2.1263],[132.1697,-11.4113,2.5488],[132.1693,-11.407,3.6138],[132.1608,-11.4033,6.085],[132.1564,-11.3954,0.0],[132.152,-11.392,2.6398],[132.1563,-11.3898,0.9354],[132.158,-11.3825,0.0],[132.1558,-11.3811,0.0],[132.1535,-11.383,2.611],[132.1499,-11.3825,0.0],[132.1473,-11.3839,0.6144],[132.1447,-11.3824,2.207],[132.1464,-11.3768,12.0249],[132.1541,-11.3745,1.0839],[132.1513,-11.3694,14.3916],[132.1536,-11.3602,3.6225],[132.1473,-11.3601,0.0],[132.1454,-11.3564,1.3332],[132.1491,-11.3325,4.8104],[132.1533,-11.3288,12.4693],[132.1559,-11.3227,0.0],[132.1454,-11.3185,1.1541],[132.1409,-11.315,2.1941],[132.1381,-11.3086,0.345],[132.1397,-11.3018,0.0],[132.1368,-11.2962,0.0],[132.1317,-11.3009,0.0],[132.1305,-11.3071,0.0],[132.125,-11.313,1.6269],[132.1243,-11.3203,0.0],[132.1255,-11.3248,1.8559],[132.1225,-11.3363,0.0],[132.1254,-11.3421,0.3596],[132.123,-11.3455,1.742],[132.1227,-11.3493,3.1376],[132.1202,-11.3437,5.484],[132.1132,-11.3399,0.4968],[132.1088,-11.3285,1.1473],[132.1056,-11.3293,0.0],[132.1015,-11.3276,3.1969],[132.1002,-11.3298,0.9813],[132.1005,-11.3232,2.4163],[132.1073,-11.3153,2.3212],[132.1059,-11.3142,17.0514],[132.1069,-11.3118,1.0724],[132.1053,-11.3082,0.3957],[132.0997,-11.3079,2.4195],[132.0983,-11.3029,4.949],[132.101,-11.2989,13.9769],[132.1045,-11.297,0.0],[132.1044,-11.2901,3.1513],[132.1133,-11.288,3.5196],[132.1164,-11.2789,1.0442],[132.1164,-11.2737,0.0],[132.1142,-11.2685,0.0],[132.1054,-11.2744,0.0],[132.1005,-11.2748,3.7994],[132.0962,-11.2698,0.8336],[132.0958,-11.2621,0.6653],[132.1048,-11.2558,4.4045],[132.1074,-11.2442,13.5592],[132.11,-11.2414,17.643],[132.1113,-11.236,19.2135],[132.1139,-11.2342,5.4359],[132.1107,-11.2278,19.6721],[132.1135,-11.2111,0.0],[132.1091,-11.2096,0.0],[132.1086,-11.2168,0.0],[132.1027,-11.2202,0.0],[132.1023,-11.2246,3.134],[132.098,-11.227,0.0],[132.1002,-11.2287,5.3604],[132.0986,-11.2319,0.0],[132.0951,-11.2336,0.0],[132.0845,-11.2315,8.5698],[132.0781,-11.2233,2.759],[132.0818,-11.219,2.1794],[132.0755,-11.2094,15.4654],[132.0759,-11.2039,15.5481],[132.0804,-11.1999,5.8619],[132.0802,-11.1964,3.5203],[132.0826,-11.1947,1.9509],[132.0708,-11.197,0.0],[132.0664,-11.1917,16.2367],[132.0755,-11.1796,1.328],[132.0721,-11.1766,0.0],[132.0683,-11.1758,0.0],[132.0687,-11.1827,0.0],[132.0656,-11.1845,0.0],[132.0607,-11.1843,0.0],[132.0602,-11.1882,0.0],[132.0547,-11.1911,0.0],[132.0588,-11.1988,15.5821],[132.0567,-11.2019,0.0],[132.0525,-11.1989,1.9278],[132.0521,-11.1961,0.0],[132.0507,-11.1996,6.3718],[132.0461,-11.1995,0.0],[132.0441,-11.1976,12.5763],[132.0472,-11.1913,4.5682],[132.0424,-11.1948,2.781],[132.037,-11.1928,0.0],[132.0346,-11.1896,2.9],[132.0331,-11.1824,0.0],[132.0291,-11.1787,9.183],[132.0294,-11.1764,5.8935],[132.0218,-11.1634,4.1992],[132.0206,-11.1568,0.0],[132.0163,-11.1507,2.5684],[132.0173,-11.1456,0.9815],[132.0102,-11.1342,6.6281],[132.0114,-11.133,6.6281],[132.0107,-11.1299,0.0],[132.0063,-11.1295,0.0],[131.9941,-11.1242,0.0],[131.985,-11.1293,0.0],[131.9778,-11.1302,2.2031],[131.9728,-11.1283,0.0],[131.9703,-11.1342,0.9712],[131.9698,-11.139099999999999,0.0],[131.9713,-11.1415,1.1495],[131.9773,-11.1416,1.1734],[131.9823,-11.1495,4.3661],[131.9859,-11.151,5.0607],[131.9879,-11.1566,0.0],[131.9865,-11.1709,0.0],[131.9885,-11.1729,0.0],[131.9885,-11.1763,0.0],[131.9923,-11.1722,1.7021],[131.9937,-11.1731,2.309],[131.9935,-11.1757,1.7451],[131.9919,-11.1776,0.0],[131.9824,-11.1801,0.0],[131.9788,-11.1787,2.1253],[131.9774,-11.1748,2.4878999999999998],[131.97,-11.1708,0.0],[131.9651,-11.1764,1.9222],[131.9624,-11.1767,0.6227],[131.9614,-11.1791,0.0],[131.9648,-11.183,2.557],[131.9646,-11.1863,1.6443],[131.9688,-11.1876,5.1638],[131.9713,-11.1914,6.5027],[131.9701,-11.1998,0.0],[131.9798,-11.2055,0.0],[131.9849,-11.2152,4.962],[131.9838,-11.2164,1.2639],[131.9865,-11.2186,2.9544],[131.982,-11.2283,0.4337],[131.9742,-11.2352,0.0],[131.964,-11.2339,1.675],[131.9613,-11.2289,0.0],[131.9644,-11.2451,3.7719],[131.9612,-11.2531,1.4352],[131.9552,-11.247,0.0],[131.951,-11.2474,0.0],[131.9448,-11.2445,0.0],[131.9427,-11.2466,0.0],[131.9457,-11.2494,9.0495],[131.9455,-11.2516,0.0],[131.9351,-11.2549,0.0],[131.93,-11.2599,3.3261],[131.9267,-11.2568,6.7321],[131.9259,-11.2512,10.9004],[131.9315,-11.2433,0.0],[131.9265,-11.2383,10.0199],[131.9275,-11.235,0.0],[131.9226,-11.2363,1.248],[131.9203,-11.2338,0.8712],[131.9207,-11.2303,0.0],[131.9183,-11.2298,5.2584],[131.9156,-11.2266,9.0016],[131.9168,-11.2232,2.6305],[131.9151,-11.2188,0.0],[131.9097,-11.221,0.0],[131.9051,-11.2192,0.0],[131.9041,-11.2164,5.5241],[131.9046,-11.2125,8.1912],[131.908,-11.2114,9.6593],[131.9086,-11.2088,8.1359],[131.912,-11.2069,0.0],[131.9069,-11.2053,0.0],[131.9045,-11.2064,0.0],[131.9023,-11.205,3.7793],[131.901,-11.202,0.0],[131.9023,-11.1957,0.0],[131.8889,-11.1857,0.0],[131.8811,-11.1854,1.9309],[131.8824,-11.1826,0.0],[131.8831,-11.1837,0.0],[131.8848,-11.1824,0.0],[131.8825,-11.1815,0.0],[131.8772,-11.1869,0.0],[131.8756,-11.1931,0.0],[131.8764,-11.1996,3.2214],[131.8788,-11.2032,1.7964],[131.8862,-11.2073,7.9729],[131.883,-11.2164,0.0],[131.8796,-11.2171,0.0],[131.8822,-11.2231,1.4623],[131.8802,-11.2266,1.0198],[131.8824,-11.2322,3.3428],[131.8794,-11.2349,0.0],[131.8759,-11.2346,0.0],[131.868,-11.2193,0.0],[131.8647,-11.2184,0.0],[131.8587,-11.2222,0.0],[131.8564,-11.2196,11.7511],[131.8604,-11.2091,0.0],[131.852,-11.2128,0.0],[131.8469,-11.2225,1.1773],[131.84,-11.2266,1.4861],[131.8311,-11.2233,0.0],[131.8301,-11.2186,5.3704],[131.8313,-11.216,0.0],[131.8266,-11.2133,0.626],[131.8218,-11.2064,0.0],[131.8198,-11.2092,0.0],[131.8148,-11.2117,2.0711],[131.818,-11.2217,5.2122],[131.8158,-11.2213,0.0],[131.8298,-11.2338,1.405],[131.8346,-11.2408,4.6438],[131.8369,-11.2477,4.4462],[131.8483,-11.253,0.0],[131.8468,-11.2622,0.0],[131.8504,-11.264099999999999,11.0963],[131.8515,-11.268,7.632],[131.8563,-11.2728,10.5661],[131.8552,-11.2767,0.0],[131.8509,-11.2814,0.0],[131.8454,-11.2827,0.0],[131.8433,-11.2863,5.3549],[131.8402,-11.2864,6.0581],[131.8389,-11.2853,5.195],[131.8398,-11.2829,1.0699],[131.8427,-11.284,0.0],[131.8406,-11.2818,1.0699],[131.8334,-11.2788,0.0],[131.8248,-11.2787,0.0],[131.8221,-11.2733,6.0591],[131.8158,-11.2682,3.2629],[131.8096,-11.2662,0.0],[131.7944,-11.2683,0.0],[131.7923,-11.27,2.3266],[131.7929,-11.2719,0.0],[131.8042,-11.2784,6.3504],[131.8065,-11.2831,4.1868],[131.8062,-11.2913,7.107],[131.7993,-11.2978,0.0],[131.8065,-11.2966,2.9243],[131.7998,-11.2994,3.0411],[131.7799,-11.2913,1.2028],[131.7768,-11.2969,0.0],[131.7767,-11.3008,0.0],[131.7816,-11.3049,4.9397],[131.7763,-11.3113,3.1174],[131.772,-11.3106,0.0],[131.77,-11.3087,1.4721],[131.7712,-11.3054,5.7007],[131.774,-11.3042,2.9896],[131.7729,-11.3022,0.0],[131.7667,-11.302,0.0],[131.7607,-11.2997,1.0966],[131.7587,-11.3005,0.0],[131.761,-11.3075,5.6084],[131.7626,-11.3095,5.3186],[131.7644,-11.3089,5.3186],[131.7645,-11.3141,9.8058],[131.7619,-11.3126,4.066],[131.7627,-11.3158,6.6806],[131.7675,-11.3174,8.4785],[131.7689,-11.3228,11.1616],[131.7733,-11.325,5.9966],[131.7901,-11.324,7.6548],[131.7948,-11.3207,17.2145],[131.8022,-11.3216,3.9156],[131.8109,-11.3185,7.4671],[131.8211,-11.3183,4.0033],[131.8384,-11.3141,6.3096],[131.8421,-11.3126,5.6031],[131.8521,-11.2967,4.11],[131.8598,-11.2928,5.5432],[131.8664,-11.2957,7.886],[131.87,-11.2952,7.1945],[131.8772,-11.3013,0.0],[131.8841,-11.3028,4.7536],[131.8914,-11.3121,3.6032],[131.8999,-11.3124,5.0185],[131.9053,-11.3175,5.3021],[131.9081,-11.3177,6.586],[131.9095,-11.3225,0.0],[131.9147,-11.3248,0.0],[131.9306,-11.3245,4.6359],[131.9332,-11.3163,4.5522],[131.9435,-11.3199,1.9051],[131.9456,-11.3251,5.1233],[131.9407,-11.3282,0.0],[131.9369,-11.3282,0.0],[131.9261,-11.337,0.0],[131.9202,-11.3492,0.0],[131.9208,-11.353,0.0],[131.9163,-11.3536,0.0],[131.9169,-11.3575,3.721],[131.9229,-11.3634,0.0],[131.9304,-11.3657,2.9184],[131.9282,-11.3579,4.8087],[131.9295,-11.3566,5.2384],[131.9332,-11.3572,6.9647],[131.9376,-11.3508,3.6197],[131.9406,-11.3493,3.9059],[131.942,-11.3508,4.8515],[131.9517,-11.3515,4.3892],[131.9555,-11.3443,2.8685],[131.9513,-11.3412,4.339],[131.9596,-11.3437,4.4021],[131.9659,-11.3425,5.5093],[131.9737,-11.3453,4.4671],[131.9756,-11.3518,0.0],[131.9736,-11.3619,4.4322],[131.9717,-11.3567,0.0],[131.967,-11.3577,0.0],[131.9648,-11.3608,0.926],[131.9659,-11.363,0.7078],[131.9712,-11.3642,3.3687],[131.9669,-11.3664,0.7674],[131.968,-11.3695,0.5489],[131.9746,-11.3747,2.5725],[131.9829,-11.3761,4.5223],[131.9875,-11.3742,3.753],[131.989,-11.3714,3.7418],[131.989,-11.3733,4.2463],[131.9847,-11.3766,2.9211],[131.9806,-11.3835,3.4089],[131.9774,-11.3843,0.0],[131.9654,-11.3803,0.0],[131.9599,-11.3806,0.0],[131.9398,-11.3923,0.0],[131.939,-11.3938,0.0],[131.9424,-11.3999,0.0],[131.947,-11.4002,5.5542],[131.9566,-11.407,0.6311],[131.9581,-11.4064,3.2844],[131.9624,-11.4111,6.8837],[131.9739,-11.4087,4.0681],[131.9848,-11.4023,4.6705],[131.9901,-11.4015,4.2499],[131.9942,-11.4059,0.827],[131.9913,-11.4096,2.8709],[131.9926,-11.4118,0.0],[131.9885,-11.4141,0.0],[131.986,-11.4228,0.0],[131.9915,-11.4286,4.9635],[131.9966,-11.43,1.0285],[132.0092,-11.4307,3.9089],[132.0154,-11.4293,4.9616],[132.0248,-11.4241,6.5691],[132.0412,-11.4204,2.7457],[132.0483,-11.4248,0.2199],[132.0532,-11.4306,4.673],[132.0594,-11.4321,2.907],[132.0609,-11.4349,2.0046],[132.0539,-11.44,0.0],[132.0585,-11.443,0.0],[132.0582,-11.4469,0.0],[132.0511,-11.4552,2.8376],[132.0529,-11.4582,0.0],[132.0509,-11.4602,1.137],[132.0442,-11.4591,0.0],[132.0433,-11.4607,2.7071],[132.0418,-11.4584,1.5347],[132.0363,-11.4563,0.9395],[132.0302,-11.4589,0.0],[132.0339,-11.4821,0.0],[132.0371,-11.4841,12.7544],[132.0409,-11.4905,13.5882],[132.0554,-11.4965,1.8927],[132.0604,-11.5061,0.0],[132.0589,-11.515,0.0],[132.0679,-11.525,1.6846],[132.0807,-11.5302,2.5777],[132.0895,-11.5313,0.1859],[132.0981,-11.5295,4.6347],[132.0976,-11.531,1.6984],[132.1021,-11.5313,0.0],[132.1024,-11.5288,3.7649],[132.1045,-11.5281,4.2361],[132.1057,-11.5289,4.2361],[132.1037,-11.5287,3.7649],[132.1042,-11.531,4.661],[132.1086,-11.5326,3.4288],[132.1138,-11.5399,0.0],[132.1156,-11.5396,4.0679],[132.1171,-11.5335,5.4684],[132.1226,-11.5264,0.2499],[132.1218,-11.5235,2.7892],[132.1169,-11.5208,3.4377],[132.1149,-11.5166,5.0932],[132.1181,-11.5186,0.92],[132.1181,-11.5149,7.2842],[132.1221,-11.5134,5.8612],[132.1221,-11.5086,6.4436],[132.1187,-11.5049,5.8901],[132.1186,-11.4999,5.1345],[132.1203,-11.5052,5.8901],[132.124,-11.5095,2.5104],[132.1234,-11.5138,2.2566],[132.1198,-11.5152,2.3811],[132.1218,-11.5164,0.0],[132.1282,-11.5152,2.9988],[132.1317,-11.5217,0.6834],[132.1381,-11.5211,4.5574],[132.1421,-11.5193,3.6279],[132.1497,-11.5122,0.0],[132.1479,-11.5123,1.9094],[132.1502,-11.5032,3.6915],[132.1534,-11.5012,4.4143],[132.1603,-11.5003,3.4531],[132.1673,-11.4916,3.0353],[132.1727,-11.4898,5.4834],[132.1808,-11.4923,2.1618],[132.1938,-11.4902,0.8816],[132.2101,-11.4692,3.0553],[132.2187,-11.4639,9.473],[132.2231,-11.4646,0.0],[132.2252,-11.4609,8.5189],[132.2298,-11.4604,0.8234],[132.2333,-11.4569,11.0636],[132.2388,-11.4552,7.3645],[132.2382,-11.4561,7.3645],[132.2436,-11.4568,1.6961],[132.253,-11.4554,4.518],[132.2618,-11.4584,0.2328],[132.2618,-11.4566,4.2979],[132.2652,-11.455,4.7801],[132.2666,-11.4574,4.4817],[132.269,-11.4571,4.3472],[132.2662,-11.4583,4.7996],[132.2642,-11.4567,0.9022],[132.2652,-11.4603,1.7265],[132.2708,-11.4628,4.0976],[132.281,-11.4616,11.3037],[132.287,-11.465,0.0],[132.2961,-11.4628,6.6018],[132.3019,-11.4651,0.3527],[132.323,-11.454,8.7949],[132.3271,-11.4546,-0.4688],[132.3368,-11.4469,11.6998],[132.3535,-11.4413,1.7623],[132.3609,-11.4449,-0.0638],[132.3618,-11.4431,2.6455],[132.3839,-11.4512,2.9077],[132.3861,-11.4502,2.3404],[132.3865,-11.4519,0.3974],[132.3992,-11.4549,-0.0349],[132.4127,-11.4537,5.6427],[132.4157,-11.4519,17.2171],[132.4251,-11.4537,0.2189],[132.4287,-11.452,2.3527],[132.4317,-11.4542,0.8808],[132.4572,-11.4578,3.3983],[132.463,-11.4617,1.7123],[132.4725,-11.477,2.8554],[132.4805,-11.4841,0.0],[132.487,-11.4852,6.685],[132.4942,-11.4825,3.093],[132.4991,-11.4883,0.0],[132.4961,-11.4915,0.0],[132.4952,-11.4987,0.0],[132.4974,-11.5067,0.9791],[132.4998,-11.5095,1.9448],[132.5158,-11.5208,6.3152],[132.5214,-11.5218,5.0266],[132.5289,-11.5177,4.0499],[132.5319,-11.5205,0.0],[132.5283,-11.5272,0.5335],[132.5287,-11.5293,2.8596],[132.5304,-11.5299,3.4583],[132.5292,-11.5329,0.0],[132.5242,-11.5378,0.3283],[132.5248,-11.545,1.3775],[132.5304,-11.5503,2.0057],[132.5377,-11.5541,2.1162],[132.5531,-11.5549,3.2053],[132.5542,-11.5596,0.5398],[132.5473,-11.5699,0.7934],[132.5491,-11.5742,2.6949],[132.5454,-11.5775,0.0],[132.5392,-11.5772,0.0],[132.5363,-11.5803,2.9337],[132.5375,-11.5859,0.0],[132.5455,-11.5979,1.4414],[132.5449,-11.6022,5.5935],[132.5478,-11.6087,0.2154],[132.551,-11.6114,2.0142],[132.5679,-11.6187,7.9709],[132.5945,-11.6397,3.3236],[132.5993,-11.6411,5.2865],[132.6071,-11.64,3.703],[132.6163,-11.6502,0.0],[132.6166,-11.6548,1.6553],[132.5983,-11.6537,0.0],[132.5836,-11.6575,0.0],[132.5762,-11.6552,0.8749],[132.5708,-11.6641,1.851],[132.5646,-11.6674,2.5809],[132.5703,-11.663,1.851],[132.5742,-11.655,6.1746],[132.5649,-11.6467,5.3955],[132.5577,-11.6364,0.0],[132.5505,-11.6357,0.0],[132.5312,-11.6384,0.0],[132.5138,-11.6376,0.0],[132.5074,-11.6357,0.0],[132.5045,-11.6375,0.0],[132.5009,-11.6452,0.0],[132.5021,-11.6707,1.5125],[132.4987,-11.6789,0.0],[132.4998,-11.6821,0.0],[132.5097,-11.6832,3.3086],[132.519,-11.6876,3.1907],[132.5321,-11.71,4.4358],[132.5402,-11.7182,0.0],[132.5947,-11.73,0.8086],[132.6075,-11.7264,1.4773],[132.6231,-11.7242,6.6506],[132.631,-11.7205,4.2979],[132.638,-11.7089,1.2667],[132.643,-11.6816,4.2845],[132.6547,-11.6856,0.0],[132.6514,-11.7148,6.0432],[132.6489,-11.7224,0.0],[132.623,-11.7473,0.0],[132.6206,-11.7581,11.4696],[132.5967,-11.7679,0.0],[132.596,-11.771,5.4779],[132.5903,-11.7738,0.274],[132.5901,-11.777,1.6007],[132.5881,-11.779,1.3969],[132.5832,-11.7805,0.0],[132.583,-11.7839,0.0],[132.5807,-11.786,0.0],[132.5823,-11.7894,0.0349],[132.5885,-11.7939,2.9131],[132.5892,-11.7978,1.3146],[132.5949,-11.8053,0.2229],[132.605,-11.8085,0.0],[132.6154,-11.8086,0.6071],[132.6185,-11.805,7.439],[132.6195,-11.8083,0.2265],[132.6261,-11.812,0.2297],[132.6304,-11.8167,0.2052],[132.6311,-11.8158,6.2904],[132.6365,-11.822,0.2541],[132.6442,-11.8503,0.2195],[132.6479,-11.8582,0.6156],[132.6456,-11.8751,0.0],[132.6507,-11.8826,0.0],[132.653,-11.8835,0.0],[132.6553,-11.8898,0.0],[132.6444,-11.8952,0.0],[132.6408,-11.9013,0.0],[132.6383,-11.9195,0.0],[132.6387,-11.9428,2.6612],[132.6307,-11.9675,0.0],[132.6234,-12.0053,4.7893],[132.619,-12.0167,0.0],[132.6242,-12.0375,0.0],[132.6264,-12.0542,0.0],[132.6234,-12.0638,0.0],[132.6233,-12.0726,0.9396],[132.6293,-12.0854,1.7804],[132.5784,-12.1055,0.0],[132.5674,-12.0971,3.3833],[132.5642,-12.0923,9.525],[132.5633,-12.0869,0.0307],[132.5562,-12.0858,0.3807],[132.5543,-12.0874,0.3332],[132.5558,-12.0951,4.3133],[132.5548,-12.0983,2.8997],[132.5522,-12.0981,4.9327],[132.5331,-12.1131,5.8667],[132.513,-12.1241,0.0],[132.4828,-12.1375,2.0776],[132.442,-12.1465,0.8433],[132.4371,-12.1544,2.0259],[132.4375,-12.1575,3.8962],[132.4353,-12.1597,0.0],[132.4333,-12.1669,2.7525],[132.4176,-12.1953,3.5185],[132.4162,-12.2017,3.2856],[132.4171,-12.2224,3.7003],[132.3894,-12.2364,0.5904],[132.3791,-12.226,0.0],[132.369,-12.2194,0.0],[132.3588,-12.2027,0.0],[132.3532,-12.1988,0.0],[132.334,-12.201599999999999,1.3213],[132.3151,-12.2111,0.0],[132.2919,-12.2178,0.0],[132.287,-12.2219,0.0],[132.2866,-12.2241,0.0],[132.2785,-12.2242,8.5942],[132.2737,-12.2172,3.3245],[132.2717,-12.2166,4.2805],[132.2711,-12.2134,0.0449],[132.2686,-12.2121,6.0808],[132.2643,-12.203,1.8042],[132.2633,-12.1909,0.0],[132.2649,-12.1829,0.0],[132.2617,-12.1734,-0.691],[132.2562,-12.1743,1.0207],[132.2538,-12.171,-0.3954],[132.2502,-12.1745,12.1079],[132.2449,-12.1754,1.5028],[132.2419,-12.1745,0.0],[132.2405,-12.1708,-0.2948],[132.2382,-12.1698,3.0873],[132.2349,-12.1719,9.1172],[132.2324,-12.1762,0.4564],[132.2312,-12.1846,6.8022],[132.2293,-12.1874,2.3078],[132.2282,-12.1869,2.3078],[132.2268,-12.1925,9.0749],[132.2244,-12.1946,8.9291],[132.1967,-12.2088,1.9202],[132.1863,-12.2116,4.5715],[132.1834,-12.2087,0.2235],[132.1791,-12.2119,4.3625],[132.1732,-12.2117,0.259],[132.1708,-12.2133,0.1017],[132.1695,-12.2171,0.3199],[132.1679,-12.2173,0.3199],[132.1683,-12.222,4.0042],[132.1649,-12.2244,1.4044],[132.1555,-12.2383,1.7411],[132.1393,-12.2527,0.1322],[132.1114,-12.2708,0.0],[132.0859,-12.2821,0.0],[132.0718,-12.2908,0.0],[132.0689,-12.2972,5.7733],[132.0697,-12.3035,4.0942],[132.0648,-12.3032,0.0],[132.0657,-12.3066,3.1384],[132.0692,-12.3111,0.0],[132.0731,-12.3115,1.265],[132.0792,-12.3068,4.5952],[132.0827,-12.3068,1.7356],[132.085,-12.3094,0.0],[132.0869,-12.3184,2.1025],[132.0907,-12.3235,1.836],[132.0903,-12.3253,2.0379],[132.0825,-12.3277,5.5213],[132.0801,-12.3315,4.1355],[132.0805,-12.3407,3.8577],[132.0859,-12.3451,6.598],[132.086,-12.3508,9.9607],[132.0898,-12.3541,4.4434],[132.093,-12.3542,5.4504],[132.1032,-12.3497,2.6665],[132.1027,-12.3468,2.5861],[132.0967,-12.3404,10.311],[132.097,-12.3385,7.6257],[132.1057,-12.3314,3.3089],[132.1084,-12.3314,2.0188],[132.1125,-12.3373,9.2386],[132.1115,-12.3611,2.2644],[132.0202,-12.4764,16.0631],[131.8881,-12.5237,44.7582],[131.8881,-12.6146,36.2199],[131.927,-12.6146,27.775],[131.927,-12.7629,41.6047],[131.9717,-12.7629,25.5698],[131.9718,-12.9211,41.7612],[132.0735,-12.9212,48.9507],[132.0735,-13.1757,77.7007],[131.8789,-13.1757,38.5824],[131.8871,-13.2015,43.739],[131.8993,-13.2133,42.5472],[131.9076,-13.2308,46.7816],[131.9081,-13.2713,51.368],[131.9121,-13.2768,46.2566],[131.9249,-13.2795,53.6694],[131.9272,-13.2861,51.0465],[131.9362,-13.2901,52.1409],[131.9356,-13.3058,53.9987],[131.9382,-13.3242,57.1975],[131.9483,-13.335,56.3341],[131.9505,-13.3415,54.5321],[131.9572,-13.3483,58.4125],[131.9554,-13.3621,57.9797],[131.9684,-13.3966,63.3622],[131.9641,-13.4109,62.5841],[131.9772,-13.4214,65.9767],[131.9817,-13.4287,61.6449],[131.9947,-13.4319,65.4685],[131.9996,-13.4378,68.4085],[132.0016,-13.4429,65.6778],[132.0185,-13.4629,67.8361],[132.0242,-13.4784,79.5734],[132.023,-13.5004,75.1154],[132.0273,-13.5078,80.6566],[132.0408,-13.5125,82.7119],[132.0497,-13.5282,81.189],[132.0684,-13.5362,85.9145],[132.0883,-13.5562,89.2387],[132.1065,-13.5668,90.3204],[132.114,-13.5773,93.2024],[132.1236,-13.579,94.6032],[132.1261,-13.5831,99.6076],[132.1281,-13.5936,98.5627],[132.1366,-13.6024,98.7328],[132.1412,-13.6022,99.4283],[132.1499,-13.5973,103.8977],[132.1598,-13.5946,106.6104],[132.1695,-13.6021,104.5168],[132.1762,-13.6034,104.454],[132.1823,-13.6011,104.1096],[132.1895,-13.5936,111.0495],[132.1995,-13.5976,112.4463],[132.2081,-13.5971,114.5035],[132.2163,-13.6029,113.0122],[132.2252,-13.6036,113.9498],[132.2297,-13.6136,116.9186],[132.2464,-13.6174,118.4211],[132.2579,-13.6243,121.1298],[132.2739,-13.638,127.363],[132.282,-13.6421,131.3609],[132.2856,-13.6426,133.3315],[132.2879,-13.641,130.1162],[132.2899,-13.636,132.5677],[132.2973,-13.6364,131.7108],[132.3066,-13.6407,134.7659],[132.3093,-13.6643,145.4258],[132.3268,-13.6747,140.8855],[132.3255,-13.6856,145.4902],[132.3292,-13.6925,145.0629],[132.3259,-13.6974,151.9051],[132.3275,-13.7037,153.5666],[132.3257,-13.7149,179.1902],[132.3266,-13.7207,168.7069],[132.3323,-13.7254,158.4337],[132.349,-13.7288,157.2502],[132.3519,-13.7363,181.0578],[132.3516,-13.7394,188.2903],[132.3552,-13.7406,163.7872],[132.357,-13.7437,175.4387],[132.3567,-13.7528,200.6508],[132.3664,-13.7584,172.4394],[132.3685,-13.7621,174.7455],[132.3697,-13.7687,192.197],[132.3678,-13.7854,195.0743],[132.3689,-13.7961,195.3731],[132.3652,-13.8085,206.8628],[132.481,-13.8085,314.8715],[132.4812,-13.5311,100.6008],[132.421,-13.5311,317.9068],[132.4211,-13.4445,67.0885],[132.4077,-13.4397,58.6482],[132.4076,-13.4306,53.1016],[132.4111,-13.4276,179.9317],[132.4211,-13.4276,242.5349],[132.4211,-13.4021,226.4627],[132.9988,-13.4041,392.4429],[132.999,-13.1278,176.3328],[134.2048,-13.1313,257.4853],[134.8417,-13.1356,68.8911],[134.8426,-13.1278,63.746],[134.8461,-13.1182,63.5152],[134.8519,-13.1112,62.9355],[134.8568,-13.099,63.0195],[134.8736,-13.0865,62.4145],[134.8873,-13.0799,64.112],[134.9009,-13.0615,67.1089],[134.9097,-13.0463,56.5478],[134.9127,-13.0252,57.0373],[134.9214,-13.0129,53.2877],[134.933,-13.0008,64.3347],[134.9357,-12.9998,67.0819],[134.9393,-13.0015,68.4265],[134.9563,-13.0181,38.8038],[134.9736,-13.0196,32.6526],[134.976,-13.0213,36.4108],[134.9759,-13.0273,37.6038],[134.982,-13.0283,39.2673],[134.9856,-13.0263,38.3458],[135.0,-13.0016,37.5041],[135.0,-12.8833,49.2943],[134.7917,-12.8833,114.3597],[134.7917,-12.5977,26.0382],[134.7903,-12.5906,23.2857],[134.7869,-12.5846,24.3862],[134.7788,-12.5763,24.2203],[134.7747,-12.5686,24.3384],[134.7724,-12.5619,24.9585],[134.7719,-12.5471,22.9857],[134.7667,-12.5352,20.2245],[134.7667,-12.2333,15.6037],[134.8058,-12.17,3.0982]]],
[[[134.1659,-12.1053,4.8316],[134.1721,-12.1125,0.0],[134.1845,-12.0981,0.0],[134.1836,-12.0876,2.0509],[134.1809,-12.0868,6.2629],[134.1712,-12.0908,0.0],[134.1648,-12.101,1.7172],[134.1659,-12.1053,4.8316]]],
[[[134.2079,-11.9612,0.0],[134.2089,-11.9631,0.0],[134.2175,-11.9636,0.0],[134.2218,-11.9598,0.0],[134.2221,-11.9539,0.0],[134.2179,-11.9526,0.0],[134.2128,-11.954,0.0],[134.2124,-11.9581,0.0],[134.2079,-11.9612,0.0]]],
[[[134.2113,-11.8894,0.0],[134.2109,-11.891,0.0],[134.2125,-11.8922,0.0],[134.2124,-11.8901,0.5598],[134.2113,-11.8894,0.0]]],
[[[133.3226,-11.6621,0.0],[133.3224,-11.6596,0.0],[133.3185,-11.6609,0.0],[133.3166,-11.6583,0.2212],[133.3162,-11.6631,9.4648],[133.3139,-11.6659,1.2628],[133.3213,-11.6663,1.6352],[133.3226,-11.6621,0.0]]],
[[[133.4367,-11.588,0.8219],[133.4239,-11.5855,0.0],[133.4139,-11.5861,0.0],[133.4094,-11.5844,0.0],[133.4049,-11.5878,0.0],[133.3986,-11.5978,0.4873],[133.393,-11.6033,2.7235],[133.3772,-11.613,2.627],[133.3495,-11.6234,3.2205],[133.3522,-11.6264,3.6333],[133.3524,-11.6329,3.8],[133.3614,-11.6371,8.6642],[133.3649,-11.6428,8.334],[133.363,-11.655,0.0],[133.3588,-11.6649,5.7824],[133.363,-11.6702,1.2239],[133.367,-11.6725,6.5792],[133.3668,-11.6759,3.2423],[133.3691,-11.6807,2.3434],[133.3778,-11.6794,0.5113],[133.3825,-11.6765,0.2007],[133.3844,-11.6733,1.0496],[133.3901,-11.6711,9.491],[133.396,-11.6735,1.1425],[133.4023,-11.6598,1.4061],[133.4018,-11.6568,0.0504],[133.3979,-11.6555,0.6157],[133.3968,-11.6509,0.0],[133.3932,-11.6494,0.0],[133.3922,-11.6455,0.0],[133.3869,-11.6407,0.0],[133.3862,-11.6361,0.7851],[133.3883,-11.6334,1.1969],[133.3986,-11.6347,0.8866],[133.4125,-11.6251,2.1736],[133.4152,-11.6252,4.4706],[133.415,-11.6286,3.0651],[133.4185,-11.635,0.0],[133.4189,-11.6418,0.0],[133.4214,-11.6453,0.0655],[133.4239,-11.6337,1.6725],[133.4266,-11.6293,1.4046],[133.4341,-11.6292,1.7086],[133.441,-11.6253,1.5443],[133.4456,-11.6216,0.5097],[133.4466,-11.6171,6.7952],[133.4562,-11.6185,0.4862],[133.4573,-11.6152,7.9368],[133.4587,-11.6185,4.1693],[133.4614,-11.6192,5.8442],[133.4684,-11.6167,6.5496],[133.4667,-11.6183,2.8576],[133.4678,-11.6185,2.8576],[133.4642,-11.6198,0.0],[133.4741,-11.6193,5.9639],[133.4738,-11.6204,4.6702],[133.4792,-11.6232,0.039],[133.4806,-11.6226,0.0],[133.4817,-11.6159,0.0],[133.4775,-11.6103,0.0],[133.4737,-11.5951,-0.0718],[133.4712,-11.5953,0.4287],[133.4662,-11.591,0.0],[133.4624,-11.5944,1.7759],[133.4553,-11.5917,0.0],[133.4527,-11.5937,0.1629],[133.4448,-11.5926,0.0],[133.4452,-11.5946,2.0947],[133.4413,-11.599,7.1614],[133.4444,-11.5936,0.5555],[133.4437,-11.5914,0.0],[133.439,-11.5879,0.0],[133.4367,-11.588,0.8219]]],
[[[133.4816,-11.4962,0.0],[133.48,-11.4865,0.0],[133.4747,-11.4713,0.0],[133.4666,-11.4643,0.0],[133.4606,-11.4693,0.3162],[133.455,-11.4695,-0.0164],[133.4507,-11.4772,1.0402],[133.4337,-11.4841,0.0],[133.4236,-11.4906,0.0],[133.418,-11.4913,3.8896],[133.4089,-11.4891,0.0],[133.4042,-11.4903,0.0],[133.3945,-11.4877,0.0],[133.39,-11.4884,0.0327],[133.3917,-11.4944,0.6801],[133.4003,-11.5012,13.037],[133.4016,-11.5062,11.1219],[133.398,-11.5233,0.4785],[133.3946,-11.5289,3.8119],[133.3889,-11.5335,1.0242],[133.3831,-11.5431,0.593],[133.3859,-11.5466,0.0],[133.3924,-11.5417,0.0],[133.4029,-11.5291,1.2675],[133.4073,-11.5268,2.3417],[133.4165,-11.5268,1.8164],[133.4248,-11.5114,2.9232],[133.4345,-11.506,3.5178],[133.4408,-11.5055,11.2705],[133.4502,-11.5112,12.2971],[133.4536,-11.5155,1.6925],[133.4592,-11.5164,1.8665],[133.4747,-11.5145,9.3259],[133.4788,-11.5172,3.7369],[133.4875,-11.5164,3.333],[133.4911,-11.5193,0.0],[133.4935,-11.5136,0.0],[133.493,-11.5056,0.0364],[133.4816,-11.4962,0.0]]],
[[[132.883,-11.1448,0.0],[132.8768,-11.1467,0.7524],[132.868,-11.1442,0.0],[132.8633,-11.1395,0.0],[132.8606,-11.1411,0.0],[132.8568,-11.1475,0.0],[132.86,-11.1511,16.543],[132.8665,-11.1523,2.2468],[132.8719,-11.1561,5.1972],[132.8746,-11.1684,2.5833],[132.8767,-11.1701,12.489],[132.8805,-11.1695,15.3976],[132.8973,-11.16,1.1187],[132.9038,-11.161,0.4742],[132.9061,-11.1537,0.6894],[132.9042,-11.1501,0.7398],[132.9071,-11.152,1.112],[132.9053,-11.1612,0.8111],[132.9138,-11.1653,4.4851],[132.917,-11.1698,16.5639],[132.9197,-11.1692,0.0],[132.914,-11.1588,0.8249],[132.9146,-11.1433,0.7481],[132.9173,-11.1399,0.0],[132.9157,-11.1398,0.2889],[132.9121,-11.1428,0.0],[132.9068,-11.1398,0.0],[132.9053,-11.1421,3.4693],[132.9025,-11.1428,0.0],[132.8958,-11.1401,0.0],[132.883,-11.1448,0.0]]],
[[[132.9992,-11.0874,2.9043],[133.0054,-11.0865,0.0774],[133.0109,-11.0731,1.5772],[133.0168,-11.0676,0.0],[133.0113,-11.0652,0.8683],[133.0087,-11.0622,0.0],[132.9877,-11.0526,0.396],[132.9779,-11.0435,0.0],[132.9783,-11.0534,0.0],[132.9853,-11.0588,6.262],[132.9895,-11.0651,5.2841],[132.991,-11.0807,2.6317],[132.9934,-11.0866,4.4341],[132.9992,-11.0874,2.9043]]],
[[[132.8722,-11.0588,0.0],[132.87,-11.0587,0.0],[132.8706,-11.0552,0.8335],[132.8767,-11.0466,0.0],[132.8626,-11.0435,0.0],[132.8565,-11.0465,0.0],[132.8524,-11.0586,0.0],[132.8556,-11.0599,0.8375],[132.864,-11.0572,1.8964],[132.8692,-11.0606,0.1538],[132.8722,-11.0588,0.0]]],
[[[132.4574,-11.0252,0.0],[132.4596,-11.0252,1.3575],[132.4591,-11.0225,0.0],[132.4568,-11.0244,0.0],[132.4584,-11.0284,0.0],[132.4588,-11.0277,0.0],[132.4574,-11.0252,0.0]]],
[[[132.8295,-10.9703,0.0],[132.8242,-10.9715,1.1799],[132.8238,-10.9666,0.4197],[132.8218,-10.9659,0.0],[132.8191,-10.9679,0.0],[132.819,-10.9736,0.8289],[132.8213,-10.9756,0.0],[132.8207,-10.9711,1.1004],[132.8218,-10.9704,1.1004],[132.8246,-10.9805,2.2738],[132.8223,-10.9787,0.0],[132.8244,-10.987,1.9564],[132.8233,-10.9922,10.911],[132.8255,-10.9981,0.4699],[132.828,-10.9928,3.6261],[132.8283,-10.9824,1.7547],[132.8322,-10.9762,0.0],[132.8308,-10.9673,0.0],[132.8295,-10.9703,0.0]]],
[[[132.3446,-12.1783,0.1692],[132.3458,-12.1842,3.0772],[132.352,-12.189,1.1121],[132.3587,-12.1845,0.0],[132.358,-12.1784,0.0],[132.3602,-12.1705,0.0],[132.3584,-12.1602,0.0],[132.3541,-12.1552,2.2944],[132.3541,-12.1567,4.3786],[132.3504,-12.1577,1.2347],[132.3459,-12.1652,0.4543],[132.3446,-12.1783,0.1692]]],
[[[132.118,-11.6249,0.0],[132.134,-11.6272,3.0051],[132.1404,-11.6216,2.0078],[132.1437,-11.6122,3.3593],[132.1476,-11.6109,0.9925],[132.1492,-11.608,2.0463],[132.1473,-11.6018,0.3338],[132.1384,-11.5902,1.4378],[132.1348,-11.5782,4.0869],[132.135,-11.5689,1.0022],[132.1261,-11.564,0.2938],[132.1219,-11.5648,0.2506],[132.1171,-11.573,0.0],[132.1136,-11.5759,0.0],[132.1183,-11.579,0.0],[132.1208,-11.585,1.8362],[132.1209,-11.5901,1.3639],[132.1195,-11.5979,0.0],[132.1161,-11.605,0.0],[132.1093,-11.6122,0.0],[132.1097,-11.617,0.0],[132.1134,-11.6238,0.0],[132.118,-11.6249,0.0]]],
[[[132.318,-11.592,7.6027],[132.3242,-11.5825,2.7505],[132.3221,-11.5759,5.2055],[132.3035,-11.5638,0.0],[132.3016,-11.5651,0.6356],[132.2981,-11.5812,1.3303],[132.2963,-11.581,0.2988],[132.2955,-11.5844,1.325],[132.299,-11.5931,-1.2086],[132.3003,-11.5945,0.369],[132.3057,-11.5946,2.0319],[132.3147,-11.6002,-1.2099],[132.3184,-11.5983,-0.7049],[132.3165,-11.5932,7.2922],[132.318,-11.592,7.6027]]],
[[[132.1703,-11.5767,1.2422],[132.168,-11.5794,0.3967],[132.1679,-11.5852,0.4768],[132.1704,-11.5873,2.2886],[132.1731,-11.5872,3.1025],[132.1745,-11.5841,1.214],[132.1718,-11.5773,1.2422],[132.1703,-11.5767,1.2422]]],
[[[132.4014,-12.0762,0.0],[132.3834,-12.0749,2.8527],[132.3775,-12.073,0.0],[132.3609,-12.0831,2.3275],[132.3503,-12.0831,0.2278],[132.349,-12.0852,3.6455],[132.3398,-12.0815,0.605],[132.3373,-12.0826,0.0],[132.3361,-12.0857,0.2641],[132.3388,-12.0902,12.5328],[132.3364,-12.0935,0.5511],[132.3425,-12.095,4.1545],[132.3444,-12.1013,1.0403],[132.3472,-12.1029,5.292],[132.3509,-12.1089,1.6833],[132.3616,-12.114,5.4389],[132.3639,-12.119,1.9028],[132.366,-12.1176,5.9804],[132.3664,-12.124,4.6369],[132.3764,-12.1296,5.5219],[132.3875,-12.1389,1.536],[132.3988,-12.1415,0.0],[132.4095,-12.1393,1.1369],[132.4176,-12.1292,2.7653],[132.422,-12.1206,0.0],[132.422,-12.1169,0.0],[132.418,-12.114,10.9057],[132.4193,-12.112,0.0],[132.4153,-12.1054,0.0],[132.4148,-12.0922,0.0],[132.4131,-12.0882,0.0],[132.4057,-12.079,0.0],[132.4014,-12.0762,0.0]]],
[[[132.4619,-11.6224,4.0756],[132.4623,-11.621,0.0],[132.4585,-11.6212,0.0],[132.4512,-11.6172,0.0],[132.4495,-11.618,0.0],[132.4495,-11.6204,0.6003],[132.4474,-11.621,0.0],[132.4515,-11.6259,0.0],[132.454,-11.6258,2.9655],[132.4572,-11.6287,0.3075],[132.4594,-11.6281,0.7825],[132.4619,-11.6224,4.0756]]],
[[[132.7231,-11.4741,0.0],[132.7229,-11.4745,0.0],[132.7249,-11.4776,0.0],[132.7264,-11.4744,0.0],[132.7231,-11.4741,0.0]]],
[[[132.7981,-11.3913,4.0242],[132.7999,-11.3916,1.015],[132.8032,-11.3886,1.9995],[132.7961,-11.3864,0.0],[132.7814,-11.3744,0.0],[132.7792,-11.3733,0.0],[132.7764,-11.3742,0.0],[132.7751,-11.3774,19.4682],[132.7789,-11.3819,14.4629],[132.7801,-11.3894,10.6596],[132.7875,-11.3882,1.984],[132.7973,-11.3946,3.2475],[132.8005,-11.3948,0.1482],[132.7976,-11.3929,4.0242],[132.7981,-11.3913,4.0242]]],
[[[132.1527,-11.5651,0.0],[132.1523,-11.5694,0.0],[132.1542,-11.5716,0.0],[132.1554,-11.5619,0.0],[132.1527,-11.5651,0.0]]],
[[[132.1556,-11.5413,0.0],[132.156,-11.5407,0.0],[132.1551,-11.5403,0.0],[132.1548,-11.5409,0.0],[132.1556,-11.5413,0.0]]],
[[[132.3307,-11.5355,1.2999],[132.3303,-11.538,0.0],[132.3333,-11.5408,-0.4988],[132.3376,-11.5402,2.9082],[132.3369,-11.5354,3.2862],[132.3396,-11.5243,0.3497],[132.3347,-11.5145,0.0],[132.3363,-11.5186,0.0],[132.3354,-11.5278,0.2071],[132.3309,-11.5329,0.2166],[132.3307,-11.5355,1.2999]]],
[[[131.9631,-11.4854,1.0559],[131.9631,-11.4839,2.398],[131.9649,-11.4838,0.0],[131.9614,-11.4768,0.7739],[131.9544,-11.4725,0.0],[131.9484,-11.4737,0.6832],[131.9485,-11.4808,2.0772],[131.9537,-11.4865,0.0],[131.9602,-11.4883,0.9602],[131.9631,-11.4854,1.0559]]],
[[[132.7846,-11.3156,0.0],[132.7831,-11.3158,0.0],[132.7824,-11.3162,0.0],[132.7846,-11.3165,2.9863],[132.7846,-11.3156,0.0]]],
[[[132.7333,-11.2918,2.2039],[132.7328,-11.2848,1.4307],[132.7199,-11.2845,0.0],[132.7214,-11.2866,3.2453],[132.7198,-11.2894,1.0878],[132.7239,-11.2902,0.7731],[132.7307,-11.2957,2.6741],[132.7333,-11.2918,2.2039]]],
[[[132.675,-11.1963,0.5696],[132.6777,-11.1932,4.3283],[132.681,-11.1932,3.7914],[132.682,-11.1883,3.7331],[132.6704,-11.1841,0.0],[132.6636,-11.1859,0.0],[132.6531,-11.194,0.0],[132.6505,-11.204,0.0],[132.6428,-11.2095,0.0],[132.6488,-11.2123,20.2269],[132.6558,-11.2075,5.6204],[132.6604,-11.2111,14.9467],[132.6683,-11.1999,1.2111],[132.6719,-11.1981,7.2874],[132.6746,-11.1987,0.0],[132.675,-11.1963,0.5696]]],
[[[132.594,-10.9787,5.9015],[132.5975,-10.9749,6.0992],[132.5947,-10.9699,1.1308],[132.5872,-10.9737,0.0],[132.5705,-10.9734,0.7442],[132.5645,-10.9792,0.0],[132.5653,-10.9821,2.8061],[132.5638,-10.9857,0.0],[132.5568,-10.9943,0.623],[132.5585,-11.0018,0.0],[132.5617,-11.0067,1.3419],[132.5593,-11.0146,4.3447],[132.5617,-11.0232,0.0],[132.56,-11.0292,0.0],[132.554,-11.0364,0.0],[132.5455,-11.0425,0.0],[132.5336,-11.043,0.1294],[132.5412,-11.0461,1.3101],[132.5425,-11.0508,2.5446],[132.5452,-11.0525,4.461],[132.541,-11.0516,0.0],[132.5397,-11.0477,0.0],[132.5272,-11.0426,0.0],[132.5208,-11.0536,0.0],[132.5128,-11.0536,0.0],[132.502,-11.0578,0.0],[132.4962,-11.0559,0.0],[132.4915,-11.0496,0.0],[132.4837,-11.0482,0.8637],[132.4784,-11.0409,0.0],[132.4671,-11.0319,0.0],[132.4624,-11.0326,0.3267],[132.4615,-11.0372,0.0],[132.4686,-11.0429,5.9889],[132.4681,-11.0514,0.0],[132.4702,-11.0578,0.0],[132.474,-11.0586,5.9876],[132.4775,-11.0622,4.7583],[132.4857,-11.0784,3.602],[132.4884,-11.0788,10.863],[132.4923,-11.0757,11.771],[132.4968,-11.0773,3.5814],[132.5025,-11.085,4.7839],[132.5063,-11.0816,1.6344],[132.5094,-11.0825,0.9594],[132.5122,-11.0866,0.2329],[132.5133,-11.0925,0.0],[132.5098,-11.1034,0.0],[132.5092,-11.1171,0.0],[132.5046,-11.1244,0.0],[132.5055,-11.1283,0.8461],[132.511,-11.1298,0.0],[132.5117,-11.1345,1.5893],[132.5099,-11.1382,0.6714],[132.5021,-11.1487,0.299],[132.4918,-11.1552,0.0],[132.4848,-11.1559,0.0],[132.4816,-11.1494,0.0],[132.4764,-11.1489,0.0],[132.4695,-11.1535,0.0],[132.4698,-11.1569,0.0],[132.4712,-11.1587,4.942],[132.4777,-11.1592,5.1491],[132.4812,-11.167,6.5593],[132.4895,-11.1749,5.5425],[132.4945,-11.1879,0.0],[132.4995,-11.1952,12.76],[132.5006,-11.2051,2.721],[132.5126,-11.2123,6.0923],[132.518,-11.2245,3.2832],[132.5239,-11.2316,4.1545],[132.5275,-11.2333,0.0],[132.5306,-11.2436,2.7201],[132.5379,-11.2451,0.435],[132.5433,-11.2523,0.8427],[132.5425,-11.2611,5.9446],[132.5456,-11.2668,0.0],[132.546,-11.2791,0.0],[132.5496,-11.2836,0.7006],[132.5481,-11.2919,0.0],[132.5512,-11.2958,3.2106],[132.5552,-11.3107,0.8872],[132.5576,-11.3162,0.4228],[132.5646,-11.3238,0.2884],[132.5661,-11.3287,0.9282],[132.5796,-11.3315,9.9016],[132.5845,-11.3365,0.9152],[132.5876,-11.3436,3.9109],[132.5855,-11.3537,0.0],[132.588,-11.3558,1.0791],[132.5902,-11.3541,0.34],[132.5928,-11.345,1.5908],[132.5918,-11.3313,1.1006],[132.5997,-11.3001,3.3329],[132.604,-11.2992,1.3223],[132.6084,-11.2943,7.5568],[132.6101,-11.2873,25.0478],[132.6145,-11.2854,8.8471],[132.6185,-11.2863,0.0],[132.6194,-11.2848,2.4823],[132.6193,-11.2708,1.5444],[132.6161,-11.244,6.7795],[132.6192,-11.2321,6.2423],[132.6152,-11.2303,2.9483],[132.6128,-11.2242,0.0],[132.6077,-11.2224,4.3921],[132.6043,-11.2188,0.0],[132.6027,-11.2047,0.0],[132.6083,-11.1937,0.6403],[132.6151,-11.1861,12.5289],[132.6255,-11.1878,10.4685],[132.6313,-11.1862,0.0],[132.6245,-11.1773,7.9645],[132.6248,-11.1728,0.0],[132.6224,-11.1734,0.0],[132.6201,-11.1719,0.0],[132.6175,-11.175,0.0],[132.6073,-11.1706,0.0],[132.6004,-11.1703,0.0],[132.6013,-11.1741,0.7928],[132.6002,-11.1767,0.3082],[132.597,-11.1787,0.0],[132.5922,-11.179,0.0],[132.5859,-11.1752,0.0],[132.581,-11.1658,2.1833],[132.5797,-11.1542,1.7101],[132.5868,-11.1404,1.3229],[132.5901,-11.1388,8.7494],[132.5932,-11.1395,12.4759],[132.5968,-11.1437,5.2197],[132.6024,-11.1428,15.5744],[132.6097,-11.1355,4.3679],[132.6104,-11.1325,0.0],[132.6144,-11.1297,0.0],[132.6132,-11.1257,0.0],[132.6064,-11.124,0.0],[132.6023,-11.1178,0.0],[132.6017,-11.111,5.5335],[132.6035,-11.106,0.6563],[132.598,-11.0955,0.0],[132.5975,-11.0741,1.7526],[132.5868,-11.0567,2.3241],[132.5852,-11.0479,9.6013],[132.5855,-11.028,5.7472],[132.5806,-11.0175,6.8096],[132.5792,-11.0073,7.7621],[132.5827,-10.9919,2.0576],[132.5872,-10.9868,0.7373],[132.5796,-10.9866,7.3971],[132.5794,-10.9826,3.397],[132.5802,-10.9854,2.2963],[132.5881,-10.9849,6.376],[132.5893,-10.9893,1.1269],[132.594,-10.9787,5.9015]]],
[[[132.1887,-11.117,0.0132],[132.1893,-11.1199,0.0],[132.191,-11.1168,0.0],[132.1903,-11.1153,0.0],[132.1887,-11.117,0.0132]]],
[[[132.2879,-11.1031,1.6151],[132.2887,-11.1048,0.0],[132.2902,-11.1011,0.0],[132.2883,-11.102,0.0],[132.2879,-11.1031,1.6151]]]]}
,"properties": {"GID_2": "AUS.6.17_1","GID_0": "AUS","country": "Australia","GID_1": "AUS.6_1","state": "NorthernTerritory","NL_NAME_1": "NA","county": "WestArnhem","VARNAME_2": "NA","NL_NAME_2": "NA","TYPE_2": "Shire","ENGTYPE_2": "Shire","CC_2": "74660","HASC_2": "NA","name": "WestArnhem.county","area_km2": 49875.19,"hist_schema_id": "Elevation0-9000","hist_area_km2": {"-75": 0.39,"0": 8989.65,"25": 12956.92,"50": 7534.12,"75": 3740.13,"100": 2262.4,"125": 1424.92,"150": 1043.12,"175": 990.96,"200": 1156.37,"225": 1421.23,"250": 1738.3,"275": 2004.67,"300": 1899.87,"325": 1335.6,"350": 848.92,"375": 403.77,"400": 113.18,"425": 5.27,"450": 2.19,"475": 1.88,"500": 0.56,"525": 0.48}}}