{"type": "Feature","bbox": [151.078,-33.8743,151.1649,-33.823],"geometry": {"type": "MultiPolygon","coordinates": [[[[151.1421,-33.8704,3.1135],[151.1416,-33.8684,3.5687],[151.1497,-33.8658,1.3203],[151.1454,-33.8649,5.0932],[151.1452,-33.8627,4.4786],[151.1496,-33.8621,6.4003],[151.1536,-33.859,11.0392],[151.1566,-33.8594,15.2379],[151.1568,-33.8574,11.0118],[151.1608,-33.8583,0.0],[151.1649,-33.8552,8.0103],[151.1567,-33.8476,1.0545],[151.1573,-33.8459,1.0197],[151.1532,-33.845,4.3075],[151.1541,-33.8421,0.0],[151.1464,-33.8445,0.0],[151.1444,-33.8435,1.4411],[151.1458,-33.8459,3.9883],[151.1495,-33.847,0.5625],[151.1477,-33.8503,0.5966],[151.1423,-33.8534,3.9092],[151.1404,-33.8523,1.0809],[151.1438,-33.849,1.6212],[151.1422,-33.8459,0.0],[151.1331,-33.8495,0.0],[151.1302,-33.8438,1.4639],[151.1274,-33.844,1.3895],[151.1222,-33.8489,1.0514],[151.1258,-33.8507,2.9217],[151.1284,-33.861,2.1482],[151.1191,-33.8647,4.2258],[151.1159,-33.8609,1.1816],[151.1207,-33.8593,7.3059],[151.1223,-33.857,0.8379],[151.1171,-33.8571,3.1018],[151.1138,-33.854,1.9317],[151.1197,-33.8529,0.0],[151.1188,-33.8509,0.0],[151.1159,-33.8511,0.0],[151.1151,-33.8497,8.1231],[151.1208,-33.8418,1.6413],[151.1166,-33.8413,11.3002],[151.1141,-33.8434,8.5547],[151.1117,-33.8378,0.0],[151.1073,-33.8384,3.1366],[151.1041,-33.8344,0.0],[151.1048,-33.8406,0.0],[151.1028,-33.844,1.5061],[151.1001,-33.8444,0.0],[151.0993,-33.8426,2.1032],[151.1022,-33.8381,6.1702],[151.0988,-33.838,9.4716],[151.0953,-33.8405,5.7343],[151.0936,-33.8398,4.7684],[151.0989,-33.8358,3.9303],[151.0989,-33.8316,4.6225],[151.0967,-33.8308,0.0],[151.0928,-33.8351,7.5008],[151.0899,-33.8332,9.0244],[151.0909,-33.8324,0.0],[151.0896,-33.8303,0.0],[151.0932,-33.8285,0.0],[151.094,-33.8246,4.9333],[151.0873,-33.823,6.9702],[151.0832,-33.8279,1.8349],[151.0838,-33.8346,9.0276],[151.0824,-33.8393,1.0675],[151.0805,-33.8394,0.0],[151.0807,-33.8444,4.8411],[151.078,-33.8465,7.7354],[151.0811,-33.8489,7.2706],[151.0855,-33.8612,5.2931],[151.0881,-33.8651,11.9945],[151.0904,-33.8655,16.0062],[151.0943,-33.8718,16.9163],[151.0957,-33.8671,24.1346],[151.1233,-33.8715,17.6853],[151.1276,-33.8743,8.2505],[151.137,-33.8731,5.1128],[151.1421,-33.8704,3.1135]]]]}
,"properties": {"GID_2": "AUS.5.28_1","GID_0": "AUS","country": "Australia","GID_1": "AUS.5_1","state": "NewSouthWales","NL_NAME_1": "NA","county": "CanadaBay","VARNAME_2": "NA","NL_NAME_2": "NA","TYPE_2": "Area","ENGTYPE_2": "Area","CC_2": "11520","HASC_2": "AU.NS.CC","name": "CanadaBay.county","area_km2": 19.93189,"hist_schema_id": "Elevation0-9000","hist_area_km2": {"0": 8.78635,"25": 11.14554}}}