{"type":"Feature","properties":{"ISO3166-1-Alpha-3":"AUS","country":"Australia","fill":"#F0F","id":"2650","name":"Northern Territory"},
"geometry":{"type": "MultiPolygon","coordinates": [[[[136.69549,-15.73992,9.4524],[136.70769,-15.71966,3.5666],[136.71192,-15.70355,0.8857],[136.70476,-15.69305,0.0],[136.69011,-15.68694,4.2814],[136.67595,-15.67897,11.1105],[136.67042,-15.66318,0.0],[136.65455,-15.67523,0.0],[136.63657,-15.68231,0.0],[136.62184,-15.69256,0.0],[136.61573,-15.71404,0.6579],[136.61964,-15.7326,6.3013],[136.62973,-15.74912,1.6389],[136.64291,-15.76238,8.5105],[136.65675,-15.77117,2.6123],[136.66358,-15.77858,0.0],[136.69549,-15.73992,9.4524]]],
[[[136.80063,-15.64202,0.0],[136.78354,-15.6487,7.1321],[136.74806,-15.64625,0.0],[136.73178,-15.64886,0.0],[136.74293,-15.67588,6.6274],[136.7409,-15.69883,16.1521],[136.73414,-15.7208,0.0],[136.73178,-15.7444,7.4531],[136.74147,-15.74944,15.6673],[136.75245,-15.74578,9.7151],[136.77345,-15.73138,13.8752],[136.78533,-15.72584,23.5526],[136.79078,-15.72226,14.7708],[136.79379,-15.71705,10.4421],[136.7942,-15.71006,7.4107],[136.79176,-15.70599,9.2148],[136.78858,-15.70257,0.0],[136.77858,-15.67978,75.2865],[136.78004,-15.67295,29.789],[136.79379,-15.66937,51.5034],[136.80307,-15.67213,14.0434],[136.81186,-15.68711,4.0653],[136.8213,-15.68987,11.2738],[136.83497,-15.68239,0.0],[136.83025,-15.66823,0.0],[136.81577,-15.65293,0.0],[136.80063,-15.64202,0.0]]],
[[[136.99476,-15.59278,8.4983],[136.99981,-15.61518,0.0],[136.99214,-15.63083,0.0],[136.98158,-15.63426,0.0],[136.98877,-15.66072,9.8027],[136.98316,-15.66432,0.0],[136.97527,-15.65602,0.0],[136.96397,-15.64043,0.0],[136.95151,-15.65569,5.5976],[136.94304,-15.66766,0.0],[136.93832,-15.68288,0.0],[136.93832,-15.69988,4.2529],[136.93472,-15.72132,0.0],[136.9397,-15.7281,0.0],[136.94535,-15.72875,8.2834],[136.94818,-15.72942,3.5566],[136.95151,-15.71087,6.4187],[136.95777,-15.71087,0.0],[136.96412,-15.71258,30.8396],[136.97332,-15.71111,3.5997],[136.98162,-15.71201,1.5563],[136.98512,-15.72064,2.1066],[136.98414,-15.74261,13.2216],[136.98585,-15.75026,5.271],[137.00034,-15.78704,7.7641],[137.0075,-15.79119,21.7351],[137.0232,-15.79225,4.1438],[137.03338,-15.79656,0.6951],[137.03858,-15.80641,0.0],[137.04217,-15.8178,0.0],[137.04391,-15.8342,11.6892],[137.07289,-15.84696,0.0],[137.0904,-15.82178,0.0],[137.10018,-15.80342,2.4214],[137.10638,-15.77422,3.0244],[137.09441,-15.76605,0.0],[137.08728,-15.76278,0.0],[137.07951,-15.75874,0.6745],[137.07789,-15.75123,1.353],[137.08224,-15.74177,0.0],[137.08147,-15.72618,4.6361],[137.08197,-15.68682,0.0],[137.08319,-15.6522,0.3372],[137.06695,-15.64683,0.0],[137.06545,-15.62851,0.7502],[137.0577,-15.62922,1.2608],[137.04718,-15.63877,0.0],[137.02738,-15.62798,6.6368],[137.02369,-15.60263,0.0],[137.01596,-15.59336,13.6101],[137.00473,-15.59368,7.2527],[136.99476,-15.59278,8.4983]]],
[[[136.67107,-15.59498,0.0],[136.67172,-15.59222,0.3718],[136.66326,-15.59539,4.4439],[136.65496,-15.59368,1.2316],[136.64894,-15.59954,0.0],[136.64999,-15.60703,0.0],[136.65431,-15.60744,0.2581],[136.66163,-15.6124,0.0],[136.6683,-15.60931,1.0192],[136.67433,-15.6124,0.0],[136.67856,-15.6124,0.0],[136.68108,-15.60695,0.0],[136.68059,-15.60434,0.0],[136.67628,-15.60052,0.0],[136.67286,-15.59881,0.0],[136.67107,-15.59498,0.0]]],
[[[136.83817,-15.56845,4.5029],[136.83477,-15.55619,2.8319],[136.82336,-15.55752,0.0],[136.80254,-15.55888,0.0],[136.78779,-15.56215,1.3235],[136.77574,-15.57705,0.7927],[136.7818,-15.58092,10.9581],[136.79252,-15.57442,3.9383],[136.80327,-15.57827,9.6283],[136.80934,-15.58212,2.7758],[136.81941,-15.5795,3.6719],[136.8315,-15.58205,12.8898],[136.83686,-15.57944,13.0951],[136.83817,-15.56845,4.5029]]],
[[[136.60035,-15.61159,0.6432],[136.60231,-15.56365,2.2276],[136.61573,-15.539,0.0],[136.60279,-15.51637,0.0],[136.58522,-15.51637,7.3808],[136.56511,-15.52606,0.0],[136.54347,-15.53216,0.0],[136.52491,-15.53427,1.8914],[136.52272,-15.53973,3.252],[136.52662,-15.54844,13.6612],[136.52638,-15.5595,5.8433],[136.52149,-15.5678,0.0],[136.51564,-15.57431,0.0],[136.49855,-15.5875,0.0],[136.50717,-15.59629,3.7394],[136.51222,-15.60906,1.455],[136.51026,-15.62119,0.0],[136.49855,-15.6277,0.0],[136.50929,-15.63681,8.0398],[136.51417,-15.63974,17.1394],[136.51954,-15.64202,26.1443],[136.53492,-15.63893,31.461],[136.54103,-15.63519,16.9765],[136.54689,-15.6277,6.6165],[136.55836,-15.63388,10.5066],[136.57667,-15.63112,28.8934],[136.5879,-15.63519,13.0959],[136.60035,-15.61159,0.6432]]],
[[[136.86134,-15.62607,8.1526],[136.86671,-15.62396,25.8124],[136.87525,-15.62151,22.446],[136.87037,-15.60768,0.0],[136.87387,-15.59743,9.518],[136.88315,-15.59092,34.9419],[136.89568,-15.5875,16.459],[136.8777,-15.54412,13.4156],[136.87469,-15.52215,6.5565],[136.88331,-15.49814,0.0],[136.86988,-15.50742,0.0],[136.85743,-15.5202,1.6548],[136.84742,-15.53582,0.0],[136.84164,-15.55332,0.0],[136.8436,-15.55657,24.7733],[136.85353,-15.56536,5.058],[136.85597,-15.57,8.8842],[136.85483,-15.57545,0.0],[136.84986,-15.58359,0.0],[136.84848,-15.5875,1.6552],[136.84539,-15.59173,12.4325],[136.8401,-15.5949,13.6306],[136.83725,-15.5993,24.2293],[136.84164,-15.60801,0.0],[136.84816,-15.61712,27.1588],[136.84791,-15.61989,8.18],[136.84164,-15.62151,0.0],[136.84425,-15.62526,0.0],[136.84645,-15.62762,0.0],[136.84791,-15.63047,1.5436],[136.84848,-15.63519,8.8519],[136.86134,-15.62607,8.1526]]],
[[[135.76451,-14.89006,30.7196],[135.76675,-14.86821,8.689],[135.76063,-14.84989,0.7642],[135.74922,-14.83847,1.5751],[135.72783,-14.83453,0.0],[135.72009,-14.84103,0.1572],[135.7152,-14.85087,0.0],[135.70806,-14.85304,1.6296],[135.71051,-14.85875,0.0],[135.71948,-14.86013,0.4413],[135.7207,-14.86702,1.4751],[135.71519,-14.88002,0.0],[135.70395,-14.88787,0.6322],[135.69847,-14.89519,2.2093],[135.68725,-14.90289,0.0],[135.69255,-14.90879,0.0],[135.7052,-14.91311,0.0],[135.72701,-14.8956,0.0],[135.74658,-14.89736,2.5747],[135.76268,-14.9009,4.1688],[135.76451,-14.89006,30.7196]]],
[[[129.63364,-14.8707,1.8125],[129.63494,-14.85931,0.0],[129.6325,-14.84694,1.8649],[129.62599,-14.83506,4.0818],[129.61647,-14.82488,1.394],[129.60646,-14.81707,0.0],[129.58904,-14.80657,0.6518],[129.58302,-14.80381,3.7803],[129.58131,-14.80877,4.2304],[129.58522,-14.82643,4.1115],[129.5901,-14.83636,3.8339],[129.60646,-14.8576,3.8661],[129.61183,-14.86736,0.0],[129.62664,-14.87526,3.9468],[129.63364,-14.8707,1.8125]]],
[[[129.73162,-14.80828,0.0],[129.72844,-14.80275,2.9779],[129.70631,-14.79217,4.4616],[129.68051,-14.7872,4.4282],[129.6718,-14.78777,3.9908],[129.67986,-14.79713,0.0],[129.69907,-14.81137,0.0],[129.71795,-14.81585,0.0],[129.73162,-14.80828,0.0]]],
[[[129.59099,-14.90936,4.069],[129.58709,-14.88348,3.871],[129.57781,-14.86053,0.0],[129.53346,-14.79852,0.0],[129.52394,-14.7942,0.0],[129.51547,-14.7872,0.0],[129.50815,-14.78574,0.0],[129.50196,-14.79852,6.8248],[129.50465,-14.80291,7.8953],[129.51979,-14.83636,0.0],[129.53484,-14.85817,0.0],[129.55779,-14.90781,0.0],[129.57154,-14.92889,0.0],[129.57895,-14.9345,0.8105],[129.58481,-14.94248,3.1021],[129.58912,-14.95233,4.0927],[129.59148,-14.96364,0.8131],[129.59099,-14.90936,4.069]]],
[[[136.36136,-13.84645,0.0],[136.37048,-13.83267,4.2055],[136.37047,-13.81202,0.0],[136.35527,-13.81007,0.9791],[136.33702,-13.82878,0.0],[136.33296,-13.83862,0.0],[136.34209,-13.84648,0.0],[136.36136,-13.84645,0.0]]],
[[[136.80909,-13.81341,0.0],[136.8117,-13.80885,0.0],[136.81813,-13.80136,3.6809],[136.81398,-13.80446,0.0],[136.81031,-13.80828,0.0],[136.80812,-13.81292,0.0],[136.80747,-13.81854,0.3114],[136.80909,-13.81341,0.0]]],
[[[136.51572,-13.78094,6.0645],[136.52654,-13.77134,1.7769],[136.53069,-13.7632,1.5472],[136.5267,-13.74749,11.6515],[136.53729,-13.73784,8.3139],[136.53006,-13.71335,0.9682],[136.51791,-13.70013,0.0],[136.51352,-13.69638,0.0],[136.5075,-13.69525,0.0],[136.50375,-13.69663,0.0],[136.50506,-13.70241,0.0],[136.50221,-13.71038,0.0],[136.48927,-13.71339,0.0],[136.47513,-13.71693,0.0],[136.46794,-13.72831,0.0],[136.46616,-13.7423,0.0],[136.50245,-13.78257,4.3322],[136.50774,-13.78476,5.2423],[136.51572,-13.78094,6.0645]]],
[[[136.28004,-13.7365,11.1721],[136.28858,-13.72861,28.4055],[136.29005,-13.72454,26.7087],[136.28826,-13.71885,22.732],[136.28688,-13.70582,0.0],[136.2815,-13.70176,0.0],[136.26979,-13.6972,0.5401],[136.25799,-13.69004,0.0],[136.2527,-13.67848,8.551],[136.24708,-13.67205,0.0],[136.23422,-13.66644,2.1063],[136.22023,-13.66253,1.1366],[136.21111,-13.66139,0.0],[136.19532,-13.66961,1.7587],[136.18238,-13.68646,0.0],[136.17335,-13.70713,0.2038],[136.17018,-13.72666,0.0],[136.16489,-13.74236,0.0],[136.15162,-13.7409,0.0],[136.11476,-13.72357,0.0],[136.11671,-13.81666,9.3811],[136.12306,-13.82488,15.1817],[136.1565,-13.83953,0.0],[136.1565,-13.82122,4.2627],[136.15113,-13.79404,12.6972],[136.15349,-13.77068,11.1419],[136.17701,-13.76385,8.7811],[136.18629,-13.77313,0.0],[136.20232,-13.81292,0.0],[136.21111,-13.82594,0.0],[136.2068,-13.83074,0.0],[136.20558,-13.83538,0.2413],[136.20558,-13.84026,9.3835],[136.20484,-13.84637,19.5382],[136.19744,-13.8532,0.0],[136.20851,-13.85589,13.4246],[136.22267,-13.8532,0.0],[136.23609,-13.84726,7.0971],[136.24513,-13.83953,0.0],[136.25115,-13.82366,17.8685],[136.25416,-13.80608,27.4776],[136.2614,-13.79355,0.0],[136.28004,-13.79176,0.5367],[136.27223,-13.7789,29.3884],[136.26759,-13.76653,54.5666],[136.26043,-13.75807,0.0],[136.24513,-13.75758,7.773],[136.24952,-13.74228,14.1535],[136.25799,-13.73943,17.479],[136.26873,-13.74049,0.0],[136.28004,-13.7365,11.1721]]],
[[[136.72413,-13.68719,20.1938],[136.72535,-13.66432,19.2956],[136.71827,-13.64772,0.0],[136.70655,-13.65594,0.0],[136.68181,-13.6574,0.0],[136.67709,-13.66481,18.468],[136.67449,-13.6749,7.708],[136.65675,-13.70241,0.2065],[136.64422,-13.69647,0.0],[136.63787,-13.6998,0.0],[136.63404,-13.70599,0.0],[136.62941,-13.70924,0.0],[136.62965,-13.71136,0.0],[136.62615,-13.7151,0.0],[136.62094,-13.71771,1.6245],[136.61573,-13.716,15.8621],[136.61492,-13.71185,16.9641],[136.61671,-13.6998,8.473],[136.61573,-13.69549,26.9372],[136.61647,-13.6928,13.8394],[136.61842,-13.68873,8.0673],[136.61557,-13.68475,10.1664],[136.60206,-13.6819,0.0],[136.5901,-13.68108,0.0],[136.58009,-13.6819,0.0],[136.57228,-13.68621,0.0],[136.56723,-13.69549,0.0],[136.5783,-13.69793,0.0],[136.58253,-13.70436,0.0],[136.58074,-13.71347,0.0],[136.57407,-13.72357,9.1064],[136.59352,-13.7247,11.1383],[136.60076,-13.73691,0.0],[136.60304,-13.75433,0.0],[136.60841,-13.77125,0.0],[136.61573,-13.76385,0.0],[136.62859,-13.7763,0.2582],[136.62273,-13.78777,0.0],[136.60808,-13.79225,11.915],[136.59474,-13.78436,0.0],[136.59474,-13.81227,17.5487],[136.57911,-13.80291,0.4686],[136.57407,-13.79803,1.5034],[136.56105,-13.81976,8.0363],[136.54811,-13.81072,0.0],[136.53614,-13.7903,13.6128],[136.53015,-13.78596,0.2319],[136.51954,-13.80446,0.0],[136.52567,-13.81832,0.618],[136.51217,-13.83408,6.7129],[136.49776,-13.8341,0.0],[136.47218,-13.83343,3.0954],[136.4642,-13.83953,0.849],[136.43995,-13.81683,0.0],[136.42457,-13.81032,0.0],[136.40968,-13.81854,0.0],[136.40724,-13.8327,0.0],[136.41505,-13.84889,6.9161],[136.42506,-13.86452,0.0],[136.43019,-13.87713,0.0],[136.42628,-13.90846,0.0],[136.41098,-13.96494,1.5836],[136.40968,-13.99725,0.0],[136.41554,-14.05731,0.0],[136.42237,-14.08856,0.0],[136.4336,-14.10996,0.0],[136.43735,-14.12038,0.0],[136.43084,-14.12957,0.0],[136.4214,-14.13934,0.0],[136.41131,-14.16579,0.0],[136.39829,-14.17604,0.0],[136.36817,-14.18906,0.0],[136.35816,-14.19655,3.9862],[136.33522,-14.20875,1.8481],[136.32781,-14.2164,2.6074],[136.32407,-14.22959,0.0],[136.32984,-14.23309,12.171],[136.3379,-14.23154,10.5884],[136.34132,-14.23008,7.0014],[136.35719,-14.22552,0.0],[136.38071,-14.2068,16.5161],[136.41603,-14.19638,6.5237],[136.42677,-14.19525,5.2731],[136.43775,-14.19842,0.0],[136.45533,-14.21307,1.9946],[136.46079,-14.2164,4.0577],[136.63941,-14.28021,24.5168],[136.68051,-14.28525,1.6019],[136.72193,-14.261,24.1338],[136.73308,-14.25612,22.7719],[136.74562,-14.25807,19.4458],[136.76287,-14.26483,0.0],[136.80494,-14.26784,10.0917],[136.82447,-14.2741,16.734],[136.83546,-14.28525,31.5515],[136.85157,-14.27557,12.5186],[136.86785,-14.27988,29.0792],[136.90309,-14.29892,0.0],[136.90577,-14.28525,6.9703],[136.91358,-14.27996,13.6777],[136.92457,-14.2824,15.2331],[136.93727,-14.29144,0.0],[136.93198,-14.2833,7.7947],[136.93295,-14.27654,25.7324],[136.93946,-14.27386,30.8791],[136.95151,-14.27776,0.0],[136.94215,-14.26775,15.9537],[136.938,-14.254,8.8666],[136.94125,-14.24196,11.0287],[136.9546,-14.23675,0.0],[136.95883,-14.23268,0.0],[136.9546,-14.22389,0.0],[136.94776,-14.21551,0.0],[136.9441,-14.21299,0.0],[136.94288,-14.20721,0.0],[136.93775,-14.19622,0.0],[136.93727,-14.18906,14.8759],[136.93963,-14.18239,13.7825],[136.94313,-14.18239,14.9542],[136.94752,-14.18385,19.3479],[136.95151,-14.18157,14.1411],[136.96192,-14.16497,0.0],[136.96957,-14.15521,0.0],[136.97885,-14.14739,0.0],[136.96412,-14.15,0.0],[136.9489,-14.15447,0.0],[136.93491,-14.15521,0.0],[136.92433,-14.14739,11.1476],[136.91676,-14.14739,3.3337],[136.91358,-14.16383,0.0],[136.90838,-14.17693,0.0],[136.90122,-14.18808,2.4566],[136.89259,-14.19891,0.0],[136.88071,-14.20859,0.0],[136.87184,-14.20794,0.0],[136.81056,-14.15911,0.0],[136.78924,-14.14951,0.0],[136.78028,-14.16481,0.0],[136.78224,-14.1806,12.6629],[136.78419,-14.18621,2.1199],[136.78061,-14.18719,0.0],[136.75213,-14.1902,15.3146],[136.73634,-14.18914,4.0362],[136.7234,-14.18548,0.0],[136.71827,-14.1784,0.0],[136.71608,-14.16595,0.0],[136.7046,-14.12689,0.0],[136.70924,-14.0993,9.503],[136.70981,-14.08506,30.8824],[136.7046,-14.07293,78.0954],[136.71681,-14.06365,24.6049],[136.7295,-14.0617,48.8211],[136.74155,-14.06699,27.6898],[136.75229,-14.0792,2.5594],[136.74969,-14.06373,0.3523],[136.75441,-14.05096,24.7588],[136.7649,-14.04551,0.0],[136.78028,-14.05185,10.2559],[136.78297,-14.04306,0.5337],[136.78785,-14.0368,9.5356],[136.79493,-14.03314,24.4847],[136.80405,-14.03191,8.9315],[136.8108,-14.02939,0.0],[136.80567,-14.0237,11.8687],[136.79721,-14.01873,0.2225],[136.79379,-14.01775,0.0],[136.78159,-14.00937,0.0],[136.77076,-14.00498,0.0],[136.76303,-13.99684,0.0],[136.75978,-13.97731,16.7555],[136.76832,-13.94459,16.5302],[136.79135,-13.91774,1.7714],[136.82276,-13.90521,17.3575],[136.85597,-13.91522,0.0],[136.87525,-13.86004,2.6374],[136.88575,-13.8458,0.0],[136.9157,-13.81732,0.0],[136.92433,-13.80535,8.7793],[136.92335,-13.79315,0.0],[136.91684,-13.77793,0.0],[136.90886,-13.76434,0.0],[136.90309,-13.75758,0.0],[136.88673,-13.75359,0.0],[136.85621,-13.75742,43.5278],[136.84164,-13.75018,7.5932],[136.82716,-13.79119,0.0],[136.82496,-13.79437,0.0],[136.81918,-13.80023,3.0369],[136.82602,-13.79795,2.6865],[136.83367,-13.79762,5.3424],[136.83937,-13.80104,28.5672],[136.84164,-13.80877,0.0],[136.83806,-13.82586,0.0],[136.82838,-13.84002,0.0],[136.81422,-13.8497,0.0],[136.79721,-13.8532,2.0683],[136.74497,-13.84417,32.5871],[136.73178,-13.83953,0.0],[136.71852,-13.82903,11.5599],[136.71485,-13.81862,17.6881],[136.71266,-13.80682,19.9611],[136.7046,-13.79176,10.5778],[136.71892,-13.77068,0.0],[136.7256,-13.76385,0.0],[136.71485,-13.76312,0.0],[136.70338,-13.7636,0.0],[136.69174,-13.76165,0.0],[136.68051,-13.754,19.427],[136.67652,-13.74375,8.3364],[136.67807,-13.73113,25.6758],[136.68434,-13.72047,23.7236],[136.71412,-13.70729,29.0056],[136.72413,-13.68719,20.1938]]],
[[[136.95582,-13.62851,32.0593],[136.95493,-13.62168,0.0],[136.94565,-13.62632,0.0],[136.93906,-13.63405,2.434],[136.93653,-13.63234,0.0],[136.93206,-13.63356,0.0],[136.92522,-13.63543,0.0],[136.92335,-13.64723,0.0],[136.93759,-13.64398,6.866],[136.94467,-13.64162,8.6504],[136.95208,-13.6373,22.159],[136.95582,-13.62851,32.0593]]],
[[[136.10965,-13.46621,2.8876],[136.10578,-13.4591,0.0],[136.09632,-13.45408,0.0],[136.08686,-13.45283,0.0],[136.08256,-13.44405,3.8188],[136.07784,-13.45074,31.4744],[136.07956,-13.45868,0.0],[136.07698,-13.46244,2.7559],[136.07397,-13.46788,0.0],[136.07225,-13.4754,0.0],[136.07999,-13.47707,0.0],[136.08945,-13.47164,16.4173],[136.09933,-13.47164,0.0],[136.10707,-13.47457,0.0],[136.10965,-13.46621,2.8876]]],
[[[136.19776,-13.45485,5.857],[136.18898,-13.45176,11.0609],[136.18434,-13.44573,4.7586],[136.181,-13.43906,0.0],[136.16334,-13.41155,0.0],[136.14841,-13.3899,10.7966],[136.13402,-13.38639,7.3658],[136.11785,-13.36224,3.1941],[136.09498,-13.36045,8.8989],[136.11899,-13.3742,0.0],[136.12234,-13.39339,0.0],[136.13543,-13.40797,3.1161],[136.13592,-13.43483,6.3864],[136.12411,-13.47208,7.7481],[136.13233,-13.49529,8.5171],[136.14028,-13.50271,0.0],[136.14657,-13.51321,0.0],[136.13307,-13.53069,0.0],[136.13037,-13.54732,0.0],[136.14296,-13.56045,2.483],[136.14926,-13.53507,0.0],[136.16334,-13.51279,19.9141],[136.15642,-13.48935,0.0],[136.15455,-13.47291,7.4814],[136.17018,-13.4765,0.0],[136.17018,-13.45599,6.2544],[136.19744,-13.4765,0.0],[136.20314,-13.4612,6.5707],[136.19776,-13.45485,5.857]]],
[[[130.02325,-13.13445,2.3813],[130.02523,-13.11471,0.0],[130.01812,-13.10979,0.0],[130.01314,-13.14335,0.0],[130.01626,-13.17985,0.0],[130.03248,-13.17981,5.3986],[130.04566,-13.18472,0.0],[130.06086,-13.18172,0.0],[130.07807,-13.17576,0.0],[130.0689,-13.15703,0.0],[130.04861,-13.14721,0.0],[130.02836,-13.15121,0.0],[130.02325,-13.13445,2.3813]]],
[[[130.3908,-12.63828,3.8067],[130.39332,-12.636,4.4914],[130.39177,-12.63258,5.9301],[130.39161,-12.62811,6.7417],[130.38885,-12.62274,6.8483],[130.38567,-12.61972,7.7255],[130.37778,-12.61883,5.9605],[130.37119,-12.62029,0.0],[130.36297,-12.62949,0.0],[130.36557,-12.6369,0.0],[130.36842,-12.63909,0.0],[130.36834,-12.64105,0.0],[130.37233,-12.64536,0.0],[130.37843,-12.64503,0.0],[130.37924,-12.64634,0.0],[130.3908,-12.63828,3.8067]]],
[[[130.42319,-12.58986,0.0],[130.42449,-12.58628,4.6288],[130.42872,-12.58587,0.0],[130.43092,-12.57838,11.3171],[130.42563,-12.56789,7.6861],[130.40439,-12.57147,0.0],[130.40447,-12.58261,1.2321],[130.41228,-12.59393,7.3349],[130.42319,-12.58986,0.0]]],
[[[136.11915,-12.17018,17.2456],[136.11524,-12.17816,7.1081],[136.10996,-12.17783,0.0],[136.10922,-12.18043,0.838],[136.10654,-12.18271,5.7007],[136.10548,-12.1928,6.6421],[136.10996,-12.20086,0.0],[136.13478,-12.19777,0.0],[136.1561,-12.19126,0.0],[136.15203,-12.18784,3.938],[136.15105,-12.18141,0.7338],[136.14861,-12.17287,0.7021],[136.14226,-12.17287,1.6392],[136.13526,-12.17246,4.4246],[136.12794,-12.17653,2.2415],[136.11915,-12.17018,17.2456]]],
[[[131.04339,-12.12021,3.9912],[131.04094,-12.10687,4.7074],[131.02158,-12.10605,0.0],[131.00847,-12.12135,0.0],[131.03533,-12.13112,0.0],[131.04339,-12.12021,3.9912]]],
[[[136.82936,-12.13226,0.0],[136.82146,-12.12083,0.0],[136.82424,-12.10403,0.0],[136.822,-12.08445,4.6147],[136.81696,-12.07608,1.0102],[136.79911,-12.08456,0.0],[136.79707,-12.10835,2.2811],[136.80747,-12.12656,2.5649],[136.813,-12.13616,4.6859],[136.82097,-12.13795,0.0],[136.82936,-12.13226,0.0]]],
[[[132.40577,-12.13299,13.9854],[132.41578,-12.11028,6.2427],[132.41188,-12.08367,0.0],[132.38754,-12.07187,0.0],[132.37403,-12.07342,0.0],[132.35776,-12.07781,0.0],[132.34457,-12.08587,8.5985],[132.33985,-12.09857,0.0],[132.38754,-12.1334,6.2069],[132.40577,-12.13299,13.9854]]],
[[[131.12184,-12.07122,4.4774],[131.12371,-12.05918,9.6171],[131.11443,-12.05706,7.0484],[131.1006,-12.05552,8.6629],[131.08611,-12.05706,0.4469],[131.08286,-12.0608,3.5248],[131.07854,-12.06227,6.5352],[131.07244,-12.06406,3.0212],[131.06634,-12.06528,0.5554],[131.0586,-12.06927,0.0],[131.05869,-12.07155,0.0],[131.07008,-12.07505,0.0],[131.08383,-12.07814,0.0],[131.09807,-12.07936,0.0],[131.12184,-12.07122,4.4774]]],
[[[134.92482,-12.1067,1.5601],[134.93287,-12.08733,0.0],[134.92628,-12.06813,0.0],[134.91822,-12.06316,0.0],[134.90724,-12.05983,0.0],[134.88526,-12.05755,0.0],[134.88022,-12.05495,0.0],[134.85426,-12.03777,8.2118],[134.8672,-12.07676,3.8218],[134.8781,-12.10027,9.6682],[134.88836,-12.11224,13.0756],[134.90797,-12.11785,10.0029],[134.92482,-12.1067,1.5601]]],
[[[131.06048,-12.03696,3.5275],[131.04689,-12.03338,5.6168],[131.02947,-12.03509,3.3874],[131.01254,-12.04209,6.2493],[130.99977,-12.05429,0.0],[131.03224,-12.06203,0.0],[131.06048,-12.03696,3.5275]]],
[[[134.98599,-12.04145,2.3756],[134.98448,-12.03616,1.4197],[134.96526,-12.02646,5.9654],[134.95625,-12.01647,3.2762],[134.90847,-12.02262,0.0],[134.90937,-12.03585,0.0],[134.92079,-12.04026,0.0],[134.93521,-12.05026,0.0],[134.94873,-12.05467,2.7569],[134.98599,-12.04145,2.3756]]],
[[[136.30274,-12.01328,13.2499],[136.31625,-11.9874,0.0],[136.29021,-11.97568,0.0],[136.27947,-11.98309,7.0303],[136.25978,-12.01605,12.6907],[136.24204,-12.02353,3.1461],[136.23325,-12.02459,27.4835],[136.21746,-12.02923,0.0],[136.20802,-12.03037,0.9002],[136.20387,-12.02581,0.0],[136.20493,-12.0158,0.0],[136.20834,-12.00612,0.0],[136.21111,-12.00237,0.0],[136.20004,-11.99993,0.0],[136.1906,-12.00628,4.1724],[136.17359,-12.02695,9.8378],[136.16188,-12.03476,0.0],[136.15366,-12.03191,0.0],[136.14438,-12.0241,0.0],[136.12916,-12.0167,0.0],[136.13282,-12.02728,0.0],[136.13494,-12.03777,23.5921],[136.13404,-12.04795,0.0],[136.12916,-12.05755,12.6392],[136.13551,-12.06732,21.0961],[136.15105,-12.07448,0.0],[136.16944,-12.07838,0.0],[136.18434,-12.07806,0.0],[136.19874,-12.07138,40.0292],[136.20802,-12.06219,0.0],[136.21827,-12.05413,60.8009],[136.23561,-12.05071,0.0],[136.2693,-12.039,0.0],[136.30274,-12.01328,13.2499]]],
[[[135.08485,-11.94609,0.0],[135.10748,-11.9421,-0.2793],[135.12196,-11.9297,0.0],[135.11085,-11.92496,1.387],[135.08447,-11.92004,1.1231],[135.05389,-11.91944,1.8493],[135.04607,-11.9415,0.0],[135.0577,-11.95319,0.7927],[135.08485,-11.94609,0.0]]],
[[[135.9616,-11.88405,10.2187],[135.96404,-11.88185,0.0],[135.96795,-11.88079,5.2473],[135.97242,-11.87322,5.4057],[135.98675,-11.85589,2.3097],[135.98325,-11.85019,12.8862],[135.97698,-11.85508,0.0],[135.96949,-11.8624,0.0],[135.95419,-11.87265,9.2694],[135.94768,-11.87892,8.0809],[135.94117,-11.88454,0.0],[135.94752,-11.8943,0.7305],[135.9463,-11.89764,2.628],[135.94581,-11.90293,0.0],[135.94581,-11.9061,0.0],[135.94752,-11.90691,0.0],[135.9616,-11.88405,10.2187]]],
[[[136.67221,-11.83595,20.5704],[136.68051,-11.82431,5.9837],[136.6574,-11.83481,7.0154],[136.64877,-11.83652,1.1548],[136.64145,-11.8401,0.0],[136.64129,-11.84336,0.0],[136.67221,-11.83595,20.5704]]],
[[[136.47267,-11.90545,0.0],[136.47804,-11.89983,1.8462],[136.48325,-11.88942,0.6336],[136.48178,-11.88242,61.9382],[136.47836,-11.87558,49.4461],[136.47804,-11.86582,31.5171],[136.49692,-11.8165,0.0499],[136.49855,-11.79811,4.3193],[136.47779,-11.81422,0.0],[136.47185,-11.83961,16.6449],[136.47055,-11.86826,53.6552],[136.4642,-11.89373,2.6522],[136.46648,-11.90276,25.7844],[136.46909,-11.90651,0.0],[136.47267,-11.90545,0.0]]],
[[[136.08928,-11.75986,13.6419],[136.09148,-11.7549,9.8714],[136.09612,-11.75368,0.0],[136.10198,-11.74855,18.3431],[136.09278,-11.74717,0.0],[136.08399,-11.74871,4.5854],[136.07781,-11.75579,0.0],[136.07936,-11.75986,0.0],[136.07545,-11.76548,0.0],[136.07748,-11.77549,0.0],[136.08928,-11.75986,13.6419]]],
[[[136.59571,-11.77418,0.0],[136.61573,-11.75652,0.0],[136.62233,-11.74521,15.5501],[136.62371,-11.73659,0.0],[136.6185,-11.73545,0.0],[136.60524,-11.74603,0.0],[136.58424,-11.76434,0.0],[136.57016,-11.77321,4.4859],[136.55714,-11.77703,11.0078],[136.53712,-11.77313,21.522],[136.52898,-11.77654,0.0],[136.51954,-11.7907,20.1523],[136.52801,-11.79852,44.9736],[136.56129,-11.79363,0.0],[136.58155,-11.79811,0.0],[136.5866,-11.78436,45.6527],[136.59571,-11.77418,0.0]]],
[[[135.15447,-11.6867,-1.7171],[135.14641,-11.69044,0.0],[135.14641,-11.70013,0.0],[135.15016,-11.70566,0.0],[135.15187,-11.71103,0.0],[135.15821,-11.71315,0.0],[135.16432,-11.6959,0.0],[135.15854,-11.69638,-0.1789],[135.15447,-11.6867,-1.7171]]],
[[[136.83098,-11.65773,4.92],[136.82569,-11.66025,5.1178],[136.82293,-11.66009,2.7321],[136.8165,-11.66863,4.1196],[136.81536,-11.67653,0.0],[136.8226,-11.67889,0.0],[136.8296,-11.67254,0.0],[136.83375,-11.67221,0.0],[136.83595,-11.66774,7.3129],[136.83098,-11.65773,4.92]]],
[[[136.00605,-11.70868,0.0],[136.02156,-11.68746,18.105],[136.05521,-11.65005,0.3565],[136.02405,-11.64087,7.0291],[135.98087,-11.66137,9.6512],[135.95153,-11.68349,1.3384],[135.95591,-11.70716,0.0],[135.98618,-11.71637,0.0],[136.00605,-11.70868,0.0]]],
[[[132.57936,-11.64666,0.0],[132.56804,-11.64186,0.0],[132.5569,-11.63567,0.0],[132.54518,-11.63161,0.0],[132.53102,-11.63299,0.0],[132.5088,-11.64959,8.8553],[132.51197,-11.67059,14.7262],[132.52817,-11.69166,7.8524],[132.54469,-11.70875,16.9472],[132.55885,-11.71917,5.4759],[132.58383,-11.72015,2.0706],[132.61004,-11.71551,16.8422],[132.62721,-11.70875,1.9888],[132.6338,-11.70192,4.9568],[132.64064,-11.69118,6.9606],[132.64584,-11.67889,0.0],[132.64772,-11.66717,0.0],[132.64552,-11.65016,0.0],[132.64112,-11.64471,3.4404],[132.6198,-11.64666,0.0],[132.59197,-11.64861,0.0],[132.57936,-11.64666,0.0]]],
[[[133.39877,-11.66237,9.8931],[133.4087,-11.6535,0.0],[133.4065,-11.64381,0.0],[133.39845,-11.63258,6.8189],[133.39617,-11.62322,9.5706],[133.41179,-11.6194,1.358],[133.45167,-11.61639,4.7279],[133.47438,-11.6111,0.597],[133.48439,-11.60198,0.0],[133.47543,-11.58717,0.0],[133.45427,-11.58367,0.0],[133.42905,-11.58668,1.1827],[133.4087,-11.59205,12.8313],[133.38087,-11.60963,0.0],[133.37086,-11.61248,0.0],[133.35955,-11.61736,0.0],[133.35841,-11.62884,8.5717],[133.36704,-11.6535,17.7805],[133.3602,-11.66033,2.0956],[133.37208,-11.6653,9.4086],[133.38575,-11.66619,15.2376],[133.39877,-11.66237,9.8931]]],
[[[132.13396,-11.62689,3.0051],[132.1421,-11.61802,2.7674],[132.13966,-11.59995,1.3571],[132.1312,-11.57741,6.8484],[132.122,-11.56919,5.4641],[132.11321,-11.57537,0.0],[132.1128,-11.58205,0.0],[132.11524,-11.59043,0.0],[132.11459,-11.59995,0.0],[132.10971,-11.6102,0.0],[132.10873,-11.6216,0.0],[132.12029,-11.62819,0.0],[132.13396,-11.62689,3.0051]]],
[[[132.3165,-11.5958,6.8225],[132.32154,-11.58579,12.9938],[132.30779,-11.56862,8.8897],[132.29778,-11.57106,0.0],[132.29607,-11.57676,0.0],[132.29298,-11.58522,0.0],[132.30095,-11.59612,-0.2764],[132.31031,-11.60166,0.0],[132.3165,-11.5958,6.8225]]],
[[[136.11866,-11.55698,13.8189],[136.11769,-11.54363,0.0],[136.11305,-11.54437,-0.3688],[136.1076,-11.55242,0.0],[136.10996,-11.56862,0.0],[136.11866,-11.55698,13.8189]]],
[[[136.45737,-11.52386,0.0],[136.47486,-11.50595,0.0],[136.48341,-11.48447,0.0],[136.47804,-11.46111,0.0],[136.46852,-11.47601,16.9906],[136.45314,-11.48935,16.5026],[136.42335,-11.50954,13.2807],[136.39381,-11.52483,7.0819],[136.37965,-11.53607,0.0],[136.37566,-11.55047,7.825],[136.3711,-11.54762,15.6581],[136.36817,-11.5442,15.034],[136.33253,-11.58709,9.2321],[136.32781,-11.59547,32.3784],[136.31951,-11.60296,2.935],[136.30201,-11.59108,24.1176],[136.28631,-11.57366,0.0],[136.28346,-11.56471,0.0],[136.26686,-11.57293,1.0709],[136.25367,-11.59189,12.9063],[136.24269,-11.61248,0.0],[136.23219,-11.62615,7.1599],[136.2116,-11.63616,0.0],[136.1985,-11.63958,0.0],[136.1902,-11.64642,1.2246],[136.18287,-11.67311,25.8094],[136.18295,-11.67816,30.7628],[136.18198,-11.68279,27.2154],[136.17701,-11.68825,22.7119],[136.19565,-11.68043,0.0],[136.23048,-11.65211,13.2164],[136.23219,-11.66033,14.11],[136.25856,-11.65211,52.2019],[136.27329,-11.63909,0.0],[136.28468,-11.62477,0.0],[136.29762,-11.61639,26.445],[136.30006,-11.62086,27.021],[136.30535,-11.62469,43.0222],[136.31031,-11.62615,26.0193],[136.31617,-11.62412,0.0],[136.32521,-11.61468,28.8198],[136.37566,-11.59205,0.0],[136.38917,-11.56243,0.0],[136.39234,-11.55731,0.0],[136.40252,-11.55478,0.6672],[136.45737,-11.52386,0.0]]],
[[[133.511,-11.50319,0.0],[133.49952,-11.49456,0.0],[133.48894,-11.48406,0.0],[133.4808,-11.47088,0.0],[133.4769,-11.45485,0.0],[133.45973,-11.46429,0.0],[133.4437,-11.47552,0.0],[133.424,-11.48504,0.0],[133.39503,-11.48903,4.1554],[133.39959,-11.49472,24.298],[133.40235,-11.50262,17.389],[133.40301,-11.51238,3.441],[133.40187,-11.52313,13.3094],[133.39682,-11.53191,2.3816],[133.39552,-11.53655,2.1396],[133.39503,-11.5442,0.0],[133.4026,-11.53265,0.0],[133.41529,-11.51995,8.9137],[133.4297,-11.50905,0.3514],[133.44288,-11.50319,16.1477],[133.45899,-11.50359,5.5839],[133.47584,-11.50726,11.2681],[133.49334,-11.50897,0.0],[133.511,-11.50319,0.0]]],
[[[130.38649,-11.46852,3.6681],[130.39861,-11.44451,7.3645],[130.39918,-11.43304,5.3967],[130.37379,-11.39373,0.0],[130.36012,-11.36639,2.813],[130.34995,-11.33945,5.1091],[130.34498,-11.31707,0.0],[130.327,-11.33017,5.6912],[130.3086,-11.33294,0.0],[130.28956,-11.3331,0.0],[130.26979,-11.33815,0.0],[130.2588,-11.34889,4.4702],[130.22828,-11.39967,0.0],[130.21778,-11.4096,0.0],[130.19353,-11.42441,0.0],[130.181,-11.43434,9.747],[130.17058,-11.44704,0.0],[130.14698,-11.48903,0.0],[130.16293,-11.48512,13.7285],[130.17547,-11.48358,2.5849],[130.18572,-11.48642,0.0],[130.1941,-11.49521,0.0],[130.1985,-11.50661,0.0],[130.19858,-11.51995,12.2963],[130.1941,-11.53387,16.6135],[130.18409,-11.5473,27.1585],[130.19467,-11.63112,12.5461],[130.20151,-11.6535,8.6047],[130.18539,-11.67653,13.4278],[130.16733,-11.69264,7.8432],[130.14568,-11.6994,0.0],[130.11899,-11.69451,0.0],[130.08815,-11.6736,17.7227],[130.07154,-11.67116,0.0],[130.0643,-11.69134,0.0],[130.07154,-11.73675,8.9432],[130.06959,-11.75563,4.4282],[130.05405,-11.76336,9.322],[130.0315,-11.75921,0.0],[130.02296,-11.76238,0.0],[130.01661,-11.77703,0.0],[130.01832,-11.78525,0.0],[130.0241,-11.79518,6.8556],[130.03712,-11.81121,8.8424],[130.05348,-11.82285,0.0],[130.08424,-11.82781,0.0],[130.11891,-11.82781,6.8817],[130.14698,-11.8248,0.0],[130.23512,-11.78973,40.0864],[130.28159,-11.78232,0.0],[130.30633,-11.77256,25.8357],[130.32106,-11.7702,56.6938],[130.33692,-11.77459,17.0615],[130.36012,-11.79372,0.0],[130.37599,-11.79811,0.0],[130.40594,-11.80185,12.9045],[130.43873,-11.81162,5.437],[130.47047,-11.8248,0.0],[130.49635,-11.83904,0.0],[130.52101,-11.82952,0.0],[130.57325,-11.83099,0.0],[130.61736,-11.81316,2.7864],[130.62818,-11.80462,0.0],[130.63282,-11.78753,0.0],[130.63502,-11.76816,7.9992],[130.6316,-11.76238,7.1691],[130.61988,-11.74912,4.286],[130.57496,-11.71543,3.8392],[130.54859,-11.70143,10.7612],[130.53679,-11.70501,4.2412],[130.53012,-11.6998,9.7887],[130.49773,-11.69004,14.1008],[130.48552,-11.68825,5.2857],[130.47316,-11.68971,4.4001],[130.46583,-11.69329,5.8352],[130.45883,-11.69769,3.7417],[130.44801,-11.70135,5.2448],[130.44801,-11.69451,0.3928],[130.4568,-11.67669,6.2472],[130.4629,-11.65008,5.9198],[130.46502,-11.62005,0.0],[130.46168,-11.59205,7.4079],[130.44557,-11.56715,5.4128],[130.39682,-11.5346,5.6885],[130.38649,-11.51971,0.0],[130.38347,-11.48431,0.0],[130.38649,-11.46852,3.6681]]],
[[[130.50652,-11.27703,2.9744],[130.43637,-11.20273,29.5842],[130.40016,-11.15325,0.0],[130.38315,-11.1679,4.7569],[130.37281,-11.18377,0.0],[130.36744,-11.20428,0.0],[130.36598,-11.23235,12.3012],[130.37013,-11.25205,30.0864],[130.38038,-11.26914,2.3557],[130.40626,-11.29656,4.822],[130.40016,-11.30511,0.0],[130.39584,-11.31406,0.0],[130.39357,-11.32366,2.491],[130.39275,-11.33441,0.0],[130.39487,-11.34246,6.4992],[130.39959,-11.34677,12.0484],[130.40414,-11.35003,9.2798],[130.40626,-11.35491,6.3551],[130.40773,-11.37469,0.0],[130.43035,-11.48431,0.0],[130.43775,-11.4992,19.2629],[130.46168,-11.52996,11.4348],[130.46608,-11.53362,9.0216],[130.47853,-11.5407,6.881],[130.48211,-11.5442,9.2725],[130.48585,-11.56219,0.0],[130.48894,-11.62957,11.5367],[130.49659,-11.64951,7.6566],[130.5149,-11.65789,21.7511],[130.53785,-11.66155,9.8355],[130.55844,-11.66717,2.4062],[130.56373,-11.67213,4.6672],[130.57472,-11.68955,20.1173],[130.58229,-11.69793,0.0],[130.6128,-11.71657,8.539],[130.66033,-11.75652,0.0],[130.66424,-11.7584,3.5035],[130.67547,-11.76051,5.3991],[130.68067,-11.76336,1.1161],[130.68198,-11.76727,6.3379],[130.67351,-11.77288,0.0],[130.67457,-11.77703,0.7217],[130.6906,-11.78834,2.3249],[130.71258,-11.79949,5.4156],[130.7352,-11.80779,9.3792],[130.75278,-11.81121,7.7452],[130.76043,-11.81406,22.9743],[130.80844,-11.84271,25.1861],[130.86004,-11.85996,0.0],[130.89487,-11.87786,2.821],[130.92213,-11.90049,7.8038],[130.94142,-11.92791,3.3281],[130.96119,-11.93385,11.1412],[130.97999,-11.92645,2.6222],[131.09897,-11.82838,1.9932],[131.20151,-11.77516,0.0],[131.20899,-11.76678,0.0],[131.21485,-11.75628,13.3595],[131.22877,-11.74489,1.5826],[131.25733,-11.72918,1.6903],[131.26873,-11.72796,7.8864],[131.28199,-11.7278,3.7717],[131.29314,-11.72405,0.0],[131.30299,-11.7011,1.2762],[131.32594,-11.6819,1.1541],[131.3781,-11.58408,8.7971],[131.38657,-11.57781,10.47],[131.39698,-11.58213,1.3662],[131.41774,-11.59661,9.755],[131.42058,-11.60198,3.1778],[131.43238,-11.60703,1.0064],[131.45582,-11.60809,20.4076],[131.47397,-11.60019,1.2143],[131.469,-11.57838,0.0],[131.469,-11.58587,3.4148],[131.45826,-11.56219,3.132],[131.46095,-11.52695,2.3819],[131.47104,-11.49334,6.3153],[131.48268,-11.47479,17.843],[131.49676,-11.47112,9.9723],[131.51938,-11.47877,0.0],[131.53045,-11.47479,0.9948],[131.53663,-11.46307,4.3699],[131.53891,-11.44606,0.0],[131.53736,-11.41326,0.4204],[131.5337,-11.39739,0.0],[131.52784,-11.38665,0.0],[131.51791,-11.38063,0.0],[131.50318,-11.37916,0.0],[131.48268,-11.38909,0.0],[131.48015,-11.39568,0.0],[131.47462,-11.39056,0.0],[131.4699,-11.38226,0.0],[131.4607,-11.35752,0.0],[131.46046,-11.33099,7.463],[131.45582,-11.30975,0.0],[131.43491,-11.3034,0.0],[131.43979,-11.28427,1.9573],[131.43686,-11.26491,0.0],[131.42774,-11.24969,0.0],[131.41432,-11.24261,0.0],[131.40219,-11.24383,0.0],[131.38201,-11.25384,0.0],[131.3694,-11.25628,0.0],[131.35939,-11.25286,0.0],[131.35182,-11.24619,0.0],[131.34344,-11.24098,0.0],[131.33131,-11.24261,0.0],[131.32488,-11.25026,0.0],[131.3213,-11.26198,0.0],[131.3152,-11.27264,0.0],[131.30144,-11.27744,1.5138],[131.29021,-11.27142,3.3257],[131.29282,-11.25872,13.5315],[131.30079,-11.24668,9.693],[131.30502,-11.24261,2.0279],[131.30242,-11.216,2.4502],[131.292,-11.19752,0.0],[131.27442,-11.18963,0.184],[131.24985,-11.19476,0.0],[131.22999,-11.2081,0.0],[131.21485,-11.22617,0.0],[131.20533,-11.24651,3.5709],[131.20094,-11.27337,5.805],[131.19581,-11.28427,0.0],[131.19516,-11.29046,0.0],[131.1989,-11.2951,6.5893],[131.20582,-11.29616,6.9197],[131.21241,-11.29608,8.3258],[131.21583,-11.29656,8.6382],[131.21656,-11.30674,0.0],[131.2151,-11.32789,2.4928],[131.21583,-11.33815,3.3606],[131.22869,-11.37103,0.0],[131.2308,-11.3908,0.0],[131.21925,-11.39967,0.5473],[131.21795,-11.39105,1.9856],[131.17661,-11.32903,1.38],[131.16822,-11.31015,0.0],[131.16293,-11.28883,10.4614],[131.16114,-11.26653,10.2526],[131.15309,-11.24928,0.0],[131.13453,-11.25775,3.2991],[131.09913,-11.29046,0.0],[131.07944,-11.30023,0.0],[131.06178,-11.30592,0.0],[131.04884,-11.31504,0.0],[131.02947,-11.39983,0.0],[131.02329,-11.41326,0.0],[131.01873,-11.40057,2.8757],[131.00978,-11.35491,0.0],[131.00327,-11.34743,0.0],[130.97511,-11.33611,0.0],[130.9686,-11.32757,0.0],[130.95387,-11.31634,0.0],[130.92091,-11.30934,0.0],[130.88803,-11.31316,0.0],[130.87322,-11.33441,0.0],[130.84547,-11.36028,5.1811],[130.78468,-11.36842,10.6498],[130.72364,-11.3847,3.9011],[130.69557,-11.43434,0.0],[130.69166,-11.42278,0.0],[130.6683,-11.39219,0.0],[130.65773,-11.38405,1.4647],[130.65382,-11.37754,18.5582],[130.6683,-11.34498,0.0],[130.65846,-11.33131,0.0],[130.63893,-11.34385,0.0],[130.59881,-11.38592,0.0],[130.59002,-11.39219,0.0],[130.57781,-11.39707,0.0],[130.56617,-11.39463,8.21],[130.55844,-11.37916,0.0],[130.56202,-11.3611,0.0],[130.59051,-11.33327,1.9737],[130.59881,-11.31707,6.518],[130.59636,-11.30153,17.5273],[130.58717,-11.2868,6.2366],[130.57358,-11.27532,0.0],[130.55844,-11.26995,9.1664],[130.54518,-11.27239,0.0],[130.53492,-11.28004,0.0],[130.52573,-11.28932,2.8416],[130.51612,-11.29656,3.4294],[130.50652,-11.27703,2.9744]]],
[[[132.9122,-11.16147,1.8138],[132.91253,-11.15521,1.7855],[132.90659,-11.14487,17.0233],[132.89633,-11.14577,2.5258],[132.88673,-11.14634,1.9152],[132.8746,-11.14943,1.8221],[132.85401,-11.15252,0.0],[132.86508,-11.15814,0.0],[132.87257,-11.17197,0.0],[132.87648,-11.17498,0.0],[132.8991,-11.16473,0.0],[132.9052,-11.16644,0.0],[132.91009,-11.16937,0.0],[132.91326,-11.1727,0.0],[132.91399,-11.16766,0.4455],[132.9122,-11.16147,1.8138]]],
[[[132.34995,-11.14625,3.1953],[132.34604,-11.12933,0.0],[132.34303,-11.122,0.0],[132.33692,-11.13275,0.0],[132.33204,-11.14772,0.0],[132.33237,-11.15325,4.2198],[132.31959,-11.1618,3.2652],[132.31471,-11.15984,0.0],[132.31031,-11.15455,0.0],[132.29819,-11.15325,0.0],[132.27752,-11.1622,0.0],[132.27231,-11.1775,2.5478],[132.27768,-11.21868,17.8882],[132.28785,-11.25547,7.5],[132.28517,-11.26849,2.967],[132.26417,-11.25628,0.0],[132.25522,-11.24041,3.094],[132.24098,-11.19647,5.3198],[132.23316,-11.18743,0.0],[132.21648,-11.18076,0.0],[132.20672,-11.16497,0.0],[132.1989,-11.14691,0.0],[132.18832,-11.13275,1.8996],[132.16131,-11.12371,0.0],[132.14812,-11.1373,9.8134],[132.14747,-11.15732,0.0],[132.15797,-11.16758,0.0],[132.16928,-11.17636,-1.5],[132.18344,-11.19606,16.9777],[132.19077,-11.21689,0.0],[132.18149,-11.22894,0.0],[132.19028,-11.24407,2.9453],[132.19483,-11.25604,20.0115],[132.1963,-11.26824,0.0],[132.19581,-11.28362,7.3651],[132.1941,-11.29022,0.0],[132.18873,-11.29957,0.0],[132.18832,-11.3034,0.2263],[132.19288,-11.30975,0.0],[132.19793,-11.3095,0.0],[132.20338,-11.30788,1.2815],[132.20948,-11.3108,0.0],[132.22828,-11.32871,10.7753],[132.23561,-11.33945,1.3591],[132.23618,-11.35125,9.02],[132.2269,-11.36386,0.0],[132.21632,-11.35858,0.0],[132.20362,-11.34954,0.0],[132.18832,-11.35125,0.0],[132.19166,-11.36647,24.6512],[132.20314,-11.3917,10.1985],[132.20387,-11.41033,0.0],[132.17465,-11.40643,0.0],[132.15252,-11.3847,9.8906],[132.15105,-11.35573,0.0],[132.15301,-11.32635,14.4683],[132.14064,-11.3034,1.2382],[132.13136,-11.31373,30.8723],[132.13168,-11.32317,13.9945],[132.13478,-11.33131,21.5809],[132.1338,-11.33815,23.7421],[132.12778,-11.34368,4.5863],[132.12477,-11.34303,1.4883],[132.12192,-11.34002,0.0],[132.11671,-11.33815,0.0],[132.10727,-11.33196,20.8593],[132.10711,-11.31707,2.7696],[132.11329,-11.28704,12.7018],[132.11215,-11.27679,16.8661],[132.1076,-11.26149,0.0],[132.10646,-11.25286,0.0],[132.10865,-11.24586,0.0],[132.11834,-11.22845,0.0],[132.12013,-11.2221,0.0],[132.11451,-11.20875,0.0],[132.10621,-11.21364,0.0],[132.0962,-11.2247,0.0],[132.08595,-11.22894,0.0],[132.0739,-11.21803,27.835],[132.07781,-11.19248,0.0],[132.04461,-11.17995,0.0],[132.03175,-11.16351,0.0],[132.02223,-11.14707,0.0],[132.01433,-11.13958,0.0],[131.9961,-11.13543,12.9946],[131.98561,-11.12916,0.0],[131.98162,-11.13006,0.0],[131.98219,-11.14707,6.1909],[131.98976,-11.16863,2.0937],[131.98666,-11.17653,0.0],[131.9686,-11.16758,0.0],[131.9734,-11.19036,17.7134],[131.9826,-11.20941,4.1436],[131.98325,-11.22625,0.1962],[131.96241,-11.24261,0.0],[131.94695,-11.24993,7.8388],[131.94028,-11.2514,0.0],[131.93605,-11.24676,0.0],[131.90504,-11.19988,0.0],[131.89015,-11.1845,0.0],[131.88673,-11.17742,0.0],[131.8825,-11.17197,0.0],[131.87436,-11.18125,0.0],[131.86988,-11.19476,0.0],[131.87648,-11.20159,0.821],[131.8768,-11.20672,0.0],[131.87477,-11.216,0.0],[131.8685,-11.2208,0.955],[131.85621,-11.2116,2.8664],[131.84848,-11.20729,0.0],[131.82683,-11.20403,0.0],[131.8191,-11.20159,0.0],[131.82488,-11.22308,17.1323],[131.83815,-11.2444,7.2897],[131.84693,-11.26336,2.5886],[131.83888,-11.27744,0.0],[131.82203,-11.27361,6.0591],[131.80055,-11.26336,0.0],[131.78972,-11.26336,0.0],[131.80486,-11.29046,0.0],[131.78883,-11.29225,0.0],[131.77426,-11.29957,0.0],[131.76588,-11.30722,19.2718],[131.76759,-11.3108,16.3311],[131.81568,-11.31707,21.6031],[131.82439,-11.31487,10.9624],[131.84693,-11.3056,3.455],[131.85621,-11.3034,0.0],[131.87094,-11.3056,0.0],[131.89617,-11.31487,0.0],[131.91131,-11.31707,4.2418],[131.92555,-11.3209,14.2962],[131.92579,-11.33001,0.0],[131.92262,-11.34108,0.0],[131.92774,-11.35125,3.1759],[131.93963,-11.35263,0.0],[131.96559,-11.34498,0.0],[131.97608,-11.35125,2.3065],[131.9795,-11.36647,6.0761],[131.96949,-11.37379,0.0],[131.94809,-11.37916,0.0],[131.94776,-11.39446,2.2233],[131.95525,-11.4039,4.6705],[131.96608,-11.40602,11.0254],[131.97608,-11.39967,21.6163],[131.98219,-11.39967,11.6616],[131.99049,-11.42506,20.0646],[132.01393,-11.42344,24.5343],[132.0407,-11.41863,3.9894],[132.05795,-11.43434,0.0],[132.05551,-11.4428,1.1593],[132.04591,-11.44557,0.0],[132.03566,-11.44695,0.0],[132.03077,-11.45086,0.0],[132.03256,-11.46038,4.4058],[132.03712,-11.47308,7.6859],[132.04282,-11.48414,60.6971],[132.04811,-11.48903,24.711],[132.05909,-11.4944,11.584],[132.07008,-11.50628,63.8161],[132.08473,-11.518,19.7829],[132.10646,-11.52313,5.6257],[132.12452,-11.51898,0.0],[132.14243,-11.50937,9.8155],[132.17123,-11.48561,12.7224],[132.17823,-11.48219,23.5535],[132.18344,-11.48504,19.8279],[132.18881,-11.48895,19.75],[132.19581,-11.48903,3.924],[132.20053,-11.48561,0.0],[132.20948,-11.47479,0.0],[132.2199,-11.46795,0.0],[132.22633,-11.46217,0.0],[132.23276,-11.4577,11.0636],[132.24366,-11.45485,5.718],[132.26498,-11.45631,4.6509],[132.28883,-11.46103,6.2015],[132.31129,-11.46152,0.0],[132.34693,-11.43825,18.6079],[132.36988,-11.43499,10.0029],[132.41554,-11.44061,26.9362],[132.43491,-11.44671,5.2398],[132.49537,-11.47617,0.0],[132.51157,-11.50661,5.0761],[132.53102,-11.50954,2.715],[132.52516,-11.52858,0.0],[132.5359,-11.53818,2.9514],[132.55128,-11.54453,5.6057],[132.55893,-11.55389,4.912],[132.55592,-11.56829,1.9573],[132.55128,-11.57562,2.1879],[132.55209,-11.58343,0.8994],[132.5652,-11.59889,2.2061],[132.57887,-11.61102,2.2023],[132.59498,-11.622,2.2795],[132.61256,-11.62998,5.1563],[132.64967,-11.63551,4.8434],[132.69557,-11.6535,5.8413],[132.69557,-11.66033,4.5672],[132.67628,-11.66424,0.0],[132.66676,-11.67425,3.9969],[132.65447,-11.70875,6.87],[132.6408,-11.72633,0.0],[132.6006,-11.76686,3.1821],[132.59303,-11.78444,2.1527],[132.59986,-11.79209,1.997],[132.64088,-11.81862,1.0],[132.64926,-11.83327,1.7316],[132.65219,-11.84857,1.6882],[132.65105,-11.86582,1.8948],[132.62696,-12.00433,2.583],[132.62721,-12.04388,1.6235],[132.63453,-12.06715,1.0838],[132.64894,-12.0831,1.8338],[132.68873,-12.10605,2.2455],[132.69711,-12.11224,2.3104],[132.70623,-12.122,2.2439],[132.71599,-12.12656,3.2236],[132.72706,-12.12835,7.5588],[132.74708,-12.12868,17.7565],[132.75758,-12.1334,1.8966],[132.7186,-12.14023,0.0],[132.67905,-12.13681,0.0],[132.64096,-12.1264,1.6172],[132.6067,-12.11224,0.0],[132.57732,-12.09401,0.0],[132.56398,-12.09157,9.525],[132.54469,-12.09857,0.0],[132.48894,-12.13567,3.7334],[132.46616,-12.14023,0.8535],[132.43963,-12.15488,2.3029],[132.42416,-12.18971,1.9424],[132.42286,-12.23162,1.8743],[132.44939,-12.30039,3.0553],[132.43198,-12.33115,2.1733],[132.40528,-12.35817,2.0671],[132.38754,-12.3803,2.2836],[132.38649,-12.35418,0.0],[132.38754,-12.34612,2.2726],[132.39064,-12.34124,2.3753],[132.39942,-12.33229,2.3684],[132.40406,-12.32415,2.1911],[132.417,-12.31715,2.1015],[132.42115,-12.31146,3.2032],[132.42164,-12.30364,5.146],[132.41961,-12.299,0.0],[132.41684,-12.29469,0.0],[132.41188,-12.27313,0.0],[132.37989,-12.216,0.0],[132.37184,-12.20696,0.0],[132.36134,-12.20224,0.0],[132.34604,-12.20159,6.0802],[132.32114,-12.2116,2.4911],[132.29672,-12.22666,1.45],[132.27833,-12.2282,14.782],[132.27084,-12.19817,0.0],[132.26881,-12.18084,0.0],[132.26222,-12.16497,0.0],[132.25131,-12.15635,0.0],[132.23618,-12.16058,0.0],[132.22999,-12.17034,0.0],[132.22218,-12.19883,20.1661],[132.21632,-12.20843,15.3389],[132.17123,-12.2221,6.468],[132.16651,-12.22503,7.1397],[132.15089,-12.24627,2.5851],[132.11557,-12.27557,2.1935],[132.07846,-12.29778,2.4732],[132.05787,-12.30674,0.0],[132.04566,-12.30739,1.6358],[132.02516,-12.29656,0.0],[132.00196,-12.29266,12.2178],[131.97706,-12.27793,0.0],[131.93385,-12.26393,0.0],[131.91407,-12.2501,6.5309],[131.90968,-12.24041,1.0252],[131.90756,-12.22918,0.0],[131.90463,-12.21982,0.0],[131.89698,-12.21592,0.0],[131.88551,-12.21705,5.8346],[131.87436,-12.22064,3.0565],[131.86427,-12.22584,0.0],[131.83969,-12.24676,2.0514],[131.82008,-12.2575,2.0313],[131.78435,-12.27044,2.545],[131.70688,-12.28216,3.0611],[131.6242,-12.29388,2.8304],[131.6128,-12.29664,2.1156],[131.59083,-12.2872,3.5379],[131.57887,-12.28411,1.6547],[131.5569,-12.28509,2.553],[131.51466,-12.29518,1.912],[131.49293,-12.29778,2.0542],[131.47039,-12.29567,2.0586],[131.44776,-12.28981,1.857],[131.42628,-12.28118,1.5874],[131.40691,-12.27044,1.7796],[131.37379,-12.24676,0.0],[131.34685,-12.21966,0.0],[131.32789,-12.18532,0.0],[131.31821,-12.14023,0.0],[131.31821,-12.09539,0.0],[131.31617,-12.08416,0.0],[131.30714,-12.07155,0.0],[131.30258,-12.04811,0.0],[131.29623,-12.04388,8.2756],[131.28736,-12.0473,3.6636],[131.27711,-12.05755,0.0],[131.27296,-12.06707,6.0705],[131.27101,-12.09857,4.9766],[131.2601,-12.13494,14.2442],[131.25799,-12.14935,9.7463],[131.25733,-12.17083,12.0359],[131.25392,-12.17718,12.0062],[131.23911,-12.19345,2.8993],[131.23618,-12.20159,1.9304],[131.23902,-12.21217,1.8423],[131.25733,-12.23626,2.0471],[131.23227,-12.23854,1.3919],[131.22193,-12.2282,0.0],[131.21648,-12.21494,0.0],[131.20558,-12.20843,0.0],[131.18816,-12.20078,0.0],[131.16277,-12.17392,12.7475],[131.13787,-12.18255,0.0],[131.12672,-12.17083,0.0],[131.11638,-12.15488,0.0],[131.10597,-12.14625,0.0],[131.0962,-12.14935,0.0],[131.08522,-12.16416,12.894],[131.07789,-12.16741,11.7698],[131.07146,-12.16448,2.8724],[131.05291,-12.15057,0.0],[131.04379,-12.14625,5.6818],[131.02613,-12.14715,0.0],[131.01092,-12.15602,0.0],[131.00017,-12.17132,9.3163],[130.9961,-12.19134,0.0],[131.00148,-12.20623,1.0379],[131.02475,-12.23414,0.0],[131.03012,-12.25311,24.9038],[131.02638,-12.30413,5.7713],[131.03012,-12.31829,3.3915],[131.04615,-12.34051,8.2221],[131.05177,-12.35377,9.4741],[131.05128,-12.37347,3.3381],[131.02516,-12.36053,3.3291],[130.93393,-12.34612,6.4571],[130.92579,-12.34197,0.0],[130.9214,-12.33685,0.0],[130.91651,-12.33278,0.0],[130.90724,-12.33196,0.0],[130.89763,-12.33424,13.9214],[130.89519,-12.33864,22.2547],[130.89357,-12.3449,24.573],[130.88624,-12.35247,25.7269],[130.85548,-12.36826,0.0],[130.84767,-12.37949,9.7136],[130.85873,-12.39332,18.6819],[130.82472,-12.40081,0.0],[130.83041,-12.41872,4.9853],[130.82667,-12.43035,0.0],[130.82195,-12.43914,0.0],[130.82472,-12.44793,13.9634],[130.8436,-12.45965,26.7299],[130.85597,-12.45306,0.0],[130.86695,-12.44459,5.5422],[130.88282,-12.45135,2.4595],[130.89332,-12.46356,5.3444],[130.8978,-12.47145,5.8856],[130.89991,-12.4791,8.8456],[130.90382,-12.48252,5.035],[130.92359,-12.48333,1.8726],[130.93092,-12.4861,4.7415],[130.95248,-12.50677,8.852],[130.96241,-12.51995,9.015],[130.9686,-12.53737,0.0],[130.95086,-12.53094,0.0],[130.91993,-12.51409,7.2947],[130.89991,-12.50945,0.0],[130.88087,-12.50905,0.0],[130.87379,-12.5136,0.0],[130.87623,-12.52467,4.576],[130.88624,-12.5442,5.6771],[130.9065,-12.56487,5.131],[130.93377,-12.58074,9.4473],[130.95777,-12.59881,4.6094],[130.9686,-12.62672,2.8426],[130.93051,-12.60329,0.0],[130.90919,-12.59783,0.0],[130.89373,-12.61305,5.8713],[130.89674,-12.61842,3.7169],[130.89829,-12.62379,5.2827],[130.89991,-12.63983,6.2325],[130.87745,-12.61712,0.0],[130.84303,-12.55934,0.0],[130.81105,-12.53737,0.0],[130.8003,-12.54616,8.3982],[130.79721,-12.5582,7.1854],[130.79591,-12.57155,5.9416],[130.79005,-12.58514,5.8535],[130.78443,-12.56487,0.0],[130.78386,-12.50319,0.0],[130.77329,-12.46917,0.0],[130.77369,-12.45428,0.0],[130.78386,-12.43499,0.0],[130.76612,-12.42474,0.0],[130.73927,-12.41562,0.0],[130.71258,-12.4109,0.0],[130.69557,-12.41383,0.0],[130.67433,-12.39235,0.0],[130.64112,-12.38323,0.0],[130.6058,-12.386,0.0],[130.57838,-12.40081,0.0],[130.57838,-12.407,0.8702],[130.59457,-12.41155,13.409],[130.59881,-12.41383,13.6389],[130.61524,-12.4275,21.5752],[130.62037,-12.43694,4.0502],[130.59962,-12.44443,0.0],[130.59254,-12.45241,0.0],[130.59034,-12.4625,20.4545],[130.6045,-12.48756,8.7873],[130.60418,-12.50457,6.3588],[130.57944,-12.56845,11.8632],[130.57838,-12.58172,17.6148],[130.58375,-12.58563,3.4841],[130.60768,-12.58465,7.9884],[130.61305,-12.58856,5.5795],[130.615,-12.59759,14.1538],[130.61752,-12.60394,5.3379],[130.61606,-12.61004,3.9977],[130.60564,-12.61932,9.2239],[130.59645,-12.62274,5.6657],[130.5879,-12.62135,0.0],[130.57984,-12.61907,0.0],[130.57154,-12.61932,0.0],[130.55909,-12.62477,0.0],[130.56039,-12.62835,5.4159],[130.56739,-12.63177,4.447],[130.57154,-12.63665,6.3349],[130.57472,-12.63974,7.2614],[130.58766,-12.65683,5.3456],[130.58912,-12.66082,5.9739],[130.59205,-12.66286,14.199],[130.59685,-12.67205,0.0],[130.59881,-12.67449,0.0],[130.60426,-12.67498,0.0],[130.6102,-12.67278,6.4304],[130.61402,-12.66985,7.0184],[130.61305,-12.66766,4.9234],[130.69557,-12.69134,8.7357],[130.69288,-12.70062,2.5531],[130.68572,-12.70615,4.0281],[130.67555,-12.70867,0.8183],[130.66432,-12.70924,0.0],[130.65748,-12.7081,0.0],[130.64698,-12.70306,0.0],[130.64112,-12.70184,0.0],[130.63502,-12.70387,0.0],[130.63006,-12.70843,0.0],[130.62672,-12.71282,0.79],[130.62599,-12.71494,8.6567],[130.61459,-12.71185,0.0],[130.60646,-12.70623,0.0],[130.59799,-12.70371,0.0],[130.58644,-12.70924,0.0],[130.58644,-12.69411,0.0],[130.57879,-12.68865,0.0],[130.56804,-12.68646,0.0],[130.55844,-12.68133,0.0],[130.51686,-12.60369,0.0],[130.50685,-12.59645,2.0695],[130.49635,-12.60508,3.1932],[130.49497,-12.61907,18.6325],[130.50148,-12.63291,14.712],[130.51612,-12.65407,7.9678],[130.49806,-12.64853,0.0],[130.46144,-12.63006,3.7131],[130.44801,-12.62672,0.0],[130.43751,-12.63063,0.0],[130.42115,-12.6443,0.6369],[130.41,-12.64723,0.0],[130.40358,-12.65211,0.0],[130.40203,-12.66326,18.3014],[130.40203,-12.6749,4.2976],[130.40016,-12.68133,1.1686],[130.38307,-12.68092,2.5402],[130.36744,-12.67262,4.783],[130.35434,-12.67205,6.0943],[130.34498,-12.695,0.0],[130.34742,-12.71282,0.0],[130.35548,-12.73203,0.0],[130.36069,-12.75075,13.6995],[130.35092,-12.78086,0.0],[130.35182,-12.84246,5.7215],[130.34718,-12.86142,5.1927],[130.33513,-12.88543,0.8255],[130.31861,-12.90602,3.2673],[130.30055,-12.91473,0.0],[130.28346,-12.91904,0.0],[130.24676,-12.93776,0.0],[130.22511,-12.94207,0.0],[130.20411,-12.93743,0.0],[130.19728,-12.92636,0.0],[130.19321,-12.91277,4.3093],[130.181,-12.90106,0.0],[130.17604,-12.91131,9.7566],[130.16863,-12.91855,12.9674],[130.15886,-12.92205,0.0],[130.14698,-12.92156,0.0],[130.12989,-12.94052,0.0],[130.13014,-12.96901,10.4934],[130.13461,-12.99863,0.0],[130.12989,-13.0202,0.0],[130.12257,-13.0324,0.0],[130.11891,-13.04705,0.0],[130.11866,-13.15618,9.2107],[130.12273,-13.16465,12.9171],[130.13136,-13.16717,21.0319],[130.15553,-13.16823,10.6276],[130.16049,-13.17148,4.5817],[130.21461,-13.23626,0.0],[130.23121,-13.26393,4.8467],[130.24252,-13.27842,6.262],[130.25245,-13.28476,4.077],[130.27263,-13.28834,3.4887],[130.29477,-13.2973,3.5152],[130.31398,-13.30853,5.1875],[130.32447,-13.31878,4.8017],[130.33229,-13.34637,4.3285],[130.31666,-13.34336,0.0],[130.29233,-13.32789,0.0],[130.2732,-13.31878,0.0],[130.25416,-13.32383,0.0],[130.23732,-13.33563,0.0],[130.21461,-13.36045,0.0],[130.16375,-13.43288,0.0],[130.13396,-13.46103,0.0],[130.1128,-13.44915,0.0],[130.06235,-13.49342,0.0],[130.04322,-13.50449,0.0],[129.98194,-13.52353,0.0],[129.96892,-13.53045,0.0],[129.93295,-13.51995,0.0],[129.91472,-13.51141,0.0],[129.90675,-13.50066,0.0],[129.90846,-13.46526,0.0],[129.90659,-13.44695,0.0],[129.89926,-13.43483,0.0],[129.89129,-13.43768,0.0],[129.88258,-13.45086,0.0],[129.87534,-13.46705,0.0],[129.86866,-13.49358,0.0],[129.85906,-13.49928,0.0],[129.84742,-13.50302,0.0],[129.83774,-13.51051,0.0],[129.83351,-13.52215,10.4135],[129.83155,-13.5372,4.578],[129.8309,-13.56862,0.0],[129.8274,-13.58261,1.6942],[129.80983,-13.615,0.0],[129.78549,-13.67571,0.0],[129.78321,-13.69183,0.0],[129.78842,-13.72576,0.0],[129.78924,-13.74196,3.1748],[129.78321,-13.75758,0.0],[129.7894,-13.76385,7.9564],[129.79298,-13.75823,10.5038],[129.8003,-13.74944,7.7654],[129.80372,-13.74334,7.1294],[129.81593,-13.76198,16.6856],[129.79615,-13.78541,0.0],[129.74171,-13.82594,0.998],[129.72316,-13.85182,8.6818],[129.71599,-13.86745,0.0],[129.71485,-13.88055,0.0],[129.72364,-13.89495,2.4148],[129.73504,-13.90358,0.0],[129.74488,-13.91351,27.4094],[129.7492,-13.93182,3.767],[129.74586,-13.9612,0.0],[129.73561,-13.99179,2.9245],[129.71754,-14.01556,0.8512],[129.69044,-14.02508,22.3929],[129.63258,-14.03525,0.0],[129.60914,-14.0285,0.0],[129.60572,-13.99725,0.0],[129.59425,-14.01019,0.0],[129.60084,-14.0359,10.107],[129.60467,-14.06618,0.0],[129.58522,-14.09287,0.0],[129.57993,-14.07627,0.0],[129.57114,-14.07537,0.0],[129.55974,-14.08148,0.0],[129.54713,-14.08538,0.0],[129.53883,-14.08131,0.0],[129.53533,-14.07187,9.4627],[129.53338,-14.06064,7.9062],[129.53004,-14.05185,0.8048],[129.51482,-14.06146,0.0],[129.50025,-14.05584,0.0],[129.48862,-14.04811,5.8928],[129.48219,-14.05185,7.3068],[129.48325,-14.06024,0.0],[129.49334,-14.07855,0.0],[129.49586,-14.08913,0.0],[129.49586,-14.12379,0.0],[129.49317,-14.14446,6.7131],[129.48561,-14.16155,7.8297],[129.47381,-14.17693,5.781],[129.43035,-14.21893,0.0],[129.42091,-14.23252,0.5361],[129.41334,-14.25042,15.6724],[129.41114,-14.26238,0.0],[129.4109,-14.27361,1.8957],[129.40935,-14.2846,0.0],[129.40309,-14.2951,0.0],[129.37672,-14.32342,0.0],[129.37289,-14.32928,0.0],[129.35808,-14.40879,5.8411],[129.36736,-14.41863,20.1848],[129.41676,-14.44598,0.0],[129.41993,-14.45094,4.9555],[129.42368,-14.46396,14.4247],[129.42701,-14.47015,14.8609],[129.43043,-14.47194,15.6973],[129.44313,-14.47527,4.7978],[129.44744,-14.47698,4.128],[129.44907,-14.48065,4.0772],[129.4533,-14.49407,4.95],[129.45484,-14.49749,5.8193],[129.45965,-14.49822,5.8333],[129.47071,-14.49668,0.0],[129.47535,-14.49749,0.0],[129.53533,-14.54534,6.5105],[129.55388,-14.55283,0.5369],[129.56666,-14.55462,10.9034],[129.57455,-14.55901,7.9199],[129.57993,-14.56357,0.0],[129.58522,-14.56634,0.0],[129.59539,-14.56732,0.0],[129.61598,-14.56569,0.0],[129.62623,-14.56634,0.0],[129.66733,-14.57537,3.584],[129.68653,-14.57399,0.0],[129.72006,-14.55071,4.2908],[129.74317,-14.53997,5.0638],[129.76808,-14.53265,11.4603],[129.7894,-14.53167,1.5],[129.77768,-14.54363,7.9438],[129.73748,-14.56854,0.0],[129.72853,-14.57635,0.0],[129.71762,-14.59588,3.8007],[129.69272,-14.60215,0.0],[129.64552,-14.60052,0.0],[129.60865,-14.60662,0.0],[129.59474,-14.60735,0.0],[129.58806,-14.61346,0.0],[129.5901,-14.62737,3.8772],[129.60678,-14.67156,3.3973],[129.62721,-14.69248,0.4816],[129.65211,-14.71063,3.9343],[129.67335,-14.72283,0.0],[129.66505,-14.73992,5.8381],[129.66993,-14.75311,4.2581],[129.7116,-14.78484,0.0],[129.72413,-14.7907,4.3049],[129.73699,-14.7903,7.768],[129.75538,-14.78484,0.7028],[129.78858,-14.76426,6.1204],[129.79689,-14.76442,1.5],[129.79566,-14.77606,4.5724],[129.76271,-14.81959,5.0736],[129.79859,-14.81683,4.9982],[129.89308,-14.77191,0.0],[129.95525,-14.75563,5.0396],[129.97486,-14.74017,36.4633],[129.98243,-14.70973,1.0],[129.99334,-14.72503,1.0],[129.98015,-14.78037,14.6303],[129.98243,-14.80592,0.0],[129.95362,-14.79013,0.0],[129.93539,-14.78338,5.3502],[129.92726,-14.78867,27.0724],[129.91969,-14.79022,5.0478],[129.87599,-14.82301,5.5455],[129.87094,-14.83066,5.2535],[129.8698,-14.83603,5.8417],[129.86647,-14.83904,5.2613],[129.85524,-14.8401,25.4901],[129.84799,-14.84189,0.0],[129.82472,-14.85377,5.0526],[129.80055,-14.85996,5.2792],[129.78566,-14.8615,4.8095],[129.76954,-14.86053,4.9168],[129.73471,-14.85377,4.8695],[129.70411,-14.85377,4.9328],[129.68971,-14.85052,4.5961],[129.66481,-14.83603,0.0],[129.64918,-14.8327,0.0],[129.64552,-14.84059,4.6223],[129.6399,-14.89471,0.0],[129.63453,-14.90789,5.5018],[129.6198,-14.93336,2.2577],[129.61183,-14.94256,4.5918],[129.61931,-14.9577,0.0],[129.62989,-15.01946,3.2033],[129.65203,-15.07692,5.2377],[129.65903,-15.08994,5.3851],[129.72169,-15.15936,5.7057],[129.72853,-15.16969,0.5],[129.73097,-15.18629,0.5],[129.72706,-15.19362,0.5],[129.71599,-15.19541,6.1989],[129.69728,-15.19508,4.4108],[129.67726,-15.19915,0.5],[129.67172,-15.19427,6.3733],[129.66651,-15.17596,5.4679],[129.66676,-15.14813,5.8014],[129.66196,-15.13836,0.5],[129.64552,-15.13494,0.5],[129.62941,-15.13934,0.5],[129.58522,-15.16969,5.4996],[129.58758,-15.15309,1.0],[129.59816,-15.11712,5.0044],[129.59474,-15.10394,5.268],[129.58448,-15.08807,4.5143],[129.57244,-15.05364,0.0],[129.56414,-15.03875,0.0],[129.55356,-15.03037,0.0],[129.52516,-15.0167,2.9792],[129.51295,-15.00799,4.7145],[129.4983,-14.95778,0.0],[129.49586,-14.95306,0.0],[129.47657,-14.93377,0.0],[129.37289,-14.90496,2.1399],[129.35792,-14.87957,0.0],[129.32439,-14.86207,0.3719],[129.28924,-14.86191,3.418],[129.2693,-14.88787,3.9953],[129.26303,-14.88787,1.918],[129.25896,-14.86256,3.3188],[129.2444,-14.84417,0.0],[129.22877,-14.8366,0.0],[129.22145,-14.84352,2.8218],[129.22299,-14.86777,0.0],[129.23569,-14.93629,3.4688],[129.23902,-14.98463,0.0],[129.24334,-15.00823,3.7171],[129.2518,-15.01824,0.9494],[129.25563,-15.03118,2.7814],[129.26336,-15.09059,3.8169],[129.26303,-15.1076,5.6956],[129.24366,-15.11338,4.5765],[129.21412,-15.2374,4.4087],[129.20826,-15.22234,4.3343],[129.20818,-15.20428,4.9793],[129.21274,-15.1858,4.2557],[129.22145,-15.16969,0.5],[129.19996,-15.16741,0.0],[129.17205,-15.22186,4.0117],[129.1526,-15.22373,3.9569],[129.17172,-15.17344,4.6893],[129.19191,-15.13592,0.0],[129.19923,-15.11736,1.5934],[129.19801,-15.0984,0.0],[129.18393,-15.07659,3.4233],[129.17555,-15.05853,1.2942],[129.17774,-15.03948,0.0],[129.18385,-15.02109,0.0],[129.18735,-15.00457,0.0],[129.18393,-14.98187,0.6213],[129.17319,-14.96478,0.0],[129.15504,-14.95379,0.0],[129.12867,-14.94997,3.195],[129.12029,-14.94638,0.0],[129.11704,-14.93743,0.0],[129.11549,-14.92636,0.0],[129.11158,-14.91579,0.0],[129.10231,-14.90537,0.0],[129.09205,-14.89821,0.0],[129.05104,-14.88014,0.0],[129.00978,-14.86907,0.0],[129.00012,-14.86815,0.0],[129.00012,-14.86819,0.0],[129.00012,-14.87103,0.0],[129.00012,-15.21886,33.2885],[129.00012,-15.56659,40.9003],[129.00012,-15.91433,90.0791],[129.00012,-16.26206,110.1811],[129.00012,-16.60984,169.044],[129.00012,-16.95762,207.0519],[129.00012,-17.30546,200.1694],[129.00012,-17.65319,315.195],[129.00012,-18.00092,387.8846],[129.00012,-18.34875,368.4106],[129.00012,-18.69658,423.8828],[129.00012,-19.04432,457.7043],[129.00012,-19.39205,506.4144],[129.00012,-19.73988,375.7496],[129.00012,-20.08771,455.347],[129.00012,-20.43544,389.7073],[129.00012,-20.78318,358.8765],[129.00012,-21.13101,332.7758],[129.00012,-21.47879,360.0496],[129.00012,-21.82657,364.789],[129.00012,-22.17431,361.3101],[129.00012,-22.52214,362.2886],[129.00012,-22.86992,391.5923],[129.00012,-23.21765,456.0123],[129.00012,-23.56543,413.6044],[129.00012,-23.91322,479.7658],[129.00012,-24.26105,453.7132],[129.00012,-24.60878,509.1232],[129.00012,-24.95651,649.4436],[129.00012,-25.30435,733.4368],[129.00012,-25.65218,626.3574],[129.00012,-25.99991,641.8019],[129.28144,-25.99991,689.8666],[129.56267,-25.99991,745.5155],[129.84394,-25.99991,740.8384],[130.12522,-25.99991,1146.1725],[130.40644,-25.99991,656.0937],[130.68766,-25.99991,655.9175],[130.96894,-25.99991,708.2729],[131.25021,-25.99991,631.7194],[131.53143,-25.99991,659.412],[131.81266,-25.99991,661.6552],[132.09393,-25.99991,613.8005],[132.37521,-25.99991,603.499],[132.65643,-25.99991,573.0686],[132.89291,-25.99991,549.6744],[132.93765,-25.99991,553.1338],[133.21893,-25.99991,516.3049],[133.5002,-25.99991,448.4794],[133.78143,-25.99991,465.9758],[134.06265,-25.99991,375.1564],[134.34392,-25.99991,315.1267],[134.6252,-25.99991,237.1205],[134.90642,-25.99991,201.6045],[135.1877,-25.99991,196.3795],[135.46892,-25.99991,147.176],[135.75019,-25.99991,123.9353],[136.03142,-25.99991,105.7743],[136.31269,-25.99991,93.9782],[136.59386,-25.99991,88.8282],[136.87519,-25.99991,70.5442],[137.15641,-25.99991,55.5333],[137.43769,-25.99991,52.847],[137.71891,-25.99991,43.5971],[138.00019,-25.99991,18.253],[138.00019,-25.70479,39.0515],[138.00019,-25.40956,49.9469],[138.00019,-25.11433,62.3834],[138.00019,-24.81921,79.094],[138.00019,-24.52408,89.5641],[138.00019,-24.22886,104.7652],[138.00019,-23.93363,117.3573],[138.00019,-23.63851,154.0265],[138.00019,-23.34338,173.3956],[138.00019,-23.04815,253.6958],[138.00019,-22.75293,231.4571],[138.00019,-22.4578,188.0452],[138.00019,-22.16268,178.2895],[138.00019,-21.8675,235.9538],[138.00019,-21.57238,184.9587],[138.00019,-21.27715,190.6044],[138.00019,-20.98197,195.3036],[138.00019,-20.6868,204.6283],[138.00019,-20.39167,209.6748],[138.00019,-20.09655,229.8357],[138.00019,-19.80143,240.3498],[138.00019,-19.5062,262.4142],[138.00019,-19.21097,259.9371],[138.00019,-18.91585,252.3442],[138.00019,-18.62072,208.5862],[138.00019,-18.3255,242.0535],[138.00019,-18.03027,159.1219],[138.00019,-17.73514,168.8337],[138.00019,-17.43997,98.0874],[138.00019,-17.14479,109.1884],[138.00019,-16.84957,19.0429],[138.00019,-16.55444,9.7187],[138.00019,-16.54161,0.0],[138.00017,-16.5416,0.0],[137.94996,-16.51051,1.0487],[137.91285,-16.47763,2.9877],[137.86687,-16.43711,11.0865],[137.84913,-16.41204,12.7827],[137.84474,-16.40057,7.8776],[137.78468,-16.31845,2.7946],[137.78012,-16.30299,0.0],[137.7461,-16.25213,0.0],[137.73024,-16.24383,0.366],[137.68979,-16.23122,7.6817],[137.6609,-16.21136,0.0],[137.55047,-16.17197,2.2803],[137.53004,-16.16961,1.1152],[137.51922,-16.17148,6.8215],[137.49741,-16.17742,1.6558],[137.48536,-16.17645,5.222],[137.47511,-16.17116,1.9688],[137.45118,-16.1491,3.2947],[137.44239,-16.14902,3.2085],[137.43141,-16.15081,2.6536],[137.42172,-16.14918,3.0392],[137.41774,-16.1386,0.0],[137.4131,-16.13079,0.0],[137.4026,-16.12811,0.0],[137.37989,-16.12868,1.5379],[137.36118,-16.12217,0.458],[137.29176,-16.07187,7.9618],[137.26498,-16.04079,0.9942],[137.25953,-16.02874,1.3587],[137.25025,-16.0206,7.1414],[137.19801,-15.98463,0.0],[137.18898,-15.98113,0.0],[137.17945,-15.97877,0.0],[137.16041,-15.97723,9.7875],[137.15366,-15.97405,7.879],[137.13478,-15.95989,2.1413],[137.09034,-15.94671,0.0],[137.04591,-15.9223,0.9263],[137.00807,-15.89186,0.1564],[136.99187,-15.86419,0.0],[136.98316,-15.8659,3.6131],[136.94264,-15.88551,2.0252],[136.92986,-15.89528,0.472],[136.92221,-15.91611,0.3146],[136.92579,-15.92864,0.0],[136.92555,-15.93467,2.1544],[136.9065,-15.93621,1.7983],[136.89959,-15.93255,0.1866],[136.87941,-15.91473,0.0],[136.86964,-15.90895,0.0],[136.85971,-15.90748,0.074],[136.82814,-15.90895,0.3715],[136.78696,-15.90049,0.0],[136.76791,-15.90081,6.0592],[136.75978,-15.91204,0.4574],[136.75196,-15.92848,1.3147],[136.73414,-15.93857,1.1405],[136.71559,-15.93597,5.2791],[136.7046,-15.91522,0.0],[136.70875,-15.90057,0.0],[136.71795,-15.88014,0.0],[136.72291,-15.86224,0.0],[136.7151,-15.85426,0.0],[136.70444,-15.84734,4.4653],[136.67042,-15.79909,1.399],[136.65821,-15.78777,0.0],[136.61207,-15.75465,2.7261],[136.60621,-15.74481,4.3544],[136.59848,-15.71803,1.9104],[136.59474,-15.71087,0.0],[136.58318,-15.70908,0.0],[136.57252,-15.71364,0.0],[136.56267,-15.72031,0.0],[136.55372,-15.72405,0.0],[136.52858,-15.71901,0.0],[136.50904,-15.70477,0.0],[136.49383,-15.69004,0.0],[136.46803,-15.67425,0.2936],[136.41651,-15.62151,0.0],[136.39584,-15.61728,0.0],[136.3484,-15.61386,0.0],[136.33082,-15.60442,0.7582],[136.28443,-15.57098,2.5549],[136.2732,-15.5595,1.2056],[136.26791,-15.54502,4.2152],[136.25733,-15.47088,0.0],[136.24008,-15.42409,5.4999],[136.23707,-15.4192,7.6627],[136.22462,-15.40862,0.0],[136.20607,-15.39674,1.959],[136.16578,-15.38014,0.0],[136.1364,-15.35784,0.0],[136.11232,-15.35166,0.0],[136.10125,-15.34726,0.0],[136.09067,-15.33994,0.0],[136.06031,-15.31308,0.0],[136.04347,-15.30169,0.0],[136.0031,-15.28135,0.0],[135.98829,-15.27776,0.0],[135.95167,-15.26442,0.0],[135.91822,-15.23398,0.0],[135.88795,-15.1998,0.0],[135.86101,-15.17596,0.0],[135.79615,-15.14666,0.0],[135.78647,-15.13795,0.0],[135.77849,-15.12672,0.0],[135.75904,-15.11541,0.0],[135.73634,-15.10955,0.0],[135.71762,-15.11443,0.0],[135.70899,-15.09759,0.0],[135.69752,-15.08685,6.0729],[135.66977,-15.06609,2.611],[135.65268,-15.04241,0.0],[135.64568,-15.03997,0.0],[135.62574,-15.04551,0.0],[135.61524,-15.04616,0.0],[135.58107,-15.0359,0.0],[135.55112,-15.01914,0.0],[135.46957,-14.94801,0.0],[135.44776,-14.91627,0.0],[135.40398,-14.8139,0.0],[135.39552,-14.77801,6.8236],[135.39129,-14.73992,0.0],[135.38404,-14.72568,0.0],[135.36817,-14.72283,0.0],[135.37827,-14.71233,4.8608],[135.39088,-14.71315,4.8566],[135.40406,-14.71901,2.8029],[135.41603,-14.72283,2.038],[135.43409,-14.72064,0.0],[135.44011,-14.71217,0.0],[135.44337,-14.69988,0.0],[135.45379,-14.68564,0.5975],[135.47934,-14.67083,0.0],[135.50343,-14.66269,2.0233],[135.52263,-14.65154,2.0406],[135.51787,-14.61649,9.2126],[135.53226,-14.58108,0.0],[135.5546,-14.54569,0.0],[135.60939,-14.45257,0.0],[135.62469,-14.43157,0.0],[135.65024,-14.43648,0.0],[135.66774,-14.42726,4.3935],[135.6753,-14.40618,0.0],[135.73414,-14.29811,0.0],[135.75913,-14.26539,0.0],[135.78647,-14.24358,0.0],[135.78932,-14.24066,0.0],[135.8086,-14.22666,8.4434],[135.81324,-14.22666,8.4098],[135.81853,-14.22357,6.9153],[135.84197,-14.21917,0.0],[135.84742,-14.21299,0.0],[135.85377,-14.20086,0.0],[135.86964,-14.19207,0.0],[135.8899,-14.18955,0.0],[135.90943,-14.19525,0.0],[135.90333,-14.13584,0.0],[135.92311,-13.95965,11.2222],[135.96461,-13.9358,0.0],[135.99138,-13.90106,0.0],[135.99244,-13.89422,0.0],[135.99138,-13.8707,0.6879],[135.99301,-13.86061,0.0],[135.99724,-13.85491,0.0],[136.00172,-13.85101,0.0],[136.00489,-13.84637,0.0],[136.01271,-13.82195,9.2087],[136.01271,-13.8082,3.0254],[136.00489,-13.79803,7.229],[136.03297,-13.75018,0.0],[136.04721,-13.70127,0.0],[136.05348,-13.68816,0.0],[136.07179,-13.67116,0.0],[136.07789,-13.66269,1.4295],[136.07447,-13.65399,0.0],[136.07032,-13.65097,0.0],[136.06349,-13.64756,0.0],[136.05535,-13.64593,0.0],[136.04664,-13.64772,1.1074],[136.03736,-13.65439,0.0],[136.0359,-13.65984,5.0127],[136.03614,-13.66619,11.335],[136.03297,-13.67506,5.2734],[135.99659,-13.72259,15.8641],[135.9699,-13.74228,0.5574],[135.93678,-13.75018,11.8579],[135.90138,-13.73886,4.5638],[135.88673,-13.71364,0.0],[135.89373,-13.68792,0.0],[135.92311,-13.67506,0.0],[135.92213,-13.66985,0.0],[135.91847,-13.65846,0.0],[135.91627,-13.65399,0.0],[135.88469,-13.66681,0.0],[135.87074,-13.65331,0.3975],[135.85281,-13.61564,0.0],[135.84484,-13.60019,0.0],[135.84742,-13.5783,0.0],[135.85084,-13.56748,0.0],[135.85743,-13.56162,0.7348],[135.86402,-13.55739,2.7354],[135.86842,-13.55153,0.0],[135.8694,-13.53981,0.0],[135.86101,-13.50449,0.0],[135.86101,-13.48016,0.0],[135.85475,-13.45599,10.5383],[135.86066,-13.43784,3.8905],[135.88053,-13.43009,0.0],[135.89943,-13.4378,3.852],[135.91988,-13.4641,0.2515],[135.93678,-13.45094,0.0],[135.94581,-13.44647,0.0],[135.96461,-13.44915,0.0],[135.96762,-13.43615,0.0],[135.96943,-13.42565,0.0],[135.96461,-13.41513,7.9627],[135.95948,-13.41513,19.2785],[135.93637,-13.41676,0.818],[135.92265,-13.41512,7.5172],[135.91636,-13.40373,18.2894],[135.92627,-13.3985,0.0],[135.92539,-13.38625,0.0],[135.9209,-13.3775,0.1198],[135.91285,-13.37412,0.0],[135.88343,-13.36731,5.0223],[135.88336,-13.32576,2.4779],[135.90717,-13.30256,0.0],[135.91111,-13.2842,0.0],[135.92399,-13.2668,6.6824],[135.94284,-13.25615,11.6622],[135.95191,-13.26344,0.0],[135.95681,-13.28802,0.0],[135.96771,-13.27544,0.0],[135.97754,-13.23196,0.0],[135.99142,-13.21939,6.8789],[136.00828,-13.2155,0.0],[136.03045,-13.23659,22.0714],[136.03696,-13.26002,10.277],[136.03981,-13.28704,0.0],[136.04664,-13.31194,0.0],[136.05348,-13.31194,0.0],[136.05909,-13.29266,0.0],[136.05242,-13.24529,0.0],[136.05348,-13.23008,7.9152],[136.05836,-13.22487,7.1954],[136.06398,-13.22275,13.8599],[136.07678,-13.23105,11.0453],[136.08587,-13.23023,0.0],[136.08586,-13.19975,0.0],[136.10399,-13.15881,0.0],[136.13657,-13.12518,12.0213],[136.14763,-13.12225,9.4726],[136.1565,-13.14691,6.0446],[136.15699,-13.17246,7.7723],[136.13873,-13.20681,6.6519],[136.14785,-13.23886,4.2274],[136.15862,-13.262879999999999,5.6452],[136.17742,-13.23561,0.0],[136.19386,-13.23528,17.4918],[136.20704,-13.23211,10.498],[136.21111,-13.2164,8.5614],[136.21111,-13.22259,6.9135],[136.21266,-13.21152,8.7474],[136.21778,-13.20469,0.0],[136.22486,-13.20355,0.0951],[136.23219,-13.20892,0.0],[136.24537,-13.19704,0.0],[136.24391,-13.18255,0.0],[136.2365,-13.16668,0.0],[136.23219,-13.15057,0.0],[136.23756,-13.13877,13.5805],[136.24928,-13.12965,8.9104],[136.261,-13.12933,6.4284],[136.27345,-13.16041,0.0],[136.29005,-13.1657,7.0354],[136.30836,-13.16277,5.4837],[136.31177,-13.15422,2.7099],[136.31173,-13.13821,0.7789],[136.32097,-13.12127,0.0],[136.30589,-13.1062,0.0],[136.30419,-13.09099,7.1701],[136.31023,-13.0761,0.0],[136.3187,-13.06308,0.0],[136.33286,-13.04688,0.0],[136.34355,-13.04686,8.139],[136.36549,-13.05511,6.7741],[136.37159,-13.06536,10.5614],[136.36817,-13.09564,5.5005],[136.36444,-13.15085,11.392],[136.37107,-13.16524,4.3411],[136.36704,-13.19487,3.1844],[136.3819,-13.21323,0.0],[136.38819,-13.22576,0.0],[136.38197,-13.24528,10.9375],[136.36553,-13.25494,5.7803],[136.35152,-13.24859,3.6301],[136.33752,-13.24864,1.7829],[136.33508,-13.25906,4.8712],[136.34169,-13.27025,2.6807],[136.34474,-13.28135,10.9086],[136.32115,-13.29597,8.8786],[136.322,-13.30799,0.0],[136.33272,-13.31035,7.4087],[136.33109,-13.31998,0.0],[136.34262,-13.32154,18.2968],[136.35331,-13.31028,7.6449],[136.36752,-13.29762,3.9899],[136.38852,-13.26426,0.0],[136.39925,-13.242,7.2339],[136.43474,-13.22772,13.9339],[136.44386,-13.2164,2.2545],[136.45053,-13.2164,6.3906],[136.45607,-13.2326,1.1475],[136.45769,-13.2409,29.228],[136.45737,-13.25058,14.0113],[136.47234,-13.24236,0.0],[136.47804,-13.22763,0.0],[136.47804,-13.19199,0.0],[136.48125,-13.16646,0.0],[136.49269,-13.14882,7.838],[136.51321,-13.14314,0.0],[136.53133,-13.15508,0.0],[136.53935,-13.10224,26.8775],[136.56723,-13.0582,9.2434],[136.53422,-13.05025,0.0],[136.52247,-13.03053,16.8557],[136.52369,-13.02386,26.545],[136.52215,-13.01865,1.8778],[136.50929,-13.01653,3.7337],[136.50392,-13.01409,11.4161],[136.4983,-13.00799,7.2352],[136.49399,-13.00026,1.0752],[136.4922,-12.99293,0.0],[136.49334,-12.98024,8.3253],[136.49676,-12.97519,18.0501],[136.51271,-12.96885,22.0652],[136.51808,-12.96836,15.7071],[136.52687,-12.97568,23.3748],[136.53256,-12.97625,13.3206],[136.53321,-12.9743,14.0889],[136.53956,-12.96413,15.3206],[136.54005,-12.96185,15.5611],[136.55524,-12.96376,2.4232],[136.56433,-12.97973,0.0],[136.56528,-13.01173,15.948],[136.58172,-13.01407,20.6197],[136.60206,-12.98235,0.0],[136.61687,-12.97991,0.0],[136.62013,-12.98284,0.0],[136.62127,-12.98919,0.0],[136.62941,-12.99668,0.0],[136.63233,-13.00058,0.0],[136.64186,-13.00872,18.6663],[136.65203,-13.01344,11.673],[136.65675,-13.00661,17.4065],[136.65749,-12.99574,8.8211],[136.64063,-12.97595,0.0],[136.63694,-12.95494,5.4604],[136.61291,-12.93868,0.0],[136.56788,-12.91188,0.0],[136.55714,-12.91172,0.0],[136.54542,-12.91286,0.0],[136.54672,-12.89121,0.2452],[136.54566,-12.87184,0.0],[136.52638,-12.88055,8.8162],[136.48976,-12.85076,1.2357],[136.48487,-12.84246,0.0],[136.48276,-12.82578,0.0],[136.47381,-12.79225,0.0],[136.47169,-12.77386,0.0],[136.47926,-12.7667,3.6433],[136.49635,-12.78037,9.5429],[136.5119,-12.8053,0.0],[136.53243,-12.80443,10.982],[136.53402,-12.7932,5.8019],[136.53233,-12.77957,0.0],[136.52572,-12.76917,10.5678],[136.5273,-12.75473,0.4077],[136.53302,-12.74831,0.0],[136.54347,-12.74342,0.0],[136.55144,-12.74383,2.1282],[136.55926,-12.74521,17.3806],[136.56511,-12.74822,10.5288],[136.56723,-12.75335,10.5781],[136.56959,-12.76523,0.0],[136.57936,-12.79258,0.0],[136.58155,-12.80828,0.0],[136.58627,-12.82301,0.0],[136.59742,-12.83123,0.0],[136.61069,-12.83034,7.604],[136.62192,-12.81854,0.0],[136.62322,-12.80706,0.0],[136.62086,-12.79648,0.0],[136.62257,-12.78655,0.0],[136.62176,-12.76401,0.0],[136.60906,-12.75091,0.0],[136.6019,-12.73366,5.1824],[136.60841,-12.71494,12.2374],[136.6277,-12.70241,0.0],[136.6701,-12.70517,0.0],[136.69014,-12.71327,0.0],[136.69726,-12.69853,0.0],[136.67922,-12.67129,20.7502],[136.70118,-12.61614,0.0],[136.73178,-12.5783,10.1058],[136.74171,-12.5735,8.7692],[136.76129,-12.57434,11.9215],[136.74468,-12.54783,0.0],[136.73805,-12.50799,0.0],[136.74024,-12.47576,1.6034],[136.7697,-12.4616,0.0],[136.77467,-12.45794,0.0],[136.78142,-12.45062,0.0],[136.78981,-12.44549,3.0554],[136.80063,-12.44793,2.1881],[136.80551,-12.45648,11.6386],[136.80519,-12.46754,8.1761],[136.8025,-12.47772,5.7343],[136.80063,-12.48268,6.1137],[136.78004,-12.50791,26.5727],[136.76824,-12.52463,5.7564],[136.77118,-12.54141,5.2917],[136.78332,-12.53436,0.0],[136.79399,-12.51612,0.0],[136.86164,-12.43468,0.0],[136.90868,-12.38897,6.0702],[136.92796,-12.37697,6.7736],[136.94793,-12.3764,0.0],[136.95623,-12.37493,0.0],[136.96363,-12.37249,0.0],[136.97145,-12.36598,0.0],[136.98365,-12.34547,0.0],[136.96998,-12.34588,23.4497],[136.94934,-12.35587,0.0],[136.92782,-12.34898,1.2487],[136.93413,-12.32235,17.462],[136.92691,-12.28897,5.6669],[136.90667,-12.26175,0.0],[136.87638,-12.22341,0.0],[136.84911,-12.21444,7.0364],[136.82478,-12.21386,28.6474],[136.80747,-12.19476,0.0],[136.77996,-12.17205,1.3643],[136.76092,-12.16448,0.0],[136.72939,-12.17301,3.1589],[136.7137,-12.18567,0.0],[136.68579,-12.18439,6.6414],[136.67944,-12.2047,0.0],[136.70085,-12.19062,4.818],[136.71165,-12.20666,0.0],[136.72817,-12.21988,0.0],[136.75278,-12.22576,5.9176],[136.75953,-12.23317,0.5482],[136.76588,-12.24261,4.3912],[136.74537,-12.2658,1.5208],[136.71909,-12.28135,3.8764],[136.6906,-12.28281,3.453],[136.66358,-12.2636,0.0],[136.6587,-12.25612,0.0],[136.64991,-12.23626,0.0],[136.62192,-12.20843,0.0],[136.61207,-12.19256,0.0],[136.59058,-12.17428,0.0],[136.58189,-12.14843,0.0],[136.58174,-12.11206,7.6439],[136.58663,-12.08335,2.4473],[136.56013,-12.07925,3.9017],[136.54851,-12.0387,4.351],[136.53329,-11.99325,0.0],[136.51966,-11.98769,0.0],[136.50466,-11.99333,0.0],[136.48968,-12.00669,4.0534],[136.47749,-12.00252,0.0],[136.47025,-11.98642,3.3629],[136.46945,-11.96681,1.7691],[136.48017,-11.95839,22.8559],[136.49879,-11.95835,2.0362],[136.51594,-11.95199,9.8473],[136.52809,-11.94915,35.0352],[136.54808,-11.93927,64.1125],[136.56305,-11.92731,21.894],[136.57803,-11.91675,27.9756],[136.58156,-11.90693,31.0179],[136.57222,-11.89644,0.0],[136.56432,-11.89156,16.0191],[136.56583,-11.90908,0.0],[136.55298,-11.91613,0.0],[136.52581,-11.92182,0.0],[136.51231,-11.94079,5.1634],[136.48086,-11.95069,0.0],[136.46507,-11.94581,0.0],[136.45071,-11.94233,5.6959],[136.44044,-11.96201,6.1643],[136.42945,-11.96526,0.0],[136.41822,-11.97357,29.6687],[136.38543,-12.0053,13.9075],[136.36183,-12.02353,0.0],[136.33627,-12.05006,0.0],[136.3296,-12.05136,0.6761],[136.32032,-12.049,0.0],[136.30047,-12.05071,4.9809],[136.28354,-12.06569,9.9512],[136.23097,-12.13209,2.4972],[136.22462,-12.15374,10.8808],[136.19557,-12.1583,0.0],[136.18238,-12.16253,7.3845],[136.17701,-12.17083,9.9414],[136.18002,-12.18776,33.9169],[136.18824,-12.19207,48.6878],[136.21469,-12.18792,0.0],[136.22511,-12.19183,2.753],[136.23494,-12.21116,17.6017],[136.25942,-12.20898,8.6851],[136.2774,-12.20823,2.1335],[136.30063,-12.20436,7.2833],[136.31349,-12.20159,6.7595],[136.3322,-12.20355,0.0],[136.34978,-12.21087,7.5125],[136.36305,-12.22291,5.9194],[136.36817,-12.23943,0.0],[136.36394,-12.25644,1.2049],[136.33399,-12.30462,10.2967],[136.30454,-12.38356,0.0],[136.28452,-12.41579,0.0],[136.2527,-12.44109,0.0],[136.2173,-12.45525,0.0],[136.19606,-12.45989,0.0],[136.17359,-12.4616,0.0],[136.16928,-12.45794,0.0],[136.15707,-12.44052,1.8309],[136.1491,-12.43499,0.0],[136.14137,-12.43515,0.0],[136.10182,-12.44297,0.0],[136.0962,-12.44606,0.0],[136.09083,-12.44785,0.0],[136.08448,-12.44451,0.0],[136.08139,-12.43971,0.0],[136.07936,-12.43418,0.0],[136.07643,-12.42938,0.0],[136.07081,-12.4275,0.0],[136.05812,-12.4306,0.0],[136.05494,-12.43841,0.0],[136.05445,-12.44842,10.3179],[136.05006,-12.45818,4.0419],[136.03395,-12.46592,0.0],[136.0232,-12.45566,0.0],[136.01661,-12.43572,0.0],[136.01246,-12.41383,0.0],[136.01629,-12.39219,0.0],[136.01385,-12.3834,0.0],[136.0018,-12.39031,0.0],[135.99334,-12.39324,0.0],[135.98805,-12.38519,0.0],[135.98569,-12.37274,0.0],[135.98512,-12.36297,0.0],[135.99024,-12.35369,9.7206],[136.02613,-12.31146,0.0],[136.03826,-12.28232,0.0],[136.03981,-12.27386,0.0],[136.04396,-12.27093,0.0],[136.05348,-12.26922,1.0932],[136.06284,-12.26458,0.0],[136.06715,-12.25311,0.0],[136.06023,-12.23219,0.0],[136.0442,-12.23113,0.0],[136.02589,-12.24017,0.0],[136.01246,-12.2501,6.3468],[135.99488,-12.26002,0.0],[135.97446,-12.26458,0.0],[135.95737,-12.2575,0.0],[135.95045,-12.23284,0.0],[135.94703,-12.22715,0.0],[135.94044,-12.22145,0.0],[135.93539,-12.21364,0.0],[135.93678,-12.20159,9.7736],[135.94361,-12.19248,16.2573],[135.95387,-12.18475,9.7197],[135.98504,-12.16627,0.0],[135.98959,-12.1609,0.0],[135.99138,-12.15008,0.0],[135.99366,-12.1456,0.0],[136.00465,-12.12998,0.0],[136.00864,-12.12656,0.0],[136.01987,-12.11972,0.0],[136.0359,-12.10329,9.4107],[136.04933,-12.08294,0.0],[136.05348,-12.06439,0.0],[136.02858,-12.08221,28.4303],[135.96778,-12.14324,11.9092],[135.95655,-12.14739,0.0],[135.94435,-12.14609,0.0],[135.93458,-12.14674,16.5148],[135.93051,-12.15716,0.0],[135.91993,-12.17441,16.0729],[135.91261,-12.18231,59.855],[135.90943,-12.17791,24.8675],[135.90748,-12.17051,2.5558],[135.9026,-12.15993,0.0],[135.89576,-12.15049,0.0],[135.88893,-12.14625,0.0],[135.88014,-12.15163,4.628],[135.84742,-12.18792,8.7678],[135.8069,-12.21697,26.3552],[135.79444,-12.23528,9.5395],[135.78647,-12.2636,30.2795],[135.77906,-12.2636,2.5541],[135.76531,-12.25709,3.2356],[135.7518,-12.27077,2.2666],[135.73194,-12.31146,3.7114],[135.71367,-12.27679,6.3008],[135.70374,-12.26518,2.1038],[135.68886,-12.25067,0.0],[135.66903,-12.23714,2.3883],[135.65214,-12.20329,1.0731],[135.65007,-12.16458,2.4192],[135.66882,-12.14714,26.2069],[135.69053,-12.1297,2.6301],[135.71817,-12.10839,0.0],[135.73072,-12.10166,0.0],[135.76539,-12.07187,0.0],[135.79282,-12.0368,0.0],[135.82838,-12.00555,3.719],[135.85475,-11.98935,0.0],[135.9026,-11.97674,0.0],[135.91627,-11.96819,0.0],[135.91627,-11.96201,0.0],[135.89723,-11.96258,17.3008],[135.86704,-11.97845,3.2549],[135.85108,-11.98252,3.0082],[135.78647,-11.98935,0.0],[135.76466,-11.99619,0.0],[135.72384,-12.01074,0.7962],[135.71691,-12.00302,2.28],[135.74692,-11.98284,0.0],[135.75123,-11.97503,0.0],[135.75847,-11.9699,12.5804],[135.79363,-11.96396,10.497],[135.81121,-11.95192,0.0],[135.84108,-11.91367,0.0],[135.90342,-11.8499,0.0],[135.92213,-11.816,0.0],[135.93678,-11.77703,0.0],[135.92359,-11.76849,0.0],[135.9004,-11.75921,1.8785],[135.87818,-11.75628,9.8264],[135.86842,-11.76678,7.8813],[135.87379,-11.78867,9.7212],[135.88315,-11.80674,11.8159],[135.88697,-11.82464,19.3731],[135.87525,-11.84588,17.7252],[135.8659,-11.84987,18.9825],[135.85467,-11.85076,8.5494],[135.84506,-11.85508,23.1852],[135.84108,-11.86924,14.2983],[135.83676,-11.87396,8.8357],[135.80983,-11.88991,15.1968],[135.77516,-11.91937,20.7268],[135.73927,-11.9415,15.0424],[135.71974,-11.93182,0.0],[135.70094,-11.93255,0.0],[135.68393,-11.93914,16.7475],[135.66977,-11.94769,0.3232],[135.66261,-11.95477,0.0],[135.65935,-11.96136,9.9535],[135.65504,-11.9664,5.5344],[135.64568,-11.96819,0.0],[135.63502,-11.96624,0.0],[135.63087,-11.9616,0.0],[135.62827,-11.95696,0.0],[135.62208,-11.95452,0.0],[135.6006,-11.95672,0.0],[135.59254,-11.9651,25.6408],[135.57072,-11.99457,0.0],[135.56583,-12.0255,39.4619],[135.57228,-12.0442,15.5997],[135.58107,-12.05755,2.1513],[135.59295,-12.0556,0.0],[135.63575,-12.02353,0.0],[135.6517,-12.0202,0.0],[135.70209,-12.00787,0.0],[135.712,-12.01848,0.0],[135.6561,-12.05071,11.0529],[135.64894,-12.05486,4.0185],[135.62672,-12.06487,1.2715],[135.62208,-12.06813,4.4641],[135.5879,-12.09857,4.236],[135.57154,-12.09726,0.0],[135.53528,-12.08062,22.5883],[135.53624,-12.06227,0.0],[135.5155,-12.06519,0.0],[135.51552,-12.07872,14.9972],[135.50514,-12.09808,22.9615],[135.48487,-12.10605,17.8946],[135.46022,-12.11357,4.1347],[135.42859,-12.11554,7.0615],[135.40879,-12.10593,0.0],[135.41768,-12.08755,16.5802],[135.41505,-12.08424,5.9151],[135.38901,-12.09145,0.0],[135.36627,-12.08761,11.8028],[135.35144,-12.10503,0.0],[135.32473,-12.11087,0.0],[135.30295,-12.12831,0.0],[135.30889,-12.13604,8.8081],[135.3239,-12.13983,4.0357],[135.3226,-12.14414,5.1491],[135.31349,-12.15374,3.4144],[135.30698,-12.15765,0.0],[135.2653,-12.17868,0.0],[135.23756,-12.17969,0.0],[135.22268,-12.19133,0.0],[135.2415,-12.2068,0.0],[135.26429,-12.2087,0.0],[135.29004,-12.22415,12.9296],[135.3049,-12.23186,3.4359],[135.32867,-12.23472,2.5685],[135.34938,-12.22633,0.0],[135.34929,-12.23602,0.0],[135.33815,-12.2457,0.0],[135.3235,-12.2501,0.0],[135.30193,-12.25896,3.9083],[135.2831,-12.25029,1.0436],[135.26922,-12.23483,0.9544],[135.25831,-12.2221,0.0],[135.23256,-12.22715,0.0],[135.20777,-12.2291,0.0],[135.17008,-12.22822,8.3092],[135.18889,-12.25144,10.3361],[135.22999,-12.27459,3.6336],[135.2378,-12.2916,3.9657],[135.21759,-12.30082,0.0],[135.20272,-12.29407,3.4496],[135.18785,-12.28052,4.4727],[135.17199,-12.26989,6.7731],[135.15812,-12.25344,5.0759],[135.14722,-12.24377,3.898],[135.13356,-12.24375,10.1826],[135.11492,-12.2501,15.0417],[135.09246,-12.26051,15.2226],[135.08033,-12.2636,27.1478],[135.07016,-12.25994,10.08],[135.04884,-12.23707,0.0],[135.04607,-12.23284,0.0],[135.04054,-12.22682,0.0],[135.00506,-12.20843,0.0],[135.00123,-12.20281,0.0],[134.99138,-12.18174,0.0],[134.97364,-12.15594,0.0],[134.97096,-12.15008,0.0],[134.96705,-12.14609,0.0],[134.94728,-12.14031,0.0],[134.93995,-12.13681,0.0],[134.92742,-12.1347,0.0],[134.88063,-12.13388,0.0],[134.86109,-12.12656,5.5071],[134.8532,-12.11305,0.0],[134.84669,-12.091,8.9237],[134.84059,-12.0473,0.0],[134.83619,-12.03786,0.0],[134.82594,-12.03867,5.4154],[134.81463,-12.0429,4.171],[134.80641,-12.04388,0.0],[134.80095,-12.03867,0.0],[134.79591,-12.02418,5.0817],[134.79225,-12.0167,0.0],[134.78004,-12.00302,0.0],[134.77459,-11.99505,0.0],[134.77223,-11.98594,0.0],[134.77442,-11.96413,0.0],[134.77369,-11.95273,0.0],[134.76857,-11.94769,0.0],[134.74757,-11.9485,0.581],[134.72291,-11.95224,0.0],[134.70476,-11.96063,0.0],[134.69654,-11.96819,7.8126],[134.63266,-12.03094,0.0],[134.60467,-12.04949,0.0],[134.59425,-12.06439,3.4793],[134.58269,-12.05096,0.0],[134.56202,-12.05242,0.0],[134.52223,-12.06439,0.0],[134.42897,-12.05755,0.0],[134.38217,-12.04266,0.0],[134.34669,-12.02028,0.0],[134.285,-11.96819,0.0],[134.26629,-11.97576,0.0],[134.26189,-11.98504,0.0],[134.26205,-11.99798,4.4514],[134.25782,-12.0167,3.457],[134.24684,-12.02695,0.0],[134.21079,-12.05218,0.0],[134.19996,-12.07562,9.5998],[134.19288,-12.07871,0.0],[134.1858,-12.07643,0.0],[134.18263,-12.06813,0.0],[134.18385,-12.05877,0.0],[134.18849,-12.04811,0.0],[134.18946,-12.04079,0.0],[134.18971,-12.01824,0.0],[134.18775,-12.00872,0.0],[134.18263,-11.99619,0.0],[134.17774,-11.98943,0.0],[134.17172,-11.98333,0.0],[134.16782,-11.97666,0.0],[134.16896,-11.96819,6.1635],[134.17465,-11.96429,0.0],[134.19207,-11.96331,0.0],[134.1963,-11.96201,0.0],[134.19508,-11.94769,0.0],[134.18279,-11.94166,0.0],[134.1683,-11.93816,0.0],[134.16163,-11.93092,0.0],[134.1587,-11.92116,0.0],[134.1443,-11.8869,0.0],[134.13795,-11.87949,0.0],[134.13217,-11.88641,0.0],[134.08709,-11.92791,3.1177],[134.08318,-11.91806,0.0],[134.08351,-11.90993,0.0],[134.0857,-11.90146,0.0],[134.08709,-11.88991,0.0],[134.08481,-11.88201,0.0],[134.08025,-11.87737,0.0],[134.07553,-11.87379,0.0],[134.07342,-11.86924,0.0],[134.06837,-11.85442,0.0],[134.056,-11.84482,0.0],[134.04038,-11.84157,0.0],[134.02565,-11.84588,0.0],[134.01808,-11.85613,0.0],[134.01368,-11.86956,5.8038],[134.0075,-11.88128,3.8448],[133.98487,-11.88934,0.0],[133.94313,-11.91367,0.7652],[133.89129,-11.88763,0.0],[133.84376,-11.85524,0.0],[133.83416,-11.83148,1.3155],[133.84636,-11.80682,0.0],[133.87013,-11.79225,8.1017],[133.89527,-11.79811,8.2852],[133.90138,-11.78493,5.7364],[133.90895,-11.77386,1.2101],[133.91896,-11.76629,2.9037],[133.93287,-11.76336,0.0],[133.93898,-11.75791,0.0],[133.93328,-11.74521,0.0],[133.91578,-11.72234,0.0],[133.90162,-11.73886,0.0],[133.88526,-11.73943,0.0],[133.86793,-11.73333,0.0],[133.8506,-11.72918,0.0],[133.84596,-11.72698,0.0],[133.8423,-11.7221,0.0],[133.83758,-11.71722,0.0],[133.82984,-11.71494,0.0],[133.8025,-11.71494,0.0],[133.76515,-11.75897,0.0],[133.75123,-11.7702,0.0],[133.73455,-11.77549,0.0],[133.71656,-11.77752,0.0],[133.69899,-11.77597,0.0],[133.68238,-11.7702,0.0],[133.6701,-11.80885,0.8185],[133.66188,-11.81862,0.3191],[133.65528,-11.82138,0.0],[133.63787,-11.82399,0.0],[133.62208,-11.83327,0.0],[133.61549,-11.82985,0.0],[133.6067,-11.81862,0.0309],[133.60385,-11.81406,4.9488],[133.60328,-11.80722,0.0],[133.60027,-11.80096,0.0],[133.58985,-11.79811,0.0],[133.58351,-11.7999,0.0],[133.55836,-11.81121,0.0],[133.55006,-11.8235,0.0],[133.53956,-11.85312,6.2472],[133.53207,-11.86582,2.2887],[133.52467,-11.85833,0.0],[133.53395,-11.83416,0.0],[133.542,-11.7999,0.0],[133.54322,-11.76735,0.0],[133.53207,-11.74912,0.0],[133.5232,-11.76279,0.0],[133.50685,-11.77109,0.0],[133.49138,-11.77646,0.0],[133.48439,-11.78069,1.4918],[133.47853,-11.79079,2.0387],[133.46485,-11.78582,0.0],[133.4393,-11.7702,0.0],[133.42123,-11.77109,0.0],[133.41196,-11.7702,0.0],[133.40528,-11.76678,0.0],[133.40414,-11.76002,0.0],[133.41082,-11.75416,0.0],[133.41896,-11.74863,0.0],[133.42221,-11.74285,0.0],[133.41619,-11.7278,0.0],[133.40724,-11.72381,0.0],[133.39731,-11.72747,0.0],[133.38819,-11.73602,0.0],[133.37664,-11.75302,0.0],[133.37241,-11.761,1.8986],[133.36508,-11.76336,0.0],[133.34376,-11.76336,0.0],[133.32374,-11.75945,0.0],[133.31577,-11.74912,0.0],[133.31837,-11.73463,0.0],[133.32944,-11.71868,0.3729],[133.34295,-11.71111,11.7276],[133.3589,-11.70436,0.0],[133.36443,-11.69736,0.0],[133.34669,-11.68825,0.0],[133.33465,-11.68768,0.0],[133.30812,-11.69199,0.0],[133.292,-11.68825,0.0],[133.28289,-11.72088,12.3806],[133.26124,-11.72959,3.632],[133.20631,-11.72234,0.0],[133.18507,-11.71705,0.0],[133.16676,-11.70436,0.0],[133.15187,-11.68873,0.0],[133.14112,-11.67457,0.0],[133.09946,-11.5971,0.0],[133.07423,-11.56097,0.0],[133.07374,-11.54778,0.0],[133.07911,-11.51971,0.0],[133.07602,-11.50994,0.0],[133.06861,-11.50433,0.0],[133.05958,-11.50026,0.0],[133.05177,-11.49521,0.0],[133.04493,-11.49521,0.0],[133.0324,-11.46689,0.0],[133.01108,-11.43279,0.0],[132.98552,-11.40423,0.0],[132.95981,-11.39219,0.0],[132.95574,-11.38747,0.0],[132.94313,-11.36175,0.0],[132.94093,-11.35394,0.0],[132.93556,-11.35019,0.0],[132.92872,-11.34808,0.0],[132.92205,-11.34498,23.3574],[132.91717,-11.33929,30.4365],[132.91529,-11.33473,27.5439],[132.91098,-11.3318,0.0],[132.88722,-11.32887,0.0],[132.87916,-11.32635,0.0],[132.87289,-11.32789,0.0],[132.86744,-11.33815,4.0695],[132.89194,-11.35849,4.1653],[132.89894,-11.37184,13.0683],[132.90162,-11.39593,0.0],[132.89487,-11.41888,0.0],[132.87818,-11.41351,0.0],[132.85597,-11.40032,0.0],[132.83326,-11.39967,0.0],[132.8318,-11.40439,7.8073],[132.83351,-11.41139,15.1111],[132.83399,-11.4179,15.4537],[132.8296,-11.42067,6.683],[132.82635,-11.4223,4.1668],[132.81275,-11.43434,0.0],[132.80502,-11.43776,0.0],[132.79575,-11.44012,0.0],[132.7881,-11.44362,0.0],[132.77752,-11.47226,7.4182],[132.75953,-11.49236,3.4217],[132.73699,-11.50823,0.0],[132.71599,-11.51629,0.0],[132.67416,-11.5084,0.0],[132.65008,-11.47666,0.0],[132.63315,-11.43727,5.78],[132.61354,-11.40643,0.0],[132.56918,-11.37542,3.1271],[132.5608,-11.35622,0.0],[132.55519,-11.34824,0.0],[132.54322,-11.33489,0.0],[132.53785,-11.33074,0.0],[132.53582,-11.3327,0.0],[132.53004,-11.33636,0.0],[132.52312,-11.33904,0.0],[132.51734,-11.33815,0.0],[132.51238,-11.33034,0.7351],[132.51303,-11.32204,0.0],[132.51734,-11.3108,0.0],[132.50196,-11.2737,6.6666],[132.47495,-11.23414,0.0],[132.44508,-11.2125,0.0],[132.42115,-11.22894,10.6186],[132.41147,-11.26588,0.0],[132.40398,-11.28314,0.8287],[132.39096,-11.29046,0.0],[132.37794,-11.28314,0.0],[132.38689,-11.24578,0.0],[132.38071,-11.22894,9.9177],[132.38347,-11.2234,0.0],[132.38445,-11.21917,0.0],[132.38347,-11.21445,0.0],[132.34995,-11.14625,3.1953]]],
[[[133.0171,-11.07407,0.0],[133.01417,-11.07407,0.0],[133.01596,-11.07659,0.0],[133.0171,-11.07407,0.0]]],
[[[133.00359,-11.08717,12.5295],[133.0079,-11.07903,1.7596],[133.01165,-11.0722,0.8153],[133.00994,-11.06699,2.4815],[133.00172,-11.06406,2.7636],[132.98878,-11.06024,7.0257],[132.97446,-11.05088,0.0],[132.98406,-11.06552,0.0],[132.98666,-11.08001,0.0],[132.99488,-11.09344,0.0],[133.00359,-11.08717,12.5295]]],
[[[136.76246,-11.0193,0.0],[136.75603,-11.02679,1.3182],[136.75229,-11.0372,9.3091],[136.74887,-11.03541,7.5732],[136.74562,-11.03436,11.2662],[136.74244,-11.03281,11.5211],[136.73862,-11.02972,0.0],[136.71867,-11.05084,4.0461],[136.73478,-11.06423,0.0],[136.73104,-11.07924,0.0],[136.72291,-11.08636,0.0],[136.71127,-11.09658,8.074],[136.70987,-11.12056,0.0],[136.70004,-11.14009,0.0],[136.68803,-11.1776,0.0],[136.65387,-11.18645,8.3792],[136.61671,-11.2361,0.0],[136.58565,-11.28495,0.0],[136.57888,-11.3037,0.0],[136.58033,-11.32741,5.2834],[136.56373,-11.34588,0.0],[136.56056,-11.35491,5.6088],[136.52961,-11.37656,0.0],[136.49764,-11.39842,1.3518],[136.48244,-11.41272,0.0],[136.50005,-11.42237,0.0],[136.49477,-11.43513,0.0],[136.47802,-11.44793,3.5027],[136.4941,-11.45535,13.2861],[136.50929,-11.4373,16.7572],[136.51615,-11.43428,0.0],[136.52229,-11.43949,0.0],[136.52461,-11.44696,0.0],[136.53529,-11.44317,0.0],[136.54286,-11.42966,0.0],[136.58995,-11.37776,0.0],[136.61187,-11.33423,63.5819],[136.62713,-11.33025,0.0],[136.63911,-11.28617,0.0],[136.66874,-11.25605,0.0],[136.68002,-11.22302,0.0],[136.7024,-11.21136,0.0],[136.7046,-11.2116,0.0],[136.70818,-11.20957,0.0],[136.71648,-11.20623,0.0],[136.72009,-11.17443,0.0],[136.73364,-11.13765,0.0],[136.74715,-11.09338,0.0],[136.76369,-11.04007,0.2131],[136.76246,-11.0193,0.0]]],
[[[132.82602,-10.96941,0.0],[132.82163,-10.97454,1.8794],[132.81446,-10.97218,0.0],[132.81634,-10.97942,0.0],[132.81918,-10.98374,0.0],[132.81918,-10.99179,0.0],[132.82228,-11.00246,0.0],[132.8226,-11.00156,0.0],[132.82512,-10.99253,7.7659],[132.82537,-10.98406,2.2647],[132.82651,-10.97641,1.8268],[132.82602,-10.96941,0.0]]],
[[[132.58627,-11.03924,0.0],[132.58139,-11.02565,16.034],[132.57936,-11.01263,13.9368],[132.58229,-10.99969,0.0],[132.59547,-10.98162,0.0],[132.59929,-10.96836,0.0],[132.57887,-10.97015,0.0],[132.56666,-10.98211,2.8061],[132.56056,-11.00018,8.146],[132.55893,-11.01979,0.0],[132.55128,-11.0324,0.0],[132.53468,-11.03777,0.0],[132.51808,-11.04079,0.0],[132.51051,-11.04705,0.0],[132.50115,-11.03997,0.0],[132.48243,-11.03216,0.0],[132.46811,-11.02996,0.0],[132.47267,-11.04022,5.9784],[132.48024,-11.05104,7.9089],[132.48707,-11.06357,14.322],[132.49537,-11.07391,6.0236],[132.50709,-11.07822,4.4338],[132.51149,-11.08685,0.2329],[132.51791,-11.12721,3.5536],[132.51734,-11.13958,1.0218],[132.511,-11.14463,0.541],[132.50196,-11.14691,0.0],[132.49383,-11.15065,0.0],[132.48943,-11.16009,11.9642],[132.49301,-11.16692,6.9672],[132.53452,-11.21893,17.8786],[132.54998,-11.24627,15.2373],[132.56088,-11.27679,34.5387],[132.5652,-11.3108,5.9988],[132.59929,-11.34498,0.0],[132.60076,-11.31569,0.0],[132.62184,-11.27207,0.0],[132.62721,-11.24603,0.0],[132.62143,-11.21771,0.0],[132.61256,-11.19899,0.0],[132.61256,-11.18572,11.9505],[132.63404,-11.17376,0.0],[132.61842,-11.16155,0.0],[132.59693,-11.15879,0.0],[132.58204,-11.15342,0.0],[132.5857,-11.13275,19.4025],[132.59449,-11.12461,7.548],[132.60369,-11.12461,3.9915],[132.61061,-11.12274,0.0],[132.61354,-11.10882,0.0],[132.61134,-11.0984,0.0],[132.60621,-11.08554,0.0],[132.59946,-11.07301,0.0],[132.59303,-11.0639,0.0],[132.59929,-11.0639,0.0],[132.58627,-11.03924,0.0]]]]}}