{"type": "Feature","bbox": [128.30994184110949,-22.687118228219987,129.2466084936425,-21.982704871993889],"geometry": {"type": "Polygon","coordinates": [[[128.7485443905357,-22.672694385990525,361.2382],[128.87835897060074,-22.687118228219987,360.3506],[128.8910166280674,-22.682702766313014,360.1956],[128.89837573124572,-22.669456380592067,360.2747],[128.90602919855115,-22.644729793913029,361.6063],[128.91603757887361,-22.622358120251022,360.5806],[128.93046142110308,-22.603224451987444,360.3682],[128.94900636111237,-22.58703442499521,360.3158],[128.9710836706472,-22.573199311020034,360.6043],[128.99787080621621,-22.564368387206059,363.4062],[129.05203380560846,-22.559952925299086,360.4546],[129.0785265770503,-22.554065642756456,361.7291],[129.10295879960222,-22.538758708145622,362.4844],[129.10737426150916,-22.52109686051773,360.7102],[129.09530533229679,-22.481357703354945,361.851],[129.09442223991539,-22.456631116675879,360.5824],[129.10060388658519,-22.432493258251071,360.8617],[129.11473336468748,-22.415420138877437,360.6798],[129.13769376660377,-22.411887769351864,361.813],[129.15005705994326,-22.418069416021638,364.0105],[129.17596110313087,-22.438969269047988,364.7975],[129.18744130408902,-22.441912910319303,364.9726],[129.19450604314017,-22.43749744841233,362.1746],[129.19538913552157,-22.431315801742556,362.8452],[129.19480040726728,-22.424839790945668,362.9915],[129.19715532028437,-22.419246872530152,363.1807],[129.22217627109052,-22.399524476012346,359.5],[129.23365647204866,-22.394225921723972,362.3827],[129.2430761241169,-22.392459736961172,364.4142],[129.2466084936425,-22.386866818545684,365.8109],[129.23924939046418,-22.370088063299164,364.1057],[129.23159592315875,-22.362140231866618,364.575],[129.21864390156497,-22.353309308052673,364.3598],[129.19450604314017,-22.340357286458868,365.8573],[129.16919072820684,-22.335941824551895,366.8006],[129.1150277288146,-22.336824916933296,363.5748],[129.09000677800844,-22.329760177882122,362.0878],[129.07175620212627,-22.313275786762745,361.87],[129.06498582720224,-22.294142118499195,362.5855],[129.06233655005803,-22.272653537218588,363.3053],[129.055566175134,-22.24851567879378,362.9119],[129.04526343068443,-22.232914380055803,361.276],[129.03554941448908,-22.222317271479085,364.6896],[129.03083958845497,-22.212014527029453,364.4821],[129.03643250687048,-22.196707592418619,361.0579],[129.04820707195574,-22.184933027333358,362.7659],[129.097954609441,-22.151669880967461,362.0429],[129.11237845167045,-22.135185489848112,361.8514],[129.1185600983402,-22.121350375872908,365.1675],[129.12062064723011,-22.084554859981438,361.1722],[129.19803841266577,-22.066304284099289,362.358],[129.22394245585332,-22.048348072344254,362.248],[129.20716370060683,-22.022149665029531,364.6616],[129.18832439647042,-22.013907469469842,368.9316],[129.16742454344404,-22.010963828198527,361.8418],[129.12503610913711,-22.009492007562869,363.7812],[129.10590244087354,-22.006254002164439,362.649],[129.09295041927976,-22.00036671962178,362.0329],[129.06380837069372,-21.982704871993889,363.164],[129.03702123512471,-22.001249812003181,362.4428],[128.93693743189993,-22.035101686623335,370.9034],[128.9301670569759,-22.092502691414012,363.6081],[128.88660116616046,-22.147548783187631,373.3263],[128.70203485844888,-22.293259026117795,368.2047],[128.58929339775744,-22.323578531212377,369.9749],[128.56427244695124,-22.326227808356549,369.9885],[128.52365019740711,-22.314158879144145,373.041],[128.49627433358387,-22.325639080102292,371.8524],[128.47184211103189,-22.345067112492984,367.5994],[128.45918445356523,-22.364200780756534,365.2185],[128.45800699705671,-22.376564074096081,369.0663],[128.46183373070943,-22.395992106486744,368.2778],[128.4621280948366,-22.406883579190634,366.4886],[128.4550633557854,-22.429549616979756,371.0698],[128.43916769292031,-22.450155105878991,366.8541],[128.4167960192583,-22.462812763345653,370.0767],[128.39030324781646,-22.46163530683711,374.3863],[128.36940339479008,-22.443384730954961,382.5826],[128.36322174812034,-22.39981884013946,364.4426],[128.34614862874668,-22.395109014105373,379.3016],[128.31847840079632,-22.409238492207692,378.5546],[128.30994184110949,-22.4316101658697,378.8021],[128.31317984650792,-22.457808573184423,363.8932],[128.32936987350018,-22.508144838923926,373.9744],[128.33172478651727,-22.529633420204533,369.1584],[128.32760368873738,-22.550533273230883,364.555],[128.315534759525,-22.573493675147148,364.4099],[128.37646813384129,-22.604107544368844,362.814],[128.45388589927688,-22.622652484378136,380.0616],[128.6249114571404,-22.641786152641714,362.123],[128.67259844573573,-22.658859272015349,361.936],[128.7485443905357,-22.672694385990525,361.2382]]]}
,"properties": {"featurecla": "Alkaline Lake","scalerank": 3,"name": "Lake Mackay","name_abb": "L. Mackay","name_alt": "Wilkinkarra","note": null,"delta": null,"dam_name": null,"year": -99,"admin": null,"min_zoom": 3.0,"min_label": 4.0,"area_km2": 3594.379,"hist_schema_id": "Elevation0-9000","hist_area_km2": {"350": 2703.742,"375": 889.54,"400": 1.098}}}