{"type":"Feature","properties":{"GID_2":"AUS.10.69_1","GID_0":"AUS","country":"Australia","GID_1":"AUS.10_1","state":"Victoria","NL_NAME_1":"NA","county":"UnincorporatedVictoria","VARNAME_2":"NA","NL_NAME_2":"NA","TYPE_2":"UnincorporatedArea","ENGTYPE_2":"UnincorporatedArea","CC_2":"29399","HASC_2":"NA","name":"UnincorporatedVictoria.county"},
"geometry":{"type": "MultiPolygon","coordinates": [[[[146.2392,-39.1136,0.0],[146.2371,-39.1118,6.8092],[146.234,-39.1158,0.0],[146.2371,-39.1178,15.0035],[146.2392,-39.1136,0.0]]],
[[[146.2378,-39.1022,6.194],[146.2357,-39.1015,0.0],[146.2355,-39.1048,0.0],[146.2383,-39.11,0.0],[146.2413,-39.108,0.0],[146.2385,-39.1057,25.0416],[146.2378,-39.1022,6.194]]],
[[[146.2253,-39.0721,9.8584],[146.2232,-39.0709,0.9926],[146.2211,-39.0727,0.0],[146.2247,-39.0803,28.409],[146.2249,-39.0852,9.7724],[146.2313,-39.0869,24.684],[146.2344,-39.0937,0.0],[146.2339,-39.0957,0.0],[146.2367,-39.0979,7.9824],[146.2414,-39.0888,0.0],[146.2357,-39.0861,7.8566],[146.234,-39.0836,10.1209],[146.2311,-39.0852,10.2348],[146.2277,-39.0802,33.3988],[146.2253,-39.0721,9.8584]]],
[[[146.2333,-38.9673,0.0],[146.2306,-38.966,0.0],[146.224,-38.9667,10.1388],[146.2236,-38.9718,0.0],[146.2335,-38.9685,0.0],[146.2333,-38.9673,0.0]]],
[[[145.3483,-38.4215,0.0],[145.3479,-38.4215,0.0],[145.3479,-38.4217,0.0],[145.3483,-38.4217,0.0],[145.3483,-38.4215,0.0]]],
[[[142.0138,-38.4133,5.8051],[142.0127,-38.4116,8.4923],[142.0076,-38.4117,19.5102],[142.0004,-38.4132,26.721],[141.9935,-38.4174,0.0],[141.9961,-38.418,38.4186],[141.9978,-38.4219,38.276],[141.9962,-38.4236,14.7152],[141.9984,-38.4234,35.5363],[141.999,-38.4254,0.0],[142.0138,-38.4133,5.8051]]],
[[[145.3661,-38.4164,0.0],[145.3685,-38.4191,3.4737],[145.3721,-38.4176,0.7845],[145.3701,-38.4161,12.3174],[145.3688,-38.4113,5.3597],[145.3661,-38.4164,0.0]]],
[[[145.303,-38.2823,0.6461],[145.2911,-38.2833,0.7574],[145.2887,-38.2873,0.3133],[145.2891,-38.2937,1.2136],[145.2915,-38.2938,1.3403],[145.2873,-38.2962,1.008],[145.2865,-38.3028,1.3933],[145.29,-38.3029,1.4582],[145.2894,-38.3037,1.3835],[145.2867,-38.3034,1.3313],[145.286,-38.3056,1.3433],[145.2869,-38.3073,1.2614],[145.2917,-38.3079,1.1527],[145.2946,-38.3059,2.0174],[145.2964,-38.3057,4.081],[145.2976,-38.3093,2.2613],[145.2953,-38.3112,2.6698],[145.2953,-38.3102,2.6698],[145.2974,-38.3091,2.2613],[145.2964,-38.3079,1.6425],[145.296,-38.3058,2.0174],[145.2922,-38.3082,1.6502],[145.2883,-38.3081,1.2762],[145.2828,-38.3206,0.5268],[145.2812,-38.3365,0.0],[145.2735,-38.3577,0.0],[145.2735,-38.3644,0.0],[145.2772,-38.3731,0.6913],[145.2773,-38.3789,0.8222],[145.2746,-38.382,4.3115],[145.2711,-38.3829,0.0],[145.2758,-38.3851,1.393],[145.2767,-38.3917,1.6141],[145.2752,-38.3935,0.1912],[145.2743,-38.3982,1.6242],[145.2714,-38.4014,0.9791],[145.2656,-38.4028,0.0],[145.2697,-38.4033,1.6601],[145.2712,-38.4067,0.0],[145.2699,-38.4089,0.0],[145.2713,-38.4095,0.0],[145.2746,-38.409,0.0],[145.2764,-38.4061,0.7149],[145.2813,-38.4044,1.2652],[145.2781,-38.3967,1.378],[145.2754,-38.3949,0.5956],[145.2827,-38.3973,1.2267],[145.2871,-38.3956,8.5512],[145.3003,-38.3985,0.0],[145.3047,-38.4016,0.0],[145.3111,-38.4019,1.4322],[145.3174,-38.407,0.7205],[145.3198,-38.4129,5.3914],[145.3248,-38.411,2.9541],[145.3293,-38.4147,0.0],[145.3337,-38.4119,3.334],[145.3372,-38.4124,3.2044],[145.3426,-38.4145,6.0395],[145.3489,-38.4199,0.3778],[145.3526,-38.42,0.0],[145.3543,-38.4141,0.7771],[145.3584,-38.4119,1.5619],[145.3589,-38.4085,1.137],[145.3615,-38.4065,3.7036],[145.3711,-38.4038,0.7543],[145.3748,-38.4056,1.6055],[145.376,-38.4095,2.1689],[145.379,-38.4099,0.0],[145.38,-38.4071,19.708],[145.3859,-38.4067,2.5633],[145.3844,-38.3998,15.9644],[145.3924,-38.3965,1.2402],[145.3929,-38.3944,16.5842],[145.3897,-38.3895,0.3784],[145.3904,-38.3851,0.6177],[145.4061,-38.3728,7.634],[145.4145,-38.3701,4.1261],[145.4265,-38.3717,0.0],[145.4432,-38.3688,2.5741],[145.448,-38.3703,0.5068],[145.4518,-38.3676,17.0263],[145.459,-38.3661,11.1077],[145.4763,-38.3665,0.0],[145.4801,-38.3626,1.4034],[145.5,-38.3536,0.4039],[145.5026,-38.353,0.0],[145.5034,-38.3544,0.0],[145.5033,-38.3531,0.0],[145.4922,-38.3432,11.3908],[145.49,-38.3392,0.0],[145.4853,-38.339,13.0817],[145.4725,-38.3323,9.1007],[145.4663,-38.3257,1.7626],[145.465,-38.3189,1.4222],[145.4595,-38.3116,1.5468],[145.4524,-38.3069,2.029],[145.4256,-38.3082,2.1102],[145.4109,-38.3045,1.1942],[145.3805,-38.3136,1.816],[145.3722,-38.3142,1.634],[145.352,-38.3113,1.7093],[145.3475,-38.3102,1.5904],[145.3384,-38.3044,1.2183],[145.3304,-38.2924,0.6748],[145.3196,-38.29,1.694],[145.3143,-38.2859,0.2792],[145.3113,-38.2863,4.2183],[145.303,-38.2823,0.6461]]],
[[[146.2512,-37.8356,1359.6404],[146.2438,-37.8395,1162.0927],[146.2362,-37.855,839.4466],[146.233,-37.8476,810.8502],[146.2317,-37.8483,730.9717],[146.2356,-37.856,839.4466],[146.2381,-37.8554,849.6929],[146.2384,-37.8532,889.0244],[146.2415,-37.8506,934.0536],[146.2794,-37.8412,1508.824],[146.2774,-37.8372,1498.65],[146.2778,-37.8325,1485.0535],[146.2734,-37.8318,1503.4629],[146.2715,-37.8338,1506.0753],[146.2512,-37.8356,1359.6404]]],
[[[145.8372,-37.5316,978.3174],[145.8406,-37.5321,1037.9103],[145.8472,-37.528,1071.8949],[145.8576,-37.5321,1254.3434],[145.8638,-37.5322,1270.647],[145.8708,-37.5303,1215.5684],[145.8797,-37.5252,1367.0723],[145.8833,-37.5269,1381.5154],[145.8772,-37.5143,1333.6841],[145.8791,-37.5112,1346.052],[145.8839,-37.5143,1362.2136],[145.8853,-37.513,1371.7048],[145.8841,-37.5063,1405.1219],[145.8799,-37.5049,1406.923],[145.8777,-37.4992,1376.447],[145.8816,-37.4966,1283.4194],[145.8816,-37.4922,1386.163],[145.8729,-37.4937,1268.4733],[145.8718,-37.4985,1282.3712],[145.8729,-37.5025,1283.4391],[145.8752,-37.5026,1314.3734],[145.8762,-37.5078,1278.4159],[145.8707,-37.5134,1270.9822],[145.8733,-37.525,1210.9553],[145.869,-37.5274,1178.5973],[145.8625,-37.5181,1115.3276],[145.8582,-37.5171,1102.3438],[145.853,-37.5212,1107.8002],[145.8479,-37.5164,1055.1946],[145.846,-37.5191,1061.0845],[145.8473,-37.5238,1052.2908],[145.8435,-37.5259,948.3843],[145.8431,-37.5289,986.3847],[145.8395,-37.5292,982.1669],[145.8372,-37.5316,978.3174]]],
[[[146.2961,-39.1565,2.1051],[146.294,-39.1561,0.0],[146.2926,-39.1583,3.4576],[146.2949,-39.159,-2.8663],[146.2961,-39.1565,2.1051]]],
[[[146.2988,-39.155,0.0249],[146.2985,-39.1556,0.0249],[146.2995,-39.1546,0.0249],[146.2992,-39.1544,0.0],[146.2988,-39.155,0.0249]]],
[[[146.3104,-39.1514,33.2735],[146.3088,-39.15,1.5477],[146.3066,-39.1525,7.5832],[146.3107,-39.1581,5.8761],[146.3144,-39.1583,4.0867],[146.3154,-39.1566,3.582],[146.3128,-39.1554,4.0333],[146.3104,-39.1514,33.2735]]],
[[[146.3018,-39.154,0.0],[146.3027,-39.1543,0.0],[146.3029,-39.1539,0.0],[146.3022,-39.1532,0.0],[146.3018,-39.154,0.0]]],
[[[146.3161,-39.1365,33.8736],[146.3121,-39.1348,0.0],[146.3173,-39.1419,0.0],[146.3255,-39.1473,4.692],[146.3293,-39.1432,0.0],[146.3291,-39.1393,0.0],[146.3276,-39.1402,17.1449],[146.3247,-39.1383,16.2706],[146.3194,-39.1384,18.1308],[146.3161,-39.1365,33.8736]]],
[[[146.3639,-39.138,34.4598],[146.3571,-39.1377,0.0],[146.3562,-39.1389,6.3139],[146.3595,-39.1408,4.3776],[146.3681,-39.14,2.1486],[146.3639,-39.138,34.4598]]],
[[[146.5108,-38.9141,9.3878],[146.5139,-38.9126,15.4747],[146.513,-38.9084,3.2181],[146.5058,-38.9134,0.0],[146.5081,-38.9147,0.0],[146.5108,-38.9141,9.3878]]],
[[[146.3709,-38.8418,0.0],[146.3682,-38.8412,0.0],[146.3684,-38.8441,3.4182],[146.3707,-38.8438,0.0],[146.3709,-38.8418,0.0]]],
[[[146.3055,-39.1516,0.0],[146.3045,-39.1512,0.0],[146.3044,-39.1516,0.0],[146.305,-39.1519,0.0],[146.3055,-39.1516,0.0]]],
[[[146.2439,-39.1159,7.127],[146.2418,-39.1139,6.0777],[146.2399,-39.1147,9.1237],[146.2423,-39.1176,15.5896],[146.2439,-39.1159,7.127]]],
[[[146.2418,-39.0171,0.0],[146.2406,-39.0166,0.0],[146.2396,-39.0203,47.9798],[146.2364,-39.0222,0.0],[146.2425,-39.0245,18.4739],[146.2423,-39.0272,20.1261],[146.2383,-39.0285,0.0],[146.2408,-39.0296,0.0],[146.2439,-39.0285,11.6749],[146.2442,-39.0258,7.4349],[146.2462,-39.0244,4.5017],[146.2439,-39.0227,19.3292],[146.2418,-39.0171,0.0]]],
[[[146.2796,-38.7714,5.6473],[146.2777,-38.771,0.0],[146.2764,-38.7715,6.3549],[146.2785,-38.7728,5.6473],[146.2796,-38.7714,5.6473]]],
[[[146.3926,-38.807,0.0],[146.3932,-38.8075,2.3329],[146.3944,-38.8067,2.3329],[146.3932,-38.8064,2.3329],[146.3926,-38.807,0.0]]],
[[[146.4356,-37.1286,1254.0352],[146.4333,-37.1331,1365.1632],[146.4346,-37.1365,1442.114],[146.4179,-37.1391,1386.3508],[146.4141,-37.1465,1528.5496],[146.4196,-37.1546,1406.8101],[146.432,-37.1649,1432.0365],[146.4791,-37.1619,1527.8719],[146.4814,-37.1572,1367.1626],[146.4803,-37.1508,1362.2501],[146.4862,-37.1511,1338.9409],[146.4902,-37.1458,1368.4426],[146.4919,-37.1461,1410.1205],[146.4928,-37.1485,1324.5051],[146.4973,-37.1485,1343.7258],[146.5012,-37.1514,1281.6953],[146.5031,-37.1515,1317.2573],[146.5021,-37.1495,1354.2788],[146.5038,-37.1488,1354.2788],[146.5145,-37.1501,1318.283],[146.5124,-37.1465,1299.427],[146.5135,-37.1447,1327.5548],[146.5084,-37.1434,1361.863],[146.5106,-37.1416,1291.7325],[146.5068,-37.1392,1365.2775],[146.51,-37.1381,1339.7638],[146.5086,-37.1343,1390.9224],[146.5169,-37.1361,1348.3446],[146.5128,-37.1311,1381.3972],[146.522,-37.1317,1340.708],[146.5215,-37.1283,1349.7367],[146.5185,-37.1272,1396.192],[146.5187,-37.1245,1394.938],[146.5246,-37.123,1340.6821],[146.5295,-37.1248,1332.1912],[146.5314,-37.1237,1360.8826],[146.534,-37.1247,1341.7437],[146.5348,-37.123,1362.7874],[146.54,-37.1236,1344.2306],[146.5408,-37.1172,1363.6555],[146.5308,-37.1147,1406.6024],[146.5329,-37.1121,1391.6746],[146.5394,-37.1099,1304.8042],[146.5363,-37.1079,1394.6155],[146.5372,-37.1063,1291.7271],[146.5393,-37.1052,1350.033],[146.5427,-37.1063,1302.653],[146.5428,-37.1037,1375.2275],[146.547,-37.1033,1338.6824],[146.548,-37.1012,1309.017],[146.543,-37.0976,1334.6041],[146.5429,-37.0992,1343.5571],[146.54,-37.1004,1360.9882],[146.5361,-37.0991,1339.314],[146.5355,-37.1011,1361.3129],[146.5325,-37.1022,1320.2264],[146.5338,-37.1054,1360.7646],[146.5298,-37.1055,1328.3406],[146.5287,-37.1077,1395.3303],[146.5238,-37.1036,1342.2808],[146.5217,-37.1065,1407.1348],[146.5198,-37.105,1354.9661],[146.5145,-37.1071,1369.7795],[146.51,-37.1065,1329.8485],[146.5159,-37.1153,1350.9214],[146.5154,-37.1187,1375.2482],[146.5139,-37.1195,1352.6884],[146.5081,-37.1149,1362.3029],[146.5055,-37.1173,1372.8243],[146.5023,-37.1171,1377.3599],[146.5019,-37.1123,1400.4175],[146.4958,-37.1117,1399.6656],[146.4946,-37.1093,1338.3588],[146.4927,-37.1091,1385.8126],[146.4915,-37.1024,1369.0726],[146.4874,-37.1026,1341.2467],[146.482,-37.1059,1340.8455],[146.477,-37.1041,1354.3522],[146.4744,-37.1012,1340.4667],[146.4698,-37.1016,1386.3849],[146.466,-37.0997,1355.1823],[146.4642,-37.1017,1364.6854],[146.4649,-37.1052,1386.0923],[146.4669,-37.1063,1340.6816],[146.4656,-37.1106,1318.5864],[146.4588,-37.1131,1210.6237],[146.4569,-37.1111,1260.5345],[146.4539,-37.1118,1217.5061],[146.4476,-37.1087,1168.4482],[146.4441,-37.1048,1107.3401],[146.4413,-37.1073,1119.6459],[146.4362,-37.1084,1042.2675],[146.4324,-37.1074,1094.9558],[146.4256,-37.1006,981.7344],[146.4207,-37.1027,960.2468],[146.42,-37.1065,857.5707],[146.398,-37.1064,697.1879],[146.3959,-37.1093,660.8801],[146.3959,-37.111,666.9755],[146.4054,-37.1114,797.5751],[146.4108,-37.1139,806.0837],[146.4164,-37.1143,805.2749],[146.4171,-37.1164,925.5762],[146.4233,-37.1203,969.1784],[146.4271,-37.1201,989.0793],[146.428,-37.1163,1032.4097],[146.4394,-37.1192,1041.9127],[146.4378,-37.1275,1175.5208],[146.4356,-37.1286,1254.0352]]],
[[[147.1719,-37.0089,1299.1711],[147.1799,-37.0096,1550.338],[147.1899,-37.0134,1592.0402],[147.194,-37.0197,1612.6472],[147.197,-37.0224,1588.0627],[147.1981,-37.0217,1585.5225],[147.193,-37.0062,1477.7241],[147.1877,-36.9996,1480.0934],[147.188,-36.9966,1480.1378],[147.1832,-36.9953,1479.877],[147.1844,-36.991,1517.7836],[147.1894,-36.9909,1464.7029],[147.1915,-36.9879,1457.5029],[147.1873,-36.9835,1470.8228],[147.1774,-36.9818,1504.9235],[147.1751,-36.9831,1478.517],[147.1762,-36.9872,1470.9746],[147.1719,-36.987,1489.3612],[147.1671,-36.9909,1442.9937],[147.1618,-36.9721,1745.4713],[147.1501,-36.9581,1728.46],[147.1441,-36.9593,1603.5669],[147.1343,-36.9585,1437.4219],[147.134,-36.9621,1541.0994],[147.1309,-36.9633,1548.6024],[147.1326,-36.9643,1508.9357],[147.1278,-36.9654,1564.3853],[147.1255,-36.9702,1646.8768],[147.121,-36.9722,1668.3047],[147.0971,-37.0021,1572.1852],[147.0808,-37.0018,1491.8176],[147.0643,-36.9963,1312.5895],[147.0613,-36.9978,1457.272],[147.0625,-37.0049,1098.8905],[147.074,-37.0134,1459.3689],[147.0736,-37.0174,1440.7606],[147.1046,-37.0027,1610.6544],[147.1227,-36.9998,1603.7108],[147.1266,-36.9946,1335.0986],[147.1332,-36.9967,1281.8848],[147.1328,-36.9898,1374.3926],[147.1381,-36.9846,1617.8594],[147.1444,-36.9858,1775.7472],[147.1456,-36.989,1787.4211],[147.1441,-36.9969,1493.4263],[147.1399,-37.0042,1253.8823],[147.1526,-37.012,1191.6183],[147.1527,-37.0101,1224.0796],[147.1571,-37.0068,1305.0486],[147.1616,-37.0058,1439.0551],[147.1652,-37.006,1292.9509],[147.1662,-37.0102,1228.8662],[147.1719,-37.0089,1299.1711]]],
[[[147.2684,-36.8425,1227.5566],[147.2584,-36.8364,1234.7285],[147.2572,-36.8419,1222.5189],[147.2452,-36.8436,1259.1848],[147.2455,-36.8463,1237.0686],[147.2484,-36.849,1310.8086],[147.241,-36.8591,1394.1404],[147.2419,-36.8641,1399.1764],[147.2464,-36.8642,1439.2268],[147.2478,-36.8661,1487.4473],[147.2394,-36.8681,1543.8074],[147.2412,-36.871,1645.7538],[147.2402,-36.8715,1696.6414],[147.2367,-36.8684,1511.2759],[147.235,-36.8695,1469.6069],[147.2364,-36.871,1477.9973],[147.235,-36.8716,1523.1772],[147.245,-36.8834,1603.1621],[147.2624,-36.8832,1670.012],[147.2717,-36.8774,1626.078],[147.2838,-36.8787,1630.5621],[147.2925,-36.8714,1572.109],[147.2898,-36.8698,1589.168],[147.2906,-36.8657,1510.751],[147.288,-36.862,1504.8655],[147.2776,-36.859,1426.7214],[147.2738,-36.8464,1310.6285],[147.2713,-36.8461,1258.7603],[147.2684,-36.8425,1227.5566]]]]}}