{"type":"Feature","properties":{"GID_2":"AUS.9.27_1","GID_0":"AUS","country":"Australia","GID_1":"AUS.9_1","state":"Tasmania","NL_NAME_1":"NA","county":"Tasman","VARNAME_2":"NA","NL_NAME_2":"NA","TYPE_2":"Municipality","ENGTYPE_2":"Municipality","CC_2":"65210","HASC_2":"AU.TS.TA","name":"Tasman.county"},
"geometry":{"type": "MultiPolygon","coordinates": [[[[148.005,-43.2454,0.0],[148.0052,-43.2454,0.0],[148.0051,-43.2453,0.0],[148.0051,-43.2453,0.0],[148.005,-43.2454,0.0]]],
[[[148.011,-43.2201,0.0],[148.0118,-43.2204,0.0],[148.0119,-43.2199,0.0],[148.0115,-43.2198,0.0],[148.011,-43.2201,0.0]]],
[[[148.0042,-43.1451,0.0],[148.0039,-43.1453,0.0],[148.004,-43.1454,0.0],[148.0044,-43.1454,0.0],[148.0042,-43.1451,0.0]]],
[[[148.0065,-43.1399,0.0],[148.0064,-43.1397,0.0],[148.0063,-43.1398,0.0],[148.0064,-43.14,0.0],[148.0065,-43.1399,0.0]]],
[[[148.0033,-43.2313,84.7928],[148.0005,-43.2316,38.95],[147.9974,-43.2355,5.3808],[147.9964,-43.2407,16.5422],[147.9989,-43.2434,149.9024],[147.9991,-43.2466,0.0],[147.9996,-43.2451,48.1444],[148.0074,-43.2438,0.0],[148.0085,-43.2413,0.0],[148.0087,-43.2343,0.0],[148.0033,-43.2313,84.7928]]],
[[[147.9837,-43.2246,0.0],[147.9838,-43.225,0.0],[147.9845,-43.2246,0.0],[147.9842,-43.2244,70.4409],[147.9837,-43.2246,0.0]]],
[[[147.9948,-43.2157,4.5421],[147.9951,-43.2161,4.5421],[147.9961,-43.2159,0.0],[147.9957,-43.2153,4.5421],[147.9948,-43.2157,4.5421]]],
[[[147.9816,-43.1123,0.0],[147.9814,-43.1123,0.0],[147.9818,-43.1124,0.0],[147.9818,-43.1123,0.0],[147.9816,-43.1123,0.0]]],
[[[148.0062,-43.139,10.096],[148.0075,-43.1392,26.448],[148.0066,-43.137,9.1541],[148.0051,-43.1379,0.0],[148.0062,-43.139,10.096]]],
[[[148.0084,-43.1384,0.0],[148.0099,-43.1378,32.1873],[148.0083,-43.1354,0.0],[148.0067,-43.1368,9.1541],[148.0084,-43.1384,0.0]]],
[[[148.009,-43.135,0.0],[148.0088,-43.1352,0.0],[148.0093,-43.1354,0.0],[148.0093,-43.1351,0.0],[148.009,-43.135,0.0]]],
[[[148.057,-43.1227,0.0],[148.0567,-43.1227,0.0],[148.0565,-43.1228,0.0],[148.0568,-43.1228,0.0],[148.057,-43.1227,0.0]]],
[[[148.0528,-43.1229,0.0],[148.0545,-43.123,0.0],[148.0544,-43.122,0.0],[148.0513,-43.1206,0.0],[148.0512,-43.1214,0.0],[148.0528,-43.1229,0.0]]],
[[[148.0389,-43.1203,0.0],[148.0388,-43.1203,0.0],[148.0386,-43.1206,0.0],[148.0389,-43.1206,0.0],[148.0389,-43.1203,0.0]]],
[[[148.0382,-43.1196,0.0],[148.0384,-43.12,0.0],[148.0388,-43.1199,0.0],[148.0386,-43.1196,0.0],[148.0382,-43.1196,0.0]]],
[[[148.0055,-42.9596,0.0],[148.0058,-42.9596,0.0],[148.0058,-42.9592,0.0],[148.0052,-42.9593,0.0],[148.0055,-42.9596,0.0]]],
[[[147.9811,-43.1122,0.0],[147.9809,-43.1116,0.0],[147.9801,-43.1117,0.0],[147.9802,-43.1119,0.0],[147.9811,-43.1122,0.0]]],
[[[147.9841,-43.1067,0.0],[147.9821,-43.1068,0.0],[147.9823,-43.107,0.0],[147.9845,-43.1068,0.0],[147.9841,-43.1067,0.0]]],
[[[147.9878,-42.9728,0.0],[147.9881,-42.9731,7.975],[147.9883,-42.9731,7.975],[147.9881,-42.9725,0.0],[147.9878,-42.9728,0.0]]],
[[[148.0034,-42.96,0.0],[148.0034,-42.9606,0.0],[148.0038,-42.9607,0.0],[148.004,-42.9601,0.0],[148.0034,-42.96,0.0]]],
[[[147.9538,-43.0011,3.4663],[147.9536,-43.0012,3.4663],[147.9537,-43.0014,0.0],[147.9539,-43.0012,3.4663],[147.9538,-43.0011,3.4663]]],
[[[147.9594,-42.9913,0.0],[147.9592,-42.9912,0.0],[147.959,-42.9913,0.0],[147.959,-42.9914,0.0],[147.9594,-42.9913,0.0]]],
[[[147.9603,-42.9872,43.1402],[147.9604,-42.9872,43.1402],[147.9604,-42.9871,43.1402],[147.9602,-42.9871,43.1402],[147.9603,-42.9872,43.1402]]],
[[[148.0003,-42.9602,0.0],[148.0011,-42.9602,0.0],[147.9992,-42.9599,0.0],[147.9998,-42.9603,0.0],[148.0003,-42.9602,0.0]]],
[[[148.002,-42.9598,0.0],[148.0017,-42.9599,0.0],[148.0019,-42.9602,0.0],[148.0023,-42.9599,0.0],[148.002,-42.9598,0.0]]],
[[[147.9776,-42.883,0.0],[147.9786,-42.8829,0.0986],[147.979,-42.882,0.0986],[147.9777,-42.8822,0.0986],[147.9776,-42.883,0.0]]],
[[[147.9734,-42.8828,8.0702],[147.9738,-42.8815,8.0702],[147.9729,-42.8812,0.0],[147.9724,-42.8822,0.0],[147.9734,-42.8828,8.0702]]],
[[[147.9745,-42.8811,0.0],[147.974,-42.8828,8.0702],[147.9772,-42.8829,5.5518],[147.9775,-42.8811,0.0],[147.9745,-42.8811,0.0]]],
[[[147.9757,-42.8567,0.2088],[147.9766,-42.8566,0.2088],[147.9767,-42.8564,0.2088],[147.9758,-42.8563,0.2088],[147.9757,-42.8567,0.2088]]],
[[[147.9769,-42.8557,1.6004],[147.9751,-42.8545,0.0],[147.974,-42.8566,0.0],[147.975,-42.8567,0.0],[147.9769,-42.8557,1.6004]]],
[[[147.9654,-43.2176,3.1386],[147.9659,-43.2179,3.1386],[147.966,-43.2173,3.1386],[147.9654,-43.2172,3.1386],[147.9654,-43.2176,3.1386]]],
[[[147.9482,-43.2158,0.0],[147.9483,-43.2162,0.0],[147.9486,-43.2163,0.0],[147.9485,-43.2155,0.0],[147.9482,-43.2158,0.0]]],
[[[147.9464,-43.2137,0.0],[147.9459,-43.2142,0.0],[147.9461,-43.2146,0.0],[147.9473,-43.2136,22.476],[147.9464,-43.2137,0.0]]],
[[[147.8945,-43.1896,0.0],[147.8946,-43.1896,0.0],[147.8946,-43.1895,0.0],[147.8945,-43.1896,0.0],[147.8945,-43.1896,0.0]]],
[[[147.7935,-43.2386,0.0],[147.7938,-43.2391,0.0],[147.7943,-43.2391,0.0],[147.7939,-43.2385,0.0],[147.7935,-43.2386,0.0]]],
[[[147.8598,-43.2121,0.0],[147.8595,-43.2125,0.0],[147.8596,-43.213,0.0],[147.8598,-43.2122,0.0],[147.8598,-43.2121,0.0]]],
[[[147.871,-43.1618,0.0],[147.8712,-43.1619,0.0],[147.8712,-43.1616,0.0],[147.8711,-43.1615,0.0],[147.871,-43.1618,0.0]]],
[[[147.8713,-43.1595,0.0],[147.8712,-43.1593,0.0],[147.8711,-43.1594,0.0],[147.8711,-43.1595,0.0],[147.8713,-43.1595,0.0]]],
[[[147.9711,-43.1003,8.0528],[147.9714,-43.1008,0.0],[147.972,-43.1005,0.0],[147.9714,-43.0999,0.0],[147.9711,-43.1003,8.0528]]],
[[[147.9664,-43.0847,5.3809],[147.9665,-43.0853,5.3809],[147.9671,-43.0847,5.3809],[147.9668,-43.0845,2.2806],[147.9664,-43.0847,5.3809]]],
[[[147.9605,-43.0759,0.0],[147.9597,-43.0755,0.0],[147.9596,-43.0764,0.0],[147.9608,-43.0765,0.0],[147.9605,-43.0759,0.0]]],
[[[147.9605,-43.0754,0.0],[147.9603,-43.0756,0.0],[147.9606,-43.0757,0.0],[147.9606,-43.0757,0.0],[147.9605,-43.0754,0.0]]],
[[[147.9481,-43.0325,5.6275],[147.9466,-43.0313,5.6275],[147.9454,-43.0312,0.7712],[147.9469,-43.0332,3.0229],[147.9481,-43.0325,5.6275]]],
[[[147.9413,-43.0098,0.0],[147.9406,-43.0095,7.8871],[147.9404,-43.0098,0.0],[147.9411,-43.0102,0.0],[147.9413,-43.0098,0.0]]],
[[[147.9406,-43.0091,7.8871],[147.9403,-43.0094,0.0],[147.9415,-43.0094,7.8871],[147.9412,-43.0092,7.8871],[147.9406,-43.0091,7.8871]]],
[[[147.9421,-43.0095,7.8871],[147.9422,-43.0093,7.8871],[147.9413,-43.0092,7.8871],[147.9417,-43.0094,7.8871],[147.9421,-43.0095,7.8871]]],
[[[147.7801,-43.2364,0.0],[147.7799,-43.2368,0.0],[147.7798,-43.2372,0.0],[147.7804,-43.2369,0.0],[147.7801,-43.2364,0.0]]],
[[[147.78,-43.2252,0.0],[147.7795,-43.2257,0.0],[147.7795,-43.2258,0.0],[147.7807,-43.2252,0.0],[147.78,-43.2252,0.0]]],
[[[147.7818,-43.225,0.0],[147.7816,-43.2253,0.0],[147.7822,-43.2252,173.4996],[147.782,-43.225,173.4996],[147.7818,-43.225,0.0]]],
[[[147.7096,-43.1912,0.0],[147.7103,-43.1918,1.2208],[147.7106,-43.1919,1.2208],[147.7102,-43.1911,5.833],[147.7096,-43.1912,0.0]]],
[[[147.7049,-43.1796,0.0],[147.7049,-43.1801,0.0],[147.705,-43.1793,12.6369],[147.7048,-43.1793,12.6369],[147.7049,-43.1796,0.0]]],
[[[147.6957,-43.1551,0.0629],[147.6955,-43.155,0.0],[147.6955,-43.1553,0.0],[147.6956,-43.1554,0.0629],[147.6957,-43.1551,0.0629]]],
[[[147.6966,-43.155,0.0629],[147.6964,-43.1549,0.0629],[147.6961,-43.1551,0.0629],[147.6965,-43.1551,0.0629],[147.6966,-43.155,0.0629]]],
[[[147.6744,-43.1386,24.7206],[147.6754,-43.1343,0.7378],[147.6726,-43.1292,0.2248],[147.6691,-43.136,72.4029],[147.6705,-43.1404,12.4632],[147.6731,-43.1413,0.0],[147.6744,-43.1386,24.7206]]],
[[[147.7272,-43.1118,0.0],[147.7269,-43.1121,0.0],[147.7269,-43.1123,0.0],[147.7275,-43.1121,0.0],[147.7272,-43.1118,0.0]]],
[[[147.7267,-43.1107,0.2412],[147.7265,-43.1111,0.2412],[147.7275,-43.111,0.2412],[147.7269,-43.1107,0.2412],[147.7267,-43.1107,0.2412]]],
[[[147.7389,-43.1052,0.0],[147.7387,-43.1051,2.2546],[147.7389,-43.1055,0.0],[147.7389,-43.1054,0.0],[147.7389,-43.1052,0.0]]],
[[[147.6259,-43.0755,0.0],[147.6256,-43.076,0.0],[147.6262,-43.076,0.0],[147.6263,-43.0758,0.0],[147.6259,-43.0755,0.0]]],
[[[147.8668,-43.1493,0.0],[147.8673,-43.1498,0.0],[147.8681,-43.149,0.0],[147.8673,-43.1485,0.0],[147.8668,-43.1493,0.0]]],
[[[147.8181,-42.8954,2.929],[147.8153,-42.8995,4.8499],[147.8218,-42.9078,2.7367],[147.821,-42.912,0.0],[147.8229,-42.919,0.1392],[147.8178,-42.9268,12.8474],[147.8145,-42.9251,9.004],[147.8115,-42.9261,2.0449],[147.8133,-42.9279,11.67],[147.8126,-42.9308,0.0],[147.8148,-42.9317,0.0],[147.8134,-42.9365,1.6913],[147.8152,-42.938,0.0],[147.817,-42.9372,0.0],[147.8183,-42.9332,1.8935],[147.8216,-42.9319,4.3115],[147.8254,-42.9329,15.3469],[147.8268,-42.9365,0.0],[147.8333,-42.9347,4.0251],[147.8349,-42.939,0.0],[147.8343,-42.9428,0.0],[147.8301,-42.944,2.6748],[147.8295,-42.9467,6.3459],[147.8312,-42.9479,6.3459],[147.834,-42.9456,5.2752],[147.8371,-42.9478,14.0653],[147.848,-42.9431,0.0],[147.8507,-42.9391,14.8588],[147.8573,-42.9354,4.3243],[147.8597,-42.9378,1.3126],[147.858,-42.9401,0.0],[147.8613,-42.9401,3.3643],[147.8599,-42.9417,0.0],[147.8629,-42.943,4.9668],[147.8659,-42.9471,3.9952],[147.8542,-42.9457,1.4563],[147.8495,-42.9486,1.0986],[147.848,-42.9516,6.6029],[147.8546,-42.9582,8.2415],[147.8418,-42.9576,2.8535],[147.8308,-42.9652,6.2906],[147.8183,-42.9651,11.9763],[147.8173,-42.9622,0.0],[147.8113,-42.9623,12.2168],[147.8136,-42.9666,1.404],[147.819,-42.9698,0.0],[147.8226,-42.9761,1.2576],[147.8252,-42.9763,0.0],[147.8301,-42.9705,6.2205],[147.8324,-42.9706,5.1259],[147.8354,-42.9732,0.0],[147.8365,-42.9806,3.7189],[147.8516,-42.9834,0.0],[147.8568,-42.9825,13.1058],[147.8535,-42.9864,21.5237],[147.8492,-42.9877,0.0],[147.8491,-42.9896,17.0068],[147.8438,-42.9915,23.7012],[147.8379,-42.9916,16.9165],[147.8385,-42.9934,1.9662],[147.8411,-42.9933,0.0],[147.8429,-42.998,8.6701],[147.8382,-43.0026,1.1758],[147.8393,-43.004,0.0],[147.8451,-43.0043,19.9695],[147.8509,-43.0079,11.2716],[147.8468,-43.013,0.0],[147.8619,-43.0144,21.1529],[147.8702,-43.0109,25.1379],[147.8812,-43.0167,4.9921],[147.8916,-43.0193,7.1556],[147.9145,-43.0151,4.4075],[147.924,-43.0147,3.8363],[147.925,-43.0177,3.7322],[147.9082,-43.0192,0.0],[147.8966,-43.0229,2.8816],[147.8931,-43.0222,6.4754],[147.8806,-43.0249,17.157],[147.8724,-43.0234,8.7564],[147.8691,-43.0316,7.6793],[147.8631,-43.0356,4.9014],[147.8633,-43.0394,5.2164],[147.8656,-43.0414,4.279],[147.8645,-43.0538,11.7785],[147.86,-43.0574,2.0589],[147.8578,-43.0567,17.2031],[147.8597,-43.0538,15.1061],[147.8562,-43.049,0.0],[147.8582,-43.0451,0.0],[147.8572,-43.0426,3.8936],[147.8512,-43.0393,15.6806],[147.8499,-43.0358,0.0],[147.8436,-43.036,19.632],[147.8457,-43.0332,2.8071],[147.8454,-43.0307,0.0],[147.8415,-43.0309,0.0],[147.84,-43.0332,3.8281],[147.8415,-43.0348,0.0],[147.8407,-43.0376,4.2253],[147.8359,-43.041,12.4491],[147.8382,-43.0443,29.07],[147.8427,-43.0466,0.0],[147.8455,-43.0548,9.3356],[147.8395,-43.0609,0.0],[147.8344,-43.0586,9.7171],[147.8286,-43.0585,10.0224],[147.8266,-43.0552,0.0],[147.8204,-43.0569,7.0948],[147.8157,-43.0605,11.7255],[147.8124,-43.0604,11.4594],[147.8128,-43.0562,0.0],[147.808,-43.0546,16.0879],[147.8067,-43.0464,0.0],[147.8015,-43.0495,0.0],[147.7975,-43.049,7.0477],[147.7943,-43.0462,0.0],[147.7951,-43.0505,11.661],[147.7923,-43.0517,10.1469],[147.785,-43.0479,0.0],[147.7833,-43.0528,6.6145],[147.7807,-43.0521,4.035],[147.7795,-43.0488,0.0],[147.778,-43.0536,7.7602],[147.7739,-43.055,12.073],[147.7671,-43.0415,15.5567],[147.7668,-43.0327,0.0],[147.7629,-43.0342,0.0],[147.7625,-43.0354,0.0],[147.7639,-43.0356,7.2445],[147.7611,-43.0376,0.0],[147.759,-43.0441,0.489],[147.7494,-43.0434,5.398],[147.7463,-43.0384,21.4805],[147.7489,-43.0354,1.6692],[147.7442,-43.032,22.7754],[147.746,-43.0278,11.715],[147.7457,-43.0233,11.9081],[147.7417,-43.0193,10.106],[147.7424,-43.0176,5.6956],[147.7407,-43.0143,0.0],[147.7291,-43.0252,5.9344],[147.7262,-43.0268,2.8119],[147.7185,-43.028,3.4167],[147.7192,-43.0275,6.0566],[147.726,-43.0261,3.0438],[147.7277,-43.0251,0.1201],[147.7264,-43.0246,3.0438],[147.7269,-43.0187,1.5285],[147.7218,-43.0168,6.8105],[147.7212,-43.0141,2.3574],[147.723,-43.0129,0.0],[147.7201,-43.0116,16.1656],[147.7197,-43.009,0.5517],[147.7131,-43.0112,0.0],[147.7094,-43.0101,4.2052],[147.7076,-43.0067,4.4074],[147.7102,-42.9982,0.0],[147.7122,-42.9968,5.1798],[147.7146,-42.9975,0.0],[147.7141,-42.9915,0.0],[147.7174,-42.9906,2.3425],[147.7198,-42.9865,8.9084],[147.7236,-42.9861,1.5861],[147.723,-42.9821,0.0],[147.7265,-42.9794,0.0],[147.7252,-42.9768,3.9744],[147.7298,-42.971,23.6505],[147.7361,-42.9698,3.6397],[147.7293,-42.9672,14.7625],[147.7263,-42.9642,21.7925],[147.7313,-42.9571,0.0],[147.7291,-42.9569,17.4296],[147.726,-42.9495,0.0],[147.7208,-42.9499,27.2883],[147.7181,-42.9519,11.8335],[147.7145,-42.9514,7.3869],[147.7132,-42.9525,5.6739],[147.7138,-42.9556,6.1639],[147.7054,-42.9566,9.592],[147.6998,-42.9534,1.9249],[147.7012,-42.9488,17.1625],[147.6997,-42.9446,0.0],[147.6966,-42.9438,12.246],[147.6939,-42.9402,5.7486],[147.6828,-42.9375,16.9501],[147.679,-42.9346,23.9362],[147.6756,-42.9347,15.9143],[147.6661,-42.9386,2.6574],[147.6644,-42.9436,0.0],[147.6659,-42.948,0.0],[147.6712,-42.9513,2.182],[147.6757,-42.957,0.0],[147.6749,-42.9598,18.7057],[147.6695,-42.9616,18.2672],[147.6689,-42.9635,12.0149],[147.6766,-42.9673,1.4007],[147.6803,-42.9734,1.4417],[147.6852,-42.9747,0.5021],[147.6836,-42.9746,0.5021],[147.6846,-42.9815,0.0],[147.6807,-42.99,1.978],[147.6739,-42.9967,4.5947],[147.6675,-42.9999,17.0802],[147.6585,-42.997,31.4549],[147.6529,-42.9927,0.0],[147.6465,-42.9947,14.8019],[147.6407,-42.9936,10.8227],[147.6272,-42.9984,27.6417],[147.6222,-43.0023,5.7771],[147.6185,-43.0083,13.2595],[147.619,-43.0175,7.9706],[147.6216,-43.0181,25.0257],[147.6218,-43.0201,0.0],[147.6254,-43.0207,0.0],[147.6216,-43.0243,15.3673],[147.6256,-43.0295,30.6416],[147.623,-43.0312,0.0],[147.6225,-43.0357,0.0],[147.6283,-43.0404,45.6608],[147.6257,-43.0424,23.9769],[147.6274,-43.0443,7.9514],[147.6224,-43.0516,0.0],[147.6246,-43.053,8.0697],[147.6226,-43.0563,0.0],[147.6239,-43.0572,15.5805],[147.623,-43.0608,0.0],[147.6241,-43.0627,15.6767],[147.6227,-43.0651,0.0],[147.6239,-43.0679,10.8985],[147.6274,-43.0692,31.0744],[147.6269,-43.0733,4.0949],[147.6323,-43.0747,0.0],[147.6357,-43.0734,4.714],[147.6414,-43.0756,6.7691],[147.6463,-43.0815,1.0008],[147.6503,-43.0833,120.0266],[147.6507,-43.0894,42.6224],[147.6565,-43.0899,0.0],[147.6619,-43.0865,2.0085],[147.6649,-43.089,6.5575],[147.6695,-43.0872,2.4698],[147.6737,-43.0887,0.0],[147.6769,-43.0914,0.0],[147.6755,-43.095,2.8461],[147.6773,-43.098,0.0],[147.6797,-43.0968,11.3871],[147.6827,-43.0982,5.3713],[147.6843,-43.1024,10.6804],[147.6956,-43.0986,14.8443],[147.6988,-43.0992,14.3232],[147.7009,-43.0975,33.475],[147.7058,-43.0983,3.8197],[147.7085,-43.1025,13.2485],[147.7124,-43.1014,0.0],[147.7153,-43.0985,5.6325],[147.7189,-43.0987,3.0841],[147.7202,-43.0952,28.69],[147.7207,-43.0974,0.0],[147.7233,-43.0951,6.813],[147.7301,-43.0941,18.9059],[147.7328,-43.0911,7.931],[147.736,-43.0962,3.5892],[147.7408,-43.096,10.3042],[147.7415,-43.1041,3.9181],[147.7475,-43.112,19.3538],[147.7393,-43.1092,0.0],[147.7373,-43.1072,3.2145],[147.7383,-43.1049,2.2546],[147.7336,-43.1045,0.0],[147.7301,-43.1003,14.188],[147.7191,-43.103,12.9549],[147.7164,-43.1052,4.7955],[147.7177,-43.1073,2.4869],[147.7233,-43.1055,5.836],[147.7276,-43.1098,0.2412],[147.7341,-43.1108,1.9776],[147.7357,-43.1185,0.0],[147.7311,-43.1249,9.3265999999999991],[147.7263,-43.1263,27.9937],[147.7174,-43.1208,2.3605],[147.7034,-43.1221,0.0],[147.6985,-43.1268,8.5315],[147.6971,-43.1304,4.7838],[147.6932,-43.1324,0.0],[147.6903,-43.1376,3.3342],[147.6852,-43.1388,0.0],[147.6892,-43.1401,1.8372],[147.6908,-43.1433,0.0],[147.6982,-43.1457,3.1479],[147.6959,-43.1473,5.8214],[147.6982,-43.1508,8.1828],[147.6948,-43.1529,0.0],[147.6984,-43.155,17.4446],[147.6986,-43.1577,4.405],[147.7015,-43.1601,1.3186],[147.6946,-43.1672,0.0],[147.7011,-43.1748,4.5458],[147.7013,-43.177,0.0],[147.7078,-43.1797,0.0],[147.7112,-43.1779,42.2333],[147.7155,-43.1784,11.7691],[147.7157,-43.1839,11.2625],[147.7138,-43.1851,2.142],[147.7132,-43.1894,16.8412],[147.7108,-43.1903,5.833],[147.7123,-43.192,41.079],[147.7116,-43.1943,0.0],[147.7174,-43.1988,1.8963],[147.7201,-43.194,57.7579],[147.7221,-43.1933,2.8635],[147.7267,-43.1979,64.3984],[147.7341,-43.1987,54.0586],[147.7331,-43.1997,1.0757],[147.7343,-43.2006,1.0757],[147.746,-43.1976,24.4275],[147.7438,-43.2048,2.7184],[147.7507,-43.209,14.727],[147.7525,-43.2092,3.7508],[147.754,-43.2062,53.1949],[147.7618,-43.2063,0.0],[147.769,-43.211,62.5317],[147.7764,-43.2132,24.8735],[147.7825,-43.2205,119.5928],[147.7829,-43.2223,98.5426],[147.7814,-43.2232,0.0],[147.7828,-43.2241,146.0747],[147.7811,-43.233,0.0],[147.7843,-43.2346,25.6572],[147.7856,-43.238,0.0],[147.7895,-43.2352,10.516],[147.7997,-43.2424,0.0],[147.7975,-43.2392,98.6749],[147.8006,-43.2382,0.0],[147.799,-43.232,65.9212],[147.8007,-43.2302,0.0],[147.7984,-43.2244,158.4281],[147.7994,-43.223,41.2894],[147.7967,-43.2208,93.1771],[147.7985,-43.22,0.0],[147.7974,-43.2175,127.8487],[147.8005,-43.2186,0.0],[147.802,-43.2176,16.0728],[147.8019,-43.2164,16.0728],[147.8042,-43.2158,0.0],[147.8033,-43.2145,37.819],[147.8054,-43.2101,24.0993],[147.8078,-43.2083,50.2301],[147.8128,-43.2091,12.8398],[147.813,-43.207,1.9648],[147.8154,-43.2061,18.6697],[147.815,-43.204,98.4729],[147.8186,-43.2062,14.4121],[147.8201,-43.2045,0.0],[147.8192,-43.2018,0.0],[147.8225,-43.201,0.0],[147.822,-43.198,86.3248],[147.8304,-43.1993,41.9584],[147.8337,-43.1937,162.754],[147.8373,-43.196,27.8913],[147.8388,-43.1954,10.6521],[147.8382,-43.1914,6.5921],[147.8445,-43.1875,39.3413],[147.8485,-43.1898,14.8461],[147.8498,-43.1967,0.0],[147.8531,-43.1957,39.6843],[147.8528,-43.1975,29.7944],[147.8557,-43.2006,4.2706],[147.8594,-43.2012,19.849],[147.8609,-43.2082,0.0],[147.8629,-43.2036,92.7061],[147.8671,-43.2081,0.0],[147.8718,-43.2081,0.0],[147.8746,-43.2064,0.0],[147.8752,-43.2031,2.1848],[147.8673,-43.1997,39.5529],[147.8665,-43.1979,3.0506],[147.8707,-43.1929,21.3256],[147.8769,-43.195,0.0],[147.8762,-43.1917,20.7664],[147.872,-43.1902,12.0029],[147.8704,-43.1856,22.3534],[147.8656,-43.1828,0.0],[147.8601,-43.1864,14.5514],[147.8569,-43.1854,3.1018],[147.853,-43.1795,0.0],[147.8568,-43.1724,5.4236],[147.865,-43.1698,0.0],[147.8707,-43.1643,0.0],[147.8703,-43.1518,7.7349],[147.8685,-43.1509,0.0],[147.8648,-43.1595,3.502],[147.8658,-43.1612,2.8765],[147.8614,-43.1649,2.1752],[147.8545,-43.1623,0.0],[147.8553,-43.1594,0.0],[147.8456,-43.1543,19.9168],[147.8535,-43.1492,0.0],[147.851,-43.1482,14.8662],[147.8513,-43.147,2.7827],[147.8574,-43.1453,6.8464],[147.8601,-43.1425,0.0],[147.8567,-43.1423,3.9479],[147.8565,-43.1378,0.0],[147.8539,-43.1381,22.1389],[147.8557,-43.1348,1.56],[147.8604,-43.1349,0.0],[147.8625,-43.1376,26.6376],[147.8661,-43.1373,10.2348],[147.8609,-43.1302,8.2537],[147.8575,-43.1297,27.4144],[147.8566,-43.1272,0.0],[147.8504,-43.124,5.5542],[147.8547,-43.1216,2.4911],[147.858,-43.1244,1.264],[147.8576,-43.1217,8.4386],[147.8541,-43.1202,0.0],[147.8538,-43.1179,32.7047],[147.8599,-43.1129,10.7579],[147.8602,-43.1095,6.0185],[147.8633,-43.1079,4.7357],[147.8657,-43.1166,13.4282],[147.8638,-43.1215,3.5214],[147.8673,-43.1293,11.2392],[147.8715,-43.131,10.0266],[147.8832,-43.1228,23.5353],[147.8864,-43.1233,0.0],[147.8883,-43.1277,33.7519],[147.8874,-43.1307,54.6172],[147.8888,-43.1382,0.0],[147.8947,-43.1382,9.4145],[147.8882,-43.1427,12.8579],[147.8937,-43.1485,10.0619],[147.8934,-43.1534,4.7115],[147.8956,-43.1551,6.781],[147.8918,-43.1585,6.4268],[147.8937,-43.1638,16.8327],[147.8927,-43.1652,0.0],[147.8943,-43.1659,15.0967],[147.8935,-43.1706,7.1234],[147.8948,-43.1769,0.0],[147.8963,-43.1783,6.0884],[147.8945,-43.188,0.0],[147.8966,-43.191,0.0],[147.9069,-43.1878,106.5231],[147.9096,-43.1895,95.2462],[147.9165,-43.1896,5.8108],[147.924,-43.1936,69.5015],[147.9261,-43.197,7.9881],[147.9317,-43.1988,0.0],[147.9369,-43.195,13.9398],[147.9451,-43.1946,3.7374],[147.9503,-43.2068,36.2826],[147.9485,-43.2118,16.9403],[147.9462,-43.2129,0.0],[147.9483,-43.2135,22.476],[147.9495,-43.2157,34.441],[147.9538,-43.2152,129.3354],[147.9577,-43.2178,87.8618],[147.9597,-43.2163,36.6083],[147.9613,-43.2173,4.3467],[147.9626,-43.2155,112.8066],[147.9715,-43.2168,49.0258],[147.9721,-43.2198,0.0],[147.9753,-43.2211,0.0],[147.9781,-43.2188,196.2413],[147.9795,-43.2229,13.7243],[147.9837,-43.2218,197.2535],[147.9849,-43.2246,0.0],[147.9861,-43.2232,0.0],[147.9939,-43.222,50.5293],[148.0013,-43.2277,3.4776],[148.0036,-43.227,1.8913],[148.0034,-43.2258,65.6749],[148.0048,-43.2263,0.0],[148.0056,-43.2242,124.3778],[148.0073,-43.2252,0.0],[148.0078,-43.2228,206.0306],[148.0115,-43.2217,0.0],[148.0103,-43.2194,30.0443],[147.9998,-43.2187,0.0],[147.9927,-43.2156,32.8287],[147.987,-43.2117,62.7394],[147.9852,-43.2073,7.6363],[147.9727,-43.2031,165.8425],[147.9719,-43.2001,13.0659],[147.9669,-43.1973,175.539],[147.9635,-43.1913,85.8444],[147.9648,-43.1888,68.3536],[147.9636,-43.1853,28.7617],[147.9691,-43.1779,196.6915],[147.9796,-43.1683,0.0],[147.9832,-43.1561,173.072],[147.9856,-43.1562,0.0],[147.9861,-43.1539,22.2908],[147.9919,-43.154,0.0],[147.9911,-43.1524,159.6684],[147.9975,-43.1469,25.7736],[147.9967,-43.145,29.6685],[148.0019,-43.1458,0.7868],[148.0062,-43.1392,10.096],[148.0044,-43.1382,10.096],[148.0,-43.1406,26.4843],[147.9946,-43.1392,0.0],[147.9917,-43.1412,15.9147],[147.9827,-43.1357,0.0],[147.9723,-43.1348,19.3924],[147.9677,-43.1417,32.7392],[147.9634,-43.1427,2.7021],[147.9543,-43.1366,36.1608],[147.9554,-43.1334,9.7887],[147.9587,-43.1325,51.2264],[147.9599,-43.1305,0.0],[147.9569,-43.1273,1.6741],[147.9528,-43.1276,2.715],[147.9545,-43.1258,37.3135],[147.9681,-43.1264,0.0],[147.9736,-43.1196,0.0],[147.9746,-43.1227,0.0],[147.9806,-43.1233,1.7768],[147.9772,-43.1185,51.5921],[147.9773,-43.116,51.7182],[147.9801,-43.112,0.0],[147.9784,-43.1104,21.897],[147.981,-43.1074,17.8178],[147.9708,-43.1026,12.6519],[147.9664,-43.0919,55.2441],[147.9622,-43.0882,82.8609],[147.9629,-43.0863,60.7496],[147.9664,-43.0845,2.2806],[147.9599,-43.0806,0.0],[147.9594,-43.0763,0.0],[147.9558,-43.0725,24.8124],[147.9544,-43.0689,92.8806],[147.9559,-43.0682,5.7114],[147.9547,-43.0669,141.2497],[147.9562,-43.0658,29.839],[147.9556,-43.0644,9.1253],[147.946,-43.0608,64.1752],[147.9451,-43.0592,90.4079],[147.9492,-43.0577,0.0],[147.9494,-43.0546,0.0],[147.954,-43.052,23.0691],[147.9491,-43.0466,3.0373],[147.9533,-43.0414,0.0],[147.9497,-43.0377,6.8801],[147.9502,-43.0348,14.5267],[147.9485,-43.0331,3.0229],[147.947,-43.0335,3.0229],[147.9472,-43.0359,8.0363],[147.9401,-43.0364,7.253],[147.9355,-43.035,4.8772],[147.9291,-43.0294,12.1823],[147.9264,-43.0212,0.0],[147.9274,-43.0139,1.7425],[147.9305,-43.0099,2.8481],[147.9354,-43.0069,7.6554],[147.9423,-43.009,7.8871],[147.9424,-43.0052,32.5054],[147.9441,-43.0034,9.468],[147.9532,-43.0012,3.4663],[147.9533,-42.9977,35.3631],[147.9549,-42.9976,0.0],[147.9541,-42.9965,35.3631],[147.9561,-42.9951,26.2425],[147.9554,-42.9926,140.5604],[147.9609,-42.9894,37.9906],[147.9596,-42.9865,43.1402],[147.9613,-42.9841,84.7319],[147.9644,-42.9829,181.4724],[147.9763,-42.9834,0.0],[147.9776,-42.9822,0.0736],[147.9766,-42.9812,111.8692],[147.9844,-42.9792,2.4938],[147.9891,-42.9754,6.8227],[147.9864,-42.9704,14.9008],[147.9948,-42.9716,0.0],[147.9957,-42.9695,28.2644],[147.9943,-42.9685,28.2644],[147.9995,-42.9642,0.0],[147.998,-42.9598,87.0376],[147.9926,-42.9582,166.2123],[147.9923,-42.9562,126.1671],[147.995,-42.9561,10.5774],[147.9938,-42.9549,126.1671],[147.9962,-42.9541,0.0],[147.9966,-42.9514,0.0],[147.9937,-42.9529,13.4006],[147.987,-42.9511,15.4473],[147.9884,-42.9484,0.0],[147.9854,-42.9452,105.842],[147.9871,-42.9442,8.9815],[147.9834,-42.9413,112.5333],[147.9953,-42.9293,29.9833],[147.9989,-42.9146,0.0],[147.9956,-42.9097,32.3149],[147.9847,-42.9003,9.1078],[147.9841,-42.8904,0.0],[147.9728,-42.8883,37.8247],[147.9731,-42.8833,13.9685],[147.9609,-42.8849,2.7191],[147.9578,-42.8819,3.2748],[147.9585,-42.8779,28.999],[147.9653,-42.8773,9.1197],[147.9713,-42.8742,2.8182],[147.9713,-42.8718,14.6897],[147.9738,-42.8702,0.0],[147.9728,-42.8675,7.2039],[147.969,-42.8663,48.2636],[147.9709,-42.8643,0.0],[147.9608,-42.8674,2.7095],[147.9579,-42.8716,30.9029],[147.9465,-42.8735,0.0],[147.9451,-42.8771,9.8959],[147.9399,-42.8772,1.9939],[147.9281,-42.8703,0.0],[147.9203,-42.8613,1.4843],[147.9237,-42.8563,0.0],[147.9231,-42.8527,0.0],[147.9219,-42.8515,0.0],[147.9174,-42.8528,0.0],[147.9158,-42.8518,0.0],[147.918,-42.8485,0.0],[147.9222,-42.8464,0.0],[147.9193,-42.8441,16.9966],[147.9208,-42.8441,6.1913],[147.9201,-42.843,6.1913],[147.9171,-42.8441,2.6004],[147.9155,-42.8476,3.8407],[147.913,-42.8479,0.0],[147.9056,-42.8437,3.8786],[147.9056,-42.8422,0.0],[147.9026,-42.8445,4.349],[147.8917,-42.8425,0.0],[147.8892,-42.8446,4.9694],[147.8911,-42.8464,18.0081],[147.8901,-42.8503,5.0158],[147.8831,-42.8501,17.0457],[147.8796,-42.8536,12.4617],[147.8806,-42.8562,8.2887],[147.8848,-42.8585,0.0],[147.8852,-42.8619,5.7894],[147.8799,-42.8636,7.3506],[147.8736,-42.863,11.8851],[147.8717,-42.8711,0.5134],[147.87,-42.8721,14.9246],[147.8655,-42.871,0.0],[147.8612,-42.8751,0.0],[147.8685,-42.8752,6.8387],[147.8731,-42.8782,0.0],[147.8746,-42.8771,0.0],[147.8738,-42.8745,3.859],[147.8769,-42.8736,7.9859],[147.8819,-42.877,4.5129],[147.895,-42.878,0.0],[147.904,-42.8824,14.0537],[147.9049,-42.8931,0.0],[147.9021,-42.8954,0.0374],[147.9004,-42.8998,0.0728],[147.9072,-42.9077,9.6214],[147.8992,-42.9017,4.3012],[147.895,-42.8944,0.0],[147.8895,-42.8931,12.1763],[147.8841,-42.8947,11.1705],[147.8764,-42.8887,4.4667],[147.8733,-42.8891,2.4198],[147.8734,-42.8935,4.9168],[147.8685,-42.8937,1.2716],[147.8619,-42.8908,0.0],[147.858,-42.8916,18.3096],[147.8534,-42.8899,11.6056],[147.844,-42.8908,1.9674],[147.8407,-42.8886,0.5723],[147.8373,-42.892,5.6007],[147.8294,-42.8936,11.2438],[147.8255,-42.8918,4.0512],[147.8239,-42.8946,15.8082],[147.8181,-42.8954,2.929]]],
[[[147.8526,-43.0266,0.0],[147.8541,-43.0265,0.0],[147.8537,-43.0253,1.5496],[147.8506,-43.0247,9.352],[147.8465,-43.0271,0.0],[147.8479,-43.0277,0.0],[147.8526,-43.0266,0.0]]],
[[[147.8465,-43.0061,8.1909],[147.8457,-43.0057,0.7975],[147.8451,-43.0062,0.7975],[147.8455,-43.0069,0.0],[147.8465,-43.0061,8.1909]]],
[[[147.8356,-43.0052,0.0],[147.8357,-43.0057,0.0],[147.8361,-43.0052,0.0],[147.8357,-43.0051,0.0],[147.8356,-43.0052,0.0]]],
[[[147.8371,-43.004,0.0],[147.8377,-43.0042,0.0],[147.8376,-43.0035,0.0],[147.8369,-43.0035,0.0],[147.8371,-43.004,0.0]]],
[[[147.8229,-42.9775,0.0],[147.8233,-42.9777,0.0],[147.8234,-42.9775,0.0],[147.823,-42.9773,0.0],[147.8229,-42.9775,0.0]]],
[[[147.8252,-42.9504,6.436],[147.8193,-42.9491,1.5053],[147.8182,-42.9507,4.9463],[147.8226,-42.9543,6.1215],[147.8269,-42.9522,6.8284],[147.8252,-42.9504,6.436]]],
[[[147.7195,-42.9884,0.0],[147.7194,-42.9883,0.0],[147.7192,-42.9883,0.0],[147.7193,-42.9884,0.0],[147.7195,-42.9884,0.0]]],
[[[147.6433,-42.9442,0.0],[147.6406,-42.9433,4.9693],[147.6358,-42.947,2.0709],[147.6352,-42.9492,5.5557],[147.6388,-42.9525,20.6437],[147.6393,-42.9549,0.0],[147.6424,-42.9555,27.3472],[147.6462,-42.9591,0.0],[147.6489,-42.9543,11.1529],[147.6486,-42.9491,1.7455],[147.6473,-42.9464,5.4167],[147.6433,-42.9442,0.0]]],
[[[147.6566,-42.9418,0.0],[147.6571,-42.9423,0.0],[147.6578,-42.9423,0.0],[147.6572,-42.9419,0.0],[147.6566,-42.9418,0.0]]],
[[[147.7878,-42.9509,9.2766],[147.7897,-42.9491,15.6215],[147.7883,-42.9453,1.7496],[147.7839,-42.9407,2.5245],[147.7811,-42.9401,1.6283],[147.7792,-42.9424,0.0],[147.7799,-42.9455,0.0],[147.7845,-42.9505,8.3493],[147.7878,-42.9509,9.2766]]],
[[[147.8572,-42.9393,0.0],[147.8568,-42.9393,0.0],[147.8563,-42.9398,0.0],[147.8572,-42.9398,0.0],[147.8572,-42.9393,0.0]]],
[[[147.7868,-42.9112,1.9064],[147.7869,-42.9096,1.9064],[147.7852,-42.9098,8.8012],[147.7828,-42.913,2.6383],[147.7846,-42.9137,0.8308],[147.7868,-42.9112,1.9064]]]]}}