{"type": "Feature","bbox": [139.67,-37.0328,140.4318,-36.2487],"geometry": {"type": "MultiPolygon","coordinates": [[[[140.0469,-36.2539,16.417],[139.6707,-36.2487,4.5057],[139.7093,-36.3125,0.0],[139.7875,-36.4689,0.0],[139.801,-36.5011,0.0],[139.8319,-36.5874,1.6829],[139.8499,-36.6434,6.4069],[139.8621,-36.6946,2.1452],[139.8635,-36.7185,0.0],[139.8627,-36.7538,0.1616],[139.8596,-36.7832,0.0853],[139.8501,-36.8249,1.1447],[139.8429,-36.8396,1.1972],[139.8364,-36.849,0.0],[139.8257,-36.8575,0.5984],[139.8188,-36.8685,2.6241],[139.8083,-36.8772,2.101],[139.7998,-36.881,0.0],[139.7866,-36.8952,2.1049],[139.779,-36.8993,0.2447],[139.7482,-36.9094,0.0],[139.741,-36.9144,2.0122],[139.7324,-36.9168,2.7765],[139.7175,-36.9296,2.7087],[139.6992,-36.9393,0.0],[139.6961,-36.9342,0.0],[139.6978,-36.9378,0.0],[139.6963,-36.9405,0.4853],[139.6759,-36.9421,0.5237],[139.6711,-36.9528,2.4281],[139.67,-36.9582,0.0],[139.6768,-36.9675,4.275],[139.6933,-36.9816,0.0],[139.7189,-36.9984,1.3829],[139.7306,-37.0093,3.2457],[139.7424,-37.0241,5.6566],[139.7435,-37.0284,1.4396],[139.7425,-37.0328,4.4013],[140.0845,-37.0325,17.5469],[140.085,-36.8941,21.0504],[140.2517,-36.894,23.3369],[140.2522,-36.6893,23.4341],[140.4314,-36.69,41.0299],[140.4318,-36.4665,79.0336],[140.0463,-36.4666,47.9766],[140.0461,-36.4516,50.1457],[140.0485,-36.4455,28.0233],[140.0463,-36.4409,20.6303],[140.0469,-36.2539,16.417]]]]}
,"properties": {"GID_2": "AUS.8.26_1","GID_0": "AUS","country": "Australia","GID_1": "AUS.8_1","state": "SouthAustralia","NL_NAME_1": "NA","county": "Kingston","VARNAME_2": "NA","NL_NAME_2": "NA","TYPE_2": "DistrictCouncil","ENGTYPE_2": "DistrictCouncil","CC_2": "43360","HASC_2": "AU.VI.KI","name": "Kingston.county","area_km2": 3340.93,"hist_schema_id": "Elevation0-9000","hist_area_km2": {"0": 1123.377,"25": 1959.993,"50": 243.195,"75": 12.847,"100": 1.466,"125": 0.051}}}