{"type": "Feature","bbox": [140.9657,-38.433,141.919,-37.3487],"geometry": {"type": "MultiPolygon","coordinates": [[[[140.9657,-38.056,3.7675],[140.9908,-38.0598,0.0],[141.0285,-38.0716,4.8153],[141.0869,-38.097,1.9751],[141.1006,-38.1055,4.9336],[141.1055,-38.1062,10.261],[141.1501,-38.1268,2.1552],[141.1799,-38.1437,3.3966],[141.1844,-38.1449,0.0],[141.2278,-38.1707,3.1661],[141.262,-38.1945,5.7888],[141.2953,-38.2206,2.1443],[141.3576,-38.2748,0.0],[141.3796,-38.3008,0.0],[141.3921,-38.3197,0.0],[141.3977,-38.3386,4.231],[141.3901,-38.3469,18.4622],[141.3835,-38.3493,3.9734],[141.3716,-38.3571,0.0],[141.3715,-38.3595,1.5137],[141.3683,-38.3605,3.5586],[141.3655,-38.3654,1.3395],[141.3664,-38.3675,32.9434],[141.3646,-38.37,27.1232],[141.3641,-38.377,26.9292],[141.3743,-38.3868,0.0],[141.3889,-38.3872,47.1104],[141.3949,-38.3897,24.5522],[141.4012,-38.395,7.4373],[141.4132,-38.3963,0.3924],[141.4139,-38.3912,0.0],[141.4108,-38.3878,8.2154],[141.4094,-38.38,0.0],[141.4048,-38.3734,40.7579],[141.4071,-38.3691,0.6127],[141.4188,-38.3634,1.9695],[141.4344,-38.3603,4.8874],[141.4473,-38.3597,0.0],[141.461,-38.3621,19.2274],[141.4992,-38.3785,0.0],[141.5192,-38.39,2.0231],[141.5285,-38.4049,6.3451],[141.5256,-38.4092,1.612],[141.5211,-38.4112,4.7951],[141.5213,-38.4147,8.5948],[141.5254,-38.4173,40.6493],[141.5249,-38.4211,20.1921],[141.5262,-38.4231,0.0],[141.5307,-38.4266,12.2339],[141.5358,-38.4277,33.627],[141.539,-38.431,35.6123],[141.5417,-38.431,41.9771],[141.5428,-38.433,0.0],[141.5471,-38.4308,36.5357],[141.5503,-38.4321,3.1756],[141.5516,-38.4278,31.677],[141.5558,-38.4262,0.0],[141.5558,-38.4235,0.0],[141.5575,-38.4225,0.0],[141.5555,-38.417,0.0],[141.5579,-38.4057,16.145],[141.5657,-38.4036,0.0],[141.5698,-38.393,2.9723],[141.5729,-38.3898,8.677],[141.5793,-38.3878,29.2981],[141.5907,-38.3884,11.9524],[141.6071,-38.3936,5.1316],[141.6149,-38.393,8.9156],[141.6172,-38.4002,37.8239],[141.6255,-38.4064,0.0],[141.6276,-38.4052,0.0],[141.6281,-38.4004,0.0],[141.6256,-38.3954,4.7446],[141.628,-38.3935,0.0],[141.6408,-38.3921,8.227],[141.6502,-38.3932,0.0],[141.6414,-38.3831,26.2088],[141.6427,-38.3783,5.6107],[141.6342,-38.3754,12.0043],[141.633,-38.3718,19.3347],[141.6251,-38.3621,28.7617],[141.6268,-38.3619,3.7959],[141.6211,-38.3542,0.0],[141.6246,-38.3445,0.0],[141.6241,-38.3442,0.0],[141.6221,-38.348,0.0],[141.6236,-38.3417,0.0],[141.6079,-38.3423,13.8691],[141.61,-38.3373,0.0],[141.6088,-38.3356,0.0],[141.6098,-38.3327,0.0],[141.6007,-38.3242,0.0],[141.5992,-38.3206,19.6384],[141.6016,-38.3132,0.0],[141.6098,-38.3058,1.2571],[141.6374,-38.2928,1.0328],[141.6504,-38.2843,1.6268],[141.6556,-38.2826,0.785],[141.6636,-38.2756,0.0],[141.669,-38.2747,0.0],[141.6795,-38.2679,2.2056],[141.7047,-38.258,1.8762],[141.7036,-38.2593,1.8762],[141.7415,-38.2531,0.0],[141.7696,-38.2536,1.8384],[141.804,-38.2588,1.206],[141.8696,-38.2643,2.639],[141.8696,-38.2107,42.2632],[141.8509,-38.2112,37.4321],[141.8509,-38.1744,52.2562],[141.851,-38.1447,60.9383],[141.8694,-38.1447,59.3935],[141.8694,-38.1131,70.9434],[141.8515,-38.0865,63.7893],[141.8513,-38.0803,54.6727],[141.8468,-38.0796,54.1941],[141.8314,-38.0594,51.4019],[141.8322,-38.0549,51.8419],[141.8291,-38.0531,53.0806],[141.8237,-38.0455,54.9094],[141.824,-38.0432,54.6562],[141.8198,-38.0393,53.2962],[141.8207,-38.0338,53.3039],[141.8301,-38.0221,52.6372],[141.8347,-38.0101,54.1954],[141.8345,-37.9855,54.6886],[141.8201,-37.9615,57.2084],[141.8171,-37.9433,60.8954],[141.8264,-37.9357,62.4516],[141.8332,-37.934,62.9035],[141.863,-37.9426,68.7589],[141.8719,-37.9431,70.7095],[141.872,-37.9416,70.4615],[141.8747,-37.9409,73.257],[141.8707,-37.9374,72.5726],[141.8663,-37.9288,76.9383],[141.8945,-37.9231,82.7513],[141.8945,-37.912,99.9337],[141.9149,-37.9118,100.3436],[141.919,-37.8863,164.7926],[141.9012,-37.8863,152.6689],[141.8841,-37.8828,118.421],[141.8801,-37.8788,102.9318],[141.8738,-37.8771,107.1883],[141.8558,-37.8767,123.4583],[141.8287,-37.8683,93.9445],[141.827,-37.8782,102.5332],[141.8314,-37.8865,98.7049],[141.8313,-37.8926,88.5461],[141.7901,-37.8887,97.7317],[141.7793,-37.9002,93.8382],[141.7483,-37.897,126.0686],[141.7323,-37.8969,114.0537],[141.7257,-37.8443,144.145],[141.7263,-37.833,140.0502],[141.7338,-37.8066,171.75],[141.7321,-37.7946,181.8731],[141.7257,-37.7734,168.8168],[141.7269,-37.7674,155.683],[141.7212,-37.7651,174.0455],[141.7169,-37.7577,187.0406],[141.7237,-37.7163,80.1082],[141.7167,-37.7138,69.8405],[141.7171,-37.7121,70.3104],[141.715,-37.7104,69.686],[141.7122,-37.7126,69.5962],[141.7122,-37.7105,70.2691],[141.7103,-37.7101,70.1168],[141.7122,-37.7084,69.3587],[141.7088,-37.7025,76.708],[141.7032,-37.704,71.6466],[141.6995,-37.7008,68.7351],[141.7004,-37.6989,68.1221],[141.6918,-37.7018,71.8967],[141.6902,-37.6997,67.9608],[141.6918,-37.6976,68.6858],[141.6884,-37.6944,68.1578],[141.689,-37.6921,69.2839],[141.6918,-37.6912,68.4932],[141.6899,-37.6895,68.1076],[141.6908,-37.6879,75.7906],[141.6872,-37.6844,89.9066],[141.6847,-37.6864,66.7657],[141.6823,-37.6858,66.9374],[141.6822,-37.6843,66.858],[141.6874,-37.6806,71.3564],[141.6843,-37.6804,66.6513],[141.6828,-37.6769,68.0256],[141.6772,-37.6743,93.4861],[141.671,-37.676,73.6379],[141.6703,-37.6781,95.0786],[141.6669,-37.677,73.52],[141.6667,-37.6708,80.1514],[141.6641,-37.6647,67.5043],[141.6617,-37.6629,65.8708],[141.6612,-37.6646,66.6457],[141.6564,-37.6653,67.1326],[141.6572,-37.662,65.4031],[141.6518,-37.6606,68.3305],[141.6544,-37.6575,68.7823],[141.65,-37.6555,66.3009],[141.6505,-37.6513,67.0506],[141.6464,-37.6534,64.9939],[141.6454,-37.6515,65.5875],[141.6431,-37.6529,65.4956],[141.6423,-37.651,64.6356],[141.6478,-37.6498,65.252],[141.6469,-37.6479,78.0731],[141.644,-37.6477,65.9883],[141.6457,-37.6461,71.9576],[141.6414,-37.6432,64.8994],[141.6372,-37.6451,64.1742],[141.6346,-37.6437,64.083],[141.6334,-37.6457,64.9154],[141.6311,-37.6449,63.7835],[141.6318,-37.647,64.3285],[141.626,-37.6474,66.7645],[141.6222,-37.6427,64.6051],[141.6235,-37.642,63.5956],[141.6227,-37.6409,63.1446],[141.6246,-37.6415,63.5956],[141.6257,-37.6398,64.3445],[141.6202,-37.6383,63.1929],[141.615,-37.6424,64.2613],[141.6135,-37.6412,62.0549],[141.6119,-37.6424,64.6296],[141.6119,-37.638,62.0534],[141.6098,-37.6384,62.6474],[141.6106,-37.6441,62.7443],[141.6091,-37.6453,62.5928],[141.6076,-37.6419,61.796],[141.6028,-37.6417,62.1456],[141.6006,-37.6396,61.4977],[141.6013,-37.6418,61.2309],[141.599,-37.6432,61.0074],[141.6009,-37.6446,60.6797],[141.6001,-37.646,60.8677],[141.5971,-37.6455,60.5384],[141.5979,-37.6434,62.0878],[141.5967,-37.6422,63.0149],[141.5942,-37.6425,66.2607],[141.5944,-37.6447,59.9309],[141.5923,-37.6451,60.0932],[141.592,-37.6437,59.9571],[141.5891,-37.6451,60.2661],[141.5837,-37.6411,69.7503],[141.5853,-37.6394,58.9685],[141.5844,-37.6363,59.1426],[141.5883,-37.6324,59.0343],[141.5872,-37.6301,58.3735],[141.5821,-37.6294,58.5005],[141.5829,-37.6284,58.5005],[141.581,-37.6275,59.1753],[141.5856,-37.6235,58.8959],[141.581,-37.6247,58.6733],[141.5826,-37.6226,59.0576],[141.5784,-37.6219,59.282],[141.5782,-37.6199,59.01],[141.5748,-37.619,58.0739],[141.5738,-37.6173,57.4972],[141.576,-37.6146,57.6839],[141.5732,-37.6144,57.1817],[141.5733,-37.6123,57.4131],[141.5695,-37.6126,57.2859],[141.5702,-37.6101,61.3951],[141.5629,-37.612,56.6815],[141.5626,-37.6139,57.3602],[141.5605,-37.6138,56.7398],[141.5596,-37.616,56.0221],[141.5563,-37.617,56.5408],[141.5566,-37.6153,56.6398],[141.5506,-37.6135,58.291],[141.548,-37.6151,56.4243],[141.5446,-37.6125,57.2416],[141.5408,-37.6131,55.1571],[141.5419,-37.6099,57.4719],[141.5385,-37.6103,54.0521],[141.5395,-37.6082,75.8878],[141.5353,-37.6043,60.4269],[141.5307,-37.6053,54.9203],[141.5297,-37.6035,56.3401],[141.5244,-37.6019,55.8879],[141.533,-37.5972,75.8138],[141.5402,-37.5989,74.0718],[141.5454,-37.5897,130.7888],[141.5432,-37.5806,182.7749],[141.5297,-37.5728,199.1514],[141.5142,-37.5608,196.1254],[141.5182,-37.5553,153.3237],[141.5339,-37.5514,131.5408],[141.5357,-37.5481,127.3034],[141.5399,-37.5472,132.9977],[141.5459,-37.5406,151.2968],[141.5417,-37.5178,245.1532],[141.5295,-37.5047,245.0765],[141.5255,-37.4947,233.7913],[141.5275,-37.4887,227.9874],[141.5248,-37.4849,205.7417],[141.5241,-37.4793,247.6026],[141.5307,-37.4647,266.2275],[141.5375,-37.4579,289.6314],[141.4866,-37.4525,239.2856],[141.4994,-37.3801,266.47],[141.221,-37.3487,67.7075],[141.2197,-37.3513,69.53],[141.2181,-37.3509,67.5973],[141.2168,-37.3525,67.797],[141.2188,-37.3531,69.6946],[141.2172,-37.3554,68.1882],[141.2199,-37.3568,76.5209],[141.2184,-37.3589,68.9767],[141.2204,-37.3604,69.25],[141.2209,-37.3646,80.8054],[141.2327,-37.3674,68.2202],[141.2379,-37.3658,67.3636],[141.2421,-37.3668,73.0667],[141.2437,-37.3697,67.601],[141.2485,-37.3692,67.6354],[141.2507,-37.3741,68.1814],[141.254,-37.3761,66.2523],[141.2616,-37.3769,67.1267],[141.2661,-37.3825,65.5575],[141.2742,-37.3853,74.6219],[141.2722,-37.3923,74.6405],[141.2791,-37.3931,67.5634],[141.2805,-37.3945,78.8237],[141.2762,-37.3972,69.2029],[141.2715,-37.403,71.8249],[141.2739,-37.4069,65.6638],[141.271,-37.4104,70.742],[141.2747,-37.4122,63.9119],[141.2704,-37.4141,68.6201],[141.2716,-37.4167,63.0165],[141.2694,-37.4171,63.6019],[141.2686,-37.422,64.3374],[141.2673,-37.4227,64.3374],[141.2662,-37.4208,61.6846],[141.2665,-37.4227,61.8786],[141.2639,-37.4231,61.5894],[141.2597,-37.421,61.0047],[141.2587,-37.4266,60.2035],[141.2639,-37.4282,65.166],[141.2638,-37.4301,61.8559],[141.1682,-37.4199,126.566],[141.0973,-37.4499,81.0947],[141.0953,-37.4456,84.5617],[141.0464,-37.4019,83.422],[141.0238,-37.3914,81.5391],[141.0036,-37.3776,80.5272],[140.9922,-37.3742,82.6977],[140.9733,-37.3583,80.2007],[140.9721,-37.7176,67.8423],[140.9736,-37.718,71.1968],[140.972,-37.7308,69.5302],[140.9657,-38.056,3.7675]]]]}
,"properties": {"GID_2": "AUS.10.23_1","GID_0": "AUS","country": "Australia","GID_1": "AUS.10_1","state": "Victoria","NL_NAME_1": "NA","county": "Glenelg","VARNAME_2": "NA","NL_NAME_2": "NA","TYPE_2": "Shire","ENGTYPE_2": "Shire","CC_2": "22410","HASC_2": "AU.VI.GL","name": "Glenelg.county","area_km2": 6217.056,"hist_schema_id": "Elevation0-9000","hist_area_km2": {"0": 145.941,"25": 559.219,"50": 1294.746,"75": 1662.623,"100": 737.813,"125": 759.339,"150": 570.564,"175": 328.082,"200": 88.626,"225": 52.172,"250": 14.833,"275": 3.099}}}