{"type":"Feature","properties":{"GID_2":"AUS.11.96_1","GID_0":"AUS","country":"Australia","GID_1":"AUS.11_1","state":"WesternAustralia","NL_NAME_1":"NA","county":"Northam","VARNAME_2":"NA","NL_NAME_2":"NA","TYPE_2":"Shire","ENGTYPE_2":"Shire","CC_2":"56730","HASC_2":"AU.WA.NR","name":"Northam.county"},
"geometry":{"type": "MultiPolygon","coordinates": [[[[116.8552,-31.4896,253.4102],[116.85,-31.4917,260.7263],[116.8507,-31.4934,259.534],[116.8291,-31.5024,255.2948],[116.8188,-31.4845,236.0112],[116.789,-31.4965,208.6253],[116.7897,-31.4978,208.6253],[116.7862,-31.4993,203.1749],[116.7837,-31.495,203.4438],[116.7627,-31.5038,187.0587],[116.7593,-31.498,188.2909],[116.7497,-31.5019,189.6257],[116.7425,-31.489,187.8204],[116.739,-31.4904,192.4527],[116.7373,-31.4876,182.061],[116.7353,-31.4885,183.3975],[116.7373,-31.4919,189.2829],[116.734,-31.4934,195.6043],[116.7314,-31.4888,181.8992],[116.7057,-31.4991,176.45],[116.7049,-31.4978,177.1288],[116.7,-31.4998,186.6193],[116.6961,-31.4929,205.5138],[116.6851,-31.4971,197.636],[116.6842,-31.4955,204.3229],[116.6804,-31.4973,195.1639],[116.6746,-31.4869,235.9517],[116.6687,-31.4893,235.4734],[116.6679,-31.492,215.543],[116.6607,-31.495,200.4243],[116.6578,-31.49,201.6464],[116.6529,-31.4921,191.7109],[116.6506,-31.4881,193.1471],[116.6002,-31.5094,237.4047],[116.6002,-31.5081,237.4047],[116.5895,-31.5165,287.6004],[116.5988,-31.5325,256.9381],[116.5878,-31.5371,287.4102],[116.5959,-31.5511,221.8327],[116.5837,-31.5587,261.8982],[116.5795,-31.5596,284.2462],[116.5868,-31.572,260.9016],[116.4913,-31.6142,328.1847],[116.5117,-31.6402,288.0292],[116.4885,-31.6507,350.4097],[116.5001,-31.6622,353.3868],[116.5024,-31.6611,328.7035],[116.5144,-31.6816,302.4412],[116.5159,-31.6809,289.1065],[116.5185,-31.686,290.8393],[116.4954,-31.686,400.6856],[116.4759,-31.6963,279.7069],[116.471,-31.6949,262.5398],[116.4629,-31.6783,244.8438],[116.4433,-31.6868,294.9102],[116.4366,-31.6755,262.4793],[116.4306,-31.6781,287.191],[116.4269,-31.6719,270.2787],[116.4179,-31.6758,246.7979],[116.4232,-31.6849,267.15],[116.4232,-31.702,311.8743],[116.3764,-31.702,376.4052],[116.3764,-31.7092,374.4521],[116.348,-31.7093,383.1497],[116.348,-31.7485,295.2547],[116.3381,-31.7535,282.6827],[116.3382,-31.7627,280.2646],[116.3458,-31.7627,300.7422],[116.3468,-31.7743,258.6145],[116.3452,-31.7743,253.0116],[116.3452,-31.78,257.4364],[116.3537,-31.78,257.7116],[116.3537,-31.7836,252.5165],[116.3562,-31.7836,239.8163],[116.3515,-31.7871,238.7855],[116.3478,-31.7878,242.0181],[116.3478,-31.7909,232.1908],[116.3498,-31.7909,230.3973],[116.3469,-31.7965,263.3199],[116.3429,-31.8022,231.6796],[116.3378,-31.8056,241.0041],[116.3454,-31.8072,241.7735],[116.3496,-31.8111,235.7468],[116.3608,-31.8073,238.8424],[116.3608,-31.8149,306.5349],[116.371,-31.8133,257.2742],[116.3615,-31.8195,301.8205],[116.3583,-31.8195,303.9347],[116.3583,-31.8386,268.7818],[116.3482,-31.8565,316.4349],[116.3461,-31.8564,324.9755],[116.3462,-31.9068,205.3026],[116.5211,-31.9135,256.1355],[116.524,-31.9092,258.4144],[116.5566,-31.8858,313.5308],[116.5484,-31.884,296.9392],[116.5481,-31.881,307.5529],[116.5432,-31.8808,325.4446],[116.5422,-31.876,323.5143],[116.5432,-31.8705,328.5982],[116.5295,-31.86,323.899],[116.5152,-31.838,322.8489],[116.5152,-31.8314,335.2305],[116.5095,-31.8184,277.2389],[116.5251,-31.8148,254.7534],[116.5229,-31.8105,260.7117],[116.5403,-31.8034,310.4574],[116.5408,-31.8055,278.9962],[116.5729,-31.8054,362.7433],[116.5742,-31.8096,352.5727],[116.6019,-31.7976,278.9702],[116.5997,-31.7938,265.4623],[116.7479,-31.7287,163.4791],[116.7542,-31.7397,171.8322],[116.7644,-31.7321,163.6183],[116.7721,-31.7305,167.6505],[116.7761,-31.7273,177.4347],[116.7856,-31.7433,175.7126],[116.8122,-31.7317,169.5029],[116.8269,-31.7564,194.4054],[116.8556,-31.744,203.0594],[116.8568,-31.746,201.6776],[116.8556,-31.7473,208.8871],[116.8593,-31.754,198.901],[116.8648,-31.7516,207.8191],[116.8729,-31.7652,198.9791],[116.8742,-31.7374,217.325],[116.9238,-31.7169,181.7188],[116.9231,-31.715,182.2816],[116.9204,-31.7147,181.6758],[116.9193,-31.71,181.7954],[116.9162,-31.7065,182.353],[116.9096,-31.7092,180.3677],[116.9039,-31.6994,181.1032],[116.9146,-31.6998,185.1004],[116.9363,-31.6941,206.2447],[116.9438,-31.707,191.1814],[116.9531,-31.703,185.7265],[116.9486,-31.6953,213.1481],[116.9467,-31.6961,213.1481],[116.9436,-31.6907,222.9664],[116.9614,-31.683,201.0121],[116.9561,-31.6739,233.6652],[116.9478,-31.6775,233.1437],[116.9463,-31.6748,240.737],[116.9493,-31.6651,238.1454],[116.9404,-31.6506,218.4954],[116.9435,-31.6473,210.725],[116.9394,-31.641,209.6032],[116.9354,-31.6411,212.624],[116.9128,-31.6065,298.1576],[116.886,-31.5609,244.8181],[116.889,-31.5595,252.8462],[116.8749,-31.5337,248.4427],[116.8623,-31.539,252.5061],[116.8572,-31.5301,248.3369],[116.8537,-31.5315,236.0401],[116.8523,-31.5291,244.9001],[116.8479,-31.5309,246.4116],[116.8449,-31.5257,263.674],[116.8603,-31.5192,261.9094],[116.8531,-31.5066,265.4537],[116.8626,-31.5026,286.342],[116.8552,-31.4896,253.4102]]]]}}