{"type":"Feature","properties":{"GID_2":"AUS.10.65_1","GID_0":"AUS","country":"Australia","GID_1":"AUS.10_1","state":"Victoria","NL_NAME_1":"NA","county":"Strathbogie","VARNAME_2":"NA","NL_NAME_2":"NA","TYPE_2":"Shire","ENGTYPE_2":"Shire","CC_2":"26430","HASC_2":"AU.VI.SB","name":"Strathbogie.county"},
"geometry":{"type": "MultiPolygon","coordinates": [[[[145.7754,-36.4438,146.532],[145.7715,-36.4447,144.6372],[145.7684,-36.4414,143.8637],[145.7661,-36.4417,144.3507],[145.7638,-36.4362,142.7171],[145.7534,-36.4357,145.7785],[145.747,-36.4337,144.1143],[145.742,-36.4351,142.3521],[145.7379,-36.4342,142.9924],[145.7396,-36.4312,142.0332],[145.7352,-36.4261,141.294],[145.7244,-36.4246,145.3996],[145.7242,-36.4345,139.7946],[145.7313,-36.4426,144.7463],[145.7319,-36.499,175.8245],[145.6316,-36.499,132.0955],[145.6317,-36.5633,145.2177],[145.592,-36.5633,139.0903],[145.5903,-36.5599,139.8375],[145.5805,-36.5543,136.08],[145.5785,-36.5545,136.6248],[145.5785,-36.556,135.1935],[145.3536,-36.5561,119.6679],[145.3189,-36.6124,122.1019],[145.3047,-36.6135,125.8424],[145.3115,-36.6141,123.3601],[145.3062,-36.6172,121.0907],[145.3087,-36.6183,121.8388],[145.3067,-36.6224,126.9519],[145.3097,-36.6251,122.8358],[145.3089,-36.6292,123.2891],[145.3059,-36.6312,123.3129],[145.3067,-36.6328,124.9989],[145.2978,-36.6343,122.8371],[145.2982,-36.6396,122.847],[145.3007,-36.6385,122.1731],[145.3025,-36.6419,122.1768],[145.2287,-36.642,123.0774],[145.2287,-36.6468,123.5244],[145.2177,-36.6467,125.6711],[145.2165,-36.6488,123.0683],[145.213,-36.6478,122.371],[145.2097,-36.6521,123.9692],[145.205,-36.6548,117.8207],[145.2119,-36.6598,118.0042],[145.2096,-36.6608,122.7757],[145.2066,-36.6595,131.0658],[145.2039,-36.6614,124.7122],[145.2123,-36.6634,117.424],[145.2153,-36.6691,115.3396],[145.2223,-36.6707,124.9456],[145.221,-36.673,118.0578],[145.2234,-36.6759,117.8529],[145.2203,-36.6795,117.0026],[145.2232,-36.6845,120.9441],[145.2217,-36.6872,122.3238],[145.2134,-36.6857,123.3998],[145.1857,-36.6863,119.9421],[145.1813,-36.6919,127.4194],[145.1836,-36.6979,119.4726],[145.1785,-36.7006,126.4193],[145.1721,-36.6973,126.7042],[145.1778,-36.69,135.2957],[145.1686,-36.6901,126.6815],[145.1685,-36.6753,134.3441],[145.0874,-36.6755,149.5524],[145.0435,-36.6507,177.8016],[145.0375,-36.6722,144.0933],[145.0425,-36.6722,142.6037],[145.0426,-36.682,141.2668],[145.0205,-36.682,146.8592],[145.0167,-36.6758,157.6948],[145.0171,-36.6688,160.1073],[144.9867,-36.6997,163.4353],[144.9321,-36.6997,162.6555],[144.9319,-36.7479,202.128],[144.8518,-36.7507,206.4786],[144.7947,-36.7507,175.4139],[144.7948,-36.7545,181.4146],[144.7924,-36.756,178.2994],[144.7948,-36.758,177.3246],[144.7947,-36.7707,190.0437],[144.7848,-36.7707,189.279],[144.7848,-36.7805,190.189],[144.7917,-36.78,206.6774],[144.792,-36.7997,211.411],[144.7867,-36.7997,207.6703],[144.7873,-36.8053,210.8863],[144.7986,-36.8326,225.7407],[144.8036,-36.8399,215.4995],[144.8111,-36.8398,208.1746],[144.8186,-36.8525,184.4287],[144.8213,-36.8542,190.9527],[144.8194,-36.8562,187.8093],[144.8312,-36.8555,198.3344],[144.8302,-36.8597,177.7203],[144.8467,-36.8741,171.0352],[144.853,-36.875,158.0096],[144.8509,-36.8795,161.9789],[144.8569,-36.8813,161.5713],[144.8717,-36.8745,163.1006],[144.8743,-36.8758,171.3427],[144.8815,-36.8662,163.6394],[144.8944,-36.8623,151.9337],[144.9099,-36.8586,146.6641],[144.9256,-36.8586,151.4948],[144.9295,-36.8605,159.6034],[144.9373,-36.8573,152.7238],[144.944,-36.8572,150.6682],[144.9439,-36.8523,147.874],[144.9424,-36.8512,146.5973],[144.9354,-36.8516,145.3324],[144.9332,-36.8511,146.7325],[144.9339,-36.8495,145.8273],[144.932,-36.8498,146.7325],[144.932,-36.8369,147.5482],[144.9332,-36.8355,148.2155],[144.9789,-36.8353,151.4347],[144.987,-36.8361,146.8455],[144.9982,-36.8464,144.7361],[145.0114,-36.8463,140.5015],[145.0193,-36.8506,141.6975],[145.0298,-36.8534,138.589],[145.0439,-36.8537,142.958],[145.0535,-36.8603,141.3221],[145.066,-36.8661,133.678],[145.087,-36.869,141.4877],[145.0857,-36.8775,150.797],[145.0971,-36.884,149.8273],[145.1067,-36.893,136.7781],[145.1191,-36.8931,134.5999],[145.1174,-36.8946,130.2208],[145.1179,-36.8963,132.5651],[145.1213,-36.894,131.805],[145.1205,-36.8962,128.2447],[145.1241,-36.9009,124.8767],[145.1221,-36.9029,127.7078],[145.123,-36.9054,128.4735],[145.1207,-36.9076,125.4136],[145.126,-36.9073,127.9824],[145.1277,-36.9097,128.3655],[145.1179,-36.9135,130.4805],[145.116,-36.9165,133.8657],[145.1177,-36.9189,129.1512],[145.1222,-36.9193,127.2353],[145.1178,-36.9234,128.2725],[145.1208,-36.9247,129.636],[145.1214,-36.928,132.2912],[145.127,-36.9286,130.9577],[145.1308,-36.9273,129.912],[145.1327,-36.9284,128.6362],[145.1276,-36.9325,129.2152],[145.1269,-36.9416,127.9191],[145.1984,-36.9419,189.6854],[145.2098,-36.9444,226.7602],[145.2268,-36.9141,154.776],[145.2348,-36.9099,150.9271],[145.2349,-36.9124,147.5851],[145.241,-36.92,161.1555],[145.2408,-36.9245,150.8442],[145.2465,-36.9292,152.0015],[145.2489,-36.9286,157.3865],[145.2605,-36.9358,158.6848],[145.2625,-36.9386,156.101],[145.2611,-36.9409,160.1181],[145.2642,-36.9467,161.5577],[145.2786,-36.952,163.7401],[145.2885,-36.9506,166.4169],[145.2923,-36.9521,166.3836],[145.2932,-36.9608,172.4626],[145.2856,-36.967,173.5295],[145.2862,-36.9747,177.9272],[145.2846,-36.9795,177.5348],[145.2876,-36.9866,202.4284],[145.2861,-36.9941,193.473],[145.2909,-36.9959,195.7336],[145.2923,-36.9996,227.8316],[145.2903,-37.0019,198.9931],[145.2915,-37.005,222.6535],[145.3022,-37.0021,207.8671],[145.3028,-37.0064,208.4403],[145.3083,-37.0076,209.3145],[145.3084,-37.0091,214.08],[145.3029,-37.0113,207.4012],[145.3023,-37.0133,209.4711],[145.3036,-37.0158,210.4072],[145.3093,-37.0172,217.625],[145.3164,-37.0152,221.9191],[145.3197,-37.0111,234.4475],[145.323,-37.0109,233.2963],[145.3207,-37.0071,240.0191],[145.3238,-37.0038,237.8987],[145.3226,-37.0004,257.8004],[145.3316,-37.0027,240.7996],[145.3321,-36.9944,237.5316],[145.3395,-36.9837,241.7263],[145.3483,-36.9812,243.059],[145.3517,-36.9841,245.1406],[145.358,-36.9855,247.0477],[145.358,-36.992,253.1354],[145.3624,-36.9927,254.8501],[145.3648,-36.9913,257.3118],[145.3655,-36.9848,254.2278],[145.3729,-36.9753,255.4173],[145.3767,-36.9772,256.415],[145.3872,-36.977,256.7868],[145.3884,-36.9833,261.5096],[145.3942,-36.9809,261.8275],[145.4007,-36.9819,264.6073],[145.4054,-36.985,280.4839],[145.404,-36.9899,270.7115],[145.4074,-36.9941,284.5157],[145.4202,-36.9954,294.4455],[145.426,-36.9993,321.7794],[145.4228,-37.0047,318.5471],[145.4277,-37.006,317.5935],[145.4313,-37.0051,322.0639],[145.4328,-37.0062,342.9368],[145.4317,-37.0075,328.8165],[145.4356,-37.008,326.9835],[145.4365,-37.0108,326.7563],[145.4456,-37.0132,340.9303],[145.4463,-37.0166,357.8501],[145.4496,-37.0168,359.3586],[145.457,-37.0136,359.2191],[145.4618,-37.018,370.3038],[145.469,-37.0215,374.2475],[145.4893,-37.0232,431.8662],[145.4901,-37.0204,430.3127],[145.4937,-37.0178,437.692],[145.4904,-37.0138,435.6163],[145.4919,-37.0073,445.1017],[145.4893,-37.004,464.303],[145.4906,-37.0004,456.5637],[145.4975,-36.9972,462.1475],[145.4994,-36.9921,461.6536],[145.5151,-36.9892,474.6968],[145.523,-36.9949,469.3466],[145.5241,-36.9935,471.7579],[145.5289,-36.9938,481.9797],[145.5305,-36.988,480.2616],[145.5346,-36.9815,486.6556],[145.5319,-36.9789,494.0047],[145.5318,-36.9591,525.8687],[145.562,-36.9591,522.7384],[145.5638,-36.958,529.0758],[145.5679,-36.961,523.9951],[145.5791,-36.9601,506.0382],[145.5823,-36.9617,519.0826],[145.5959,-36.9545,532.2036],[145.5985,-36.9504,529.6512],[145.6009,-36.9505,511.4165],[145.6067,-36.9447,512.8578],[145.6082,-36.9408,484.9217],[145.6116,-36.9414,526.36],[145.6147,-36.9394,509.2607],[145.6171,-36.94,515.78],[145.6177,-36.9383,529.0033],[145.6258,-36.9379,509.1582],[145.6274,-36.9388,523.1694],[145.6288,-36.9434,511.7967],[145.6374,-36.9476,518.0668],[145.6381,-36.9452,524.5319],[145.6406,-36.9442,524.4172],[145.6533,-36.9455,531.7996],[145.6574,-36.9363,533.8218],[145.6635,-36.9328,542.189],[145.6722,-36.9325,544.43],[145.6796,-36.9304,563.0586],[145.6951,-36.9306,589.5376],[145.6996,-36.9295,595.3781],[145.7045,-36.9244,656.1313],[145.7166,-36.9244,635.0549],[145.7175,-36.9275,630.0176],[145.727,-36.9274,604.7957],[145.7274,-36.9236,618.3513],[145.7471,-36.9235,508.1813],[145.7474,-36.9277,546.2164],[145.7559,-36.9277,554.5386],[145.7559,-36.9324,595.3732],[145.7693,-36.9314,623.8903],[145.7728,-36.9334,655.175],[145.7804,-36.9317,678.1127],[145.7905,-36.9324,469.532],[145.8607,-36.9104,601.621],[145.8615,-36.9022,608.8331],[145.8663,-36.9023,661.4568],[145.8664,-36.8942,651.8682],[145.8615,-36.8942,630.6185],[145.8616,-36.8854,671.6165],[145.8563,-36.8854,656.1514],[145.8593,-36.8829,654.1163],[145.8615,-36.8763,668.8812],[145.8636,-36.8635,735.3819],[145.8628,-36.8534,768.1465],[145.8654,-36.8472,744.8007],[145.8649,-36.8351,724.1824],[145.8667,-36.8306,687.4816],[145.8616,-36.8268,647.2339],[145.8636,-36.8201,629.8899],[145.874,-36.82,604.3845],[145.874,-36.8124,543.2083],[145.8649,-36.8124,659.951],[145.865,-36.8063,612.6695],[145.8724,-36.7999,546.6458],[145.8654,-36.8,587.4488],[145.8615,-36.8026,595.7809],[145.8534,-36.795,601.9717],[145.8495,-36.7977,593.299],[145.8463,-36.7948,605.493],[145.844,-36.7963,582.5596],[145.8364,-36.7863,571.7157],[145.83,-36.7863,576.071],[145.83,-36.7764,537.2112],[145.8222,-36.775,571.8088],[145.8248,-36.7721,579.5099],[145.8217,-36.762,596.0081],[145.8232,-36.754,598.6071],[145.8199,-36.749,586.2336],[145.8146,-36.7457,592.5228],[145.8123,-36.7355,556.1253],[145.813,-36.7301,517.0475],[145.8194,-36.7177,537.9291],[145.8189,-36.7127,587.4787],[145.8231,-36.7112,565.9255],[145.825,-36.7078,592.3427],[145.8231,-36.6971,535.8129],[145.8274,-36.6901,475.0358],[145.8243,-36.6814,467.5495],[145.8364,-36.6724,417.3408],[145.839,-36.6679,370.8062],[145.8367,-36.6542,291.2164],[145.8392,-36.6505,270.9356],[145.8452,-36.6513,227.0093],[145.8508,-36.6244,197.4389],[145.8437,-36.6235,198.5956],[145.8554,-36.5683,183.8378],[145.8194,-36.5634,176.6899],[145.8233,-36.5447,176.7727],[145.8233,-36.454,151.4354],[145.822,-36.4559,151.0998],[145.8182,-36.4555,149.3742],[145.816,-36.4573,151.7216],[145.8084,-36.4552,147.7429],[145.806,-36.4579,148.9366],[145.8047,-36.4562,148.0822],[145.8027,-36.4579,149.9314],[145.8015,-36.4565,149.3053],[145.7992,-36.4589,148.1573],[145.797,-36.4557,147.6196],[145.7937,-36.4555,146.9749],[145.7965,-36.4528,146.1475],[145.7937,-36.453,146.7726],[145.7925,-36.4488,145.9072],[145.7902,-36.4473,146.135],[145.7868,-36.4467,148.4891],[145.782,-36.4483,146.5138],[145.7802,-36.4467,145.2262],[145.7776,-36.4485,144.7757],[145.776,-36.4475,146.5164],[145.7783,-36.4464,145.789],[145.7761,-36.446,145.6339],[145.7754,-36.4438,146.532]]]]}}