{"type":"Feature","properties":{"GID_2":"AUS.8.37_1","GID_0":"AUS","country":"Australia","GID_1":"AUS.8_1","state":"SouthAustralia","NL_NAME_1":"NA","county":"MountRemarkable","VARNAME_2":"NA","NL_NAME_2":"NA","TYPE_2":"DistrictCouncil","ENGTYPE_2":"DistrictCouncil","CC_2":"44830","HASC_2":"AU.SA.MR","name":"MountRemarkable.county"},
"geometry":{"type": "MultiPolygon","coordinates": [[[[137.923,-32.4946,141.1504],[137.9229,-32.66,32.3866],[137.9309,-32.66,37.8316],[137.9426,-32.6933,59.7774],[137.9431,-32.7021,60.336],[137.941,-32.7144,50.4578],[137.9438,-32.7256,35.0534],[137.943,-32.7345,27.7244],[137.9467,-32.7434,17.3065],[137.9476,-32.7508,10.9724],[137.9557,-32.7678,17.712],[137.9555,-32.7814,28.2511],[137.9652,-32.8059,48.3646],[137.9025,-32.8057,0.3831],[137.9035,-32.8173,0.9542],[137.9077,-32.8316,1.0086],[137.9067,-32.8321,0.0],[137.9116,-32.8427,2.5467],[137.9123,-32.8535,0.0],[137.9161,-32.857,1.1898],[137.9147,-32.8563,0.0],[137.9232,-32.8712,0.0],[137.9264,-32.8802,2.8049],[137.9343,-32.9187,3.2524],[137.9382,-32.9298,2.8809],[137.94,-32.9482,1.9044],[137.9515,-32.9751,2.4833],[137.9566,-32.9814,1.314],[137.9552,-32.9892,1.5013],[137.9583,-32.9894,1.6179],[137.9526,-33.0002,1.9131],[137.9521,-33.006,2.6018],[137.9643,-33.0165,1.1237],[137.9715,-33.0158,1.7517],[137.983,-33.0202,0.8785],[137.9848,-33.0184,1.4916],[137.9888,-33.0191,1.7038],[138.0014,-33.024,0.559],[138.0188,-33.0356,2.1904],[138.0282,-33.0511,0.8433],[138.0333,-33.0635,2.3795],[138.04,-33.0726,3.084],[138.0459,-33.0867,0.0],[138.045,-33.0909,2.3269],[138.0408,-33.0899,1.2022],[138.0411,-33.0933,1.1461],[138.036,-33.0963,1.34],[138.0392,-33.1012,1.0247],[138.0306,-33.0984,3.1033],[138.0244,-33.1023,6.726],[138.0246,-33.1058,3.988],[138.033,-33.1069,0.2931],[138.0355,-33.1058,2.3783],[138.0342,-33.1055,3.3161],[138.0363,-33.103,1.5577],[138.0401,-33.1049,1.5585],[138.1961,-33.104,467.2191],[138.2003,-33.1113,502.5671],[138.2107,-33.1131,452.4061],[138.2108,-33.1073,438.4198],[138.213,-33.1064,443.4437],[138.213,-33.1039,429.4545],[138.2851,-33.1037,293.4781],[138.293,-33.102,282.1327],[138.3027,-33.1021,319.3526],[138.3032,-33.1036,314.1073],[138.4395,-33.1031,405.6022],[138.4401,-32.3232,435.7094],[138.3925,-32.3231,388.7956],[138.3912,-32.3258,394.9421],[138.3431,-32.324,357.9292],[138.343,-32.4152,401.46],[138.1572,-32.4148,233.5233],[138.1567,-32.5271,255.343],[138.1246,-32.5145,291.691],[138.1129,-32.5086,315.2354],[138.1076,-32.5039,333.0283],[138.0946,-32.5097,363.8222],[138.0885,-32.5104,380.3105],[138.0837,-32.5063,411.4292],[138.0733,-32.5064,381.2924],[138.0714,-32.5047,407.6165],[138.0706,-32.5064,398.0959],[138.0075,-32.5068,925.0876],[138.0062,-32.4972,740.7315],[137.9711,-32.4973,284.4549],[137.9711,-32.4949,282.7755],[137.923,-32.4946,141.1504]]]]}}