{"type":"Feature","properties":{"GID_2":"AUS.5.81_1","GID_0":"AUS","country":"Australia","GID_1":"AUS.5_1","state":"NewSouthWales","NL_NAME_1":"NA","county":"Leichhardt","VARNAME_2":"NA","NL_NAME_2":"NA","TYPE_2":"Area","ENGTYPE_2":"Area","CC_2":"14800","HASC_2":"AU.NS.LH","name":"Leichhardt.county"},
"geometry":{"type": "MultiPolygon","coordinates": [[[[151.1449,-33.8894,9.9772],[151.1765,-33.8868,22.5163],[151.1753,-33.883,16.3295],[151.1768,-33.8783,11.7441],[151.175,-33.8757,15.7678],[151.1753,-33.8724,1.9327],[151.1735,-33.8711,2.9209],[151.1854,-33.8682,2.4366],[151.1875,-33.8637,0.1606],[151.1795,-33.8665,6.3802],[151.1851,-33.8621,2.1508],[151.1924,-33.8606,0.1492],[151.1914,-33.8601,4.3387],[151.1904,-33.8602,4.3387],[151.1908,-33.8587,9.0062],[151.1963,-33.86,0.0],[151.1954,-33.8562,0.0],[151.1929,-33.8542,0.0],[151.1888,-33.8567,9.1472],[151.1845,-33.8536,8.2181],[151.1905,-33.8524,0.8496],[151.1824,-33.8492,5.3217],[151.1869,-33.847,0.0],[151.1854,-33.846,0.0],[151.1808,-33.8477,0.0],[151.1749,-33.8531,16.4141],[151.1713,-33.8528,0.0],[151.171,-33.8549,13.7725],[151.1687,-33.855,4.7752],[151.1691,-33.858,29.871],[151.1634,-33.8602,7.4572],[151.1621,-33.8624,0.2917],[151.1596,-33.8621,1.8393],[151.1584,-33.8645,0.0],[151.1523,-33.8673,1.0389],[151.1515,-33.8714,5.4547],[151.1448,-33.8823,5.2378],[151.1449,-33.8894,9.9772]]],
[[[151.1727,-33.8458,0.6266],[151.1693,-33.8466,6.5553],[151.1689,-33.8485,0.0],[151.1723,-33.8498,0.0],[151.1752,-33.8486,0.0],[151.1727,-33.8458,0.6266]]]]}}