{"type":"Feature","properties":{"GID_2":"AUS.7.44_1","GID_0":"AUS","country":"Australia","GID_1":"AUS.7_1","state":"Queensland","NL_NAME_1":"NA","county":"MoretonBay","VARNAME_2":"NA","NL_NAME_2":"NA","TYPE_2":"Region","ENGTYPE_2":"Region","CC_2":"35010","HASC_2":"NA","name":"MoretonBay.county"},
"geometry":{"type": "MultiPolygon","coordinates": [[[[153.0381,-27.138,1.9448],[153.0385,-27.1396,3.2775],[153.038,-27.1349,1.6592],[153.0379,-27.137,3.3783],[153.0381,-27.138,1.9448]]],
[[[153.0584,-27.28,0.0],[153.0662,-27.2813,0.0],[153.0779,-27.2644,0.0],[153.0708,-27.2597,0.0],[153.0667,-27.2468,0.0],[153.0616,-27.2371,0.0],[153.0559,-27.2347,3.5817],[153.0539,-27.2303,4.8299],[153.0586,-27.2287,4.0728],[153.0592,-27.2298,2.1802],[153.0677,-27.2291,2.8903],[153.0699,-27.2263,8.4699],[153.0757,-27.228,2.7166],[153.0764,-27.233,3.1208],[153.0703,-27.2414,1.4444],[153.0702,-27.2462,4.9822],[153.0684,-27.2471,4.3664],[153.0717,-27.257,4.5369],[153.0775,-27.2626,2.9499],[153.0795,-27.2632,1.0344],[153.0841,-27.2583,2.1211],[153.0929,-27.2559,4.1977],[153.1005,-27.2588,3.3736],[153.1037,-27.2634,0.6399],[153.1079,-27.2617,0.0],[153.1106,-27.255,2.5415],[153.1098,-27.253,0.0],[153.1124,-27.2428,4.9107],[153.1159,-27.2341,2.4628],[153.1179,-27.2336,0.0],[153.1152,-27.2274,2.9361],[153.1166,-27.2162,3.5323],[153.119,-27.2121,1.2164],[153.1163,-27.2093,0.0],[153.1168,-27.2042,1.0615],[153.1153,-27.2016,3.8004],[153.1166,-27.1983,0.5236],[153.1145,-27.1912,0.0],[153.1064,-27.1909,0.0],[153.1038,-27.1931,0.827],[153.1048,-27.1976,0.0],[153.1032,-27.1996,2.2361],[153.0891,-27.2048,2.7519],[153.0912,-27.2061,2.351],[153.0889,-27.2063,2.8235],[153.0842,-27.2053,3.7645],[153.0806,-27.202,0.9577],[153.071,-27.2011,0.0],[153.0482,-27.1941,0.0],[153.0375,-27.1966,4.5497],[153.033,-27.1909,4.3281],[153.0296,-27.1827,0.8818],[153.0304,-27.1757,5.4557],[153.0366,-27.1654,0.0],[153.0317,-27.1612,2.0058],[153.0306,-27.1585,1.6053],[153.0322,-27.1545,2.5449],[153.0333,-27.1556,1.2813],[153.0322,-27.1609,2.0058],[153.0427,-27.159,1.9621],[153.0434,-27.1562,1.8509],[153.0403,-27.1538,1.0542],[153.0364,-27.157,1.6651],[153.0368,-27.1538,0.8144],[153.0331,-27.154,2.5449],[153.0306,-27.1471,2.3254],[153.0315,-27.1431,0.9836],[153.0344,-27.1411,2.387],[153.0352,-27.1312,2.3042],[153.024,-27.1264,3.2546],[153.022,-27.1241,0.0],[153.0379,-27.1277,2.9898],[153.0402,-27.1382,4.3809],[153.0375,-27.141,3.2775],[153.0355,-27.1488,5.379],[153.0369,-27.1504,2.9986],[153.0434,-27.1494,8.9563],[153.0484,-27.1446,0.0],[153.0556,-27.1282,2.8342],[153.0667,-27.111,4.1817],[153.0682,-27.1116,0.4134],[153.0722,-27.1071,2.2795],[153.0977,-27.0933,0.0],[153.0991,-27.0906,4.0174],[153.0989,-27.092,3.0157],[153.0985,-27.0926,3.0157],[153.1005,-27.0925,2.5116],[153.1093,-27.0881,2.7267],[153.1083,-27.0876,4.7226],[153.1182,-27.0849,3.0825],[153.1239,-27.0867,2.0906],[153.133,-27.0859,3.8222],[153.1427,-27.0808,0.0],[153.142,-27.0785,8.9259],[153.1436,-27.0744,0.0],[153.1366,-27.07,1.1445],[153.1343,-27.0707,1.808],[153.1337,-27.0696,3.578],[153.1359,-27.0697,1.808],[153.134,-27.0674,0.8174],[153.1261,-27.0628,0.0],[153.119,-27.0629,0.0],[153.1083,-27.0662,2.4563],[153.0989,-27.064,4.0418],[153.1044,-27.0647,3.441],[153.11,-27.0622,3.3106],[153.102,-27.0589,2.665],[153.102,-27.06,2.226],[153.1011,-27.0605,1.7691],[153.1015,-27.0624,1.5937],[153.1002,-27.0625,1.3848],[153.0981,-27.0601,1.4737],[153.0998,-27.0606,1.7691],[153.1009,-27.0589,1.2173],[153.0951,-27.0552,1.1359],[153.0967,-27.0533,0.0],[153.0988,-27.0557,1.1182],[153.1073,-27.058,0.0],[153.1121,-27.056,1.8729],[153.112,-27.051,0.4841],[153.1051,-27.0433,2.3218],[153.1026,-27.0351,4.7673],[153.1004,-27.0327,0.4388],[153.089,-27.0259,0.0],[153.0832,-27.0284,1.5138],[153.0811,-27.0253,0.0],[153.0859,-27.0205,1.4006],[153.085,-27.0166,0.8367],[153.0827,-27.0151,1.4738],[153.0792,-27.0169,2.0036],[153.0782,-27.0192,0.2215],[153.0757,-27.0174,0.7702],[153.0779,-27.0141,1.4849],[153.0727,-27.0098,1.6358],[153.0713,-27.0002,0.0],[153.0665,-26.9988,3.8763],[153.0604,-26.9937,7.2352],[153.0602,-26.9888,2.455],[153.0562,-26.9886,7.0422],[153.0519,-26.9916,3.3103],[153.0475,-26.99,9.2528],[153.0438,-26.9919,6.7913],[153.0412,-26.9902,1.2623],[153.0374,-26.9924,2.9866],[153.0365,-26.9904,1.8018],[153.0303,-26.9919,7.0664],[153.028,-26.9908,1.7783],[153.0295,-26.9871,11.3886],[153.0246,-26.9881,15.3513],[153.0295,-26.987,11.3886],[153.0307,-26.9893,3.9182],[153.0318,-26.9871,7.6397],[153.0416,-26.9859,6.9692],[153.042,-26.9881,1.7125],[153.0453,-26.9859,4.6041],[153.0461,-26.9844,1.4893],[153.0442,-26.9812,0.9777],[153.0457,-26.9745,0.781],[153.0425,-26.9716,5.4751],[153.0431,-26.9695,5.6927],[153.0184,-26.9664,37.7707],[153.0176,-26.9746,7.6464],[153.0191,-26.9762,25.7525],[153.0174,-26.9771,10.2432],[153.0175,-26.9789,9.1314],[153.0116,-26.9791,27.9872],[153.0031,-26.9848,28.7075],[152.9852,-26.9847,33.7911],[152.9803,-26.9822,38.5662],[152.9756,-26.9847,34.42],[152.9741,-26.9824,35.3373],[152.9781,-26.9803,41.8079],[152.975,-26.9744,41.3752],[152.9666,-26.9788,33.9824],[152.9626,-26.9729,44.1792],[152.9531,-26.9683,32.9302],[152.9519,-26.9661,33.8268],[152.9456,-26.9665,38.4375],[152.9274,-26.9618,40.2968],[152.9239,-26.9593,52.0217],[152.9218,-26.9604,46.3287],[152.9203,-26.9563,45.5562],[152.9173,-26.9547,48.87],[152.9037,-26.9539,65.0942],[152.8984,-26.958,69.9526],[152.8912,-26.9608,54.2856],[152.8855,-26.956,60.6956],[152.874,-26.9583,56.2033],[152.858,-26.9562,77.7535],[152.8608,-26.9359,157.3962],[152.8636,-26.9348,162.482],[152.8678,-26.9358,184.2119],[152.8682,-26.9336,187.4256],[152.8725,-26.9305,186.2455],[152.8754,-26.9135,167.705],[152.8595,-26.9113,170.7159],[152.8611,-26.9027,180.6964],[152.8553,-26.9019,169.4785],[152.8565,-26.8949,162.4442],[152.8542,-26.8946,167.6435],[152.8555,-26.8874,154.2037],[152.8668,-26.8889,158.6219],[152.8695,-26.8729,165.7576],[152.8574,-26.8713,203.2939],[152.8582,-26.8661,181.0607],[152.8516,-26.8653,195.6099],[152.854,-26.8559,161.6453],[152.8485,-26.8551,179.767],[152.848,-26.8581,174.1939],[152.8389,-26.855,134.5459],[152.8321,-26.8564,130.7735],[152.8318,-26.8533,133.8638],[152.8291,-26.8503,136.1721],[152.8245,-26.8494,204.7681],[152.8199,-26.8437,261.9906],[152.8182,-26.8362,296.1766],[152.8144,-26.8335,282.1322],[152.8125,-26.8284,329.5883],[152.808,-26.8278,340.6568],[152.8071,-26.8251,303.3975],[152.805,-26.8242,358.7626],[152.801,-26.8263,411.5208],[152.792,-26.8271,433.6972],[152.7868,-26.8223,395.3228],[152.7901,-26.8133,490.3852],[152.7887,-26.813,490.3852],[152.7894,-26.8097,527.0731],[152.7844,-26.8125,544.5432],[152.7771,-26.8096,526.502],[152.7795,-26.7972,477.7808],[152.7611,-26.7924,300.9716],[152.7592,-26.8031,373.9202],[152.7531,-26.7974,245.3945],[152.7496,-26.8157,470.5036],[152.7392,-26.8081,230.2224],[152.7337,-26.8073,209.6662],[152.735,-26.8113,294.0093],[152.7328,-26.815,381.0905],[152.7289,-26.8167,480.9525],[152.7221,-26.8069,288.2502],[152.7209,-26.8086,280.7966],[152.709,-26.8113,434.8477],[152.6966,-26.8092,440.8987],[152.6957,-26.808,438.6906],[152.6989,-26.8031,380.5316],[152.6792,-26.8,568.6068],[152.68,-26.8016,570.9193],[152.6779,-26.807,585.3306],[152.6813,-26.8099,582.0516],[152.679,-26.8164,573.5007],[152.6718,-26.8198,613.6208],[152.6731,-26.822,595.1077],[152.6778,-26.8209,580.6403],[152.6791,-26.8222,579.3663],[152.6764,-26.826,615.9769],[152.6785,-26.8304,608.8956],[152.6672,-26.836,626.5554],[152.6666,-26.8403,622.5919],[152.6709,-26.8449,663.0355],[152.6701,-26.8504,567.1151],[152.6684,-26.8519,554.5432],[152.6716,-26.8577,536.5553],[152.6748,-26.8566,528.3195],[152.6753,-26.8604,485.4953],[152.6775,-26.8626,462.0197],[152.6761,-26.8665,329.246],[152.6802,-26.8694,322.6715],[152.6844,-26.8756,275.451],[152.6864,-26.8758,276.1342],[152.6857,-26.8791,267.4604],[152.684,-26.8795,258.0388],[152.6877,-26.881,255.5626],[152.6872,-26.8864,211.3745],[152.6897,-26.8915,174.9942],[152.6884,-26.8969,165.845],[152.679,-26.8956,308.6369],[152.6786,-26.8978,261.3477],[152.6674,-26.8962,267.1559],[152.6667,-26.9063,160.679],[152.6608,-26.9099,137.1949],[152.6874,-26.9137,129.4993],[152.6822,-26.9152,123.2265],[152.6823,-26.9174,124.6823],[152.6778,-26.9186,118.4995],[152.6764,-26.9233,113.0967],[152.673,-26.9226,116.9976],[152.6696,-26.9282,110.4266],[152.6718,-26.9333,102.9559],[152.6703,-26.9337,104.9272],[152.671,-26.9382,100.6667],[152.6676,-26.9401,102.4967],[152.6676,-26.9436,101.3021],[152.6642,-26.9432,99.3433],[152.6642,-26.947,98.0],[152.6622,-26.946,98.8488],[152.6631,-26.948,100.3391],[152.6619,-26.9493,98.0],[152.6602,-26.9479,99.314],[152.6591,-26.9499,104.5033],[152.6561,-26.9478,104.3675],[152.6536,-26.9488,99.6101],[152.6513,-26.9553,100.6566],[152.6575,-26.9539,100.6714],[152.6577,-26.9564,102.4391],[152.6677,-26.9591,112.4816],[152.6663,-26.9637,102.7982],[152.6626,-26.965699999999998,101.9225],[152.6645,-26.9668,102.2006],[152.6647,-26.9691,106.1969],[152.6714,-26.9653,107.2571],[152.6767,-26.9661,109.4545],[152.6802,-26.9641,113.184],[152.6852,-26.965699999999998,113.3433],[152.6844,-26.9685,120.4768],[152.6803,-26.972,111.2053],[152.6814,-26.9749,112.3214],[152.6799,-26.9784,114.2728],[152.6831,-26.9806,114.069],[152.6865,-26.9788,114.3283],[152.6862,-26.9845,116.1923],[152.6893,-26.9846,116.9277],[152.688,-26.9875,116.8587],[152.6848,-26.987,122.0902],[152.6834,-26.9928,138.6758],[152.6911,-27.0045,133.9364],[152.697,-27.0092,162.5987],[152.6955,-27.0124,160.4145],[152.6976,-27.0135,155.8775],[152.6973,-27.0161,161.8266],[152.7008,-27.0183,163.0549],[152.7002,-27.0227,172.6487],[152.7035,-27.0248,183.6983],[152.7015,-27.0265,193.067],[152.7032,-27.0288,201.9595],[152.7024,-27.0309,226.1759],[152.6985,-27.0317,210.4732],[152.6975,-27.0335,209.0546],[152.698,-27.0395,202.919],[152.6967,-27.041,208.8243],[152.6982,-27.0423,199.5715],[152.6958,-27.0424,216.6118],[152.6891,-27.0483,228.2725],[152.6909,-27.0531,227.6669],[152.6892,-27.0551,230.7522],[152.6925,-27.0561,254.0591],[152.6928,-27.0576,237.062],[152.6949,-27.0556,251.2617],[152.6957,-27.0578,236.9148],[152.6947,-27.0586,236.1127],[152.6771,-27.0557,377.5836],[152.6829,-27.0616,462.3604],[152.687,-27.0808,522.2207],[152.6847,-27.0848,548.7313],[152.6771,-27.0875,580.5033],[152.6765,-27.09,577.0673],[152.6811,-27.0953,578.6716],[152.6898,-27.0928,562.7463],[152.708,-27.0963,536.7663],[152.7183,-27.1004,389.2237],[152.7181,-27.1022,388.131],[152.7345,-27.1023,421.9919],[152.7335,-27.1074,354.5743],[152.7303,-27.1088,383.3851],[152.7302,-27.1181,374.5871],[152.7281,-27.1219,403.7616],[152.7311,-27.1275,289.734],[152.7308,-27.1305,314.4652],[152.7351,-27.1428,420.1529],[152.7374,-27.1455,379.1082],[152.7379,-27.1505,461.7509],[152.7393,-27.1509,408.8552],[152.7291,-27.1638,408.1275],[152.7336,-27.1715,469.0605],[152.7306,-27.1716,481.5199],[152.7285,-27.1769,459.0135],[152.7262,-27.1766,450.8098],[152.7186,-27.1827,458.7108],[152.7163,-27.1866,500.2581],[152.7123,-27.1887,536.3962],[152.7112,-27.1922,531.5557],[152.709,-27.1922,510.6085],[152.7017,-27.2026,599.7869],[152.7042,-27.2088,643.0558],[152.7005,-27.2198,591.9723],[152.7022,-27.2264,530.8156],[152.7002,-27.2302,507.5302],[152.6909,-27.236,462.3732],[152.6925,-27.2418,461.0055],[152.6814,-27.2545,600.9712],[152.6812,-27.2627,655.4992],[152.6839,-27.2671,604.7087],[152.6837,-27.2724,606.2279],[152.6857,-27.2745,537.1387],[152.7049,-27.2773,587.8476],[152.7043,-27.2928,634.316],[152.7136,-27.2895,591.5059],[152.7173,-27.2926,580.7482],[152.732,-27.2972,621.9666],[152.7357,-27.2967,630.0222],[152.7389,-27.2937,681.4736],[152.7457,-27.2933,750.9602],[152.7488,-27.2951,734.8815],[152.7536,-27.295,744.5104],[152.7532,-27.297,746.0561],[152.7568,-27.3007,704.4111],[152.7565,-27.3072,717.7432],[152.756,-27.3098,660.7602],[152.7491,-27.3132,757.3091],[152.7486,-27.3169,738.3398],[152.7472,-27.3171,725.7615],[152.7505,-27.3204,716.2276],[152.7488,-27.3323,526.8024],[152.7547,-27.3331,539.0076],[152.7557,-27.3282,691.142],[152.7641,-27.3353,643.6176],[152.7675,-27.3349,649.2011],[152.7719,-27.3432,536.5688],[152.7709,-27.3479,565.8798],[152.772,-27.3497,495.2472],[152.7667,-27.3514,473.1095],[152.7629,-27.3546,470.0421],[152.7623,-27.3599,501.103],[152.76,-27.3639,515.034],[152.7629,-27.3673,500.417],[152.762,-27.3711,532.594],[152.7665,-27.377,544.9494],[152.7729,-27.3791,536.4495],[152.7724,-27.383,558.3315],[152.7764,-27.3887,501.7971],[152.7744,-27.393,509.305],[152.7746,-27.401,533.7095],[152.7986,-27.4051,460.2568],[152.7997,-27.4001,514.2568],[152.8021,-27.3987,491.6401],[152.8061,-27.401,508.8775],[152.8142,-27.4022,447.5085],[152.8188,-27.409,404.315],[152.8312,-27.4169,411.4545],[152.8368,-27.4189,375.6901],[152.8441,-27.418,366.7203],[152.8493,-27.4219,394.6601],[152.853,-27.4206,389.031],[152.8611,-27.4224,367.2178],[152.8626,-27.422,334.8801],[152.8631,-27.4177,189.7694],[152.8721,-27.4131,287.1787],[152.8972,-27.4173,224.0675],[152.8993,-27.4036,112.8396],[152.915,-27.4057,149.9567],[152.9169,-27.3942,85.8379],[152.9269,-27.3935,71.3417],[152.9341,-27.3996,60.292],[152.9373,-27.4,59.824],[152.941,-27.4045,72.4672],[152.9478,-27.4065,54.459],[152.9488,-27.4087,55.8187],[152.9589,-27.4028,49.1916],[152.9606,-27.3987,43.5141],[152.9655,-27.3969,47.1757],[152.972,-27.3983,41.7613],[152.9762,-27.4015,40.0305],[152.978,-27.3946,81.4221],[152.9752,-27.3917,80.6724],[152.9839,-27.3847,66.4414],[152.9803,-27.3752,60.2807],[152.9806,-27.3678,39.1339],[152.9831,-27.3681,53.4392],[152.9836,-27.3651,42.8083],[152.9807,-27.3641,44.7812],[152.9817,-27.3586,41.5519],[152.9878,-27.3595,37.5678],[152.9885,-27.3576,32.2172],[152.9871,-27.3541,35.9415],[152.9823,-27.3532,35.0366],[152.9822,-27.3512,33.5262],[152.9791,-27.3497,25.6063],[152.9804,-27.3486,22.3432],[152.9789,-27.3467,21.6302],[152.9811,-27.346,19.1048],[152.9805,-27.344,18.3577],[152.9832,-27.34,16.7044],[152.9883,-27.3363,11.6294],[152.9935,-27.335,13.9314],[152.9973,-27.324,6.2811],[153.0,-27.323,3.132],[153.0001,-27.3211,1.5756],[153.0018,-27.3216,3.8443],[153.0007,-27.3201,3.4146],[153.0025,-27.3195,8.4705],[152.9991,-27.3083,3.6916],[152.9995,-27.3123,2.9002],[152.9959,-27.3106,5.4122],[152.9973,-27.3021,4.3721],[153.0021,-27.302,2.7406],[153.0049,-27.2992,2.3066],[153.0062,-27.2998,2.2305],[153.0048,-27.3012,2.2305],[153.0074,-27.3013,0.449],[153.0073,-27.3024,0.449],[153.014,-27.3022,0.9616],[153.0086,-27.2979,2.0506],[153.0121,-27.2966,1.1395],[153.0158,-27.2875,0.0],[153.0284,-27.2974,0.0],[153.034,-27.2983,0.0],[153.0366,-27.293,0.0],[153.0352,-27.2858,0.0],[153.0384,-27.2811,0.0],[153.0448,-27.2788,0.0],[153.0584,-27.28,0.0]]],
[[[153.0401,-26.9879,4.2414],[153.0364,-26.989,5.3017],[153.0393,-26.9899,1.7291],[153.0412,-26.9884,5.3657],[153.0401,-26.9879,4.2414]]],
[[[153.0526,-26.9882,6.6518],[153.0519,-26.9869,4.342],[153.0507,-26.9877,3.6024],[153.0529,-26.9896,2.1103],[153.0526,-26.9882,6.6518]]],
[[[153.0821,-27.0028,1.1326],[153.0805,-27.0013,2.7843],[153.078,-27.003,0.0],[153.0771,-27.0078,1.5845],[153.0785,-27.0105,0.0],[153.082,-27.0112,2.5749],[153.0854,-27.0089,1.311],[153.0851,-27.0054,0.9619],[153.0821,-27.0028,1.1326]]],
[[[153.0746,-27.0012,3.085],[153.0751,-27.0017,0.0],[153.076,-27.0005,3.085],[153.0744,-26.9997,0.0],[153.0746,-27.0012,3.085]]],
[[[153.0702,-26.9895,2.9636],[153.0695,-26.9885,2.9636],[153.0696,-26.9908,7.7823],[153.0659,-26.9918,1.8574],[153.0691,-26.9922,8.1278],[153.0675,-26.9938,2.6456],[153.0697,-26.9925,8.1278],[153.0702,-26.9895,2.9636]]],
[[[153.0834,-26.9854,4.3531],[153.0819,-26.9844,2.3804],[153.0825,-26.9855,1.9573],[153.0857,-26.9865,0.5491],[153.084,-26.9851,4.3531],[153.0834,-26.9854,4.3531]]],
[[[153.0642,-26.9894,10.6698],[153.0666,-26.9881,2.5226],[153.0659,-26.9846,8.8882],[153.0628,-26.9875,11.3555],[153.0642,-26.9894,10.6698]]],
[[[153.0563,-26.9873,3.4823],[153.0558,-26.9863,4.5176],[153.0545,-26.9867,4.5176],[153.0548,-26.9872,4.5176],[153.0563,-26.9873,3.4823]]],
[[[153.064,-26.9853,5.4534],[153.0599,-26.9806,0.9062],[153.0563,-26.9824,10.5587],[153.0571,-26.9855,5.9394],[153.0591,-26.9847,6.2478],[153.0594,-26.9868,4.8348],[153.0607,-26.9852,8.6083],[153.064,-26.9853,5.4534]]],
[[[153.0542,-26.982,1.5633],[153.0525,-26.9829,0.6098],[153.0542,-26.9847,2.764],[153.0558,-26.9842,7.3777],[153.0558,-26.9831,7.3777],[153.0542,-26.982,1.5633]]],
[[[153.0574,-26.9774,5.3159],[153.0584,-26.9774,3.1124],[153.0577,-26.9759,3.307],[153.0567,-26.9764,5.3159],[153.0574,-26.9774,5.3159]]],
[[[153.1447,-27.076,0.0],[153.1451,-27.0766,0.0],[153.1456,-27.0765,0.0],[153.1451,-27.0758,0.0],[153.1447,-27.076,0.0]]],
[[[153.109,-27.0651,2.4563],[153.1091,-27.0641,3.1664],[153.1053,-27.0647,3.441],[153.1072,-27.0654,1.4587],[153.109,-27.0651,2.4563]]],
[[[153.1102,-27.0627,3.3106],[153.1107,-27.0629,3.3106],[153.1112,-27.0626,3.3106],[153.1105,-27.0622,3.3106],[153.1102,-27.0627,3.3106]]],
[[[153.1009,-27.0595,1.2173],[153.1012,-27.0601,1.7691],[153.1019,-27.0595,2.665],[153.1015,-27.0589,2.665],[153.1009,-27.0595,1.2173]]],
[[[153.1059,-27.036,0.0],[153.1048,-27.0361,0.0],[153.1052,-27.0381,0.8231],[153.1083,-27.0389,0.0],[153.1077,-27.0373,0.0],[153.1059,-27.036,0.0]]],
[[[153.1358,-26.94,8.2834],[153.0869,-26.9518,5.3398],[153.0892,-26.9576,2.7765],[153.0865,-26.9586,12.3329],[153.084,-26.9573,1.8242],[153.0831,-26.9614,6.7435],[153.0854,-26.9652,8.1846],[153.0827,-26.9643,1.4531],[153.0841,-26.9666,3.6388],[153.0826,-26.9699,3.91],[153.0801,-26.9669,1.6263],[153.079,-26.9724,7.2623],[153.0815,-26.9725,6.3676],[153.0837,-26.9771,1.6646],[153.0823,-26.9777,1.518],[153.0828,-26.9798,1.2317],[153.0845,-26.9786,5.9399],[153.0867,-26.9803,1.1369],[153.0917,-26.9787,4.0128],[153.0927,-26.9799,5.5481],[153.091,-26.9819,7.5489],[153.093,-26.9829,7.5489],[153.0937,-26.9865,2.1443],[153.0986,-26.9858,6.5622],[153.0931,-26.9918,3.3028],[153.095,-26.9939,0.0],[153.0975,-26.9918,11.3162],[153.096,-26.9973,1.133],[153.0974,-27.0009,2.3971],[153.0999,-27.0013,3.1382],[153.1007,-27.0031,3.7052],[153.1003,-27.003,3.7052],[153.0997,-27.0014,3.1382],[153.0972,-27.0018,3.042],[153.0982,-27.0076,2.0565],[153.1,-27.0077,11.0532],[153.0981,-27.0087,6.7164],[153.0991,-27.0138,3.3506],[153.1081,-27.0212,14.0416],[153.1192,-27.0271,3.3315],[153.125,-27.0345,11.2596],[153.1326,-27.0363,3.1687],[153.1321,-27.0407,0.0],[153.1344,-27.0515,1.4512],[153.1363,-27.0532,5.0834],[153.1353,-27.0541,1.5524],[153.1389,-27.0598,0.0],[153.1441,-27.0624,4.3973],[153.1464,-27.0673,0.0],[153.1554,-27.0722,3.7462],[153.1595,-27.0886,5.7686],[153.1625,-27.0916,1.3109],[153.1653,-27.0991,5.7016],[153.1761,-27.0999,0.0],[153.1969,-27.0968,0.0],[153.1991,-27.0945,1.7271],[153.2008,-27.0884,8.7704],[153.2074,-27.0829,4.4622],[153.2043,-27.0668,0.0],[153.1801,-27.0276,0.0],[153.17,-27.0062,0.0],[153.1609,-26.9836,5.1169],[153.147,-26.9372,1.016],[153.1358,-26.94,8.2834]]],
[[[153.0897,-26.9867,2.1966],[153.0896,-26.9856,2.0939],[153.0881,-26.9858,1.5844],[153.0892,-26.9867,2.1966],[153.0897,-26.9867,2.1966]]],
[[[153.0872,-26.9842,2.312],[153.0876,-26.9843,2.312],[153.0881,-26.9843,2.312],[153.0871,-26.9833,2.312],[153.0872,-26.9842,2.312]]],
[[[153.0858,-26.9835,1.3218],[153.0857,-26.9837,1.3218],[153.086,-26.9837,1.3218],[153.086,-26.9836,1.3218],[153.0858,-26.9835,1.3218]]],
[[[153.0837,-26.9822,1.7027],[153.0838,-26.9826,1.7027],[153.0841,-26.9826,1.7027],[153.0841,-26.9823,1.7027],[153.0837,-26.9822,1.7027]]],
[[[153.0807,-26.9764,1.518],[153.0784,-26.9744,0.0],[153.0768,-26.9791,6.6283],[153.0812,-26.9827,2.435],[153.0786,-26.9758,0.0],[153.0803,-26.9778,5.1493],[153.0807,-26.9764,1.518]]],
[[[153.0792,-26.9546,0.5935],[153.0798,-26.9516,1.4526],[153.0774,-26.9505,3.8631],[153.0775,-26.9525,5.5414],[153.0731,-26.9541,5.1179],[153.0724,-26.9562,4.2976],[153.0759,-26.9591,6.977],[153.0792,-26.9546,0.5935]]]]}}