{"type": "Feature","bbox": [146.0314,-23.556,150.442,-20.9309],"geometry": {"type": "MultiPolygon","coordinates": [[[[147.1605,-23.3374,409.0738],[147.1617,-23.3398,415.6119],[147.2866,-23.3512,595.3887],[147.2861,-23.3369,532.3606],[147.2831,-23.3307,515.6216],[147.2933,-23.3229,487.7739],[147.2891,-23.3124,457.1862],[147.2848,-23.3066,443.6666],[147.2791,-23.3027,450.4198],[147.2784,-23.2945,444.92],[147.285,-23.2851,479.6953],[147.2873,-23.2786,464.6043],[147.284,-23.2741,459.0563],[147.2751,-23.2708,429.4053],[147.2714,-23.2676,426.8099],[147.2719,-23.2633,434.8759],[147.2696,-23.2601,449.1763],[147.2704,-23.2559,475.0162],[147.2612,-23.2461,428.1088],[147.2606,-23.21,417.4111],[147.2696,-23.2069,383.8618],[147.2791,-23.1952,372.5226],[147.2865,-23.1934,381.9621],[147.2982,-23.1954,394.535],[147.315,-23.1931,360.9585],[147.3232,-23.1899,347.6863],[147.3255,-23.1874,353.8991],[147.3399,-23.1826,351.5019],[147.3513,-23.1865,353.757],[147.354,-23.1904,342.8046],[147.3624,-23.1803,336.3559],[147.3698,-23.1772,350.1154],[147.3726,-23.1706,363.657],[147.3834,-23.1654,350.8398],[147.3912,-23.1561,333.2968],[147.3948,-23.1473,340.4268],[147.4006,-23.1466,332.4533],[147.4049,-23.1433,320.0624],[147.4116,-23.1344,331.2349],[147.4221,-23.1289,314.4963],[147.4284,-23.1291,311.0239],[147.4353,-23.1221,313.4778],[147.4416,-23.1195,333.4866],[147.4426,-23.1141,319.4904],[147.4469,-23.1071,308.6802],[147.46,-23.0986,308.8522],[147.4641,-23.0922,302.4778],[147.4681,-23.0911,300.9221],[147.4766,-23.0929,295.96],[147.4785,-23.0915,296.2595],[147.4875,-23.0787,310.1836],[147.485,-23.0692,300.4026],[147.4864,-23.0628,295.0394],[147.4826,-23.0582,290.2571],[147.4862,-23.0541,289.7086],[147.4837,-23.0467,291.8502],[147.4999,-23.0385,285.8142],[147.5084,-23.0291,281.1387],[147.5114,-23.0281,282.2101],[147.5166,-23.0301,281.0781],[147.52,-23.0284,281.9842],[147.497,-23.0009,305.4627],[147.5043,-22.986,305.5349],[147.5531,-23.009,277.6257],[147.5548,-22.9983,273.8152],[147.5535,-22.9927,274.6767],[147.5595,-22.9909,272.143],[147.561,-22.9875,270.314],[147.5556,-22.9796,270.3775],[147.5554,-22.9764,270.0],[147.5599,-22.973,268.6406],[147.5627,-22.9676,263.9731],[147.5682,-22.9617,264.3655],[147.5767,-22.9607,262.7081],[147.5823,-22.963,262.5243],[147.5879,-22.9222,274.4621],[147.5969,-22.9234,269.5501],[147.5989,-22.909,258.7007],[147.6064,-22.9073,256.4501],[147.6077,-22.9006,266.2823],[147.6018,-22.8948,264.4243],[147.6049,-22.8952,264.7725],[147.6051,-22.8933,259.647],[147.6125,-22.8964,256.2327],[147.614,-22.8943,258.094],[147.618,-22.894,259.9802],[147.6216,-22.8992,261.1813],[147.6216,-22.902,256.9429],[147.6187,-22.9044,254.9956],[147.6207,-22.9121,253.4837],[147.6221,-22.9106,254.6294],[147.6246,-22.9112,252.7806],[147.6231,-22.9132,252.0037],[147.6249,-22.9142,251.0927],[147.6266,-22.9193,249.8517],[147.6308,-22.9184,248.9579],[147.6344,-22.9224,249.9937],[147.6401,-22.9221,249.8403],[147.6406,-22.9263,246.9397],[147.6476,-22.9252,246.2391],[147.6483,-22.9231,244.9487],[147.6508,-22.9247,250.6477],[147.661,-22.9211,243.283],[147.6639,-22.9127,244.7634],[147.6757,-22.9129,242.5596],[147.6778,-22.9107,242.4935],[147.6814,-22.9125,241.5724],[147.6808,-22.9097,243.2038],[147.6848,-22.9117,241.0473],[147.6864,-22.9147,241.8643],[147.6886,-22.9127,237.558],[147.6943,-22.9146,239.5561],[147.6943,-22.9133,239.793],[147.6988,-22.9115,238.093],[147.6976,-22.91,238.9315],[147.7007,-22.9061,240.1609],[147.7017,-22.9016,240.6477],[147.7004,-22.8949,239.9151],[147.7016,-22.8908,239.6156],[147.7037,-22.8906,241.0058],[147.7022,-22.889,241.3179],[147.7028,-22.8858,240.3197],[147.7374,-22.8615,245.6812],[147.7406,-22.8623,246.2059],[147.755,-22.8561,252.636],[147.7588,-22.8445,252.2105],[147.7635,-22.8417,253.8866],[147.7659,-22.8362,254.2305],[147.7697,-22.8335,253.5454],[147.7736,-22.8245,254.6963],[147.7759,-22.8249,255.182],[147.7841,-22.8192,259.5623],[147.7881,-22.8074,260.1761],[147.7941,-22.8005,263.0243],[147.821,-22.7829,269.3187],[147.8257,-22.7848,270.7681],[147.8346,-22.7832,274.1483],[147.8451,-22.7851,279.5785],[147.8499,-22.781,278.8085],[147.8563,-22.7804,281.3564],[147.8611,-22.7742,287.2061],[147.8638,-22.7737,284.355],[147.8738,-22.7657,289.6108],[147.8951,-22.7617,298.651],[147.9032,-22.7512,304.937],[147.9074,-22.7492,305.9065],[147.9087,-22.7425,308.2123],[147.912,-22.7389,310.5159],[147.9133,-22.7332,320.459],[147.9147,-22.7327,314.3847],[147.9145,-22.7295,316.4388],[147.9118,-22.7281,319.3576],[147.9106,-22.7233,320.5903],[147.9134,-22.721,320.5921],[147.9129,-22.7189,322.1277],[147.9196,-22.7174,326.2219],[147.93,-22.7186,330.2085],[147.9377,-22.7134,338.3073],[147.9461,-22.7103,345.7491],[147.9486,-22.7108,345.4709],[147.9553,-22.7067,351.4265],[147.9588,-22.7061,354.7487],[147.961,-22.7077,355.6501],[147.9709,-22.7024,366.5032],[147.9759,-22.7019,376.3878],[147.9853,-22.7045,382.0755],[147.9955,-22.6897,403.4846],[147.9958,-22.6855,410.8222],[147.9931,-22.6818,416.3712],[147.9952,-22.674,433.3056],[148.001,-22.6665,449.0636],[148.0087,-22.6616,480.1337],[148.0131,-22.6543,702.2866],[148.0161,-22.6635,673.1486],[148.0149,-22.6731,689.627],[148.0169,-22.6804,468.6186],[148.021,-22.6876,469.4278],[148.0205,-22.6903,488.1224],[148.0229,-22.6931,502.9031],[148.0478,-22.6975,698.2992],[148.0608,-22.7099,474.8332],[148.0605,-22.7177,435.6723],[148.0632,-22.7327,426.3518],[148.0617,-22.7358,423.3228],[148.0639,-22.7395,455.4884],[148.0703,-22.7411,459.1764],[148.0871,-22.7514,418.5839],[148.0913,-22.7565,396.6453],[148.1097,-22.767,396.7326],[148.1134,-22.7663,401.5797],[148.1321,-22.7687,410.3676],[148.1425,-22.7648,416.7845],[148.1458,-22.7764,395.27],[148.1484,-22.7793,389.9574],[148.1684,-22.783,375.3292],[148.1767,-22.7906,382.365],[148.184,-22.7892,389.8563],[148.1958,-22.7811,381.4078],[148.2125,-22.7821,340.4704],[148.2303,-22.7775,338.5916],[148.2325,-22.7732,328.1643],[148.2347,-22.7721,332.9155],[148.2388,-22.7397,308.4656],[148.2427,-22.7415,311.8858],[148.2482,-22.7381,319.6197],[148.2532,-22.7396,330.8656],[148.2634,-22.7389,317.1808],[148.2677,-22.7366,325.4864],[148.2696,-22.7335,320.4366],[148.2744,-22.732,372.2935],[148.2775,-22.7334,366.3115],[148.281,-22.7301,373.9091],[148.2952,-22.7331,379.7073],[148.2978,-22.7322,410.8312],[148.2988,-22.7292,447.2186],[148.3069,-22.7299,390.1135],[148.3098,-22.7282,373.5491],[148.3154,-22.73,376.5074],[148.3229,-22.7268,368.7203],[148.3235,-22.7253,352.9066],[148.3298,-22.7249,383.5493],[148.332,-22.7266,387.2065],[148.3369,-22.725,344.9764],[148.343,-22.7257,260.1293],[148.3707,-22.7657,355.0989],[148.3739,-22.7675,414.6698],[148.3704,-22.7894,414.5078],[148.3712,-22.7905,424.3112],[148.3683,-22.795,389.4279],[148.3659,-22.7951,389.7717],[148.3642,-22.7983,407.5207],[148.3589,-22.8017,486.2289],[148.3561,-22.8074,414.7123],[148.3529,-22.8089,402.7954],[148.3454,-22.8073,399.4927],[148.3375,-22.8104,435.716],[148.3356,-22.8144,475.1276],[148.3316,-22.8172,448.3486],[148.3297,-22.827,422.7118],[148.3258,-22.8325,479.051],[148.3222,-22.8331,471.9694],[148.3192,-22.8373,514.9299],[148.3169,-22.8371,539.8917],[148.3089,-22.8465,516.4358],[148.299,-22.8544,519.6054],[148.2966,-22.8546,563.5311],[148.2923,-22.8644,499.1618],[148.2901,-22.8669,457.7096],[148.2846,-22.8683,428.0308],[148.2823,-22.8746,468.5589],[148.2766,-22.8738,544.7729],[148.275,-22.8754,533.1976],[148.2778,-22.8774,440.7618],[148.2798,-22.8857,368.7341],[148.2898,-22.8996,494.9207],[148.2866,-22.9046,481.8376],[148.2882,-22.9079,434.0507],[148.2977,-22.9095,508.292],[148.3248,-22.9498,322.3188],[148.4582,-22.8678,265.0853],[148.5419,-22.8773,216.8479],[148.5402,-22.9234,207.8513],[148.5468,-22.9306,201.7162],[148.5527,-22.9418,184.6438],[148.5498,-22.9469,183.2212],[148.5425,-22.951,181.3571],[148.5447,-22.9545,176.3649],[148.5426,-22.9594,176.4647],[148.5503,-22.9572,209.3291],[148.5501,-22.9626,193.705],[148.5531,-22.966,165.7695],[148.5544,-22.9747,169.8318],[148.5621,-22.9757,167.4356],[148.576,-22.9684,164.8549],[148.5809,-22.9717,166.5515],[148.581,-22.9757,162.0168],[148.5845,-22.9777,161.4673],[148.5825,-22.9808,159.799],[148.5866,-22.9839,162.4493],[148.585,-23.0005,164.0631],[148.5997,-23.0029,157.8799],[148.5878,-23.0715,159.4492],[148.5621,-23.1161,186.9081],[148.5789,-23.1178,195.3469],[148.6241,-23.1495,202.1119],[148.5651,-23.2223,190.605],[148.5822,-23.2342,189.8847],[148.5119,-23.2891,227.1907],[148.5024,-23.3304,258.6938],[148.5311,-23.3393,240.1768],[148.5503,-23.3472,260.6342],[148.5704,-23.3797,254.1749],[148.5503,-23.4073,266.3223],[148.5729,-23.4693,178.0442],[148.5227,-23.5054,150.399],[148.5239,-23.5151,148.7866],[148.5229,-23.5197,148.4946],[148.5246,-23.525,147.7083],[148.5228,-23.538,149.1391],[148.5269,-23.5525,146.7971],[148.5375,-23.556,149.3509],[148.5461,-23.5525,149.6702],[148.5504,-23.556,151.3326],[148.5591,-23.5533,150.8325],[148.5706,-23.5525,144.2493],[148.577,-23.5474,142.772],[148.5769,-23.5454,139.9114],[148.5741,-23.5446,144.5094],[148.5749,-23.537,143.251],[148.5771,-23.5331,142.7023],[148.5812,-23.5311,143.2965],[148.5858,-23.5316,138.6782],[148.5873,-23.5368,145.1043],[148.5926,-23.5433,142.3014],[148.602,-23.54,142.2896],[148.6063,-23.5413,140.5374],[148.6122,-23.5396,140.7932],[148.6187,-23.5358,136.4687],[148.6257,-23.525,140.3193],[148.6259,-23.5202,137.8398],[148.6302,-23.5121,136.1444],[148.6341,-23.5097,141.2554],[148.6357,-23.4985,134.8121],[148.6339,-23.4813,138.1508],[148.635,-23.4766,137.1938],[148.6366,-23.4756,136.2209],[148.6428,-23.4774,138.1699],[148.6501,-23.4773,135.3483],[148.6542,-23.4761,135.429],[148.6785,-23.4494,133.1545],[148.7011,-23.4403,134.7801],[148.7055,-23.4353,131.1711],[148.7047,-23.4314,129.4945],[148.6834,-23.4279,137.178],[148.675,-23.4247,137.5777],[148.6723,-23.4211,132.6386],[148.6735,-23.4193,130.1493],[148.6765,-23.42,134.1018],[148.6783,-23.4188,133.1135],[148.6791,-23.4105,129.282],[148.6815,-23.4047,132.9029],[148.6949,-23.4021,129.9692],[148.7125,-23.3864,132.8512],[148.712,-23.3827,132.8925],[148.706,-23.3744,129.2729],[148.7046,-23.3658,130.9611],[148.7072,-23.3593,125.5247],[148.7135,-23.3526,129.4289],[148.7167,-23.3513,137.0667],[148.7211,-23.3524,129.2021],[148.7294,-23.3486,127.4254],[148.7361,-23.3479,127.1195],[148.7442,-23.3654,126.9437],[148.7475,-23.3791,130.2312],[148.7503,-23.3807,127.2402],[148.7617,-23.3811,127.6274],[148.7711,-23.3785,123.1563],[148.7764,-23.3722,128.4021],[148.7776,-23.3527,132.0657],[148.7812,-23.3511,127.1845],[148.7852,-23.3529,129.9326],[148.7968,-23.3524,126.6649],[148.7963,-23.3581,128.1273],[148.7997,-23.3624,119.0],[148.8157,-23.3699,119.2773],[148.8257,-23.3795,125.2053],[148.8355,-23.3722,127.0354],[148.8443,-23.3717,126.3607],[148.8512,-23.368,121.8837],[148.8642,-23.3575,122.9232],[148.8682,-23.3524,129.8515],[148.8699,-23.3315,128.1946],[148.8677,-23.3165,127.6792],[148.8564,-23.31,116.8765],[148.8453,-23.2893,113.722],[148.8458,-23.2849,113.9776],[148.8538,-23.2801,119.4761],[148.8531,-23.2763,118.5617],[148.8558,-23.2659,119.7992],[148.858,-23.2634,116.9222],[148.8657,-23.2603,116.5948],[148.8734,-23.2605,117.6407],[148.8729,-23.2531,122.7154],[148.876,-23.2519,122.5626],[148.8792,-23.2478,117.5695],[148.8869,-23.2559,115.5778],[148.898,-23.2614,116.0692],[148.913,-23.2649,114.7744],[148.9251,-23.262,112.4853],[148.9273,-23.2586,117.5159],[148.9268,-23.2564,118.4058],[148.9212,-23.252,116.887],[148.9265,-23.245,113.203],[148.9303,-23.2428,121.5554],[148.9326,-23.2444,114.4534],[148.9415,-23.2444,116.6053],[148.946,-23.243,113.5048],[148.9481,-23.2406,119.9681],[148.9526,-23.2247,114.675],[148.9519,-23.2229,115.7278],[148.9477,-23.2213,119.4743],[148.9473,-23.2179,117.6578],[148.9534,-23.2078,117.7663],[148.9588,-23.2033,113.6779],[148.9638,-23.2028,118.5321],[148.9687,-23.2053,119.1212],[148.9704,-23.2045,115.0253],[148.9703,-23.2021,119.5343],[148.9662,-23.1986,118.0154],[148.9667,-23.1971,116.7556],[148.9747,-23.1928,119.2627],[148.983,-23.1955,112.9598],[148.9854,-23.1945,114.9497],[148.9926,-23.1855,112.0285],[148.998,-23.1742,116.3844],[149.0063,-23.1667,112.4896],[149.007,-23.1559,106.989],[149.0057,-23.1502,116.6766],[148.991,-23.1465,114.1032],[148.9873,-23.1438,115.9005],[148.9905,-23.1297,114.3993],[148.9867,-23.1276,112.8912],[148.9782,-23.1283,109.6091],[148.9733,-23.1252,114.0552],[148.9772,-23.1131,108.13],[148.9716,-23.1068,106.42],[148.9712,-23.1025,107.2224],[148.9725,-23.0983,104.5297],[148.9762,-23.0945,107.5406],[148.9796,-23.0923,111.5195],[149.0254,-23.0814,102.8645],[149.0317,-23.0758,99.1295],[149.0379,-23.0635,102.4125],[149.0443,-23.0588,101.9896],[149.0545,-23.0584,104.3835],[149.0844,-23.0614,104.2086],[149.1114,-23.056,99.4868],[149.1155,-23.0564,98.2726],[149.1179,-23.0604,99.3702],[149.1251,-23.0627,97.4308],[149.1303,-23.0608,101.6222],[149.1473,-23.0587,94.8387],[149.1681,-23.053,94.3665],[149.1791,-23.0483,96.0294],[149.1862,-23.048,99.9766],[149.1936,-23.0507,101.8229],[149.1992,-23.0499,98.4111],[149.2046,-23.0437,96.1974],[149.2144,-23.0227,100.6559],[149.2229,-23.0131,99.1033],[149.2291,-23.003,92.2722],[149.234,-22.9892,97.1847],[149.2341,-22.9825,101.8035],[149.2372,-22.976,101.0126],[149.2408,-22.973,97.434],[149.2525,-22.9739,96.5152],[149.2801,-22.9616,96.8323],[149.2872,-22.956,91.2498],[149.2888,-22.9496,92.1489],[149.2847,-22.9461,97.7385],[149.2863,-22.9401,92.6748],[149.3039,-22.9258,85.0454],[149.3076,-22.9135,89.6883],[149.3125,-22.9064,88.4658],[149.3241,-22.9013,93.2711],[149.329,-22.8973,95.3581],[149.3278,-22.8808,93.4519],[149.3296,-22.8757,85.4158],[149.3467,-22.8788,89.5253],[149.3565,-22.8757,88.9028],[149.3676,-22.8778,87.5052],[149.3983,-22.8573,122.4287],[149.4132,-22.8575,131.9186],[149.4222,-22.8466,181.1529],[149.4347,-22.8279,365.1806],[149.4331,-22.8182,330.4915],[149.4362,-22.8094,395.25],[149.4302,-22.8063,432.7492],[149.4304,-22.7926,333.8515],[149.427,-22.7716,302.3899],[149.4288,-22.7694,298.6984],[149.4359,-22.7683,298.042],[149.4404,-22.7654,280.6992],[149.4485,-22.7408,416.6143],[149.4351,-22.7298,389.7617],[149.4312,-22.7196,365.6463],[149.432,-22.7016,459.4486],[149.4207,-22.6959,324.8201],[149.4087,-22.6947,362.8949],[149.405,-22.6883,380.2249],[149.4055,-22.6836,413.5481],[149.4037,-22.6809,463.8402],[149.3962,-22.6854,466.8893],[149.3907,-22.6853,461.914],[149.3855,-22.6756,479.1363],[149.3857,-22.6732,512.6537],[149.377,-22.6589,448.8563],[149.3812,-22.6431,468.0302],[149.3844,-22.6416,494.4099],[149.3882,-22.6354,507.5615],[149.3845,-22.6309,512.9449],[149.3882,-22.6238,541.4328],[149.3885,-22.616,489.4618],[149.3935,-22.6141,473.7885],[149.397,-22.6153,476.0973],[149.399,-22.6172,495.9517],[149.3995,-22.6208,485.8819],[149.4041,-22.6218,450.3517],[149.4067,-22.6282,484.9868],[149.4058,-22.6318,474.1898],[149.4076,-22.6368,479.2026],[149.4095,-22.637,479.2026],[149.417,-22.6455,458.9293],[149.4199,-22.6451,464.1365],[149.4244,-22.6473,449.318],[149.4303,-22.6428,375.4337],[149.4346,-22.6443,354.9875],[149.4377,-22.6425,352.6224],[149.4469,-22.6307,319.0189],[149.4512,-22.6302,356.5814],[149.4524,-22.628,369.5739],[149.4587,-22.6315,288.8828],[149.4634,-22.5967,80.1218],[149.4697,-22.5978,79.6374],[149.4773,-22.6042,67.9573],[149.4815,-22.6139,70.31],[149.4925,-22.621,55.373],[149.4949,-22.621,54.1983],[149.4955,-22.619,54.1848],[149.4995,-22.6175,51.2026],[149.5111,-22.617,46.7217],[149.5181,-22.6232,44.9638],[149.5229,-22.6183,41.5226],[149.5358,-22.6146,37.0327],[149.5497,-22.6026,30.2644],[149.5567,-22.602,26.8264],[149.5619,-22.5955,25.6166],[149.5657,-22.5935,24.6109],[149.5751,-22.592,18.4511],[149.5818,-22.5949,20.1686],[149.591,-22.5936,17.574],[149.5981,-22.5965,20.6629],[149.6064,-22.5934,14.3471],[149.6095,-22.5988,13.7096],[149.6125,-22.5974,10.2674],[149.6254,-22.5977,3.6024],[149.6245,-22.5936,5.5309],[149.6265,-22.5905,5.1417],[149.6268,-22.5821,3.412],[149.6289,-22.5815,5.4251],[149.636,-22.5867,3.4187],[149.6395,-22.5848,3.9164],[149.6353,-22.5728,4.5952],[149.6361,-22.5624,3.1931],[149.6309,-22.5478,4.7512],[149.631,-22.5442,4.7247],[149.6398,-22.5325,0.7007],[149.6523,-22.5231,0.6166],[149.6574,-22.5046,0.0],[149.6645,-22.4984,0.0],[149.6825,-22.4909,0.0],[149.6951,-22.4821,0.0],[149.7521,-22.4364,0.0],[149.7442,-22.4273,7.9487],[149.7436,-22.4214,0.0],[149.7467,-22.4129,6.9789],[149.7461,-22.4062,3.7626],[149.7481,-22.3926,0.0],[149.7469,-22.387,3.9493],[149.7541,-22.3774,4.139],[149.7648,-22.3744,7.2843],[149.7667,-22.3713,2.2998],[149.7498,-22.3614,5.6672],[149.7454,-22.3556,0.8826],[149.7417,-22.356,1.1518],[149.7364,-22.3537,1.158],[149.7311,-22.3478,0.0],[149.7133,-22.3566,2.8301],[149.7105,-22.3697,0.0],[149.7043,-22.3694,0.0],[149.6985,-22.3611,0.9191],[149.6933,-22.3482,0.0],[149.6842,-22.3451,1.9628],[149.6812,-22.3457,0.0],[149.6698,-22.3557,0.0],[149.6583,-22.3549,3.3262],[149.6563,-22.336,4.5848],[149.6525,-22.3296,0.198],[149.6448,-22.323,2.5416],[149.6423,-22.3172,0.2393],[149.6308,-22.3024,1.126],[149.6294,-22.2972,0.1575],[149.6247,-22.2965,0.1812],[149.5973,-22.2815,0.1268],[149.5984,-22.2751,5.7776],[149.6024,-22.2737,2.3152],[149.6032,-22.2716,0.3301],[149.5977,-22.2675,1.182],[149.5977,-22.2645,2.9055],[149.6008,-22.2611,6.9394],[149.5988,-22.2539,3.4649],[149.592,-22.2488,1.4927],[149.5876,-22.2484,2.0406],[149.5837,-22.2418,1.0442],[149.5773,-22.2376,1.229],[149.5741,-22.2332,0.9046],[149.5613,-22.1975,10.9364],[149.5623,-22.1915,0.0695],[149.556,-22.1905,0.4085],[149.5544,-22.1873,3.3322],[149.5576,-22.1831,0.9619],[149.5615,-22.1812,8.477],[149.5631,-22.1769,0.0],[149.5672,-22.1742,0.0],[149.5669,-22.1719,0.0],[149.5658,-22.1707,1.2403],[149.5615,-22.1714,7.5253],[149.5589,-22.1682,6.8265],[149.5565,-22.1516,0.4948],[149.5538,-22.1474,0.0],[149.5537,-22.1405,0.0],[149.5432,-22.1342,10.0732],[149.542,-22.128,1.3116],[149.5438,-22.1234,0.0677],[149.5378,-22.1192,0.0],[149.5251,-22.0975,0.0],[149.5235,-22.0879,0.7054],[149.5203,-22.084,1.1681],[149.5171,-22.0753,1.4371],[149.5179,-22.065,1.7334],[149.5166,-22.0541,10.1452],[149.5199,-22.0351,1.1857],[149.5236,-22.0299,0.4148],[149.5234,-22.0271,0.6309],[149.5155,-22.0189,4.4986],[149.5144,-22.0119,0.5081],[149.512,-22.0108,0.0],[149.5104,-22.0066,5.1443],[149.4983,-21.9984,0.0],[149.4901,-21.9895,0.0],[149.4865,-21.9785,0.0],[149.4841,-21.9766,0.0],[149.4853,-21.9585,0.0],[149.4802,-21.9573,0.0],[149.4808,-21.9554,0.0],[149.4738,-21.9435,0.0],[149.4697,-21.9302,0.0],[149.4663,-21.9281,0.0],[149.4654,-21.9257,3.8074],[149.4667,-21.9233,1.4809],[149.4655,-21.9085,0.0],[149.4607,-21.9083,2.2986],[149.4598,-21.904,3.2164],[149.4629,-21.9069,5.1048],[149.4657,-21.9025,2.2379],[149.4623,-21.8759,4.0878],[149.4646,-21.8592,7.3365],[149.4717,-21.8385,0.0],[149.4627,-21.839,0.4272],[149.4559,-21.8301,7.1106],[149.4595,-21.8284,0.7446],[149.4631,-21.8222,8.5314],[149.4584,-21.8175,0.0],[149.4525,-21.8169,0.0],[149.446,-21.8115,0.0],[149.4424,-21.8126,3.0638],[149.439,-21.8104,0.0],[149.4343,-21.8181,3.6117],[149.4377,-21.8092,0.0],[149.4322,-21.797,2.9361],[149.4337,-21.7938,1.2569],[149.4326,-21.7804,0.0],[149.4349,-21.752,0.0],[149.4308,-21.7459,0.0],[149.4295,-21.7465,4.3301],[149.4294,-21.7563,1.8056],[149.4269,-21.7581,2.1204],[149.4292,-21.7641,2.0198],[149.4255,-21.7671,3.8486],[149.4267,-21.7712,7.1082],[149.4217,-21.7724,7.4645],[149.4221,-21.7708,4.0416],[149.4247,-21.7703,3.4006],[149.4243,-21.7664,3.8486],[149.4273,-21.7639,5.1264],[149.4246,-21.7605,4.3555],[149.4285,-21.7535,1.358],[149.4252,-21.7434,4.6652],[149.4316,-21.7413,4.2651],[149.434,-21.7435,3.9292],[149.4397,-21.7435,12.389],[149.4565,-21.7299,4.6077],[149.4549,-21.7277,2.327],[149.4446,-21.7257,2.8308],[149.4425,-21.7236,2.496],[149.4395,-21.7267,3.9851],[149.4356,-21.7236,8.2081],[149.4368,-21.7265,5.1133],[149.4327,-21.727,6.3158],[149.4316,-21.7252,8.283],[149.4356,-21.7261,6.6472],[149.434,-21.724,6.8739],[149.4358,-21.7219,4.9278],[149.4391,-21.7252,5.7136],[149.442,-21.7222,4.1523],[149.4461,-21.7248,10.3416],[149.4555,-21.7263,4.3519],[149.4608,-21.7294,8.5153],[149.4628,-21.7324,5.7859],[149.4666,-21.7329,11.1338],[149.4736,-21.7372,6.9636],[149.4746,-21.7416,2.5243],[149.4767,-21.7435,10.4387],[149.4797,-21.7429,0.0],[149.4783,-21.7393,0.0],[149.4807,-21.7292,0.0],[149.478,-21.7279,0.0],[149.4745,-21.7292,0.0],[149.4727,-21.7261,0.0],[149.4718,-21.7209,0.0],[149.4733,-21.7111,0.0],[149.4706,-21.7084,0.0],[149.4551,-21.7139,4.0168],[149.451,-21.7138,2.9802],[149.4503,-21.7155,3.5587],[149.4493,-21.7132,2.6394],[149.4572,-21.7113,0.0],[149.4582,-21.708,0.0],[149.4527,-21.6883,0.125],[149.4466,-21.6906,4.7531],[149.4448,-21.6879,12.0568],[149.4455,-21.6871,12.0568],[149.4476,-21.6894,10.7009],[149.449,-21.6872,21.8406],[149.4531,-21.6863,1.9012],[149.4554,-21.6839,0.0],[149.4559,-21.6796,0.0],[149.452,-21.6707,0.0],[149.448,-21.6708,0.0],[149.4454,-21.6677,0.0],[149.4434,-21.6595,7.4356],[149.4484,-21.6604,11.0009],[149.4491,-21.6587,0.0],[149.4461,-21.6555,0.0],[149.4424,-21.6549,0.0],[149.44,-21.6512,6.5334],[149.4386,-21.64,1.3418],[149.4405,-21.631,9.3435],[149.3848,-21.6243,246.5365],[149.3882,-21.6274,231.641],[149.3877,-21.6336,211.2723],[149.3903,-21.6365,190.213],[149.3846,-21.6448,90.5287],[149.3835,-21.6494,67.3292],[149.3797,-21.6508,57.6906],[149.3718,-21.6498,118.6996],[149.3662,-21.6548,72.6661],[149.3618,-21.6495,44.5286],[149.3525,-21.6701,27.7405],[149.3498,-21.6728,30.4001],[149.3547,-21.678,32.4649],[149.342,-21.6886,49.4762],[149.3397,-21.6828,63.9676],[149.3357,-21.6826,72.7814],[149.3319,-21.692,106.9299],[149.323,-21.6972,101.8027],[149.32,-21.6965,103.2241],[149.3124,-21.7004,119.8103],[149.3063,-21.6969,171.2654],[149.3015,-21.7003,197.3533],[149.2861,-21.7016,221.0204],[149.2828,-21.7118,139.9058],[149.2829,-21.7196,211.4187],[149.277,-21.7273,266.8643],[149.2706,-21.7311,148.8257],[149.2681,-21.7305,189.3114],[149.2634,-21.7404,209.0756],[149.2557,-21.7431,124.7419],[149.2491,-21.7434,288.5492],[149.2463,-21.742,277.871],[149.2335,-21.7494,336.4669],[149.2235,-21.7518,345.5864],[149.2244,-21.7467,398.5313],[149.2209,-21.7381,372.818],[149.2161,-21.7447,347.1806],[149.2132,-21.7447,343.2721],[149.2064,-21.7516,311.2725],[149.2068,-21.7555,333.5965],[149.2022,-21.7554,357.2467],[149.202,-21.7578,351.1321],[149.2001,-21.7593,340.5693],[149.1939,-21.7615,365.942],[149.1911,-21.7559,335.0245],[149.1835,-21.7555,350.1777],[149.1853,-21.7578,341.0638],[149.1826,-21.7677,332.5879],[149.177,-21.7651,353.3137],[149.1755,-21.7701,383.9508],[149.1742,-21.7703,376.393],[149.1655,-21.7681,526.1261],[149.1573,-21.7579,527.9636],[149.1501,-21.7566,499.372],[149.1487,-21.7539,452.243],[149.1399,-21.7539,469.1186],[149.1369,-21.7489,471.9236],[149.1369,-21.7457,568.0577],[149.1347,-21.7444,574.2806],[149.1316,-21.7447,498.4365],[149.1299,-21.7431,545.2037],[149.1233,-21.7457,435.9528],[149.117,-21.7459,502.656],[149.1079,-21.743,381.2311],[149.1035,-21.7444,330.1715],[149.1004,-21.741,361.6576],[149.0966,-21.7396,418.7038],[149.0887,-21.74,471.7729],[149.0839,-21.7371,492.9383],[149.0665,-21.7328,567.4601],[149.065,-21.7342,547.9011],[149.0627,-21.7491,519.9982],[149.0583,-21.7556,515.6547],[149.0588,-21.7633,502.3381],[149.052,-21.766,452.3508],[149.0505,-21.7635,443.7578],[149.0461,-21.7648,340.8817],[149.0354,-21.771,676.1201],[149.0272,-21.7527,478.0835],[149.028,-21.7446,368.1481],[149.0268,-21.742,297.9094],[149.0127,-21.7367,202.2659],[149.0069,-21.7271,185.7964],[148.9938,-21.7188,177.2305],[148.9994,-21.7046,179.2797],[148.9983,-21.6799,180.843],[149.0025,-21.6727,181.9354],[149.0086,-21.6706,181.2486],[149.0199,-21.661,186.4784],[149.0179,-21.652,181.9012],[149.0129,-21.6461,185.7649],[149.0094,-21.6378,185.4822],[149.0154,-21.6304,184.5902],[149.0258,-21.627,183.94],[149.0287,-21.6324,185.138],[149.0339,-21.6342,184.8314],[149.0374,-21.6386,189.6858],[149.0397,-21.6385,188.1858],[149.0439,-21.6334,185.8959],[149.05,-21.6196,186.4791],[149.0505,-21.6164,186.7588],[149.0481,-21.6145,246.4435],[149.0492,-21.6092,338.6344],[149.0545,-21.6032,375.1989],[149.0513,-21.5942,280.9482],[149.0521,-21.589,371.6051],[149.0548,-21.585,477.6124],[149.0518,-21.5782,417.9879],[149.0498,-21.5773,461.6758],[149.051,-21.5657,380.4472],[149.0583,-21.554,528.9907],[149.054,-21.5531,509.9338],[149.0482,-21.5463,586.0468],[149.057,-21.5409,514.8055],[149.0568,-21.5334,599.244],[149.0593,-21.5304,568.7651],[149.0593,-21.5217,588.0189],[149.0614,-21.5152,588.363],[149.0722,-21.5097,503.6073],[149.0734,-21.5052,540.5599],[149.0811,-21.4993,489.0649],[149.0865,-21.4905,505.8119],[149.0846,-21.4849,433.4377],[149.0878,-21.4742,442.621],[149.0889,-21.4598,315.2064],[149.0927,-21.4449,419.7313],[149.0907,-21.44,435.6851],[149.0849,-21.435,434.0925],[149.0812,-21.4289,436.3501],[149.0847,-21.4182,481.9639],[149.0818,-21.4157,471.4508],[149.0759,-21.4145,359.6438],[149.0735,-21.4021,341.4319],[149.0701,-21.3971,286.9331],[149.0705,-21.3949,313.2231],[149.0737,-21.3954,308.7198],[149.0756,-21.3905,408.1144],[149.0652,-21.3882,318.567],[149.0625,-21.384,306.3311],[149.0538,-21.3795,341.5785],[149.0505,-21.3728,462.4931],[149.0447,-21.3683,516.1572],[149.0449,-21.3647,511.8573],[149.0365,-21.3609,430.3616],[149.0351,-21.3557,425.8774],[149.032,-21.3544,485.2486],[149.0235,-21.3549,462.9108],[149.0181,-21.3605,398.7779],[149.0117,-21.3615,379.7812],[149.0054,-21.3647,453.0108],[149.0006,-21.3643,461.131],[148.9883,-21.3672,573.2119],[148.9873,-21.3652,552.2172],[148.9826,-21.3643,523.4655],[148.9783,-21.3681,495.4777],[148.9719,-21.3681,474.0882],[148.9714,-21.371,448.4803],[148.9684,-21.372,351.4142],[148.9636,-21.3801,262.202],[148.9561,-21.3814,242.0932],[148.9507,-21.3854,247.0559],[148.9467,-21.3818,236.6544],[148.9437,-21.3818,231.6752],[148.9364,-21.3869,226.3903],[148.9279,-21.3779,292.7012],[148.9222,-21.3769,299.253],[148.914,-21.3791,265.4814],[148.9071,-21.385,265.6421],[148.9063,-21.3888,261.4451],[148.9077,-21.3939,273.9404],[148.9036,-21.3977,261.0691],[148.9022,-21.4053,260.994],[148.7929,-21.3929,371.0742],[148.7902,-21.3873,482.982],[148.7883,-21.3881,487.7061],[148.7848,-21.3863,473.1939],[148.7719,-21.3945,377.7794],[148.7629,-21.3948,443.6572],[148.7586,-21.393,503.641],[148.7558,-21.3893,559.2634],[148.7511,-21.3887,505.9737],[148.744,-21.3835,516.0969],[148.7383,-21.3766,548.2114],[148.7366,-21.3728,538.8444],[148.7368,-21.3681,509.2643],[148.7302,-21.3662,589.5468],[148.7298,-21.3644,584.0237],[148.7273,-21.3636,590.4145],[148.7245,-21.3597,560.3192],[148.7236,-21.3551,577.4301],[148.7183,-21.3505,546.5403],[148.7002,-21.3439,652.3006],[148.6896,-21.3591,750.3033],[148.6907,-21.3682,749.0198],[148.6933,-21.3725,739.9421],[148.6863,-21.3768,782.4374],[148.6778,-21.3717,578.359],[148.6727,-21.3662,704.575],[148.6671,-21.3666,787.9238],[148.6623,-21.3694,743.4572],[148.6516,-21.3653,622.2625],[148.6413,-21.3713,754.599],[148.6355,-21.3655,668.2193],[148.6276,-21.3753,732.8903],[148.6199,-21.3765,701.9628],[148.6163,-21.3787,731.7258],[148.6144,-21.377,729.1002],[148.6115,-21.366,728.6649],[148.6086,-21.3642,731.1378],[148.597,-21.3651,809.6686],[148.5915,-21.3678,919.7592],[148.5886,-21.3717,1033.6251],[148.5851,-21.3724,972.2881],[148.5564,-21.3706,907.2567],[148.5479,-21.3678,891.6508],[148.5423,-21.3573,860.5547],[148.5436,-21.3501,767.6552],[148.5397,-21.3479,794.1573],[148.5363,-21.3426,814.6348],[148.5346,-21.3333,855.0703],[148.5222,-21.327,848.9753],[148.521,-21.3208,839.0106],[148.5158,-21.3149,839.8026],[148.5174,-21.3099,858.5897],[148.51,-21.3103,805.1535],[148.5069,-21.3036,790.6582],[148.5014,-21.3021,809.2823],[148.5,-21.298,756.309],[148.4934,-21.2919,784.2891],[148.4898,-21.2923,787.0106],[148.4829,-21.2862,697.9536],[148.4799,-21.2862,706.7609],[148.4725,-21.2788,715.6123],[148.4703,-21.2739,783.2565],[148.4665,-21.2749,677.1329],[148.4597,-21.2803,595.3596],[148.4524,-21.2815,661.1965],[148.4505,-21.2846,593.5402],[148.4442,-21.2848,575.9205],[148.4421,-21.2879,570.3656],[148.4398,-21.2884,554.758],[148.4405,-21.2931,560.6008],[148.4348,-21.2946,553.4265],[148.4313,-21.299,557.485],[148.4289,-21.2991,557.0648],[148.429,-21.2957,549.7214],[148.4264,-21.2926,554.5455],[148.4198,-21.2866,561.7705],[148.4126,-21.2863,516.1104],[148.4112,-21.2834,552.6983],[148.4123,-21.2822,570.7084],[148.4081,-21.2792,553.2941],[148.3962,-21.2749,596.1014],[148.3937,-21.2801,543.9006],[148.3893,-21.2812,539.6331],[148.3873,-21.28,550.9135],[148.3858,-21.2704,621.9533],[148.383,-21.2718,578.3131],[148.3789,-21.2692,551.5638],[148.3753,-21.2607,519.4709],[148.3705,-21.2574,528.2979],[148.365,-21.2553,550.5142],[148.3613,-21.258,551.7553],[148.3567,-21.2535,557.0957],[148.3472,-21.2573,401.6495],[148.3427,-21.2508,445.3181],[148.3379,-21.2497,441.7564],[148.3154,-21.2244,380.006],[148.308,-21.222,382.6852],[148.3042,-21.2129,364.2071],[148.3121,-21.1671,518.8809],[148.3095,-21.1625,508.4068],[148.3036,-21.16,507.6132],[148.3031,-21.1582,517.1718],[148.297,-21.1565,464.6496],[148.2921,-21.1517,313.025],[148.3,-21.146,422.0911],[148.3022,-21.1374,385.7337],[148.3211,-21.1253,587.6311],[148.3249,-21.1206,626.6832],[148.3278,-21.1204,646.7505],[148.3287,-21.1144,664.5447],[148.3241,-21.1134,666.2124],[148.321,-21.1096,663.428],[148.319,-21.1095,665.2645],[148.3161,-21.1064,658.0044],[148.3138,-21.0957,651.3242],[148.3066,-21.0917,627.1078],[148.3078,-21.0839,631.1538],[148.306,-21.0823,639.8585],[148.3021,-21.0671,704.0182],[148.295,-21.0636,663.4384],[148.2946,-21.0583,645.448],[148.2968,-21.056,707.9005],[148.2842,-21.0448,654.8674],[148.2785,-21.049,639.9128],[148.2739,-21.0474,623.9639],[148.267,-21.0375,662.4851],[148.2643,-21.0279,612.7616],[148.2607,-21.0245,643.6293],[148.256,-21.0228,671.6963],[148.2541,-21.0181,620.8053],[148.2436,-21.0111,634.7157],[148.2387,-21.0058,601.8982],[148.2348,-20.9978,690.8505],[148.2406,-20.9941,645.2869],[148.24,-20.989,644.7919],[148.2335,-20.9834,660.638],[148.2258,-20.9827,647.1577],[148.2248,-20.9805,665.002],[148.2266,-20.9791,660.3065],[148.2269,-20.9744,640.1711],[148.2342,-20.9682,637.7798],[148.2374,-20.9539,627.5367],[148.2324,-20.9418,660.0849],[148.2299,-20.94,627.7567],[148.227,-20.9309,671.2627],[148.1349,-20.998,205.7241],[148.134,-20.9901,212.3645],[148.1248,-20.9926,212.5528],[148.113,-20.9987,224.754],[148.1032,-20.9998,244.6566],[148.0928,-21.0112,334.9993],[148.0918,-21.0192,261.9564],[148.0727,-21.023,251.6481],[148.0677,-21.0263,303.3163],[148.0478,-21.0156,317.0729],[148.0406,-20.9987,417.6211],[148.0284,-20.9852,428.0338],[148.0119,-20.9859,447.3088],[148.0094,-20.9886,440.3944],[148.013,-21.0102,488.5887],[148.015,-21.0135,505.2255],[148.0218,-21.0167,537.5252],[148.0257,-21.025,530.0204],[148.0237,-21.0296,529.7655],[148.0268,-21.03,529.484],[148.0288,-21.0368,502.3634],[148.0256,-21.0461,560.6797],[148.0231,-21.0485,556.8857],[148.0273,-21.0491,553.4989],[148.0273,-21.0517,536.5621],[148.0244,-21.0555,515.6944],[148.024,-21.0592,517.5189],[148.019,-21.0612,475.1902],[148.0161,-21.0655,481.7355],[148.017,-21.069,471.9291],[148.0204,-21.0723,487.5966],[148.0193,-21.0771,457.8727],[148.018,-21.0775,401.359],[148.0212,-21.0862,403.7839],[148.0239,-21.0858,377.563],[148.0262,-21.1008,404.6747],[148.0309,-21.1055,472.5986],[148.036,-21.1162,478.4197],[148.0341,-21.119,497.1494],[148.0362,-21.124,467.2945],[148.0397,-21.125,459.7551],[148.0464,-21.1304,412.3038],[148.0487,-21.1385,442.6169],[148.0593,-21.156,510.4675],[148.0648,-21.1711,537.7657],[148.0718,-21.1762,523.637],[148.0861,-21.1915,553.0137],[148.0886,-21.1985,552.2325],[148.0938,-21.2025,561.5248],[148.0945,-21.2107,483.1526],[148.0892,-21.2241,407.9818],[148.0766,-21.2341,336.2875],[148.0725,-21.2427,399.5701],[148.0566,-21.2443,408.347],[148.0272,-21.2701,381.296],[148.005,-21.2794,368.9305],[148.0004,-21.2799,366.8199],[147.9857,-21.2894,347.957],[147.9776,-21.2907,341.8082],[147.9571,-21.2869,348.1258],[147.9439,-21.29,339.7626],[147.8962,-21.2768,312.5332],[147.8838,-21.2702,310.3657],[147.8714,-21.2581,310.264],[147.8668,-21.2556,347.8082],[147.8617,-21.2546,345.4927],[147.8466,-21.2619,331.4424],[147.8364,-21.2611,311.2945],[147.8324,-21.2529,324.819],[147.8412,-21.2499,331.4575],[147.8442,-21.2322,336.9205],[147.8173,-21.2318,311.0912],[147.8156,-21.2236,315.6946],[147.8058,-21.2141,325.8918],[147.8147,-21.2011,330.471],[147.8084,-21.1974,329.9114],[147.8096,-21.1947,329.3199],[147.7639,-21.1896,306.9989],[147.7669,-21.1922,306.1763],[147.7626,-21.2029,303.9041],[147.7634,-21.2066,302.094],[147.7724,-21.2047,305.6474],[147.7785,-21.2011,302.3242],[147.7863,-21.216,301.5267],[147.7855,-21.2196,304.3522],[147.7766,-21.2243,297.8029],[147.7774,-21.2284,297.2312],[147.7913,-21.2323,297.2903],[147.7957,-21.2286,295.0585],[147.8001,-21.2301,297.1256],[147.8025,-21.2363,293.3783],[147.8002,-21.2451,292.4732],[147.8054,-21.2456,293.9485],[147.8065,-21.2511,293.5746],[147.8101,-21.2541,291.5475],[147.8097,-21.2724,290.4761],[147.8056,-21.2818,289.7457],[147.8094,-21.2873,288.0135],[147.8131,-21.2858,286.2379],[147.8167,-21.2866,287.8163],[147.8203,-21.2916,286.7711],[147.8241,-21.2935,287.6585],[147.8239,-21.2976,285.3837],[147.8201,-21.3024,286.0058],[147.8192,-21.3072,284.4756],[147.8242,-21.3089,285.3577],[147.8245,-21.3128,285.2928],[147.8216,-21.3169,281.9525],[147.8125,-21.3167,282.1112],[147.8043,-21.3213,281.5066],[147.8035,-21.3252,280.4221],[147.8058,-21.3284,278.3189],[147.8051,-21.33,279.0069],[147.8014,-21.3306,279.4216],[147.7997,-21.3358,279.8491],[147.7965,-21.339,278.502],[147.7969,-21.345,278.783],[147.788,-21.3499,277.8772],[147.7833,-21.3466,277.7646],[147.7768,-21.3469,277.1465],[147.7748,-21.3554,276.5296],[147.7685,-21.3642,273.6511],[147.7625,-21.3682,273.3699],[147.7596,-21.3733,271.9339],[147.7548,-21.3747,270.6072],[147.7473,-21.3799,271.9081],[147.7477,-21.3886,269.6779],[147.7413,-21.3917,267.3843],[147.7412,-21.3958,270.3778],[147.7356,-21.3981,265.6201],[147.7366,-21.4025,267.6909],[147.7402,-21.4064,265.7338],[147.7406,-21.4125,267.9051],[147.745,-21.4157,267.6224],[147.7467,-21.4198,264.3554],[147.7417,-21.4205,263.7924],[147.7327,-21.4294,263.7576],[147.7222,-21.4286,260.7567],[147.7253,-21.4355,261.7235],[147.7212,-21.4423,261.9452],[147.716,-21.4472,259.6466],[147.7117,-21.4599,259.7066],[147.7045,-21.4635,258.9524],[147.6996,-21.4734,258.6465],[147.6901,-21.4809,258.1651],[147.6868,-21.4814,257.1046],[147.682,-21.4785,255.4505],[147.6748,-21.4831,255.6541],[147.658,-21.4887,253.6331],[147.6525,-21.4985,255.1346],[147.653,-21.5045,254.2975],[147.6452,-21.5103,248.8999],[147.6492,-21.5276,249.2928],[147.6496,-21.5404,248.1343],[147.6463,-21.5496,248.4144],[147.6452,-21.5664,245.5064],[147.6417,-21.5714,245.9337],[147.6353,-21.5747,247.7748],[147.6327,-21.58,245.7975],[147.6326,-21.5849,243.8823],[147.6351,-21.592,242.7484],[147.6322,-21.5975,242.4685],[147.6269,-21.5992,246.9115],[147.6174,-21.596,241.391],[147.6112,-21.599,242.0264],[147.6082,-21.6049,240.6095],[147.6084,-21.615,239.4184],[147.6065,-21.6207,238.454],[147.5851,-21.6418,236.1079],[147.5684,-21.645,237.5197],[147.5599,-21.6446,235.0506],[147.5528,-21.6419,235.3729],[147.5448,-21.6424,234.4472],[147.5409,-21.6445,233.3788],[147.5396,-21.6522,231.1796],[147.5369,-21.6544,230.8617],[147.5284,-21.6518,230.4606],[147.52,-21.6554,228.8691],[147.5096,-21.6538,227.4261],[147.5046,-21.6599,228.6601],[147.5028,-21.665,226.3256],[147.4954,-21.6649,227.9396],[147.4853,-21.6762,224.3752],[147.4738,-21.6792,224.3671],[147.4699,-21.678,222.6712],[147.4614,-21.6795,220.7252],[147.4583,-21.6847,220.6091],[147.447,-21.6858,220.3014],[147.4398,-21.6901,221.6135],[147.4216,-21.6853,217.3754],[147.4176,-21.6869,215.4255],[147.4104,-21.6854,217.2023],[147.4068,-21.6891,216.7988],[147.4038,-21.685,213.7656],[147.4004,-21.6834,215.8593],[147.3981,-21.6859,214.4406],[147.3925,-21.6838,214.7453],[147.3908,-21.6864,211.4462],[147.3876,-21.6792,213.0873],[147.3846,-21.6809,212.9694],[147.3807,-21.6772,213.6283],[147.3714,-21.6767,210.6861],[147.3667,-21.6746,211.6711],[147.3636,-21.6767,209.3815],[147.3468,-21.6579,210.2607],[147.3417,-21.6575,210.188],[147.3397,-21.6597,208.7909],[147.3355,-21.6558,209.9522],[147.3321,-21.6581,209.1072],[147.3247,-21.6586,206.2285],[147.3218,-21.6575,208.8801],[147.3202,-21.6522,207.3412],[147.3196,-21.6536,206.9975],[147.3107,-21.6485,205.5772],[147.3105,-21.6469,205.2492],[147.3088,-21.6497,203.75],[147.3007,-21.6547,204.8755],[147.2933,-21.654,203.0755],[147.2847,-21.656,201.4133],[147.269,-21.6526,199.6348],[147.2586,-21.656,198.699],[147.2476,-21.6564,198.1167],[147.2395,-21.6648,197.8866],[147.2329,-21.6684,199.5456],[147.2263,-21.6707,198.5515],[147.2236,-21.6694,197.3121],[147.2223,-21.6714,197.2378],[147.2157,-21.6714,199.3323],[147.2074,-21.665,195.4679],[147.2052,-21.656,195.1111],[147.1892,-21.6466,194.1812],[147.188,-21.6414,192.7278],[147.1827,-21.6322,193.7094],[147.1798,-21.6315,194.4043],[147.1803,-21.6294,194.0579],[147.1786,-21.6272,194.2911],[147.1804,-21.6227,196.2464],[147.1785,-21.6204,194.7855],[147.1802,-21.6182,193.1404],[147.1745,-21.609,192.8302],[147.1721,-21.5977,191.3475],[147.1694,-21.5929,191.7136],[147.1697,-21.5867,191.8329],[147.1655,-21.5826,190.731],[147.1599,-21.5715,189.8197],[147.1392,-21.5558,190.1926],[147.1314,-21.5535,188.1891],[147.1266,-21.5491,187.0718],[147.1188,-21.5465,187.6562],[147.1047,-21.5422,186.9426],[147.0994,-21.5424,187.2851],[147.0889,-21.5365,186.226],[147.0795,-21.5363,186.3267],[147.0686,-21.5321,185.5248],[147.0622,-21.5331,184.1912],[147.0477,-21.5292,185.855],[147.0421,-21.5256,183.6642],[147.0325,-21.5226,185.9593],[147.0177,-21.5258,183.8186],[147.0139,-21.524,183.072],[147.0141,-21.5198,182.6559],[147.0042,-21.5209,181.5905],[146.9855,-21.5192,182.9999],[146.9806,-21.5208,180.722],[146.977,-21.5173,181.2269],[146.9723,-21.5177,182.8245],[146.9656,-21.5144,179.3687],[146.962,-21.515,180.018],[146.9621,-21.5101,179.0583],[146.9377,-21.5032,179.5643],[146.9361,-21.4995,178.1579],[146.9201,-21.4989,178.3985],[146.9166,-21.4901,176.5369],[146.9133,-21.489,176.4773],[146.9111,-21.4859,176.2081],[146.9093,-21.4781,175.2375],[146.905,-21.473,177.1809],[146.9052,-21.4686,176.4749],[146.8953,-21.4751,175.9579],[146.8964,-21.4769,179.1202],[146.8792,-21.4927,177.1356],[146.8723,-21.5044,179.3645],[146.8667,-21.5099,176.4026],[146.8659,-21.5123,177.7429],[146.8701,-21.5267,179.5965],[146.8589,-21.5356,177.5802],[146.8518,-21.5455,179.6236],[146.8472,-21.5609,179.1215],[146.8347,-21.5744,180.2188],[146.835,-21.5798,180.3391],[146.8387,-21.5873,184.4725],[146.8328,-21.6019,182.7029],[146.8348,-21.6139,181.8777],[146.8346,-21.6325,182.4889],[146.8367,-21.6364,182.6047],[146.8339,-21.6432,182.1689],[146.7561,-21.6367,187.1272],[146.7409,-21.6324,188.4046],[146.7285,-21.6312,191.5912],[146.7175,-21.6256,195.5641],[146.7031,-21.6252,196.3614],[146.6923,-21.6203,201.7202],[146.651,-21.6093,213.074],[146.6492,-21.5994,212.6093],[146.6567,-21.5825,218.7722],[146.4923,-21.5665,243.488],[146.49,-21.5865,231.0372],[146.4929,-21.5887,230.9548],[146.4884,-21.6469,227.4584],[146.4839,-21.6803,224.6866],[146.4467,-21.6681,242.4591],[146.396,-21.6632,297.0101],[146.3407,-21.5701,275.3249],[146.3467,-21.5181,274.5421],[146.1505,-21.5001,359.4526],[146.1323,-21.514,385.6694],[146.0934,-21.5099,400.0043],[146.0841,-21.6096,472.6866],[146.0692,-21.8088,356.7632],[146.1267,-21.8136,396.1303],[146.1185,-21.9009,300.3643],[146.2114,-21.9085,353.52],[146.2014,-22.0076,305.3218],[146.0721,-21.9972,275.9149],[146.067,-22.0265,267.9673],[146.0395,-22.0234,280.9447],[146.0314,-22.1048,288.9992],[146.0378,-22.1058,288.4803],[146.0661,-22.1162,292.4275],[146.0741,-22.1234,292.492],[146.0646,-22.1858,295.0731],[146.0707,-22.2266,307.3993],[146.0521,-22.3385,306.8336],[146.1221,-22.3474,310.5648],[146.1089,-22.4457,315.5898],[146.2832,-22.4634,325.4496],[146.2693,-22.5086,283.3024],[146.2806,-22.5013,281.386],[146.2841,-22.5014,282.7472],[146.2897,-22.4978,285.4244],[146.297,-22.4957,280.4305],[146.3093,-22.4933,277.5861],[146.3192,-22.4954,275.8824],[146.3296,-22.4948,275.4468],[146.3471,-22.5,273.8028],[146.3547,-22.5074,274.9041],[146.3709,-22.5188,266.8128],[146.383,-22.5209,264.6115],[146.3893,-22.5184,266.1299],[146.4137,-22.5032,262.4081],[146.4159,-22.4994,258.4124],[146.4286,-22.4879,255.9654],[146.4367,-22.4871,256.9559],[146.4518,-22.4993,254.3086],[146.4393,-22.5489,253.9058],[146.4238,-22.5473,258.3689],[146.4008,-22.7562,295.4584],[146.5488,-22.7689,262.1661],[146.5478,-22.7786,260.4253],[146.5433,-22.7858,262.917],[146.5399,-22.7891,265.2785],[146.5294,-22.7932,262.5609],[146.5248,-22.7985,262.1633],[146.5244,-22.8039,260.4957],[146.526,-22.8121,261.0212],[146.5392,-22.8289,263.0979],[146.5421,-22.8364,265.8085],[146.5465,-22.8397,263.7793],[146.5493,-22.8534,267.6087],[146.5519,-22.8589,261.9364],[146.5518,-22.8647,264.0861],[146.5534,-22.8687,265.0007],[146.5563,-22.8699,265.4074],[146.5588,-22.8787,266.043],[146.5771,-22.89,266.7853],[146.5944,-22.8876,268.7861],[146.6098,-22.8813,269.7933],[146.6219,-22.8869,269.7075],[146.6418,-22.8834,271.509],[146.6453,-22.8845,271.0805],[146.6487,-22.8925,271.1924],[146.6612,-22.9058,273.325],[146.6642,-22.9053,272.5545],[146.6698,-22.9144,271.9927],[146.6697,-22.9173,270.843],[146.6642,-22.9241,273.5776],[146.6647,-22.9252,275.0508],[146.6816,-22.9419,276.4877],[146.6815,-22.9442,276.8607],[146.6849,-22.9491,274.4041],[146.6924,-22.9537,276.9779],[146.6986,-22.9663,275.4234],[146.7025,-22.9649,277.0697],[146.7135,-22.9661,278.8714],[146.7212,-22.9687,279.7269],[146.728,-22.9738,279.8147],[146.7349,-22.9755,280.3923],[146.7417,-22.985,280.9441],[146.7491,-22.9863,281.1395],[146.7547,-22.9903,280.8356],[146.7616,-22.9985,282.3965],[146.7651,-23.0044,280.4658],[146.7656,-23.0095,283.3537],[146.7782,-23.0218,283.7972],[146.786,-23.0338,285.9559],[146.7876,-23.0399,287.2002],[146.7876,-23.0472,287.7435],[146.7831,-23.0505,286.4081],[146.7817,-23.0551,283.7233],[146.7844,-23.0625,286.9067],[146.7837,-23.0712,288.1551],[146.7863,-23.0761,288.9153],[146.7859,-23.0798,289.0667],[146.784,-23.0845,287.4997],[146.778,-23.091,291.4258],[146.7818,-23.1,291.2766],[146.7853,-23.1037,291.5449],[146.7846,-23.1132,291.725],[146.7883,-23.1219,291.2618],[146.7889,-23.1286,291.3288],[146.793,-23.1329,292.3452],[146.7969,-23.1414,293.4958],[146.8042,-23.1468,293.9337],[146.8113,-23.1493,294.9841],[146.8139,-23.1544,293.3536],[146.8335,-23.1601,294.6539],[146.841,-23.1638,295.5731],[146.8467,-23.1636,298.5547],[146.8629,-23.1739,299.7704],[146.8665,-23.1823,299.7205],[146.8698,-23.1842,301.4688],[146.8739,-23.1947,302.3436],[146.8742,-23.1986,301.2327],[146.8713,-23.2082,300.4272],[146.8722,-23.2126,301.5474],[146.8821,-23.2195,304.8766],[146.8842,-23.2236,302.0163],[146.8835,-23.2287,302.2498],[146.8802,-23.2333,302.808],[146.8811,-23.2385,302.4452],[146.8777,-23.2525,302.6571],[146.8792,-23.2618,303.7162],[146.875,-23.2753,306.5284],[146.867,-23.278,307.8857],[146.8635,-23.2809,308.482],[146.8641,-23.2853,308.9715],[146.8614,-23.2904,310.8001],[146.8545,-23.2938,308.7502],[146.8534,-23.2979,310.649],[146.8546,-23.3046,311.1971],[146.9326,-23.3155,315.4937],[146.9399,-23.2602,316.84],[146.9763,-23.2636,326.5875],[147.0791,-23.2798,353.8087],[147.0747,-23.3071,378.5148],[147.1439,-23.323,395.0932],[147.1489,-23.323,395.7103],[147.1519,-23.3257,442.8397],[147.1582,-23.3264,406.1482],[147.1578,-23.3318,403.1024],[147.1605,-23.3374,409.0738]]],
[[[149.5958,-22.1416,5.8487],[149.594,-22.1424,0.2064],[149.5961,-22.1438,0.4475],[149.5967,-22.1433,0.4475],[149.5958,-22.1416,5.8487]]],
[[[149.5794,-22.128,0.2727],[149.5849,-22.1375,6.1556],[149.5885,-22.1392,12.8301],[149.5842,-22.129,2.0001],[149.5772,-22.1192,0.3963],[149.5726,-22.125,1.9969],[149.5794,-22.128,0.2727]]],
[[[149.6125,-22.0513,3.185],[149.614,-22.0548,1.0998],[149.6158,-22.0551,1.4874],[149.6136,-22.0512,0.7047],[149.6125,-22.0513,3.185]]],
[[[149.7546,-22.4023,0.0],[149.7535,-22.4118,0.0],[149.7578,-22.4129,0.0],[149.7634,-22.4057,0.0],[149.7567,-22.4003,0.0],[149.7546,-22.4023,0.0]]],
[[[149.7576,-22.3918,3.8894],[149.756,-22.3969,4.7127],[149.7594,-22.3989,0.0],[149.7626,-22.3977,0.0],[149.7674,-22.3925,0.0],[149.7666,-22.3908,0.0],[149.7576,-22.3918,3.8894]]],
[[[149.6684,-21.9844,0.4346],[149.6676,-21.985,0.0],[149.6694,-21.9863,2.5939],[149.6695,-21.9856,3.7156],[149.6684,-21.9844,0.4346]]],
[[[149.798,-21.8429,0.0],[149.7971,-21.85,1.9345],[149.7991,-21.8522,0.0],[149.8004,-21.8453,14.3892],[149.7993,-21.8428,0.0],[149.798,-21.8429,0.0]]],
[[[149.6574,-21.9846,0.0],[149.658,-21.9864,0.0],[149.6596,-21.9879,-0.0472],[149.659,-21.9848,0.0],[149.6574,-21.9846,0.0]]],
[[[149.5715,-21.9842,19.4924],[149.5786,-21.9753,7.407],[149.5825,-21.9744,3.4699],[149.5768,-21.9679,2.2758],[149.5767,-21.9745,1.2744],[149.5586,-21.9876,1.8715],[149.5662,-21.992,3.0878],[149.5715,-21.9842,19.4924]]],
[[[149.6588,-21.9766,4.3743],[149.6578,-21.9784,0.7426],[149.664,-21.9819,4.1002],[149.6637,-21.9713,13.8023],[149.66,-21.9663,8.5768],[149.6558,-21.9658,0.0],[149.6543,-21.9672,0.0],[149.6572,-21.9705,1.5098],[149.6588,-21.9766,4.3743]]],
[[[149.6534,-21.958,0.0],[149.6523,-21.9576,0.0],[149.6521,-21.9588,0.0],[149.6529,-21.959,0.0],[149.6534,-21.958,0.0]]],
[[[149.6602,-21.9577,0.0],[149.6589,-21.9577,0.0],[149.6596,-21.9592,0.0],[149.66,-21.9587,0.0],[149.6602,-21.9577,0.0]]],
[[[149.5986,-21.9568,2.8333],[149.5978,-21.9574,2.8333],[149.5992,-21.9588,1.6302],[149.5997,-21.9582,1.6302],[149.5986,-21.9568,2.8333]]],
[[[149.5786,-21.9566,6.1167],[149.5778,-21.9561,0.0],[149.5768,-21.9569,0.1535],[149.578,-21.9578,0.1535],[149.5786,-21.9566,6.1167]]],
[[[149.6592,-21.9538,0.0],[149.6586,-21.9534,0.0],[149.658,-21.9541,0.0],[149.6587,-21.9548,0.0],[149.6592,-21.9538,0.0]]],
[[[149.6621,-21.95,0.0],[149.6611,-21.9496,0.0],[149.6598,-21.9507,0.0],[149.6604,-21.9512,0.0],[149.6621,-21.95,0.0]]],
[[[149.6599,-21.9469,0.1508],[149.6603,-21.946,0.0],[149.6596,-21.9453,0.0],[149.6593,-21.9457,0.0],[149.6599,-21.9469,0.1508]]],
[[[149.6425,-21.9319,3.0447],[149.6447,-21.9343,14.8257],[149.6489,-21.9342,20.6103],[149.6513,-21.9365,17.2053],[149.651,-21.9335,28.1893],[149.6539,-21.9289,15.0349],[149.6513,-21.9254,1.3195],[149.6425,-21.9319,3.0447]]],
[[[149.4843,-21.8359,34.3809],[149.49,-21.8365,15.2764],[149.4984,-21.8332,5.7665],[149.5005,-21.8307,0.0],[149.4975,-21.8214,0.8731],[149.4858,-21.8179,0.0],[149.4781,-21.8225,1.8273],[149.4696,-21.8211,0.0],[149.4691,-21.8227,0.0],[149.4796,-21.8334,4.4016],[149.4843,-21.8359,34.3809]]],
[[[149.6743,-21.7272,23.8912],[149.6721,-21.724,7.4129],[149.6662,-21.7224,19.9662],[149.6644,-21.7184,11.2327],[149.6624,-21.7187,0.0],[149.6664,-21.7266,0.0],[149.6687,-21.7261,18.9562],[149.6709,-21.7287,0.0],[149.6737,-21.729,4.0039],[149.6743,-21.7272,23.8912]]],
[[[149.6722,-21.7165,1.0667],[149.6699,-21.7162,3.2541],[149.669,-21.718,0.0],[149.6702,-21.7184,0.0],[149.6722,-21.7165,1.0667]]],
[[[149.7756,-21.6715,4.1146],[149.7778,-21.6773,0.0],[149.7816,-21.679,0.0],[149.7829,-21.6774,0.0],[149.7818,-21.6748,57.0577],[149.7767,-21.6709,11.0105],[149.7756,-21.6715,4.1146]]],
[[[149.8102,-21.628,0.0],[149.8089,-21.6268,10.1819],[149.8081,-21.6276,0.0],[149.8093,-21.6287,0.0],[149.8102,-21.628,0.0]]],
[[[149.6376,-21.6728,0.0],[149.6361,-21.6751,15.112],[149.6368,-21.6766,1.6955],[149.6391,-21.6734,6.3209],[149.6376,-21.6728,0.0]]],
[[[149.6621,-21.4721,0.0],[149.662,-21.4742,0.0],[149.6652,-21.4732,3.7105],[149.6639,-21.4704,5.2546],[149.6622,-21.4704,0.0],[149.6621,-21.4721,0.0]]],
[[[149.8614,-21.6018,0.0],[149.8627,-21.6054,7.8559],[149.8667,-21.6073,17.7119],[149.8701,-21.6063,42.5681],[149.8693,-21.6029,0.0],[149.8656,-21.6025,18.6638],[149.8628,-21.5997,15.3119],[149.8614,-21.6018,0.0]]],
[[[150.153,-21.5328,0.0],[150.1533,-21.5314,0.0],[150.1524,-21.5315,0.9588],[150.1526,-21.5329,0.0],[150.153,-21.5328,0.0]]],
[[[150.1529,-21.5293,2.7973],[150.1556,-21.5262,4.819],[150.1532,-21.5233,4.6197],[150.1503,-21.5231,18.1077],[150.1482,-21.5198,1.9964],[150.1484,-21.524,18.1077],[150.1529,-21.5293,2.7973]]],
[[[149.9162,-21.5029,6.196],[149.9151,-21.4999,34.124],[149.9165,-21.4955,17.5718],[149.9113,-21.4956,1.5618],[149.9093,-21.4926,1.5065],[149.9064,-21.4965,3.0147],[149.909,-21.499,1.6935],[149.9072,-21.5001,0.0],[149.9107,-21.5038,0.0],[149.9137,-21.5024,68.1801],[149.9149,-21.5058,0.0],[149.9171,-21.5066,0.0],[149.9162,-21.5029,6.196]]],
[[[149.8887,-21.5003,9.644],[149.8939,-21.4982,12.3649],[149.8965,-21.4988,0.0],[149.8949,-21.4913,38.1454],[149.8911,-21.4853,1.5721],[149.8897,-21.4936,33.2431],[149.8912,-21.4968,13.5035],[149.8884,-21.4988,1.2431],[149.8887,-21.5003,9.644]]],
[[[149.9173,-21.4884,11.0552],[149.9184,-21.4924,4.0158],[149.9207,-21.4939,0.0],[149.9212,-21.4889,33.9792],[149.9173,-21.4884,11.0552]]],
[[[149.9073,-21.4789,21.8411],[149.9101,-21.4857,26.1744],[149.9132,-21.4864,0.0],[149.9098,-21.4798,0.0],[149.9073,-21.4789,21.8411]]],
[[[149.8792,-21.4677,35.4554],[149.8885,-21.4686,0.0],[149.8865,-21.4662,0.0],[149.8832,-21.4667,9.9763],[149.881,-21.4639,0.0],[149.8781,-21.4637,11.8102],[149.8792,-21.4677,35.4554]]],
[[[149.8698,-21.4564,20.4363],[149.8754,-21.4608,0.0],[149.8724,-21.4547,6.6022],[149.8704,-21.4541,0.0],[149.8698,-21.4564,20.4363]]],
[[[149.8502,-21.4478,14.0071],[149.8553,-21.4469,0.0],[149.8477,-21.4411,6.09],[149.8431,-21.4435,26.8605],[149.8405,-21.4426,0.2199],[149.8415,-21.4464,0.0],[149.8502,-21.4478,14.0071]]],
[[[149.8207,-21.434,4.9596],[149.8193,-21.4345,4.9596],[149.8204,-21.436,0.0],[149.8208,-21.4353,0.0],[149.8207,-21.434,4.9596]]],
[[[149.8328,-21.3752,37.9014],[149.8279,-21.3709,1.2836],[149.8223,-21.3721,0.0],[149.8259,-21.3758,7.5844],[149.8282,-21.3756,14.5044],[149.8327,-21.3785,0.3187],[149.8336,-21.3831,0.0],[149.8373,-21.3841,2.9675],[149.839,-21.3821,5.9805],[149.8385,-21.3797,4.5019],[149.8328,-21.3752,37.9014]]],
[[[149.8257,-21.3664,4.4358],[149.825,-21.3678,0.0],[149.826,-21.3693,1.6331],[149.8268,-21.3669,4.4358],[149.8257,-21.3664,4.4358]]],
[[[150.4373,-21.7728,9.9009],[150.4385,-21.7713,9.9009],[150.4354,-21.77,11.4238],[150.4317,-21.7714,0.0],[150.4319,-21.7717,0.0],[150.4373,-21.7728,9.9009]]],
[[[150.4412,-21.7661,-0.0469],[150.442,-21.7662,-0.0469],[150.442,-21.7655,-0.0469],[150.4409,-21.7656,-0.0469],[150.4412,-21.7661,-0.0469]]],
[[[150.4365,-21.7627,3.5458],[150.4394,-21.7655,3.1586],[150.4414,-21.7644,7.2285],[150.4388,-21.762,4.9132999999999996],[150.4365,-21.7627,3.5458]]],
[[[150.4301,-21.7611,0.0],[150.4292,-21.7602,0.0],[150.4285,-21.7605,0.0],[150.4299,-21.7625,0.0],[150.4301,-21.7611,0.0]]],
[[[150.4262,-21.7557,0.0],[150.4246,-21.756,0.0],[150.4249,-21.7575,1.1665],[150.4268,-21.7573,4.135],[150.4262,-21.7557,0.0]]],
[[[150.4296,-21.7551,0.2407],[150.4279,-21.755,0.0],[150.4278,-21.7561,0.0],[150.4285,-21.7567,1.295],[150.4296,-21.7551,0.2407]]],
[[[150.4133,-21.7533,0.0],[150.4131,-21.7524,0.0],[150.4122,-21.7524,0.0],[150.4122,-21.7529,0.0],[150.4133,-21.7533,0.0]]],
[[[150.3629,-21.7277,14.9272],[150.3623,-21.7256,24.0789],[150.3602,-21.7251,0.0],[150.3631,-21.7239,55.3081],[150.3641,-21.7205,2.6138],[150.3613,-21.7178,0.0],[150.3624,-21.7207,2.6138],[150.3576,-21.7233,0.0],[150.3564,-21.7298,0.0],[150.3475,-21.7335,0.0],[150.3398,-21.7413,2.736],[150.3302,-21.7436,8.8163],[150.3138,-21.7394,5.96],[150.3098,-21.7419,24.3741],[150.302,-21.7417,0.0],[150.2995,-21.7455,0.0],[150.307,-21.7496,0.0],[150.3115,-21.7583,0.0],[150.3221,-21.7655,0.5062],[150.3225,-21.7645,18.0636],[150.326,-21.7655,24.7329],[150.3253,-21.7687,0.1501],[150.332,-21.7717,23.5176],[150.3389,-21.77,37.926],[150.3482,-21.764,0.0],[150.3472,-21.7614,0.0],[150.3451,-21.7621,0.0],[150.3439,-21.7609,0.0],[150.3439,-21.758,6.7458],[150.3486,-21.7527,38.2339],[150.3457,-21.743,61.4435],[150.3479,-21.7427,60.3478],[150.3492,-21.7397,73.3348],[150.3536,-21.7389,58.681],[150.3532,-21.7368,48.0857],[150.3585,-21.7335,25.4296],[150.3629,-21.7277,14.9272]]],
[[[150.2902,-21.7479,0.0],[150.289,-21.7469,0.0],[150.2881,-21.7471,0.0],[150.2887,-21.7488,0.0],[150.2902,-21.7479,0.0]]],
[[[150.2871,-21.6845,0.5266],[150.2874,-21.6843,0.5266],[150.2872,-21.6837,0.5266],[150.2867,-21.6839,0.5266],[150.2871,-21.6845,0.5266]]],
[[[150.2758,-21.6837,0.0],[150.2751,-21.6829,0.0],[150.2742,-21.6839,0.0],[150.2749,-21.6841,0.0],[150.2758,-21.6837,0.0]]],
[[[150.2876,-21.6826,0.0],[150.2879,-21.6831,0.5266],[150.2883,-21.6829,0.0],[150.2882,-21.6824,0.0],[150.2876,-21.6826,0.0]]],
[[[150.3159,-21.735,0.0],[150.3153,-21.7341,0.0],[150.3146,-21.7343,0.0],[150.3156,-21.7352,0.0],[150.3159,-21.735,0.0]]],
[[[150.3441,-21.6753,0.0],[150.3441,-21.6749,0.0],[150.3427,-21.6749,0.817],[150.3433,-21.6757,0.817],[150.3441,-21.6753,0.0]]],
[[[150.3561,-21.6731,0.0],[150.3566,-21.6729,0.0],[150.3555,-21.6727,0.0],[150.3556,-21.673,0.0],[150.3561,-21.6731,0.0]]],
[[[150.3481,-21.664,29.5696],[150.347,-21.6624,20.4941],[150.3398,-21.6605,18.1487],[150.3385,-21.656,3.922],[150.3308,-21.6573,1.1374],[150.3302,-21.659,15.5064],[150.3259,-21.6586,9.537],[150.3273,-21.6605,20.1914],[150.3271,-21.6647,1.4164],[150.3289,-21.6647,2.0462],[150.3289,-21.6666,0.4376],[150.3359,-21.6679,38.1078],[150.3359,-21.6714,14.2576],[150.34,-21.6744,19.095],[150.3398,-21.6722,17.2414],[150.3422,-21.6721,1.2617],[150.3391,-21.6684,50.7933],[150.3434,-21.6679,37.9652],[150.3484,-21.6695,47.5538],[150.3505,-21.667,2.9325],[150.3481,-21.664,29.5696]]],
[[[149.806,-21.8397,1.3959],[149.8069,-21.8389,3.7804],[149.8051,-21.8383,5.6559],[149.805,-21.8401,1.3959],[149.806,-21.8397,1.3959]]],
[[[149.7987,-21.8383,0.0],[149.7989,-21.8363,0.0],[149.8042,-21.8334,22.2484],[149.8039,-21.8309,19.5569],[149.8001,-21.8273,2.0502],[149.7977,-21.8301,3.7457],[149.7925,-21.8316,18.7502],[149.7932,-21.8393,37.345],[149.7949,-21.8402,15.3786],[149.7958,-21.8386,49.2971],[149.7978,-21.8395,25.574],[149.7987,-21.8383,0.0]]],
[[[149.7997,-21.8257,1.9673],[149.7995,-21.8243,0.0],[149.7989,-21.8237,0.0],[149.7987,-21.8255,1.9673],[149.7997,-21.8257,1.9673]]],
[[[149.7867,-21.8142,0.0],[149.7849,-21.8146,2.967],[149.7893,-21.8181,1.2304],[149.7894,-21.8166,16.5264],[149.7867,-21.8142,0.0]]],
[[[149.8186,-21.824,0.0],[149.819,-21.8305,3.9603],[149.8228,-21.837,0.0],[149.825,-21.8347,32.7495],[149.8214,-21.8261,0.0],[149.8186,-21.824,0.0]]],
[[[149.8388,-21.6631,3.1229],[149.8413,-21.6623,36.2976],[149.8425,-21.6598,11.7451],[149.8404,-21.6593,31.4232],[149.8402,-21.657,8.9151],[149.8376,-21.6548,89.2476],[149.8354,-21.6471,7.9504],[149.8315,-21.6474,0.0],[149.8302,-21.6496,0.404],[149.8329,-21.6556,0.0],[149.8327,-21.6597,0.0],[149.8339,-21.6622,6.2543],[149.8377,-21.6607,48.8414],[149.8388,-21.6631,3.1229]]],
[[[150.2169,-21.6571,15.0318],[150.2214,-21.6557,37.3713],[150.2232,-21.6573,0.0],[150.2253,-21.6534,-0.0261],[150.2209,-21.6518,0.0],[150.2169,-21.6571,15.0318]]],
[[[149.8266,-21.6028,11.1974],[149.8249,-21.6033,0.0],[149.8271,-21.6062,0.0],[149.8273,-21.6034,0.8468],[149.8266,-21.6028,11.1974]]],
[[[150.2237,-21.6574,0.0],[150.2239,-21.6581,0.0],[150.2246,-21.6583,0.0],[150.2246,-21.6574,0.0],[150.2237,-21.6574,0.0]]],
[[[150.2301,-21.6524,0.0],[150.2306,-21.6524,0.0],[150.2306,-21.6514,0.0],[150.2294,-21.6517,0.0],[150.2301,-21.6524,0.0]]],
[[[150.2278,-21.6507,2.9391],[150.2267,-21.6492,0.0],[150.2263,-21.6519,0.1517],[150.2267,-21.6522,0.5272],[150.2278,-21.6507,2.9391]]],
[[[150.2812,-21.6427,0.0],[150.2765,-21.6415,20.7883],[150.272,-21.644,0.0],[150.2639,-21.6412,0.0],[150.2538,-21.6305,0.0],[150.2473,-21.619,0.0],[150.2478,-21.6297,88.8672],[150.2454,-21.6351,5.6015],[150.2474,-21.64,46.8161],[150.2461,-21.6483,3.974],[150.2478,-21.6516,2.4222],[150.2504,-21.651,3.4648],[150.2464,-21.6542,1.7855],[150.2426,-21.6543,0.0],[150.242,-21.6637,24.4943],[150.2444,-21.669,22.1766],[150.2431,-21.6753,16.5804],[150.2478,-21.6764,0.0],[150.2462,-21.6713,10.2981],[150.2534,-21.6678,49.2513],[150.2599,-21.6703,47.7124],[150.2613,-21.6724,10.26],[150.2707,-21.6741,12.6186],[150.2705,-21.6769,10.8794],[150.2741,-21.6809,1.858],[150.278,-21.6771,24.0546],[150.2834,-21.6792,0.0],[150.2835,-21.6777,20.3432],[150.2862,-21.6771,14.1661],[150.2833,-21.6739,0.0],[150.2845,-21.672,3.4749],[150.2868,-21.6722,0.0],[150.2881,-21.6689,4.0738],[150.2953,-21.6679,58.2694],[150.2982,-21.6703,6.8261],[150.3,-21.6698,0.0],[150.2994,-21.6681,0.0],[150.302,-21.6649,1.0503],[150.2938,-21.6533,4.5962],[150.2917,-21.6539,16.5594],[150.2896,-21.6475,10.0645],[150.2916,-21.6462,0.0],[150.2909,-21.6438,0.0],[150.2874,-21.6425,0.0],[150.283,-21.6439,0.0],[150.2812,-21.6427,0.0]]],
[[[149.8166,-21.6076,10.8691],[149.8189,-21.6058,53.1089],[149.8135,-21.6046,56.0219],[149.8087,-21.5997,16.6347],[149.8118,-21.5928,73.3514],[149.8059,-21.5909,37.1743],[149.8017,-21.593,3.5679],[149.7998,-21.5984,27.018],[149.7969,-21.6003,10.2175],[149.7928,-21.6021,13.1883],[149.785,-21.6006,20.2316],[149.7822,-21.6065,0.0],[149.7837,-21.609,25.0595],[149.7807,-21.6126,0.0],[149.7843,-21.6133,0.0],[149.7887,-21.6092,0.0],[149.7893,-21.6146,0.0],[149.7915,-21.6164,0.0],[149.7972,-21.6145,8.3901],[149.8031,-21.6081,0.9943],[149.806,-21.6083,0.0],[149.8088,-21.6108,0.0],[149.8166,-21.6076,10.8691]]],
[[[149.7692,-21.6,0.0],[149.7713,-21.6012,0.0],[149.7728,-21.6004,0.0],[149.7713,-21.5994,3.1361],[149.7692,-21.6,0.0]]],
[[[149.8115,-21.5721,0.0],[149.8109,-21.5746,0.0],[149.8118,-21.5764,0.0],[149.8123,-21.5737,0.0],[149.8115,-21.5721,0.0]]],
[[[149.7189,-21.5075,0.0],[149.7178,-21.5091,0.0],[149.7198,-21.5129,0.0],[149.7204,-21.5104,0.0],[149.7189,-21.5075,0.0]]],
[[[150.2857,-21.681,0.0],[150.2854,-21.6799,0.0],[150.2845,-21.6801,0.0],[150.2852,-21.6809,0.0],[150.2857,-21.681,0.0]]],
[[[150.2874,-21.6778,0.0],[150.2865,-21.6781,0.0],[150.2874,-21.6786,0.0],[150.2874,-21.6778,0.0]]],
[[[150.294,-21.6732,0.0],[150.294,-21.6737,0.0],[150.2945,-21.674,1.3771],[150.2947,-21.6729,0.8937],[150.294,-21.6732,0.0]]],
[[[150.297,-21.6724,0.0],[150.2969,-21.6714,0.0],[150.295,-21.6728,0.8937],[150.2964,-21.6732,1.3771],[150.297,-21.6724,0.0]]],
[[[150.3378,-21.6542,27.0235],[150.3425,-21.6515,39.129],[150.3418,-21.6489,0.0],[150.3361,-21.6504,19.7304],[150.3378,-21.6542,27.0235]]],
[[[150.2632,-21.5214,25.5445],[150.2664,-21.5184,14.0399],[150.272,-21.5194,23.8217],[150.2765,-21.5166,0.0],[150.2716,-21.5127,13.166],[150.2694,-21.513,40.7567],[150.2591,-21.5219,4.7102],[150.2563,-21.5213,7.5184],[150.2544,-21.5187,3.8741],[150.2452,-21.5172,1.1604],[150.2497,-21.5195,27.2313],[150.2505,-21.5224,3.5118],[150.2538,-21.5231,0.8208],[150.2575,-21.5285,0.0],[150.2579,-21.5251,0.0],[150.2592,-21.5235,1.4024],[150.262,-21.524,2.7684],[150.2632,-21.5214,25.5445]]],
[[[150.2588,-21.4856,6.7292],[150.2575,-21.485,6.7292],[150.2543,-21.4877,0.0],[150.2581,-21.4877,9.5885],[150.2588,-21.4856,6.7292]]],
[[[150.2805,-21.4834,19.8629],[150.2765,-21.48,46.9921],[150.2701,-21.4827,0.0],[150.2683,-21.4775,0.0],[150.2665,-21.4768,12.4134],[150.2629,-21.4836,0.0],[150.2637,-21.4848,0.0],[150.2681,-21.4842,27.2603],[150.2684,-21.4878,28.7256],[150.273,-21.4906,12.1823],[150.2757,-21.484,56.4876],[150.2795,-21.4871,11.8095],[150.2805,-21.4834,19.8629]]],
[[[150.3072,-21.4709,0.0],[150.3081,-21.4714,0.0],[150.3082,-21.4705,0.0],[150.3076,-21.4704,0.0],[150.3072,-21.4709,0.0]]],
[[[150.3097,-21.4672,0.0],[150.3089,-21.4675,0.0],[150.309,-21.47,0.0],[150.3104,-21.4689,0.0],[150.3097,-21.4672,0.0]]]]}
,"properties": {"GID_2": "AUS.7.34_1","GID_0": "AUS","country": "Australia","GID_1": "AUS.7_1","state": "Queensland","NL_NAME_1": "NA","county": "Isaac","VARNAME_2": "NA","NL_NAME_2": "NA","TYPE_2": "Region","ENGTYPE_2": "Region","CC_2": "33980","HASC_2": "NA","name": "Isaac.county","area_km2": 58869.07,"hist_schema_id": "Elevation0-9000","hist_area_km2": {"0": 674.79,"25": 682.82,"50": 271.74,"75": 158.26,"100": 823.05,"125": 2424.26,"150": 3943.09,"175": 4099.35,"200": 6145.77,"225": 7786.88,"250": 6649.44,"275": 5799.79,"300": 5445.34,"325": 4430.29,"350": 3172.6,"375": 2069.66,"400": 1474.5,"425": 977.13,"450": 599.37,"475": 371.1,"500": 241.8,"525": 166.39,"550": 128.05,"575": 94.64,"600": 68.3,"625": 46.32,"650": 32.93,"675": 23.5,"700": 19.04,"725": 12.86,"750": 9.33,"775": 6.51,"800": 5.49,"825": 3.24,"850": 2.7,"875": 1.7,"900": 1.84,"925": 1.34,"950": 1.1,"975": 1.18,"1000": 0.83}}}