{"type": "Feature","bbox": [138.9751,-35.0305,139.8576,-33.8008],"geometry": {"type": "MultiPolygon","coordinates": [[[[138.9751,-34.8948,530.5547],[139.1718,-35.0059,148.8171],[139.1733,-34.9959,130.2846],[139.1775,-34.9956,131.4418],[139.1803,-34.9922,134.3188],[139.1794,-34.9808,125.1572],[139.327,-34.9813,0.0],[139.3277,-34.9869,0.4073],[139.33,-34.9906,0.2426],[139.3508,-35.0062,0.0],[139.36,-35.0159,0.2437],[139.3669,-35.0305,0.0],[139.3763,-35.0293,44.0219],[139.3914,-35.03,52.8914],[139.3914,-35.0239,65.5092],[139.4657,-35.0239,74.5842],[139.4659,-34.9669,79.5129],[139.6199,-34.9669,82.7966],[139.6199,-34.896,31.3075],[139.6238,-34.893,39.1069],[139.6348,-34.8919,48.393],[139.633,-34.8868,14.5891],[139.64,-34.8862,1.51],[139.6443,-34.8832,17.6791],[139.6434,-34.8788,2.2592],[139.6355,-34.8712,3.0809],[139.6337,-34.8673,0.6321],[139.7597,-34.8675,64.0253],[139.7587,-34.5105,45.607],[139.7573,-34.5013,41.8259],[139.7582,-34.496,40.0778],[139.7565,-34.4942,41.3178],[139.757,-34.4768,43.0117],[139.6006,-34.4764,30.362],[139.6022,-34.4712,1.0441],[139.608,-34.4657,2.3989],[139.6101,-34.4595,4.5443],[139.6096,-34.4522,2.85],[139.6114,-34.4435,15.488],[139.6106,-34.4289,0.0],[139.6153,-34.417,0.0],[139.6171,-34.3963,0.0],[139.6208,-34.3903,0.0],[139.63,-34.3638,11.2409],[139.6294,-34.361,11.9628],[139.6216,-34.3571,0.5157],[139.6169,-34.3517,0.0],[139.6177,-34.3299,1.911],[139.6289,-34.316,1.9638],[139.639,-34.3086,1.5],[139.6453,-34.2992,1.5],[139.6366,-34.2962,3.1761],[139.6324,-34.2878,6.7005],[139.6383,-34.2868,3.8027],[139.6408,-34.2844,3.0872],[139.6402,-34.2777,11.0363],[139.63,-34.2749,2.0],[139.6239,-34.2652,2.0],[139.632,-34.2589,2.0],[139.6329,-34.2481,3.5549],[139.641,-34.237,3.5151],[139.6339,-34.2135,2.5],[139.6389,-34.209,2.5],[139.6466,-34.1974,4.5545],[139.65,-34.1859,2.5],[139.6512,-34.1707,11.3779],[139.6594,-34.1653,3.6031],[139.6592,-34.1592,3.0],[139.8576,-34.1587,34.9432],[139.8571,-33.8753,59.9601],[139.6999,-33.8752,44.9046],[139.6998,-33.8008,54.0469],[139.3558,-33.803,127.67529999999999],[139.3567,-34.1261,109.482],[139.358,-34.1754,110.8254],[139.3511,-34.2092,105.557],[139.3508,-34.3193,68.1296],[139.2642,-34.3194,167.1292],[139.2644,-34.2958,213.3927],[139.2147,-34.3108,224.275],[139.2093,-34.3101,229.9231],[139.1996,-34.3121,248.1548],[139.1911,-34.3214,277.9045],[139.1716,-34.3269,331.6823],[139.1683,-34.3257,322.1718],[139.1628,-34.3271,318.9201],[139.1555,-34.3325,332.4846],[139.1558,-34.3352,339.7917],[139.1485,-34.333,345.3445],[139.105,-34.33,458.6148],[139.106,-34.332,458.2182],[139.1044,-34.3344,459.511],[139.1074,-34.3371,451.8048],[139.1104,-34.3482,428.0549],[139.1138,-34.3484,427.6543],[139.1168,-34.3517,407.7343],[139.1128,-34.3619,420.9819],[139.1151,-34.3644,420.4517],[139.1142,-34.3732,437.2584],[139.1122,-34.3789,428.2311],[139.1087,-34.3824,434.715],[139.1035,-34.3825,424.5098],[139.0983,-34.3855,436.9179],[139.0984,-34.393,433.5375],[139.0963,-34.3946,414.3394],[139.0938,-34.401,411.2144],[139.1001,-34.4041,395.7393],[139.0989,-34.4097,379.9996],[139.1003,-34.4112,379.9996],[139.1077,-34.4129,385.3049],[139.1056,-34.419,381.1719],[139.1122,-34.4296,402.7492],[139.1098,-34.4323,399.6957],[139.1125,-34.4343,407.3126],[139.1112,-34.4362,410.572],[139.112,-34.4388,397.7789],[139.1137,-34.4382,399.2438],[139.1174,-34.441,416.3229],[139.1281,-34.4436,385.8546],[139.131,-34.4462,406.9362],[139.1311,-34.451,417.5177],[139.1354,-34.4511,389.4499],[139.1378,-34.4565,399.0844],[139.1433,-34.4582,401.4099],[139.1484,-34.4624,396.502],[139.1513,-34.4624,390.6786],[139.1498,-34.4653,387.2286],[139.1535,-34.4655,390.4109],[139.1564,-34.4682,403.1267],[139.1638,-34.479,420.7646],[139.1675,-34.4802,429.723],[139.1701,-34.4781,437.9846],[139.1719,-34.4834,427.6094],[139.1621,-34.4859,419.971],[139.1598,-34.4921,431.1871],[139.1565,-34.4936,425.8954],[139.1564,-34.4991,418.2924],[139.1591,-34.501,425.4637],[139.1549,-34.5061,421.3498],[139.1549,-34.5086,421.6886],[139.1501,-34.5083,416.0688],[139.1461,-34.5108,416.029],[139.1349,-34.5087,442.1286],[139.1263,-34.5264,428.0104],[139.1118,-34.5357,420.7152],[139.1136,-34.5396,439.5681],[139.1095,-34.5488,442.5834],[139.1106,-34.5556,432.7975],[139.1087,-34.5587,430.3533],[139.1047,-34.5598,452.4033],[139.1059,-34.5627,449.4654],[139.1033,-34.5649,450.4447],[139.1007,-34.5649,451.978],[139.0962,-34.5805,453.0705],[139.0983,-34.5814,468.9394],[139.0982,-34.5835,467.3546],[139.1062,-34.5936,469.5027],[139.1027,-34.598,464.6764],[139.1043,-34.6009,460.278],[139.1018,-34.604,473.2888],[139.1033,-34.6103,482.2865],[139.101,-34.6129,485.8665],[139.1031,-34.6206,471.9964],[139.1626,-34.6211,329.3753],[139.1575,-34.6326,340.092],[139.1591,-34.6405,326.6692],[139.158,-34.6475,334.5403],[139.1614,-34.6544,321.9255],[139.1612,-34.6612,299.7164],[139.1646,-34.6705,289.2053],[139.166,-34.685,320.3089],[139.1694,-34.691,309.6167],[139.1689,-34.7073,282.5634],[139.1672,-34.7095,310.2079],[139.1615,-34.7046,318.7179],[139.1581,-34.7058,314.1562],[139.1588,-34.7129,342.3161],[139.1555,-34.7225,339.1185],[139.1507,-34.7685,399.0056],[139.1416,-34.7679,413.2891],[139.1374,-34.7696,416.6909],[139.1384,-34.763,404.9375],[139.087,-34.7592,456.5585],[139.0862,-34.7663,434.4327],[139.0848,-34.7653,431.647],[139.0839,-34.7689,426.3324],[139.0814,-34.7684,431.8237],[139.0759,-34.7734,438.9718],[139.0805,-34.7768,414.731],[139.0655,-34.7912,432.1745],[139.0672,-34.7924,423.7628],[139.0587,-34.8002,456.1618],[139.0559,-34.7982,471.2807],[139.0453,-34.8079,467.6862],[139.0439,-34.8133,473.2549],[139.0418,-34.8153,468.736],[139.044,-34.8159,468.9589],[139.0436,-34.8172,473.4779],[139.0389,-34.8224,469.3027],[139.0307,-34.8252,456.605],[139.0251,-34.8234,467.2553],[139.0163,-34.831,467.1179],[139.0102,-34.8323,494.7819],[139.0034,-34.8312,517.6592],[139.0019,-34.8324,525.3719],[139.003,-34.8385,512.3871],[139.0069,-34.8413,500.4872],[139.0057,-34.8469,488.3575],[139.0019,-34.8509,501.6884],[139.0039,-34.8547,488.4415],[139.0031,-34.8569,510.0748],[139.0095,-34.8647,498.4757],[138.999,-34.8701,473.5728],[138.9989,-34.8727,479.8478],[138.9916,-34.8748,489.1473],[138.9894,-34.879,481.7276],[138.9752,-34.8776,521.1052],[138.9808,-34.883,518.631],[138.9751,-34.8948,530.5547]],
[[139.1371,-34.7698,429.7733],[139.1372,-34.7696,429.7733],[139.1373,-34.7696,429.7733],[139.137,-34.7699,429.7733],[139.1371,-34.7698,429.7733]]]]}
,"properties": {"GID_2": "AUS.8.33_1","GID_0": "AUS","country": "Australia","GID_1": "AUS.8_1","state": "SouthAustralia","NL_NAME_1": "NA","county": "MidMurray","VARNAME_2": "NA","NL_NAME_2": "NA","TYPE_2": "DistrictCouncil","ENGTYPE_2": "DistrictCouncil","CC_2": "44210","HASC_2": "AU.SA.MM","name": "MidMurray.county","area_km2": 6272.6,"hist_schema_id": "Elevation0-9000","hist_area_km2": {"0": 233.904,"25": 624.843,"50": 1217.514,"75": 1771.276,"100": 1029.998,"125": 464.569,"150": 110.222,"175": 58.368,"200": 50.602,"225": 61.266,"250": 64.037,"275": 62.456,"300": 71.001,"325": 84.835,"350": 76.712,"375": 93.971,"400": 95.541,"425": 66.361,"450": 25.202,"475": 7.068,"500": 2.349,"525": 0.504}}}