{"type":"Feature","properties":{"GID_2":"AUS.11.140_1","GID_0":"AUS","country":"Australia","GID_1":"AUS.11_1","state":"WesternAustralia","NL_NAME_1":"NA","county":"York","VARNAME_2":"NA","NL_NAME_2":"NA","TYPE_2":"Shire","ENGTYPE_2":"Shire","CC_2":"59370","HASC_2":"AU.WA.YO","name":"York.county"},
"geometry":{"type": "MultiPolygon","coordinates": [[[[116.285,-32.1132,417.389],[116.3442,-32.1131,285.9304],[116.344,-32.0936,230.7161],[116.3921,-32.0936,247.414],[116.3923,-32.0826,244.5207],[116.4454,-32.0831,236.3305],[116.4451,-32.1117,313.3552],[116.5092,-32.1117,251.8977],[116.5094,-32.1398,282.2243],[116.614,-32.1398,294.5852],[116.6141,-32.1119,303.1729],[116.6153,-32.1117,303.1729],[116.6734,-32.111,288.6419],[116.6829,-32.1268,270.3714],[116.7102,-32.115,235.0299],[116.7011,-32.0997,260.8235],[116.7114,-32.0952,246.6914],[116.7086,-32.0907,236.447],[116.7171,-32.087,240.9388],[116.7159,-32.0848,234.4657],[116.7287,-32.0795,267.7134],[116.718,-32.0618,251.0421],[116.7395,-32.0523,352.4023],[116.756,-32.0805,260.0245],[116.82,-32.0528,186.3036],[116.8197,-32.0466,186.4966],[116.8116,-32.0401,185.1422],[116.9214,-31.9918,266.697],[116.9244,-31.9966,281.0015],[116.9314,-31.9934,288.3096],[116.9305,-31.9984,287.7188],[116.9337,-31.9993,286.1043],[116.9501,-31.9902,250.4217],[116.9527,-31.9941,243.3695],[116.987,-31.9792,216.806],[116.9902,-31.9822,218.6889],[117.0087,-31.9741,233.6302],[117.0109,-31.9777,238.157],[117.032,-31.9685,261.4167],[117.0311,-31.9669,270.5151],[117.0425,-31.9619,293.8428],[117.0474,-31.97,261.7895],[117.0451,-31.971,266.1834],[117.0475,-31.975,248.4293],[117.0523,-31.9729,269.7552],[117.0561,-31.9794,242.187],[117.0612,-31.9772,245.5298],[117.0573,-31.9707,276.9157],[117.0553,-31.9716,263.9484],[117.0538,-31.969,280.9796],[117.0643,-31.9644,277.3834],[117.0932,-31.9843,253.8846],[117.0996,-31.9818,258.9181],[117.0934,-31.971,277.7845],[117.0897,-31.971,269.3835],[117.0882,-31.9686,267.1327],[117.092,-31.967,283.0221],[117.0876,-31.9595,281.3787],[117.0996,-31.9544,290.1531],[117.0963,-31.9488,309.5111],[117.1051,-31.945,304.5846],[117.0964,-31.9305,294.9747],[117.1418,-31.9106,301.0667],[117.1387,-31.9057,285.4046],[117.136,-31.9069,295.756],[117.1262,-31.891,271.7077],[117.1184,-31.8946,273.9929],[117.111,-31.8853,275.5862],[117.1414,-31.8718,260.6844],[117.1356,-31.8626,241.3404],[117.1474,-31.8616,241.4505],[117.1583,-31.8566,251.1459],[117.1238,-31.7999,258.6018],[117.1067,-31.8073,265.0812],[117.1031,-31.8012,259.0282],[117.0909,-31.8044,247.659],[117.0871,-31.798,233.3441],[117.0823,-31.8,224.289],[117.0799,-31.7959,227.8318],[117.0753,-31.7978,224.7311],[117.0576,-31.7701,235.9319],[117.0209,-31.7843,233.1842],[117.0194,-31.7818,235.1008],[117.0142,-31.7839,250.0938],[117.0049,-31.7672,263.4142],[116.9997,-31.7693,255.16],[116.994,-31.7593,259.2338],[116.9893,-31.7613,249.9377],[116.957,-31.7083,184.8501],[116.9527,-31.7045,186.0339],[116.9531,-31.703,185.7265],[116.9438,-31.707,191.1814],[116.9363,-31.6941,206.2447],[116.9146,-31.6998,185.1004],[116.9039,-31.6994,181.1032],[116.9096,-31.7092,180.3677],[116.9162,-31.7065,182.353],[116.9193,-31.71,181.7954],[116.9204,-31.7147,181.6758],[116.9231,-31.715,182.2816],[116.9238,-31.7169,181.7188],[116.8742,-31.7374,217.325],[116.8729,-31.7652,198.9791],[116.8648,-31.7516,207.8191],[116.8593,-31.754,198.901],[116.8556,-31.7473,208.8871],[116.8568,-31.746,201.6776],[116.8556,-31.744,203.0594],[116.8269,-31.7564,194.4054],[116.8122,-31.7317,169.5029],[116.7856,-31.7433,175.7126],[116.7761,-31.7273,177.4347],[116.7721,-31.7305,167.6505],[116.7644,-31.7321,163.6183],[116.7542,-31.7397,171.8322],[116.7479,-31.7287,163.4791],[116.5997,-31.7938,265.4623],[116.6019,-31.7976,278.9702],[116.5742,-31.8096,352.5727],[116.5729,-31.8054,362.7433],[116.5408,-31.8055,278.9962],[116.5403,-31.8034,310.4574],[116.5229,-31.8105,260.7117],[116.5251,-31.8148,254.7534],[116.5241,-31.8153,256.4807],[116.5095,-31.8184,277.2389],[116.5152,-31.8314,335.2305],[116.5154,-31.8384,322.8489],[116.5295,-31.86,323.899],[116.5432,-31.8705,328.5982],[116.5422,-31.876,323.5143],[116.5432,-31.8808,325.4446],[116.5481,-31.881,307.5529],[116.5484,-31.884,296.9392],[116.5566,-31.8858,313.5308],[116.524,-31.9092,258.4144],[116.5211,-31.9135,256.1355],[116.4151,-31.9093,298.1503],[116.4118,-31.9678,333.3116],[116.4098,-31.9678,325.5238],[116.4091,-32.0123,280.7782],[116.3673,-32.0119,233.8555],[116.3672,-32.0055,275.9781],[116.3028,-32.005,207.6455],[116.3026,-32.0232,304.7293],[116.3237,-32.0234,197.3768],[116.3235,-32.0626,294.5243],[116.285,-32.0621,173.7072],[116.285,-32.1132,417.389]]]]}}