{"type": "Feature","bbox": [139.0462,-17.1395,139.8875,-16.23],"geometry": {"type": "MultiPolygon","coordinates": [[[[139.3888,-17.0734,0.0],[139.3749,-17.0692,1.288],[139.3651,-17.0697,2.236],[139.3683,-17.0722,6.3202],[139.3827,-17.075,2.5711],[139.391,-17.074,0.0],[139.3918,-17.0721,0.0],[139.3888,-17.0734,0.0]]],
[[[139.3829,-17.0247,0.0],[139.3818,-17.0248,0.0],[139.3816,-17.0273,0.0],[139.3787,-17.0304,0.0],[139.3812,-17.0299,0.0],[139.3829,-17.0247,0.0]]],
[[[139.3696,-17.0009,0.0],[139.3731,-17.0067,3.7943],[139.3757,-17.0071,2.5796],[139.3753,-17.0053,1.7723],[139.3696,-17.0009,0.0]]],
[[[139.2731,-16.9911,1.1706],[139.2726,-16.9885,0.3956],[139.2701,-16.9887,1.5675],[139.2682,-16.9852,0.0],[139.2638,-16.9848,0.0],[139.2607,-16.9898,1.6755],[139.2634,-16.9931,1.2967],[139.2619,-16.9986,3.284],[139.2644,-16.9995,1.5554],[139.2683,-16.9973,2.7532],[139.2713,-16.9995,0.5928],[139.2695,-16.995,2.0228],[139.2711,-16.9937,2.4292],[139.2726,-16.9965,1.7467],[139.2749,-16.9953,2.1827],[139.2749,-16.9928,2.6124],[139.2797,-16.9946,0.0],[139.2778,-16.99,0.0],[139.2731,-16.9911,1.1706]]],
[[[139.2195,-17.0137,2.3168],[139.2162,-17.0104,0.0],[139.2133,-17.0024,0.0],[139.2106,-17.0042,0.0],[139.2074,-17.0033,0.6701],[139.2056,-17.0072,4.9483],[139.2068,-17.017,1.2494],[139.2109,-17.0221,0.2114],[139.2147,-17.0364,0.0],[139.2162,-17.0328,3.3257],[139.2229,-17.0317,0.0],[139.2288,-17.0422,2.0769],[139.2332,-17.0461,6.1827],[139.2479,-17.0454,2.9718],[139.2511,-17.0501,7.7391],[139.2507,-17.0556,8.2588],[139.2549,-17.0562,5.5801],[139.256,-17.0543,7.9178],[139.2596,-17.0545,6.3854],[139.2623,-17.0581,2.541],[139.2658,-17.0582,1.201],[139.2643,-17.0569,5.8858],[139.2649,-17.0534,3.4053],[139.2536,-17.0464,5.0851],[139.2487,-17.0412,0.0],[139.2464,-17.0359,0.0],[139.2442,-17.0356,2.7471],[139.2447,-17.0327,0.0],[139.2431,-17.0295,0.0],[139.2406,-17.0303,1.0792],[139.2384,-17.0266,0.2819],[139.2333,-17.0258,1.4515],[139.232,-17.0224,0.0],[139.2271,-17.0206,2.4443],[139.228,-17.0195,0.0],[139.2245,-17.0154,0.0],[139.2195,-17.0137,2.3168]]],
[[[139.2031,-16.9953,0.0],[139.2004,-16.9922,0.0],[139.1899,-16.9901,0.0],[139.1951,-16.9928,0.0],[139.2031,-16.9953,0.0]]],
[[[139.0692,-16.8899,0.1092],[139.0614,-16.8893,0.0],[139.0582,-16.885,0.4455],[139.0523,-16.8878,0.0],[139.0462,-16.8853,0.0],[139.0488,-16.8878,0.0],[139.0537,-16.8893,2.2136],[139.058,-16.8962,5.8242],[139.0659,-16.8988,5.5993],[139.0698,-16.904,5.6665],[139.0768,-16.9051,0.0],[139.0768,-16.9022,0.2715],[139.0717,-16.895,0.0],[139.0737,-16.8911,0.0],[139.0692,-16.8899,0.1092]]],
[[[139.0668,-16.8708,0.3431],[139.0676,-16.865,0.0],[139.0664,-16.8621,0.0],[139.0631,-16.8606,0.0],[139.0656,-16.8639,0.0],[139.0634,-16.8639,1.1005],[139.0579,-16.8697,6.4463],[139.0589,-16.8769,0.0],[139.0632,-16.8751,1.3467],[139.0668,-16.8708,0.3431]]],
[[[139.1194,-16.8594,0.0],[139.1209,-16.8617,0.0],[139.1214,-16.8615,0.0],[139.1212,-16.86,0.0],[139.1194,-16.8594,0.0]]],
[[[139.1376,-16.8035,0.0],[139.1325,-16.7978,0.0],[139.1207,-16.8042,0.0],[139.0939,-16.8134,0.9722],[139.0951,-16.8186,4.9878],[139.0906,-16.8267,0.5934],[139.0947,-16.8431,3.2897],[139.0988,-16.8463,0.0],[139.1009,-16.8449,2.2263],[139.1122,-16.8476,2.8472],[139.1133,-16.8494,1.0801],[139.115,-16.8472,0.0],[139.1131,-16.8458,0.6218],[139.115,-16.8449,0.0],[139.1139,-16.8376,1.7489],[139.1165,-16.8348,2.7903],[139.1244,-16.8319,1.7199],[139.1284,-16.8261,3.263],[139.133,-16.8248,1.3405],[139.1425,-16.8271,2.4259],[139.1488,-16.8223,1.6878],[139.1505,-16.8243,1.6721],[139.1522,-16.8219,0.9133],[139.147,-16.8183,1.9972],[139.146,-16.8138,0.0],[139.1387,-16.8098,1.756],[139.1376,-16.8035,0.0]]],
[[[139.1351,-16.7899,0.0],[139.1341,-16.7905,0.0],[139.1338,-16.7908,0.0],[139.1351,-16.7911,0.0],[139.1351,-16.7899,0.0]]],
[[[139.1385,-16.7889,0.0],[139.1391,-16.79,0.0],[139.1403,-16.7893,0.0],[139.1402,-16.7889,0.0],[139.1385,-16.7889,0.0]]],
[[[139.3622,-16.9544,4.4396],[139.362,-16.9557,5.2844],[139.3648,-16.9569,0.0],[139.3636,-16.9527,0.0],[139.3622,-16.9544,4.4396]]],
[[[139.4762,-16.6752,1.3853],[139.472,-16.6687,0.0],[139.4691,-16.6692,0.0],[139.4676,-16.667,0.0],[139.4575,-16.6725,0.1918],[139.4563,-16.6776,0.9451],[139.455,-16.6754,0.0],[139.4561,-16.6735,0.3722],[139.4524,-16.6744,0.4044],[139.4485,-16.6798,1.7801],[139.444,-16.6824,4.0584],[139.4434,-16.6875,1.5605],[139.4384,-16.6945,0.904],[139.4382,-16.6961,2.3986],[139.4416,-16.6984,1.3016],[139.4413,-16.7037,2.4558],[139.4458,-16.7064,2.5058],[139.4536,-16.7075,3.4641],[139.4594,-16.7024,8.4171],[139.4646,-16.7004,0.0],[139.4688,-16.6877,0.0],[139.474,-16.6813,0.8765],[139.4777,-16.6795,0.0],[139.4762,-16.6752,1.3853]]],
[[[139.4602,-16.6666,0.6561],[139.459,-16.6674,0.6561],[139.459,-16.6689,0.9689],[139.4602,-16.6684,0.9689],[139.4602,-16.6666,0.6561]]],
[[[139.4577,-16.6658,0.9503],[139.4554,-16.6626,0.0],[139.4539,-16.663,2.0937],[139.4551,-16.6669,1.9661],[139.457,-16.668,0.1679],[139.4586,-16.6665,0.6561],[139.4577,-16.6658,0.9503]]],
[[[139.1517,-16.7804,0.0],[139.1513,-16.7844,0.0],[139.1555,-16.7739,0.0],[139.1532,-16.775,0.0],[139.1517,-16.7804,0.0]]],
[[[139.1483,-16.756,0.0],[139.1456,-16.7569,0.0],[139.1422,-16.7554,0.0],[139.1398,-16.7593,3.2732],[139.1399,-16.7623,4.1069],[139.1444,-16.7634,0.0],[139.1485,-16.762,0.0],[139.1471,-16.7596,0.2294],[139.1486,-16.7595,0.7286],[139.15,-16.7567,0.0],[139.1483,-16.756,0.0]]],
[[[139.165,-16.746,0.1257],[139.1669,-16.7481,0.0],[139.1668,-16.7456,0.0],[139.1629,-16.7406,0.0],[139.1632,-16.7437,0.3639],[139.165,-16.746,0.1257]]],
[[[139.1826,-16.6984,0.0],[139.1849,-16.6992,0.0],[139.1837,-16.6959,1.4284],[139.1863,-16.6916,2.4949],[139.1886,-16.68,4.1315],[139.1834,-16.6737,0.0],[139.1796,-16.6718,0.6479],[139.1713,-16.671,0.0],[139.1526,-16.6847,3.1526],[139.146,-16.6919,4.6903],[139.1445,-16.6994,9.2539],[139.14,-16.7062,1.5046],[139.1402,-16.7152,6.9174],[139.1438,-16.7189,8.2171],[139.1472,-16.7323,4.9819],[139.1395,-16.7498,4.112],[139.1414,-16.7541,2.6135],[139.1503,-16.7482,2.2994],[139.1623,-16.7489,0.0],[139.1614,-16.7397,2.9455],[139.17,-16.7307,3.0958],[139.1768,-16.7348,0.6946],[139.1848,-16.7336,0.0],[139.1846,-16.7312,0.5282],[139.1785,-16.7333,1.5007],[139.1751,-16.7325,0.8089],[139.174,-16.7284,2.0105],[139.1774,-16.7289,2.7493],[139.1826,-16.7269,1.9039],[139.1886,-16.7193,0.3082],[139.1859,-16.7166,2.0179],[139.1826,-16.6984,0.0]]],
[[[139.5607,-17.116,4.0844],[139.5598,-17.1139,0.0],[139.556,-17.1159,1.2076],[139.5536,-17.1137,0.7457],[139.5522,-17.1145,0.0],[139.5527,-17.119,0.0],[139.5489,-17.1241,0.0],[139.5495,-17.1292,2.47],[139.5538,-17.1291,1.1598],[139.5537,-17.1247,0.9565],[139.5607,-17.116,4.0844]]],
[[[139.6358,-17.0676,0.0],[139.6294,-17.0627,0.0],[139.6255,-17.0621,0.2806],[139.6235,-17.0673,0.7816],[139.6253,-17.0725,0.2068],[139.6247,-17.0784,0.0],[139.6136,-17.0927,0.8245],[139.6151,-17.0996,1.6355],[139.614,-17.1063,1.2671],[139.6076,-17.1104,0.2898],[139.5951,-17.1122,0.1799],[139.597,-17.1141,1.984],[139.5979,-17.1205,0.0],[139.5981,-17.1294,0.0],[139.5965,-17.1329,1.9775],[139.6012,-17.1334,3.1038],[139.6038,-17.1383,0.5081],[139.6113,-17.1374,5.0803],[139.6145,-17.1395,4.3136],[139.6153,-17.1352,6.0346],[139.6138,-17.1335,7.6319],[139.6119,-17.1209,3.8615],[139.6286,-17.0909,3.892],[139.633,-17.087,1.1822],[139.6349,-17.0803,1.8932],[139.6396,-17.0774,0.5019],[139.6358,-17.0676,0.0]]],
[[[139.5329,-17.0197,2.5642],[139.5177,-17.0069,6.1036],[139.5081,-16.9937,0.0],[139.5049,-16.9854,0.0],[139.4932,-16.9801,0.6004],[139.4954,-16.9919,0.0],[139.4926,-16.9965,2.7669],[139.5004,-17.0023,1.5253],[139.4946,-17.001,0.0],[139.4906,-17.0158,0.0],[139.4866,-17.0204,0.0],[139.4821,-17.0224,0.0],[139.4791,-17.0187,0.0],[139.4774,-17.0195,0.0],[139.4738,-17.0304,1.4808],[139.4737,-17.0339,3.9229],[139.4754,-17.0358,1.9609],[139.487,-17.0347,0.373],[139.4901,-17.0446,0.4953],[139.4888,-17.0444,1.2114],[139.4861,-17.0362,0.373],[139.4778,-17.038,0.4779],[139.473,-17.0356,1.2933],[139.4697,-17.0239,0.0982],[139.4697,-17.0268,0.8813],[139.4616,-17.0253,0.3872],[139.4599,-17.0265,0.3061],[139.4606,-17.0274,0.8579],[139.4686,-17.0292,1.4564],[139.459,-17.0298,4.1677],[139.4567,-17.0313,2.2022],[139.4579,-17.0318,2.2022],[139.4556,-17.0383,1.6563],[139.4547,-17.0488,7.6805],[139.4504,-17.0553,0.4059],[139.4342,-17.0652,1.923],[139.4343,-17.068,1.7169],[139.4292,-17.0715,1.4287],[139.4318,-17.0664,0.5712],[139.4304,-17.0668,0.1065],[139.4239,-17.0754,0.1292],[139.4233,-17.0786,0.7034],[139.4197,-17.0786,0.4857],[139.4126,-17.0822,0.259],[139.3946,-17.0816,0.0],[139.3958,-17.0908,1.4294],[139.4012,-17.1,3.2219],[139.401,-17.106,6.8172],[139.4095,-17.1126,5.0553],[139.4112,-17.1222,6.8105],[139.4158,-17.127,0.664],[139.4226,-17.1271,1.2565],[139.4309,-17.1313,0.2096],[139.4336,-17.139,0.0],[139.4399,-17.139,0.0],[139.4398,-17.1357,1.4235],[139.4364,-17.1301,0.1272],[139.4319,-17.1267,1.2727],[139.4277,-17.1259,0.0],[139.4255,-17.1235,0.0],[139.4263,-17.1148,0.146],[139.4301,-17.1098,1.1578],[139.4273,-17.1056,2.5292],[139.4299,-17.1043,2.6019],[139.4349,-17.1076,0.7702],[139.4368,-17.1052,0.6241],[139.4369,-17.1016,1.0815],[139.4634,-17.095,1.2133],[139.4691,-17.0973,0.0],[139.4714,-17.0939,1.7964],[139.4797,-17.0944,1.9487],[139.4844,-17.0916,1.0928],[139.4808,-17.0846,1.2353],[139.4858,-17.0888,2.0205],[139.4845,-17.0928,1.0928],[139.4809,-17.0953,0.7118],[139.4723,-17.0951,0.3909],[139.4765,-17.1008,0.3462],[139.475,-17.1067,2.424],[139.478,-17.1158,2.3556],[139.4857,-17.1208,0.9529],[139.488,-17.1196,0.0],[139.4847,-17.1187,2.462],[139.4867,-17.1163,2.4366],[139.4953,-17.1148,2.1234],[139.5058,-17.1183,2.8441],[139.5082,-17.1229,1.1379],[139.5099,-17.1231,0.4512],[139.5125,-17.1215,0.7401],[139.5087,-17.1217,1.1379],[139.5086,-17.1196,1.2788],[139.5132,-17.1185,2.1771],[139.5187,-17.1232,0.5581],[139.5145,-17.1119,1.2522],[139.5155,-17.1093,4.0182],[139.5171,-17.1093,3.3059],[139.5173,-17.1065,3.1601],[139.5227,-17.1028,2.9266],[139.5352,-17.0997,0.4452],[139.5519,-17.0998,0.0],[139.5662,-17.0926,4.1794],[139.5741,-17.0921,1.8216],[139.5779,-17.0939,0.0],[139.5701,-17.0823,0.7977],[139.5612,-17.0753,3.3677],[139.5567,-17.0685,0.5223],[139.5544,-17.0697,2.7066],[139.557,-17.067,4.8982],[139.5509,-17.055,6.7605],[139.5493,-17.048,2.3462],[139.5563,-17.0343,0.585],[139.5508,-17.0347,2.9165],[139.5435,-17.0314,3.4778],[139.5329,-17.0197,2.5642]]],
[[[139.8426,-16.7089,0.0963],[139.8421,-16.7085,0.0963],[139.8416,-16.7094,0.0963],[139.8423,-16.7094,0.0963],[139.8426,-16.7089,0.0963]]],
[[[139.8438,-16.7065,0.0993],[139.843,-16.7066,0.0],[139.8432,-16.7075,0.0993],[139.8437,-16.707,0.0993],[139.8438,-16.7065,0.0993]]],
[[[139.8278,-16.7011,0.0],[139.8265,-16.7034,0.2268],[139.8394,-16.7006,0.2743],[139.8402,-16.6986,0.1644],[139.8336,-16.6967,0.0],[139.8278,-16.7011,0.0]]],
[[[139.8857,-16.6526,0.0],[139.8792,-16.6498,-1.2512],[139.8761,-16.6449,-4.1723],[139.8719,-16.6453,-1.9109],[139.8685,-16.6494,-3.7797],[139.8699,-16.6558,0.0],[139.8682,-16.6582,-2.2532],[139.8599,-16.6609,0.0],[139.8514,-16.6605,0.0],[139.8486,-16.6622,0.0],[139.8481,-16.6635,-0.8225],[139.8559,-16.6729,-1.036],[139.8548,-16.6767,0.0],[139.8564,-16.6767,0.0904],[139.8608,-16.6675,1.0406],[139.8689,-16.663,-0.1816],[139.8756,-16.6623,0.5645],[139.8792,-16.6566,1.364],[139.8875,-16.6535,0.0876],[139.8857,-16.6526,0.0]]],
[[[139.4777,-16.608,0.3892],[139.4783,-16.6046,0.0],[139.4699,-16.6049,2.2803],[139.4702,-16.6059,2.2803],[139.4777,-16.608,0.3892]]],
[[[139.4695,-16.5653,2.6962],[139.4735,-16.5673,1.2509],[139.4753,-16.5637,2.1496],[139.4721,-16.5623,2.7625],[139.4695,-16.5653,2.6962]]],
[[[139.5636,-16.3969,0.7882],[139.5533,-16.3934,0.3799],[139.5508,-16.3905,0.0],[139.547,-16.3911,0.0],[139.5426,-16.3965,2.0412],[139.5374,-16.3982,0.8303],[139.5382,-16.4037,0.0],[139.5352,-16.4086,0.6625],[139.5285,-16.4127,0.0],[139.4894,-16.4282,4.1597],[139.4824,-16.4355,1.6262],[139.4757,-16.438,5.7193],[139.4747,-16.4413,5.0018],[139.4654,-16.4461,3.0864],[139.4438,-16.4482,3.2006],[139.4298,-16.4475,0.0],[139.4204,-16.4449,0.0],[139.3987,-16.4477,0.0],[139.3889,-16.4516,6.8543],[139.3804,-16.4507,0.0],[139.3636,-16.4524,0.0],[139.3508,-16.4605,1.0578],[139.3347,-16.4649,4.339],[139.3263,-16.4641,0.0],[139.3154,-16.4596,0.9646],[139.31,-16.4599,0.0],[139.3014,-16.4646,0.0],[139.2921,-16.4772,1.1156],[139.2678,-16.4916,5.2253],[139.2418,-16.5043,0.0],[139.2443,-16.5077,8.0243],[139.2429,-16.5163,11.6686],[139.2404,-16.5207,5.4733],[139.2354,-16.5246,2.1554],[139.2393,-16.5237,6.0224],[139.2185,-16.5358,3.9874],[139.2217,-16.5372,3.4644],[139.2192,-16.543,2.0666],[139.2206,-16.5429,4.5805],[139.221,-16.5457,5.6866],[139.2176,-16.5451,2.1888],[139.2137,-16.5495,2.2487],[139.2143,-16.553,2.3458],[139.2181,-16.5575,17.932],[139.2128,-16.5685,5.032],[139.2072,-16.5745,1.5302],[139.1919,-16.5844,0.9161],[139.1606,-16.6102,6.7844],[139.1626,-16.6192,16.1038],[139.151,-16.6338,4.0486],[139.1562,-16.6403,17.3746],[139.1569,-16.6446,8.2789],[139.1591,-16.6471,11.6058],[139.1597,-16.6575,2.4106],[139.1625,-16.6647,6.8915],[139.1668,-16.6681,0.0],[139.1743,-16.6665,1.9129],[139.1797,-16.6682,0.0],[139.1851,-16.6678,8.7349],[139.195,-16.6619,2.3549],[139.1913,-16.6667,3.4162],[139.1977,-16.6776,1.2134],[139.1958,-16.6941,1.8985],[139.1998,-16.7077,3.0404],[139.2047,-16.7101,1.2595],[139.2097,-16.7078,4.9468],[139.2216,-16.7098,4.3855],[139.2251,-16.7143,3.5821],[139.23,-16.7312,9.5274],[139.2333,-16.7313,0.0],[139.2455,-16.7251,4.054],[139.2597,-16.7238,8.385],[139.2652,-16.7249,8.0928],[139.2691,-16.7313,5.1612],[139.2746,-16.7335,2.774],[139.2796,-16.733,0.0],[139.2823,-16.7307,1.7611],[139.2881,-16.7344,5.8963],[139.2999,-16.7258,4.2013],[139.3051,-16.7241,7.8227],[139.3136,-16.73,1.2424],[139.3175,-16.7263,1.1135],[139.3181,-16.7221,6.0484],[139.3237,-16.7133,0.0],[139.3243,-16.7109,7.4391],[139.322,-16.7102,8.3504],[139.3296,-16.7085,0.0],[139.3506,-16.689,3.0352],[139.3561,-16.6911,1.2064],[139.3587,-16.6846,2.7178],[139.3583,-16.6878,2.9135],[139.3657,-16.6934,2.2412],[139.3677,-16.6917,0.8515],[139.3668,-16.6897,0.5806],[139.3728,-16.6875,0.0],[139.3739,-16.6863,0.0],[139.3677,-16.683,4.771],[139.3686,-16.6721,0.0],[139.3803,-16.6609,1.0953],[139.383,-16.6564,0.0],[139.3754,-16.6468,2.0427],[139.3759,-16.642,5.1205],[139.3807,-16.6413,2.5265],[139.3787,-16.6453,7.2129],[139.3801,-16.6471,3.5489],[139.383,-16.6454,0.0],[139.383,-16.6433,0.0],[139.3866,-16.6393,3.7267],[139.3931,-16.6373,3.2797],[139.3978,-16.6394,4.8492],[139.4002,-16.6436,0.8363],[139.4007,-16.6405,4.4441],[139.402,-16.6404,3.6783],[139.4035,-16.6438,4.3257],[139.4073,-16.6452,8.8779],[139.4109,-16.6514,5.8939],[139.4102,-16.6541,3.5274],[139.4118,-16.654,6.2685],[139.4153,-16.6587,8.0142],[139.4122,-16.6585,7.4283],[139.4169,-16.6643,0.0],[139.4143,-16.6686,2.1718],[139.4162,-16.672,3.1398],[139.4286,-16.6702,1.8532],[139.4357,-16.6717,2.5934],[139.4381,-16.6748,0.0],[139.4406,-16.6691,8.4188],[139.4513,-16.6663,1.8416],[139.4529,-16.6613,0.0],[139.4512,-16.659,2.2255],[139.4492,-16.6445,0.0],[139.4442,-16.6379,0.0],[139.4444,-16.6355,3.8559],[139.4462,-16.6356,0.6416],[139.4471,-16.6332,1.7775],[139.4449,-16.6313,2.6586],[139.4409,-16.6319,3.4564],[139.4391,-16.6307,5.0315],[139.4443,-16.6278,7.8841],[139.4546,-16.6269,6.5444],[139.4612,-16.6293,5.6714],[139.4656,-16.6279,7.1113],[139.4704,-16.6202,0.9223],[139.4724,-16.6136,3.1567],[139.4669,-16.6055,2.2259],[139.4664,-16.6004,6.7651],[139.4699,-16.5989,0.0],[139.4696,-16.5915,2.7774],[139.4712,-16.5881,1.9321],[139.4702,-16.5853,2.3202],[139.465,-16.5817,2.8098],[139.4553,-16.5803,3.1558],[139.4644,-16.5799,2.8375],[139.4722,-16.5842,1.2178],[139.4731,-16.5825,0.0],[139.4698,-16.581,0.0],[139.4686,-16.5781,1.7921],[139.4706,-16.5774,0.2556],[139.4693,-16.573,0.0],[139.4667,-16.5722,3.1948],[139.4678,-16.5689,2.5079],[139.4648,-16.5695,2.4121],[139.4637,-16.5722,2.4613],[139.4601,-16.5729,2.6723],[139.4583,-16.5754,2.5289],[139.4545,-16.5739,2.5857],[139.4554,-16.5728,2.8162],[139.4531,-16.5695,9.6404],[139.4581,-16.5696,5.5423],[139.4712,-16.5575,7.9978],[139.4837,-16.556,7.2498],[139.4927,-16.5588,7.0688],[139.4941,-16.561,3.4622],[139.4957,-16.5604,8.019],[139.4946,-16.5636,0.3895],[139.4996,-16.5703,9.7288],[139.5003,-16.5744,2.8704],[139.5031,-16.5766,1.0519],[139.5068,-16.5767,2.4708],[139.5062,-16.5699,0.0],[139.514,-16.5608,0.0],[139.5162,-16.556,0.8969],[139.5159,-16.548,2.8457],[139.5143,-16.5452,1.8667],[139.5118,-16.5428,0.0],[139.4906,-16.5437,0.0],[139.4856,-16.5421,0.0],[139.4786,-16.5313,0.4709],[139.4819,-16.5291,0.0],[139.475,-16.5262,3.0726],[139.4761,-16.5246,3.0726],[139.4797,-16.5263,0.0],[139.4807,-16.5244,2.4457],[139.4845,-16.5246,2.0022],[139.491,-16.5211,11.9665],[139.498,-16.5148,6.5122],[139.5068,-16.512,1.7006],[139.509,-16.5125,2.5305],[139.5125,-16.5166,2.5324],[139.5284,-16.5173,3.2994],[139.5313,-16.5155,0.906],[139.533,-16.5127,0.0],[139.5305,-16.5104,0.0],[139.5301,-16.5072,7.7063],[139.5367,-16.502,0.0],[139.5383,-16.4977,5.1962],[139.5432,-16.4924,0.0],[139.5406,-16.4916,3.6815],[139.5407,-16.4882,4.1639],[139.5506,-16.4836,4.4287],[139.5586,-16.4831,0.7293],[139.5608,-16.4803,1.032],[139.5597,-16.4739,0.0],[139.5466,-16.4605,2.6878],[139.5589,-16.4693,5.5946],[139.5625,-16.474,1.3997],[139.5666,-16.4745,3.7963],[139.563,-16.476,0.4665],[139.563,-16.4809,0.0],[139.5594,-16.4855,2.9146],[139.5585,-16.4908,3.1577],[139.5652,-16.4965,0.0],[139.5783,-16.5027,7.5448],[139.5806,-16.5108,3.1882],[139.5774,-16.514,1.9391],[139.5771,-16.5164,6.9093],[139.5795,-16.5211,8.2681],[139.5797,-16.5271,3.1155],[139.589,-16.5322,5.7754],[139.5894,-16.539,5.0199],[139.5881,-16.5408,7.1241],[139.5937,-16.5467,4.3929],[139.5931,-16.5497,6.5083],[139.596,-16.5542,7.239],[139.6157,-16.5404,4.3274],[139.6246,-16.5365,3.7775],[139.628,-16.5326,4.6273],[139.6263,-16.5304,2.129],[139.63,-16.5325,7.9146],[139.6333,-16.5313,4.3866],[139.6393,-16.5323,3.3708],[139.6427,-16.527,5.1133],[139.6507,-16.5259,3.3072],[139.6572,-16.5194,4.6298],[139.6792,-16.519,8.1244],[139.6838,-16.5205,4.7857],[139.6867,-16.5242,0.2559],[139.6879,-16.5325,3.1987],[139.6896,-16.535,4.0396],[139.7047,-16.5348,0.626],[139.7115,-16.5322,6.0847],[139.71,-16.5221,0.0],[139.703,-16.5148,1.1371],[139.7009,-16.5144,1.7236],[139.7017,-16.5129,0.0],[139.6994,-16.5087,0.0],[139.7005,-16.5054,0.1637],[139.6988,-16.4966,4.4076],[139.7018,-16.4871,0.0],[139.6985,-16.4788,0.0],[139.6935,-16.4745,0.0],[139.6903,-16.468,5.3408],[139.6863,-16.4671,0.0],[139.6802,-16.4689,1.8261],[139.6794,-16.4676,4.1226],[139.6821,-16.4617,3.1125],[139.6819,-16.4588,0.5989],[139.6776,-16.4516,1.9831],[139.674,-16.4501,0.0],[139.6595,-16.451,0.0],[139.6502,-16.4495,0.0],[139.6405,-16.4423,0.0],[139.6331,-16.4318,2.0622],[139.6189,-16.4225,5.3135],[139.6045,-16.403,0.0],[139.5993,-16.4012,0.0],[139.5636,-16.3969,0.7882]]],
[[[139.2752,-16.2744,4.7238],[139.279,-16.2688,0.0],[139.2814,-16.269,0.0],[139.2834,-16.2652,0.0],[139.283,-16.2631,0.0],[139.2802,-16.2631,0.1531],[139.2827,-16.2645,0.0],[139.2806,-16.2686,0.0],[139.2782,-16.267,0.0],[139.2754,-16.268,4.1766],[139.2729,-16.2644,0.0],[139.2724,-16.2687,0.3329],[139.2745,-16.2724,4.7283],[139.2737,-16.2754,1.0492],[139.2752,-16.2744,4.7238]]],
[[[139.2544,-16.23,3.9788],[139.2526,-16.23,2.8858],[139.254,-16.2326,1.5132],[139.2547,-16.2304,0.0],[139.2544,-16.23,3.9788]]],
[[[139.8136,-16.4913,-2.7199],[139.8041,-16.4868,-0.1389],[139.8022,-16.488,0.4477],[139.8065,-16.4936,-0.5551],[139.8065,-16.4968,0.0386],[139.8136,-16.4913,-2.7199]]],
[[[139.7301,-16.4535,0.0],[139.7264,-16.4508,0.0],[139.7177,-16.4501,1.0675],[139.713,-16.4575,0.0],[139.7091,-16.4715,3.112],[139.702,-16.4735,0.0],[139.7012,-16.4753,0.0],[139.7095,-16.4902,10.9906],[139.7134,-16.4919,4.4468],[139.7198,-16.4903,5.8872],[139.7233,-16.491,7.5497],[139.7311,-16.5013,1.2299],[139.7338,-16.4982,2.9296],[139.7334,-16.4852,3.0757],[139.7348,-16.4782,4.4915],[139.731,-16.4731,8.5544],[139.73,-16.4687,16.1318],[139.7301,-16.4535,0.0]]],
[[[139.7733,-16.4396,0.0],[139.7717,-16.4395,0.0],[139.7711,-16.4397,0.0],[139.7729,-16.4402,0.0],[139.7733,-16.4396,0.0]]]]}
,"properties": {"GID_2": "AUS.7.45_1","GID_0": "AUS","country": "Australia","GID_1": "AUS.7_1","state": "Queensland","NL_NAME_1": "NA","county": "Mornington","VARNAME_2": "NA","NL_NAME_2": "NA","TYPE_2": "Shire","ENGTYPE_2": "Shire","CC_2": "35250","HASC_2": "AU.QL.MO","name": "Mornington.county","area_km2": 1249.8633,"hist_schema_id": "Elevation0-9000","hist_area_km2": {"0": 778.9971,"25": 468.6101,"50": 2.2561}}}