{"type": "Feature","bbox": [148.3598,-32.6536,149.0316,-31.886],"geometry": {"type": "MultiPolygon","coordinates": [[[[148.667,-32.6309,331.4271],[148.67,-32.6235,330.5216],[148.6763,-32.621,328.4632],[148.6854,-32.613,331.3801],[148.6897,-32.6127,334.614],[148.6979,-32.6153,324.2565],[148.7025,-32.6132,319.7024],[148.7005,-32.6077,320.6151],[148.6928,-32.6042,320.0871],[148.6902,-32.5995,314.6038],[148.6919,-32.5975,316.6133],[148.6965,-32.5975,317.5117],[148.6987,-32.594,318.4758],[148.7077,-32.5899,314.7045],[148.7093,-32.5874,309.0616],[148.7091,-32.5839,320.5104],[148.699,-32.5811,305.0843],[148.6993,-32.5773,315.8605],[148.7089,-32.5747,304.7237],[148.7204,-32.5753,298.7967],[148.7244,-32.5723,296.0895],[148.7239,-32.5689,296.96],[148.7179,-32.5665,297.3288],[148.7149,-32.5627,294.6656],[148.7153,-32.5528,295.9842],[148.711,-32.5522,292.2845],[148.7036,-32.5552,292.4858],[148.7007,-32.5531,291.5702],[148.7013,-32.5491,294.4926],[148.7058,-32.5444,290.1108],[148.7127,-32.5315,292.6221],[148.7084,-32.5228,294.4336],[148.7015,-32.5243,287.3938],[148.6991,-32.5226,286.2787],[148.699,-32.5176,285.8029],[148.7028,-32.5071,284.2044],[148.7004,-32.4969,282.9657],[148.7021,-32.4953,283.0499],[148.7146,-32.4919,282.8382],[148.7175,-32.4921,282.5497],[148.7204,-32.4959,281.4993],[148.7235,-32.4952,282.9765],[148.7245,-32.4938,286.4237],[148.7229,-32.4806,281.4789],[148.7277,-32.4729,281.4884],[148.7341,-32.4683,277.5499],[148.732,-32.465,278.4465],[148.726,-32.4622,277.7129],[148.7217,-32.4513,276.9601],[148.7164,-32.4459,276.4931],[148.7164,-32.4356,276.5155],[148.7125,-32.4342,275.199],[148.7076,-32.4365,276.7292],[148.7038,-32.4349,277.0683],[148.7051,-32.4289,273.3925],[148.7044,-32.4205,276.2134],[148.6982,-32.4073,269.3198],[148.7004,-32.4059,264.5299],[148.7081,-32.4061,272.6042],[148.7166,-32.4159,268.0531],[148.7239,-32.4147,270.4772],[148.7242,-32.421,268.8398],[148.7267,-32.4222,272.4747],[148.737,-32.4232,274.3421],[148.7417,-32.4178,275.2369],[148.7541,-32.4191,272.7858],[148.7574,-32.3957,304.5074],[148.7646,-32.3966,293.4424],[148.7657,-32.3903,305.1227],[148.7584,-32.3894,309.4355],[148.7589,-32.3862,314.484],[148.7605,-32.3865,309.0421],[148.7681,-32.3418,385.834],[148.791,-32.3599,388.384],[148.8012,-32.3639,363.7935],[148.8046,-32.3674,355.4925],[148.8205,-32.3522,403.746],[148.8235,-32.3526,411.4322],[148.8241,-32.3485,422.7445],[148.8411,-32.3312,377.9088],[148.8507,-32.3325,367.6953],[148.8527,-32.3197,347.8149],[148.8512,-32.3134,337.0901],[148.8835,-32.312,363.0809],[148.8875,-32.2899,346.7403],[148.8962,-32.2912,332.143],[148.9272,-32.2717,366.097],[148.9391,-32.2104,380.7195],[148.9352,-32.2099,395.1643],[148.9386,-32.1898,349.8601],[148.942,-32.1808,308.6748],[148.9446,-32.1797,310.5771],[148.9442,-32.174,309.7346],[148.9504,-32.1658,311.4821],[148.9529,-32.1576,312.6063],[148.9542,-32.1579,312.6063],[148.9548,-32.1617,311.2836],[148.9561,-32.1619,311.3546],[148.9557,-32.1599,312.3451],[148.959,-32.1607,314.8641],[148.9653,-32.1678,314.7097],[148.9684,-32.1676,316.3796],[148.9701,-32.1639,319.1435],[148.9721,-32.165,318.2842],[148.9872,-32.15,354.1259],[148.9882,-32.1426,337.6459],[148.9909,-32.1385,327.395],[148.9933,-32.1371,320.2803],[148.9969,-32.142,324.6091],[149.0012,-32.1394,339.8958],[149.0043,-32.1219,318.5718],[149.0069,-32.1215,320.2097],[149.009,-32.1187,319.62],[149.0088,-32.113,318.93],[149.0116,-32.1073,322.2795],[149.0159,-32.1052,322.7204],[149.0197,-32.1091,320.688],[149.0236,-32.0874,343.9767],[149.0167,-32.0781,349.6305],[149.0125,-32.0685,361.1753],[149.0085,-32.0649,366.0747],[149.0074,-32.0583,369.284],[149.0032,-32.0529,373.8745],[149.0025,-32.0443,380.7801],[148.9971,-32.0367,384.861],[149.0113,-32.0386,399.2676],[149.0316,-31.9234,396.9301],[149.0208,-31.9219,389.273],[149.0031,-31.936,374.7125],[148.9969,-31.9325,369.7147],[148.9933,-31.9326,368.0106],[148.9924,-31.9302,368.6838],[148.9885,-31.9279,364.9034],[148.9812,-31.9271,364.0362],[148.9778,-31.9154,355.5495],[148.7405,-31.886,342.6866],[148.732,-31.8936,349.0341],[148.7124,-31.8911,345.2686],[148.7033,-31.895,344.4409],[148.6852,-31.8896,342.1686],[148.6255,-31.9005,318.3812],[148.6191,-31.9157,309.1605],[148.6195,-31.925,310.9442],[148.5376,-31.9597,318.5843],[148.4727,-32.0046,292.8405],[148.4163,-32.0253,258.6566],[148.4323,-32.0272,262.8294],[148.4305,-32.0379,261.852],[148.4408,-32.0392,267.2885],[148.4369,-32.0608,265.5987],[148.4278,-32.0597,260.6336],[148.4211,-32.0551,260.2616],[148.4071,-32.0705,259.8694],[148.4111,-32.0732,259.5336],[148.4059,-32.1021,255.3631],[148.4191,-32.1042,257.0838],[148.4141,-32.1355,254.0769],[148.455,-32.14,252.9513],[148.4567,-32.143,254.621],[148.4541,-32.1448,252.5654],[148.4467,-32.1438,252.362],[148.446,-32.1454,251.2301],[148.4488,-32.1492,250.4442],[148.4485,-32.1515,249.9476],[148.4415,-32.1517,251.168],[148.4408,-32.1563,250.2644],[148.4338,-32.1566,247.8141],[148.4318,-32.1593,248.5604],[148.4276,-32.1572,247.4653],[148.4271,-32.1593,246.0862],[148.4303,-32.1598,249.5571],[148.4302,-32.1611,249.5571],[148.421,-32.1646,250.1382],[148.4185,-32.1696,240.0633],[148.415,-32.1691,237.8154],[148.4113,-32.1729,242.9195],[148.4046,-32.1736,238.6508],[148.4038,-32.1841,240.5159],[148.3988,-32.1879,239.0013],[148.3954,-32.196,241.6121],[148.3896,-32.1985,243.9823],[148.3875,-32.2054,244.8295],[148.381,-32.2079,239.7523],[148.379,-32.2112,239.6938],[148.3749,-32.2095,238.7832],[148.3767,-32.2043,240.3606],[148.3744,-32.2014,241.5592],[148.3683,-32.2004,240.9998],[148.3646,-32.1972,240.6519],[148.3598,-32.2026,242.4112],[148.3665,-32.2112,238.4983],[148.3667,-32.2168,233.9066],[148.3694,-32.2206,234.7666],[148.3712,-32.2287,242.4085],[148.3691,-32.2334,238.6821],[148.3642,-32.2359,244.052],[148.3662,-32.2362,241.8938],[148.3651,-32.2375,244.23],[148.3696,-32.2391,246.3439],[148.372,-32.2424,246.7253],[148.3714,-32.2443,246.9909],[148.3757,-32.2568,265.0825],[148.3982,-32.2574,277.9383],[148.4021,-32.2816,316.7215],[148.3988,-32.2816,285.9229],[148.3977,-32.2869,285.7189],[148.4024,-32.2876,293.2821],[148.4049,-32.3106,315.3269],[148.3832,-32.3798,460.394],[148.3809,-32.381,466.6449],[148.3824,-32.3824,463.0934],[148.3789,-32.3936,435.6559],[148.4076,-32.3974,417.7671],[148.3986,-32.4077,429.6957],[148.3973,-32.4116,416.8086],[148.3875,-32.4185,388.8649],[148.38,-32.4264,370.4509],[148.3941,-32.4375,402.731],[148.3992,-32.4793,446.6829],[148.4062,-32.4801,464.5155],[148.4094,-32.4822,472.6194],[148.4062,-32.4889,461.4902],[148.3992,-32.4935,441.8631],[148.3929,-32.5036,433.6058],[148.398,-32.5128,435.5993],[148.3974,-32.5165,437.9725],[148.393,-32.5186,439.1552],[148.3924,-32.5206,438.152],[148.3948,-32.5235,438.3049],[148.392,-32.5298,444.8371],[148.3952,-32.5351,466.6772],[148.3926,-32.5432,460.9262],[148.3934,-32.5455,465.8286],[148.3965,-32.5463,467.2761],[148.3987,-32.5515,473.2698],[148.3971,-32.5625,480.3194],[148.4025,-32.5634,484.8514],[148.4041,-32.5668,492.2947],[148.4068,-32.5678,487.613],[148.4085,-32.5776,497.1996],[148.4123,-32.58,489.2123],[148.4113,-32.5854,490.1572],[148.4208,-32.5907,513.5041],[148.4167,-32.5947,514.5564],[148.4133,-32.602,510.4882],[148.4122,-32.6193,536.3734],[148.4096,-32.6184,528.1932],[148.4066,-32.6202,522.903],[148.4049,-32.6236,502.7127],[148.4204,-32.6217,502.3131],[148.4217,-32.6228,502.3131],[148.425,-32.6201,496.8431],[148.4275,-32.6214,475.8356],[148.4354,-32.6206,455.2513],[148.4595,-32.6072,479.9012],[148.469,-32.6236,507.2271],[148.4751,-32.6278,502.8464],[148.5012,-32.6141,497.6197],[148.6051,-32.6522,362.7788],[148.6141,-32.6536,360.5233],[148.6181,-32.6519,354.9351],[148.6213,-32.648,355.9361],[148.6232,-32.6479,370.4162],[148.6278,-32.6529,358.4047],[148.631,-32.6518,354.6088],[148.6318,-32.6494,352.5419],[148.6296,-32.6451,349.6389],[148.6356,-32.6408,346.2214],[148.6346,-32.6368,345.8009],[148.6371,-32.6334,344.135],[148.6412,-32.6348,345.0201],[148.6454,-32.6394,339.8137],[148.6589,-32.6387,345.2906],[148.6632,-32.6413,340.4925],[148.6646,-32.6402,335.8809],[148.6642,-32.6353,336.4231],[148.667,-32.6309,331.4271]]]]}
,"properties": {"GID_2": "AUS.5.44_1","GID_0": "AUS","country": "Australia","GID_1": "AUS.5_1","state": "NewSouthWales","NL_NAME_1": "NA","county": "Dubbo","VARNAME_2": "NA","NL_NAME_2": "NA","TYPE_2": "City","ENGTYPE_2": "City","CC_2": "12600","HASC_2": "AU.NS.DB","name": "Dubbo.county","area_km2": 3427.76,"hist_schema_id": "Elevation0-9000","hist_area_km2": {"225": 0.538,"250": 196.2,"275": 434.496,"300": 568.134,"325": 668.008,"350": 513.781,"375": 419.219,"400": 301.021,"425": 148.035,"450": 64.968,"475": 45.326,"500": 37.259,"525": 21.451,"550": 7.199,"575": 1.804,"600": 0.304}}}