{"type": "Feature","bbox": [149.9762,-35.6446,150.8498,-34.6386],"geometry": {"type": "MultiPolygon","coordinates": [[[[150.3323,-35.6304,0.5788],[150.3308,-35.6304,0.0],[150.3352,-35.6331,0.0],[150.3342,-35.631,0.0],[150.3323,-35.6304,0.5788]]],
[[[150.3543,-35.5861,0.0],[150.3531,-35.5859,0.0],[150.3529,-35.586,0.0],[150.355,-35.5872,0.0],[150.3543,-35.5861,0.0]]],
[[[150.359,-35.5866,0.0],[150.3596,-35.5866,0.0],[150.3598,-35.5864,0.0],[150.359,-35.5862,0.0],[150.359,-35.5866,0.0]]],
[[[150.3643,-35.5782,0.0],[150.3644,-35.5767,0.7803],[150.3624,-35.5762,0.0],[150.3629,-35.5771,0.7803],[150.3643,-35.5782,0.0]]],
[[[150.3915,-35.5547,0.0],[150.3906,-35.5529,0.0],[150.3884,-35.5528,0.0],[150.3901,-35.5548,0.0],[150.3915,-35.5547,0.0]]],
[[[150.421,-35.5272,5.8159],[150.4193,-35.5259,0.0],[150.415,-35.5269,6.9227],[150.4114,-35.5308,0.0],[150.413,-35.5324,0.8092],[150.4148,-35.5308,10.0934],[150.4203,-35.5322,0.3533],[150.421,-35.5272,5.8159]]],
[[[150.5155,-35.2734,0.0],[150.5176,-35.2725,0.0],[150.5144,-35.2707,0.0],[150.5146,-35.2727,0.0],[150.5155,-35.2734,0.0]]],
[[[150.6932,-35.1221,41.9116],[150.7015,-35.1229,0.0],[150.6978,-35.1185,0.0],[150.695,-35.111,0.0],[150.6934,-35.1004,16.1297],[150.6944,-35.0922,0.0],[150.6926,-35.0887,9.9673],[150.6935,-35.0853,30.0365],[150.6916,-35.0832,30.5332],[150.6936,-35.0764,18.7224],[150.698,-35.0711,0.0],[150.6971,-35.0702,0.0349],[150.6889,-35.0722,9.4052],[150.6831,-35.0696,15.2745],[150.6768,-35.069,10.1905],[150.6743,-35.0615,4.2926],[150.6774,-35.0507,0.0],[150.6795,-35.0493,0.0],[150.6762,-35.0478,4.9131],[150.6776,-35.0427,0.0],[150.6738,-35.0405,6.3808],[150.6734,-35.0377,0.0],[150.6711,-35.0372,0.0],[150.6759,-35.0276,9.9028],[150.6871,-35.0172,2.3734],[150.6985,-35.0108,2.6092],[150.7091,-35.0074,5.0617],[150.7152,-35.0085,0.0],[150.7174,-35.0072,4.7958],[150.7175,-35.0087,0.0],[150.7141,-35.0089,0.0],[150.7171,-35.0106,0.0],[150.7207,-35.0081,0.0],[150.7284,-35.0075,0.0],[150.7246,-35.0009,0.0],[150.7248,-34.9982,0.0],[150.7288,-34.9954,0.0],[150.7397,-34.9921,2.8386],[150.7492,-34.9923,4.8049],[150.7524,-34.9908,4.6649],[150.7603,-34.9922,3.9268],[150.7739,-35.0017,0.0],[150.7717,-35.005,0.0],[150.7763,-35.0019,0.0],[150.7783,-35.0024,0.5515],[150.7762,-35.0113,15.093],[150.7673,-35.0152,0.0],[150.7708,-35.0219,0.0],[150.7751,-35.0236,6.6563],[150.7753,-35.0267,0.0],[150.785,-35.0308,9.7083],[150.7872,-35.0382,0.0],[150.782,-35.0447,0.0],[150.7793,-35.0538,0.0],[150.7776,-35.055,7.2688],[150.7757,-35.0541,0.0],[150.7769,-35.0572,10.1116],[150.7735,-35.0653,0.0],[150.7735,-35.0795,0.0],[150.777,-35.0785,4.7134],[150.7766,-35.083,0.0],[150.7789,-35.0789,9.5249],[150.7816,-35.0773,11.8679],[150.7812,-35.0729,20.2183],[150.7863,-35.0725,26.7772],[150.7885,-35.0746,17.5155],[150.7888,-35.0774,6.1652],[150.7936,-35.0766,6.0613],[150.7923,-35.079,0.6289],[150.7953,-35.0816,0.0],[150.7989,-35.0803,31.3219],[150.8003,-35.0838,16.7161],[150.7995,-35.0906,46.8876],[150.804,-35.0946,0.0],[150.8086,-35.0921,60.9644],[150.81,-35.0881,25.6195],[150.8114,-35.0887,0.0],[150.8154,-35.0846,0.0],[150.8172,-35.0853,0.0],[150.8196,-35.0836,0.0],[150.8256,-35.0759,10.2892],[150.8282,-35.0747,15.1304],[150.8285,-35.0762,15.1304],[150.8305,-35.0764,0.0],[150.8338,-35.0744,0.0],[150.8324,-35.073,47.5139],[150.8362,-35.068,0.0],[150.8366,-35.0649,8.4665],[150.8378,-35.0656,0.0],[150.8389,-35.064,0.0],[150.838,-35.0616,19.367],[150.8402,-35.0612,4.1],[150.841,-35.0536,31.445],[150.843,-35.0506,19.8939],[150.8403,-35.0488,4.3828],[150.8391,-35.0507,8.6297],[150.8367,-35.0495,0.0],[150.8346,-35.0432,0.0],[150.8334,-35.0437,45.3654],[150.8317,-35.0412,18.7893],[150.8353,-35.0396,0.0],[150.8353,-35.0321,15.8707],[150.8384,-35.0299,0.0],[150.8396,-35.0237,39.8636],[150.8432,-35.0216,7.5308],[150.845,-35.017,6.4376],[150.8498,-35.0135,23.6093],[150.8465,-35.0118,13.8963],[150.8456,-35.0095,14.0046],[150.8466,-35.0084,0.0],[150.843,-35.0044,0.0],[150.8409,-35.0068,12.3355],[150.837,-35.0058,2.1277],[150.8352,-35.0031,4.1283],[150.8306,-35.0052,6.084],[150.8298,-35.0029,0.0],[150.8273,-35.0102,2.2057],[150.8214,-35.0147,1.3097],[150.8102,-35.0125,0.0],[150.7967,-35.0023,0.0],[150.7847,-34.9866,0.0],[150.7812,-34.9787,7.2209],[150.7789,-34.9691,2.6679],[150.7811,-34.9644,0.0],[150.7786,-34.9633,1.3795],[150.777,-34.9592,0.0],[150.7763,-34.9478,0.0],[150.7801,-34.9343,12.5678],[150.7858,-34.9304,0.684],[150.7794,-34.9299,2.7227],[150.7778,-34.9319,5.9752],[150.775,-34.9316,4.6841],[150.7686,-34.926,0.0],[150.7656,-34.9131,0.0],[150.7696,-34.9005,5.3306],[150.7719,-34.8995,0.0],[150.7709,-34.8958,0.0],[150.7601,-34.9004,0.0],[150.7558,-34.8968,0.0],[150.7502,-34.8875,0.0],[150.7484,-34.8725,0.0],[150.7502,-34.8515,2.6339],[150.7579,-34.8265,0.0],[150.7677,-34.8089,4.4663],[150.7813,-34.7922,7.3677],[150.7541,-34.7654,22.3383],[150.7508,-34.7515,43.1477],[150.7342,-34.749,169.917],[150.7364,-34.7382,289.4135],[150.7346,-34.7316,349.7509],[150.7296,-34.7232,527.1765],[150.7311,-34.7165,603.7838],[150.7338,-34.7137,644.5755],[150.7317,-34.7063,630.4794],[150.7327,-34.7014,623.0283],[150.7312,-34.6997,635.7667],[150.7345,-34.6976,636.107],[150.7354,-34.6942,633.9708],[150.734,-34.689,634.0793],[150.5996,-34.6708,122.7944],[150.6023,-34.6684,114.71],[150.6022,-34.6561,148.161],[150.6041,-34.6521,147.8312],[150.5907,-34.6471,570.1548],[150.5922,-34.6529,550.2951],[150.5908,-34.6585,476.9789],[150.5829,-34.6617,527.8229],[150.5828,-34.6668,492.7187],[150.5798,-34.6668,588.9229],[150.5764,-34.6696,535.7531],[150.5767,-34.6756,520.475],[150.5799,-34.6794,565.9961],[150.5797,-34.6935,548.627],[150.5771,-34.6955,504.0854],[150.5674,-34.6969,523.2041],[150.5638,-34.6896,463.7694],[150.564,-34.6866,508.5663],[150.5691,-34.6818,520.0424],[150.5619,-34.6841,458.7917],[150.5593,-34.6833,411.0391],[150.5628,-34.682,550.9895],[150.5676,-34.673,553.5465],[150.5654,-34.6556,572.1135],[150.5571,-34.644,590.2429],[150.56,-34.6416,616.248],[150.5591,-34.6386,589.7515],[150.5594,-34.6407,503.779],[150.5533,-34.6422,409.4242],[150.5513,-34.6457,364.1118],[150.5513,-34.6502,273.4819],[150.5534,-34.6512,247.0576],[150.5483,-34.6505,356.8621],[150.5484,-34.6444,497.8753],[150.5464,-34.6441,603.8022],[150.5416,-34.6521,572.7264],[150.5416,-34.6572,565.3015],[150.5384,-34.6612,616.8074],[150.5396,-34.6632,543.4598],[150.5387,-34.6651,557.2094],[150.5357,-34.6639,613.6212],[150.5347,-34.6601,548.9493],[150.531,-34.6569,575.8433],[150.5263,-34.6571,628.0944],[150.5266,-34.6591,621.5195],[150.5188,-34.6607,585.5994],[150.5174,-34.6651,538.9743],[150.5139,-34.6644,649.6909],[150.5026,-34.6677,605.8482],[150.5015,-34.6706,601.0271],[150.5055,-34.6732,583.1569],[150.5008,-34.6753,616.1959],[150.5017,-34.6791,611.609],[150.4982,-34.6819,609.8962],[150.4692,-34.6782,224.6451],[150.4518,-34.6918,158.8218],[150.4418,-34.6902,129.24],[150.4349,-34.6915,133.7566],[150.4327,-34.6897,116.378],[150.4221,-34.6986,144.6269],[150.4182,-34.6987,106.5729],[150.4151,-34.7014,111.4401],[150.4085,-34.7011,107.1915],[150.4079,-34.7033,123.7501],[150.405,-34.7013,95.3631],[150.4006,-34.7034,88.5201],[150.4012,-34.7054,85.0253],[150.3939,-34.7069,87.3582],[150.3942,-34.7087,87.9802],[150.3889,-34.7132,86.3587],[150.3896,-34.7173,81.7826],[150.3922,-34.7181,83.8066],[150.3821,-34.7238,63.7421],[150.3801,-34.7326,56.5],[150.3767,-34.7347,91.508],[150.3777,-34.7374,65.1184],[150.3743,-34.739,80.7842],[150.3715,-34.7436,61.0191],[150.3586,-34.7485,59.6497],[150.3384,-34.7489,56.0],[150.3335,-34.7523,56.0],[150.3289,-34.7608,56.0],[150.3136,-34.7699,56.0],[150.3147,-34.7742,33.331],[150.3102,-34.7721,56.0],[150.3056,-34.7673,56.0],[150.29,-34.7645,56.5],[150.2842,-34.768,76.6812],[150.2765,-34.7692,56.5],[150.2664,-34.7759,58.1944],[150.2558,-34.7915,76.2129],[150.2435,-34.7915,73.661],[150.237,-34.7935,59.8646],[150.234,-34.8007,63.8564],[150.2184,-34.8046,98.1736],[150.2096,-34.8145,103.1168],[150.1937,-34.8197,109.2311],[150.1777,-34.8182,87.4376],[150.1627,-34.8231,91.857],[150.1274,-34.8176,89.1112],[150.1254,-34.8139,97.5753],[150.1253,-34.808,92.6315],[150.1158,-34.7996,98.3924],[150.1093,-34.7985,95.2341],[150.1051,-34.7886,117.1641],[150.0929,-34.7808,121.3026],[150.0876,-34.7793,102.6088],[150.0817,-34.7739,120.1329],[150.0758,-34.7733,121.9442],[150.0738,-34.7679,130.9935],[150.0679,-34.7672,119.687],[150.0572,-34.7699,111.9079],[150.0551,-34.7737,112.203],[150.0618,-34.7746,118.8982],[150.0669,-34.7783,122.1284],[150.0669,-34.7828,117.7809],[150.0631,-34.7848,140.3513],[150.0529,-34.7851,121.7834],[150.042,-34.7932,122.9364],[150.0403,-34.7956,122.9478],[150.0457,-34.8011,241.683],[150.0467,-34.8047,152.5987],[150.0431,-34.8065,141.1362],[150.0383,-34.8049,136.7888],[150.0361,-34.8086,142.8457],[150.0395,-34.8216,141.9849],[150.0438,-34.8278,151.5155],[150.0374,-34.8439,179.9036],[150.0422,-34.8514,161.9919],[150.0406,-34.8602,144.6745],[150.0462,-34.8627,216.4329],[150.0467,-34.868,155.1156],[150.0516,-34.8703,173.1996],[150.0533,-34.8767,163.9662],[150.0528,-34.8822,165.5295],[150.0585,-34.8822,165.4696],[150.0658,-34.8901,175.8893],[150.0744,-34.8948,171.6479],[150.0757,-34.8976,163.2457],[150.0786,-34.8974,170.9994],[150.0822,-34.8935,164.9383],[150.0869,-34.8938,176.2708],[150.0876,-34.8962,172.9784],[150.0809,-34.9017,173.5164],[150.0816,-34.905,171.4419],[150.0853,-34.9089,177.9069],[150.0918,-34.9113,216.426],[150.0875,-34.9118,181.8414],[150.0862,-34.914,195.8134],[150.0882,-34.9249,187.9463],[150.0756,-34.9337,200.3696],[150.0678,-34.9365,205.7276],[150.0677,-34.9454,209.8618],[150.0611,-34.9512,244.3208],[150.0555,-34.9653,206.3009],[150.0558,-34.9677,262.8166],[150.0589,-34.9697,230.5045],[150.0788,-34.9759,235.2095],[150.0858,-34.989,230.6231],[150.067,-35.0042,234.0397],[150.0501,-35.008,254.829],[150.0507,-35.0127,253.7239],[150.0543,-35.0146,316.4779],[150.0526,-35.0182,313.0788],[150.0645,-35.0221,298.9435],[150.0641,-35.0311,345.0986],[150.0616,-35.0368,335.9487],[150.0668,-35.0355,301.2492],[150.0666,-35.0402,303.1432],[150.071,-35.0399,321.0934],[150.0759,-35.0423,313.9686],[150.0719,-35.0501,401.4174],[150.0741,-35.0521,335.4313],[150.0811,-35.0538,363.1475],[150.0818,-35.0571,340.8047],[150.0876,-35.0593,346.8355],[150.0855,-35.0632,362.8565],[150.0888,-35.0676,404.3992],[150.0957,-35.0691,376.6876],[150.0967,-35.0672,423.7424],[150.0985,-35.0697,431.6789],[150.1015,-35.07,389.6035],[150.1021,-35.0722,403.9322],[150.1079,-35.0722,464.0525],[150.106,-35.0751,414.071],[150.1075,-35.0772,539.2823],[150.1033,-35.0786,432.5229],[150.1033,-35.0826,448.9183],[150.1059,-35.086,451.631],[150.1086,-35.0844,494.1186],[150.1136,-35.0886,545.684],[150.1192,-35.0887,546.4631],[150.122,-35.0931,555.2227],[150.1294,-35.0971,556.1539],[150.1272,-35.1035,553.714],[150.1318,-35.1029,579.1592],[150.1338,-35.1059,559.8455],[150.1293,-35.1135,577.2757],[150.1337,-35.114,561.5094],[150.1354,-35.1168,560.6333],[150.1394,-35.1175,557.218],[150.1394,-35.1244,569.2031],[150.1426,-35.1305,605.4392],[150.1418,-35.1446,582.295],[150.1516,-35.1434,579.4945],[150.1577,-35.1471,583.9863],[150.16,-35.1513,599.5278],[150.1635,-35.1488,592.3889],[150.1698,-35.1484,605.8295],[150.172,-35.1564,609.3014],[150.1753,-35.1582,603.6211],[150.1731,-35.1604,604.6401],[150.1759,-35.1655,611.2317],[150.1878,-35.1658,620.4808],[150.196,-35.1708,631.1409],[150.2041,-35.1705,624.65],[150.2045,-35.1779,635.3376],[150.2139,-35.1941,667.767],[150.2157,-35.201,687.0554],[150.2151,-35.204,724.5331],[150.2135,-35.2017,731.8746],[150.2088,-35.2037,769.4974],[150.2034,-35.2028,824.1064],[150.1987,-35.1989,838.6817],[150.1917,-35.1985,856.8165],[150.1861,-35.2001,856.2539],[150.188,-35.2034,859.1481],[150.1856,-35.2079,861.0082],[150.1887,-35.2093,858.9916],[150.1909,-35.2146,730.5285],[150.1874,-35.2201,746.8551],[150.195,-35.2192,727.9328],[150.1952,-35.2227,799.6701],[150.1974,-35.2254,827.8468],[150.1958,-35.2262,827.8468],[150.1979,-35.2295,826.9283],[150.1911,-35.2339,844.61],[150.1894,-35.2304,774.1887],[150.1874,-35.2301,731.2498],[150.1826,-35.2365,703.2139],[150.176,-35.2372,804.6095],[150.1722,-35.2396,864.5977],[150.1687,-35.2393,834.5276],[150.1678,-35.244,811.1235],[150.1721,-35.2487,845.3658],[150.1694,-35.2521,854.7437],[150.162,-35.2546,877.527],[150.161,-35.2568,826.9124],[150.164,-35.2638,748.5891],[150.1669,-35.2664,741.2244],[150.1644,-35.2698,846.7693],[150.1574,-35.2695,884.9355],[150.1519,-35.2668,845.3386],[150.1474,-35.2703,803.2363],[150.1377,-35.2729,803.5596],[150.1338,-35.2771,740.8494],[150.1337,-35.2794,752.3422],[150.1218,-35.2842,762.3163],[150.1213,-35.2909,787.9551],[150.1166,-35.2935,700.1095],[150.1144,-35.2935,766.2169],[150.1133,-35.2904,712.6718],[150.1061,-35.285,800.7512],[150.1004,-35.2916,794.4651],[150.0894,-35.2923,770.79],[150.0864,-35.2909,767.9058],[150.0823,-35.2932,800.0607],[150.0873,-35.3006,709.3538],[150.0854,-35.3053,752.6033],[150.0804,-35.3043,724.2352],[150.068,-35.3092,881.2341],[150.0623,-35.3063,832.1997],[150.0511,-35.3091,712.4747],[150.0499,-35.3124,699.0123],[150.0511,-35.3156,707.6835],[150.0474,-35.3157,693.2877],[150.0447,-35.3178,690.4589],[150.038,-35.3316,705.794],[150.0387,-35.3364,706.7633],[150.0426,-35.3417,775.277],[150.0414,-35.3444,758.2728],[150.0467,-35.3474,859.2764],[150.044,-35.3547,882.7891],[150.0449,-35.3585,882.6857],[150.0371,-35.3686,906.1274],[150.042,-35.3831,1000.1846],[150.0411,-35.3941,1030.075],[150.0376,-35.4026,1067.2297],[150.0385,-35.4057,1104.9004],[150.0327,-35.41,965.0536],[150.0251,-35.4105,856.0301],[150.0207,-35.4124,750.2888],[150.0179,-35.4192,787.6398],[150.0109,-35.424,905.0483],[150.0073,-35.4291,973.7194],[150.0141,-35.4381,991.8038],[150.0054,-35.4446,908.4478],[150.0042,-35.4508,949.712],[150.0059,-35.4605,903.9489],[150.0036,-35.4638,856.0451],[150.0032,-35.4732,946.1743],[149.9981,-35.4792,1105.2596],[149.9762,-35.491,307.7311],[149.9804,-35.4985,255.5994],[149.9789,-35.5023,254.4484],[149.9815,-35.5053,255.8712],[149.9802,-35.5097,226.8246],[149.9843,-35.5102,232.5823],[149.9878,-35.517,205.3897],[149.9946,-35.5214,188.9756],[149.994,-35.5244,186.5706],[149.9954,-35.5242,190.8376],[149.9974,-35.5301,181.2489],[150.0016,-35.5328,164.0843],[150.0005,-35.5357,153.3574],[150.0023,-35.5421,145.5474],[150.006,-35.5444,133.7946],[150.0108,-35.5518,145.2992],[150.0158,-35.5509,148.8561],[150.019,-35.554,132.9426],[150.0238,-35.5544,178.678],[150.0229,-35.5563,124.9193],[150.0266,-35.558,120.2107],[150.0247,-35.5598,122.1278],[150.0265,-35.5609,118.2594],[150.0371,-35.5615,123.0255],[150.0421,-35.5657,102.1035],[150.0471,-35.5672,92.9723],[150.0481,-35.5702,92.0784],[150.0513,-35.5703,79.865],[150.0512,-35.5736,109.8908],[150.0555,-35.5765,105.9261],[150.068,-35.5744,93.8567],[150.0668,-35.5783,90.23],[150.069,-35.5789,78.9782],[150.0719,-35.579,81.234],[150.0764,-35.5738,72.6243],[150.0789,-35.5753,73.5551],[150.0764,-35.5764,76.1258],[150.0784,-35.5788,74.1878],[150.0916,-35.579,70.166],[150.0943,-35.5807,64.2559],[150.0945,-35.5751,74.1278],[150.0996,-35.5764,86.0383],[150.1006,-35.5745,86.8864],[150.1079,-35.5733,79.6813],[150.1087,-35.5705,61.645],[150.1133,-35.5706,53.9249],[150.114,-35.573,52.5218],[150.1176,-35.5734,63.0958],[150.1192,-35.5759,43.2219],[150.131,-35.569,36.1591],[150.1332,-35.5627,88.7103],[150.1368,-35.5647,40.9037],[150.1355,-35.5686,23.8726],[150.141,-35.5687,29.3878],[150.1425,-35.5728,29.4485],[150.1512,-35.5734,16.3129],[150.1514,-35.5713,13.5168],[150.1544,-35.5717,16.2907],[150.1572,-35.5697,14.9655],[150.1613,-35.5748,51.2725],[150.1667,-35.5707,3.9859],[150.1682,-35.5727,5.8173],[150.1706,-35.5722,17.8655],[150.1731,-35.5754,14.0494],[150.1821,-35.5703,6.877],[150.1804,-35.5622,2.0],[150.1822,-35.5594,5.8982],[150.1912,-35.5533,22.3452],[150.1919,-35.5498,10.4274],[150.1956,-35.5541,19.5591],[150.1987,-35.5535,22.9595],[150.1995,-35.5523,9.3172],[150.1976,-35.5507,9.2444],[150.2012,-35.5469,16.8275],[150.2037,-35.5465,7.3815],[150.203,-35.5434,23.6892],[150.206,-35.5437,25.0651],[150.2076,-35.5472,13.8073],[150.2124,-35.5494,23.3923],[150.2143,-35.548,37.1158],[150.2123,-35.5452,21.175],[150.2133,-35.5443,29.0587],[150.2212,-35.5505,29.2678],[150.2234,-35.5489,28.9549],[150.222,-35.5459,22.5586],[150.2236,-35.5451,23.7873],[150.2298,-35.5504,22.3452],[150.2321,-35.5501,14.8881],[150.2348,-35.5543,30.3906],[150.2372,-35.5526,20.0229],[150.2363,-35.5499,24.3501],[150.2374,-35.5492,26.8528],[150.2395,-35.5519,32.5975],[150.2396,-35.5551,23.031],[150.2422,-35.5566,17.7778],[150.2414,-35.5583,20.5708],[150.2442,-35.5599,17.4522],[150.2468,-35.5593,23.9377],[150.2465,-35.5623,21.1272],[150.2522,-35.5668,39.2817],[150.2538,-35.5642,60.7283],[150.2546,-35.5683,47.8895],[150.2565,-35.5679,44.8898],[150.2578,-35.5706,50.6689],[150.2562,-35.5758,28.0274],[150.2604,-35.5832,49.9904],[150.2582,-35.5848,40.6823],[150.2563,-35.5931,59.4293],[150.2538,-35.5965,57.4669],[150.2572,-35.6038,27.7443],[150.2559,-35.6121,14.7878],[150.2576,-35.6123,14.0412],[150.2518,-35.624,33.9144],[150.252,-35.6291,10.9793],[150.2498,-35.6314,15.4533],[150.2518,-35.6323,10.1319],[150.2533,-35.6298,6.4377],[150.2592,-35.6275,10.7401],[150.26,-35.6227,7.7652],[150.2662,-35.621,0.5],[150.2632,-35.6182,19.2999],[150.2699,-35.6169,16.9535],[150.2688,-35.6239,5.7093],[150.2724,-35.6244,25.2389],[150.2717,-35.6284,0.5],[150.2747,-35.6318,33.7],[150.2725,-35.6333,0.5],[150.2742,-35.6368,4.019],[150.2787,-35.6373,24.3496],[150.2777,-35.6407,0.7307],[150.2845,-35.6375,0.5],[150.2822,-35.6352,0.5],[150.2886,-35.6327,26.0486],[150.2897,-35.6343,0.5],[150.2904,-35.6333,28.6777],[150.2973,-35.635,17.897],[150.2858,-35.6363,0.5],[150.2939,-35.6446,0.8806],[150.3024,-35.6384,1.5574],[150.308,-35.6386,0.0],[150.3149,-35.6352,0.0],[150.3195,-35.6352,4.0573],[150.3203,-35.6386,4.0999],[150.3237,-35.6395,15.5181],[150.3299,-35.6296,0.0],[150.3275,-35.6292,0.0],[150.328,-35.6263,0.0],[150.3246,-35.6276,0.5851],[150.3232,-35.6262,11.8183],[150.3254,-35.6178,0.0],[150.3228,-35.6165,55.2534],[150.3226,-35.6135,24.7432],[150.3304,-35.6081,0.0],[150.3342,-35.611,0.0],[150.3361,-35.609,0.0],[150.3341,-35.6036,18.5233],[150.3383,-35.6054,0.86],[150.34,-35.6035,3.8922],[150.3457,-35.6042,0.0],[150.3418,-35.6012,34.8349],[150.343,-35.5996,5.1924],[150.34,-35.5973,14.5021],[150.3427,-35.5975,7.2424],[150.3433,-35.5951,26.2057],[150.3465,-35.5937,0.0],[150.3483,-35.5907,0.0],[150.3464,-35.5879,38.9981],[150.3492,-35.5883,0.0],[150.3526,-35.5858,0.0],[150.3529,-35.583,0.0],[150.3574,-35.578,0.0],[150.3623,-35.5761,0.0],[150.3649,-35.5706,0.0],[150.3768,-35.5718,0.0],[150.3766,-35.57,41.6665],[150.3791,-35.5684,0.0],[150.3756,-35.5665,12.8477],[150.3758,-35.5636,2.7566],[150.3791,-35.5634,0.0],[150.3797,-35.5616,1.2904],[150.3841,-35.5638,0.9139],[150.3869,-35.5627,18.5994],[150.3875,-35.5591,0.0],[150.3859,-35.5576,0.0],[150.3827,-35.5579,0.0],[150.3816,-35.556,0.0],[150.385,-35.5461,14.1188],[150.3881,-35.5429,8.4946],[150.3925,-35.5445,1.0318],[150.3905,-35.5399,0.0],[150.3962,-35.5331,0.0],[150.3999,-35.5334,0.0],[150.4026,-35.5317,0.0],[150.4039,-35.5321,0.5672],[150.4034,-35.5345,0.0],[150.4063,-35.5339,0.0],[150.405,-35.5317,0.5672],[150.4076,-35.5295,0.5888],[150.4017,-35.5219,0.0],[150.4009,-35.5191,3.436],[150.4021,-35.5183,0.0],[150.3986,-35.5159,1.0736],[150.3993,-35.5141,6.0259],[150.4016,-35.514,0.0],[150.401,-35.5118,4.3849],[150.3981,-35.511,0.0],[150.3979,-35.5089,0.0],[150.4016,-35.5079,0.0],[150.4017,-35.5064,0.0],[150.3971,-35.505,2.961],[150.3937,-35.5057,1.6161],[150.3909,-35.4984,5.1415],[150.3913,-35.4952,0.0],[150.3957,-35.4929,0.0],[150.3908,-35.4918,16.1453],[150.3894,-35.4886,0.0],[150.3913,-35.4829,8.2231],[150.3957,-35.48,0.0],[150.3947,-35.4758,7.3866],[150.3908,-35.4735,5.2894],[150.3937,-35.4632,0.0],[150.3967,-35.462,0.0],[150.3958,-35.4601,0.0],[150.3999,-35.4566,0.0],[150.4037,-35.4581,0.0],[150.4032,-35.4559,0.0],[150.4012,-35.4556,1.484],[150.4009,-35.4528,8.8581],[150.4065,-35.4455,0.8616],[150.4092,-35.4445,0.7971],[150.4157,-35.4454,0.0],[150.4146,-35.4431,0.0],[150.4129,-35.4439,0.0],[150.4106,-35.4415,0.0],[150.4108,-35.4365,0.0],[150.4231,-35.421,0.0],[150.4375,-35.4099,0.9769],[150.445,-35.4109,1.6199],[150.4456,-35.4074,5.9988],[150.449,-35.4068,0.0],[150.4468,-35.4018,0.0],[150.4503,-35.4003,0.0],[150.4473,-35.3949,2.3087],[150.4521,-35.39,1.2476],[150.4589,-35.3856,0.0],[150.4664,-35.3764,0.0],[150.472,-35.3753,0.612],[150.4785,-35.3678,16.9966],[150.4859,-35.3657,12.0652],[150.4897,-35.3678,3.7167],[150.4924,-35.3667,0.0704],[150.4906,-35.3614,0.0952],[150.4861,-35.3595,0.0],[150.4841,-35.3607,12.3168],[150.4834,-35.3591,0.0],[150.4794,-35.36,25.9346],[150.4781,-35.3582,2.3546],[150.4789,-35.3559,0.0],[150.4769,-35.358,9.1681],[150.4749,-35.3566,12.2905],[150.4758,-35.3546,0.0],[150.478,-35.3553,0.0],[150.4783,-35.353,0.0],[150.4831,-35.3544,8.6537],[150.485,-35.3533,0.0],[150.4847,-35.3506,0.0],[150.4756,-35.3464,3.7378],[150.4784,-35.3411,0.0],[150.4744,-35.3392,4.9425],[150.4759,-35.3303,0.0],[150.4809,-35.3248,0.8713],[150.4835,-35.3249,0.0],[150.485,-35.3268,0.0],[150.4873,-35.325,2.8896],[150.4854,-35.3214,13.7792],[150.4831,-35.3223,25.2575],[150.4752,-35.3195,30.4479],[150.4719,-35.3165,12.9743],[150.4728,-35.3078,7.1864],[150.4766,-35.3042,0.0],[150.4736,-35.3022,0.0],[150.4782,-35.2916,0.0],[150.4892,-35.2807,7.7466],[150.5072,-35.2685,0.0],[150.5131,-35.2699,0.0],[150.5145,-35.2639,8.096],[150.5182,-35.2604,3.6188],[150.5226,-35.2589,5.6951],[150.5271,-35.2599,0.0],[150.5268,-35.2558,15.4548],[150.5307,-35.2527,5.146],[150.5359,-35.2499,0.0],[150.5389,-35.2497,0.0],[150.5392,-35.2513,0.0],[150.5452,-35.2485,8.1249],[150.5419,-35.2465,14.8888],[150.542,-35.2429,0.0],[150.5381,-35.245,12.0682],[150.5331,-35.2438,13.8239],[150.5311,-35.2412,7.4523],[150.5316,-35.2358,0.0],[150.5302,-35.2351,10.7],[150.5319,-35.2339,0.0],[150.5307,-35.2317,7.5263],[150.5355,-35.2234,0.0],[150.5406,-35.22,0.2747],[150.5392,-35.2179,3.5272],[150.5405,-35.2157,1.5465],[150.5464,-35.2112,1.7499],[150.5536,-35.2087,4.5286],[150.5638,-35.1984,0.0],[150.5728,-35.193,0.0],[150.587,-35.1884,0.0],[150.5936,-35.1918,0.0],[150.5972,-35.1903,0.0],[150.5935,-35.1881,0.0],[150.5912,-35.1725,0.0],[150.6013,-35.1701,11.207],[150.601,-35.1645,2.8927],[150.6051,-35.1562,1.6897],[150.6026,-35.1532,0.4748],[150.5963,-35.1522,0.0],[150.5929,-35.1439,0.5333],[150.5995,-35.1464,2.9048],[150.6039,-35.1461,0.2254],[150.6075,-35.1438,0.6529],[150.6123,-35.1472,2.084],[150.6141,-35.1473,0.7467],[150.6156,-35.1451,0.0],[150.6147,-35.1486,3.2531],[150.6212,-35.1479,0.0],[150.6153,-35.1428,0.0],[150.6241,-35.1491,1.4153],[150.633,-35.1494,6.1838],[150.6386,-35.1457,4.4726],[150.6513,-35.1322,12.4397],[150.6576,-35.129,0.0],[150.6606,-35.1245,2.2859],[150.6611,-35.1178,23.5232],[150.6932,-35.1221,41.9116]]]]}
,"properties": {"GID_2": "AUS.5.117_1","GID_0": "AUS","country": "Australia","GID_1": "AUS.5_1","state": "NewSouthWales","NL_NAME_1": "NA","county": "Shoalhaven","VARNAME_2": "NA","NL_NAME_2": "NA","TYPE_2": "City","ENGTYPE_2": "City","CC_2": "16950","HASC_2": "AU.NS.SL","name": "Shoalhaven.county","area_km2": 4568.787,"hist_schema_id": "Elevation0-9000","hist_area_km2": {"0": 377.263,"25": 394.779,"50": 376.145,"75": 302.565,"100": 278.738,"125": 234.717,"150": 199.687,"175": 176.986,"200": 156.219,"225": 137.332,"250": 128.023,"275": 119.503,"300": 112.247,"325": 104.415,"350": 88.134,"375": 77.139,"400": 74.579,"425": 77.984,"450": 70.388,"475": 68.731,"500": 83.853,"525": 77.746,"550": 83.944,"575": 93.64,"600": 93.373,"625": 111.159,"650": 99.09,"675": 81.854,"700": 85.415,"725": 77.831,"750": 62.542,"775": 34.444,"800": 10.583,"825": 4.532,"850": 3.927,"875": 2.282,"900": 1.486,"925": 1.365,"950": 1.106,"975": 0.829,"1000": 0.657,"1025": 0.553,"1050": 0.397,"1075": 0.328,"1100": 0.207,"1125": 0.069}}}