{"type": "Feature","bbox": [146.8145,-36.116,147.0992,-35.9139],"geometry": {"type": "MultiPolygon","coordinates": [[[[146.8177,-36.0674,149.9833],[146.8185,-36.0689,148.4434],[146.8145,-36.0709,148.3976],[146.8167,-36.0746,147.4411],[146.8229,-36.0698,148.6869],[146.8255,-36.0708,148.0417],[146.8236,-36.075,149.9974],[146.8275,-36.0775,153.4177],[146.8212,-36.0839,150.1666],[146.8216,-36.0869,148.9433],[146.8244,-36.0885,148.7798],[146.8298,-36.0861,150.8382],[146.833,-36.0865,151.2893],[146.8367,-36.0821,151.2416],[146.8467,-36.0865,152.1656],[146.849,-36.0865,151.438],[146.8515,-36.0839,149.4318],[146.8572,-36.0849,150.1718],[146.8657,-36.0788,149.4964],[146.8645,-36.0731,158.2191],[146.873,-36.0737,154.2715],[146.8768,-36.0829,157.1114],[146.8806,-36.0875,150.3757],[146.8901,-36.0881,153.2094],[146.899,-36.0855,153.1544],[146.9011,-36.083,151.5648],[146.9069,-36.0849,150.957],[146.907,-36.0861,150.957],[146.903,-36.0869,153.8194],[146.9061,-36.0915,154.5146],[146.9034,-36.0982,155.2267],[146.9087,-36.0995,152.4344],[146.9096,-36.1027,151.1357],[146.9124,-36.1046,152.223],[146.9118,-36.1063,152.8894],[146.9055,-36.1071,151.6893],[146.9078,-36.1113,152.7072],[146.9146,-36.1127,153.6277],[146.9181,-36.1079,153.4633],[146.9241,-36.1083,159.4247],[146.9249,-36.1041,153.9489],[146.9215,-36.1009,153.4262],[146.9268,-36.0972,155.1448],[146.9299,-36.099,159.8959],[146.9275,-36.1025,152.9475],[146.9282,-36.1059,153.9279],[146.934,-36.1115,155.4032],[146.9437,-36.116,153.5922],[146.9525,-36.1108,153.1717],[146.9521,-36.1082,154.067],[146.9491,-36.1065,156.103],[146.9485,-36.1031,155.3976],[146.952,-36.0998,156.5033],[146.9508,-36.0935,156.5598],[146.9586,-36.0919,155.2151],[146.955,-36.0888,154.7653],[146.9591,-36.0845,157.6534],[146.9563,-36.0782,155.026],[146.9618,-36.0823,156.2783],[146.9643,-36.0805,157.2783],[146.9666,-36.0837,160.0199],[146.9726,-36.0821,158.2195],[146.9765,-36.0852,157.0808],[146.9773,-36.0908,157.5007],[146.9813,-36.0949,158.8672],[146.9842,-36.0939,159.1304],[146.9904,-36.0861,157.2361],[146.9993,-36.0873,159.4041],[147.0028,-36.086,157.8839],[147.0036,-36.0839,159.4716],[147.0069,-36.0836,163.2605],[147.0083,-36.0851,156.6281],[147.0055,-36.0875,157.6945],[147.0064,-36.0891,158.1026],[147.0118,-36.0879,159.9138],[147.0163,-36.0898,162.0172],[147.0131,-36.0949,156.0],[147.0152,-36.0999,158.0973],[147.0135,-36.1047,160.4132],[147.0174,-36.1059,157.8962],[147.0191,-36.0991,156.5],[147.0228,-36.0999,160.6956],[147.0341,-36.1152,190.5],[147.0423,-36.1093,190.5],[147.0423,-36.1043,190.5],[147.0489,-36.1038,190.5],[147.0508,-36.1082,190.5],[147.0531,-36.1077,190.5],[147.0557,-36.1003,194.333],[147.0501,-36.0982,190.5],[147.0524,-36.0903,190.5],[147.0593,-36.0895,190.5],[147.0578,-36.0855,190.5],[147.063,-36.0825,190.5],[147.0595,-36.074,190.5],[147.0618,-36.0662,190.5],[147.0639,-36.0656,190.5],[147.0649,-36.0688,190.5],[147.0668,-36.0686,190.5],[147.0667,-36.0634,190.5],[147.0688,-36.0604,190.5],[147.0716,-36.0635,190.5],[147.0745,-36.0641,190.5],[147.0793,-36.0566,190.5],[147.0854,-36.0559,190.5],[147.0805,-36.0538,190.5],[147.0882,-36.0532,190.5],[147.0904,-36.0492,190.5],[147.0926,-36.0527,190.5],[147.0952,-36.0529,190.5],[147.0957,-36.05,190.5],[147.0918,-36.0468,190.5],[147.0916,-36.0439,190.5],[147.0936,-36.0436,190.5],[147.0939,-36.0465,190.5],[147.096,-36.0472,190.5],[147.0992,-36.0426,190.5],[147.0959,-36.0405,190.5],[147.0961,-36.0373,190.5],[147.089,-36.0344,190.5],[147.0904,-36.0324,190.5],[147.0848,-36.0243,190.5],[147.083,-36.0174,190.5],[147.0866,-36.0127,190.5],[147.0846,-36.0113,190.5],[147.0854,-36.0098,190.5],[147.0835,-36.011,190.5],[147.0802,-36.0094,190.5],[147.0809,-36.0079,190.5],[147.0787,-36.0062,190.5],[147.0803,-36.0055,190.5],[147.079,-36.0042,190.5],[147.0809,-36.0024,190.5],[147.0801,-36.0001,190.5],[147.0712,-35.9951,190.5],[147.0635,-35.9929,190.5],[147.0616,-35.9908,190.5],[147.0631,-35.9904,190.5],[147.0629,-35.9884,190.5],[147.057,-35.9842,190.5],[147.0568,-35.9813,190.5],[147.0586,-35.9807,190.5],[147.0571,-35.9783,190.5],[147.0588,-35.9755,190.5],[147.0551,-35.974,190.5],[147.0545,-35.9721,190.5],[147.0576,-35.9729,190.5],[147.0567,-35.9701,190.5],[147.0587,-35.9663,190.5],[147.054,-35.9653,190.5],[147.0562,-35.9608,190.5],[147.0515,-35.9592,190.5],[147.0507,-35.9556,190.5],[147.0481,-35.9547,190.5],[147.0502,-35.9517,190.5],[147.0439,-35.95,190.5],[147.0481,-35.9472,190.5],[147.048,-35.9452,190.8178],[147.045,-35.9454,190.5],[147.0444,-35.9436,190.5],[147.0371,-35.9455,190.5],[147.038,-35.9427,190.5],[147.0328,-35.9397,190.5],[147.0327,-35.9366,190.5],[147.0305,-35.9377,190.5885],[147.0292,-35.9361,191.805],[147.0263,-35.9364,194.2205],[147.0283,-35.9333,190.5],[147.0239,-35.9279,193.9136],[147.0239,-35.9251,198.6434],[147.0101,-35.9248,194.7991],[147.0022,-35.9281,201.1936],[147.0004,-35.9199,199.4343],[146.9833,-35.9186,201.5807],[146.9784,-35.9166,201.8308],[146.9747,-35.9175,204.5026],[146.9687,-35.9139,205.6225],[146.9624,-35.9406,233.0378],[146.9453,-35.9383,246.7697],[146.9346,-35.9474,245.6565],[146.9377,-35.9484,249.5076],[146.9341,-35.9642,293.9346],[146.9352,-35.9668,318.3856],[146.9411,-35.9634,359.5047],[146.9427,-35.9652,421.9522],[146.9393,-35.9673,334.776],[146.9444,-35.9731,324.7601],[146.9415,-35.9747,335.415],[146.947,-35.9754,324.3276],[146.9463,-35.9845,360.6889],[146.9527,-35.9854,311.9549],[146.952,-35.989,316.5294],[146.9456,-35.9881,351.0563],[146.9446,-35.9936,410.4191],[146.9355,-35.9912,334.0317],[146.9286,-35.9914,379.8504],[146.9205,-35.9975,424.3473],[146.921,-36.001,413.117],[146.9138,-36.0069,426.0572],[146.9,-36.0072,284.2681],[146.8965,-36.0023,314.7192],[146.8923,-36.0076,362.1373],[146.8827,-36.0101,472.7671],[146.881,-36.0143,432.23],[146.8736,-36.018,451.106],[146.8601,-36.0163,364.9052],[146.8591,-36.0209,367.1956],[146.8557,-36.0204,340.5739],[146.8553,-36.0225,357.1224],[146.8509,-36.0219,294.3109],[146.8489,-36.0241,318.1117],[146.8453,-36.0246,280.4592],[146.8462,-36.02,320.5646],[146.8384,-36.0191,260.0839],[146.839,-36.0161,256.049],[146.8347,-36.0156,244.7197],[146.8312,-36.0333,241.8561],[146.8272,-36.0375,214.442],[146.8253,-36.0495,242.0047],[146.8214,-36.0496,219.2882],[146.8177,-36.0674,149.9833]]]]}
,"properties": {"GID_2": "AUS.5.1_1","GID_0": "AUS","country": "Australia","GID_1": "AUS.5_1","state": "NewSouthWales","NL_NAME_1": "NA","county": "Albury","VARNAME_2": "NA","NL_NAME_2": "NA","TYPE_2": "City","ENGTYPE_2": "City","CC_2": "10050","HASC_2": "AU.NS.AL","name": "Albury.county","area_km2": 305.7166,"hist_schema_id": "Elevation0-9000","hist_area_km2": {"150": 35.589,"175": 38.0835,"200": 87.525,"225": 57.7538,"250": 32.1775,"275": 16.2926,"300": 13.5827,"325": 9.8786,"350": 6.2424,"375": 3.8928,"400": 2.7438,"425": 1.509,"450": 0.4116,"475": 0.0343}}}