{"type":"Feature","properties":{"GID_2":"AUS.11.132_1","GID_0":"AUS","country":"Australia","GID_1":"AUS.11_1","state":"WesternAustralia","NL_NAME_1":"NA","county":"Williams","VARNAME_2":"NA","NL_NAME_2":"NA","TYPE_2":"Shire","ENGTYPE_2":"Shire","CC_2":"59170","HASC_2":"AU.WA.WS","name":"Williams.county"},
"geometry":{"type": "MultiPolygon","coordinates": [[[[116.4124,-33.0858,263.2205],[116.4126,-33.1949,302.8988],[116.404,-33.1949,272.47],[116.4037,-33.2315,270.9547],[116.399,-33.2315,265.3212],[116.399,-33.2439,260.3848],[116.3976,-33.2442,260.3848],[116.398,-33.2509,290.2625],[116.3891,-33.3057,270.5496],[116.3891,-33.3433,311.571],[116.454,-33.3434,320.0366],[116.4541,-33.3398,331.657],[116.5272,-33.3198,343.3294],[116.5272,-33.3038,293.9067],[116.5571,-33.3038,308.6699],[116.5575,-33.311,283.8393],[116.5839,-33.3111,290.0027],[116.6702,-33.2811,292.8726],[116.6952,-33.2811,309.7253],[116.6931,-33.274,296.8771],[116.6931,-33.261,268.1372],[116.7092,-33.2611,268.8225],[116.7093,-33.2624,275.4679],[116.7718,-33.2621,256.8797],[116.7719,-33.2512,253.8117],[116.7811,-33.254,253.5593],[116.779,-33.2554,252.4247],[116.7892,-33.2554,253.0704],[116.7892,-33.2504,258.73],[116.8056,-33.2507,260.459],[116.8055,-33.2493,257.8331],[116.81,-33.2465,258.1139],[116.81,-33.2528,255.6065],[116.8349,-33.2528,260.4571],[116.8406,-33.2416,265.3753],[116.8512,-33.2417,265.2884],[116.8511,-33.2338,267.119],[116.8594,-33.2242,279.2671],[116.8592,-33.2284,279.2915],[116.8941,-33.2289,322.8027],[116.8941,-33.2223,317.055],[116.9112,-33.2223,342.9105],[116.9112,-33.217,349.0971],[116.9449,-33.2163,302.3084],[116.9448,-33.2041,335.1515],[116.9651,-33.2053,358.1622],[116.9651,-33.1999,338.7372],[116.9999,-33.1999,299.7973],[116.9999,-33.1963,316.1144],[117.0084,-33.1957,323.5834],[117.0081,-33.1912,344.2288],[117.013,-33.1899,313.1888],[117.0127,-33.1719,298.6319],[117.0183,-33.1719,304.2597],[117.0183,-33.1694,302.4484],[117.0268,-33.1693,311.0027],[117.027,-33.1497,280.664],[117.0298,-33.1497,280.1613],[117.0298,-33.145,281.069],[117.0231,-33.145,282.4366],[117.0231,-33.1405,290.7847],[117.0183,-33.1383,282.4335],[117.0183,-33.1299,294.3348],[117.0204,-33.1299,305.3952],[117.0204,-33.1232,293.9163],[117.016,-33.1232,288.0068],[117.017,-33.0898,314.3301],[117.0108,-33.0899,329.5763],[116.9985,-33.0864,333.3369],[116.9984,-33.0706,342.9303],[117.0052,-33.0706,355.5623],[117.0052,-33.0489,310.2444],[117.0013,-33.0489,309.5326],[117.0013,-33.0469,306.9719],[117.0025,-33.0469,307.2841],[117.0025,-33.0395,298.2485],[117.0068,-33.0395,301.8939],[117.0068,-33.0031,297.6086],[116.988,-33.0097,293.4192],[116.9765,-33.01,285.3939],[116.9765,-33.0004,313.4529],[116.9739,-33.0004,304.9137],[116.974,-32.9694,339.3097],[116.9824,-32.9694,342.216],[116.9824,-32.9638,325.5432],[116.9767,-32.9638,332.98],[116.9767,-32.957,309.1484],[116.9826,-32.9568,319.8206],[116.9824,-32.9429,321.1077],[116.9775,-32.9429,324.9742],[116.9775,-32.9373,308.798],[116.9714,-32.9373,304.9796],[116.9714,-32.9325,296.5599],[116.9628,-32.9333,291.536],[116.9628,-32.9312,313.0851],[116.9542,-32.9312,315.1443],[116.9542,-32.9175,306.1252],[116.9575,-32.9173,303.7741],[116.9575,-32.8882,340.0241],[116.9516,-32.8881,361.8419],[116.9516,-32.8615,302.2701],[116.9492,-32.8602,299.0082],[116.9493,-32.8368,320.6772],[116.9526,-32.8368,314.6545],[116.9526,-32.829,286.0478],[116.9394,-32.829,277.5115],[116.9394,-32.8245,293.9524],[116.9459,-32.8245,285.061],[116.9459,-32.8154,300.8457],[116.9405,-32.8172,321.3597],[116.9405,-32.808,337.9639],[116.9435,-32.8081,326.581],[116.9435,-32.761,341.6103],[116.909,-32.7613,322.4846],[116.909,-32.7631,312.83],[116.8901,-32.7635,296.8024],[116.8788,-32.7635,321.7136],[116.8779,-32.7617,328.2472],[116.878,-32.7662,338.6783],[116.8301,-32.7658,290.8106],[116.7947,-32.7849,316.6488],[116.7948,-32.8014,280.3152],[116.7905,-32.8014,274.0592],[116.7905,-32.7933,263.4219],[116.7715,-32.7935,248.0505],[116.7628,-32.7875,276.3688],[116.7625,-32.8129,280.6766],[116.7575,-32.8112,278.7201],[116.7286,-32.8114,253.6901],[116.7284,-32.8013,274.6775],[116.6699,-32.7999,311.7059],[116.6697,-32.8159,276.521],[116.6594,-32.8159,298.2559],[116.6586,-32.8469,257.6378],[116.6501,-32.8469,238.4538],[116.65,-32.9078,278.8871],[116.6175,-32.9078,306.4915],[116.6177,-32.9818,343.1305],[116.6034,-32.9818,313.4664],[116.6035,-33.0085,306.9259],[116.5784,-33.0086,308.7843],[116.5788,-33.0219,274.787],[116.5732,-33.0219,252.8322],[116.5735,-33.0313,220.4922],[116.5673,-33.0379,211.0304],[116.5681,-33.0612,222.6021],[116.5474,-33.0605,317.7022],[116.5474,-33.058,308.4884],[116.5406,-33.058,303.7261],[116.5406,-33.0645,336.7096],[116.5393,-33.0645,336.7096],[116.5399,-33.0782,226.1671],[116.5316,-33.0783,210.6308],[116.5232,-33.0772,231.9591],[116.5232,-33.0728,217.6571],[116.5121,-33.0725,245.9287],[116.5121,-33.062,240.0359],[116.469,-33.062,299.9917],[116.4691,-33.0858,291.8868],[116.4124,-33.0858,263.2205]]]]}}