{"type": "Feature","bbox": [152.4003,-30.9278,153.0204,-30.4887],"geometry": {"type": "MultiPolygon","coordinates": [[[[152.4003,-30.5008,1418.4714],[152.4042,-30.507,1299.3406],[152.4109,-30.5108,1270.4778],[152.4186,-30.5105,1154.1855],[152.4251,-30.5136,1106.7793],[152.4335,-30.5151,967.7815],[152.4456,-30.5237,938.7523],[152.4468,-30.529,864.3578],[152.4506,-30.5324,831.0629],[152.4552,-30.5333,767.5026],[152.4578,-30.5387,748.9244],[152.4637,-30.54,700.7986],[152.474,-30.5526,791.628],[152.4797,-30.5554,711.2208],[152.4875,-30.5555,829.0227],[152.4921,-30.5627,829.4567],[152.5004,-30.5665,917.1672],[152.4989,-30.5721,868.8942],[152.5036,-30.5808,788.9451],[152.5043,-30.5877,755.6508],[152.5139,-30.5945,885.9532],[152.5181,-30.6018,1009.6717],[152.5276,-30.6086,1009.5781],[152.5319,-30.6094,986.4143],[152.533,-30.6123,949.717],[152.5394,-30.6181,811.3293],[152.5364,-30.6338,673.8383],[152.5376,-30.6365,653.6991],[152.5443,-30.6403,584.5868],[152.5439,-30.6475,546.7256],[152.5479,-30.6566,670.2465],[152.5492,-30.6671,637.9085],[152.5548,-30.6741,674.0415],[152.5545,-30.6776,714.9934],[152.5504,-30.6857,710.663],[152.5518,-30.6919,725.3889],[152.5556,-30.6958,811.5467],[152.5564,-30.6991,850.1194],[152.5621,-30.7011,667.6605],[152.5703,-30.7103,535.6494],[152.5801,-30.7112,562.8203],[152.5892,-30.7185,486.7963],[152.5916,-30.7244,607.3632],[152.5917,-30.7325,704.2443],[152.5958,-30.7343,570.4982],[152.5971,-30.737,568.9374],[152.6006,-30.738,566.6296],[152.6051,-30.7433,616.4749],[152.6087,-30.7429,597.4269],[152.6172,-30.7585,583.9392],[152.621,-30.7591,550.3522],[152.6284,-30.7655,440.9584],[152.6304,-30.7706,411.9062],[152.6298,-30.7751,383.596],[152.6414,-30.7828,239.6169],[152.6438,-30.7866,279.213],[152.6419,-30.7932,433.5732],[152.6431,-30.7963,408.1312],[152.6481,-30.7964,336.4382],[152.653,-30.7991,337.4795],[152.6581,-30.7996,319.5928],[152.6588,-30.807,399.8679],[152.6652,-30.8123,460.89],[152.6753,-30.8128,393.5469],[152.6788,-30.8115,391.9258],[152.6834,-30.8132,371.079],[152.6849,-30.8169,310.2534],[152.6816,-30.8268,208.8077],[152.6795,-30.828,223.7809],[152.6815,-30.835,276.8027],[152.6781,-30.8378,254.7233],[152.6787,-30.8426,216.0496],[152.675,-30.8489,301.1858],[152.6684,-30.8581,321.8555],[152.6646,-30.8596,359.8581],[152.665,-30.8628,355.8014],[152.6699,-30.8669,341.8519],[152.6739,-30.8671,315.09],[152.68,-30.8738,315.1103],[152.6925,-30.8765,239.7348],[152.7081,-30.8734,388.7819],[152.7069,-30.8693,293.4785],[152.7084,-30.8671,295.1635],[152.7082,-30.8583,475.2546],[152.7178,-30.8627,351.2743],[152.7253,-30.8619,335.151],[152.7328,-30.8644,318.99],[152.7382,-30.8735,286.5167],[152.7408,-30.8742,292.6198],[152.7368,-30.8783,213.1042],[152.7409,-30.8832,204.6912],[152.7393,-30.8853,187.6169],[152.7463,-30.8899,165.9931],[152.7513,-30.8972,202.4361],[152.7554,-30.9092,165.9417],[152.7599,-30.9134,192.8849],[152.7595,-30.9159,161.3145],[152.7625,-30.9172,166.8906],[152.7638,-30.9208,185.365],[152.7629,-30.9248,177.6433],[152.7689,-30.9254,171.8576],[152.7714,-30.9278,168.4779],[152.784,-30.9242,178.1115],[152.7891,-30.9267,141.9124],[152.7944,-30.9216,143.0657],[152.8015,-30.9198,116.7421],[152.8128,-30.9237,128.8716],[152.8197,-30.9199,124.7935],[152.8259,-30.9188,108.3439],[152.8332,-30.9116,126.2098],[152.8373,-30.9103,118.0835],[152.8413,-30.9114,87.4887],[152.847,-30.9065,91.0795],[152.852,-30.9059,103.6337],[152.8535,-30.9011,104.5404],[152.8576,-30.8989,107.4342],[152.8596,-30.8957,104.1837],[152.8595,-30.8928,106.161],[152.8654,-30.8917,84.747],[152.8701,-30.8861,77.1359],[152.8705,-30.883,75.1565],[152.8775,-30.8845,80.5594],[152.8824,-30.8835,79.5596],[152.8893,-30.8795,84.7069],[152.8929,-30.8802,75.5879],[152.8924,-30.8734,67.1695],[152.8954,-30.8716,79.9993],[152.8973,-30.8681,65.0641],[152.8969,-30.8656,61.7607],[152.9013,-30.8631,55.9334],[152.9019,-30.8592,55.2774],[152.9076,-30.8575,68.6154],[152.9059,-30.8505,60.2074],[152.9101,-30.8491,47.3754],[152.9142,-30.8415,52.927],[152.9194,-30.8397,55.0147],[152.9214,-30.8349,60.3532],[152.9235,-30.8339,54.057],[152.9243,-30.831,49.1271],[152.9216,-30.8307,79.6805],[152.9219,-30.8285,73.567],[152.9168,-30.8245,91.9395],[152.9204,-30.8146,432.2304],[152.9238,-30.8154,424.6559],[152.929,-30.8139,425.281],[152.9396,-30.808,263.1579],[152.9415,-30.8036,269.5468],[152.947,-30.8017,220.471],[152.9487,-30.7971,240.5309],[152.9547,-30.7979,190.8634],[152.958,-30.7941,175.1495],[152.9602,-30.7937,170.9712],[152.9694,-30.795,164.3531],[152.9686,-30.7896,176.7142],[152.9746,-30.7858,119.1085],[152.9714,-30.7826,207.471],[152.9714,-30.7789,204.0032],[152.9739,-30.7754,278.8205],[152.9882,-30.7709,64.2579],[152.991,-30.769,56.6863],[152.9914,-30.7662,88.9928],[152.9942,-30.7655,58.3635],[153.0006,-30.7589,0.0],[153.0016,-30.7485,0.0],[152.9986,-30.7464,0.0],[152.9977,-30.7431,6.7998],[152.9957,-30.7446,3.7218],[152.9926,-30.7434,0.0],[152.9895,-30.737,3.8739],[152.9887,-30.7176,0.0],[152.9916,-30.6979,10.2507],[152.9977,-30.6784,5.2765],[153.0121,-30.6515,0.0],[153.0192,-30.6494,0.0],[153.0204,-30.6476,0.2679],[153.0169,-30.6437,0.0],[153.0176,-30.6406,0.0],[153.0152,-30.6371,0.0],[153.0101,-30.6155,0.0],[153.0116,-30.6009,0.0],[153.0145,-30.5958,6.0027],[153.0125,-30.5807,4.3341],[153.0169,-30.5652,0.0],[153.0059,-30.5643,32.609],[153.0041,-30.5671,24.5126],[152.9006,-30.5528,235.0628],[152.8998,-30.5582,126.6369],[152.8876,-30.5566,110.2253],[152.8886,-30.5514,148.1566],[152.8741,-30.5497,118.2782],[152.8704,-30.5479,132.3164],[152.8701,-30.5456,149.8019],[152.8634,-30.5446,80.8955],[152.8651,-30.5354,63.6963],[152.861,-30.5348,36.9328],[152.8603,-30.5384,35.2834],[152.8578,-30.538,45.148],[152.8574,-30.5463,90.1604],[152.8398,-30.5425,209.0415],[152.8414,-30.5325,128.1738],[152.8178,-30.5296,118.3849],[152.8163,-30.5396,105.0539],[152.794,-30.537,386.9131],[152.7946,-30.5338,454.1946],[152.793,-30.5349,472.9398],[152.7365,-30.5275,156.6438],[152.7373,-30.5233,109.2258],[152.732,-30.5226,267.4634],[152.7312,-30.5269,147.1482],[152.723,-30.5257,347.886],[152.6773,-30.5328,245.5626],[152.6719,-30.532,274.6212],[152.671,-30.5371,364.2134],[152.6627,-30.5361,388.3097],[152.6622,-30.5394,404.6411],[152.6548,-30.5384,412.5478],[152.6303,-30.5396,247.5145],[152.4981,-30.5191,482.6841],[152.4083,-30.4887,1555.5963],[152.4003,-30.5008,1418.4714]]],
[[[153.0198,-30.649,0.0],[153.0194,-30.6493,0.0],[153.0198,-30.6495,0.0],[153.0199,-30.6492,0.0],[153.0198,-30.649,0.0]]]]}
,"properties": {"GID_2": "AUS.5.96_1","GID_0": "AUS","country": "Australia","GID_1": "AUS.5_1","state": "NewSouthWales","NL_NAME_1": "NA","county": "Nambucca","VARNAME_2": "NA","NL_NAME_2": "NA","TYPE_2": "Area","ENGTYPE_2": "Area","CC_2": "15700","HASC_2": "AU.NS.NC","name": "Nambucca.county","area_km2": 1492.942,"hist_schema_id": "Elevation0-9000","hist_area_km2": {"0": 98.236,"25": 198.436,"50": 177.844,"75": 144.159,"100": 132.461,"125": 107.002,"150": 85.648,"175": 73.881,"200": 58.217,"225": 49.763,"250": 42.091,"275": 35.585,"300": 30.826,"325": 28.166,"350": 24.81,"375": 21.438,"400": 20.107,"425": 18.94,"450": 16.039,"475": 15.602,"500": 12.938,"525": 12.775,"550": 11.57,"575": 10.348,"600": 8.906,"625": 7.976,"650": 7.703,"675": 6.607,"700": 6.133,"725": 4.947,"750": 4.49,"775": 3.833,"800": 2.848,"825": 2.355,"850": 1.461,"875": 1.57,"900": 1.351,"925": 0.749,"950": 0.676,"975": 0.475,"1000": 0.511,"1025": 0.329,"1050": 0.365,"1075": 0.311,"1100": 0.237,"1125": 0.311,"1150": 0.329,"1175": 0.292,"1200": 0.201,"1225": 0.237,"1250": 0.146,"1275": 0.11,"1300": 0.128,"1325": 0.091,"1350": 0.055,"1375": 0.037,"1400": 0.055,"1425": 0.037,"1450": 0.073,"1475": 0.091,"1500": 0.018,"1550": 0.018}}}