{"type":"Feature","properties":{"GID_2":"AUS.5.122_1","GID_0":"AUS","country":"Australia","GID_1":"AUS.5_1","state":"NewSouthWales","NL_NAME_1":"NA","county":"Sydney","VARNAME_2":"NA","NL_NAME_2":"NA","TYPE_2":"City","ENGTYPE_2":"City","CC_2":"17200","HASC_2":"AU.NS.SY","name":"Sydney.county"},
"geometry":{"type": "MultiPolygon","coordinates": [[[[151.2138,-33.9242,24.0842],[151.2112,-33.9204,23.664],[151.2143,-33.9038,36.3728],[151.2233,-33.9047,36.9256],[151.2225,-33.9013,36.7434],[151.227,-33.8986,46.8921],[151.227,-33.8968,43.8676],[151.2294,-33.8964,43.856],[151.2335,-33.8896,70.7125],[151.2281,-33.8854,67.3971],[151.2192,-33.8816,52.8133],[151.2278,-33.8791,15.8679],[151.2297,-33.8767,8.2355],[151.2318,-33.8713,0.0],[151.2275,-33.8685,10.9759],[151.2289,-33.8611,0.7056],[151.2308,-33.8592,0.0],[151.2292,-33.858,3.8451],[151.2276,-33.859,0.0],[151.2276,-33.8632,1.8645],[151.2255,-33.862,0.7051],[151.2206,-33.8691,5.2992],[151.2225,-33.8659,0.0],[151.2199,-33.8687,7.9669],[151.2199,-33.866,17.3264],[151.2229,-33.8625,0.0],[151.2227,-33.8593,0.0],[151.2179,-33.8632,5.224],[151.216,-33.8566,3.0536],[151.2146,-33.8561,0.0],[151.2125,-33.861,20.2173],[151.2097,-33.861,11.3888],[151.2104,-33.8569,1.2078],[151.2092,-33.8561,15.4696],[151.2106,-33.8555,3.126],[151.208,-33.8535,0.0],[151.2073,-33.8553,4.6572],[151.2062,-33.8538,0.0],[151.2063,-33.8558,4.6572],[151.2052,-33.8543,0.0],[151.2054,-33.8565,13.9834],[151.2041,-33.8548,0.0],[151.2049,-33.8567,13.9834],[151.2035,-33.8551,0.0],[151.2035,-33.8566,12.6997],[151.2002,-33.8554,0.65],[151.2012,-33.8698,0.0],[151.2024,-33.8704,26.9272],[151.2015,-33.8732,3.6852],[151.1995,-33.8722,9.9239],[151.199,-33.8656,0.6118],[151.1961,-33.8675,0.917],[151.1977,-33.8635,1.5679],[151.1944,-33.8654,5.767],[151.1961,-33.8626,0.0],[151.1936,-33.8644,6.4308],[151.194,-33.8624,0.0],[151.186,-33.8684,2.0647],[151.1923,-33.8739,5.1398],[151.1893,-33.8758,3.4418],[151.1848,-33.8709,0.0],[151.1749,-33.8727,9.0088],[151.1768,-33.8783,11.7441],[151.1753,-33.883,16.3295],[151.1812,-33.8957,45.1664],[151.1778,-33.8991,35.243],[151.1816,-33.9069,19.7712],[151.1813,-33.9159,9.4236],[151.1767,-33.9178,5.6793],[151.1796,-33.9203,5.1125],[151.1808,-33.9192,1.9405],[151.2138,-33.9242,24.0842]]],
[[[151.2252,-33.8553,0.0],[151.2258,-33.855,0.0],[151.2261,-33.8547,0.0],[151.2256,-33.8547,0.0],[151.2252,-33.8553,0.0]]],
[[[151.1978,-33.852,13.3581],[151.1989,-33.8509,0.0],[151.1964,-33.8511,0.0],[151.1948,-33.8536,4.3833],[151.1967,-33.8537,3.2671],[151.1978,-33.852,13.3581]]]]}}