{"type": "Feature","bbox": [147.1995,-41.3807,148.2638,-40.7151],"geometry": {"type": "MultiPolygon","coordinates": [[[[147.5427,-40.8977,0.0],[147.5432,-40.8978,0.0],[147.5425,-40.8972,0.0],[147.5424,-40.8975,0.0],[147.5427,-40.8977,0.0]]],
[[[147.5735,-40.8941,3.5507],[147.5733,-40.8946,5.1872],[147.5749,-40.8934,4.2074],[147.5739,-40.8936,3.5507],[147.5735,-40.8941,3.5507]]],
[[[147.5752,-40.8921,2.6172],[147.575,-40.8922,2.6172],[147.5747,-40.8926,2.6172],[147.5752,-40.8925,2.6172],[147.5752,-40.8921,2.6172]]],
[[[148.2628,-40.8922,0.0],[148.2628,-40.8925,0.0],[148.2636,-40.8925,0.0],[148.2631,-40.8922,0.0],[148.2628,-40.8922,0.0]]],
[[[147.5487,-40.8921,0.3305],[147.5496,-40.8924,0.0],[147.5497,-40.8924,0.0],[147.5489,-40.8915,0.3305],[147.5487,-40.8921,0.3305]]],
[[[148.2482,-40.8851,0.0],[148.2489,-40.8855,0.0],[148.2491,-40.8854,0.0],[148.2486,-40.8846,0.0],[148.2482,-40.8851,0.0]]],
[[[147.7896,-40.8795,0.0],[147.7894,-40.8797,0.0],[147.7894,-40.8798,0.0],[147.7901,-40.8796,0.0],[147.7896,-40.8795,0.0]]],
[[[147.7793,-40.8788,0.7577],[147.7821,-40.8796,1.7413],[147.7826,-40.8795,0.0],[147.7774,-40.8778,0.0],[147.7793,-40.8788,0.7577]]],
[[[148.2319,-40.8775,0.0],[148.2318,-40.8776,0.0],[148.2319,-40.878,0.0],[148.2321,-40.8779,0.0],[148.2319,-40.8775,0.0]]],
[[[148.2334,-40.8767,0.0],[148.2338,-40.8774,0.0],[148.2341,-40.8774,0.0],[148.234,-40.8769,0.0],[148.2334,-40.8767,0.0]]],
[[[148.2358,-40.875,0.0],[148.2357,-40.8754,0.0],[148.2361,-40.8755,0.0],[148.2361,-40.8752,0.0],[148.2358,-40.875,0.0]]],
[[[147.7663,-40.869,0.0],[147.7681,-40.8701,0.0],[147.7664,-40.8686,0.0],[147.7598,-40.8653,0.0],[147.7625,-40.867,0.0],[147.7663,-40.869,0.0]]],
[[[147.7589,-40.8568,0.1984],[147.7595,-40.8574,6.6546],[147.7626,-40.8559,3.1154],[147.7602,-40.8552,6.2241],[147.7589,-40.8568,0.1984]]],
[[[148.2037,-40.8399,0.0],[148.2035,-40.8399,0.0],[148.2032,-40.8402,0.0],[148.2036,-40.8403,0.0],[148.2037,-40.8399,0.0]]],
[[[148.2463,-40.8346,0.0],[148.246,-40.8347,0.0],[148.2463,-40.8347,0.0],[148.2463,-40.8346,0.0]]],
[[[147.6278,-40.8238,2.0819],[147.6292,-40.8233,2.0819],[147.6263,-40.8226,0.0],[147.6273,-40.8239,2.3075],[147.6278,-40.8238,2.0819]]],
[[[148.1791,-40.8201,0.0],[148.1791,-40.8199,0.0],[148.179,-40.8201,0.0],[148.1791,-40.8201,0.0]]],
[[[148.1791,-40.8193,0.0],[148.1787,-40.8192,0.0],[148.1785,-40.8195,0.0],[148.1788,-40.8196,0.0],[148.1791,-40.8193,0.0]]],
[[[147.6434,-40.7826,1.0977],[147.6409,-40.7799,1.3613],[147.641,-40.7819,6.5008],[147.6378,-40.7844,0.3062],[147.636,-40.789,10.474],[147.6314,-40.7924,0.0],[147.6319,-40.7947,13.7895],[147.6273,-40.7969,2.8345],[147.6264,-40.8032,17.9393],[147.6244,-40.8033,2.0872],[147.6232,-40.8063,7.5866],[147.6158,-40.8097,12.9538],[147.6178,-40.812,18.3744],[147.6171,-40.8135,1.8386],[147.6198,-40.8148,0.0],[147.6266,-40.8122,0.0],[147.6306,-40.8078,22.9611],[147.6342,-40.8071,0.0],[147.6436,-40.79,0.0],[147.6434,-40.7826,1.0977]]],
[[[147.9408,-40.7699,0.0],[147.9384,-40.7693,0.2976],[147.9377,-40.7695,0.4054],[147.9402,-40.771,0.4903],[147.9408,-40.7699,0.0]]],
[[[147.935,-40.7695,0.3691],[147.9361,-40.7699,0.0],[147.9369,-40.7697,0.0],[147.9361,-40.7692,0.3691],[147.935,-40.7695,0.3691]]],
[[[147.9356,-40.7632,0.0],[147.9354,-40.7633,0.0],[147.9359,-40.7633,0.0],[147.9356,-40.7632,0.0]]],
[[[147.9352,-40.7611,0.8969],[147.9359,-40.7605,0.8969],[147.9347,-40.7602,0.8969],[147.9345,-40.7605,0.8969],[147.9352,-40.7611,0.8969]]],
[[[147.958,-40.7359,0.1277],[147.9585,-40.7361,0.1277],[147.9579,-40.7341,0.0],[147.9576,-40.7354,0.1277],[147.958,-40.7359,0.1277]]],
[[[147.9729,-40.73,0.0],[147.973,-40.7302,0.0],[147.9733,-40.7302,0.0],[147.9733,-40.73,0.0],[147.9729,-40.73,0.0]]],
[[[148.0824,-40.7221,2.3501],[148.0802,-40.7222,0.0],[148.079,-40.7253,1.2361],[148.0824,-40.7262,3.2256],[148.0835,-40.7232,0.4271],[148.0824,-40.7221,2.3501]]],
[[[147.9714,-40.7241,1.9715],[147.9702,-40.7235,2.7151],[147.9689,-40.7239,0.4987],[147.9721,-40.7252,0.2301],[147.9714,-40.7241,1.9715]]],
[[[147.9734,-40.7215,4.3164],[147.9721,-40.7213,2.0577],[147.9718,-40.7233,1.9715],[147.974,-40.7248,0.0],[147.976,-40.7224,0.0],[147.9734,-40.7215,4.3164]]],
[[[148.0769,-40.7151,0.2937],[148.0768,-40.7156,0.2937],[148.0773,-40.7155,0.2937],[148.0772,-40.7152,0.2937],[148.0769,-40.7151,0.2937]]],
[[[147.9733,-40.7291,0.0],[147.9736,-40.7292,0.0],[147.9738,-40.729,0.0],[147.9735,-40.7289,0.0],[147.9733,-40.7291,0.0]]],
[[[148.2567,-40.9046,13.1537],[148.259,-40.9004,6.6256],[148.2638,-40.8989,0.7768],[148.2619,-40.8925,0.0],[148.2483,-40.8869,3.6874],[148.2436,-40.8882,6.5702],[148.2372,-40.886,0.9093],[148.2327,-40.8824,0.0],[148.2309,-40.8782,0.0],[148.2268,-40.8764,5.4843],[148.2219,-40.8694,0.0],[148.2198,-40.8562,7.3015],[148.2237,-40.8469,1.2269],[148.2107,-40.8451,3.3993],[148.1976,-40.8394,0.8221],[148.1851,-40.8308,4.5896],[148.1824,-40.8272,2.2721],[148.1826,-40.8249,2.9112],[148.1784,-40.8209,0.0],[148.1758,-40.8209,0.31],[148.176,-40.8241,0.3224],[148.1735,-40.826,2.4164],[148.1774,-40.8301,10.2914],[148.177,-40.835,0.0],[148.1745,-40.8384,2.6979],[148.1717,-40.8392,1.751],[148.1566,-40.837,1.3865],[148.1543,-40.838,1.8973],[148.1548,-40.8395,4.0421],[148.1593,-40.8407,4.1545],[148.1581,-40.8405,3.9158],[148.1546,-40.8395,4.0421],[148.1542,-40.839,1.8973],[148.1541,-40.8378,0.0],[148.1375,-40.8337,1.5113],[148.1306,-40.8289,0.7159],[148.1286,-40.8293,0.1577],[148.1276,-40.833,3.7669],[148.1256,-40.8327,0.0],[148.127,-40.836,3.1893],[148.1251,-40.8331,0.5005],[148.114,-40.8305,2.663],[148.1149,-40.8285,3.2585],[148.1118,-40.8282,3.6691],[148.1116,-40.8267,0.1488],[148.1135,-40.8229,0.0],[148.1081,-40.8206,1.3583],[148.1172,-40.8206,0.7728],[148.112,-40.8175,0.7278],[148.1153,-40.8169,0.0],[148.1153,-40.814,0.8898],[148.1215,-40.8191,2.7365],[148.1214,-40.8258,0.0],[148.127,-40.8231,0.071],[148.134,-40.8304,0.2472],[148.1482,-40.8347,0.0],[148.1635,-40.8358,1.2495],[148.1701,-40.8347,0.0],[148.1753,-40.8301,0.0],[148.175,-40.8291,0.0],[148.1733,-40.8315,0.5509],[148.1657,-40.8345,0.0],[148.1543,-40.8349,1.0614],[148.1356,-40.8275,1.8672],[148.1173,-40.8127,0.9429],[148.1067,-40.7994,6.6743],[148.1013,-40.7882,0.0],[148.0793,-40.7691,1.1581],[148.0737,-40.7721,4.8347],[148.0578,-40.7716,1.7822],[148.0431,-40.7667,1.564],[148.0375,-40.7622,0.0],[148.037,-40.7659,0.0],[148.044,-40.7692,1.0604],[148.0417,-40.773,1.7302],[148.0487,-40.7747,1.5904],[148.0441,-40.7746,5.3225],[148.0392,-40.7729,0.0],[148.0328,-40.765,3.2362],[148.038,-40.7613,0.0],[148.0333,-40.7576,0.0],[148.033,-40.7517,3.173],[148.0307,-40.7502,1.0923],[148.0262,-40.7532,1.5018],[148.019,-40.7536,2.1954],[148.0122,-40.7458,0.6158],[148.0077,-40.7454,0.7888],[148.0066,-40.7437,0.374],[148.0024,-40.7449,1.6696],[147.9879,-40.7429,0.0],[147.9858,-40.7416,0.0],[147.9866,-40.74,0.0],[147.981,-40.7423,0.3911],[147.9751,-40.7392,0.3482],[147.9746,-40.7376,0.0],[147.9741,-40.7406,0.0],[147.9702,-40.7431,3.1838],[147.9599,-40.7464,6.1893],[147.9499,-40.7464,2.965],[147.9494,-40.7443,0.055],[147.947,-40.7453,1.8697],[147.9463,-40.7429,0.0],[147.9437,-40.7429,0.9923],[147.9423,-40.7398,3.8928],[147.9396,-40.7391,0.0],[147.9391,-40.7423,0.0],[147.9412,-40.7447,1.3294],[147.9391,-40.7457,0.0],[147.9402,-40.7483,0.0],[147.9426,-40.7494,6.7017],[147.9428,-40.7527,10.1044],[147.9479,-40.7533,0.0],[147.9502,-40.7511,2.4368],[147.9539,-40.7524,2.9206],[147.955,-40.7545,7.1208],[147.9588,-40.755,0.0],[147.9597,-40.7593,2.5097],[147.9559,-40.7613,0.0],[147.9576,-40.7617,3.0139],[147.9588,-40.7648,0.0],[147.953,-40.7763,8.7988],[147.9506,-40.7775,2.4669],[147.9491,-40.7761,0.0],[147.9435,-40.7759,0.3111],[147.9461,-40.7797,0.5542],[147.9442,-40.7824,0.0],[147.946,-40.7849,3.2429],[147.9446,-40.7858,3.2429],[147.946,-40.7877,2.535],[147.9451,-40.7884,1.0349],[147.9478,-40.791,0.0],[147.9329,-40.8152,4.8619],[147.9122,-40.841,1.1079],[147.887,-40.8638,0.7974],[147.8882,-40.8651,0.0],[147.8845,-40.8703,0.0],[147.8839,-40.8738,2.1369],[147.8869,-40.8791,0.0],[147.8934,-40.876,0.5766],[147.9034,-40.8772,0.3467],[147.9065,-40.8694,3.3589],[147.9129,-40.8691,4.4345],[147.9107,-40.8711,1.4197],[147.9066,-40.8699,3.3109],[147.9064,-40.871,3.3109],[147.908,-40.8709,1.6124],[147.9063,-40.8715,2.2684],[147.9042,-40.8777,0.3467],[147.8925,-40.8772,0.1999],[147.8874,-40.881,0.0],[147.8786,-40.8791,0.4251],[147.8739,-40.8829,2.2088],[147.8805,-40.8735,0.0],[147.8791,-40.8706,0.0],[147.8821,-40.8708,0.0],[147.8826,-40.8681,0.0],[147.8569,-40.8806,4.8288],[147.8353,-40.8871,5.4829],[147.8222,-40.8869,8.4103],[147.8161,-40.8848,17.4701],[147.7975,-40.8835,2.6035],[147.78,-40.8798,3.5099],[147.7759,-40.8774,0.0],[147.7725,-40.8733,1.6115],[147.7565,-40.8651,2.0584],[147.7523,-40.8679,0.0],[147.7517,-40.8713,1.4727],[147.7535,-40.8734,3.3306],[147.752,-40.876,0.563],[147.7507,-40.8711,4.1014],[147.7521,-40.8688,1.1938],[147.7503,-40.8681,3.5782],[147.7515,-40.8663,0.0],[147.7563,-40.8649,2.0584],[147.7571,-40.8629,5.0368],[147.7587,-40.8641,0.0],[147.7576,-40.8577,0.1984],[147.7395,-40.8568,1.1639],[147.7385,-40.8587,1.0692],[147.7216,-40.8628,0.0],[147.7064,-40.8603,1.0321],[147.6937,-40.8498,2.752],[147.6922,-40.845,0.0],[147.6882,-40.8414,0.7755],[147.69,-40.8392,0.0],[147.6693,-40.8274,0.0],[147.6716,-40.8219,0.0],[147.6697,-40.821,0.0],[147.6613,-40.825,8.5112],[147.6515,-40.8339,7.976],[147.6459,-40.8341,0.4291],[147.6442,-40.838,13.6479],[147.6268,-40.845,12.4813],[147.6145,-40.8477,0.0],[147.6034,-40.8471,2.3798],[147.595,-40.8491,0.8787],[147.595,-40.8508,2.6306],[147.5987,-40.8519,0.0],[147.5977,-40.8543,0.0],[147.5989,-40.8563,11.5161],[147.595,-40.8591,1.0485],[147.5952,-40.8625,6.9538],[147.5934,-40.8641,1.5947],[147.5836,-40.8634,1.4479],[147.5851,-40.8659,11.0637],[147.5836,-40.8678,1.3437],[147.5878,-40.8681,2.2136],[147.5907,-40.8716,10.9147],[147.5885,-40.8721,0.0],[147.5755,-40.8908,0.0],[147.5828,-40.8932,9.0529],[147.5766,-40.8923,3.03],[147.5681,-40.8986,4.0999],[147.5542,-40.9185,5.7618],[147.5256,-40.9507,1.6567],[147.4924,-40.9782,1.9514],[147.4577,-40.9964,1.9312],[147.4415,-41.0029,0.0],[147.4126,-41.0069,1.4148],[147.397,-41.0029,6.4948],[147.4044,-41.0061,1.4331],[147.4056,-41.01,0.2119],[147.4184,-41.0116,0.0],[147.4213,-41.0101,0.2226],[147.4254,-41.0135,0.5135],[147.4277,-41.0119,0.5912],[147.4301,-41.0125,0.5651],[147.42967894736842,-41.010057894736853,0.9809],[147.4307,-41.0121,0.5651],[147.4304,-41.0128,0.5651],[147.4279,-41.0123,0.5912],[147.4257,-41.014,0.5135],[147.4234,-41.0136,1.1227],[147.4217,-41.011,0.2226],[147.4188,-41.0134,0.7912],[147.4131,-41.0127,0.0],[147.4121,-41.014,2.1912],[147.4123,-41.0126,0.0],[147.4043,-41.0118,6.0002],[147.4021,-41.0092,0.8413],[147.399,-41.0085,3.6739],[147.3964,-41.0048,11.2318],[147.3972,-41.0012,0.0],[147.392,-40.9982,8.3521],[147.3904,-40.9947,6.8911],[147.3917,-40.9857,0.0],[147.3843,-40.9804,1.2195],[147.3675,-40.9761,0.0],[147.3561,-40.9774,3.3647],[147.3567,-40.9811,11.7473],[147.3619,-40.9829,4.8856],[147.3554,-40.9823,1.7902],[147.3547,-40.9768,0.0],[147.3584,-40.9767,2.7033],[147.3593,-40.975,3.6795],[147.3606,-40.9764,0.0],[147.3606,-40.9753,0.4747],[147.3529,-40.961,0.0],[147.3551,-40.953,0.0],[147.3451,-40.9393,0.0],[147.3381,-40.9419,1.8431],[147.33,-40.949,1.7868],[147.3199,-40.9544,0.0],[147.3045,-40.9576,0.0],[147.2927,-40.9562,0.0],[147.2848,-40.9519,1.1324],[147.2813,-40.9469,4.2944],[147.2839,-40.9441,0.9905],[147.2814,-40.9419,2.1933],[147.2791,-40.9418,0.0],[147.2713,-40.9469,1.8784],[147.2673,-40.9457,0.0],[147.267,-40.9478,0.0],[147.2609,-40.9511,0.0],[147.2492,-40.9537,2.966],[147.2499,-40.9572,3.7784],[147.2454,-40.9654,2.3703],[147.2345,-40.9796,8.4478],[147.2245,-40.989,7.5707],[147.2104,-40.9971,6.8331],[147.1998,-40.9996,2.1002],[147.1995,-41.0005,2.8102],[147.2029,-40.9992,0.0],[147.2057,-40.9998,4.9817],[147.204,-41.0,4.9817],[147.2044,-41.002,4.4273],[147.2007,-41.0047,4.0457],[147.2005,-41.0083,7.5851],[147.2057,-41.0084,4.3764],[147.2093,-41.0131,4.0926],[147.2155,-41.0149,11.4271],[147.2207,-41.0225,9.8002],[147.2305,-41.0265,12.6018],[147.2316,-41.0312,14.0367],[147.2333,-41.032,15.0562],[147.2337,-41.0339,17.0379],[147.232,-41.0342,15.283],[147.2305,-41.0373,18.5302],[147.2331,-41.0462,23.579],[147.2351,-41.0484,26.6191],[147.2346,-41.0623,49.1326],[147.2354,-41.0648,50.9948],[147.2427,-41.0698,53.7317],[147.2455,-41.0794,65.6931],[147.2441,-41.0852,83.7699],[147.249,-41.0919,101.4856],[147.2434,-41.1101,196.5891],[147.2684,-41.1125,118.7545],[147.2664,-41.1233,110.3773],[147.2673,-41.1397,160.0569],[147.2631,-41.1543,150.4971],[147.2671,-41.1548,119.4094],[147.2664,-41.1579,114.8956],[147.2624,-41.1575,141.262],[147.2584,-41.1761,157.5411],[147.2613,-41.1758,127.3602],[147.2622,-41.1912,115.5959],[147.2715,-41.1919,204.967],[147.2765,-41.1958,321.764],[147.2809,-41.1963,292.9814],[147.2805,-41.1985,250.5308],[147.2979,-41.1994,304.2588],[147.2959,-41.2088,237.0419],[147.2893,-41.208,241.144],[147.2842,-41.2277,315.5269],[147.2806,-41.2273,210.149],[147.2852,-41.2396,273.756],[147.2892,-41.2436,295.5309],[147.2889,-41.2565,565.3015],[147.2922,-41.2633,692.833],[147.2897,-41.2777,1171.3315],[147.3419,-41.2523,515.5584],[147.3459,-41.2529,597.82],[147.3463,-41.2515,597.82],[147.3546,-41.2503,495.895],[147.3577,-41.2522,492.1743],[147.388,-41.2543,356.554],[147.3934,-41.2715,621.6431],[147.4902,-41.2967,618.4541],[147.4995,-41.2978,638.3194],[147.5904,-41.3807,498.3667],[147.8338,-41.3724,415.2357],[147.8407,-41.333,1135.7596],[147.8587,-41.2766,621.2034],[147.8895,-41.165,516.8079],[147.9348,-41.1685,496.105],[148.0051,-41.1534,745.8816],[148.0823,-41.1321,148.1783],[148.0792,-41.1289,149.9149],[148.0824,-41.1244,150.8423],[148.0797,-41.1245,129.1142],[148.0699,-41.1196,134.5386],[148.0696,-41.1173,107.9925],[148.0652,-41.1129,105.0877],[148.0648,-41.1064,117.4567],[148.0627,-41.1052,109.3955],[148.0683,-41.096,113.5052],[148.0622,-41.0871,88.1598],[148.0711,-41.0739,84.2808],[148.0697,-41.0723,84.6394],[148.0711,-41.0721,84.07],[148.0714,-41.0675,95.397],[148.077,-41.0651,79.3077],[148.0821,-41.0604,68.4737],[148.0803,-41.057,80.8123],[148.0804,-41.0519,75.3944],[148.0775,-41.052,73.4321],[148.0732,-41.0478,64.6997],[148.0739,-41.0422,57.8629],[148.0688,-41.0338,63.2724],[148.0713,-41.0334,65.4961],[148.0711,-41.0313,62.2407],[148.0731,-41.0307,60.5365],[148.0741,-41.0233,54.7506],[148.0762,-41.0217,52.2955],[148.0744,-41.0148,50.6435],[148.0779,-41.0154,51.2536],[148.0812,-41.0135,46.4468],[148.0788,-41.0104,50.497],[148.0794,-41.0065,50.6401],[148.0815,-41.0056,45.0453],[148.08,-41.0024,40.2501],[148.081,-41.0011,48.702],[148.0788,-40.9983,38.4778],[148.0753,-40.9977,40.2153],[148.0742,-40.9953,43.0446],[148.0805,-40.9884,42.5015],[148.0806,-40.983,45.5468],[148.078,-40.9815,40.6122],[148.0775,-40.9792,37.8707],[148.079,-40.9767,30.3962],[148.0785,-40.9715,32.2491],[148.0823,-40.9683,31.5535],[148.0813,-40.9632,31.8698],[148.0858,-40.9605,31.2927],[148.0845,-40.9559,32.5703],[148.0856,-40.9537,34.6139],[148.0824,-40.952,29.3642],[148.0859,-40.9491,27.0141],[148.0856,-40.9417,26.0762],[148.0889,-40.9378,26.7889],[148.0874,-40.9361,27.0666],[148.0986,-40.9376,44.2341],[148.1043,-40.9409,41.3517],[148.112,-40.9422,35.2472],[148.1168,-40.9236,26.7199],[148.1855,-40.9338,61.0426],[148.1863,-40.9311,71.6898],[148.2125,-40.9379,59.9235],[148.2132,-40.9355,57.5199],[148.2176,-40.9326,52.321],[148.2163,-40.928,52.7446],[148.2137,-40.9261,47.5925],[148.2134,-40.9223,44.7265],[148.2153,-40.9197,43.6825],[148.2213,-40.9211,47.8518],[148.2249,-40.9198,37.295],[148.2289,-40.9136,31.2559],[148.2369,-40.9113,24.3884],[148.2515,-40.9028,19.4082],[148.2567,-40.9046,13.1537]],
[[147.42967894736842,-41.010057894736853,0.9809],[147.4296,-41.0099,0.9809],[147.42965241935482,-41.009904032258063,0.9809],[147.42967894736842,-41.010057894736853,0.9809]],
[[147.42965241935482,-41.009904032258063,0.9809],[147.4296,-41.0096,0.9809],[147.431,-41.0098,0.604],[147.4345,-41.0116,1.2119],[147.4327,-41.009,1.9722],[147.4349,-41.0106,1.5621],[147.435,-41.0111,1.5621],[147.4345,-41.0119,1.2119],[147.4319,-41.0111,0.604],[147.4309,-41.01,0.604],[147.42965241935482,-41.009904032258063,0.9809]]],
[[[147.9494,-40.753,0.0],[147.9497,-40.7533,0.0],[147.9502,-40.7532,0.0],[147.9499,-40.7528,0.0],[147.9494,-40.753,0.0]]],
[[[148.0293,-40.7494,0.0],[148.029,-40.7494,0.0],[148.0291,-40.7498,1.0923],[148.0296,-40.7496,1.0923],[148.0293,-40.7494,0.0]]],
[[[147.9533,-40.7412,0.0],[147.9535,-40.7416,0.4615],[147.9539,-40.7413,0.4615],[147.9537,-40.7411,0.0],[147.9533,-40.7412,0.0]]],
[[[148.0882,-40.7398,0.0],[148.0882,-40.74,0.0],[148.0891,-40.7401,0.7466],[148.089,-40.74,0.7466],[148.0882,-40.7398,0.0]]],
[[[148.1216,-40.7272,0.0],[148.1194,-40.7269,0.4701],[148.1173,-40.7287,2.0865],[148.1134,-40.728,2.9094],[148.1138,-40.7315,3.2946],[148.1085,-40.7344,0.0],[148.1034,-40.7345,0.0],[148.1006,-40.7328,0.0],[148.0939,-40.7343,0.0],[148.0898,-40.7401,0.7466],[148.0943,-40.7445,1.9063],[148.0954,-40.7419,1.4049],[148.1004,-40.7392,6.2204],[148.1051,-40.7401,4.1431],[148.1075,-40.7429,0.596],[148.1135,-40.7396,0.0],[148.117,-40.7399,0.0],[148.1162,-40.7375,3.4943],[148.1179,-40.7377,0.0],[148.1168,-40.7357,2.3058],[148.1187,-40.7341,2.4487],[148.124,-40.7353,0.0],[148.1278,-40.7343,0.0],[148.1257,-40.7328,1.9695],[148.1276,-40.7311,4.3186],[148.1265,-40.7271,0.0],[148.1233,-40.7284,12.5006],[148.1216,-40.7272,0.0]]],
[[[147.9641,-40.7414,0.0],[147.9648,-40.7417,0.0],[147.9649,-40.7417,0.0],[147.9644,-40.7411,0.0],[147.9641,-40.7414,0.0]]],
[[[147.9612,-40.7447,2.0043],[147.9612,-40.744,0.0],[147.9601,-40.7442,0.0],[147.9608,-40.7451,0.0],[147.9612,-40.7447,2.0043]]],
[[[147.9642,-40.7435,0.0],[147.9644,-40.743899999999996,0.0],[147.9647,-40.743899999999996,0.0],[147.9644,-40.7436,0.0],[147.9642,-40.7435,0.0]]],
[[[147.9514,-40.7429,0.4042],[147.9512,-40.7432,0.2568],[147.9522,-40.7432,0.2568],[147.9516,-40.7427,0.4042],[147.9514,-40.7429,0.4042]]],
[[[147.9631,-40.7433,0.0],[147.9631,-40.7436,0.0],[147.9634,-40.7434,0.0],[147.9634,-40.7433,0.0],[147.9631,-40.7433,0.0]]],
[[[147.953,-40.7435,0.4361],[147.9533,-40.7427,0.4615],[147.952,-40.7424,0.4042],[147.9522,-40.7431,0.2568],[147.953,-40.7435,0.4361]]],
[[[147.9541,-40.7437,0.4361],[147.9544,-40.7426,0.4615],[147.9538,-40.7422,0.4615],[147.9538,-40.7434,0.4361],[147.9541,-40.7437,0.4361]]],
[[[147.9503,-40.7429,0.6007],[147.9509,-40.7424,0.4042],[147.9497,-40.7416,0.6007],[147.9498,-40.7424,0.6007],[147.9503,-40.7429,0.6007]]],
[[[147.9661,-40.7427,0.0],[147.9666,-40.7428,0.0],[147.9668,-40.7423,0.0],[147.9658,-40.7422,0.0],[147.9661,-40.7427,0.0]]]]}
,"properties": {"GID_2": "AUS.9.10_1","GID_0": "AUS","country": "Australia","GID_1": "AUS.9_1","state": "Tasmania","NL_NAME_1": "NA","county": "Dorset","VARNAME_2": "NA","NL_NAME_2": "NA","TYPE_2": "Municipality","ENGTYPE_2": "Municipality","CC_2": "61810","HASC_2": "AU.TS.DO","name": "Dorset.county","area_km2": 3226.223,"hist_schema_id": "Elevation0-9000","hist_area_km2": {"0": 209.786,"25": 467.658,"50": 361.945,"75": 299.018,"100": 237.646,"125": 203.813,"150": 183.05,"175": 158.338,"200": 122.168,"225": 97.983,"250": 97.978,"275": 84.961,"300": 67.982,"325": 55.02,"350": 46.786,"375": 41.966,"400": 36.125,"425": 31.832,"450": 30.25,"475": 26.025,"500": 26.131,"525": 23.42,"550": 25.298,"575": 23.543,"600": 20.066,"625": 18.502,"650": 19.262,"675": 15.755,"700": 13.142,"725": 13.745,"750": 12.517,"775": 17.451,"800": 27.209,"825": 26.333,"850": 17.56,"875": 14.901,"900": 11.989,"925": 12.34,"950": 7.566,"975": 9.398,"1000": 6.038,"1025": 2.198,"1050": 0.557,"1075": 0.319,"1100": 0.334,"1125": 0.159,"1150": 0.048,"1175": 0.111}}}