{"type": "Feature","bbox": [144.8862,-37.7802,144.9885,-37.6909],"geometry": {"type": "MultiPolygon","coordinates": [[[[144.8884,-37.7108,85.9533],[144.8982,-37.7092,52.0926],[144.903,-37.7144,50.5409],[144.9023,-37.7167,51.9253],[144.9046,-37.7158,48.4516],[144.9056,-37.7173,48.671],[144.9094,-37.7174,46.9362],[144.9106,-37.7219,49.7726],[144.9125,-37.7209,43.6778],[144.9146,-37.7238,44.0276],[144.9182,-37.7241,41.8358],[144.9225,-37.7288,37.6332],[144.9247,-37.7289,37.5787],[144.9243,-37.7324,36.2453],[144.9283,-37.7348,37.6369],[144.9301,-37.7402,32.6799],[144.9347,-37.7439,44.9888],[144.9286,-37.7457,27.7345],[144.9293,-37.7475,25.537],[144.9268,-37.7516,26.2408],[144.9305,-37.7536,24.6109],[144.9349,-37.7532,21.3356],[144.933,-37.7589,20.4695],[144.9342,-37.7606,20.0],[144.9384,-37.7609,21.7272],[144.9379,-37.7686,14.4725],[144.9352,-37.7706,13.3506],[144.9384,-37.7716,21.3763],[144.9363,-37.7741,14.7745],[144.9371,-37.7778,9.5065],[144.9388,-37.7754,14.8755],[144.9781,-37.7802,37.7988],[144.9789,-37.7753,43.9853],[144.9885,-37.7764,36.0613],[144.9845,-37.7712,35.0207],[144.9856,-37.7662,44.1994],[144.9815,-37.7628,34.2212],[144.9832,-37.7616,34.2212],[144.9792,-37.7542,43.2796],[144.9818,-37.7521,38.3172],[144.9801,-37.7463,39.8178],[144.982,-37.7455,41.9898],[144.979,-37.7427,40.7778],[144.983,-37.7358,50.7268],[144.9853,-37.7214,67.5778],[144.9782,-37.7204,74.5871],[144.9794,-37.7197,74.2163],[144.9781,-37.7167,67.4641],[144.9809,-37.7146,70.7587],[144.977,-37.7136,74.969],[144.979,-37.7125,70.9364],[144.9771,-37.7102,77.247],[144.9808,-37.7074,74.1724],[144.9786,-37.7046,74.2139],[144.9825,-37.703,76.3099],[144.9794,-37.7003,79.5702],[144.9807,-37.6981,80.8413],[144.9787,-37.6971,83.2658],[144.9787,-37.6944,87.3391],[144.976,-37.695,87.0883],[144.9727,-37.6925,82.68],[144.9706,-37.6928,84.8423],[144.9714,-37.6909,85.6163],[144.919,-37.6947,106.7195],[144.9049,-37.6939,82.3723],[144.8862,-37.7077,89.1351],[144.8884,-37.7108,85.9533]]]]}
,"properties": {"GID_2": "AUS.10.52_1","GID_0": "AUS","country": "Australia","GID_1": "AUS.10_1","state": "Victoria","NL_NAME_1": "NA","county": "Moreland","VARNAME_2": "NA","NL_NAME_2": "NA","TYPE_2": "City","ENGTYPE_2": "City","CC_2": "25250","HASC_2": "AU.VI.MD","name": "Moreland.county","area_km2": 51.01095,"hist_schema_id": "Elevation0-9000","hist_area_km2": {"0": 0.06703,"25": 2.63178,"50": 18.99364,"75": 22.18887,"100": 7.12962}}}