{"type":"Feature","properties":{"GID_2":"AUS.8.70_1","GID_0":"AUS","country":"Australia","GID_1":"AUS.8_1","state":"SouthAustralia","NL_NAME_1":"NA","county":"Yankalilla","VARNAME_2":"NA","NL_NAME_2":"NA","TYPE_2":"DistrictCouncil","ENGTYPE_2":"DistrictCouncil","CC_2":"48750","HASC_2":"AU.SA.YA","name":"Yankalilla.county"},
"geometry":{"type": "MultiPolygon","coordinates": [[[[138.5163,-35.3227,355.0435],[138.5122,-35.3246,346.4033],[138.5129,-35.328,357.0487],[138.5072,-35.3308,354.7291],[138.5022,-35.3303,379.1956],[138.4918,-35.3376,361.6782],[138.4833,-35.3478,346.3218],[138.4801,-35.3488,360.8248],[138.4722,-35.3463,284.8768],[138.4619,-35.3503,241.8592],[138.4576,-35.3502,132.5055],[138.443,-35.3425,0.0],[138.4397,-35.3516,16.1093],[138.4258,-35.3564,62.3377],[138.4113,-35.366,6.1121],[138.3914,-35.3688,14.1027],[138.3849,-35.3736,2.2649],[138.3812,-35.371,0.0],[138.3627,-35.3785,4.8672],[138.3592,-35.383,30.9545],[138.3475,-35.3906,43.2729],[138.3412,-35.3929,0.0],[138.3322,-35.4027,0.0],[138.3263,-35.4172,0.0],[138.3236,-35.4195,1.4139],[138.3198,-35.4279,0.0],[138.3043,-35.45,10.9037],[138.2958,-35.4663,3.6696],[138.2901,-35.4725,1.5633],[138.2817,-35.4759,3.6074],[138.2603,-35.4908,2.3592],[138.2476,-35.497,0.3149],[138.2425,-35.502,5.2551],[138.2377,-35.5022,0.0],[138.2298,-35.5056,0.0],[138.2239,-35.5102,49.057],[138.218,-35.5114,17.4479],[138.2144,-35.5098,0.0],[138.2129,-35.5128,0.0],[138.1944,-35.5235,2.2603],[138.1874,-35.5239,3.2614],[138.1832,-35.5214,8.4658],[138.1692,-35.5183,34.3972],[138.1655,-35.5194,1.5568],[138.1611,-35.5275,0.7329],[138.1534,-35.5319,0.0],[138.1508,-35.537,4.9847],[138.1274,-35.5554,73.2231],[138.1217,-35.5642,16.347],[138.117,-35.5769,19.5765],[138.115,-35.578,25.9611],[138.1155,-35.5819,23.2037],[138.1095,-35.5891,0.0],[138.1087,-35.5925,19.587],[138.0961,-35.6003,1.7257],[138.0939,-35.6034,2.8135],[138.0961,-35.614,1.2799],[138.0962,-35.6252,8.2105],[138.1037,-35.6318,1.1247],[138.1156,-35.6327,9.1736],[138.1182,-35.6376,0.0],[138.1248,-35.6403,1.9074],[138.1286,-35.6454,4.2516],[138.1358,-35.6451,27.2833],[138.1397,-35.6495,23.4531],[138.1429,-35.6493,26.785],[138.1438,-35.6519,3.7611],[138.1493,-35.6549,0.0],[138.1556,-35.6542,12.9723],[138.1569,-35.6582,0.0],[138.1644,-35.6612,37.2918],[138.1716,-35.6606,37.4901],[138.1772,-35.6636,8.154],[138.1797,-35.6623,49.5084],[138.1853,-35.6647,0.0],[138.1914,-35.6651,0.0],[138.2011,-35.6631,0.0],[138.2102,-35.6633,0.0],[138.2175,-35.6607,22.379],[138.2224,-35.6621,7.9792],[138.2265,-35.6593,46.9123],[138.2274,-35.6607,2.3134],[138.2321,-35.6596,0.0],[138.2402,-35.6545,86.4539],[138.2433,-35.6554,0.0],[138.2455,-35.6531,0.0],[138.2472,-35.6538,0.0],[138.2556,-35.6496,0.0],[138.2634,-35.6422,8.8651],[138.2757,-35.6394,17.0968],[138.2836,-35.6389,3.8057],[138.288,-35.6402,0.0],[138.3,-35.6382,0.0],[138.3589,-35.64,0.0],[138.3679,-35.6423,0.0],[138.3739,-35.6398,0.0],[138.3867,-35.6387,0.0],[138.3896,-35.6402,0.0],[138.3995,-35.6404,0.0],[138.4011,-35.6385,0.8936],[138.4037,-35.6403,0.0],[138.41,-35.6406,5.2971],[138.4277,-35.6303,0.0],[138.4373,-35.6299,0.0],[138.4415,-35.6054,127.3532],[138.4442,-35.6057,146.1838],[138.4414,-35.5981,177.9099],[138.4451,-35.5906,222.664],[138.4417,-35.5798,266.639],[138.4585,-35.5689,288.7589],[138.4497,-35.5603,292.2485],[138.4423,-35.5469,312.7248],[138.441,-35.5402,295.0821],[138.4519,-35.5402,188.702],[138.4509,-35.5323,144.0331],[138.452,-35.5308,135.7549],[138.4673,-35.5312,107.6052],[138.4717,-35.5327,102.7329],[138.4678,-35.5281,117.7652],[138.4736,-35.5282,170.2442],[138.4748,-35.5007,112.7179],[138.4739,-35.4905,92.3274],[138.4711,-35.4872,113.8944],[138.4715,-35.4761,137.266],[138.4741,-35.474,140.4737],[138.4711,-35.4715,118.2418],[138.4694,-35.4661,173.3928],[138.4656,-35.4686,167.8233],[138.456,-35.4687,236.6261],[138.4513,-35.461,369.5418],[138.454,-35.459,369.8257],[138.4554,-35.455,371.4006],[138.4614,-35.4509,366.4171],[138.4629,-35.4482,370.3955],[138.4624,-35.4422,397.5011],[138.4704,-35.437,406.8408],[138.4794,-35.4351,407.1472],[138.4823,-35.4321,426.2405],[138.485,-35.4267,415.699],[138.4863,-35.4184,421.4042],[138.4939,-35.4152,432.0797],[138.4949,-35.4171,420.5518],[138.4966,-35.4162,412.5061],[138.4988,-35.418,419.5],[138.5001,-35.4169,429.166],[138.504,-35.4184,410.3215],[138.5087,-35.418,402.5515],[138.5121,-35.4135,409.9049],[138.5173,-35.4122,361.0332],[138.5196,-35.4086,333.4761],[138.5264,-35.4076,343.02],[138.5248,-35.403,314.2984],[138.5262,-35.4021,336.945],[138.5379,-35.3996,323.2334],[138.54,-35.3998,330.8372],[138.5413,-35.4032,346.4688],[138.5469,-35.4008,351.7412],[138.551,-35.3967,352.9987],[138.5566,-35.3956,365.3197],[138.5598,-35.3969,391.5102],[138.5606,-35.3951,401.5159],[138.5685,-35.3966,389.5907],[138.5772,-35.3898,391.6142],[138.5842,-35.3897,391.0337],[138.5872,-35.3818,384.8337],[138.5823,-35.3775,384.5977],[138.5877,-35.3743,362.8686],[138.5907,-35.3696,330.0502],[138.5862,-35.3598,333.3534],[138.5871,-35.3562,351.4095],[138.5818,-35.3532,349.273],[138.5785,-35.3541,348.4391],[138.5758,-35.3514,329.1671],[138.5632,-35.3549,296.6445],[138.5591,-35.3544,284.831],[138.5408,-35.3617,277.365],[138.5396,-35.3598,262.9996],[138.5351,-35.3594,263.6297],[138.5373,-35.3552,273.44],[138.5253,-35.3553,292.365],[138.5264,-35.3539,276.6367],[138.5251,-35.3412,274.7955],[138.5198,-35.3404,296.3951],[138.5157,-35.3372,289.9051],[138.5215,-35.3291,344.8614],[138.5201,-35.3241,352.0155],[138.5163,-35.3227,355.0435]]]]}}