{"type":"Feature","properties":{"GID_2":"AUS.11.6_1","GID_0":"AUS","country":"Australia","GID_1":"AUS.11_1","state":"WesternAustralia","NL_NAME_1":"NA","county":"Bayswater","VARNAME_2":"NA","NL_NAME_2":"NA","TYPE_2":"City","ENGTYPE_2":"City","CC_2":"50420","HASC_2":"AU.WA.BW","name":"Bayswater.county"},
"geometry":{"type": "MultiPolygon","coordinates": [[[[115.9334,-31.8875,25.2465],[115.9334,-31.8718,26.6094],[115.8794,-31.8718,36.6787],[115.8795,-31.8795,33.2364],[115.8923,-31.8904,29.5519],[115.8871,-31.8948,27.7973],[115.8911,-31.8981,28.1961],[115.8806,-31.9085,28.2986],[115.8934,-31.9195,23.8843],[115.8911,-31.9235,29.8803],[115.8851,-31.9277,31.1434],[115.8885,-31.9306,23.4414],[115.8807,-31.9348,24.8231],[115.8787,-31.9377,20.7514],[115.8815,-31.9363,22.646],[115.8815,-31.938,16.771],[115.8917,-31.9369,4.0154],[115.8986,-31.9424,0.4861],[115.8967,-31.9485,0.0],[115.8984,-31.9507,4.6055],[115.9025,-31.9521,1.6362],[115.9108,-31.9514,1.6032],[115.9156,-31.9482,1.4456],[115.9076,-31.9395,0.5615],[115.9102,-31.9337,0.8368],[115.9174,-31.9312,8.1642],[115.9328,-31.9308,0.7001],[115.9373,-31.9294,3.7351],[115.9387,-31.9245,4.0638],[115.9349,-31.9212,12.8588],[115.9366,-31.9198,13.0807],[115.9257,-31.9096,23.1738],[115.9276,-31.9081,25.835],[115.9278,-31.9012,24.7718],[115.9314,-31.9013,24.6786],[115.9329,-31.8948,24.4904],[115.9318,-31.8879,26.0693],[115.9334,-31.8875,25.2465]]]]}}