{"type":"Feature","properties":{"ISO3166-1-Alpha-3":"AUS","country":"Australia","fill":"#F00","id":"2655","name":"South Australia"},
"geometry":{"type": "MultiPolygon","coordinates": [[[[137.62289,-35.58213,18.9582],[137.60206,-35.59043,15.0162],[137.58676,-35.58359,114.0457],[137.56886,-35.58554,118.1888],[137.53305,-35.59661,27.5712],[137.51612,-35.59832,12.6228],[137.48976,-35.59612,88.3802],[137.47234,-35.59661,109.3185],[137.45379,-35.60809,52.8041],[137.445,-35.61094,94.4879],[137.43588,-35.61061,81.672],[137.35222,-35.58563,0.0],[137.33513,-35.58294,15.6665],[137.31821,-35.58733,62.1761],[137.30502,-35.59775,156.2449],[137.29298,-35.60914,153.4901],[137.27996,-35.61696,205.5111],[137.14389,-35.6443,71.6695],[137.09392,-35.6657,57.626],[137.07447,-35.67164,27.5983],[136.80519,-35.70794,91.2088],[136.79575,-35.71168,127.7053],[136.78028,-35.7208,64.3013],[136.76808,-35.7243,119.6862],[136.73862,-35.72682,226.9678],[136.69125,-35.74603,225.5242],[136.6211,-35.75123,106.5592],[136.59783,-35.7575,161.0703],[136.58155,-35.76849,133.2696],[136.57895,-35.77752,125.8473],[136.58237,-35.79697,124.545],[136.57789,-35.80633,97.6344],[136.57179,-35.81276,129.3205],[136.56625,-35.82057,0.0],[136.56202,-35.82952,75.7972],[136.55763,-35.85426,21.6403],[136.55152,-35.86142,63.5733],[136.54461,-35.86533,58.4783],[136.54005,-35.87029,51.7151],[136.53736,-35.88226,30.341],[136.53688,-35.90211,0.0],[136.53256,-35.91188,0.0],[136.59132,-35.95664,0.0],[136.60548,-35.96315,0.0],[136.64291,-35.96852,0.0],[136.65675,-35.97389,0.0],[136.68523,-36.00701,0.0],[136.69874,-36.02654,0.0],[136.7046,-36.03875,0.0],[136.70729,-36.0569,11.5384],[136.71559,-36.06276,0.0],[136.72853,-36.0608,0.0],[136.7461,-36.05584,0.0],[136.75847,-36.05495,0.0],[136.76515,-36.05722,0.0],[136.77182,-36.05608,0.0],[136.78338,-36.04567,0.0],[136.79135,-36.04192,0.0],[136.80291,-36.04119,0.0],[136.82472,-36.04225,0.0],[136.83326,-36.03997,0.0],[136.85076,-36.03045,0.0],[136.86215,-36.0285,0.0],[136.86948,-36.03053,0.0],[136.88941,-36.04225,0.0],[136.92042,-36.04949,0.0],[136.95191,-36.04608,0.0],[137.01979,-36.02174,0.0],[137.03028,-36.03338,0.0],[137.0442,-36.0346,0.0],[137.07447,-36.0285,0.0],[137.09213,-36.03069,0.0],[137.12428,-36.04013,0.0],[137.1399,-36.04225,0.0],[137.17123,-36.03362,0.0],[137.181,-36.01409,0.0],[137.188,-35.9931,0.0],[137.21168,-35.98016,0.0],[137.22788,-35.97975,0.0],[137.2435,-35.98309,0.0],[137.29029,-35.99879,0.0],[137.33855,-36.00123,0.0],[137.3711,-36.01084,0.0],[137.41586,-36.05543,0.0],[137.445,-36.06951,0.0],[137.45924,-36.0827,0.0],[137.49317,-36.07041,0.0],[137.55421,-36.03533,0.0],[137.60231,-36.02581,0.0],[137.6089,-36.018,0.0],[137.61109,-36.0136,0.0],[137.61573,-36.00758,0.0],[137.62037,-36.0001,0.0],[137.62257,-35.99082,0.0],[137.62062,-35.98268,0.0],[137.61647,-35.97698,8.6927],[137.61183,-35.9721,4.9858],[137.6089,-35.96649,0.0],[137.60694,-35.94394,0.0],[137.61329,-35.92425,0.0],[137.62875,-35.91033,0.0],[137.67335,-35.90203,0.0],[137.75668,-35.87151,0.0],[137.79713,-35.86484,0.0],[137.82179,-35.86403,0.0],[137.84498,-35.86663,0.0],[137.87428,-35.87689,0.0],[137.88998,-35.8777,0.0],[137.91293,-35.87526,0.0],[137.93247,-35.87526,0.0],[137.95053,-35.88079,0.0],[137.98316,-35.90447,0.0],[138.00375,-35.91351,0.0],[138.0267,-35.91912,0.0],[138.0477,-35.91863,0.0],[138.05983,-35.90976,0.0],[138.08676,-35.87737,0.0],[138.09889,-35.87029,0.0],[138.12582,-35.86395,0.0],[138.12818,-35.84881,0.0],[138.12355,-35.83099,0.0],[138.12965,-35.81634,0.0],[138.11012,-35.8165,86.6477],[138.094,-35.81463,67.3946],[138.08033,-35.80926,11.0837],[138.07439,-35.79925,2.2061],[138.06691,-35.76629,35.3461],[138.06471,-35.761,95.3013],[138.04811,-35.7575,163.1836],[138.00685,-35.74041,167.1478],[137.96559,-35.73024,130.0044],[137.93556,-35.7265,89.6694],[137.90854,-35.7291,79.4519],[137.89682,-35.74432,53.3372],[137.8934,-35.76247,21.113],[137.88445,-35.77923,40.9794],[137.87135,-35.79306,48.0642],[137.85597,-35.80267,19.6299],[137.8353,-35.80926,16.3951],[137.81275,-35.81146,4.2309],[137.79444,-35.80478,16.5085],[137.78696,-35.78525,0.0],[137.78858,-35.77288,0.0],[137.79127,-35.76458,34.694],[137.79176,-35.75726,57.7486],[137.78696,-35.74798,86.1061],[137.77849,-35.73952,32.5258],[137.77223,-35.73943,46.1767],[137.7649,-35.74358,63.4536],[137.75278,-35.74798,103.3474],[137.7116,-35.75628,71.3793],[137.68605,-35.7575,68.3051],[137.64601,-35.74236,1.6535],[137.62379,-35.74456,2.5182],[137.60182,-35.74391,6.0915],[137.58082,-35.72682,0.0],[137.62403,-35.68727,0.0],[137.64772,-35.65944,0.0],[137.64715,-35.65407,0.0],[137.63282,-35.65179,27.7204],[137.59864,-35.65179,36.3204],[137.58155,-35.64544,4.9327],[137.58334,-35.63128,0.0],[137.59799,-35.61728,0.0],[137.6194,-35.61094,0.0],[137.63364,-35.60377,0.0],[137.63429,-35.59051,0.0],[137.62289,-35.58213,18.9582]]],
[[[136.49855,-35.17205,0.0],[136.48797,-35.1574,5.2476],[136.47633,-35.14471,0.0],[136.4629,-35.13974,0.0],[136.44728,-35.14813,37.1908],[136.43995,-35.16172,0.0],[136.44752,-35.16937,0.0],[136.4642,-35.17254,0.0],[136.48487,-35.17205,66.0167],[136.4922,-35.17889,0.0],[136.49855,-35.17205,0.0]]],
[[[136.2059,-35.07138,0.0],[136.20655,-35.06121,0.0],[136.20484,-35.04909,0.0],[136.19972,-35.03281,0.0],[136.19361,-35.02581,0.0],[136.18507,-35.02117,38.1851],[136.17359,-35.01133,54.7226],[136.12696,-34.94842,0.0],[136.11166,-34.93922,1.0831],[136.08611,-34.94817,19.8659],[136.09929,-34.96819,0.0],[136.14283,-35.00066,0.0],[136.15056,-35.02467,14.0938],[136.15284,-35.04852,0.0],[136.16212,-35.06552,0.0],[136.1906,-35.06959,0.0],[136.20135,-35.07537,0.0],[136.2059,-35.07138,0.0]]],
[[[137.3672,-34.5241,0.0],[137.37379,-34.49822,1.3528],[137.36915,-34.47243,17.2674],[137.34409,-34.50075,26.9539],[137.33619,-34.51531,0.0],[137.34197,-34.52776,0.5436],[137.35483,-34.53802,0.0],[137.3672,-34.5241,0.0]]],
[[[134.49049,-33.77565,0.0],[134.51157,-33.74627,0.0],[134.52882,-33.74131,0.0],[134.54347,-33.74017,0.0],[134.55063,-33.73366,0.0],[134.5464,-33.71217,0.0],[134.542,-33.69997,0.0],[134.53956,-33.69647,0.0],[134.52898,-33.6985,40.1684],[134.5267,-33.69948,40.0791],[134.49928,-33.70534,19.9244],[134.48634,-33.71168,25.2123],[134.48455,-33.71649,22.7491],[134.48439,-33.72959,37.5676],[134.4826,-33.73797,32.0597],[134.47136,-33.76678,0.0],[134.47901,-33.78362,0.0],[134.49049,-33.77565,0.0]]],
[[[133.59783,-32.30885,0.0],[133.61012,-32.30755,0.0],[133.61264,-32.3034,0.0],[133.61622,-32.29437,0.0],[133.62257,-32.28509,0.0],[133.63396,-32.28021,0.0],[133.62916,-32.27532,0.0],[133.62037,-32.2597,0.0],[133.67555,-32.24538,0.0],[133.67555,-32.23935,0.0],[133.65065,-32.23943,3.8488],[133.6233,-32.24391,39.0255],[133.59799,-32.25115,0.0],[133.57936,-32.2597,2.494],[133.56039,-32.27459,31.6257],[133.54379,-32.29461,0.0],[133.54151,-32.3126,0.0],[133.56568,-32.32122,0.0],[133.59783,-32.30885,0.0]]],
[[[141.00011,-31.19866,90.3572],[141.00011,-30.88457,65.8425],[141.00011,-30.57054,53.389],[141.00011,-30.25634,89.797],[141.00011,-29.9422,91.5025],[141.00011,-29.62817,102.3617],[141.00011,-29.31408,119.5301],[141.00011,-28.99993,118.7589],[141.00011,-28.62497,102.0563],[141.00011,-28.2499,79.1001],[141.00011,-27.87494,77.6618],[141.00011,-27.49997,103.545],[141.00011,-27.12491,110.7653],[141.00011,-26.74994,84.1458],[141.00011,-26.37498,149.0326],[141.00011,-25.99991,89.8284],[141.0,-25.99991,89.8284],[140.99995,-25.99991,89.8284],[140.9999,-25.99991,89.8284],[140.9998,-25.99991,89.8284],[140.99975,-25.99991,89.8284],[140.99964,-25.99991,89.9974],[140.62473,-25.99991,101.0126],[140.24977,-25.99991,69.2761],[139.8748,-25.99991,62.067],[139.49994,-25.99991,40.5588],[139.12498,-25.99991,36.8042],[138.75006,-25.99991,41.8163],[138.37505,-25.99991,29.9907],[138.00019,-25.99991,18.253],[137.71891,-25.99991,43.5971],[137.43769,-25.99991,52.847],[137.15641,-25.99991,55.5333],[136.87519,-25.99991,70.5442],[136.59386,-25.99991,88.8282],[136.31269,-25.99991,93.9782],[136.03142,-25.99991,105.7743],[135.75019,-25.99991,123.9353],[135.46892,-25.99991,147.176],[135.1877,-25.99991,196.3795],[134.90642,-25.99991,201.6045],[134.6252,-25.99991,237.1205],[134.34392,-25.99991,315.1267],[134.06265,-25.99991,375.1564],[133.78143,-25.99991,465.9758],[133.5002,-25.99991,448.4794],[133.21893,-25.99991,516.3049],[132.93765,-25.99991,553.1338],[132.89291,-25.99991,549.6744],[132.65643,-25.99991,573.0686],[132.37521,-25.99991,603.499],[132.09393,-25.99991,613.8005],[131.81266,-25.99991,661.6552],[131.53143,-25.99991,659.412],[131.25021,-25.99991,631.7194],[130.96894,-25.99991,708.2729],[130.68766,-25.99991,655.9175],[130.40644,-25.99991,656.0937],[130.12522,-25.99991,1146.1725],[129.84394,-25.99991,740.8384],[129.56267,-25.99991,745.5155],[129.28144,-25.99991,689.8666],[129.00012,-25.99991,641.8019],[129.00012,-26.3557,548.0054],[129.00012,-26.71155,476.9335],[129.00012,-27.06734,425.6572],[129.00012,-27.42308,373.5773],[129.00012,-27.77882,364.198],[129.00012,-28.13461,309.0467],[129.00012,-28.49046,305.4224],[129.00012,-28.84625,282.1189],[129.00012,-29.20204,285.7111],[129.00012,-29.55778,201.4277],[129.00012,-29.91352,186.9059],[129.00012,-30.26931,179.0605],[129.00012,-30.62516,165.5584],[129.00012,-30.98095,146.9838],[129.00012,-31.33674,127.4252],[129.00012,-31.68922,0.0],[129.09311,-31.67742,0.0],[129.12371,-31.67889,0.0],[129.13836,-31.6775,0.0],[129.20045,-31.65643,34.9208],[129.22136,-31.65439,46.3324],[129.28663,-31.65643,0.0],[129.30836,-31.65472,0.0],[129.36549,-31.64332,0.0],[129.45118,-31.64332,0.0],[129.47104,-31.6408,0.0],[129.53688,-31.62225,75.525],[129.75318,-31.61549,0.0],[129.94361,-31.58929,62.2996],[130.07879,-31.59433,0.0],[130.13673,-31.57684,65.1325],[130.15691,-31.57391,68.6889],[130.26743,-31.57448,29.9565],[130.31186,-31.58554,0.0],[130.5477,-31.58563,55.6118],[130.69679,-31.60556,0.0],[130.79005,-31.60809,0.0],[130.83375,-31.60174,0.0],[130.9935,-31.55429,0.0],[131.0923,-31.49196,0.0],[131.13543,-31.47479,0.0],[131.1775,-31.47763,0.0],[131.34555,-31.53094,19.0172],[131.5359,-31.60556,26.4814],[131.78297,-31.7278,38.2751],[131.92311,-31.82399,3.4238],[132.07789,-31.90781,50.2115],[132.10743,-31.93239,55.8749],[132.16163,-31.99163,43.3114],[132.19459,-32.01784,3.2699],[132.23373,-32.03297,0.0],[132.27809,-32.03802,0.0],[132.32618,-32.03314,0.0],[132.37485,-32.01507,0.0],[132.3978,-32.01279,0.0],[132.4201,-32.01385,0.0],[132.44166,-32.01963,0.0],[132.46258,-32.0289,0.0],[132.47185,-32.03045,0.0],[132.48316,-32.02646,0.0],[132.47023,-32.00994,0.0],[132.45769,-31.99733,0.0],[132.45289,-31.98398,0.0],[132.46274,-31.96494,0.0],[132.47584,-31.95501,0.0],[132.49448,-31.9472,0.0],[132.51612,-31.94134,0.0],[132.56365,-31.93418,0.0],[132.58725,-31.93475,0.0],[132.65895,-31.94931,39.1371],[132.70484,-31.95208,22.763],[132.7527,-31.94948,3.7373],[132.77622,-31.95086,11.3275],[132.79802,-31.95631,14.9722],[132.84409,-31.99066,5.2513],[132.86883,-32.01531,0.0],[132.93426,-32.0617,0.0],[132.95297,-32.06732,0.0],[132.96608,-32.07317,0.0],[132.9712,-32.08652,0.0],[132.97316,-32.10068,0.0],[132.97657,-32.10898,0.0],[132.9878,-32.11142,0.0],[132.99627,-32.10662,0.0],[133.00343,-32.0997,0.0],[133.01075,-32.09531,0.0],[133.03395,-32.0971,0.0],[133.05567,-32.10817,0.0],[133.13429,-32.17718,0.0],[133.14283,-32.18776,17.456],[133.14568,-32.19378,5.2169],[133.1478,-32.19671,0.0],[133.1548,-32.19769,0.0],[133.16188,-32.1959,0.0],[133.18067,-32.1867,0.0],[133.19264,-32.18467,0.0],[133.20232,-32.1867,0.0],[133.22429,-32.19557,0.0],[133.24488,-32.2011,10.5307],[133.26222,-32.21575,0.0],[133.27084,-32.21885,0.0],[133.27947,-32.21494,0.0],[133.30551,-32.19085,0.0],[133.32602,-32.19948,0.0],[133.35678,-32.20599,0.0],[133.41179,-32.21136,0.0],[133.4214,-32.20818,0.0],[133.42709,-32.20135,0.0],[133.43133,-32.19443,0.0],[133.43588,-32.19085,0.0],[133.4485,-32.19207,0.0],[133.4642,-32.20257,0.0],[133.47348,-32.20517,0.0],[133.49431,-32.19964,0.0],[133.49073,-32.18694,0.0],[133.47267,-32.17303,1.5772],[133.45037,-32.16351,0.0],[133.42677,-32.1609,0.4703],[133.41822,-32.15691,0.9508],[133.41481,-32.14642,0.0],[133.41871,-32.13348,0.0],[133.42799,-32.13014,5.6913],[133.43946,-32.13063,0.0],[133.45037,-32.12949,1.0384],[133.47682,-32.11191,0.0],[133.48666,-32.11484,0.516],[133.49057,-32.13934,0.0],[133.49635,-32.14471,0.6716],[133.50929,-32.15252,0.8061],[133.55201,-32.1723,0.0],[133.56137,-32.17213,0.0],[133.57252,-32.16351,0.0],[133.57984,-32.1443,0.0],[133.58139,-32.12176,0.0],[133.58619,-32.10312,0.0],[133.60328,-32.09531,0.0],[133.62379,-32.09686,0.0],[133.64918,-32.10166,0.0],[133.67123,-32.11004,0.0],[133.68238,-32.12265,11.2088],[133.67872,-32.12998,11.2375],[133.66944,-32.13649,3.7386],[133.66212,-32.14373,2.5436],[133.66489,-32.15325,0.0],[133.67416,-32.15838,0.0],[133.68434,-32.16009,0.0],[133.69264,-32.16351,12.7228],[133.69606,-32.17409,20.7215],[133.69435,-32.1858,17.2686],[133.69207,-32.18939,16.69],[133.69361,-32.19109,21.8014],[133.70346,-32.19769,0.0],[133.71258,-32.20184,0.0],[133.73504,-32.2077,0.1124],[133.75457,-32.21575,0.0],[133.76075,-32.21649,8.1727],[133.76368,-32.22064,14.0158],[133.76539,-32.24798,15.8522],[133.7693,-32.25758,23.4374],[133.7767,-32.26426,0.0],[133.78883,-32.26653,0.0],[133.7951,-32.26279,0.0],[133.80242,-32.25457,0.0],[133.81227,-32.24717,0.0],[133.82643,-32.24538,1.9448],[133.83229,-32.24993,8.3708],[133.84742,-32.27337,0.0],[133.89503,-32.31365,2.5984],[133.90211,-32.32488,0.0],[133.9087,-32.34295,0.0],[133.93995,-32.37566,3.2223],[133.94996,-32.38942,2.2615],[133.94663,-32.40838,0.0],[133.92986,-32.42002,0.0],[133.9109,-32.42246,2.008],[133.90211,-32.414,1.3861],[133.89625,-32.39918,0.682],[133.88307,-32.41025,1.0616],[133.86915,-32.43255,2.0358],[133.86052,-32.45159,20.4247],[133.85914,-32.45908,12.6648],[133.86052,-32.48886,6.2001],[133.86158,-32.49481,33.6501],[133.86508,-32.50579,21.7139],[133.86394,-32.50954,27.162],[133.86118,-32.51336,29.2343],[133.85483,-32.52557,0.0],[133.85369,-32.52972,0.0],[133.8567,-32.54111,0.0],[133.86443,-32.54681,0.0],[133.87534,-32.54844,0.0],[133.88771,-32.54705,0.0],[133.90122,-32.54306,0.0],[133.90675,-32.5372,0.0],[133.90984,-32.52939,0.0],[133.91578,-32.51979,0.0],[133.9367,-32.50091,0.0],[133.95232,-32.49822,0.0],[133.96925,-32.5027,0.0],[133.99448,-32.50612,0.0],[134.00636,-32.49879,0.0],[134.01775,-32.4826,0.0],[134.03199,-32.4664,0.0],[134.05299,-32.45908,1.7578],[134.06324,-32.4616,3.4486],[134.08286,-32.47047,2.1042],[134.09051,-32.46852,0.0],[134.10027,-32.45965,0.0],[134.10865,-32.45436,2.0754],[134.11801,-32.45208,5.2564],[134.13111,-32.45159,9.5082],[134.14829,-32.45696,5.9553],[134.19565,-32.49586,0.0],[134.22983,-32.5237,7.298],[134.25408,-32.55429,7.3896],[134.27329,-32.58807,9.3473],[134.29664,-32.66033,13.2226],[134.29762,-32.67848,10.9962],[134.28354,-32.70224,5.5262],[134.27613,-32.72291,4.4235],[134.27149,-32.73211,14.8742],[134.26466,-32.73919,24.6393],[134.2448,-32.75262,14.7624],[134.23227,-32.76849,1.8569],[134.22633,-32.77972,0.0],[134.22071,-32.80397,5.9707],[134.21404,-32.80625,18.9264],[134.19972,-32.80096,6.92],[134.19695,-32.79559,0.659],[134.19549,-32.78297,0.0],[134.19532,-32.7693,0.0],[134.1963,-32.76002,0.0],[134.20037,-32.74928,2.0415],[134.2046,-32.74139,0.0],[134.21681,-32.72584,0.0],[134.19321,-32.72137,0.0],[134.1172,-32.71844,0.0],[134.08709,-32.71258,27.2289],[134.07407,-32.71396,25.7683],[134.06658,-32.72584,47.2539],[134.06959,-32.73309,6.2625],[134.10825,-32.77939,0.0],[134.12452,-32.8069,0.0],[134.13282,-32.83563,0.0],[134.12403,-32.85931,0.0],[134.115,-32.86639,0.0],[134.08709,-32.88291,47.1475],[134.07895,-32.8908,40.1266],[134.06764,-32.90635,0.0],[134.05983,-32.91082,0.0],[134.0687,-32.92929,0.0],[134.08253,-32.93597,0.0],[134.12062,-32.93816,0.0],[134.13868,-32.94948,0.0],[134.14861,-32.95184,0.0],[134.15187,-32.94915,0.0],[134.15675,-32.94354,0.0],[134.16407,-32.93865,0.0],[134.17514,-32.93816,0.0],[134.19068,-32.94647,0.0],[134.20436,-32.96217,14.1172],[134.21192,-32.98154,3.4941],[134.20997,-33.00018,2.7501],[134.1985,-33.01149,8.2663],[134.16481,-33.01832,64.7802],[134.14861,-33.02752,59.0643],[134.16033,-33.04013,5.9816],[134.17066,-33.04315,64.5366],[134.19972,-33.03997,0.0],[134.22145,-33.0416,0.0],[134.23373,-33.0473,0.0],[134.24195,-33.0582,23.6224],[134.26515,-33.10711,19.6606],[134.2697,-33.12566,9.0055],[134.27149,-33.14666,17.0148],[134.27882,-33.16269,63.0836],[134.33351,-33.20501,0.0],[134.3462,-33.19801,0.0],[134.35222,-33.18816,0.0],[134.35385,-33.17547,0.0],[134.35401,-33.16074,0.0],[134.35914,-33.15399,0.0],[134.36964,-33.16082,3.6058],[134.37843,-33.17197,8.8328],[134.37794,-33.17783,0.0],[134.40211,-33.17246,0.0],[134.42286,-33.16172,0.0],[134.44606,-33.15399,0.0],[134.47755,-33.15732,0.0],[134.54176,-33.19297,0.0],[134.58937,-33.20208,69.7946],[134.60483,-33.21266,72.0752],[134.62827,-33.24668,0.0],[134.63657,-33.23773,0.0],[134.64405,-33.23113,0.0],[134.65235,-33.22715,0.0],[134.66236,-33.22552,1.8476],[134.65504,-33.21673,0.0],[134.64601,-33.21168,0.0],[134.63844,-33.20582,0.0],[134.6351,-33.19451,28.3848],[134.63038,-33.18548,0.0],[134.61866,-33.18288,0.0],[134.59083,-33.18467,0.0],[134.57439,-33.17685,0.0],[134.57065,-33.16041,0.0],[134.58155,-33.14593,1.3892],[134.60776,-33.14365,2.9029],[134.67018,-33.1618,2.0998],[134.69321,-33.16416,9.0267],[134.70623,-33.17295,2.3346],[134.71925,-33.19264,1.891],[134.72869,-33.21347,5.9191],[134.73072,-33.22552,3.1072],[134.71608,-33.22845,0.0],[134.69239,-33.22861,0.7962],[134.67661,-33.23333,3.093],[134.68605,-33.2501,0.0],[134.69614,-33.25677,12.8328],[134.71974,-33.26678,0.0],[134.73072,-33.27337,0.0],[134.7649,-33.30804,9.8398],[134.799,-33.33603,0.0],[134.81398,-33.3528,2.5268],[134.82423,-33.393,0.0],[134.85426,-33.45892,3.3424],[134.86101,-33.47942,6.6883],[134.86524,-33.49977,7.6542],[134.86793,-33.54461,11.5618],[134.86264,-33.56504,14.7286],[134.85304,-33.58408,6.9316],[134.84734,-33.60272,4.5313],[134.85426,-33.62274,2.3078],[134.84083,-33.63128,0.0],[134.84986,-33.63836,0.0],[134.88209,-33.65065,2.0698],[134.88819,-33.657,33.557],[134.90553,-33.68125,0.0],[134.91285,-33.68711,0.0],[134.93621,-33.70192,0.0],[134.94557,-33.7112,0.0],[135.00506,-33.74627,0.0],[135.0643,-33.79437,0.0],[135.13852,-33.86907,0.0],[135.15431,-33.87933,0.0],[135.17701,-33.88348,0.0],[135.18979,-33.893,3.4214],[135.21795,-33.95233,0.0],[135.2461,-33.98056,0.0],[135.25953,-33.99798,0.0],[135.26515,-34.01751,0.0],[135.26515,-34.06219,0.0],[135.26743,-34.07285,0.0],[135.27052,-34.08196,0.0],[135.27117,-34.09157,0.0],[135.26515,-34.1032,0.0],[135.27312,-34.1159,0.0],[135.26547,-34.12705,9.5274],[135.24903,-34.13454,0.0],[135.23097,-34.13681,0.0],[135.23748,-34.14886,0.0],[135.24537,-34.15936,0.0],[135.26515,-34.17832,0.0],[135.30128,-34.17978,5.4601],[135.32862,-34.22129,37.2831],[135.34645,-34.27557,0.0],[135.36134,-34.40789,0.0],[135.36606,-34.42197,49.7327],[135.38844,-34.45143,48.2003],[135.39552,-34.47243,70.635],[135.39584,-34.48333,36.7769],[135.39487,-34.49505,2.5688],[135.39161,-34.50416,4.576],[135.37696,-34.51263,0.0],[135.37664,-34.52313,0.0],[135.37973,-34.53346,0.0],[135.38185,-34.53802,0.0],[135.38258,-34.5473,0.0],[135.38502,-34.55877,0.0],[135.38917,-34.56927,0.0],[135.39552,-34.5761,1.1462],[135.40496,-34.58034,0.3568],[135.40659,-34.57757,1.4418],[135.40789,-34.57041,3.2495],[135.41603,-34.56178,0.0],[135.41871,-34.55779,0.0],[135.42807,-34.54892,0.0],[135.43849,-34.54567,0.5118],[135.44321,-34.55877,0.0],[135.44223,-34.56894,0.0],[135.438,-34.58856,13.0503],[135.43702,-34.59979,34.4784],[135.48113,-34.60565,0.0],[135.50359,-34.61191,0.0],[135.49789,-34.62396,1.0889],[135.43605,-34.63291,0.0],[135.41554,-34.64227,23.4504],[135.40577,-34.64446,3.2944],[135.39129,-34.63958,0.0],[135.37086,-34.62819,11.3277],[135.35157,-34.61468,16.7611],[135.34083,-34.60345,7.0225],[135.35548,-34.59238,0.0],[135.34913,-34.58571,2.4328],[135.31967,-34.5761,15.5052],[135.30633,-34.56341,16.7289],[135.30274,-34.55071,0.0],[135.30934,-34.53867,0.0],[135.32716,-34.52776,0.0],[135.31398,-34.52353,0.0699],[135.2422,-34.50986,8.005],[135.22478,-34.50433,6.6175],[135.21372,-34.49236,1.0704],[135.20981,-34.46941,1.3012],[135.21754,-34.44687,0.0],[135.21852,-34.43613,0.0],[135.20981,-34.43157,0.0],[135.20045,-34.43564,32.3459],[135.19606,-34.44508,34.3361],[135.19361,-34.45648,32.0054],[135.18995,-34.46624,31.8577],[135.17709,-34.47967,24.8025],[135.16383,-34.48943,6.0835],[135.15317,-34.50221,14.9413],[135.1491,-34.52467,6.3537],[135.14096,-34.54095,26.0723],[135.10987,-34.5783,0.0],[135.10808,-34.59596,0.0],[135.12135,-34.60442,0.0],[135.13893,-34.59637,0.0],[135.15724,-34.58318,0.0],[135.17335,-34.5761,0.0],[135.19402,-34.57317,0.0],[135.21217,-34.5678,0.0],[135.23048,-34.56504,0.0],[135.25148,-34.56992,0.0],[135.28785,-34.59246,0.0],[135.3235,-34.62078,0.0],[135.3401,-34.63812,0.0],[135.3423,-34.6513,0.0],[135.31967,-34.68597,0.0],[135.3322,-34.68987,0.0],[135.35987,-34.68524,0.0],[135.37159,-34.68914,0.0],[135.3838,-34.69647,0.0],[135.42954,-34.71266,5.204],[135.45753,-34.73154,0.0],[135.47641,-34.74977,0.0],[135.51222,-34.79518,0.0],[135.60401,-34.88014,6.6192],[135.62208,-34.91131,0.0],[135.62241,-34.92213,12.9743],[135.62159,-34.93597,62.0748],[135.62355,-34.94793,0.0],[135.63258,-34.95289,0.0],[135.68067,-34.95289,0.0],[135.6902,-34.9485,0.0],[135.68979,-34.93816,8.2284],[135.68572,-34.92653,51.4631],[135.68409,-34.91815,19.5058],[135.69011,-34.91676,0.0],[135.69459,-34.91497,0.0],[135.69776,-34.91131,0.0],[135.70395,-34.8908,35.1906],[135.74147,-34.86102,0.0],[135.78273,-34.8576,48.6226],[135.82228,-34.87428,0.0],[135.85475,-34.90504,0.0],[135.85865,-34.91497,84.0156],[135.85963,-34.92344,0.0],[135.86402,-34.92946,0.0],[135.87867,-34.93182,0.0],[135.9026,-34.94329,0.0],[135.91285,-34.94549,0.0],[135.9275,-34.95517,0.0],[135.94516,-34.99774,48.1058],[135.96461,-35.0075,0.0],[135.97731,-34.997,0.0],[136.0031,-34.99082,0.0],[136.01246,-34.97967,0.0],[136.00034,-34.96575,0.0],[135.99838,-34.96217,0.0],[135.99789,-34.94671,0.0],[135.99879,-34.94549,0.0],[135.96949,-34.87664,0.0],[135.97202,-34.8624,0.0],[135.98276,-34.85019,0.0],[135.99879,-34.83563,0.0],[136.01222,-34.81845,0.0],[136.01808,-34.80136,0.0],[136.0193,-34.75742,0.0],[136.01637,-34.74407,0.0],[136.00904,-34.73675,0.0],[135.99977,-34.73512,10.4088],[135.99138,-34.74,24.7693],[135.98854,-34.74879,0.0],[135.99049,-34.77125,10.9801],[135.98512,-34.78094,6.5917],[135.9734,-34.78607,0.0],[135.96632,-34.78053,0.0],[135.95924,-34.77191,42.7338],[135.94703,-34.76735,15.47],[135.94191,-34.77044,8.2704],[135.90496,-34.80389,12.599],[135.88697,-34.81325,24.2036],[135.86736,-34.81943,14.3462],[135.84742,-34.82195,26.5234],[135.81837,-34.82171,42.8283],[135.80519,-34.81699,29.1498],[135.79949,-34.80527,0.0],[135.80388,-34.79925,0.0],[135.82252,-34.78769,0.0],[135.82691,-34.77752,0.0],[135.8379,-34.7667,0.0],[135.86118,-34.76946,0.0],[135.88299,-34.76849,0.0],[135.88893,-34.74684,2.6762],[135.88315,-34.73545,0.0],[135.86492,-34.71868,0.0],[135.86101,-34.70965,0.0],[135.86207,-34.69817,0.0],[135.86736,-34.67881,0.0],[135.86842,-34.66863,0.0],[135.87477,-34.64373,0.0],[135.8908,-34.63112,0.0],[135.91098,-34.6334,0.0],[135.93051,-34.65252,0.0],[135.94361,-34.63747,0.0],[135.93971,-34.62005,0.0],[135.91627,-34.58978,0.0],[135.92433,-34.57887,0.0],[135.93043,-34.549,0.0],[135.93678,-34.5346,0.0],[135.95143,-34.52068,0.0],[135.96608,-34.51556,0.0],[135.99138,-34.51344,7.5512],[136.04282,-34.4865,0.0],[136.06935,-34.48187,4.7407],[136.08074,-34.50416,5.1957],[136.08717,-34.5324,11.1951],[136.10141,-34.53484,0.0],[136.11573,-34.51678,0.0],[136.12233,-34.48333,0.0],[136.12485,-34.45289,0.0],[136.12233,-34.44215,0.0],[136.11166,-34.42816,9.9608],[136.11085,-34.41758,0.0],[136.12037,-34.40862,0.0],[136.12664,-34.39837,0.0],[136.11476,-34.38372,0.0],[136.13803,-34.35475,0.0],[136.19923,-34.33099,0.0],[136.23219,-34.30869,0.0],[136.29347,-34.20892,19.7523],[136.31813,-34.18548,0.0],[136.32781,-34.15781,8.7389],[136.33424,-34.14821,0.0],[136.34864,-34.13323,0.0],[136.35434,-34.12428,0.0],[136.35719,-34.1137,0.0],[136.35808,-34.09336,0.0],[136.36199,-34.0827,0.0],[136.3694,-34.07342,0.0],[136.43165,-34.02703,0.0],[136.45118,-34.01784,0.0],[136.4935,-34.0097,0.0],[136.51124,-33.99822,0.0],[136.54005,-33.97283,0.0],[136.58155,-33.94891,0.0],[136.58253,-33.92848,0.0],[136.58522,-33.92181,0.0],[136.59132,-33.91448,0.0],[136.60743,-33.90293,0.0],[136.67042,-33.88348,0.0],[136.69565,-33.872,0.0],[136.70118,-33.87038,0.0],[136.71111,-33.86614,0.0],[136.72478,-33.84686,0.0],[136.7352,-33.84246,0.0],[136.76124,-33.83856,0.0],[136.77711,-33.82936,7.8697],[136.79005,-33.81813,0.0],[136.80747,-33.80836,0.0],[136.83107,-33.80462,0.0],[136.85548,-33.80486,0.0],[136.87892,-33.8025,0.0],[136.89942,-33.79095,0.0],[136.91236,-33.78094,0.0],[136.96461,-33.75311,0.0],[136.94654,-33.75123,1.4126],[136.88941,-33.77044,0.0],[136.88697,-33.76556,0.0],[136.88315,-33.75482,0.0],[136.88315,-33.74432,0.0],[136.89259,-33.73943,0.0],[136.90024,-33.73748,0.0],[136.9109,-33.73211,0.0],[136.92018,-33.72454,0.0],[136.92433,-33.71551,0.0],[136.93043,-33.69256,0.0],[136.94557,-33.68231,0.0],[136.96534,-33.6845,0.0],[136.98512,-33.6985,0.5613],[136.99008,-33.70713,0.0],[136.99098,-33.71356,0.0],[136.99391,-33.71941,1.8381],[137.00554,-33.72633,0.0],[137.01319,-33.72942,0.0],[137.02019,-33.73016,0.0],[137.08351,-33.71649,0.0],[137.1325,-33.71217,0.0],[137.15504,-33.70574,0.0],[137.18434,-33.6775,0.0],[137.20143,-33.67116,0.0],[137.22486,-33.65325,0.0],[137.25164,-33.61248,0.0],[137.30567,-33.4992,0.5884],[137.31666,-33.48122,0.0],[137.35922,-33.43125,0.7184],[137.36964,-33.41326,0.0],[137.37672,-33.38991,1.7414],[137.38299,-33.31146,0.0],[137.38803,-33.29388,1.2754],[137.43434,-33.22186,1.844],[137.4406,-33.20469,0.9839],[137.44402,-33.18515,0.0],[137.445,-33.16074,0.0],[137.45216,-33.14007,0.0],[137.46974,-33.12811,1.2546],[137.49195,-33.11956,1.5491],[137.51271,-33.10882,1.8866],[137.59034,-33.03484,20.9716],[137.59506,-33.02752,-0.2102],[137.5962,-33.01963,0.0],[137.59449,-32.99912,4.0573],[137.59506,-32.99277,6.486],[137.60922,-32.9778,1.7816],[137.63209,-32.96152,2.8613],[137.65626,-32.95135,1.0989],[137.674,-32.95525,2.0672],[137.70493,-32.97975,0.0],[137.72413,-32.98984,12.9613],[137.73308,-32.99179,17.1008],[137.7461,-32.99277,23.0673],[137.76979,-32.99082,12.6542],[137.77833,-32.98284,24.6274],[137.77516,-32.97047,11.5868],[137.75856,-32.94817,18.4508],[137.75416,-32.93808,12.6549],[137.75196,-32.92718,0.0],[137.75278,-32.91766,0.0],[137.76002,-32.90594,3.2011],[137.7658,-32.90781,8.4715],[137.77174,-32.91286,12.6723],[137.78012,-32.91082,13.7534],[137.78712,-32.90114,67.1312],[137.79607,-32.8777,0.0],[137.80437,-32.86614,0.0],[137.80828,-32.85801,0.0],[137.80926,-32.84694,3.3118],[137.80665,-32.77988,0.0],[137.80055,-32.73895,11.9496],[137.79656,-32.7265,0.0],[137.78981,-32.71307,0.0],[137.78004,-32.70241,0.0],[137.75392,-32.69345,7.7958],[137.75294,-32.68288,1.7113],[137.76026,-32.66033,0.0],[137.76222,-32.61761,1.582],[137.76043,-32.59352,14.8039],[137.75278,-32.5744,13.2856],[137.75758,-32.56024,3.3954],[137.7601,-32.54062,1.7261],[137.76441,-32.52418,0.0],[137.77394,-32.51979,1.451],[137.77906,-32.52549,1.3335],[137.78321,-32.54583,0.0],[137.78696,-32.55389,1.4653],[137.79428,-32.55731,1.3173],[137.80323,-32.55804,1.1431],[137.81275,-32.56024,0.0],[137.82179,-32.56829,1.6223],[137.80592,-32.58066,0.0],[137.80397,-32.59466,0.0],[137.8108,-32.60906,1.8745],[137.82179,-32.62282,1.7868],[137.84352,-32.64088,1.5373],[137.84913,-32.65016,0.0],[137.84978,-32.65879,0.0],[137.84498,-32.67636,0.0],[137.84571,-32.68125,0.0],[137.84816,-32.68548,1.1172],[137.84816,-32.68971,1.0973],[137.84767,-32.69394,1.4072],[137.84913,-32.69793,2.1341],[137.8519,-32.69891,3.2418],[137.86248,-32.69964,7.4403],[137.87322,-32.70501,3.2518],[137.88087,-32.70721,3.3902],[137.88746,-32.70989,2.0848],[137.88998,-32.71526,1.9033],[137.89682,-32.72161,38.0646],[137.93849,-32.75262,1.0643],[137.91334,-32.76523,1.9845],[137.90235,-32.77402,1.3766],[137.90235,-32.78753,0.0],[137.95777,-33.00465,1.6179],[137.96119,-33.00945,1.7261],[137.96925,-33.01727,3.7323],[137.97836,-33.02117,2.7333],[138.00082,-33.0202,4.2418],[138.0101,-33.0241,4.2091],[138.02052,-33.03655,2.7971],[138.02898,-33.05071,3.1098],[138.03549,-33.06609,2.8298],[138.04021,-33.08164,0.0],[138.04119,-33.08929,0.2634],[138.04021,-33.11224,0.0],[138.04176,-33.12054,0.0],[138.04396,-33.1251,0.0],[138.0433,-33.12982,2.5433],[138.03712,-33.13958,2.4286],[138.02516,-33.14853,0.9997],[138.01466,-33.14593,0.0],[138.00416,-33.13934,1.6416],[137.99244,-33.13551,0.4498],[137.98878,-33.13763,0.0],[137.97731,-33.14715,1.1516],[137.97267,-33.14983,0.9881],[137.96681,-33.14902,3.225],[137.95753,-33.14365,2.2771],[137.95216,-33.14365,0.0],[137.8943,-33.17929,2.1931],[137.85499,-33.19061,2.7438],[137.84083,-33.20599,2.0915],[137.83009,-33.22601,1.2425],[137.82179,-33.24668,2.9098],[137.81044,-33.25998,0.0],[137.81819,-33.29364,0.0],[137.84365,-33.32336,0.0],[137.86171,-33.34316,1.176],[137.86962,-33.35844,1.0934],[137.86467,-33.37408,0.0],[137.86234,-33.39601,0.0],[137.874,-33.4131,0.0],[137.88351,-33.42498,0.1502],[137.89253,-33.43847,0.6806],[137.90367,-33.456,0.4121],[137.91846,-33.48788,0.0],[137.92902,-33.51123,0.0],[137.93749,-33.52784,0.0],[137.93677,-33.55246,0.1377],[137.93066,-33.57797,0.0],[137.93328,-33.6032,3.7987],[137.93092,-33.61647,14.8885],[137.90606,-33.62757,0.2783],[137.89808,-33.61366,3.6909],[137.91007,-33.59624,0.7171],[137.90368,-33.58769,1.0328],[137.87884,-33.59787,1.4737],[137.86297,-33.62615,0.9542],[137.80055,-33.6985,2.8778],[137.79444,-33.6985,3.1525],[137.77662,-33.69354,0.0],[137.75196,-33.72617,2.0279],[137.71534,-33.78729,29.2721],[137.70411,-33.79315,30.2665],[137.65358,-33.83221,13.1545],[137.63111,-33.85768,23.3429],[137.61752,-33.86924,17.4909],[137.60206,-33.87664,8.9138],[137.60987,-33.88486,0.6277],[137.61817,-33.89137,0.0],[137.62525,-33.8991,0.0],[137.62941,-33.91082,0.1595],[137.62794,-33.9201,0.0],[137.62289,-33.93157,17.5895],[137.61508,-33.9415,11.7807],[137.59051,-33.95176,3.8413],[137.5713,-33.9664,0.083],[137.55274,-33.98455,0.0],[137.54054,-34.00075,2.5139],[137.53191,-34.01539,0.0],[137.53443,-34.018,0.0],[137.54054,-34.02752,0.0],[137.55161,-34.04957,0.0],[137.55372,-34.05869,0.0],[137.55421,-34.07204,9.8553],[137.54859,-34.08717,9.9997],[137.51954,-34.13787,1.8592],[137.50652,-34.15032,0.4961],[137.49464,-34.14886,0.868],[137.47055,-34.13787,1.5499],[137.46144,-34.1408,4.8361],[137.45558,-34.14837,0.9239],[137.4524,-34.15569,0.0],[137.45387,-34.164,0.0],[137.47413,-34.19297,0.0],[137.48316,-34.21461,0.0],[137.48911,-34.23773,0.0],[137.4922,-34.26019,0.0],[137.4922,-34.28248,0.0],[137.4839,-34.3554,5.7616],[137.47633,-34.37664,0.0],[137.47023,-34.38828,0.0],[137.46705,-34.39983,1.6841],[137.46485,-34.40423,1.8233],[137.46111,-34.40504,1.6531],[137.44874,-34.40325,7.1233],[137.445,-34.40423,1.8351],[137.4358,-34.4192,0.0],[137.41529,-34.46331,0.0],[137.41432,-34.47243,0.0],[137.43116,-34.46502,12.6488],[137.44483,-34.45184,0.0],[137.45948,-34.44752,0.0],[137.47853,-34.46624,0.0],[137.48243,-34.48398,0.0],[137.48024,-34.52654,0.0],[137.49399,-34.55413,4.7261],[137.49903,-34.58978,0.0],[137.51271,-34.61777,3.2972],[137.47853,-34.71266,0.0],[137.47771,-34.7247,0.0],[137.47926,-34.7492,10.6198],[137.47853,-34.76116,4.8324],[137.47438,-34.77264,2.1414],[137.45802,-34.80145,0.0],[137.45232,-34.84441,0.0],[137.45297,-34.8834,0.0],[137.44614,-34.91741,10.2057],[137.41774,-34.94549,3.84],[137.39129,-34.95403,5.6928],[137.37403,-34.94801,0.0],[137.35719,-34.9376,0.0],[137.30787,-34.92832,5.1717],[137.29713,-34.92018,8.8318],[137.28745,-34.91123,9.0097],[137.26686,-34.90504,22.3843],[137.22364,-34.907,6.0947],[137.1395,-34.92604,2.7533],[137.09498,-34.92498,1.5145],[137.03061,-34.89983,1.8305],[137.01979,-34.90146,7.3894],[137.01417,-34.9179,24.8572],[136.97145,-34.96592,8.3766],[136.98072,-34.98496,5.8981],[136.97576,-34.99676,12.8812],[136.95151,-35.01491,13.0859],[136.94125,-35.02988,57.0664],[136.94191,-35.03867,6.4971],[136.9489,-35.04746,6.6088],[136.95777,-35.06276,3.6701],[136.96266,-35.0818,5.1149],[136.96095,-35.09645,16.6964],[136.93971,-35.13201,5.3376],[136.93385,-35.14593,19.1722],[136.92986,-35.15154,25.3371],[136.92254,-35.15667,30.6877],[136.90431,-35.16579,19.0188],[136.89568,-35.17205,3.0946],[136.90309,-35.17889,18.7245],[136.88982,-35.18865,8.0977],[136.85548,-35.20469,17.8276],[136.84848,-35.21673,11.2898],[136.84636,-35.2265,0.0],[136.83709,-35.24131,14.3458],[136.83546,-35.24774,34.2897],[136.83937,-35.25612,39.3628],[136.85304,-35.26605,1.3499],[136.85597,-35.27109,10.9006],[136.87387,-35.29469,0.0],[136.91358,-35.29656,0.0],[136.95338,-35.28395,0.0],[136.98097,-35.2553,0.0],[137.03972,-35.22723,0.0],[137.06202,-35.22666,0.0],[137.12281,-35.2409,0.0],[137.1692,-35.24228,0.0],[137.19174,-35.22438,0.0],[137.20883,-35.19769,0.0],[137.23894,-35.17205,0.0],[137.261,-35.16579,0.0],[137.33204,-35.17205,0.0],[137.35076,-35.16611,0.0],[137.38356,-35.13616,0.0],[137.40349,-35.1242,0.0],[137.42555,-35.11826,0.0],[137.44418,-35.11639,0.0],[137.48194,-35.11736,0.0],[137.49106,-35.11924,0.0],[137.50896,-35.12786,0.0],[137.52019,-35.13104,0.0],[137.54957,-35.12965,0.0],[137.56105,-35.13104,0.0],[137.5818,-35.14039,0.0],[137.61988,-35.1666,0.0],[137.6714,-35.18084,0.0],[137.68458,-35.17889,0.0],[137.69361,-35.1723,0.0],[137.71876,-35.14471,0.0],[137.74724,-35.13299,0.0],[137.74952,-35.13104,0.0],[137.75082,-35.12607,0.0],[137.75278,-35.09319,0.0],[137.74692,-35.05885,0.0],[137.75221,-35.04795,0.0],[137.77394,-35.03484,0.0],[137.76612,-35.00807,0.0],[137.77442,-34.97625,0.0],[137.80055,-34.91815,0.0],[137.81332,-34.8742,0.0],[137.81479,-34.86012,0.0],[137.81918,-34.85125,0.0],[137.8379,-34.83074,0.0],[137.8423,-34.81894,0.0],[137.84596,-34.81194,0.0],[137.86402,-34.78672,0.0],[137.87013,-34.7741,0.0],[137.8733,-34.76019,0.0],[137.87908,-34.69061,21.0741],[137.88649,-34.6666,0.0],[137.89731,-34.6443,0.0],[137.91041,-34.62396,0.0],[137.88315,-34.58978,0.0],[137.88893,-34.58099,0.0],[137.89015,-34.56927,0.0],[137.88998,-34.54144,0.0],[137.89226,-34.52606,0.0],[137.92791,-34.42962,0.0],[137.93092,-34.41481,0.0],[137.99928,-34.35654,1.9152],[138.03777,-34.30804,0.0],[138.03614,-34.29892,0.0],[138.02996,-34.29111,0.0],[138.0232,-34.28436,0.0],[138.0101,-34.26328,0.0],[138.00929,-34.24432,0.0],[138.01629,-34.22731,4.27],[138.0534,-34.18092,0.0],[138.06381,-34.16286,0.0],[138.06813,-34.1408,1.9457],[138.07814,-34.12835,1.0546],[138.10027,-34.14414,0.0],[138.15886,-34.21185,2.5258],[138.16407,-34.23016,1.8569],[138.15382,-34.25026,0.0],[138.15561,-34.26043,2.2071],[138.17221,-34.27125,0.8037],[138.20533,-34.28818,1.4974],[138.22657,-34.32049,2.3547],[138.25994,-34.43841,2.2209],[138.27906,-34.48358,2.6795],[138.2942,-34.50457,0.0],[138.3296,-34.5206,1.4267],[138.34132,-34.53786,0.7275],[138.3567,-34.5761,1.0738],[138.36883,-34.59051,0.0],[138.39796,-34.60784,0.0],[138.4336,-34.63649,2.0055],[138.43816,-34.64446,0.0],[138.4402,-34.65545,2.0177],[138.43971,-34.6657,1.7579],[138.4402,-34.67555,1.8157],[138.44557,-34.68597,0.0],[138.4546,-34.69101,3.2779],[138.48097,-34.69842,1.5827],[138.4865,-34.70281,1.0],[138.48927,-34.71396,0.7523],[138.49635,-34.72373,1.8139],[138.50636,-34.73056,0.0],[138.51759,-34.73317,0.0],[138.53631,-34.7409,2.732],[138.54705,-34.75945,2.7291],[138.55063,-34.78191,3.7985],[138.54802,-34.80145,0.0],[138.535,-34.78086,0.9321],[138.51694,-34.76914,0.0],[138.50099,-34.77093,2.7789],[138.49391,-34.7916,5.3066],[138.4865,-34.87347,0.9356],[138.49073,-34.91375,0.0],[138.50953,-34.99554,0.0],[138.51393,-35.03826,6.9295],[138.50733,-35.05657,67.7003],[138.47657,-35.09189,0.0],[138.46656,-35.11053,0.0],[138.45851,-35.16668,0.0],[138.45924,-35.18564,0.0],[138.46225,-35.19541,0.0],[138.46754,-35.20469,0.0],[138.47193,-35.21461,50.981],[138.47218,-35.22723,19.5316],[138.4673,-35.23968,0.0],[138.45997,-35.24676,0.0],[138.45191,-35.25254,0.0],[138.44557,-35.26084,0.0],[138.44109,-35.28167,0.0],[138.44451,-35.32204,0.0],[138.43816,-35.34271,0.0],[138.42742,-35.35263,0.0],[138.40895,-35.36386,0.0],[138.38885,-35.37298,3.8011],[138.37322,-35.37689,68.6375],[138.35646,-35.38454,21.4071],[138.33985,-35.40276,105.3327],[138.3152,-35.4389,3.432],[138.28728,-35.4699,0.0],[138.25758,-35.49066,0.0],[138.15943,-35.5289,1.7852],[138.13901,-35.54046,0.0],[138.12273,-35.55535,0.0],[138.11598,-35.57293,0.0],[138.11134,-35.59775,57.241],[138.10499,-35.61045,64.5831],[138.10743,-35.6207,54.3918],[138.15838,-35.65984,0.0],[138.17677,-35.66823,0.0],[138.20167,-35.67164,0.0],[138.22202,-35.66904,0.0],[138.24415,-35.66253,0.0],[138.26466,-35.65374,0.0],[138.28053,-35.6443,0.0],[138.28053,-35.65179,0.0],[138.43702,-35.65781,0.0],[138.53126,-35.64593,0.0],[138.5691,-35.63128,0.0],[138.6058,-35.61004,0.0],[138.62281,-35.59564,0.0],[138.62989,-35.57977,0.0],[138.63901,-35.56707,0.0],[138.66066,-35.55853,0.0],[138.74586,-35.53875,0.0],[138.79127,-35.53509,0.0],[138.81446,-35.539,0.0],[138.85239,-35.55674,0.0],[138.86948,-35.56178,0.0],[138.88201,-35.56064,0.0],[138.8978,-35.55104,0.0],[138.90756,-35.54876,0.9096],[138.91912,-35.54998,0.9233],[138.93865,-35.55495,0.2109],[138.94899,-35.55625,0.3883],[138.97234,-35.55389,0.0],[138.99342,-35.54754,0.0],[138.99977,-35.53875,0.8948],[138.97934,-35.52825,0.8875],[138.96949,-35.52939,0.9507],[138.95834,-35.53379,-0.0206],[138.94663,-35.53639,0.9909],[138.93523,-35.53167,0.1743],[138.91912,-35.51539,9.84],[138.91,-35.50994,9.0202],[138.89731,-35.50775,23.9648],[138.82635,-35.50701,19.3924],[138.8086,-35.50107,1.3405],[138.79379,-35.48398,11.087],[138.80372,-35.47576,4.8166],[138.88111,-35.47112,0.0],[138.89064,-35.47308,2.2724],[138.89861,-35.47918,5.4841],[138.9087,-35.49472,0.0],[138.91782,-35.50107,5.5875],[138.97446,-35.50994,0.0],[138.99488,-35.51922,0.0],[139.00717,-35.52142,0.0],[139.03094,-35.51751,0.0],[139.03793,-35.5084,14.4615],[139.03142,-35.497,0.888],[139.01401,-35.48675,0.0],[138.96909,-35.47536,0.0],[138.95688,-35.4638,0.0],[138.95265,-35.4358,3.1432],[138.96119,-35.41383,8.3131],[138.9817,-35.40008,2.6017],[139.02768,-35.38437,2.92],[139.04664,-35.39072,0.5034],[139.07472,-35.39235,0.0],[139.10206,-35.38926,0.0],[139.11964,-35.38055,0.7139],[139.13754,-35.36728,1.332],[139.18426,-35.34401,0.0],[139.1985,-35.32903,0.7626],[139.1893,-35.32708,0.8557],[139.18523,-35.3244,0.0],[139.18263,-35.32057,0.0],[139.17799,-35.31536,0.0],[139.22316,-35.31878,0.0],[139.26759,-35.33131,1.7421],[139.30144,-35.35662,2.0336],[139.3152,-35.39788,0.0],[139.33863,-35.37689,1.2243],[139.35133,-35.37021,0.0],[139.36297,-35.37689,0.0],[139.36427,-35.38893,2.3007],[139.34986,-35.42897,5.9179],[139.35548,-35.4415,0.0],[139.36687,-35.45257,0.0],[139.3755,-35.46396,0.4745],[139.37306,-35.47674,1.4544],[139.36101,-35.48952,2.7367],[139.35043,-35.49293,0.504],[139.2951,-35.48113,0.2696],[139.28443,-35.48056,0.9116],[139.27394,-35.48211,0.0],[139.26979,-35.48594,0.3574],[139.26686,-35.49041,1.9272],[139.26051,-35.49424,14.7399],[139.23048,-35.50058,4.2561],[139.21892,-35.50726,6.3602],[139.22267,-35.518,0.0],[139.23618,-35.52459,0.0],[139.27076,-35.53135,42.6761],[139.28443,-35.53851,20.1667],[139.35572,-35.59336,0.0],[139.36036,-35.60784,0.4287],[139.3462,-35.62786,0.0],[139.33766,-35.64764,0.0],[139.3401,-35.66872,0.0],[139.33806,-35.68743,2.72],[139.3152,-35.70029,11.1721],[139.29762,-35.70062,20.0914],[139.24391,-35.69451,0.0],[139.2295,-35.68939,0.0],[139.22486,-35.67588,0.1096],[139.23357,-35.66579,0.0],[139.2461,-35.65814,0.0],[139.25367,-35.65179,0.0],[139.25652,-35.63641,0.7625],[139.25123,-35.63437,4.5899],[139.24187,-35.63584,3.2417],[139.2326,-35.63128,6.429],[139.22486,-35.61541,0.0],[139.22836,-35.60418,0.6419],[139.23585,-35.59002,1.483],[139.24,-35.56552,2.3198],[139.23414,-35.54754,0.1269],[139.21949,-35.53948,1.1491],[139.20143,-35.53525,4.9589],[139.18483,-35.52825,4.4413],[139.15528,-35.50335,0.6893],[139.13543,-35.4983,0.0],[139.11345,-35.51116,0.0],[139.08595,-35.53533,0.0],[139.07683,-35.55145,0.0],[139.07553,-35.57676,0.0],[139.05519,-35.56943,0.7445],[139.04135,-35.57399,0.0],[139.03614,-35.58685,0.0],[139.04135,-35.6041,1.4838],[139.0534,-35.61199,0.7049],[139.09457,-35.63209,6.3994],[139.10353,-35.64129,1.0062],[139.16774,-35.68597,8.3279],[139.18678,-35.69069,12.8026],[139.37599,-35.83001,3.7557],[139.40138,-35.85735,26.6134],[139.41814,-35.87168,7.975],[139.45777,-35.88299,15.1892],[139.47543,-35.89642,2.326],[139.59376,-36.02256,12.9927],[139.60027,-36.03786,2.8417],[139.61052,-36.07635,9.3697],[139.6657,-36.18385,7.4395],[139.67205,-36.2278,5.2941],[139.66521,-36.2278,16.6603],[139.60043,-36.11102,0.0],[139.5652,-36.04974,0.0],[139.49822,-35.97723,0.0],[139.44752,-35.92734,2.0102],[139.34816,-35.84783,0.0],[139.00099,-35.58538,0.0],[138.95924,-35.56666,0.0],[138.91782,-35.57676,0.0],[138.96827,-35.60662,0.0],[138.99903,-35.61728,2.5498],[139.0315,-35.64544,0.0],[139.06235,-35.65814,0.0],[139.09889,-35.68646,0.0],[139.12989,-35.69931,0.0],[139.16139,-35.7278,0.0],[139.1989,-35.74676,0.0],[139.27215,-35.80511,0.0],[139.45672,-35.95794,5.0012],[139.46656,-35.97015,9.2818],[139.47267,-35.98455,20.149],[139.51498,-36.03533,2.0032],[139.54819,-36.0582,8.9311],[139.56739,-36.07529,0.0],[139.63461,-36.20355,0.0],[139.72901,-36.37233,0.0],[139.85369,-36.62176,3.7618],[139.85711,-36.63494,7.9476],[139.86354,-36.76727,1.7408],[139.85719,-36.80877,1.454],[139.84213,-36.84588,4.2196],[139.81544,-36.879,1.0281],[139.78484,-36.90203,2.3148],[139.67205,-36.95338,4.6138],[139.67563,-36.96819,0.0],[139.68621,-36.9765,0.0],[139.71225,-36.98805,13.4867],[139.72918,-37.00384,7.7005],[139.73569,-37.01873,0.0],[139.73976,-37.05641,0.0],[139.75343,-37.08164,0.0],[139.77418,-37.10369,0.0],[139.78834,-37.12623,0.0],[139.78126,-37.1526,0.0],[139.76417,-37.16465,3.2152],[139.74741,-37.17083,21.3912],[139.74155,-37.18084,7.244],[139.77003,-37.22088,0.0],[139.79493,-37.26873,0.0],[139.98805,-37.48707,0.0],[140.02149,-37.50156,0.0],[140.02101,-37.4983,0.0],[140.02198,-37.49147,0.0],[140.02524,-37.48463,0.0],[140.03142,-37.48162,0.0],[140.03647,-37.48252,0.0],[140.04615,-37.48691,0.0],[140.05209,-37.48789,0.0],[140.06324,-37.49098,0.0],[140.08269,-37.50506,5.5382],[140.09352,-37.5084,5.4704],[140.11427,-37.51751,11.6779],[140.13168,-37.53737,10.6086],[140.13429,-37.55674,7.227],[140.1102,-37.56357,0.0],[140.1102,-37.57041,0.0],[140.13722,-37.59531,0.0],[140.21315,-37.64251,9.7536],[140.24057,-37.66595,23.885],[140.2815,-37.73154,0.0],[140.28777,-37.74879,0.0],[140.33717,-37.81609,7.5422],[140.35353,-37.8471,4.8735],[140.3567,-37.86175,0.0],[140.35743,-37.87518,0.0],[140.35987,-37.88209,0.0],[140.37086,-37.89316,0.0],[140.37477,-37.89495,1.4577],[140.38673,-37.89764,15.8194],[140.3908,-37.89935,4.7307],[140.39243,-37.90309,12.4514],[140.39625,-37.91619,1.4083],[140.3982,-37.91985,0.0],[140.41651,-37.92767,0.0],[140.45729,-37.93914,2.4251],[140.47706,-37.95086,5.6863],[140.55535,-38.00921,0.0],[140.57594,-38.01824,9.5374],[140.58383,-38.02321,9.2855],[140.59376,-38.03338,0.0],[140.60239,-38.03777,0.0],[140.62501,-38.03688,3.5194],[140.63478,-38.04022,0.0959],[140.65089,-38.05218,0.0],[140.6692,-38.06178,0.0],[140.6902,-38.06813,0.0],[140.71355,-38.07057,0.0],[140.95143,-38.05429,2.6667],[140.96817,-38.05943,0.0],[140.96802,-37.56437,67.9361],[140.96786,-37.06461,97.353],[140.96771,-36.56495,108.8525],[140.9676,-36.06524,126.4949],[140.96755,-35.56553,124.0046],[140.9674,-35.06587,72.6724],[140.96724,-34.56611,50.9213],[140.96709,-34.0664,63.4923],[140.96709,-33.98645,22.8117],[140.98724,-34.00092,23.0093],[141.00011,-34.01854,23.4939],[141.00011,-33.71153,56.5979],[141.00011,-33.39744,77.434],[141.00011,-33.08335,90.4838],[141.00011,-32.76921,106.3475],[141.00011,-32.45507,174.3712],[141.00011,-32.14104,212.1953],[141.00011,-31.82695,138.9884],[141.00011,-31.5128,99.4099],[141.00011,-31.19866,90.3572]]]]}}