{"type":"Feature","properties":{"GID_2":"AUS.5.6_1","GID_0":"AUS","country":"Australia","GID_1":"AUS.5_1","state":"NewSouthWales","NL_NAME_1":"NA","county":"Balranald","VARNAME_2":"NA","NL_NAME_2":"NA","TYPE_2":"Area","ENGTYPE_2":"Area","CC_2":"10300","HASC_2":"AU.NS.BN","name":"Balranald.county"},
"geometry":{"type": "MultiPolygon","coordinates": [[[[144.3687,-33.2827,84.8608],[144.2626,-33.2729,92.1461],[144.2643,-33.263,90.1896],[144.2779,-33.2543,90.9846],[144.2689,-33.2445,90.8223],[144.2495,-33.2514,88.7708],[144.2363,-33.2498,88.8358],[144.2514,-33.1551,85.4751],[143.9059,-33.1157,77.9505],[143.8982,-33.1614,75.7846],[143.839,-33.1546,78.4323],[143.8167,-33.1374,77.5362],[143.7899,-33.1489,77.0631],[143.7209,-33.1405,103.6536],[143.7195,-33.1491,117.7042],[143.7148,-33.1546,116.0686],[143.674,-33.1707,108.7756],[143.6665,-33.1791,114.1921],[143.6649,-33.1789,113.3112],[143.6485,-33.159,93.1223],[143.6361,-33.1578,85.6336],[143.6373,-33.1499,81.447],[143.5525,-33.1405,76.8714],[143.5494,-33.1597,73.3615],[143.3783,-33.1413,74.395],[143.3557,-33.2759,69.4611],[143.3082,-33.2708,70.5747],[143.2949,-33.3563,74.0738],[143.2433,-33.3507,70.666],[143.2108,-33.5686,64.0825],[143.0395,-33.5503,63.5878],[142.9924,-33.8536,64.4242],[142.9448,-33.8484,75.149],[142.931,-33.9348,73.7053],[142.8059,-33.9219,75.4032],[142.7966,-33.9829,59.7404],[142.7601,-33.9792,75.8964],[142.7444,-34.0818,55.5591],[142.8327,-34.0913,63.3095],[142.7888,-34.3893,55.3305],[142.6125,-34.3713,59.4829],[142.5834,-34.558,59.155],[142.5282,-34.5798,45.9728],[142.4874,-34.5936,43.9212],[142.4704,-34.5913,42.4945],[142.4713,-34.593,37.0689],[142.4692,-34.5967,37.2009],[142.4692,-34.6015,36.0],[142.463,-34.6039,36.7686],[142.4613,-34.6066,36.5],[142.4618,-34.6085,40.7448],[142.4683,-34.6129,43.3585],[142.4621,-34.6143,55.7858],[142.4584,-34.6177,47.7041],[142.4586,-34.6196,36.5],[142.4635,-34.6238,36.5],[142.4639,-34.6269,40.0172],[142.4597,-34.6293,53.4048],[142.4538,-34.6302,39.4696],[142.4525,-34.632,37.887],[142.4533,-34.635,41.4457],[142.4562,-34.6363,48.3976],[142.4654,-34.6343,37.0],[142.4671,-34.6381,55.9071],[142.4711,-34.6401,42.9287],[142.4803,-34.6354,40.4953],[142.4836,-34.6364,41.8763],[142.4838,-34.6384,38.297],[142.4761,-34.6427,45.4955],[142.4716,-34.6519,39.9522],[142.4713,-34.6659,37.0],[142.4756,-34.6726,39.0891],[142.4803,-34.6736,43.4372],[142.4931,-34.6722,38.9604],[142.4958,-34.6673,51.4577],[142.4886,-34.6672,45.4293],[142.4866,-34.6662,46.2094],[142.4869,-34.6635,43.7572],[142.4893,-34.6625,37.25],[142.4998,-34.6648,49.1139],[142.5022,-34.6631,48.6187],[142.5038,-34.6579,47.8208],[142.5071,-34.6564,42.7934],[142.5097,-34.6568,41.7892],[142.5171,-34.6626,44.6598],[142.5136,-34.6658,43.9928],[142.5038,-34.6675,49.079],[142.4974,-34.6743,48.3351],[142.4994,-34.6819,46.2317],[142.5009,-34.6827,40.7957],[142.5064,-34.6802,38.8561],[142.5144,-34.6922,42.4389],[142.5132,-34.695,39.2863],[142.5094,-34.6971,40.2718],[142.4998,-34.6989,39.808],[142.4997,-34.7031,50.5879],[142.5047,-34.7038,39.5333],[142.5118,-34.7002,38.6016],[142.5179,-34.7013,45.727],[142.5189,-34.7037,42.5853],[142.5094,-34.7136,48.798],[142.5132,-34.7214,37.0],[142.5114,-34.7247,46.1381],[142.5018,-34.7326,47.8329],[142.4997,-34.7394,47.7586],[142.5027,-34.741,40.293],[142.5117,-34.7409,39.9349],[142.5127,-34.7431,41.4708],[142.5083,-34.7459,42.3431],[142.5074,-34.7488,46.4399],[142.5246,-34.7596,47.5623],[142.5292,-34.7588,38.9241],[142.5334,-34.753,42.1779],[142.5388,-34.7629,49.168],[142.5501,-34.7627,38.278],[142.5503,-34.7689,42.1515],[142.5567,-34.7754,43.4046],[142.5608,-34.7743,37.0],[142.5632,-34.7692,37.7318],[142.5672,-34.7669,40.358],[142.5756,-34.7714,50.6521],[142.5858,-34.7704,38.9493],[142.5948,-34.7724,37.0],[142.6063,-34.7807,45.4125],[142.6165,-34.7854,43.0797],[142.6269,-34.7853,43.4777],[142.6373,-34.7817,46.4067],[142.6445,-34.7753,54.9976],[142.6464,-34.7634,49.75],[142.6429,-34.7589,40.1171],[142.6396,-34.7575,43.8738],[142.6263,-34.7606,39.6129],[142.6205,-34.7571,37.4144],[142.6192,-34.7542,52.3851],[142.6195,-34.7445,52.2743],[142.6163,-34.7364,37.0],[142.6183,-34.7288,37.733],[142.6235,-34.7275,37.4563],[142.6321,-34.7338,44.388],[142.6373,-34.735,44.4096],[142.6426,-34.7317,44.5726],[142.6522,-34.7295,45.7974],[142.6614,-34.7217,43.0726],[142.6637,-34.7233,42.9772],[142.6642,-34.7303,47.6114],[142.6674,-34.7359,41.8085],[142.679,-34.7392,38.8041],[142.6847,-34.7366,41.7704],[142.6867,-34.7339,37.4308],[142.6766,-34.729,37.0],[142.6759,-34.7268,37.0],[142.6786,-34.7223,46.0578],[142.6818,-34.7218,44.2737],[142.6909,-34.7267,48.8361],[142.6994,-34.7245,42.2715],[142.6977,-34.7207,51.8929],[142.6888,-34.7175,38.2598],[142.6845,-34.7141,37.0],[142.6854,-34.7096,49.7205],[142.6905,-34.7047,49.5901],[142.6911,-34.7017,37.0],[142.6822,-34.6908,37.9521],[142.6789,-34.6808,49.3279],[142.6805,-34.6729,38.7357],[142.6841,-34.6709,37.0],[142.6884,-34.6714,50.8094],[142.7059,-34.6795,37.8349],[142.7082,-34.6791,50.8863],[142.7107,-34.676,40.8555],[142.7109,-34.6679,42.0769],[142.7086,-34.6622,53.5161],[142.7016,-34.6594,50.2882],[142.6954,-34.66,38.7111],[142.6892,-34.6525,45.9381],[142.6974,-34.641,62.4758],[142.695,-34.6359,43.7525],[142.6991,-34.6313,44.8027],[142.7008,-34.6245,38.8722],[142.7088,-34.6227,43.7726],[142.7076,-34.618899999999996,52.4469],[142.6924,-34.6196,45.1473],[142.6895,-34.6183,38.5076],[142.6905,-34.6157,39.5775],[142.7005,-34.6158,38.7463],[142.704,-34.6135,42.9224],[142.6995,-34.6029,50.1617],[142.7,-34.5994,40.809],[142.7043,-34.5976,37.0],[142.7148,-34.6004,44.6746],[142.7178,-34.5988,39.479],[142.7198,-34.5939,37.0],[142.7236,-34.5923,39.8386],[142.7312,-34.5992,44.1195],[142.7432,-34.6028,38.8156],[142.7531,-34.6026,45.796],[142.7592,-34.6001,65.264],[142.7635,-34.5967,50.903],[142.7634,-34.5904,51.6246],[142.7604,-34.5884,42.9856],[142.7501,-34.5891,50.7248],[142.7469,-34.5878,64.878],[142.7453,-34.5842,51.8377],[142.7483,-34.5768,40.079],[142.7502,-34.5763,57.288],[142.7585,-34.5798,55.492],[142.7693,-34.5782,50.8718],[142.7841,-34.5804,52.8927],[142.7839,-34.5775,55.57],[142.7719,-34.5718,40.7044],[142.77,-34.5689,55.1295],[142.7716,-34.566,37.0],[142.778,-34.5674,44.2714],[142.7825,-34.5649,48.8245],[142.7827,-34.5616,37.0],[142.7887,-34.5574,41.0817],[142.788,-34.5512,43.8244],[142.7894,-34.5471,37.0],[142.7914,-34.5464,50.6596],[142.7942,-34.5513,48.9981],[142.8054,-34.5539,40.0584],[142.8101,-34.5609,45.6404],[142.8027,-34.5647,37.6763],[142.7964,-34.5719,40.1485],[142.7966,-34.574,40.4019],[142.8001,-34.576,42.5889],[142.8014,-34.579,46.6202],[142.7866,-34.5843,37.0],[142.7877,-34.5902,48.7754],[142.7953,-34.5971,44.7032],[142.7979,-34.5976,39.5442],[142.7996,-34.5975,39.333],[142.8031,-34.5889,40.2659],[142.8103,-34.5891,42.2069],[142.8114,-34.5914,37.0],[142.8097,-34.595,53.5077],[142.8029,-34.6017,37.0],[142.803,-34.6062,37.2944],[142.805,-34.6084,44.6769],[142.8185,-34.6124,45.3453],[142.8202,-34.6099,46.3313],[142.8185,-34.6031,42.6424],[142.8206,-34.6006,38.6769],[142.8231,-34.6003,40.7424],[142.8252,-34.6019,37.9247],[142.8247,-34.6085,55.4689],[142.8382,-34.613,38.2012],[142.8407,-34.6258,42.9614],[142.8451,-34.6265,54.0944],[142.8476,-34.6201,46.7642],[142.8525,-34.6192,40.1903],[142.8554,-34.6203,47.0211],[142.8611,-34.6281,54.1004],[142.8683,-34.6275,39.5573],[142.8554,-34.6387,40.4112],[142.8564,-34.643,41.0416],[142.8588,-34.645,50.8518],[142.8605,-34.6442,43.679],[142.8602,-34.6396,46.8461],[142.8635,-34.6391,38.8037],[142.8645,-34.6442,37.4602],[142.8719,-34.6503,53.4527],[142.8696,-34.6572,49.9896],[142.8613,-34.6624,50.1956],[142.8605,-34.6652,44.0462],[142.8642,-34.6671,45.0583],[142.8693,-34.6641,39.6064],[142.8721,-34.6641,42.8891],[142.8727,-34.6704,42.3503],[142.8759,-34.6749,53.3268],[142.8865,-34.6721,44.191],[142.8872,-34.6734,39.4714],[142.8852,-34.6772,39.4984],[142.8868,-34.6798,49.4813],[142.8939,-34.6788,47.5262],[142.8939,-34.6768,42.3843],[142.8908,-34.6739,48.644],[142.8914,-34.6718,42.8955],[142.8964,-34.6733,45.4602],[142.9002,-34.6715,43.7394],[142.8994,-34.6688,46.1688],[142.8943,-34.6674,39.129],[142.8933,-34.6657,44.9211],[142.9004,-34.6627,44.7463],[142.9015,-34.655,47.2823],[142.9097,-34.6512,37.0],[142.9183,-34.6506,44.9757],[142.9238,-34.6479,45.8265],[142.9247,-34.6496,39.9817],[142.9212,-34.6545,55.8293],[142.9223,-34.6565,51.0333],[142.9326,-34.6555,42.8975],[142.9352,-34.6608,38.3497],[142.9437,-34.662,40.4199],[142.9452,-34.6665,41.8408],[142.9489,-34.6697,57.9961],[142.9524,-34.6694,37.7616],[142.9593,-34.665,40.8595],[142.9581,-34.6711,54.1791],[142.963,-34.6758,39.2506],[142.9678,-34.6919,54.471],[142.9727,-34.6952,52.1335],[142.9773,-34.6933,54.0253],[142.9825,-34.6821,43.597],[142.9814,-34.6775,54.5397],[142.9753,-34.6709,40.538],[142.9861,-34.6684,56.7443],[142.9893,-34.6626,40.3832],[142.9946,-34.6739,42.1893],[142.9965,-34.674,47.4987],[142.999,-34.6703,47.4422],[143.0011,-34.6697,47.4283],[143.0133,-34.6711,46.166],[143.0173,-34.6737,42.7034],[143.0169,-34.6766,40.5911],[143.008,-34.6859,58.928],[143.008,-34.6908,54.5328],[143.0102,-34.6937,45.5565],[143.0154,-34.6948,53.1436],[143.0218,-34.6929,41.3062],[143.0242,-34.6829,45.3487],[143.0268,-34.6818,44.2623],[143.0325,-34.6829,46.7671],[143.0298,-34.6874,37.0],[143.0294,-34.6919,43.5568],[143.0395,-34.7026,44.8438],[143.0444,-34.6993,37.0],[143.0375,-34.6917,39.8605],[143.0377,-34.6885,37.0],[143.0404,-34.6859,39.9528],[143.0434,-34.6866,39.2072],[143.0438,-34.6921,46.2365],[143.047,-34.6971,55.0597],[143.0509,-34.6993,43.0379],[143.0548,-34.6989,43.2657],[143.0584,-34.6971,48.6686],[143.0651,-34.689,47.1987],[143.0668,-34.6796,48.0361],[143.0708,-34.6784,52.2258],[143.0718,-34.6894,39.9499],[143.0762,-34.696,40.165],[143.0928,-34.7013,55.3931],[143.0973,-34.6962,41.945],[143.1065,-34.6923,40.6466],[143.111,-34.6812,42.5708],[143.1125,-34.6808,42.5708],[143.1213,-34.6874,37.0],[143.1156,-34.6857,48.0826],[143.1116,-34.6871,42.1458],[143.1066,-34.6995,57.3301],[143.1072,-34.7015,58.8382],[143.1098,-34.7016,60.3926],[143.1221,-34.6936,45.0703],[143.1278,-34.6927,49.2643],[143.1277,-34.6945,37.0],[143.1181,-34.6983,40.4268],[143.1178,-34.7031,51.1949],[143.1206,-34.7037,48.0949],[143.1258,-34.7011,37.0],[143.1335,-34.7006,56.5795],[143.1349,-34.7078,51.9861],[143.1474,-34.7148,57.4059],[143.1487,-34.7139,44.4343],[143.1479,-34.7088,37.0],[143.1537,-34.7053,52.4935],[143.1564,-34.6993,45.1496],[143.1617,-34.6979,47.2751],[143.1658,-34.702,60.9064],[143.1659,-34.7075,58.9702],[143.1637,-34.7153,48.6575],[143.1654,-34.7181,57.5426],[143.1732,-34.7197,56.4097],[143.1756,-34.7132,37.6746],[143.181,-34.7095,47.3534],[143.1813,-34.7117,41.5033],[143.1779,-34.7151,49.5645],[143.1793,-34.7173,44.6952],[143.1918,-34.7128,47.0233],[143.1992,-34.717,68.7861],[143.1958,-34.7208,46.1207],[143.1965,-34.7286,53.8044],[143.2,-34.7334,57.8493],[143.2056,-34.7344,46.7085],[143.2136,-34.7302,45.2669],[143.2188,-34.7295,38.6496],[143.2225,-34.7324,51.1975],[143.2149,-34.7354,46.7144],[143.2139,-34.7385,42.1829],[143.2214,-34.7431,57.1462],[143.2191,-34.7526,49.6355],[143.22,-34.7552,42.0144],[143.2244,-34.7587,47.5357],[143.2289,-34.7578,39.6712],[143.2274,-34.7507,37.0],[143.2288,-34.7478,41.3942],[143.2379,-34.7473,44.0849],[143.2407,-34.7455,48.1651],[143.2434,-34.7479,40.9842],[143.2442,-34.7549,58.0802],[143.2489,-34.7579,44.2448],[143.2623,-34.7518,46.4037],[143.2653,-34.7486,42.459],[143.274,-34.7527,41.8139],[143.2686,-34.753,37.0],[143.2677,-34.756,40.4211],[143.2716,-34.7595,40.9299],[143.265,-34.764,55.8941],[143.2543,-34.7666,42.6553],[143.2521,-34.7728,46.6192],[143.2577,-34.7785,48.3811],[143.262,-34.7771,45.0188],[143.2627,-34.7736,37.0],[143.273,-34.7764,51.0044],[143.2718,-34.7796,46.0647],[143.2762,-34.7823,48.6703],[143.2736,-34.7891,40.1652],[143.2767,-34.7923,38.7624],[143.2837,-34.7952,59.1565],[143.2869,-34.795,57.6219],[143.2843,-34.7852,46.7323],[143.2875,-34.785,49.9059],[143.294,-34.7909,46.2729],[143.297,-34.7854,41.5979],[143.3088,-34.7799,47.9847],[143.3127,-34.7808,53.379],[143.3134,-34.7875,39.0],[143.3183,-34.7908,46.867],[143.3217,-34.7909,43.7055],[143.3291,-34.7864,43.5201],[143.333,-34.7932,62.51],[143.3451,-34.7907,52.9195],[143.3493,-34.7924,42.8476],[143.3517,-34.7955,41.8554],[143.3474,-34.8039,54.3175],[143.3476,-34.8073,44.4508],[143.352,-34.8107,43.1416],[143.357,-34.8121,47.1387],[143.3596,-34.8169,53.1519],[143.3516,-34.8232,63.6283],[143.3542,-34.8302,51.3955],[143.3506,-34.8342,52.9896],[143.3515,-34.8385,53.7037],[143.3412,-34.8463,61.8434],[143.3431,-34.8482,60.5645],[143.3541,-34.8457,54.9329],[143.3555,-34.847,43.5937],[143.3487,-34.8478,47.5929],[143.3452,-34.8535,58.3472],[143.3548,-34.8608,53.0145],[143.3547,-34.8646,52.789],[143.3517,-34.8699,48.5744],[143.3519,-34.8737,48.0337],[143.3559,-34.8766,51.5477],[143.3622,-34.8762,48.5272],[143.366,-34.8699,50.9949],[143.3668,-34.8607,50.5829],[143.3728,-34.8584,53.8019],[143.3747,-34.8609,54.62],[143.3702,-34.8712,47.5418],[143.3711,-34.8727,45.2834],[143.3763,-34.8722,49.8268],[143.3831,-34.8757,46.5467],[143.3847,-34.8706,47.205],[143.3952,-34.8684,47.8748],[143.3989,-34.8759,48.583],[143.4066,-34.8801,54.8493],[143.4149,-34.8823,50.1253],[143.4175,-34.8947,49.6325],[143.4217,-34.8931,48.2174],[143.426,-34.897,48.8687],[143.4323,-34.8931,49.541],[143.4368,-34.898,52.6076],[143.4461,-34.8968,51.7762],[143.4493,-34.8997,47.8174],[143.4448,-34.9018,47.3473],[143.4475,-34.9087,52.0618],[143.4506,-34.9096,60.4364],[143.4548,-34.9075,50.4534],[143.4529,-34.9044,54.012],[143.4539,-34.9022,51.362],[143.4559,-34.9022,50.1906],[143.4594,-34.9056,49.0712],[143.4674,-34.9036,45.7713],[143.4716,-34.9051,49.6848],[143.4814,-34.914,52.2632],[143.4823,-34.9195,48.4155],[143.4812,-34.9229,56.5881],[143.4721,-34.9208,53.3698],[143.4659,-34.926,55.1763],[143.4692,-34.937,58.8788],[143.4808,-34.9481,59.3315],[143.4787,-34.9586,57.5872],[143.474,-34.9681,63.6406],[143.4759,-34.9687,61.5828],[143.4772,-34.9662,63.4585],[143.479,-34.9693,59.2089],[143.4836,-34.9694,60.335],[143.4847,-34.9717,62.7989],[143.491,-34.9724,62.9966],[143.4951,-34.9456,64.2621],[143.489,-34.9448,66.0126],[143.5087,-34.8212,68.582],[143.5241,-34.7829,63.1456],[143.54,-34.7625,65.7136],[143.5413,-34.7537,66.3032],[143.5384,-34.7449,65.4154],[143.542,-34.7318,71.4762],[143.5748,-34.7356,60.4455],[143.5827,-34.7254,59.5],[143.58,-34.7193,62.6825],[143.5809,-34.7148,62.4147],[143.5901,-34.7047,63.1535],[143.59,-34.6998,62.9084],[143.5881,-34.6996,63.9656],[143.5839,-34.6934,65.9832],[143.5992,-34.6955,62.7135],[143.6005,-34.6863,61.2868],[143.6277,-34.6894,63.7253],[143.6359,-34.635,63.7223],[143.6157,-34.6327,56.9093],[143.6154,-34.6305,57.2264],[143.6268,-34.6307,52.5703],[143.6214,-34.6293,55.6794],[143.624,-34.6288,48.8132],[143.622,-34.6248,59.1787],[143.6226,-34.6209,63.8208],[143.627,-34.6261,56.6264],[143.6275,-34.6236,54.1603],[143.6296,-34.6243,57.5878],[143.6302,-34.6206,59.9855],[143.6353,-34.6229,55.9717],[143.632,-34.6197,53.658],[143.6362,-34.6208,60.4542],[143.6385,-34.6195,60.6518],[143.6387,-34.6181,60.6518],[143.6365,-34.6173,54.7275],[143.6363,-34.6129,60.2563],[143.641,-34.6106,59.7418],[143.6394,-34.6157,60.9124],[143.6434,-34.617,65.8975],[143.6432,-34.611,65.2401],[143.6455,-34.6146,60.4477],[143.651,-34.6123,58.1997],[143.646,-34.6076,72.0778],[143.6463,-34.6053,65.8733],[143.6492,-34.6041,60.4777],[143.6542,-34.6063,65.594],[143.6578,-34.6032,51.2072],[143.6526,-34.6038,58.5231],[143.6537,-34.598,59.3393],[143.6469,-34.6006,60.3238],[143.6485,-34.5963,58.0861],[143.6517,-34.5938,69.8945],[143.651,-34.5926,63.3201],[143.6473,-34.5921,59.7721],[143.6453,-34.5953,63.0026],[143.6375,-34.5941,62.6797],[143.6376,-34.591,63.9585],[143.6412,-34.5913,65.8882],[143.6402,-34.5884,64.1472],[143.6414,-34.5843,67.1022],[143.6361,-34.5869,63.8659],[143.6323,-34.5849,63.3703],[143.6365,-34.5852,61.4253],[143.6368,-34.5823,60.2926],[143.6414,-34.5774,63.2846],[143.6518,-34.5758,63.9339],[143.6532,-34.5718,64.8525],[143.65,-34.5676,67.7714],[143.6488,-34.5722,60.2403],[143.642,-34.5727,64.7088],[143.6418,-34.5666,62.232],[143.6358,-34.5652,72.5527],[143.6349,-34.5607,66.2873],[143.6436,-34.5599,64.2248],[143.6452,-34.5586,63.0501],[143.6391,-34.5568,61.8648],[143.6392,-34.5549,60.7427],[143.642,-34.5566,58.5906],[143.6439,-34.5547,68.0615],[143.6411,-34.5493,65.4878],[143.6446,-34.5509,61.6107],[143.6532,-34.5471,66.6504],[143.6528,-34.546,66.2682],[143.6487,-34.5466,63.8265],[143.6459,-34.5391,63.7384],[143.6472,-34.5379,65.4789],[143.6569,-34.5389,62.3127],[143.6548,-34.5362,62.4336],[143.6582,-34.5352,66.791],[143.6595,-34.533,67.8022],[143.6558,-34.5305,62.2601],[143.6588,-34.529,61.7326],[143.6565,-34.5262,62.1805],[143.6587,-34.5224,64.1592],[143.6609,-34.5226,65.8728],[143.6637,-34.5269,63.3043],[143.6641,-34.5238,64.2512],[143.666,-34.5226,64.3041],[143.6674,-34.5267,63.5118],[143.67,-34.523,62.1501],[143.6741,-34.5231,67.5533],[143.6765,-34.5253,67.1906],[143.6786,-34.5208,63.2607],[143.6834,-34.5212,64.3604],[143.6807,-34.517,64.235],[143.6848,-34.5157,63.5048],[143.687,-34.5172,65.8224],[143.6895,-34.5137,63.8705],[143.6847,-34.5136,65.7014],[143.6873,-34.5107,65.1842],[143.6828,-34.5071,69.119],[143.6787,-34.5081,66.6235],[143.676,-34.5066,65.9285],[143.683,-34.5039,65.5871],[143.6837,-34.5021,67.504],[143.681,-34.5006,64.7243],[143.6867,-34.4981,64.8517],[143.6825,-34.4973,65.1372],[143.6818,-34.493899999999996,63.3856],[143.6875,-34.4924,69.1427],[143.6869,-34.4893,61.7168],[143.6833,-34.4858,62.4695],[143.6877,-34.4876,66.1575],[143.6926,-34.4833,62.0938],[143.6916,-34.4852,63.1816],[143.6958,-34.4895,63.5411],[143.7032,-34.4919,66.7184],[143.7048,-34.4911,63.2664],[143.7041,-34.4888,61.0546],[143.7078,-34.4899,65.3433],[143.7068,-34.4866,75.8073],[143.7112,-34.4868,66.2947],[143.7101,-34.4827,68.6661],[143.7168,-34.4822,66.9408],[143.7168,-34.4797,63.1872],[143.7121,-34.477,61.913],[143.7146,-34.4732,66.027],[143.7126,-34.4697,62.0599],[143.7133,-34.4634,64.406],[143.716,-34.4631,67.2048],[143.7155,-34.4658,62.9061],[143.724,-34.4658,67.4064],[143.7269,-34.4651,70.5292],[143.7253,-34.4628,64.8177],[143.7305,-34.4623,67.1614],[143.7285,-34.4578,66.5832],[143.7311,-34.456,71.4521],[143.7312,-34.4533,70.1173],[143.7242,-34.4471,65.7124],[143.7258,-34.4453,65.5889],[143.7328,-34.4435,69.2146],[143.7337,-34.4394,67.3694],[143.7334,-34.4372,68.7805],[143.7292,-34.435,64.201],[143.7263,-34.4308,65.8347],[143.7356,-34.4321,65.9735],[143.7394,-34.4282,67.6335],[143.7392,-34.4262,68.2145],[143.7356,-34.4286,64.1923],[143.7319,-34.4224,64.2098],[143.7334,-34.4212,63.8177],[143.7366,-34.423,68.3072],[143.7415,-34.421,66.8471],[143.7355,-34.4179,67.1278],[143.7391,-34.4166,69.0638],[143.7393,-34.4121,63.9698],[143.7435,-34.414,66.3152],[143.7441,-34.4104,65.3407],[143.7482,-34.4115,66.938],[143.747,-34.4086,66.6478],[143.7515,-34.4093,69.3953],[143.75,-34.4068,63.9227],[143.7534,-34.4066,70.6661],[143.7514,-34.4013,68.331],[143.7551,-34.3965,63.3762],[143.7573,-34.3989,71.3704],[143.7602,-34.3956,65.6973],[143.762,-34.3972,67.5406],[143.766,-34.3961,65.553],[143.7657,-34.393,70.2172],[143.7722,-34.389,68.4252],[143.7756,-34.391,66.9245],[143.7798,-34.3894,68.8917],[143.7852,-34.3918,67.178],[143.787,-34.3868,69.1081],[143.7861,-34.3855,70.1893],[143.7793,-34.3875,67.5792],[143.7774,-34.3838,65.6534],[143.7816,-34.3828,69.7852],[143.7809,-34.3794,66.1276],[143.7844,-34.378,70.2914],[143.7857,-34.375,67.403],[143.7894,-34.3762,70.789],[143.7954,-34.3728,69.0737],[143.8008,-34.3724,68.24],[143.802,-34.3767,74.0536],[143.8055,-34.3793,73.4792],[143.8095,-34.3756,69.655],[143.8123,-34.3702,68.2855],[143.8142,-34.3703,67.6725],[143.8164,-34.3742,67.0127],[143.8197,-34.3705,67.9752],[143.8237,-34.3706,68.636],[143.8244,-34.366,70.0427],[143.8265,-34.3646,75.5712],[143.831,-34.3683,66.9111],[143.8352,-34.3662,68.4486],[143.8403,-34.3689,70.1768],[143.8417,-34.3672,66.9879],[143.8407,-34.3636,68.4734],[143.8458,-34.3629,70.0414],[143.8403,-34.3574,70.2521],[143.8427,-34.3534,67.4337],[143.8448,-34.3547,69.9962],[143.856,-34.3515,71.5014],[143.8591,-34.3535,64.6927],[143.8593,-34.3496,70.3039],[143.8686,-34.352,70.7443],[143.8732,-34.349,71.0494],[143.8776,-34.3508,67.3319],[143.8782,-34.3485,67.9349],[143.8828,-34.3497,69.1832],[143.8844,-34.3483,69.181],[143.8837,-34.3451,68.3326],[143.8863,-34.3451,71.5068],[143.8904,-34.3397,69.727],[143.8902,-34.3374,74.7199],[143.8879,-34.3357,68.3214],[143.8985,-34.3334,71.942],[143.899,-34.3305,68.7794],[143.9052,-34.3312,70.4224],[143.9061,-34.336,68.5198],[143.909,-34.331,71.3518],[143.913,-34.3323,70.607],[143.9148,-34.3364,72.0173],[143.9135,-34.3388,68.662],[143.9178,-34.341,67.9214],[143.9173,-34.343,71.5487],[143.9137,-34.3433,72.7271],[143.9138,-34.3461,71.0063],[143.9166,-34.3492,68.9592],[143.9154,-34.3531,71.07],[143.9215,-34.3528,69.5284],[143.925,-34.3566,70.5692],[143.9259,-34.3599,74.4861],[143.9304,-34.3599,67.3826],[143.9309,-34.3633,68.5902],[143.9334,-34.3634,68.2836],[143.9362,-34.3604,70.6887],[143.9409,-34.361,67.7735],[143.9385,-34.3582,64.8518],[143.9417,-34.3589,72.9165],[143.9458,-34.3564,66.2459],[143.9492,-34.3596,71.7917],[143.9514,-34.3595,71.4539],[143.9496,-34.3567,70.5248],[143.95,-34.354,68.8834],[143.9533,-34.3524,71.7776],[143.952,-34.3516,73.607],[144.0367,-34.2734,72.3179],[144.0386,-34.2744,71.8849],[144.0405,-34.2724,72.7981],[144.0419,-34.2753,73.0901],[144.0448,-34.2735,72.9602],[144.0466,-34.2743,72.4731],[144.0477,-34.2723,72.9995],[144.0481,-34.2745,73.0645],[144.0505,-34.2744,72.8532],[144.0513,-34.2726,72.8791],[144.0543,-34.273,73.101],[144.0553,-34.2738,73.101],[144.0538,-34.2753,73.0379],[144.0563,-34.2766,72.0888],[144.0559,-34.2748,72.8374],[144.0578,-34.2754,72.9264],[144.0584,-34.273,72.6159],[144.0601,-34.2754,72.6751],[144.0605,-34.2737,72.8014],[144.0633,-34.2734,73.1625],[144.0626,-34.2712,72.5433],[144.0655,-34.271,72.5015],[144.0634,-34.2687,71.9662],[144.0684,-34.2672,72.7503],[144.0703,-34.2623,72.2743],[144.0685,-34.2617,72.4548],[144.0704,-34.2583,72.7477],[144.0687,-34.2549,73.3056],[144.0706,-34.2526,73.143],[144.0691,-34.2522,73.085],[144.0697,-34.2506,74.9844],[144.0676,-34.2504,72.9676],[144.0677,-34.2481,72.7274],[144.0702,-34.2482,74.1181],[144.071,-34.2461,73.2504],[144.0723,-34.2477,75.5458],[144.0745,-34.2468,73.9803],[144.0732,-34.2452,73.7515],[144.0748,-34.2442,73.7461],[144.0718,-34.2417,74.2332],[144.0738,-34.2421,74.5913],[144.074,-34.2399,74.2677],[144.0778,-34.2382,75.2977],[144.073,-34.2364,74.3871],[144.0754,-34.2362,75.3259],[144.0743,-34.2353,75.3259],[144.0776,-34.2323,75.5055],[144.0747,-34.2322,76.9101],[144.0767,-34.2305,75.5307],[144.0735,-34.2288,73.7374],[144.0741,-34.2264,75.9769],[144.0779,-34.2251,75.6315],[144.0744,-34.2235,75.9188],[144.0767,-34.2221,75.0348],[144.0739,-34.2207,75.3742],[144.0756,-34.221,75.4943],[144.0762,-34.219,75.2767],[144.0791,-34.2206,75.3463],[144.0793,-34.2163,74.8334],[144.0836,-34.2169,75.4023],[144.0837,-34.2141,75.6612],[144.0861,-34.2159,75.7449],[144.0862,-34.2138,76.1856],[144.0888,-34.2149,75.0018],[144.0882,-34.2131,75.7762],[144.0902,-34.2132,75.8176],[144.0917,-34.2112,74.7984],[144.0925,-34.2137,75.7841],[144.0957,-34.2126,76.3419],[144.0947,-34.214,78.1717],[144.0961,-34.216,75.1206],[144.0964,-34.2146,75.1206],[144.0981,-34.2156,77.1751],[144.0982,-34.2141,77.3493],[144.1011,-34.2131,77.1802],[144.1019,-34.2154,77.362],[144.1037,-34.2148,77.0576],[144.1021,-34.2134,77.1802],[144.1047,-34.2126,76.2823],[144.1028,-34.2113,76.2823],[144.1053,-34.2112,76.4007],[144.1048,-34.2091,75.8796],[144.1075,-34.2072,77.2692],[144.1048,-34.2056,76.988],[144.1077,-34.2038,77.4387],[144.108,-34.1995,78.0712],[144.1096,-34.1999,77.2652],[144.1089,-34.1985,76.6331],[144.1115,-34.1978,75.533],[144.1114,-34.1958,76.8362],[144.1149,-34.1927,76.7229],[144.1164,-34.1935,78.8195],[144.1182,-34.1921,77.5296],[144.1171,-34.1907,76.9926],[144.1184,-34.1889,76.5438],[144.1213,-34.1946,77.0956],[144.1219,-34.1931,76.5237],[144.1233,-34.1945,76.5237],[144.125,-34.1936,77.1606],[144.1265,-34.1959,76.5314],[144.128,-34.1939,77.2769],[144.1284,-34.1962,76.7069],[144.1296,-34.1945,75.9752],[144.1319,-34.1953,76.7316],[144.1305,-34.1962,76.9653],[144.1313,-34.1982,76.7225],[144.132,-34.1966,75.7725],[144.1343,-34.197,75.2206],[144.1332,-34.2007,76.9524],[144.1369,-34.2013,76.6371],[144.1367,-34.2028,76.6371],[144.1395,-34.2051,76.8377],[144.1416,-34.2032,76.7286],[144.1422,-34.2056,77.6803],[144.1446,-34.2039,76.8593],[144.1445,-34.2066,76.1329],[144.1463,-34.2057,75.4234],[144.1475,-34.2082,75.0736],[144.1494,-34.2054,75.8013],[144.1514,-34.2071,76.3837],[144.1547,-34.2063,76.6682],[144.154,-34.2081,76.3236],[144.1577,-34.2086,76.777],[144.1577,-34.211,76.7396],[144.1598,-34.2102,76.2444],[144.1606,-34.2129,74.9108],[144.1578,-34.2153,75.1558],[144.1602,-34.218,76.4132],[144.1568,-34.218,77.0808],[144.1584,-34.2197,76.7005],[144.1563,-34.2222,76.518],[144.161,-34.2233,78.2183],[144.1633,-34.2216,77.5956],[144.1627,-34.2236,77.5453],[144.1646,-34.2232,77.8328],[144.1653,-34.2257,78.6554],[144.1667,-34.2255,78.9257],[144.1658,-34.2236,77.8328],[144.1692,-34.2243,76.1777],[144.1706,-34.2264,78.5843],[144.1682,-34.2282,75.2056],[144.1683,-34.2302,74.7789],[144.1732,-34.2321,76.9275],[144.1738,-34.2297,76.6897],[144.1762,-34.2306,76.1579],[144.1762,-34.2329,77.5835],[144.1789,-34.2328,75.6679],[144.1781,-34.2348,75.1784],[144.1828,-34.2358,77.0837],[144.1821,-34.2398,76.0999],[144.1858,-34.2394,78.1936],[144.1842,-34.241,77.8246],[144.1857,-34.2414,77.1528],[144.186,-34.2439,77.7461],[144.1913,-34.242,76.0173],[144.1895,-34.2436,78.1609],[144.1944,-34.2475,76.9346],[144.2007,-34.2498,79.3136],[144.2038,-34.249,76.6876],[144.2113,-34.2526,76.9143],[144.2137,-34.2507,77.6928],[144.2156,-34.2527,77.9491],[144.2175,-34.2506,77.6497],[144.219,-34.2511,77.7493],[144.2195,-34.249,78.5753],[144.2206,-34.2511,77.9947],[144.2227,-34.2514,77.2466],[144.2213,-34.2502,77.9947],[144.2238,-34.2489,77.9444],[144.2253,-34.2516,78.5342],[144.227,-34.2516,78.1579],[144.2257,-34.2457,77.0775],[144.2285,-34.247,78.7065],[144.2293,-34.2435,78.3743],[144.2306,-34.2452,77.8378],[144.2348,-34.2438,77.7173],[144.234,-34.2415,78.4776],[144.2411,-34.2422,77.038],[144.2423,-34.2404,78.4063],[144.239,-34.2381,77.4486],[144.2384,-34.2333,76.0234],[144.2465,-34.2343,76.3833],[144.2486,-34.2333,77.4142],[144.2487,-34.2302,76.2527],[144.2542,-34.233,77.3813],[144.2591,-34.2335,77.7753],[144.2575,-34.2365,77.3576],[144.2593,-34.2373,78.8163],[144.2609,-34.2362,77.598],[144.2648,-34.2378,77.809],[144.2639,-34.2351,77.6446],[144.2713,-34.2345,77.1917],[144.2722,-34.2358,77.8231],[144.2695,-34.2374,77.3876],[144.2716,-34.2392,76.9755],[144.2713,-34.241,76.3384],[144.2729,-34.2406,77.0554],[144.2743,-34.2428,76.7605],[144.2774,-34.24,77.203],[144.2782,-34.2412,78.1734],[144.2833,-34.2408,77.0021],[144.2813,-34.2394,77.3697],[144.2828,-34.2382,77.8956],[144.2804,-34.2372,77.7002],[144.2819,-34.2366,78.0026],[144.2807,-34.235,78.1696],[144.2827,-34.2345,77.5913],[144.281,-34.2335,77.9029],[144.2809,-34.2313,78.0816],[144.2819,-34.233,77.5913],[144.2823,-34.2313,78.2783],[144.2841,-34.2316,77.2846],[144.2885,-34.2355,77.3862],[144.2904,-34.2327,77.3528],[144.2924,-34.2325,76.6775],[144.2915,-34.2346,77.3552],[144.2948,-34.2357,78.1583],[144.2936,-34.2371,77.2681],[144.2952,-34.2385,77.6103],[144.2943,-34.2416,77.4254],[144.2961,-34.2407,77.5878],[144.2959,-34.2441,76.8968],[144.2986,-34.2457,77.8442],[144.2989,-34.2436,77.7638],[144.3023,-34.2433,77.9424],[144.3006,-34.2423,78.8231],[144.3028,-34.2414,77.9981],[144.303,-34.2386,78.3057],[144.3054,-34.2398,78.1391],[144.3084,-34.2384,77.1983],[144.3089,-34.2399,78.9969],[144.3114,-34.24,79.0317],[144.3112,-34.2418,78.4798],[144.3147,-34.2414,78.9778],[144.3145,-34.2445,78.2141],[144.3173,-34.2464,78.0625],[144.3192,-34.2455,78.5174],[144.3181,-34.2444,77.2912],[144.319,-34.242,78.8198],[144.321,-34.2435,79.2368],[144.3208,-34.2395,77.9256],[144.3246,-34.2409,79.7311],[144.3278,-34.239,77.7537],[144.3264,-34.2368,77.8877],[144.3332,-34.243,78.6723],[144.3353,-34.2414,78.6467],[144.3352,-34.2437,78.6723],[144.3372,-34.244,78.6109],[144.3375,-34.242,78.7911],[144.3389,-34.2436,79.3592],[144.3389,-34.242,78.7911],[144.3423,-34.2429,79.4989],[144.3407,-34.2419,79.9422],[144.3423,-34.241,78.9268],[144.3454,-34.2435,78.4272],[144.3464,-34.2421,79.0745],[144.3496,-34.242,79.0048],[144.347,-34.2399,79.3753],[144.3492,-34.2402,79.5955],[144.3495,-34.2368,78.4749],[144.3502,-34.2396,78.7292],[144.357,-34.2374,78.5143],[144.3565,-34.239,79.3779],[144.3587,-34.2388,78.737],[144.3599,-34.2415,78.4348],[144.3607,-34.2396,79.2409],[144.3619,-34.2406,79.2409],[144.3661,-34.239,78.6528],[144.3638,-34.2359,79.4618],[144.3664,-34.2364,78.9404],[144.3685,-34.2344,79.1009],[144.3737,-34.2388,79.2445],[144.3736,-34.2371,79.9026],[144.3766,-34.2371,78.5556],[144.3779,-34.2352,78.7179],[144.3734,-34.2349,80.6565],[144.3768,-34.2324,79.0629],[144.3736,-34.2293,78.0705],[144.3755,-34.2306,78.9329],[144.377,-34.2281,80.0814],[144.3818,-34.2302,79.2421],[144.3882,-34.2285,78.9719],[144.3855,-34.2234,78.8976],[144.3881,-34.2241,79.9626],[144.3881,-34.2202,79.3647],[144.3901,-34.2188,79.4079],[144.3924,-34.2187,79.883],[144.394,-34.2209,80.5599],[144.4006,-34.2213,81.6481],[144.3999,-34.2225,81.6481],[144.4027,-34.2246,79.3969],[144.4074,-34.2232,78.4899],[144.4077,-34.2201,81.7744],[144.4102,-34.2226,81.2388],[144.4097,-34.2211,81.9571],[144.4119,-34.2198,80.7792],[144.4116,-34.2225,81.4393],[144.4139,-34.2219,81.2023],[144.4155,-34.2247,78.9517],[144.4193,-34.224,80.394],[144.4192,-34.2275,80.966],[144.422,-34.225,80.9475],[144.4215,-34.2267,80.929],[144.4254,-34.2284,81.3899],[144.425,-34.2252,81.2566],[144.4287,-34.2266,80.0384],[144.4308,-34.2255,81.0614],[144.4333,-34.2225,80.9012],[144.431,-34.2206,80.3651],[144.4341,-34.2181,80.9326],[144.4348,-34.2203,80.3461],[144.4371,-34.2209,80.2029],[144.4377,-34.2187,81.5776],[144.4401,-34.218,80.9814],[144.4421,-34.22,81.7808],[144.4445,-34.2178,81.0376],[144.4487,-34.2198,80.8839],[144.4476,-34.2216,81.9196],[144.4491,-34.2223,81.5211],[144.4517,-34.219,81.6991],[144.4517,-34.2203,83.2885],[144.4542,-34.2206,83.9886],[144.4531,-34.2242,82.7489],[144.4541,-34.2246,82.4689],[144.4591,-34.2235,81.6692],[144.457,-34.2229,82.9816],[144.4599,-34.2207,82.9684],[144.4577,-34.2207,80.5546],[144.4579,-34.2175,80.0954],[144.4599,-34.2189,81.805],[144.4657,-34.2181,82.7945],[144.4667,-34.2185,82.7945],[144.4635,-34.2204,81.0917],[144.4666,-34.2223,82.5427],[144.4683,-34.2207,82.6993],[144.4697,-34.2228,82.9494],[144.4713,-34.2202,83.3771],[144.4747,-34.2199,81.7491],[144.4765,-34.2165,81.9632],[144.4793,-34.218,81.4207],[144.4799,-34.2153,80.8206],[144.4836,-34.2155,81.8805],[144.484,-34.2129,82.2487],[144.4859,-34.2146,81.0909],[144.4857,-34.2123,81.3583],[144.4882,-34.2114,82.2251],[144.4883,-34.2138,82.3857],[144.4924,-34.2144,83.1651],[144.4923,-34.2124,81.7551],[144.4948,-34.2116,82.4039],[144.4987,-34.2129,83.4953],[144.4987,-34.2114,83.4953],[144.5014,-34.2112,82.3717],[144.4989,-34.2098,82.4072],[144.5034,-34.2103,82.073],[144.5007,-34.208,83.0994],[144.5036,-34.2088,82.5534],[144.503,-34.2064,82.7397],[144.5066,-34.2041,83.4355],[144.5069,-34.2016,84.225],[144.5078,-34.2037,83.4355],[144.513,-34.2009,82.3279],[144.5116,-34.1981,81.4594],[144.5141,-34.1963,82.4351],[144.5125,-34.194,82.6523],[144.5192,-34.1912,84.3375],[144.5172,-34.1904,84.4275],[144.5168,-34.1883,83.4594],[144.5194,-34.1878,82.3221],[144.5197,-34.1843,81.4325],[144.5226,-34.186,82.3867],[144.5245,-34.1828,81.0081],[144.525,-34.1854,82.5951],[144.5261,-34.1838,83.7843],[144.5306,-34.1863,81.8609],[144.5298,-34.1825,82.3524],[144.5325,-34.1848,82.307],[144.5341,-34.1839,84.0535],[144.5329,-34.181,83.4463],[144.5356,-34.1832,82.49],[144.5377,-34.1813,82.4622],[144.5367,-34.1776,82.1059],[144.5395,-34.1797,81.1664],[144.5391,-34.1772,84.0047],[144.5422,-34.1784,82.7307],[144.5402,-34.175,83.744],[144.5436,-34.1764,82.5834],[144.5446,-34.1742,83.4303],[144.5474,-34.1764,81.2706],[144.5451,-34.1727,81.8161],[144.5468,-34.174,83.9697],[144.5505,-34.1733,82.4577],[144.5473,-34.1711,82.6352],[144.5509,-34.1698,82.5602],[144.55,-34.1689,82.7032],[144.5514,-34.1683,82.0936],[144.5495,-34.1662,83.0247],[144.551,-34.1663,83.185],[144.5526,-34.1625,83.1269],[144.5471,-34.1633,81.883],[144.5464,-34.1624,82.3361],[144.5487,-34.1598,83.1712],[144.5464,-34.1588,82.293],[144.549,-34.1581,83.4393],[144.549,-34.154,82.9688],[144.5523,-34.1535,82.5042],[144.5522,-34.1512,82.2804],[144.5534,-34.152,82.974],[144.5549,-34.1503,83.9214],[144.5511,-34.1486,82.033],[144.5536,-34.1463,83.1136],[144.5511,-34.1437,82.9223],[144.5541,-34.144,84.9137],[144.5542,-34.1412,83.1565],[144.5576,-34.1429,84.3002],[144.5582,-34.1391,84.7041],[144.5554,-34.1386,82.8059],[144.5562,-34.1336,84.6304],[144.558,-34.1354,83.9603],[144.5624,-34.1289,83.9203],[144.5649,-34.1319,84.1792],[144.5679,-34.1295,83.0891],[144.567,-34.1324,84.2345],[144.5694,-34.131,84.3959],[144.5693,-34.1328,84.4169],[144.5748,-34.1353,83.3648],[144.5758,-34.134,84.2705],[144.574,-34.1337,84.2705],[144.5737,-34.1306,83.6922],[144.5777,-34.1324,85.7943],[144.5788,-34.1299,84.5507],[144.5826,-34.1308,84.1388],[144.5815,-34.128,85.2491],[144.5844,-34.1296,83.6073],[144.5865,-34.1286,83.6873],[144.583,-34.1272,85.9242],[144.5873,-34.125,86.0095],[144.5848,-34.1248,85.0325],[144.5873,-34.1226,85.3665],[144.5846,-34.1188,85.0314],[144.5865,-34.1198,83.9702],[144.5878,-34.1177,83.3547],[144.5898,-34.1194,84.6283],[144.5911,-34.1162,83.6549],[144.5921,-34.1189,83.925],[144.5949,-34.1163,83.928],[144.5962,-34.1182,83.1641],[144.5978,-34.1169,84.6836],[144.5999,-34.119,84.4857],[144.6017,-34.1158,87.7771],[144.6047,-34.1177,85.5566],[144.6052,-34.1118,85.4368],[144.6061,-34.1134,86.3459],[144.6084,-34.1128,85.7369],[144.6061,-34.1089,84.8521],[144.6096,-34.1087,84.3735],[144.6075,-34.1081,85.3062],[144.6086,-34.1072,84.0286],[144.6071,-34.1056,84.1781],[144.61,-34.1052,84.9582],[144.6098,-34.1022,85.0336],[144.6125,-34.101,84.456],[144.6134,-34.1023,85.6816],[144.6149,-34.0996,84.8321],[144.619,-34.1014,84.152],[144.6206,-34.0978,84.4253],[144.6243,-34.0975,85.01],[144.6226,-34.0945,84.6258],[144.6258,-34.0952,83.9936],[144.6248,-34.0917,84.0654],[144.6268,-34.089,85.3391],[144.6287,-34.0899,84.6388],[144.6291,-34.0869,85.584],[144.6305,-34.0888,85.9733],[144.6316,-34.0866,85.7288],[144.6336,-34.0879,85.7288],[144.6359,-34.0872,84.8249],[144.6351,-34.0846,85.8783],[144.6419,-34.0858,85.5748],[144.6412,-34.0828,84.3668],[144.6426,-34.084,85.5298],[144.6438,-34.0817,84.6991],[144.6444,-34.083,84.3757],[144.6462,-34.0814,86.0247],[144.6475,-34.0823,86.0247],[144.6513,-34.0796,85.9095],[144.6534,-34.0804,85.8293],[144.6518,-34.0812,85.9095],[144.6528,-34.0834,85.0215],[144.6557,-34.0814,86.8106],[144.6562,-34.0836,85.8709],[144.6592,-34.0822,86.8621],[144.6607,-34.0846,85.4486],[144.6606,-34.0832,87.281],[144.6634,-34.084,86.8905],[144.6651,-34.0814,86.5343],[144.6657,-34.0838,86.2804],[144.6689,-34.0815,85.391],[144.6689,-34.0853,85.3793],[144.6707,-34.0834,86.9525],[144.6759,-34.0847,85.4646],[144.6758,-34.0831,87.0889],[144.6741,-34.0841,87.9868],[144.6739,-34.0828,86.0216],[144.6759,-34.0823,87.1814],[144.6771,-34.0789,87.3266],[144.6745,-34.0764,85.3394],[144.6781,-34.078,87.3266],[144.6775,-34.0757,86.6867],[144.679,-34.0734,87.0192],[144.6801,-34.0731,87.0192],[144.6815,-34.0761,87.9639],[144.6811,-34.0736,86.7517],[144.6834,-34.0752,87.291],[144.6829,-34.0714,85.393],[144.6844,-34.0686,86.304],[144.6882,-34.0692,86.663],[144.6881,-34.0652,86.5123],[144.6842,-34.0646,86.495],[144.6853,-34.0592,87.2322],[144.6822,-34.0573,86.1614],[144.6882,-34.0563,86.5141],[144.687,-34.0554,86.335],[144.6893,-34.0538,85.7565],[144.6874,-34.0536,86.3198],[144.6883,-34.0516,86.7241],[144.6865,-34.0501,85.9259],[144.6878,-34.0485,87.1572],[144.6694,-34.0471,83.7546],[144.6592,-34.042,84.2966],[144.6503,-34.0422,85.7297],[144.6508,-34.0389,85.6394],[144.5581,-34.0284,83.9541],[144.5626,-34.0007,84.3818],[144.5524,-33.9997,84.2995],[144.5612,-33.9488,85.1404],[144.568,-33.9496,84.987799999999993],[144.5784,-33.8865,85.2135],[144.5423,-33.8823,84.27],[144.5538,-33.8134,86.348],[144.5441,-33.8123,85.8948],[144.5564,-33.7333,88.5259],[144.5132,-33.7283,87.1893],[144.5256,-33.6477,87.4699],[144.5218,-33.6435,87.7346],[144.5267,-33.6403,87.7545],[144.5313,-33.6104,88.4319],[144.4476,-33.6015,86.4361],[144.4605,-33.5163,88.1575],[144.4316,-33.5131,86.0223],[144.4414,-33.4525,86.756],[144.3906,-33.4468,85.2003],[144.3912,-33.4413,85.5268],[144.3824,-33.4404,85.4131],[144.3955,-33.3633,87.2781],[144.3649,-33.3598,84.555],[144.3666,-33.3241,85.3719],[144.3577,-33.3228,84.8954],[144.3588,-33.3082,84.8668],[144.3674,-33.3075,84.7717],[144.3687,-33.2827,84.8608]]]]}}