{"type": "Feature","bbox": [150.3354,-33.072,151.5021,-32.139],"geometry": {"type": "MultiPolygon","coordinates": [[[[151.4031,-32.6629,48.3843],[151.4053,-32.6586,14.3242],[151.4135,-32.6558,18.7795],[151.4244,-32.6462,18.4847],[151.4264,-32.6389,16.2697],[151.4339,-32.6242,17.9797],[151.4342,-32.6197,15.1962],[151.4308,-32.6154,22.3941],[151.4343,-32.6158,21.5188],[151.4348,-32.6136,17.4343],[151.4409,-32.6156,20.1897],[151.4451,-32.6124,53.8694],[151.4459,-32.6078,52.3192],[151.4525,-32.6087,77.7563],[151.4512,-32.6155,39.9242],[151.4708,-32.6182,83.5926],[151.4749,-32.5985,170.15],[151.4772,-32.5948,259.1838],[151.4765,-32.5869,321.158],[151.4739,-32.5865,247.6844],[151.4797,-32.5552,133.8951],[151.4961,-32.5573,322.7562],[151.5021,-32.5293,147.0732],[151.4951,-32.524,253.9841],[151.4957,-32.5192,267.4099],[151.4984,-32.5173,235.727],[151.5007,-32.5042,317.7862],[151.4965,-32.4973,373.4189],[151.4851,-32.4924,393.0701],[151.4557,-32.4707,211.4987],[151.4569,-32.4692,215.8901],[151.4544,-32.4645,276.8652],[151.4567,-32.4593,308.7956],[151.46,-32.4592,281.19],[151.4623,-32.4548,265.0631],[151.4664,-32.4531,261.857],[151.4686,-32.4485,313.1494],[151.4668,-32.4424,267.403],[151.47,-32.4408,255.0462],[151.468,-32.4365,301.9725],[151.4711,-32.4316,362.2408],[151.4747,-32.4301,410.5633],[151.4703,-32.4265,388.1173],[151.4673,-32.42,381.9301],[151.448,-32.4077,390.4881],[151.4473,-32.404,338.3818],[151.4505,-32.4017,347.9268],[151.4427,-32.3977,311.9637],[151.4371,-32.3883,411.6393],[151.4342,-32.3875,422.3687],[151.4324,-32.381,420.08],[151.4285,-32.378,500.3378],[151.4281,-32.37,567.1823],[151.4218,-32.3681,524.2311],[151.4214,-32.3613,426.7713],[151.4178,-32.3576,481.2726],[151.4133,-32.3562,436.8264],[151.4108,-32.349,398.6042],[151.398,-32.343,564.4661],[151.3938,-32.331,498.5847],[151.3958,-32.3251,518.6907],[151.383,-32.3241,427.4192],[151.3839,-32.3195,510.0156],[151.3895,-32.3203,492.584],[151.3903,-32.3156,463.1617],[151.3806,-32.3142,569.4056],[151.3715,-32.2916,625.4413],[151.3613,-32.2892,607.8495],[151.3581,-32.2851,663.2184],[151.3555,-32.2842,681.4785],[151.354,-32.2768,709.0781],[151.3486,-32.2761,622.7979],[151.3435,-32.2696,512.6094],[151.3412,-32.2695,442.387],[151.3423,-32.2681,501.4191],[151.3415,-32.2644,555.4387],[151.3394,-32.262,569.0952],[151.3413,-32.2593,531.4589],[151.3402,-32.2551,593.912],[151.343,-32.2491,735.6814],[151.34,-32.2392,731.0656],[151.3371,-32.2373,773.9392],[151.3421,-32.2267,621.4168],[151.3403,-32.2242,725.2286],[151.3481,-32.2191,842.2921],[151.3507,-32.2134,950.3342],[151.3481,-32.2108,850.0148],[151.3491,-32.2045,699.6733],[151.3452,-32.1994,693.3207],[151.3469,-32.1962,623.7524],[151.3434,-32.1923,602.4478],[151.3449,-32.1832,760.301],[151.342,-32.1756,775.0201],[151.3272,-32.1717,1156.4548],[151.3278,-32.1546,947.1187],[151.3174,-32.1467,1028.7896],[151.314,-32.14,1124.342],[151.3097,-32.139,1281.3306],[151.3077,-32.1424,1261.1472],[151.3073,-32.1475,1184.024],[151.3024,-32.154,1112.6135],[151.3006,-32.1604,1070.5146],[151.2961,-32.1649,966.608],[151.2948,-32.1696,826.3338],[151.2884,-32.1759,833.0422],[151.285,-32.1787,843.0549],[151.271,-32.1834,819.0961],[151.2557,-32.1995,821.6761],[151.2518,-32.2013,861.6622],[151.2463,-32.2096,861.4358],[151.2366,-32.2078,740.8179],[151.2262,-32.2118,732.6956],[151.223,-32.2173,658.9965],[151.2176,-32.2159,615.5449],[151.2143,-32.2188,629.3438],[151.2088,-32.2202,706.2741],[151.2072,-32.2248,692.8983],[151.201,-32.2277,637.3135],[151.1996,-32.233,703.8126],[151.1968,-32.2337,675.625],[151.1898,-32.2319,720.2872],[151.1851,-32.2267,790.9526],[151.1847,-32.2231,778.6063],[151.174,-32.2118,714.9095],[151.1705,-32.2105,654.2274],[151.1689,-32.2106,597.1984],[151.1685,-32.2125,583.181],[151.1592,-32.2111,506.062],[151.1571,-32.2213,400.7818],[151.1596,-32.2259,371.4639],[151.1589,-32.2283,361.8547],[151.1639,-32.2292,358.2801],[151.1647,-32.2327,359.8978],[151.1703,-32.2386,324.3808],[151.1687,-32.2398,320.6882],[151.169,-32.2437,326.6087],[151.1667,-32.2451,334.9548],[151.1673,-32.2484,314.1943],[151.162,-32.2553,282.0501],[151.1633,-32.2572,288.3041],[151.16,-32.2588,277.2103],[151.1561,-32.2666,263.6824],[151.1514,-32.2689,260.9501],[151.1487,-32.2691,262.9195],[151.143,-32.2659,266.2298],[151.142,-32.2669,260.2557],[151.1435,-32.2688,244.2204],[151.1408,-32.2713,243.1679],[151.1291,-32.2696,232.4338],[151.1263,-32.284,290.2126],[151.1096,-32.2817,229.5323],[151.1083,-32.2909,200.307],[151.1066,-32.291,200.645],[151.1065,-32.2944,194.8842],[151.1036,-32.2969,196.5468],[151.1052,-32.3014,216.3761],[151.1023,-32.3019,203.3071],[151.1038,-32.3062,195.1295],[151.1015,-32.3076,183.6663],[151.0995,-32.3069,177.9133],[151.0959,-32.3121,179.8927],[151.0969,-32.3163,168.0936],[151.0943,-32.3173,171.5535],[151.0951,-32.3207,178.9642],[151.0892,-32.3227,160.0114],[151.1015,-32.3243,187.669],[151.0996,-32.3356,193.5236],[151.0741,-32.3323,150.134],[151.0735,-32.3359,173.8728],[151.0481,-32.3323,137.8806],[151.0455,-32.3468,122.0594],[151.0286,-32.3446,158.3545],[151.0179,-32.4021,92.2253],[150.9842,-32.3976,173.3786],[150.9813,-32.4128,164.5747],[150.9759,-32.412,145.6296],[150.9767,-32.4078,152.201],[150.9603,-32.4054,171.5],[150.9596,-32.4075,172.0593],[150.9607,-32.4012,174.1124],[150.949,-32.3996,189.6311],[150.948,-32.405,213.4926],[150.898,-32.3971,224.7789],[150.8954,-32.4113,146.0528],[150.8974,-32.4149,141.0003],[150.8932,-32.4144,145.7214],[150.883,-32.4704,74.1259],[150.8639,-32.4574,74.3748],[150.8605,-32.4527,93.6791],[150.8533,-32.4504,80.9519],[150.8468,-32.4575,78.2904],[150.8436,-32.4794,87.0961],[150.8353,-32.4867,93.3441],[150.8315,-32.4866,84.4776],[150.827,-32.4837,82.1681],[150.8243,-32.4787,80.4211],[150.8171,-32.4722,81.7489],[150.8062,-32.4726,82.3414],[150.8051,-32.4678,87.2248],[150.8012,-32.4658,86.765],[150.7959,-32.4673,85.516],[150.7897,-32.4723,84.2293],[150.7781,-32.4741,86.4607],[150.7765,-32.4824,137.2338],[150.7808,-32.4839,164.4866],[150.7903,-32.4912,151.5128],[150.8,-32.5016,110.0284],[150.7736,-32.4983,316.8267],[150.7446,-32.6413,465.653],[150.682,-32.6325,243.7323],[150.6713,-32.6982,646.9815],[150.6688,-32.6987,670.4553],[150.6679,-32.7035,683.7786],[150.6623,-32.7066,684.0761],[150.6559,-32.7059,671.1434],[150.6514,-32.6985,645.4179],[150.6392,-32.7018,658.6404],[150.6373,-32.7043,666.1654],[150.6336,-32.7033,613.1451],[150.627,-32.708,558.7677],[150.6244,-32.7119,611.0122],[150.6263,-32.7138,643.0522],[150.624,-32.7159,627.6286],[150.6221,-32.714,676.7518],[150.6173,-32.7145,667.7815],[150.6104,-32.7127,701.3735],[150.6084,-32.7167,719.7665],[150.6006,-32.7181,700.0399],[150.6,-32.7236,689.3847],[150.5958,-32.7263,730.2266],[150.5975,-32.7298,717.4548],[150.5957,-32.7351,720.6758],[150.5895,-32.7373,733.2849],[150.5849,-32.7363,747.0062],[150.5807,-32.748,725.5227],[150.5752,-32.7499,754.7883],[150.5731,-32.7481,739.1349],[150.5643,-32.7558,767.2625],[150.5526,-32.7579,760.9247],[150.5468,-32.7614,765.6485],[150.5431,-32.7551,860.4308],[150.5357,-32.7569,845.7668],[150.5343,-32.759,842.9932],[150.5256,-32.7585,866.9462],[150.523,-32.7562,856.2387],[150.5228,-32.753,861.1411],[150.516,-32.7488,770.1907],[150.5101,-32.7511,796.632],[150.5078,-32.75,814.5519],[150.5047,-32.7526,832.3676],[150.4949,-32.753,858.8557],[150.4944,-32.7574,832.9819],[150.4915,-32.7607,829.0515],[150.4932,-32.7665,837.4395],[150.4865,-32.7677,794.0281],[150.4853,-32.7693,790.1184],[150.482,-32.7685,796.8048],[150.483,-32.7718,787.8239],[150.4775,-32.7721,779.3088],[150.4757,-32.7743,769.9139],[150.4728,-32.7723,780.3668],[150.4727,-32.7741,754.2274],[150.4685,-32.7787,813.7253],[150.4644,-32.78,843.6733],[150.4625,-32.7789,792.4861],[150.4642,-32.7878,793.5714],[150.4616,-32.7942,876.639],[150.4519,-32.7951,869.7846],[150.4442,-32.7919,936.7892],[150.4333,-32.799,846.05],[150.4304,-32.8082,868.1294],[150.4337,-32.8138,892.6178],[150.4306,-32.8155,875.3137],[150.4271,-32.8145,990.8967],[150.4254,-32.8183,920.1613],[150.4288,-32.8222,889.5503],[150.4251,-32.8227,943.6976],[150.4215,-32.8195,931.5361],[150.4168,-32.8208,934.4088],[150.413,-32.8247,886.1276],[150.4036,-32.825,910.0507],[150.4006,-32.8272,957.1884],[150.3923,-32.8271,1003.6545],[150.3867,-32.8325,991.9341],[150.3867,-32.8367,1028.4883],[150.3829,-32.8373,974.7738],[150.3817,-32.8393,1012.6631],[150.3759,-32.8374,966.0376],[150.3758,-32.839,965.4356],[150.3691,-32.8424,1080.4775],[150.366,-32.8477,1142.8224],[150.3623,-32.8484,1113.8833],[150.3609,-32.8567,910.5796],[150.3589,-32.8596,919.2893],[150.3614,-32.8681,945.7161],[150.3505,-32.8708,873.4272],[150.341,-32.8706,806.3344],[150.3405,-32.8756,866.7917],[150.3354,-32.8825,924.3732],[150.3401,-32.8877,994.712],[150.3443,-32.8881,1003.5612],[150.3471,-32.8906,1049.7126],[150.3468,-32.8963,883.0659],[150.3505,-32.9023,826.5912],[150.3489,-32.9094,811.8643],[150.353,-32.9101,760.3187],[150.3532,-32.9142,763.7696],[150.3552,-32.917,777.5453],[150.3527,-32.9232,787.3453],[150.3553,-32.9254,755.6604],[150.3598,-32.9258,714.3147],[150.3625,-32.9314,741.8427],[150.3613,-32.934,752.2388],[150.3663,-32.9365,767.4472],[150.3685,-32.9399,737.1689],[150.3674,-32.9535,761.3286],[150.3721,-32.9547,737.7441],[150.3725,-32.957,696.9156],[150.3763,-32.9592,732.5042],[150.376,-32.9644,740.3393],[150.3706,-32.9661,654.1011],[150.3714,-32.9702,781.7031],[150.3673,-32.9701,810.6079],[150.3666,-32.9716,803.9179],[150.3763,-32.9902,767.7628],[150.376,-32.9986,769.6393],[150.3739,-33.0014,790.6107],[150.3752,-33.0057,789.9988],[150.3707,-33.0106,777.4359],[150.3702,-33.0139,764.7232],[150.3788,-33.0194,770.1678],[150.3812,-33.025,750.2701],[150.3869,-33.0268,735.3998],[150.3901,-33.0298,742.3706],[150.3943,-33.0394,772.0666],[150.4007,-33.0332,746.0687],[150.405,-33.0245,742.973],[150.4131,-33.0237,741.533],[150.4196,-33.0279,708.5596],[150.4255,-33.0288,706.9827],[150.431,-33.0356,703.1978],[150.4377,-33.0346,689.584],[150.4422,-33.037,710.3585],[150.4483,-33.0354,683.4524],[150.4513,-33.0391,698.2833],[150.4552,-33.0386,687.4643],[150.4641,-33.041,681.0519],[150.4646,-33.0457,723.0353],[150.4664,-33.0466,701.8154],[150.4704,-33.0431,673.7329],[150.4719,-33.0461,666.6958],[150.4886,-33.0481,662.719],[150.492,-33.046,676.4],[150.4915,-33.0431,716.6015],[150.498,-33.035,670.399],[150.5104,-33.0378,644.1479],[150.5115,-33.0356,744.5139],[150.5195,-33.0349,722.4782],[150.5241,-33.0378,744.5099],[150.5307,-33.0373,686.5968],[150.534,-33.0426,633.0176],[150.5384,-33.0429,599.2594],[150.5416,-33.0407,579.4669],[150.5467,-33.043,567.017],[150.5445,-33.0439,525.9865],[150.5478,-33.0448,539.1774],[150.5489,-33.049,493.5321],[150.5524,-33.0512,468.6926],[150.5527,-33.0595,554.3271],[150.5722,-33.0589,516.7072],[150.5799,-33.0634,451.7459],[150.5889,-33.063,469.5272],[150.5912,-33.0662,429.8029],[150.5962,-33.066,420.618],[150.6045,-33.07,339.2895],[150.6092,-33.0688,301.2488],[150.6107,-33.0661,257.8591],[150.6296,-33.0616,430.4226],[150.6302,-33.0586,402.764],[150.7279,-33.072,354.94],[150.7181,-33.0687,361.1129],[150.7159,-33.0645,358.1672],[150.7072,-33.0586,364.5234],[150.7052,-33.055,366.173],[150.7064,-33.0483,373.0439],[150.7054,-33.0446,379.6132],[150.6966,-33.0418,386.5139],[150.69,-33.0443,370.9339],[150.6821,-33.0447,384.5513],[150.6821,-33.0318,350.9783],[150.679,-33.0277,404.3832],[150.6724,-33.0268,309.3586],[150.6714,-33.0241,313.1106],[150.6772,-33.0133,307.7544],[150.6856,-33.006,333.8978],[150.6873,-33.0014,331.8117],[150.6858,-32.9968,346.567],[150.6967,-32.9964,242.7291],[150.6966,-32.9986,233.5743],[150.7003,-32.9998,241.335],[150.7039,-33.0054,214.5367],[150.7022,-33.0085,243.9502],[150.7029,-33.0104,206.0274],[150.7095,-33.0115,211.6151],[150.7114,-33.0145,205.2685],[150.7149,-33.014,198.6138],[150.7164,-33.012,186.5978],[150.7235,-33.0123,178.1151],[150.7264,-33.013,200.6873],[150.7302,-33.0173,174.6453],[150.7357,-33.0162,191.8427],[150.7359,-33.0181,187.692],[150.7416,-33.0184,168.1494],[150.741,-33.02,173.6087],[150.7444,-33.0197,166.3055],[150.7454,-33.022,174.4146],[150.7512,-33.0205,162.1846],[150.7517,-33.018,167.1214],[150.7566,-33.0154,160.0774],[150.7611,-33.0148,145.7427],[150.7638,-33.0003,250.009],[150.8047,-33.006,124.9534],[150.8012,-33.0002,107.0701],[150.8046,-32.9996,137.6659],[150.8084,-33.0018,137.7148],[150.8117,-32.9991,110.5111],[150.8152,-32.9991,107.505],[150.8162,-32.9945,135.601],[150.8195,-32.9924,140.7775],[150.8191,-32.9867,128.2731],[150.8149,-32.9858,172.1124],[150.8194,-32.9837,159.7019],[150.8183,-32.9776,145.2555],[150.813,-32.9785,140.2776],[150.8161,-32.9768,121.7677],[150.8155,-32.9738,126.5561],[150.81,-32.9775,125.2819],[150.8088,-32.9766,179.6421],[150.8118,-32.9738,144.6843],[150.8115,-32.9689,140.3244],[150.8182,-32.9669,152.9339],[150.8146,-32.962,158.3697],[150.8232,-32.96,133.903],[150.8158,-32.9567,154.1239],[150.8141,-32.9544,146.5736],[150.8178,-32.9518,188.8353],[150.8152,-32.9488,147.6117],[150.8155,-32.9465,158.1917],[150.8248,-32.9443,140.4463],[150.8203,-32.9422,155.6746],[150.8205,-32.9399,165.7547],[150.8229,-32.9379,162.4292],[150.8172,-32.9354,161.5949],[150.8166,-32.9338,195.179],[150.8192,-32.9319,158.8713],[150.8159,-32.9312,161.443],[150.8169,-32.928,185.9999],[150.8114,-32.9247,158.9323],[150.8138,-32.9199,159.9345],[150.8253,-32.922,204.9543],[150.8367,-32.9188,302.4076],[150.8398,-32.9201,309.5928],[150.8468,-32.9298,387.2713],[150.8502,-32.9315,401.4182],[150.862,-32.9275,476.8015],[150.8707,-32.9285,428.4276],[150.8849,-32.933,421.4875],[150.8942,-32.9322,367.5451],[150.9003,-32.9294,346.7974],[150.9089,-32.9335,376.5021],[150.918,-32.9351,379.1934],[150.921,-32.9383,313.7018],[150.9259,-32.9369,340.6304],[150.9316,-32.9398,320.9754],[150.9375,-32.9405,344.2106],[150.9449,-32.9381,341.6051],[150.9506,-32.9406,338.2971],[150.9545,-32.9399,312.7775],[150.9591,-32.9436,308.2775],[150.9618,-32.9432,300.9459],[150.9637,-32.9406,306.1208],[150.9688,-32.9405,304.8644],[150.9719,-32.9419,310.4191],[150.976,-32.9476,290.9605],[150.9817,-32.9475,322.8801],[150.9834,-32.9498,287.3844],[150.9878,-32.9512,289.6544],[150.9899,-32.9553,315.3088],[150.9931,-32.9549,312.0965],[150.9956,-32.9521,307.6564],[151.0061,-32.9532,332.0827],[151.0131,-32.9455,347.4801],[151.0158,-32.9373,328.4755],[151.0209,-32.9351,298.505],[151.0201,-32.9322,308.8506],[151.0362,-32.9232,325.0083],[151.0429,-32.9226,328.6999],[151.0435,-32.9201,310.1897],[151.0498,-32.9163,284.3809],[151.0504,-32.913,288.5915],[151.0541,-32.9111,272.4865],[151.0554,-32.9063,276.9442],[151.0598,-32.9015,269.3676],[151.0598,-32.8991,288.7089],[151.063,-32.8985,294.0474],[151.0672,-32.893,262.789],[151.0679,-32.8867,244.295],[151.0665,-32.8857,261.114],[151.0683,-32.8822,271.7507],[151.0658,-32.8804,243.7988],[151.0608,-32.871,263.23],[151.066,-32.8673,153.2056],[151.0783,-32.8695,92.3935],[151.0855,-32.8669,88.0463],[151.0923,-32.8307,399.3694],[151.0936,-32.8303,421.2017],[151.0972,-32.8337,420.7191],[151.1062,-32.8261,429.7441],[151.1137,-32.8271,417.954],[151.1234,-32.8212,393.1937],[151.1346,-32.8171,466.5569],[151.1407,-32.817,466.5356],[151.1435,-32.8185,485.2157],[151.1469,-32.8176,480.969],[151.1482,-32.8137,474.4202],[151.1511,-32.8154,482.4113],[151.1508,-32.8132,501.9473],[151.1581,-32.8087,458.2828],[151.1703,-32.8051,489.5198],[151.1703,-32.802,503.3172],[151.173,-32.8005,488.3392],[151.1741,-32.7959,518.0332],[151.1781,-32.793,507.5003],[151.1802,-32.7926,497.0627],[151.1833,-32.7955,481.8602],[151.1863,-32.7941,509.6257],[151.1894,-32.7957,526.0414],[151.1934,-32.7951,515.7381],[151.1985,-32.7906,510.5281],[151.2039,-32.7887,512.7237],[151.2039,-32.7863,509.7877],[151.2065,-32.7849,493.9342],[151.2075,-32.7823,511.6914],[151.2179,-32.7818,529.3281],[151.2212,-32.7783,511.7868],[151.2208,-32.7716,513.6281],[151.225,-32.7662,544.2004],[151.2162,-32.7565,466.7183],[151.2088,-32.7539,500.5153],[151.2137,-32.7438,156.4006],[151.2164,-32.7442,149.1048],[151.2168,-32.7417,140.9629],[151.2336,-32.7438,118.7358],[151.2339,-32.7424,113.5612],[151.268,-32.7471,80.3744],[151.2765,-32.7042,82.2741],[151.3171,-32.7098,62.3195],[151.3229,-32.681,48.3501],[151.3342,-32.6827,61.1569],[151.3404,-32.6488,25.0869],[151.3744,-32.6527,59.3719],[151.3733,-32.6587,45.931],[151.4031,-32.6629,48.3843]]]]}
,"properties": {"GID_2": "AUS.5.118_1","GID_0": "AUS","country": "Australia","GID_1": "AUS.5_1","state": "NewSouthWales","NL_NAME_1": "NA","county": "Singleton","VARNAME_2": "NA","NL_NAME_2": "NA","TYPE_2": "Area","ENGTYPE_2": "Area","CC_2": "17000","HASC_2": "AU.NS.SI","name": "Singleton.county","area_km2": 4894.829,"hist_schema_id": "Elevation0-9000","hist_area_km2": {"-75": 0.626,"-50": 0.787,"-25": 2.234,"0": 4.503,"25": 99.546,"50": 249.03,"75": 451.833,"100": 400.297,"125": 284.238,"150": 192.28,"175": 165.93,"200": 170.552,"225": 185.694,"250": 205.802,"275": 223.398,"300": 230.837,"325": 232.095,"350": 220.115,"375": 196.312,"400": 168.721,"425": 143.569,"450": 117.874,"475": 99.024,"500": 89.385,"525": 78.106,"550": 73.379,"575": 71.0,"600": 75.345,"625": 78.244,"650": 78.682,"675": 75.627,"700": 59.696,"725": 45.394,"750": 33.581,"775": 26.461,"800": 18.641,"825": 14.251,"850": 10.653,"875": 6.334,"900": 4.281,"925": 2.391,"950": 2.092,"975": 1.483,"1000": 1.09,"1025": 0.841,"1050": 0.591,"1075": 0.644,"1100": 0.466,"1125": 0.287,"1150": 0.179,"1175": 0.197,"1225": 0.054,"1275": 0.072}}}