{"type":"Feature","properties":{"GID_2":"AUS.10.18_1","GID_0":"AUS","country":"Australia","GID_1":"AUS.10_1","state":"Victoria","NL_NAME_1":"NA","county":"Darebin","VARNAME_2":"NA","NL_NAME_2":"NA","TYPE_2":"City","ENGTYPE_2":"City","CC_2":"21890","HASC_2":"AU.VI.DA","name":"Darebin.county"},
"geometry":{"type": "MultiPolygon","coordinates": [[[[145.0582,-37.7,109.2676],[144.9707,-37.6917,84.8423],[144.976,-37.695,87.0883],[144.9787,-37.6944,87.3391],[144.9787,-37.6971,83.2658],[144.9807,-37.6981,80.8413],[144.9794,-37.7003,79.5702],[144.9825,-37.703,76.3099],[144.9786,-37.7046,74.2139],[144.9808,-37.7074,74.1724],[144.9771,-37.7102,77.247],[144.979,-37.7125,70.9364],[144.977,-37.7136,74.969],[144.9809,-37.7146,70.7587],[144.9781,-37.7167,67.4641],[144.9786,-37.7214,74.0894],[144.9853,-37.7214,67.5778],[144.983,-37.7358,50.7268],[144.979,-37.7427,40.7778],[144.982,-37.7455,41.9898],[144.9801,-37.7463,39.8178],[144.9818,-37.7521,38.3172],[144.9792,-37.7542,43.2796],[144.9832,-37.7616,34.2212],[144.9815,-37.7628,34.2212],[144.9856,-37.7662,44.1994],[144.9845,-37.7712,35.0207],[144.9886,-37.7752,33.9596],[144.9921,-37.7826,30.7924],[144.9983,-37.7856,37.637],[145.0018,-37.7831,26.1223],[145.0042,-37.7844,34.8489],[145.0123,-37.7842,35.6217],[145.036,-37.7789,21.9154],[145.0345,-37.7789,28.3443],[145.0359,-37.7751,25.551],[145.0341,-37.7726,33.0309],[145.0368,-37.7726,26.2466],[145.0368,-37.7706,31.581],[145.0323,-37.7707,36.8089],[145.0308,-37.7651,50.7156],[145.0278,-37.7638,49.1941],[145.0299,-37.7602,53.7776],[145.0291,-37.7578,50.5555],[145.0322,-37.7568,52.2046],[145.0306,-37.7548,52.3193],[145.0314,-37.7509,54.1842],[145.0361,-37.7469,53.2357],[145.0334,-37.7456,55.333],[145.0351,-37.7436,57.5385],[145.032,-37.7378,58.7701],[145.034,-37.7352,57.443],[145.0375,-37.735,68.0706],[145.04,-37.7327,63.4079],[145.0383,-37.7301,60.1922],[145.0405,-37.7299,63.1955],[145.0386,-37.7273,63.1183],[145.0608,-37.7295,100.4249],[145.0615,-37.7242,99.1047],[145.0678,-37.7245,64.9114],[145.0647,-37.7202,74.1322],[145.0678,-37.7166,92.0519],[145.0745,-37.7161,92.6188],[145.075,-37.7088,95.4211],[145.0513,-37.7084,116.6817],[145.0582,-37.7,109.2676]]]]}}