{"type":"Feature","properties":{"GID_2":"AUS.5.13_1","GID_0":"AUS","country":"Australia","GID_1":"AUS.5_1","state":"NewSouthWales","NL_NAME_1":"NA","county":"Bland","VARNAME_2":"NA","NL_NAME_2":"NA","TYPE_2":"Area","ENGTYPE_2":"Area","CC_2":"10800","HASC_2":"AU.NS.BD","name":"Bland.county"},
"geometry":{"type": "MultiPolygon","coordinates": [[[[147.4035,-33.5274,208.4085],[147.4005,-33.5288,203.0],[147.3584,-33.5253,206.128],[147.3427,-33.5352,224.3165],[147.3389,-33.5567,239.2343],[147.3224,-33.5548,277.6328],[147.3204,-33.5678,266.7962],[147.2781,-33.5628,233.4249],[147.2761,-33.5752,247.386],[147.2459,-33.5719,233.0136],[147.2428,-33.5918,228.7274],[147.1077,-33.5752,215.2276],[147.1075,-33.5773,215.0042],[147.1044,-33.5775,214.1746],[146.9864,-33.5638,268.2967],[146.9885,-33.552,255.4506],[146.8308,-33.5324,281.54],[146.8298,-33.538,274.5046],[146.8204,-33.5282,275.5433],[146.8143,-33.5301,283.6149],[146.8176,-33.5373,293.9956],[146.8215,-33.5376,288.4282],[146.8089,-33.6072,246.8055],[146.4456,-33.5639,179.2877],[146.4408,-33.5209,178.8755],[146.2264,-33.5741,160.7027],[146.2266,-33.5729,160.1821],[146.0951,-33.6031,169.5595],[146.0703,-33.7535,259.7685],[146.3172,-33.7805,251.5336],[146.3166,-33.7842,242.0458],[146.3192,-33.7864,258.9681],[146.3201,-33.7811,290.5492],[146.4372,-33.7946,190.8275],[146.4171,-33.9106,173.3208],[146.4927,-33.9196,196.2894],[146.4704,-34.0638,155.3126],[146.458,-34.1329,149.442],[146.5855,-34.1463,158.3696],[146.5897,-34.1449,158.5165],[146.5915,-34.1401,158.1032],[146.5985,-34.1409,158.2354],[146.5974,-34.1472,160.2021],[146.6354,-34.1512,163.8506],[146.6239,-34.2247,163.4587],[146.729,-34.2368,182.0576],[146.7188,-34.2981,180.095],[146.823,-34.3109,246.4921],[146.8251,-34.299,251.9702],[146.9114,-34.3097,263.175],[146.9133,-34.2992,323.2509],[146.9238,-34.3005,258.2936],[146.9249,-34.2944,245.5724],[146.9341,-34.2956,239.1253],[146.9345,-34.2935,245.2525],[146.9796,-34.2991,233.2643],[146.9781,-34.3072,213.9283],[146.9796,-34.3103,214.6612],[146.9973,-34.3029,215.0276],[147.0332,-34.2972,219.6524],[147.0479,-34.2965,221.156],[147.0723,-34.3013,223.4639],[147.1077,-34.3172,228.4769],[147.1084,-34.3085,231.1461],[147.1172,-34.3125,249.6772],[147.12,-34.3118,237.8881],[147.1248,-34.2842,233.6859],[147.128,-34.2846,238.5446],[147.1293,-34.2765,237.7],[147.255,-34.2913,261.4875],[147.2648,-34.2354,292.8829],[147.2688,-34.2354,294.9964],[147.2685,-34.2409,287.9753],[147.2713,-34.2449,283.7501],[147.2831,-34.2449,281.5217],[147.2857,-34.2505,280.8151],[147.2916,-34.2537,300.2214],[147.297,-34.2544,275.2973],[147.3016,-34.2287,260.4208],[147.2846,-34.2206,269.4248],[147.3062,-34.2043,255.5286],[147.2962,-34.2027,258.8669],[147.3009,-34.1762,264.7461],[147.3908,-34.1873,232.4263],[147.3888,-34.1978,233.4876],[147.3984,-34.1991,233.1474],[147.398,-34.2012,234.2431],[147.416,-34.2036,237.2635],[147.4193,-34.2084,237.5163],[147.4204,-34.2086,237.9906],[147.4218,-34.2024,237.8644],[147.4704,-34.2087,295.6711],[147.4763,-34.1764,270.7547],[147.4673,-34.1752,288.4738],[147.4693,-34.164,256.1383],[147.4703,-34.1642,256.1383],[147.4724,-34.153,273.2153],[147.4807,-34.154,296.8171],[147.4896,-34.1118,221.6969],[147.4948,-34.1117,221.5948],[147.4962,-34.1066,223.3204],[147.516,-34.111,235.7894],[147.584,-34.1179,226.9205],[147.5804,-34.138,229.8446],[147.63,-34.1442,229.7342],[147.6329,-34.1296,228.6217],[147.6504,-34.1318,229.2557],[147.6507,-34.1303,229.1237],[147.6598,-34.1315,228.5657],[147.6612,-34.1333,229.0694],[147.666,-34.1301,230.2653],[147.6666,-34.1325,229.2346],[147.6699,-34.1331,231.5178],[147.671,-34.1411,231.2492],[147.6748,-34.1422,231.0744],[147.6762,-34.1453,230.3655],[147.6797,-34.1467,231.2857],[147.6843,-34.1453,232.4498],[147.6927,-34.1468,232.9759],[147.6938,-34.151,233.2565],[147.6961,-34.1489,232.5568],[147.6992,-34.1523,232.8029],[147.698,-34.1541,233.4104],[147.7005,-34.1565,234.0818],[147.6995,-34.1579,232.3064],[147.7006,-34.1588,234.1991],[147.7052,-34.1576,232.9781],[147.7086,-34.1593,235.5319],[147.7105,-34.1586,234.0007],[147.7156,-34.1633,233.0345],[147.7184,-34.163,232.8759],[147.7181,-34.1609,233.1218],[147.7203,-34.1601,233.4014],[147.7189,-34.1587,234.0751],[147.7197,-34.1569,233.3104],[147.7241,-34.156,234.9059],[147.7244,-34.1522,235.4763],[147.7256,-34.153,237.0404],[147.73,-34.1513,235.5627],[147.7305,-34.1491,234.6013],[147.739,-34.1455,236.0686],[147.744,-34.1409,238.0888],[147.753,-34.1423,237.4105],[147.7541,-34.1395,238.3151],[147.7561,-34.1402,238.7588],[147.7565,-34.1426,237.7588],[147.7592,-34.1423,238.6095],[147.7607,-34.1324,239.3384],[147.7669,-34.1317,240.1329],[147.771,-34.1133,240.32],[147.7658,-34.1126,241.0768],[147.7718,-34.0839,243.3611],[147.7809,-34.0851,245.1844],[147.784,-34.0697,246.8657],[147.7773,-34.0688,246.1907],[147.7768,-34.072,245.7313],[147.7724,-34.0714,245.3361],[147.7731,-34.068,245.0911],[147.7677,-34.0672,244.3885],[147.7692,-34.0609,243.0966],[147.7572,-34.059,240.801],[147.7367,-33.9985,238.4826],[147.7229,-33.9974,235.362],[147.7234,-33.9948,235.5838],[147.7302,-33.9956,236.0073],[147.7324,-33.9835,236.8127],[147.7221,-33.9821,236.3569],[147.7272,-33.9545,235.1895],[147.7098,-33.9524,232.3882],[147.7128,-33.9365,233.0244],[147.6992,-33.9348,230.6666],[147.6994,-33.9333,233.3694],[147.6956,-33.9328,234.0426],[147.6967,-33.9266,234.9622],[147.5554,-33.9087,214.9121],[147.5539,-33.906,214.6724],[147.5406,-33.9106,215.3851],[147.5414,-33.9029,214.6428],[147.54,-33.9018,215.3365],[147.5446,-33.8987,214.3766],[147.5461,-33.8944,215.0105],[147.5503,-33.8941,214.9884],[147.5437,-33.8902,214.4187],[147.5459,-33.8857,213.5268],[147.5459,-33.8817,213.8903],[147.5489,-33.8804,213.758],[147.5471,-33.8785,214.2543],[147.5501,-33.8774,213.5471],[147.5509,-33.8752,213.5898],[147.5541,-33.8748,212.9755],[147.5538,-33.8715,213.136],[147.5569,-33.8707,213.8428],[147.5532,-33.8687,213.0816],[147.5513,-33.8709,213.1944],[147.5502,-33.8673,213.5552],[147.5465,-33.868899999999996,213.3753],[147.5474,-33.8633,212.8976],[147.5435,-33.8625,212.9661],[147.541,-33.8573,212.341],[147.5412,-33.8546,212.457],[147.5438,-33.8536,212.4309],[147.5416,-33.8514,212.4023],[147.5449,-33.8425,211.7172],[147.544,-33.8398,211.9611],[147.554,-33.8313,211.6345],[147.5449,-33.8254,211.0217],[147.5463,-33.8224,210.9582],[147.5499,-33.8217,210.783],[147.5455,-33.8179,210.6905],[147.5476,-33.8157,210.5724],[147.5448,-33.8132,210.4304],[147.5461,-33.8101,210.2069],[147.5415,-33.81,210.8297],[147.541,-33.8088,210.3162],[147.5436,-33.8077,210.2569],[147.5416,-33.806,209.935],[147.5378,-33.8054,210.6166],[147.5362,-33.8067,210.1242],[147.5357,-33.8051,210.5609],[147.5382,-33.8029,209.874],[147.5359,-33.7998,210.9505],[147.534,-33.8002,210.0048],[147.5355,-33.8023,211.1651],[147.5309,-33.8033,210.647],[147.5309,-33.8047,210.402],[147.5259,-33.8043,210.5704],[147.5228,-33.802,211.5486],[147.5231,-33.7994,209.9826],[147.5256,-33.7989,211.8891],[147.5246,-33.7961,209.552],[147.5276,-33.7951,211.8696],[147.5254,-33.7946,210.6985],[147.5271,-33.7921,211.696],[147.5239,-33.7926,210.4448],[147.5232,-33.7913,210.4448],[147.5277,-33.7901,210.1021],[147.5284,-33.7886,209.3525],[147.5269,-33.786,210.186],[147.5281,-33.7844,209.1246],[147.5236,-33.7854,210.1343],[147.5235,-33.7832,209.9044],[147.5263,-33.7826,209.5163],[147.5227,-33.7812,208.9291],[147.5251,-33.7796,208.8696],[147.5242,-33.7763,209.3698],[147.5212,-33.777,209.7394],[147.5235,-33.7739,208.9558],[147.5255,-33.7747,209.7968],[147.5228,-33.7706,209.8012],[147.5258,-33.77,210.4087],[147.5226,-33.7698,209.0038],[147.5233,-33.7673,208.8621],[147.5212,-33.7658,208.4353],[147.5237,-33.7638,209.4665],[147.5216,-33.7626,209.023],[147.5243,-33.7617,210.1483],[147.5208,-33.7615,209.023],[147.5212,-33.7587,208.5888],[147.5184,-33.7592,208.4295],[147.521,-33.7564,208.9673],[147.5179,-33.7578,208.694],[147.5163,-33.7557,208.066],[147.515,-33.7521,207.8727],[147.5177,-33.7525,207.0551],[147.5172,-33.7499,207.7842],[147.5189,-33.7485,208.5484],[147.514,-33.7489,207.1717],[147.5147,-33.7461,208.0641],[147.5104,-33.7461,207.8798],[147.5148,-33.7426,208.3275],[147.5124,-33.7415,207.3018],[147.5145,-33.7403,208.942],[147.5127,-33.739,208.0871],[147.5145,-33.7349,207.3934],[147.5193,-33.7369,207.6794],[147.5198,-33.7359,207.6148],[147.5138,-33.7325,207.0074],[147.5154,-33.7289,207.1472],[147.5122,-33.7291,207.1983],[147.5117,-33.7313,207.3919],[147.5103,-33.7314,207.334],[147.5096,-33.7297,206.8093],[147.5125,-33.727,207.4776],[147.5125,-33.7245,207.6202],[147.5066,-33.7218,206.403],[147.5081,-33.7183,205.7196],[147.5125,-33.7197,207.589],[147.515,-33.7178,206.9746],[147.5083,-33.7134,206.1847],[147.5104,-33.7112,206.2818],[147.5143,-33.7115,205.9856],[147.5091,-33.7083,205.9636],[147.5123,-33.7064,206.2705],[147.5107,-33.705,205.8199],[147.5028,-33.7093,205.9599],[147.5003,-33.7053,205.6398],[147.4987,-33.708,206.7093],[147.4973,-33.7077,205.372],[147.4961,-33.7033,206.0532],[147.4821,-33.7035,205.0845],[147.4834,-33.6879,204.4395],[147.4791,-33.6889,204.9884],[147.4716,-33.6858,205.8265],[147.4715,-33.6824,204.0],[147.4688,-33.6789,204.0],[147.4693,-33.6744,204.0],[147.4441,-33.6127,204.0],[147.4171,-33.5319,204.0],[147.4078,-33.5307,207.4472],[147.4035,-33.5274,208.4085]]]]}}