{"type":"Feature","properties":{"GID_2":"AUS.5.2_1","GID_0":"AUS","country":"Australia","GID_1":"AUS.5_1","state":"NewSouthWales","NL_NAME_1":"NA","county":"ArmidaleDumaresq","VARNAME_2":"NA","NL_NAME_2":"NA","TYPE_2":"Area","ENGTYPE_2":"Area","CC_2":"10110","HASC_2":"AU.NS.AD","name":"ArmidaleDumaresq.county"},
"geometry":{"type": "MultiPolygon","coordinates": [[[[152.4281,-30.4189,1512.8269],[152.4242,-30.4179,1480.8838],[152.4167,-30.4073,1405.8978],[152.4137,-30.4063,1382.9055],[152.4082,-30.3994,1356.218],[152.3968,-30.3926,1337.8644],[152.3944,-30.387,1419.0474],[152.3904,-30.3863,1418.5958],[152.3875,-30.3832,1414.9576],[152.3899,-30.3747,1417.9407],[152.386,-30.3709,1340.0383],[152.3835,-30.3641,1301.1562],[152.3813,-30.3632,1304.6045],[152.373,-30.3683,1317.8325],[152.3685,-30.3758,1310.5994],[152.3619,-30.3825,1301.1219],[152.3576,-30.3928,1309.7051],[152.3469,-30.4049,1284.1971],[152.3399,-30.4167,1339.4351],[152.3241,-30.4243,1308.3698],[152.3242,-30.4326,1339.2122],[152.3208,-30.439,1337.1957],[152.3177,-30.4405,1354.7667],[152.3153,-30.4486,1364.1036],[152.3051,-30.4394,1391.3293],[152.3029,-30.4421,1386.3646],[152.3008,-30.4506,1380.6082],[152.2958,-30.45,1364.4631],[152.2964,-30.4467,1355.1309],[152.2857,-30.4453,1361.6949],[152.2841,-30.4544,1412.3623],[152.2812,-30.4575,1419.5997],[152.2758,-30.4554,1416.9043],[152.2757,-30.4465,1373.787],[152.2601,-30.4436,1370.0609],[152.256,-30.4462,1372.7233],[152.2484,-30.4478,1413.402],[152.2442,-30.4453,1404.2607],[152.2425,-30.4401,1493.7977],[152.2402,-30.438,1558.5792],[152.2217,-30.4308,1526.6508],[152.2189,-30.4285,1544.6656],[152.2181,-30.4257,1554.2766],[152.2207,-30.4189,1509.0493],[152.2258,-30.4152,1544.2531],[152.2272,-30.4122,1504.4773],[152.2206,-30.4064,1424.6299],[152.2169,-30.3948,1434.4236],[152.2063,-30.39,1407.0837],[152.2049,-30.3871,1441.4854],[152.1977,-30.3828,1471.1361],[152.1994,-30.3779,1462.8744],[152.1934,-30.3718,1424.661],[152.1775,-30.3682,1442.1427],[152.1761,-30.3602,1333.8143],[152.1693,-30.3537,1315.7832],[152.1691,-30.3491,1307.927],[152.1639,-30.343,1314.7002],[152.1507,-30.3347,1308.6884],[152.149,-30.326,1325.1277],[152.1537,-30.3197,1282.0623],[152.151,-30.314,1276.8293],[152.151,-30.3095,1278.2153],[152.1434,-30.3005,1275.3362],[152.1433,-30.2956,1281.6577],[152.1403,-30.2891,1256.7325],[152.1321,-30.2831,1262.8651],[152.0961,-30.2807,1277.2659],[152.0728,-30.284,1289.5809],[152.0675,-30.283,1258.843],[152.0607,-30.2787,1262.7457],[152.06,-30.2755,1251.1051],[152.0398,-30.2729,1247.4319],[152.0329,-30.2801,1253.7209],[152.0312,-30.279,1240.0475],[152.0279,-30.2824,1274.3778],[152.0207,-30.278199999999998,1288.5581],[152.0291,-30.2694,1209.4656],[152.023,-30.2643,1150.8896],[152.0228,-30.2654,1162.5098],[152.0069,-30.2635,1141.4436],[152.0071,-30.2624,1134.126],[152.0021,-30.2618,1137.0571],[151.997,-30.2634,1143.25],[151.9956,-30.261,1142.1593],[151.9901,-30.2635,1145.9758],[151.988,-30.2598,1142.7051],[151.9895,-30.2567,1144.7705],[151.9843,-30.2586,1150.0063],[151.9832,-30.255,1151.422],[151.9804,-30.2554,1153.3694],[151.9804,-30.259,1151.5905],[151.9786,-30.2587,1152.9249],[151.9786,-30.2568,1152.489],[151.9696,-30.2575,1158.9147],[151.9655,-30.2608,1169.2708],[151.9682,-30.2623,1160.5015],[151.9643,-30.2623,1169.9922],[151.9648,-30.2654,1165.4086],[151.9558,-30.2685,1170.3927],[151.9561,-30.2721,1171.3142],[151.9493,-30.2717,1179.1886],[151.9473,-30.2729,1187.3311],[151.9396,-30.2701,1192.7977],[151.9388,-30.2716,1194.5239],[151.9347,-30.2712,1189.0686],[151.9294,-30.2673,1194.6636],[151.9299,-30.2645,1192.0522],[151.9284,-30.2632,1192.0522],[151.9252,-30.2632,1191.7717],[151.9212,-30.266,1196.2886],[151.9199,-30.2642,1222.554],[151.922,-30.2616,1199.9937],[151.9106,-30.2608,1200.6643],[151.9093,-30.2583,1213.1823],[151.9111,-30.2592,1199.0563],[151.9119,-30.2575,1204.6318],[151.9146,-30.2588,1204.4841],[151.9165,-30.2576,1207.3698],[151.9113,-30.2541,1211.884],[151.9119,-30.2528,1205.9907],[151.9086,-30.2482,1204.6584],[151.9023,-30.2489,1206.5051],[151.9053,-30.2444,1207.6632],[151.9034,-30.2422,1217.8949],[151.9041,-30.2405,1216.5635],[151.8979,-30.2345,1230.1643],[151.8952,-30.2338,1222.9381],[151.8948,-30.2318,1213.6807],[151.8879,-30.2348,1229.0461],[151.887,-30.232,1216.0104],[151.8813,-30.232,1218.491],[151.8794,-30.2428,1288.125],[151.8772,-30.2425,1314.0547],[151.8742,-30.2596,1287.7908],[151.894,-30.2623,1283.1158],[151.8938,-30.2696,1267.7139],[151.8995,-30.2703,1292.4937],[151.8987,-30.2752,1290.6079],[151.8947,-30.2747,1245.0347],[151.8951,-30.2711,1267.7139],[151.8849,-30.2698,1285.1503],[151.8843,-30.2734,1280.3462],[151.8884,-30.2739,1256.6556],[151.8867,-30.2847,1263.9816],[151.897,-30.286,1264.748],[151.8967,-30.2878,1273.2368],[151.8953,-30.2876,1267.1462],[151.8948,-30.2909,1273.4052],[151.8861,-30.2915,1273.5635],[151.8843,-30.302,1294.6462],[151.8888,-30.3026,1306.2413],[151.8882,-30.3063,1274.6949],[151.8862,-30.306,1297.6167],[151.8854,-30.3107,1191.9875],[151.877,-30.3095,1302.7729],[151.8745,-30.3243,1122.0585],[151.8633,-30.3208,1142.7084],[151.8595,-30.3227,1135.0476],[151.8553,-30.3217,1141.2209],[151.8529,-30.3184,1145.5742],[151.8499,-30.3212,1152.7891],[151.8467,-30.3158,1177.4235],[151.8435,-30.3151,1169.3701],[151.8375,-30.3076,1168.6356],[151.8344,-30.3054,1191.4884],[151.8317,-30.3059,1173.7517],[151.8304,-30.302,1186.2068],[151.8268,-30.3031,1200.8875],[151.8258,-30.2993,1216.6587],[151.8227,-30.298,1192.3779],[151.817,-30.2987,1208.887],[151.815,-30.297,1210.5475],[151.8085,-30.3006,1218.8785],[151.8069,-30.2998,1248.8145],[151.8069,-30.297,1227.8252],[151.8024,-30.2963,1237.6477],[151.8015,-30.2945,1256.0868],[151.7995,-30.3066,1260.9208],[151.7957,-30.3061,1256.4739],[151.7918,-30.3269,1058.7242],[151.787,-30.3289,1062.2224],[151.7851,-30.332,1059.3933],[151.7815,-30.3261,1079.6295],[151.7776,-30.323,1092.1355],[151.7799,-30.321,1080.8524],[151.7738,-30.3224,1103.2139],[151.774,-30.326,1108.4659],[151.7725,-30.3268,1095.5015],[151.7704,-30.3236,1097.0653],[151.7706,-30.3179,1101.1058],[151.7663,-30.3158,1104.7106],[151.7661,-30.3141,1116.2898],[151.7582,-30.3168,1108.8221],[151.7553,-30.3121,1125.2903],[151.7503,-30.3098,1135.8394],[151.7511,-30.3066,1133.5421],[151.7458,-30.3067,1157.1472],[151.7449,-30.3042,1142.0398],[151.7422,-30.3045,1140.7948],[151.7429,-30.3003,1145.2773],[151.7391,-30.3002,1153.8811],[151.7406,-30.2968,1158.7657],[151.7275,-30.295,1259.4774],[151.7273,-30.2963,1261.8618],[151.7311,-30.2968,1261.9332],[151.7305,-30.3006,1247.5449],[151.7224,-30.2997,1238.2983],[151.7221,-30.3016,1238.0784],[151.7082,-30.2987,1292.3566],[151.706,-30.301,1302.5527],[151.7168,-30.3025,1265.1405],[151.7159,-30.308,1297.5443],[151.7119,-30.3071,1316.7941],[151.7111,-30.3116,1306.3693],[151.7169,-30.3125,1283.5981],[151.7162,-30.3162,1324.9421],[151.7194,-30.3167,1279.2662],[151.7187,-30.3203,1289.6122],[151.7062,-30.3184,1331.4561],[151.7075,-30.3111,1328.5583],[151.7034,-30.3105,1335.5394],[151.7038,-30.3082,1326.1742],[151.6895,-30.3061,1351.9625],[151.6902,-30.3166,1334.3389],[151.6884,-30.3187,1328.5393],[151.6819,-30.316,1348.3591],[151.6814,-30.3181,1333.3855],[151.6732,-30.3169,1346.2966],[151.6735,-30.3147,1344.2858],[151.6692,-30.3141,1320.3911],[151.6687,-30.3165,1280.4398],[151.6613,-30.3155,1339.9004],[151.6595,-30.3253,1304.7444],[151.661,-30.3255,1319.5752],[151.6605,-30.3277,1277.1401],[151.6624,-30.3287,1252.0056],[151.6601,-30.3303,1225.9304],[151.6562,-30.3298,1218.175],[151.655,-30.336,1205.9043],[151.64,-30.3338,1256.8735],[151.6393,-30.3374,1224.0901],[151.63,-30.3361,1295.5884],[151.6303,-30.3342,1315.5538],[151.6282,-30.3339,1315.5452],[151.6243,-30.3359,1310.9901],[151.6212,-30.3433,1299.8741],[151.6108,-30.3456,1276.3201],[151.6109,-30.3443,1264.4846],[151.6055,-30.3436,1258.318],[151.6044,-30.3384,1264.387],[151.612,-30.3387,1272.95],[151.6123,-30.3365,1269.217],[151.6048,-30.3355,1267.3235],[151.6108,-30.303,1202.9811],[151.6084,-30.3049,1201.6489],[151.611,-30.2881,1268.0688],[151.6152,-30.2886,1270.5551],[151.6185,-30.2786,1290.2295],[151.5908,-30.2734,1266.9524],[151.5826,-30.2746,1273.7009],[151.5675,-30.2722,1222.9091],[151.5647,-30.275,1220.5101],[151.5612,-30.2743,1216.1606],[151.5569,-30.2805,1238.6428],[151.5545,-30.2811,1238.6343],[151.5496,-30.2903,1211.0695],[151.5287,-30.2972,1212.2722],[151.5272,-30.3043,1181.0737],[151.5246,-30.3039,1197.7479],[151.5203,-30.3093,1196.9636],[151.5159,-30.3068,1191.4218],[151.5108,-30.3085,1180.9697],[151.4976,-30.3081,1183.692],[151.4961,-30.3063,1157.9366],[151.4953,-30.3101,1200.4062],[151.4768,-30.3075,1125.6445],[151.4784,-30.2986,1186.458],[151.4766,-30.2952,1176.1393],[151.4336,-30.2894,1066.823],[151.4312,-30.3017,1093.5177],[151.3964,-30.2968,1067.8344],[151.402,-30.2662,957.9316],[151.3897,-30.2625,943.8979],[151.3885,-30.2635,946.0262],[151.3912,-30.265,941.1885],[151.3874,-30.2706,938.0717],[151.3909,-30.2729,940.3438],[151.3865,-30.2774,935.7601],[151.3794,-30.2776,931.2936],[151.3792,-30.2802,930.843],[151.3748,-30.2848,947.5509],[151.3696,-30.2845,938.1158],[151.3672,-30.2815,907.7239],[151.3648,-30.2828,904.646],[151.3625,-30.2811,904.0691],[151.3571,-30.2852,889.6235],[151.3489,-30.2774,864.9166],[151.3442,-30.2772,864.3943],[151.3375,-30.2716,835.5002],[151.33,-30.2742,825.6548],[151.3267,-30.2697,826.9988],[151.3242,-30.2692,809.7224],[151.3216,-30.272,924.8098],[151.3241,-30.278199999999998,911.3604],[151.3285,-30.2789,971.0071],[151.3332,-30.2842,945.2172],[151.3319,-30.2904,996.2863],[151.3358,-30.2947,973.4731],[151.3366,-30.2993,980.7417],[151.3468,-30.305,990.6744],[151.3398,-30.3081,916.5738],[151.3373,-30.3109,868.4742],[151.338,-30.3141,860.222],[151.3361,-30.3168,946.5912],[151.3322,-30.3188,1027.0416],[151.3292,-30.3229,1049.2036],[151.3247,-30.3243,1121.0817],[151.3242,-30.3368,910.6241],[151.3468,-30.3398,996.8038],[151.3489,-30.3545,1017.3463],[151.3618,-30.3563,1078.6901],[151.3606,-30.3636,1014.2219],[151.3977,-30.3691,1102.6051],[151.3961,-30.3782,1166.015],[151.4002,-30.3792,1148.9218],[151.3993,-30.3838,1145.6433],[151.4016,-30.3842,1144.7996],[151.403,-30.3866,1146.0004],[151.4063,-30.3843,1135.6858],[151.409,-30.3859,1124.1752],[151.4137,-30.3848,1141.4819],[151.4149,-30.3888,1142.9321],[151.4134,-30.3908,1128.0471],[151.4153,-30.392,1121.7852],[151.4211,-30.3928,1148.2976],[151.4211,-30.3903,1127.7778],[151.4514,-30.3942,985.7944],[151.4547,-30.4004,978.843],[151.4532,-30.401,978.843],[151.4512,-30.3988,990.4589],[151.4489,-30.3998,975.386],[151.4509,-30.4043,970.4503],[151.4502,-30.4067,974.2592],[151.4566,-30.4071,969.4181],[151.4621,-30.4103,961.1709],[151.4594,-30.4144,958.4175],[151.4609,-30.4191,956.3453],[151.4589,-30.4198,967.1345],[151.4573,-30.4175,958.6605],[151.4538,-30.4195,965.2534],[151.4559,-30.4212,958.8447],[151.4558,-30.4232,946.4028],[151.4501,-30.4227,948.9535],[151.4502,-30.426,949.2975],[151.4478,-30.428,944.8981],[151.4505,-30.4299,950.3379],[151.454,-30.4284,928.3084],[151.4578,-30.4323,933.9711],[151.4592,-30.4368,925.0681],[151.4633,-30.4407,927.1811],[151.4599,-30.4398,924.212],[151.4561,-30.4411,926.3657],[151.4621,-30.4427,921.6133],[151.4631,-30.4449,905.7299],[151.4619,-30.4466,911.3682],[151.4656,-30.4516,907.8287],[151.4672,-30.4513,907.8287],[151.4655,-30.4474,914.7203],[151.4669,-30.4414,916.8191],[151.4699,-30.4393,922.2225],[151.4718,-30.4398,926.6155],[151.4727,-30.4372,928.5347],[151.4991,-30.441,1071.2593],[151.5002,-30.4347,1058.4082],[151.5114,-30.4361,1080.2089],[151.5107,-30.4397,1071.5173],[151.5287,-30.4413,1064.6788],[151.5293,-30.4485,1061.807],[151.5313,-30.4511,1061.3481],[151.5304,-30.4539,1059.2537],[151.5319,-30.4559,1060.4774],[151.5362,-30.4568,1061.0891],[151.5357,-30.4621,1059.2867],[151.5377,-30.4644,1055.1899],[151.5425,-30.4656,1053.8002],[151.5472,-30.4628,1052.1924],[151.5518,-30.4669,1050.3634],[151.5513,-30.4684,1050.2809],[151.5583,-30.4759,1070.2524],[151.5603,-30.4805,1044.4781],[151.5666,-30.4794,1042.1188],[151.5676,-30.4816,1043.5037],[151.5749,-30.4857,1039.4607],[151.5743,-30.4875,1038.1522],[151.5779,-30.4897,1037.2552],[151.5791,-30.4938,1036.7184],[151.5833,-30.4971,1037.7491],[151.5831,-30.5026,1033.0642],[151.5863,-30.5087,1030.2198],[151.5825,-30.5122,1029.9802],[151.5829,-30.5151,1028.9395],[151.5803,-30.5173,1030.9346],[151.5832,-30.5196,1026.7325],[151.58,-30.5252,1028.2102],[151.5819,-30.5263,1023.6032],[151.5816,-30.5313,1023.0189],[151.5798,-30.5316,1023.1367],[151.5795,-30.5365,1023.4702],[151.5762,-30.5388,1020.0977],[151.578,-30.541,1020.6148],[151.5813,-30.5409,1030.8455],[151.5812,-30.5438,1017.7898],[151.5841,-30.5475,1016.4818],[151.5825,-30.5513,1015.4795],[151.5848,-30.5529,1014.8854],[151.5848,-30.5556,1014.7233],[151.5889,-30.5573,1020.377],[151.589,-30.5593,1015.4548],[151.5959,-30.5598,1010.881],[151.5968,-30.5636,1013.8686],[151.6023,-30.5653,1009.2047],[151.6014,-30.5677,1008.5217],[151.6096,-30.5735,1006.8856],[151.6137,-30.5722,1005.7871],[151.6156,-30.5732,1006.9208],[151.6205,-30.5855,1003.8208],[151.6254,-30.5848,1000.6909],[151.6263,-30.5879,1002.8696],[151.6292,-30.5879,1004.0911],[151.6397,-30.5938,997.7696],[151.6354,-30.5986,996.6757],[151.6363,-30.5999,999.1351],[151.6416,-30.599,997.3904],[151.6429,-30.602,1001.8588],[151.641,-30.606,992.7745],[151.6426,-30.6071,996.6628],[151.6396,-30.6117,1013.0282],[151.6407,-30.6146,993.8978],[151.6396,-30.6218,990.9689],[151.6404,-30.6286,992.6936],[151.6423,-30.6362,990.0],[151.6458,-30.6382,984.9175],[151.645,-30.6418,985.7306],[151.6481,-30.6451,991.3528],[151.6527,-30.644,993.5222],[151.6541,-30.6456,983.3896],[151.6535,-30.6517,982.421],[151.6557,-30.6519,983.3453],[151.6589,-30.6474,983.9611],[151.6609,-30.6476,994.0767],[151.6614,-30.651,979.7669],[151.6659,-30.6514,978.7054],[151.6683,-30.6542,984.9536],[151.6679,-30.6573,979.831],[151.6724,-30.6614,979.6827],[151.6709,-30.6664,988.7517],[151.6794,-30.668,977.8622],[151.6799,-30.6707,973.7697],[151.6851,-30.6685,972.8493],[151.6871,-30.6703,976.1743],[151.6894,-30.6696,974.9558],[151.6895,-30.6758,970.9058],[151.6966,-30.672,974.005],[151.7075,-30.6758,967.5557],[151.7115,-30.6733,967.6066],[151.7101,-30.679,969.639],[151.7135,-30.6826,963.962],[151.7161,-30.6819,965.2302],[151.7128,-30.6776,963.1424],[151.7157,-30.6724,982.7228],[151.7173,-30.6728,973.2944],[151.716,-30.6753,965.9577],[151.7188,-30.6786,962.6374],[151.7216,-30.6746,966.327],[151.7269,-30.6769,951.4515],[151.7323,-30.6721,799.9227],[151.7317,-30.6748,768.4609],[151.7339,-30.6763,829.1711],[151.7408,-30.6715,728.4717],[151.7436,-30.6735,721.9916],[151.7514,-30.6727,666.6949],[151.7536,-30.6765,620.351],[151.7567,-30.6775,571.9589],[151.7583,-30.6758,569.5254],[151.7628,-30.6758,559.9833],[151.7629,-30.6806,551.1583],[151.7746,-30.686,573.3464],[151.7689,-30.6906,544.124],[151.765,-30.6903,550.152],[151.7563,-30.6932,596.5071],[151.7446,-30.6908,663.2123],[151.738,-30.6919,725.2001],[151.7335,-30.6959,947.1114],[151.7385,-30.6951,962.8696],[151.7345,-30.7172,1025.5226],[151.72,-30.7152,977.7761],[151.7253,-30.7247,992.5244],[151.726,-30.7292,994.1276],[151.7238,-30.7316,1002.5001],[151.7279,-30.734,1013.8734],[151.7306,-30.7414,1046.3772],[151.7199,-30.7958,953.1764],[151.7314,-30.7884,817.2971],[151.7337,-30.7893,813.1705],[151.7393,-30.7872,832.3713],[151.7445,-30.7897,858.6854],[151.7526,-30.7852,804.7513],[151.7564,-30.7858,783.6024],[151.7596,-30.7836,774.5545],[151.7744,-30.7847,759.1237],[151.7754,-30.7833,669.1333],[151.7714,-30.7795,719.8397],[151.7755,-30.7771,632.4545],[151.7801,-30.7822,650.1321],[151.781,-30.78,621.5948],[151.7846,-30.7796,629.9666],[151.7914,-30.7827,576.8494],[151.7957,-30.7826,561.3231],[151.7978,-30.78,548.5459],[151.8018,-30.7802,517.0556],[151.8036,-30.7826,498.4983],[151.8074,-30.7814,508.3074],[151.8095,-30.7844,488.8622],[151.8132,-30.7847,484.8859],[151.8114,-30.7873,486.465],[151.8132,-30.7895,465.1885],[151.8152,-30.7869,459.1001],[151.8296,-30.7832,434.3822],[151.836,-30.786,450.083],[151.8406,-30.7809,446.0343],[151.844,-30.7831,506.7424],[151.8423,-30.7786,416.6877],[151.8486,-30.775,408.5997],[151.8512,-30.7761,401.239],[151.8548,-30.7745,453.5504],[151.8562,-30.7792,404.4066],[151.8581,-30.7801,403.0594],[151.8621,-30.7765,382.9566],[151.8644,-30.7763,387.1788],[151.8654,-30.7795,375.269],[151.8672,-30.7801,397.2283],[151.8726,-30.7764,381.5709],[151.8772,-30.7778,360.678],[151.8768,-30.7746,393.8316],[151.88,-30.771,361.6477],[151.8865,-30.7729,348.4033],[151.8865,-30.7693,364.6376],[151.8909,-30.7709,330.7845],[151.8896,-30.7675,338.3857],[151.8961,-30.7695,331.4947],[151.9004,-30.7686,326.2095],[151.9028,-30.7645,372.0944],[151.909,-30.7677,375.6638],[151.9181,-30.7663,718.1542],[151.9317,-30.7685,619.6606],[151.9318,-30.7611,376.9617],[151.9368,-30.757,292.5586],[151.9347,-30.7614,298.3442],[151.9448,-30.7619,301.027],[151.944,-30.7644,267.3033],[151.9389,-30.7682,278.6454],[151.9431,-30.7714,269.683],[151.9432,-30.7741,252.3295],[151.9483,-30.7748,279.7658],[151.9545,-30.7864,245.8923],[151.9552,-30.7896,257.172],[151.952,-30.7944,235.3063],[151.9544,-30.7954,243.0539],[151.9612,-30.7914,243.4419],[151.9643,-30.793,231.582],[151.9639,-30.7963,244.2399],[151.9588,-30.8023,230.8402],[151.9595,-30.8039,229.7446],[151.9629,-30.8045,228.3155],[151.9689,-30.8006,244.8367],[151.9719,-30.8015,232.5368],[151.9732,-30.8042,240.6617],[151.9791,-30.8033,227.0867],[151.9803,-30.8054,237.8984],[151.9772,-30.8082,242.7853],[151.9798,-30.8106,232.6882],[151.9859,-30.8082,219.2131],[151.9918,-30.8093,224.0725],[151.9921,-30.8068,226.5226],[151.9895,-30.8037,257.4292],[151.9929,-30.8017,217.6344],[151.9984,-30.8047,293.6526],[152.0038,-30.8122,217.9057],[152.0091,-30.808,295.0993],[152.0072,-30.8014,213.203],[152.0112,-30.7995,231.6933],[152.0166,-30.8,205.2986],[152.0176,-30.8029,204.8266],[152.015,-30.8105,203.0643],[152.0211,-30.8171,260.5207],[152.0201,-30.8196,260.6094],[152.0158,-30.8217,203.4494],[152.0147,-30.8247,285.889],[152.0167,-30.8259,206.8227],[152.0214,-30.825,204.91],[152.0248,-30.8273,197.2427],[152.0262,-30.8328,213.6946],[152.0308,-30.8366,191.9616],[152.0313,-30.8425,195.2648],[152.0332,-30.8442,210.251],[152.0418,-30.8458,191.3876],[152.0461,-30.842,202.3846],[152.0457,-30.838,190.709],[152.0477,-30.8376,260.7729],[152.0495,-30.8399,193.6699],[152.0492,-30.8431,188.8311],[152.0361,-30.8559,197.7685],[152.0358,-30.8583,187.4352],[152.038,-30.8608,185.1193],[152.0442,-30.8624,188.3118],[152.0566,-30.8588,175.8296],[152.0584,-30.8565,195.9791],[152.0577,-30.8519,203.7258],[152.0623,-30.8474,187.4122],[152.0744,-30.8477,181.9979],[152.0774,-30.8499,210.1492],[152.0811,-30.8435,174.6498],[152.0847,-30.8424,177.3781],[152.0854,-30.8505,174.9067],[152.0873,-30.8528,171.7679],[152.0931,-30.8554,180.8716],[152.1027,-30.8555,174.094],[152.1056,-30.857,206.7131],[152.1147,-30.8656,167.8168],[152.1176,-30.8705,179.8921],[152.1224,-30.8691,162.8294],[152.1232,-30.8654,168.4743],[152.1216,-30.8599,208.6624],[152.1253,-30.8587,168.3126],[152.1311,-30.8605,163.4995],[152.1341,-30.8669,162.3539],[152.1428,-30.8722,165.6172],[152.1463,-30.8717,173.0148],[152.1504,-30.8676,161.7237],[152.1518,-30.8685,174.0447],[152.1509,-30.8721,168.0426],[152.1533,-30.8726,182.2446],[152.1559,-30.876,171.2041],[152.1551,-30.8789,172.8288],[152.1576,-30.8824,173.1364],[152.1574,-30.8868,207.5641],[152.1628,-30.889,177.0597],[152.1647,-30.8966,242.67],[152.1698,-30.9013,198.6227],[152.1703,-30.904,194.0704],[152.1676,-30.9073,185.2846],[152.1679,-30.9096,197.1051],[152.1699,-30.9114,232.495],[152.1788,-30.9109,210.8184],[152.1775,-30.9152,223.8764],[152.1822,-30.9126,217.6315],[152.1846,-30.9155,242.4839],[152.1913,-30.9149,217.823],[152.1921,-30.9175,227.1505],[152.1954,-30.9196,271.1866],[152.2005,-30.9152,299.676],[152.296,-30.9308,992.8558],[152.2894,-30.9213,1026.8853],[152.2933,-30.9188,1005.3917],[152.2917,-30.9138,1040.3992],[152.2937,-30.9117,1065.9988],[152.2938,-30.9088,1058.2422],[152.2912,-30.9059,1066.1759],[152.2896,-30.9004,1071.334],[152.2872,-30.9,1070.1794],[152.291,-30.8884,1063.542],[152.2906,-30.8823,1026.8773],[152.2995,-30.8662,1015.2556],[152.2962,-30.8627,1004.5016],[152.2965,-30.859,1012.2467],[152.2942,-30.8574,1003.9662],[152.2895,-30.8442,1030.9628],[152.2845,-30.8415,1014.5234],[152.2886,-30.8323,1005.4399],[152.2868,-30.8299,1001.1686],[152.2915,-30.8237,944.3785],[152.3,-30.8218,652.0723],[152.3107,-30.805,309.5782],[152.3172,-30.8025,324.8977],[152.3179,-30.8003,385.0182],[152.3151,-30.7965,326.6237],[152.317,-30.7926,335.4731],[152.321,-30.7908,273.1371],[152.3245,-30.7918,251.9895],[152.3333,-30.7895,277.0425],[152.3439,-30.7919,346.5876],[152.3476,-30.7804,248.7186],[152.355,-30.7781,221.7328],[152.352,-30.7692,140.4875],[152.3615,-30.7579,263.4479],[152.3655,-30.7585,158.5638],[152.3667,-30.7518,387.468],[152.3753,-30.7453,704.9003],[152.3758,-30.7399,602.9529],[152.3758,-30.7317,719.4895],[152.3711,-30.7284,726.1094],[152.3715,-30.7191,567.2631],[152.3694,-30.7112,355.8251],[152.3658,-30.7052,466.8199],[152.3693,-30.6987,422.1281],[152.3584,-30.6842,549.951],[152.358,-30.6784,443.4677],[152.3608,-30.6699,555.6321],[152.3644,-30.6635,748.3445],[152.3693,-30.6589,789.6326],[152.356,-30.649,848.2214],[152.3505,-30.6477,865.4251],[152.349,-30.6426,823.118],[152.3452,-30.6399,849.4412],[152.3369,-30.6405,986.1959],[152.3336,-30.6368,1106.5957],[152.3316,-30.6292,1149.2544],[152.3339,-30.6242,1118.7155],[152.3334,-30.6206,1132.5859],[152.319,-30.6134,1076.9868],[152.3161,-30.603,995.6996],[152.3132,-30.6026,991.6985],[152.3117,-30.6002,997.5869],[152.3129,-30.5977,994.8856],[152.33,-30.5841,1199.2239],[152.3311,-30.5818,1190.0739],[152.33,-30.5794,1189.4729],[152.3363,-30.5724,1082.8606],[152.3358,-30.567,980.9294],[152.3481,-30.5633,1086.1899],[152.3527,-30.556,1162.7397],[152.3616,-30.5558,1211.77],[152.3641,-30.5451,1059.9087],[152.375,-30.5418,1099.7571],[152.3769,-30.5353,1235.6915],[152.3867,-30.5292,1367.5786],[152.3882,-30.5264,1358.207],[152.3877,-30.5222,1355.3145],[152.3826,-30.5193,1354.1594],[152.3858,-30.5052,1371.2124],[152.3923,-30.5007,1384.614],[152.4003,-30.5009,1418.4714],[152.4084,-30.4893,1555.5963],[152.3965,-30.4813,1553.1921],[152.3932,-30.4764,1531.5183],[152.3929,-30.4725,1532.7393],[152.3956,-30.469,1334.0148],[152.3896,-30.4531,1384.4944],[152.392,-30.4429,1441.0144],[152.3969,-30.4421,1427.0034],[152.4018,-30.435,1480.573],[152.4173,-30.4368,1520.631],[152.4195,-30.4269,1446.5308],[152.4245,-30.4245,1496.1604],[152.4281,-30.4189,1512.8269]]]]}}