{"type":"Feature","properties":{"GID_2":"AUS.8.17_1","GID_0":"AUS","country":"Australia","GID_1":"AUS.8_1","state":"SouthAustralia","NL_NAME_1":"NA","county":"FlindersRanges","VARNAME_2":"NA","NL_NAME_2":"NA","TYPE_2":"DistrictCouncil","ENGTYPE_2":"DistrictCouncil","CC_2":"41830","HASC_2":"AU.SA.FR","name":"FlindersRanges.county"},
"geometry":{"type": "MultiPolygon","coordinates": [[[[137.923,-32.4946,141.1504],[137.9711,-32.4949,282.7755],[137.9711,-32.4973,284.4549],[138.0062,-32.4972,740.7315],[138.0075,-32.5068,925.0876],[138.0706,-32.5064,398.0959],[138.0714,-32.5047,407.6165],[138.0733,-32.5064,381.2924],[138.0837,-32.5063,411.4292],[138.0885,-32.5104,380.3105],[138.0946,-32.5097,363.8222],[138.1076,-32.5039,333.0283],[138.1129,-32.5086,315.2354],[138.1246,-32.5145,291.691],[138.1567,-32.5271,255.343],[138.1572,-32.4148,233.5233],[138.343,-32.4152,401.46],[138.3431,-32.324,357.9292],[138.3912,-32.3258,394.9421],[138.3925,-32.3231,388.7956],[138.4401,-32.3232,435.7094],[138.4395,-32.121,384.3864],[138.7545,-32.1203,609.4661],[138.7546,-31.9752,716.0857],[138.6401,-31.9754,527.4569],[138.6561,-31.9676,568.6523],[138.6563,-31.9663,568.6523],[138.6527,-31.9497,543.4164],[138.6519,-31.9306,578.1126],[138.6437,-31.9179,567.739],[138.642,-31.9103,550.9423],[138.6403,-31.91,573.0917],[138.6369,-31.9,507.4278],[138.6384,-31.8971,522.933],[138.6326,-31.894,516.6187],[138.6313,-31.8916,498.6772],[138.6437,-31.876,582.0369],[138.6371,-31.8699,536.759],[138.6336,-31.8705,530.3124],[138.6413,-31.8514,517.2388],[138.6502,-31.8485,543.8887],[138.6539,-31.8422,543.6603],[138.6609,-31.8383,544.0341],[138.6634,-31.8354,555.6872],[138.6622,-31.8278,560.3738],[138.6668,-31.8228,557.4832],[138.6755,-31.8183,585.986],[138.6817,-31.8125,584.511],[138.695,-31.8109,602.3069],[138.6997,-31.8075,623.605],[138.7006,-31.805,606.3844],[138.7324,-31.8049,634.4818],[138.7543,-31.7994,597.1609],[138.7543,-31.7398,457.5969],[138.0846,-31.7397,72.9497],[138.0843,-31.9762,319.2942],[137.9781,-32.1514,800.8248],[137.9634,-32.2368,646.1223],[137.9632,-32.2699,491.7456],[137.9673,-32.2699,528.5405],[137.9713,-32.2731,583.4568],[137.9739,-32.2793,546.7924],[137.9703,-32.2812,568.7476],[137.9696,-32.2849,578.1995],[137.9677,-32.2858,623.2432],[137.9672,-32.2911,649.0855],[137.9689,-32.293,610.4048],[137.963,-32.2943,607.6897],[137.9603,-32.2992,604.1229],[137.9621,-32.2992,621.986],[137.9689,-32.3066,790.7795],[137.9668,-32.3121,805.7574],[137.9682,-32.3161,796.5855],[137.9621,-32.3217,808.903],[137.9627,-32.3235,789.1158],[137.9597,-32.3267,774.8508],[137.9606,-32.3313,781.6965],[137.9677,-32.3322,698.7314],[137.9715,-32.3292,671.8074],[137.9739,-32.3298,716.0219],[137.9734,-32.3438,639.741],[137.9718,-32.3459,621.4182],[137.971,-32.359,631.6186],[137.9693,-32.3631,654.7791],[137.9708,-32.3683,631.1293],[137.9676,-32.3777,655.7067],[137.9639,-32.3987,474.2838],[137.9664,-32.4153,452.963],[137.923,-32.4153,321.0508],[137.923,-32.4946,141.1504]]]]}}