{"type": "Feature","bbox": [141.5918,-12.9428,142.5712,-12.2327],"geometry": {"type": "MultiPolygon","coordinates": [[[[141.9062,-12.7611,2.9118],[141.9077,-12.7628,10.7991],[141.9145,-12.7431,1.4645],[141.9115,-12.745,4.9472],[141.9062,-12.7611,2.9118]]],
[[[141.9057,-12.7504,2.4172],[141.906,-12.7521,2.4857],[141.9089,-12.7507,9.3247],[141.9076,-12.746,0.0],[141.9055,-12.7463,2.2624],[141.9057,-12.7504,2.4172]]],
[[[141.909,-12.6953,13.4899],[141.9109,-12.6949,11.2892],[141.9101,-12.6923,12.1376],[141.9077,-12.6937,15.379],[141.909,-12.6953,13.4899]]],
[[[141.8918,-12.6801,13.4872],[141.8937,-12.6733,9.8327],[141.8822,-12.6728,5.1582],[141.8853,-12.6866,0.0],[141.8899,-12.69,0.0],[141.8996,-12.6908,11.8643],[141.8988,-12.6857,14.9754],[141.8954,-12.685,15.1794],[141.8918,-12.6801,13.4872]]],
[[[141.8011,-12.9136,76.6777],[141.8469,-12.9428,66.3152],[141.8701,-12.8737,36.0443],[141.8271,-12.874,41.1715],[141.8011,-12.9136,76.6777]]],
[[[141.7533,-12.8314,9.4502],[141.8008,-12.8359,13.339],[141.8032,-12.7474,12.5867],[141.7636,-12.8135,0.0],[141.7584,-12.8246,2.5197],[141.7533,-12.8314,9.4502]]],
[[[141.8776,-12.7149,9.8993],[141.8823,-12.7436,18.2316],[141.8939,-12.7662,4.0091],[141.8944,-12.7506,0.0],[141.8914,-12.7414,7.7772],[141.8922,-12.7319,3.6553],[141.8814,-12.7253,4.091],[141.8776,-12.7149,9.8993]]],
[[[141.6938,-12.5183,0.0],[141.7062,-12.5203,0.9177],[141.7094,-12.519,8.5522],[141.7186,-12.5238,12.3578],[141.7339,-12.5284,5.544],[141.743,-12.5366,2.1931],[141.7549,-12.5362,7.4436],[141.76,-12.5391,5.4076],[141.7641,-12.5451,4.2251],[141.7616,-12.5489,2.9182],[141.7625,-12.5509,0.7695],[141.7648,-12.5526,1.3754],[141.7697,-12.5527,13.0969],[141.7686,-12.557,0.9022],[141.7661,-12.5587,0.0],[141.7684,-12.5657,3.7785],[141.7768,-12.5729,5.5996],[141.7911,-12.5769,2.3769],[141.7935,-12.5822,0.0],[141.8026,-12.5825,5.7631],[141.805,-12.5812,10.8443],[141.8115,-12.5842,4.9917],[141.8159,-12.5902,0.0],[141.816,-12.5974,0.0],[141.8199,-12.6015,0.4513],[141.8224,-12.6015,1.4958],[141.8272,-12.5957,10.6742],[141.8315,-12.5931,3.5281],[141.8429,-12.593,0.0],[141.8512,-12.5958,14.3656],[141.8623,-12.591,11.7126],[141.8698,-12.5894,7.2765],[141.8729,-12.5903,0.7854],[141.8792,-12.5839,3.3676],[141.8937,-12.5915,3.7585],[141.8946,-12.5841,4.0727],[141.8843,-12.5673,4.5223],[141.8723,-12.5598,5.6968],[141.8733,-12.5884,3.9548],[141.8375,-12.5926,9.3178],[141.7958,-12.5759,9.1405],[141.7705,-12.5341,3.2243],[141.7185,-12.4993,9.5319],[141.7365,-12.4814,13.4301],[141.7387,-12.4808,2.0305],[141.7314,-12.4807,0.0],[141.7218,-12.484,0.0],[141.7184,-12.4932,0.0],[141.7152,-12.4968,4.5838],[141.7065,-12.4953,10.9803],[141.6995,-12.4972,4.6758],[141.6906,-12.512,0.0],[141.6938,-12.5183,0.0]]],
[[[141.8996,-12.608,0.0],[141.8982,-12.6067,10.0586],[141.8972,-12.6175,13.0136],[141.9056,-12.6111,0.0],[141.8996,-12.608,0.0]]],
[[[141.9037,-12.5854,0.0],[141.9036,-12.5849,0.0],[141.8995,-12.5918,0.0],[141.9028,-12.5895,0.0],[141.9037,-12.5854,0.0]]],
[[[142.0642,-12.7803,63.7768],[142.0694,-12.7873,60.3703],[142.1088,-12.7407,9.2504],[142.1708,-12.7683,26.072],[142.1982,-12.6476,69.4529],[142.1958,-12.6385,62.587],[142.5711,-12.6661,71.9815],[142.5712,-12.621,56.6069],[142.4854,-12.4914,30.1341],[142.4793,-12.4943,32.1903],[142.4727,-12.4936,31.8222],[142.4672,-12.4974,34.0426],[142.4563,-12.495,31.7079],[142.4588,-12.5017,31.694],[142.4539,-12.5035,37.7312],[142.4497,-12.4996,29.8115],[142.4478,-12.5045,30.118],[142.446,-12.505,34.7464],[142.4362,-12.4952,28.2416],[142.4329,-12.4943,28.0175],[142.4303,-12.4954,29.4997],[142.427,-12.5068,29.1442],[142.415,-12.5038,27.2403],[142.4141,-12.5153,25.9623],[142.4119,-12.517,27.2085],[142.411,-12.5211,25.7295],[142.406,-12.5205,29.6314],[142.3972,-12.5146,24.5051],[142.3924,-12.5135,25.0545],[142.3809,-12.5028,28.0945],[142.3798,-12.4988,23.4369],[142.3747,-12.4983,23.092],[142.3763,-12.4916,25.3067],[142.3727,-12.4865,30.3004],[142.3622,-12.4816,21.6656],[142.3585,-12.477,22.3116],[142.3506,-12.4715,24.5583],[142.3482,-12.4728,24.9825],[142.3448,-12.4712,23.3992],[142.3454,-12.4651,24.5478],[142.3431,-12.4591,25.0253],[142.345,-12.4526,21.4056],[142.344,-12.4498,21.6199],[142.3297,-12.4439,19.1493],[142.3277,-12.4405,20.9951],[142.3244,-12.4388,21.8635],[142.3223,-12.4395,25.1188],[142.32,-12.4461,18.2705],[142.3174,-12.4482,19.843],[142.3139,-12.4479,21.5883],[142.3094,-12.4448,25.1628],[142.3098,-12.4358,20.3491],[142.3079,-12.4337,24.6605],[142.3051,-12.4343,21.9217],[142.3085,-12.4293,20.0421],[142.3041,-12.4238,20.6728],[142.305,-12.4085,20.4448],[142.2981,-12.4041,21.526],[142.2946,-12.3969,18.3071],[142.2875,-12.3948,22.7099],[142.2883,-12.3911,21.9513],[142.287,-12.3895,16.8925],[142.2773,-12.3896,23.3854],[142.2778,-12.3801,15.6417],[142.2663,-12.3775,18.4596],[142.2629,-12.3694,21.7595],[142.259,-12.3703,16.4124],[142.2552,-12.3739,17.4367],[142.2522,-12.3707,17.8581],[142.2457,-12.3783,18.5352],[142.2327,-12.3761,17.0833],[142.228,-12.3779,14.4261],[142.2243,-12.3818,14.2745],[142.2231,-12.3795,15.8037],[142.2204,-12.3789,16.7162],[142.2103,-12.3806,11.3545],[142.206,-12.377,16.9591],[142.199,-12.3758,18.8891],[142.196,-12.3812,12.4121],[142.1928,-12.383,9.5977],[142.1912,-12.3875,13.033],[142.179,-12.3871,20.0394],[142.1727,-12.3886,13.939],[142.1632,-12.3971,12.2049],[142.1475,-12.3939,16.346],[142.1462,-12.3964,5.4955],[142.1488,-12.3984,6.4518],[142.1483,-12.403,17.6276],[142.132,-12.4041,13.4995],[142.127,-12.3993,10.7761],[142.1315,-12.3902,10.4518],[142.1188,-12.3913,8.0479],[142.1212,-12.3811,5.6749],[142.1186,-12.3732,11.8954],[142.1232,-12.3714,11.2726],[142.1222,-12.3685,13.5297],[142.1155,-12.3624,8.7801],[142.1108,-12.3544,9.5235],[142.1023,-12.3447,8.9401],[142.1034,-12.3402,6.8259],[142.1122,-12.3351,6.8878],[142.1114,-12.3294,8.8303],[142.1071,-12.3232,8.8511],[142.1073,-12.3206,11.3352],[142.1127,-12.3149,9.5407],[142.1085,-12.298,5.7417],[142.1001,-12.2928,8.2058],[142.0835,-12.2909,8.4896],[142.0814,-12.2896,9.4262],[142.0782,-12.2822,5.2601],[142.0421,-12.283,5.4867],[142.0413,-12.4984,15.4586],[141.9965,-12.5726,8.5772],[141.9671,-12.5704,2.9956],[141.969,-12.542,7.5786],[141.9632,-12.5332,2.569],[141.9515,-12.5535,6.3303],[141.9221,-12.5572,24.5248],[141.91,-12.5753,3.0467],[141.9157,-12.5726,0.25],[141.9223,-12.5634,5.6321],[141.9299,-12.5616,0.5],[141.9384,-12.562,0.75],[141.94,-12.5626,0.75],[141.9424,-12.5691,7.8886],[141.9553,-12.5843,8.6793],[141.9681,-12.5855,2.3051],[141.9796,-12.5896,0.0],[141.988,-12.589,11.2971],[141.9932,-12.5869,15.2872],[142.002,-12.5998,2.3355],[142.006,-12.597,8.8534],[142.0077,-12.5905,8.5694],[142.0103,-12.5873,3.8162],[142.0164,-12.5842,12.0467],[142.0197,-12.5764,2.6981],[142.0258,-12.5743,5.544],[142.0313,-12.5751,4.4229],[142.0349,-12.5806,2.5707],[142.0405,-12.5811,8.2622],[142.049,-12.5737,1.471],[142.0578,-12.5739,2.3638],[142.0634,-12.5702,6.9959],[142.0713,-12.5752,2.8599],[142.0729,-12.57,7.2858],[142.0813,-12.5701,5.6767],[142.0847,-12.5643,2.8622],[142.097,-12.5676,5.3702],[142.1009,-12.5633,7.1165],[142.1052,-12.5647,6.1595],[142.1088,-12.5697,11.0456],[142.1176,-12.5687,5.2955],[142.1188,-12.575,14.1571],[142.1208,-12.5759,9.0474],[142.1336,-12.5612,13.1313],[142.1467,-12.561,8.0938],[142.1511,-12.5647,8.7858],[142.1564,-12.5639,10.4281],[142.1594,-12.5693,8.7318],[142.1644,-12.5664,9.0015],[142.1684,-12.5669,8.1152],[142.1698,-12.5634,9.3799],[142.1842,-12.6144,38.5089],[142.1934,-12.618,46.974],[142.1619,-12.6354,37.1372],[142.0954,-12.6853,12.7128],[141.964,-12.7111,18.0837],[142.0005,-12.7755,20.9027],[142.0139,-12.7384,5.6812],[142.0501,-12.7425,19.105],[142.0547,-12.7676,21.9563],[142.0642,-12.7803,63.7768]]],
[[[141.6455,-12.52,10.1198],[141.6428,-12.5742,16.7094],[141.6545,-12.5634,0.9871],[141.6647,-12.5609,5.7328],[141.6868,-12.5612,2.8816],[141.6948,-12.557,5.3654],[141.694,-12.5529,2.6597],[141.693,-12.5565,2.0],[141.6915,-12.5567,2.0],[141.6919,-12.5533,4.8238],[141.6981,-12.545,0.0],[141.6969,-12.5356,5.3196],[141.6895,-12.535,7.266],[141.6867,-12.532,5.9046],[141.6798,-12.5325,5.6382],[141.6737,-12.5294,1.2596],[141.6619,-12.5311,11.1219],[141.6619,-12.5289,7.632],[141.6565,-12.5228,0.5],[141.6525,-12.5214,12.0783],[141.6564,-12.5081,0.375],[141.6506,-12.5028,4.0402],[141.6566,-12.5004,10.9059],[141.6614,-12.4909,6.2504],[141.6579,-12.467,6.1476],[141.6587,-12.4635,1.3237],[141.6541,-12.4615,5.965],[141.6455,-12.52,10.1198]]],
[[[141.7396,-12.4735,0.0],[141.7436,-12.4772,0.0],[141.749,-12.4777,10.6038],[141.7396,-12.4721,0.0],[141.7396,-12.4735,0.0]]],
[[[141.7229,-12.4694,2.8551],[141.733,-12.4681,0.0],[141.7169,-12.4585,3.4657],[141.6955,-12.4622,7.0605],[141.6995,-12.4746,5.3533],[141.6866,-12.4753,1.1623],[141.6841,-12.4742,0.0],[141.6887,-12.4775,4.1622],[141.7002,-12.4768,1.9428],[141.7012,-12.4749,5.3533],[141.7006,-12.4672,8.5112],[141.714,-12.4633,10.1749],[141.7169,-12.4638,10.1913],[141.7203,-12.4689,0.0],[141.7229,-12.4694,2.8551]]],
[[[141.7199,-12.2342,2.6214],[141.7143,-12.2365,3.4664],[141.7032,-12.2649,0.0],[141.7013,-12.2834,0.0],[141.6981,-12.2954,3.4755],[141.6863,-12.3336,0.0],[141.665,-12.3914,2.8575],[141.6489,-12.4309,0.0],[141.6133,-12.5041,1.1135],[141.6056,-12.529,1.3463],[141.5938,-12.5534,1.2134],[141.5918,-12.5639,2.1932],[141.6573,-12.4417,11.7116],[141.6828,-12.4552,5.4716],[141.7061,-12.4533,5.7547],[141.7298,-12.4411,9.3393],[141.7763,-12.4664,1.756],[141.7992,-12.4316,8.5325],[141.841,-12.3837,7.0865],[141.8448,-12.3331,19.6513],[141.7379,-12.3049,15.6122],[141.7296,-12.3074,13.7419],[141.7385,-12.2909,11.7823],[141.8461,-12.3187,16.7543],[141.8492,-12.2498,15.2497],[141.8134,-12.2488,12.8847],[141.8095,-12.25,13.1938],[141.8073,-12.2526,12.8901],[141.802,-12.2532,11.1205],[141.7942,-12.2481,6.7182],[141.7885,-12.2482,13.2023],[141.7845,-12.2465,14.6577],[141.777,-12.2411,7.0178],[141.774,-12.2428,3.2441],[141.7682,-12.2386,0.0],[141.7655,-12.2389,0.0],[141.7658,-12.2418,1.5765],[141.752,-12.2439,0.0],[141.7401,-12.2404,7.6661],[141.7382,-12.2342,2.7683],[141.7344,-12.2327,0.0],[141.7199,-12.2342,2.6214]]]]}
,"properties": {"GID_2": "AUS.7.48_1","GID_0": "AUS","country": "Australia","GID_1": "AUS.7_1","state": "Queensland","NL_NAME_1": "NA","county": "Napranum","VARNAME_2": "NA","NL_NAME_2": "NA","TYPE_2": "Shire","ENGTYPE_2": "Shire","CC_2": "35670","HASC_2": "NA","name": "Napranum.county","area_km2": 2007.326,"hist_schema_id": "Elevation0-9000","hist_area_km2": {"0": 522.614,"25": 1029.844,"50": 395.254,"75": 56.512,"100": 3.102}}}