{"type":"Feature","properties":{"GID_2":"AUS.11.94_1","GID_0":"AUS","country":"Australia","GID_1":"AUS.11_1","state":"WesternAustralia","NL_NAME_1":"NA","county":"Nedlands","VARNAME_2":"NA","NL_NAME_2":"NA","TYPE_2":"City","ENGTYPE_2":"City","CC_2":"56580","HASC_2":"AU.WA.NE","name":"Nedlands.county"},
"geometry":{"type": "MultiPolygon","coordinates": [[[[115.754,-31.9514,0.0],[115.7542,-31.9738,0.0],[115.7528,-31.982,0.0],[115.7668,-31.982,20.1108],[115.767,-31.9737,34.3833],[115.7717,-31.9739,19.2981],[115.7717,-31.9703,31.6438],[115.7916,-31.969,17.4053],[115.7911,-31.9864,21.9476],[115.7883,-31.9887,19.5984],[115.7927,-31.9888,23.7923],[115.7927,-31.9916,18.9995],[115.7869,-31.9915,4.7847],[115.7867,-31.9948,5.5259],[115.7915,-32.0046,0.0],[115.8041,-32.0029,16.3791],[115.8105,-32.0003,0.8259],[115.8132,-31.994,1.5847],[115.8175,-31.9901,0.0],[115.8146,-31.9873,16.4429],[115.8135,-31.9752,14.864],[115.8135,-31.9706,12.9873],[115.8165,-31.9706,12.297],[115.8165,-31.9646,11.7586],[115.802,-31.964,29.914],[115.8075,-31.9563,20.8086],[115.8051,-31.956,16.0612],[115.8041,-31.9443,19.3803],[115.7918,-31.9442,19.9111],[115.7918,-31.9478,20.4342],[115.7877,-31.9479,13.2185],[115.7877,-31.9498,16.7237],[115.7759,-31.9498,30.101],[115.7759,-31.9628,15.1306],[115.7634,-31.9627,27.1943],[115.762,-31.9548,37.4454],[115.754,-31.9514,0.0]]]]}}