{"type": "Feature","bbox": [149.543,-36.3654,150.3119,-35.5006],"geometry": {"type": "MultiPolygon","coordinates": [[[[150.1422,-36.2193,28.2088],[150.1422,-36.2194,28.2088],[150.1425,-36.2194,0.0],[150.1424,-36.2192,0.0],[150.1422,-36.2193,28.2088]]],
[[[150.1463,-36.2332,4.2474],[150.1466,-36.2332,0.0],[150.1468,-36.2332,0.0],[150.1463,-36.2329,0.0],[150.1463,-36.2332,4.2474]]],
[[[150.2048,-35.8325,0.0],[150.2044,-35.8317,0.0],[150.2032,-35.8325,0.0],[150.2042,-35.8339,0.0],[150.2048,-35.8325,0.0]]],
[[[150.2372,-35.8181,0.0],[150.2362,-35.8164,6.2363],[150.2325,-35.8183,0.1549],[150.2351,-35.8189,3.0693],[150.2372,-35.8181,0.0]]],
[[[150.3118,-35.6683,0.0],[150.3119,-35.6661,0.0],[150.3105,-35.6651,0.0],[150.3097,-35.6672,3.9312],[150.3118,-35.6683,0.0]]],
[[[150.259,-35.7492,0.1296],[150.2567,-35.749,0.0],[150.2554,-35.7521,18.7368],[150.2585,-35.7529,0.0],[150.2576,-35.7503,0.0],[150.259,-35.7492,0.1296]]],
[[[150.2611,-35.7469,3.0858],[150.2596,-35.7493,7.2583],[150.2608,-35.7513,0.0],[150.2618,-35.7502,0.0],[150.2607,-35.7491,7.2583],[150.2623,-35.7486,4.1065],[150.2611,-35.7469,3.0858]]],
[[[150.2145,-35.7361,0.0],[150.2144,-35.7359,0.0],[150.2142,-35.7359,0.0],[150.2142,-35.7361,0.0],[150.2145,-35.7361,0.0]]],
[[[150.213,-35.725,0.0],[150.2122,-35.725,0.0],[150.212,-35.7257,0.0],[150.2128,-35.7257,0.0],[150.213,-35.725,0.0]]],
[[[150.213,-35.7242,0.0],[150.2129,-35.7243,0.0],[150.2132,-35.7242,0.0],[150.2131,-35.7241,0.0],[150.213,-35.7242,0.0]]],
[[[150.282,-35.7103,7.5144],[150.2823,-35.7101,0.0],[150.282,-35.7099,7.5144],[150.2819,-35.7103,7.5144],[150.282,-35.7103,7.5144]]],
[[[150.2984,-35.6913,18.8457],[150.2984,-35.6915,18.8457],[150.2985,-35.6916,18.8457],[150.2986,-35.6913,0.0],[150.2984,-35.6913,18.8457]]],
[[[150.1377,-36.3055,1.6662],[150.1378,-36.3055,1.6662],[150.1378,-36.3054,1.6662],[150.1377,-36.3055,1.6662]]],
[[[150.1429,-36.2717,0.0],[150.1432,-36.2717,0.0],[150.1433,-36.2718,0.0],[150.143,-36.2715,0.0],[150.1429,-36.2717,0.0]]],
[[[150.1439,-36.2705,2.5596],[150.1439,-36.2707,2.5596],[150.1444,-36.2705,0.0],[150.1442,-36.2703,2.5596],[150.1439,-36.2705,2.5596]]],
[[[150.1499,-36.2656,0.8721],[150.15,-36.2658,0.8721],[150.1502,-36.2659,0.8721],[150.1501,-36.2656,0.8721],[150.1499,-36.2656,0.8721]]],
[[[150.1505,-36.2641,0.0],[150.1507,-36.2643,0.0],[150.1509,-36.2642,0.0],[150.1508,-36.2639,0.0],[150.1505,-36.2641,0.0]]],
[[[150.1499,-36.2643,0.0],[150.1502,-36.2641,0.0],[150.1499,-36.2638,0.0],[150.1496,-36.264,0.0],[150.1499,-36.2643,0.0]]],
[[[150.1511,-36.2623,0.0],[150.1502,-36.2615,0.0],[150.1498,-36.2614,0.0],[150.151,-36.2627,0.0],[150.1511,-36.2623,0.0]]],
[[[150.22328124999999,-36.25510625,6.206],[150.22329238095239,-36.255080952380958,6.206],[150.2231,-36.2546,6.206],[150.2226,-36.2551,6.206],[150.2227,-36.2553,6.206],[150.22328124999999,-36.25510625,6.206]]],
[[[150.22329238095239,-36.255080952380958,6.206],[150.2233,-36.2551,6.206],[150.22328124999999,-36.25510625,6.206],[150.2228,-36.2562,6.206],[150.2275,-36.2596,0.0],[150.2293,-36.2586,0.0],[150.2297,-36.2556,0.0],[150.2285,-36.255,26.3543],[150.2299,-36.2542,0.5281],[150.2294,-36.251,2.1908],[150.2309,-36.2505,0.0],[150.227,-36.248,14.0665],[150.2296,-36.2471,1.3644],[150.2289,-36.2455,3.6087],[150.2307,-36.244,0.0],[150.2268,-36.2429,0.0],[150.2232,-36.2455,0.8629],[150.2259,-36.2483,7.673],[150.2233,-36.2513,5.1624],[150.2239,-36.2537,4.0281],[150.22329238095239,-36.255080952380958,6.206]]],
[[[150.2296,-36.2465,1.3644],[150.23,-36.2468,1.3644],[150.2304,-36.2465,1.3644],[150.2299,-36.2463,1.3644],[150.2296,-36.2465,1.3644]]],
[[[150.1474,-36.2378,1.9029],[150.1472,-36.2376,1.9029],[150.1471,-36.2376,1.9029],[150.1475,-36.2381,0.7734],[150.1474,-36.2378,1.9029]]],
[[[150.1481,-36.2336,0.0],[150.148,-36.2336,0.0],[150.1478,-36.2336,0.0],[150.1479,-36.2338,0.0],[150.1481,-36.2336,0.0]]],
[[[150.2218,-36.2558,0.0],[150.2219,-36.2562,0.0],[150.2222,-36.2561,0.0],[150.2221,-36.2558,0.0],[150.2218,-36.2558,0.0]]],
[[[150.1469,-36.2336,0.0],[150.1473,-36.2338,0.0],[150.1474,-36.2337,0.0],[150.147,-36.2334,0.0],[150.1469,-36.2336,0.0]]],
[[[150.0828,-36.3635,0.0],[150.1028,-36.3392,2.7497],[150.1114,-36.331,8.844],[150.1169,-36.3291,0.0],[150.1159,-36.3276,0.0],[150.1216,-36.322,4.8522],[150.1274,-36.3206,0.9415],[150.1274,-36.3186,5.94],[150.1312,-36.3165,0.8307],[150.1337,-36.312,7.8424],[150.1357,-36.3116,0.1473],[150.135,-36.3082,1.3138],[150.1376,-36.3046,1.6662],[150.1398,-36.3044,0.0],[150.1342,-36.3026,0.0],[150.1342,-36.2988,0.0],[150.1354,-36.2987,0.0],[150.1316,-36.294,11.8267],[150.1336,-36.2922,0.8461],[150.1308,-36.2889,0.0],[150.1394,-36.2745,3.572],[150.1459,-36.2678,5.9371],[150.1486,-36.267,0.0],[150.1477,-36.2628,3.4846],[150.1448,-36.2598,1.5958],[150.1461,-36.2542,5.8454],[150.1435,-36.2496,0.0],[150.145,-36.2408,0.0],[150.1471,-36.2376,1.9029],[150.1416,-36.227,10.2994],[150.1408,-36.2206,14.5204],[150.1425,-36.2178,0.0],[150.1377,-36.2154,11.8437],[150.1338,-36.211,0.0],[150.1351,-36.21,0.0],[150.1328,-36.2093,0.0],[150.1316,-36.2034,3.2209],[150.1331,-36.2014,0.0],[150.1309,-36.1997,3.4772],[150.1326,-36.1934,0.0],[150.1342,-36.1922,0.0],[150.1321,-36.1892,0.0],[150.1333,-36.1854,0.1402],[150.132,-36.1807,0.0],[150.1339,-36.179,0.6346],[150.1326,-36.1751,0.0],[150.1358,-36.1725,3.339],[150.1354,-36.1707,1.3054],[150.1315,-36.1694,19.1123],[150.1335,-36.1661,0.0],[150.131,-36.1661,6.2402],[150.1303,-36.1629,0.0945],[150.1267,-36.1622,1.6046],[150.1254,-36.1601,1.441],[150.1243,-36.1418,0.0],[150.1288,-36.119,2.8163],[150.1346,-36.1062,0.8741],[150.1383,-36.1035,0.0],[150.1365,-36.1013,3.9127],[150.1376,-36.0969,9.4823],[150.1415,-36.0944,6.9036],[150.1389,-36.0926,0.0],[150.1363,-36.0934,3.0904],[150.134,-36.0903,0.0],[150.1339,-36.0876,13.185],[150.136,-36.0866,1.6726],[150.1337,-36.0848,8.7674],[150.1355,-36.0834,0.5927],[150.1326,-36.0824,0.0],[150.1345,-36.0659,0.0],[150.1373,-36.0657,0.7064],[150.1387,-36.0634,1.7095],[150.1417,-36.0637,1.6614],[150.142,-36.0583,9.3687],[150.1445,-36.057,0.0],[150.1414,-36.0536,14.937],[150.1414,-36.0493,0.0],[150.1492,-36.0288,4.8049],[150.1603,-36.0138,3.7372],[150.1646,-36.013,0.6231],[150.159,-36.012,3.5709],[150.1574,-36.008,4.2649],[150.1598,-35.9968,0.0],[150.1643,-35.9936,3.6337],[150.1606,-35.9935,6.26],[150.1602,-35.9918,1.5327],[150.1541,-35.9919,6.5936],[150.1527,-35.9886,0.0],[150.1535,-35.9849,1.8005],[150.1511,-35.9789,0.0],[150.1539,-35.9652,1.8561],[150.1604,-35.9538,0.0],[150.1565,-35.9509,3.0156],[150.1551,-35.9458,0.0],[150.1565,-35.9393,12.6528],[150.1612,-35.9332,0.0],[150.1577,-35.927,4.3246],[150.1568,-35.918,0.0],[150.1585,-35.9119,15.7595],[150.1618,-35.9086,0.0],[150.1608,-35.9074,0.0],[150.1577,-35.9087,3.444],[150.1521,-35.9078,0.5697],[150.1517,-35.9051,0.0],[150.1565,-35.9049,0.0],[150.1509,-35.9049,0.0],[150.1497,-35.8993,3.4683],[150.1507,-35.8896,0.0],[150.1579,-35.8743,8.3583],[150.1713,-35.861,1.7728],[150.1758,-35.859,3.7125],[150.18,-35.8613,0.0],[150.1803,-35.8588,1.231],[150.1823,-35.8575,0.0],[150.189,-35.861,4.9934],[150.1914,-35.8605,3.2236],[150.1922,-35.8571,0.2833],[150.1906,-35.8547,6.1931],[150.1865,-35.855,2.8791],[150.1856,-35.8572,19.2666],[150.1827,-35.857,0.0],[150.1792,-35.8544,1.5396],[150.1777,-35.8502,0.0],[150.1786,-35.8431,0.0],[150.1826,-35.8427,11.4357],[150.1835,-35.84,3.0419],[150.1864,-35.8383,0.0],[150.1899,-35.8385,0.0],[150.1891,-35.8369,0.2136],[150.1853,-35.8377,1.0902],[150.1867,-35.8331,0.0],[150.1905,-35.8322,1.0588],[150.192,-35.8335,0.0],[150.1922,-35.8328,0.0],[150.191,-35.832,1.0588],[150.1915,-35.8313,1.0588],[150.1945,-35.8314,0.0],[150.195,-35.8296,0.0],[150.1991,-35.8286,1.8996],[150.2084,-35.8315,13.6898],[150.2102,-35.8358,2.1182],[150.2112,-35.8317,16.42],[150.2149,-35.831,31.4655],[150.2166,-35.8331,0.0],[150.2175,-35.8307,17.5012],[150.2193,-35.8324,3.6496],[150.2204,-35.831,16.5371],[150.2259,-35.833,0.0],[150.2268,-35.832,24.3467],[150.2275,-35.8342,0.3593],[150.2335,-35.8369,0.0],[150.234,-35.835,17.8874],[150.2354,-35.8354,0.5564],[150.2344,-35.8325,3.7328],[150.2326,-35.8319,37.2934],[150.2329,-35.8302,0.0],[150.2313,-35.831,2.9991],[150.2302,-35.8292,0.0],[150.2249,-35.8278,0.0],[150.2252,-35.8248,6.9023],[150.2271,-35.8257,0.6213],[150.2273,-35.8242,5.2024],[150.2261,-35.8243,18.8228],[150.2271,-35.8221,5.3338],[150.2249,-35.8207,11.2927],[150.227,-35.8204,2.5067],[150.2272,-35.8184,6.4246],[150.2308,-35.8184,0.1549],[150.2261,-35.8141,2.9804],[150.2262,-35.8113,8.7192],[150.2284,-35.8104,2.7295],[150.2242,-35.8089,30.8153],[150.2287,-35.8066,0.0],[150.2265,-35.8049,16.6918],[150.2275,-35.8033,1.2767],[150.231,-35.8041,3.1621],[150.232,-35.803,3.1621],[150.2353,-35.8049,0.0],[150.2371,-35.8021,6.1788],[150.2355,-35.801,0.0],[150.2332,-35.8028,3.3125],[150.2301,-35.8011,11.498],[150.2334,-35.7973,0.0],[150.2313,-35.7965,3.3123],[150.2313,-35.7922,0.3935],[150.235,-35.7909,10.7288],[150.2374,-35.7919,0.3505],[150.2348,-35.7881,30.0672],[150.2367,-35.7863,14.2136],[150.233,-35.785,3.6874],[150.2358,-35.782,5.8494],[150.2326,-35.7813,9.2563],[150.2361,-35.7783,20.4896],[150.2344,-35.7752,8.9594],[150.2307,-35.7742,1.0419],[150.2349,-35.7718,0.0],[150.226,-35.7714,33.0219],[150.2263,-35.7697,12.4714],[150.2216,-35.7676,3.2326],[150.2211,-35.7623,0.0],[150.2197,-35.7635,40.0918],[150.2159,-35.7614,2.7588],[150.2144,-35.7623,2.7588],[150.212,-35.7601,10.8733],[150.2121,-35.7525,22.5974],[150.2171,-35.7513,0.0643],[150.2137,-35.7487,13.8032],[150.2168,-35.7457,0.0],[150.2164,-35.7433,0.0],[150.215,-35.7415,3.2722],[150.2133,-35.7426,6.2675],[150.212,-35.7413,7.1423],[150.2145,-35.738,0.0],[150.2106,-35.7383,3.0047],[150.2081,-35.7366,1.031],[150.208,-35.7295,0.0],[150.2044,-35.7319,13.2605],[150.1998,-35.7302,2.3056],[150.1977,-35.7246,1.7707],[150.1992,-35.7192,0.0],[150.1798,-35.7087,0.8366],[150.1773,-35.7031,0.0],[150.1799,-35.7019,2.8139],[150.1823,-35.7047,0.0],[150.1912,-35.7046,0.0],[150.1922,-35.7058,0.8433],[150.1989,-35.7014,0.0],[150.2103,-35.7024,9.9552],[150.2089,-35.7108,11.675],[150.2122,-35.7118,0.0],[150.2128,-35.7088,1.6213],[150.22,-35.7053,4.1546],[150.2288,-35.7026,7.1478],[150.234,-35.7029,15.4228],[150.2374,-35.7045,24.1268],[150.2378,-35.7066,0.0],[150.2416,-35.7096,0.0],[150.2504,-35.7114,0.0],[150.251,-35.7193,1.6181],[150.2534,-35.7189,0.0],[150.2548,-35.7159,23.9188],[150.258,-35.7164,7.7494],[150.2578,-35.7187,0.0],[150.2604,-35.717,4.5987],[150.2625,-35.7179,7.9805],[150.2616,-35.7199,2.6375],[150.2654,-35.7265,0.0],[150.2665,-35.7258,0.0],[150.2654,-35.7227,17.2662],[150.2704,-35.7191,6.5238],[150.2733,-35.7194,2.0446],[150.2765,-35.7236,0.0],[150.279,-35.7168,0.0],[150.277,-35.7154,6.3872],[150.2767,-35.7113,2.1274],[150.2819,-35.7098,7.5144],[150.282,-35.7074,10.1503],[150.2804,-35.7067,10.1503],[150.2809,-35.7033,5.0731],[150.2858,-35.7029,6.8959],[150.2855,-35.7009,11.6969],[150.2912,-35.6937,0.0],[150.2931,-35.6932,4.2092],[150.2975,-35.6961,3.6716],[150.2984,-35.6944,16.8329],[150.297,-35.6884,4.9959],[150.2984,-35.6882,4.9959],[150.297,-35.686,8.2483],[150.2991,-35.6837,0.0],[150.3065,-35.6861,0.0],[150.2997,-35.6788,0.0],[150.3051,-35.6799,0.0],[150.3047,-35.6773,12.5598],[150.3014,-35.6742,0.0],[150.3028,-35.6722,8.9418],[150.3071,-35.6731,0.0],[150.3044,-35.6706,17.8423],[150.3075,-35.6687,2.4352],[150.3057,-35.6667,4.4724],[150.303,-35.668,19.108],[150.2999,-35.664,0.0],[150.2981,-35.6643,1.3212],[150.2961,-35.6544,4.9327],[150.2994,-35.6472,0.0],[150.3034,-35.6423,0.0],[150.3075,-35.6409,0.0],[150.3075,-35.6386,0.0],[150.3024,-35.6384,1.5574],[150.2937,-35.6446,0.8806],[150.2858,-35.6363,0.5],[150.2973,-35.635,17.897],[150.2904,-35.6333,28.6777],[150.2897,-35.6343,0.5],[150.2886,-35.6327,26.0486],[150.2822,-35.6352,0.5],[150.2845,-35.6375,0.5],[150.2777,-35.6407,0.7307],[150.2787,-35.6373,24.3496],[150.2742,-35.6368,4.019],[150.2725,-35.6333,0.5],[150.2747,-35.6318,33.7],[150.2717,-35.6284,0.5],[150.2724,-35.6244,25.2389],[150.2688,-35.6239,5.7093],[150.2699,-35.6169,16.9535],[150.2632,-35.6182,19.2999],[150.2662,-35.621,0.5],[150.26,-35.6227,7.7652],[150.2592,-35.6275,10.7401],[150.2533,-35.6298,6.4377],[150.2518,-35.6323,10.1319],[150.2498,-35.6314,15.4533],[150.252,-35.6291,10.9793],[150.2518,-35.624,33.9144],[150.2576,-35.6123,14.0412],[150.2559,-35.6121,14.7878],[150.2572,-35.6038,27.7443],[150.2538,-35.5965,57.4669],[150.2563,-35.5931,59.4293],[150.2582,-35.5848,40.6823],[150.2604,-35.5832,49.9904],[150.2562,-35.5758,28.0274],[150.2578,-35.5706,50.6689],[150.2565,-35.5679,44.8898],[150.2546,-35.5683,47.8895],[150.2538,-35.5642,60.7283],[150.2522,-35.5668,39.2817],[150.2465,-35.5623,21.1272],[150.2468,-35.5593,23.9377],[150.2442,-35.5599,17.4522],[150.2414,-35.5583,20.5708],[150.2422,-35.5566,17.7778],[150.2396,-35.5551,23.031],[150.2375,-35.5493,26.8528],[150.2363,-35.5499,24.3501],[150.2372,-35.5526,20.0229],[150.2348,-35.5543,30.3906],[150.2321,-35.5501,14.8881],[150.2298,-35.5504,22.3452],[150.2236,-35.5451,23.7873],[150.222,-35.5459,22.5586],[150.2234,-35.5489,28.9549],[150.2212,-35.5505,29.2678],[150.2133,-35.5443,29.0587],[150.2123,-35.5452,21.175],[150.2143,-35.548,37.1158],[150.2124,-35.5494,23.3923],[150.2076,-35.5472,13.8073],[150.206,-35.5437,25.0651],[150.203,-35.5434,23.6892],[150.2037,-35.5465,7.3815],[150.2012,-35.5469,16.8275],[150.1976,-35.5507,9.2444],[150.1995,-35.5523,9.3172],[150.1987,-35.5535,22.9595],[150.1956,-35.5541,19.5591],[150.1919,-35.5498,10.4274],[150.1912,-35.5533,22.3452],[150.1822,-35.5594,5.8982],[150.1804,-35.5622,2.0],[150.1821,-35.5703,6.877],[150.1731,-35.5754,14.0494],[150.1706,-35.5722,17.8655],[150.1682,-35.5727,5.8173],[150.1667,-35.5707,3.9859],[150.1613,-35.5748,51.2725],[150.1572,-35.5697,14.9655],[150.1544,-35.5717,16.2907],[150.1514,-35.5713,13.5168],[150.1512,-35.5734,16.3129],[150.1425,-35.5728,29.4485],[150.141,-35.5687,29.3878],[150.1355,-35.5686,23.8726],[150.1368,-35.5647,40.9037],[150.1332,-35.5627,88.7103],[150.131,-35.569,36.1591],[150.1195,-35.5758,43.2219],[150.1176,-35.5734,63.0958],[150.114,-35.573,52.5218],[150.1133,-35.5706,53.9249],[150.1084,-35.5705,61.645],[150.1079,-35.5733,79.6813],[150.1006,-35.5745,86.8864],[150.0996,-35.5764,86.0383],[150.0945,-35.5751,74.1278],[150.0943,-35.5807,64.2559],[150.0916,-35.579,70.166],[150.0784,-35.5788,74.1878],[150.0764,-35.5764,76.1258],[150.0789,-35.5753,73.5551],[150.0764,-35.5738,72.6243],[150.0716,-35.5791,81.234],[150.0668,-35.5783,90.23],[150.0686,-35.5752,81.8208],[150.0672,-35.5741,93.8567],[150.0558,-35.5766,99.9331],[150.0512,-35.5736,109.8908],[150.0513,-35.5703,79.865],[150.0481,-35.5702,92.0784],[150.0471,-35.5672,92.9723],[150.0421,-35.5657,102.1035],[150.0371,-35.5615,123.0255],[150.0265,-35.5609,118.2594],[150.0247,-35.5598,122.1278],[150.0266,-35.558,120.2107],[150.0229,-35.5563,124.9193],[150.0238,-35.5544,178.678],[150.019,-35.554,132.9426],[150.0158,-35.5509,148.8561],[150.0108,-35.5518,145.2992],[150.006,-35.5444,133.7946],[150.0023,-35.5421,145.5474],[150.0005,-35.5357,153.3574],[150.0016,-35.5328,164.0843],[149.9974,-35.5301,181.2489],[149.9954,-35.5242,190.8376],[149.994,-35.5244,186.5706],[149.9946,-35.5214,188.9756],[149.9878,-35.517,205.3897],[149.9843,-35.5102,232.5823],[149.9802,-35.5097,226.8246],[149.9809,-35.5038,235.9776],[149.9704,-35.5006,441.9231],[149.9672,-35.5019,504.9979],[149.9641,-35.5008,588.1759],[149.9574,-35.5307,548.3195],[149.9493,-35.5294,709.4353],[149.9488,-35.5322,669.3522],[149.9493,-35.5407,641.9817],[149.9567,-35.5439,788.1118],[149.9506,-35.5457,867.8092],[149.9493,-35.5499,829.7207],[149.9533,-35.5504,781.0737],[149.952,-35.5519,783.1673],[149.9429,-35.5533,756.4973],[149.9413,-35.5607,801.393],[149.9482,-35.5618,800.5942],[149.9459,-35.5657,821.1871],[149.9366,-35.5615,858.7061],[149.9299,-35.5654,724.7222],[149.9309,-35.572,775.5002],[149.929,-35.5785,824.5155],[149.9363,-35.5944,921.6143],[149.9332,-35.6026,942.7144],[149.9351,-35.6108,1024.5321],[149.9274,-35.6139,818.3769],[149.9221,-35.6183,810.3469],[149.92,-35.6235,776.4081],[149.9218,-35.6347,807.3291],[149.9173,-35.6357,833.1939],[149.9156,-35.638,833.8904],[149.9084,-35.637,783.3603],[149.8615,-35.7114,103.42],[149.8626,-35.7138,102.2554],[149.8566,-35.7197,121.366],[149.8542,-35.7201,115.0747],[149.8516,-35.7189,115.513],[149.8508,-35.715,97.3951],[149.8455,-35.7175,101.6283],[149.8402,-35.715,99.6799],[149.8384,-35.7182,105.3333],[149.8394,-35.7238,106.6845],[149.8298,-35.7215,112.162],[149.8296,-35.7256,137.0969],[149.8255,-35.7286,128.1593],[149.8225,-35.7348,138.5733],[149.8185,-35.7334,117.9723],[149.8144,-35.7363,119.3955],[149.8182,-35.7397,121.3372],[149.8185,-35.7437,117.5202],[149.8207,-35.7453,122.1516],[149.8174,-35.7496,146.5361],[149.8173,-35.7539,133.4366],[149.8148,-35.7535,177.6854],[149.8149,-35.7561,222.832],[149.8077,-35.7581,346.8216],[149.8039,-35.7608,377.898],[149.796,-35.7739,510.7614],[149.7738,-35.7816,735.6697],[149.7661,-35.7885,910.4761],[149.7611,-35.791,973.717],[149.7596,-35.7941,958.8474],[149.7543,-35.7946,870.408],[149.7513,-35.7895,683.5637],[149.7283,-35.7863,630.6549],[149.728,-35.788,604.8322],[149.7093,-35.7842,983.2759],[149.7041,-35.7909,994.0167],[149.693,-35.7952,1004.387],[149.6849,-35.8027,994.1166],[149.6863,-35.8074,973.1561],[149.6801,-35.8137,908.681],[149.6795,-35.8222,968.4255],[149.6766,-35.8259,1028.65],[149.6769,-35.8336,997.0491],[149.6819,-35.8377,993.1875],[149.6782,-35.8466,980.2009],[149.6805,-35.8576,927.8298],[149.6786,-35.8608,952.2786],[149.6797,-35.8627,895.4517],[149.6787,-35.866,904.8912],[149.6791,-35.8701,950.9423],[149.6835,-35.8726,867.0557],[149.6865,-35.878,1023.5246],[149.6896,-35.8919,1007.3032],[149.6888,-35.8989,1043.3135],[149.6939,-35.9083,1021.4819],[149.6917,-35.9109,1032.0266],[149.6928,-35.9189,1001.3492],[149.6905,-35.9255,1018.9269],[149.6914,-35.9276,1024.0204],[149.6876,-35.9324,996.3669],[149.6875,-35.9389,986.6963],[149.6894,-35.9425,1029.6829],[149.6863,-35.949,910.7939],[149.6874,-35.955,976.8251],[149.6825,-35.9573,1043.8644],[149.6835,-35.9634,1052.6449],[149.6799,-35.9813,1149.1548],[149.6772,-35.9823,1167.1984],[149.6729,-35.9893,1231.3893],[149.67,-35.9863,1200.1625],[149.6615,-35.9869,1087.8793],[149.6583,-35.9854,1001.8795],[149.6521,-35.9808,938.4834],[149.6486,-35.9748,910.7262],[149.6391,-35.9755,893.7039],[149.6319,-35.9719,876.6882],[149.6217,-35.9622,1155.136],[149.6089,-35.9668,994.2277],[149.6076,-35.9715,933.3012],[149.609,-35.9782,951.9403],[149.6065,-35.9849,980.8596],[149.6011,-35.9916,1185.0433],[149.5848,-35.9914,1161.7156],[149.5831,-35.9969,1244.3549],[149.5857,-36.0018,1287.4943],[149.5851,-36.0056,1313.7722],[149.5826,-36.0074,1293.418],[149.5684,-36.0089,1326.0405],[149.5673,-36.0191,1211.7468],[149.5704,-36.0257,1254.8823],[149.5708,-36.0388,1170.9619],[149.5742,-36.0443,1131.0193],[149.5752,-36.0535,1075.6005],[149.5719,-36.056,1051.125],[149.571,-36.0606,1053.1777],[149.5719,-36.0632,1053.1167],[149.575,-36.0636,1050.0811],[149.5761,-36.0656,1051.5605],[149.582,-36.0685,1069.7113],[149.5765,-36.0729,1085.2996],[149.5785,-36.0741,1086.8467],[149.5775,-36.0756,1076.4221],[149.5789,-36.0776,1085.8916],[149.5837,-36.081,1132.1145],[149.5789,-36.0839,1111.0691],[149.5807,-36.0874,1088.5376],[149.57,-36.0871,1119.5334],[149.5683,-36.0883,1110.6963],[149.5686,-36.0919,1117.2296],[149.5633,-36.0935,1114.5377],[149.5628,-36.0964,1119.8595],[149.5573,-36.0969,1136.0469],[149.555,-36.0951,1143.7603],[149.5517,-36.0972,1140.4824],[149.5512,-36.1033,1073.29],[149.5526,-36.1058,1101.054],[149.5449,-36.1038,1061.3218],[149.543,-36.1072,1054.7123],[149.5485,-36.1122,1098.9639],[149.5478,-36.116,1099.8801],[149.5834,-36.1427,229.5953],[149.5877,-36.1414,231.782],[149.5902,-36.1381,224.4289],[149.5941,-36.1365,221.1107],[149.6035,-36.1365,215.3962],[149.6077,-36.1341,205.6501],[149.6163,-36.1355,194.0961],[149.6194,-36.1306,192.3078],[149.6238,-36.1349,193.7088],[149.6273,-36.133,183.1439],[149.6272,-36.1306,187.1512],[149.6296,-36.1282,175.372],[149.6511,-36.1313,176.3967],[149.653,-36.1356,173.9666],[149.6421,-36.1846,288.3718],[149.646,-36.1852,277.2737],[149.6446,-36.1934,238.6017],[149.6405,-36.1955,236.5634],[149.6475,-36.1966,324.7197],[149.7398,-36.2398,115.567],[149.7462,-36.2378,116.7269],[149.7513,-36.2329,123.6314],[149.769,-36.2353,337.5095],[149.814,-36.2505,293.2344],[149.953,-36.2688,95.0784],[149.9439,-36.3058,129.16309999999999],[149.9533,-36.3115,89.969],[149.9505,-36.3236,62.7408],[149.9596,-36.3202,61.626],[149.9582,-36.3188,55.3242],[149.9598,-36.3156,51.8915],[149.9609,-36.3178,45.2213],[149.9639,-36.3177,59.0874],[149.9641,-36.3201,32.2724],[149.9679,-36.3189,59.6752],[149.9688,-36.3208,38.7869],[149.967,-36.3238,31.5743],[149.9704,-36.3242,39.4852],[149.9689,-36.3274,30.344],[149.9729,-36.3334,23.5856],[149.9721,-36.3358,25.4798],[149.9779,-36.3395,30.9518],[149.9757,-36.3452,28.1313],[149.9802,-36.3456,27.2611],[149.9796,-36.3483,30.204],[149.9837,-36.3479,15.462],[149.9821,-36.3522,12.5023],[149.9838,-36.3542,9.8661],[149.9859,-36.3532,13.471],[149.9889,-36.3555,12.6814],[149.9874,-36.3584,19.0354],[149.9952,-36.359,33.6316],[149.9944,-36.3531,10.8668],[150.0024,-36.3566,38.1121],[150.0044,-36.3596,25.6975],[150.0047,-36.3654,3.9054],[150.019,-36.3643,6.1901],[150.0315,-36.3557,0.8848],[150.0263,-36.3539,25.545],[150.0309,-36.3545,9.5179],[150.0314,-36.352,0.5],[150.0299,-36.3509,6.1802],[150.0308,-36.3492,6.138],[150.0291,-36.3481,6.138],[150.0325,-36.3457,2.144],[150.0322,-36.3484,0.5],[150.0342,-36.3487,0.9168],[150.0341,-36.3535,0.5],[150.0398,-36.3513,0.5],[150.0428,-36.355,0.5],[150.0441,-36.3534,13.9745],[150.047,-36.3561,13.3838],[150.0484,-36.3541,26.014],[150.0492,-36.3557,3.0291],[150.0506,-36.3548,0.5],[150.0524,-36.3583,0.5],[150.0553,-36.3589,16.3629],[150.0529,-36.3602,0.5],[150.0534,-36.3617,0.5],[150.0575,-36.3632,0.5],[150.0587,-36.362,0.5],[150.0574,-36.3601,17.0789],[150.0601,-36.3603,0.5],[150.0601,-36.3577,0.5],[150.0527,-36.3511,18.4997],[150.0505,-36.3464,2.5072],[150.0528,-36.3432,5.7694],[150.0528,-36.3463,0.5],[150.0553,-36.3467,26.404],[150.0548,-36.3484,15.7587],[150.0568,-36.3512,21.013],[150.0595,-36.3479,41.2224],[150.0619,-36.3481,0.5],[150.0607,-36.3501,0.5],[150.0617,-36.3522,0.5],[150.0642,-36.3494,39.3405],[150.0639,-36.353,0.5],[150.0663,-36.3532,26.0337],[150.066,-36.3553,7.7108],[150.0638,-36.3558,0.5],[150.065,-36.3579,19.1676],[150.0739,-36.3576,7.906],[150.0736,-36.3556,0.5],[150.0721,-36.3554,23.742],[150.0723,-36.3526,36.8109],[150.0756,-36.3554,5.3061],[150.0765,-36.3591,16.6744],[150.0828,-36.3635,0.0]]]]}
,"properties": {"GID_2": "AUS.5.46_1","GID_0": "AUS","country": "Australia","GID_1": "AUS.5_1","state": "NewSouthWales","NL_NAME_1": "NA","county": "Eurobodalla","VARNAME_2": "NA","NL_NAME_2": "NA","TYPE_2": "Area","ENGTYPE_2": "Area","CC_2": "12750","HASC_2": "AU.NS.EU","name": "Eurobodalla.county","area_km2": 3428.847,"hist_schema_id": "Elevation0-9000","hist_area_km2": {"0": 211.973,"25": 258.511,"50": 303.943,"75": 278.86,"100": 237.63,"125": 199.645,"150": 173.725,"175": 157.812,"200": 140.757,"225": 124.28,"250": 107.967,"275": 96.954,"300": 91.879,"325": 85.632,"350": 80.815,"375": 75.924,"400": 68.834,"425": 64.317,"450": 58.137,"475": 53.019,"500": 48.538,"525": 44.83,"550": 41.037,"575": 36.398,"600": 35.762,"625": 32.944,"650": 32.015,"675": 30.366,"700": 30.157,"725": 28.918,"750": 27.187,"775": 25.856,"800": 22.461,"825": 18.974,"850": 14.458,"875": 12.238,"900": 12.459,"925": 10.791,"950": 8.629,"975": 7.635,"1000": 6.485,"1025": 5.197,"1050": 6.103,"1075": 5.657,"1100": 4.131,"1125": 2.932,"1150": 1.972,"1175": 2.058,"1200": 0.583,"1225": 0.446,"1250": 0.446,"1275": 0.36,"1300": 0.137,"1325": 0.069}}}