{"type":"Feature","properties":{"GID_2":"AUS.5.12_1","GID_0":"AUS","country":"Australia","GID_1":"AUS.5_1","state":"NewSouthWales","NL_NAME_1":"NA","county":"Blacktown","VARNAME_2":"NA","NL_NAME_2":"NA","TYPE_2":"City","ENGTYPE_2":"City","CC_2":"10750","HASC_2":"AU.NS.BC","name":"Blacktown.county"},
"geometry":{"type": "MultiPolygon","coordinates": [[[[150.9144,-33.8323,65.4268],[150.916,-33.8303,90.0227],[150.9147,-33.8294,57.6948],[150.9185,-33.8088,68.2916],[150.9273,-33.8102,66.5411],[150.93,-33.8055,57.3671],[150.9343,-33.8061,44.1893],[150.9363,-33.8021,43.0742],[150.9352,-33.7981,41.2963],[150.9383,-33.7937,41.2956],[150.9506,-33.7851,32.8918],[150.9476,-33.7804,39.3144],[150.9518,-33.7766,31.7282],[150.9565,-33.78,25.2096],[150.9608,-33.7785,30.6212],[150.9654,-33.7794,44.7975],[150.9598,-33.7715,47.43],[150.9576,-33.7621,72.8955],[150.9271,-33.6963,54.7063],[150.9134,-33.6789,46.4615],[150.8994,-33.6659,38.7365],[150.8931,-33.6622,38.952],[150.8767,-33.6595,26.1809],[150.8587,-33.6463,25.2684],[150.8352,-33.658,9.7544],[150.8272,-33.6573,5.3316],[150.8197,-33.6607,7.3904],[150.8131,-33.669,5.8911],[150.8148,-33.6733,7.688],[150.8186,-33.6741,8.0055],[150.8186,-33.6764,8.4994],[150.8102,-33.6785,7.342],[150.8071,-33.6778,9.957],[150.8046,-33.6745,12.5343],[150.8032,-33.6755,12.3229],[150.8007,-33.6745,15.8247],[150.7968,-33.6792,12.7799],[150.7955,-33.6846,10.5745],[150.7904,-33.6867,10.8769],[150.7912,-33.6888,12.0596],[150.7848,-33.6918,12.9207],[150.7851,-33.6933,15.3953],[150.7789,-33.6969,17.3222],[150.7799,-33.7002,12.6533],[150.7788,-33.7022,14.1283],[150.7762,-33.7042,17.0254],[150.772,-33.7014,14.0658],[150.7678,-33.7056,17.0344],[150.7661,-33.7055,14.8339],[150.7677,-33.7136,18.4672],[150.7657,-33.7189,20.8338],[150.7642,-33.7186,21.5092],[150.7625,-33.721,25.8533],[150.764,-33.7263,25.1045],[150.7597,-33.7296,22.6548],[150.7618,-33.7352,22.8271],[150.7756,-33.7363,27.2457],[150.7781,-33.7398,26.8202],[150.7838,-33.7408,28.775],[150.7866,-33.7462,29.3449],[150.7892,-33.7468,33.3919],[150.7888,-33.7511,34.4196],[150.793,-33.7535,30.6933],[150.7916,-33.7557,35.123],[150.7955,-33.7641,35.5501],[150.802,-33.77,38.497],[150.8033,-33.777,39.7934],[150.8062,-33.7783,39.9905],[150.8054,-33.7796,39.128],[150.808,-33.7811,41.7261],[150.8082,-33.7837,41.123],[150.8101,-33.784,40.2094],[150.8094,-33.7879,40.6962],[150.8118,-33.7888,41.1777],[150.8104,-33.7942,50.5838],[150.8143,-33.7983,51.9101],[150.8141,-33.8046,55.8892],[150.8157,-33.8077,52.2718],[150.8136,-33.8094,51.8605],[150.8145,-33.8111,53.5945],[150.8134,-33.8127,51.0799],[150.8158,-33.8169,54.7229],[150.8129,-33.8224,55.6088],[150.828,-33.8207,71.5796],[150.8577,-33.8209,62.5387],[150.8737,-33.8247,64.54],[150.8777,-33.8269,62.205],[150.8782,-33.829,73.1444],[150.8843,-33.8275,58.4528],[150.8833,-33.8323,65.6195],[150.888,-33.8297,58.9183],[150.8889,-33.834,62.5532],[150.8959,-33.8286,53.6166],[150.9089,-33.8254,56.7224],[150.9144,-33.8323,65.4268]]]]}}