{"type": "Feature","bbox": [151.6068,-32.9629,151.8186,-32.7896],"geometry": {"type": "MultiPolygon","coordinates": [[[[151.6094,-32.8803,34.2712],[151.6068,-32.8925,58.2733],[151.6408,-32.8977,57.6708],[151.6368,-32.9193,29.8582],[151.6879,-32.9271,93.9597],[151.6839,-32.9483,92.6243],[151.7291,-32.9551,102.495],[151.7281,-32.9594,52.7247],[151.7379,-32.9629,3.9929],[151.7459,-32.9566,1.0287],[151.7538,-32.953,3.3476],[151.7576,-32.948,0.0],[151.7663,-32.9423,2.0185],[151.7699,-32.9419,0.0],[151.7716,-32.9392,29.4287],[151.7794,-32.9372,6.792],[151.7874,-32.9296,0.0],[151.791,-32.9301,0.0],[151.7912,-32.9276,3.4171],[151.7942,-32.9267,0.0],[151.7922,-32.9247,16.2748],[151.793,-32.9228,1.4984],[151.803,-32.9159,0.0],[151.7975,-32.9181,6.6858],[151.7937,-32.9215,1.4984],[151.7912,-32.9214,2.7413],[151.7898,-32.9239,1.0443],[151.7855,-32.9255,1.5819],[151.7635,-32.9245,0.0],[151.7592,-32.9153,1.9562],[151.761,-32.9098,3.1403],[151.7598,-32.9083,0.9116],[151.7615,-32.9077,3.2477],[151.7634,-32.9079,3.4841],[151.7607,-32.913,0.0],[151.7629,-32.9139,2.2054],[151.7605,-32.9157,0.0],[151.7643,-32.9221,0.9899],[151.7685,-32.9214,0.0],[151.7686,-32.9168,0.9625],[151.7702,-32.9163,1.3537],[151.7742,-32.9229,3.4585],[151.777,-32.9236,0.3898],[151.7717,-32.9137,1.9487],[151.768,-32.8949,0.4809],[151.7468,-32.8814,5.9441],[151.7419,-32.8797,6.7322],[151.7336,-32.8797,6.8485],[151.7339,-32.8776,2.4505],[151.7444,-32.8766,0.6974],[151.7619,-32.8858,3.0821],[151.7746,-32.8896,3.4255],[151.7733,-32.8944,3.2485],[151.7749,-32.9023,1.2402],[151.7774,-32.9021,1.1255],[151.7829,-32.8941,0.0],[151.7838,-32.8849,2.1384],[151.7893,-32.8859,0.3773],[151.7939,-32.8829,2.1265],[151.7865,-32.8993,3.6799],[151.7776,-32.9114,0.0],[151.7792,-32.9172,0.0],[151.7819,-32.9195,0.2929],[151.7857,-32.9202,0.5405],[151.7902,-32.918,0.7333],[151.7914,-32.9155,0.0],[151.7881,-32.9064,4.5435],[151.7912,-32.8969,0.0],[151.7975,-32.8886,2.5265],[151.8101,-32.8782,0.0],[151.7939,-32.8757,1.8448],[151.7898,-32.8656,0.0],[151.7903,-32.8607,0.0],[151.7928,-32.8565,4.0267],[151.8038,-32.8503,2.2034],[151.8086,-32.8438,4.0505],[151.8142,-32.8395,8.9854],[151.8186,-32.831,1.3207],[151.8176,-32.8246,-0.1261],[151.8087,-32.8206,1.2847],[151.7966,-32.8191,1.2063],[151.784,-32.8203,2.7039],[151.7751,-32.8238,2.5154],[151.7698,-32.8296,0.6461],[151.7737,-32.8366,2.7885],[151.7682,-32.8436,1.5558],[151.7678,-32.8464,2.5743],[151.7698,-32.8488,2.673],[151.7679,-32.8503,4.4409],[151.7683,-32.8523,4.8567],[151.7567,-32.8526,4.6759],[151.7562,-32.8506,2.683],[151.7421,-32.8481,8.6067],[151.7355,-32.8442,1.959],[151.7299,-32.8366,0.4438],[151.7092,-32.8309,7.4627],[151.7083,-32.8321,2.8628],[151.7083,-32.8309,7.4627],[151.7006,-32.8313,4.288],[151.6961,-32.8289,5.0608],[151.6976,-32.8274,2.502],[151.6967,-32.8267,2.502],[151.6953,-32.8281,0.0],[151.6936,-32.827,0.0],[151.6949,-32.826,3.4951],[151.6918,-32.8258,4.4748],[151.6879,-32.8217,5.1475],[151.6875,-32.8217,6.1232],[151.686,-32.8231,0.0],[151.6836,-32.8213,0.4098],[151.6825,-32.8179,0.0],[151.6837,-32.8157,0.0],[151.6993,-32.8095,2.1401],[151.7057,-32.8051,0.0],[151.6572,-32.7985,6.461],[151.6468,-32.7896,1.7872],[151.6453,-32.7968,9.2685],[151.6386,-32.7967,11.1904],[151.6286,-32.7899,20.8132],[151.6094,-32.8803,34.2712]]]]}
,"properties": {"GID_2": "AUS.5.100_1","GID_0": "AUS","country": "Australia","GID_1": "AUS.5_1","state": "NewSouthWales","NL_NAME_1": "NA","county": "Newcastle","VARNAME_2": "NA","NL_NAME_2": "NA","TYPE_2": "City","ENGTYPE_2": "City","CC_2": "15900","HASC_2": "AU.NS.NE","name": "Newcastle.county","area_km2": 211.4891,"hist_schema_id": "Elevation0-9000","hist_area_km2": {"0": 134.8841,"25": 45.2952,"50": 18.656,"75": 8.6498,"100": 3.2745,"125": 0.5872,"150": 0.1424}}}