{"type": "Feature","bbox": [141.9922,-36.7615,142.8167,-35.2909],"geometry": {"type": "MultiPolygon","coordinates": [[[[142.5358,-35.3029,74.3723],[142.4117,-35.3039,72.9639],[142.4033,-35.3029,69.1309],[142.4034,-35.2954,66.3878],[142.3786,-35.2953,68.7951],[142.3742,-35.297,65.7033],[142.3638,-35.2922,64.5548],[142.352,-35.2952,65.1658],[142.3227,-35.295,75.8548],[142.3144,-35.2974,72.2428],[142.3106,-35.2949,80.8361],[142.3012,-35.2936,89.6358],[142.2913,-35.2955,69.6428],[142.2894,-35.2909,80.3192],[142.2573,-35.2998,70.9001],[142.2527,-35.3047,86.3029],[142.2449,-35.3075,88.3816],[142.2439,-35.311,78.5713],[142.2224,-35.3109,88.9363],[142.2007,-35.3151,81.2916],[142.1951,-35.3132,71.1482],[142.1889,-35.3226,65.7911],[142.1813,-35.3223,67.5011],[142.1837,-35.3295,72.1141],[142.1813,-35.3319,67.227],[142.182,-35.3344,67.5224],[142.1922,-35.3427,69.4548],[142.1991,-35.3537,73.2023],[142.1791,-35.354,73.1358],[142.1777,-35.3602,70.2424],[142.1742,-35.3624,71.7289],[142.1821,-35.3669,67.7973],[142.1736,-35.3759,70.4647],[142.1825,-35.3984,72.5616],[142.2068,-35.4501,82.6202],[142.1685,-35.4499,82.0135],[142.1671,-35.4563,81.6622],[142.1669,-35.4784,87.2062],[142.1515,-35.4766,75.864],[142.1422,-35.4801,74.0172],[142.1314,-35.4783,64.3075],[142.1247,-35.4722,64.2583],[142.1006,-35.4664,64.6477],[142.0962,-35.4694,63.4695],[142.0913,-35.4694,59.9853],[142.0814,-35.4646,60.2846],[141.9975,-35.4635,56.4996],[141.9975,-35.6396,73.7008],[141.9949,-35.6439,76.5975],[141.9949,-35.6539,74.7786],[141.9972,-35.6539,69.3138],[141.9974,-35.7108,85.2591],[141.9922,-35.7108,72.2929],[141.9989,-35.7161,72.6773],[142.008,-35.7338,76.4169],[142.0099,-35.74,89.4029],[142.0102,-35.7552,86.8414],[142.0084,-35.7742,82.704],[141.9995,-35.7979,77.6035],[141.9992,-35.8148,75.0476],[141.9957,-35.8243,74.457],[141.9973,-35.8247,74.1565],[141.9971,-35.8674,72.4171],[142.239,-35.8683,87.803],[142.239,-35.9979,96.9854],[142.1684,-35.9979,95.4672],[142.1685,-36.0183,101.4484],[142.1726,-36.0187,99.5125],[142.1726,-36.0338,98.1985],[142.1685,-36.0338,98.2101],[142.168,-36.0405,97.6748],[142.1686,-36.3658,124.8143],[142.1654,-36.3663,124.6643],[142.1659,-36.4327,128.3122],[142.1767,-36.433,127.22],[142.198,-36.4376,127.7569],[142.2282,-36.4375,127.8142],[142.2435,-36.4401,128.3676],[142.3433,-36.4403,128.4166],[142.3505,-36.4494,129.3312],[142.4048,-36.4495,124.2653],[142.4015,-36.4521,123.6183],[142.4003,-36.456,124.6619],[142.3963,-36.4583,123.3794],[142.4019,-36.4664,124.9723],[142.399,-36.4684,125.3027],[142.3979,-36.4719,124.1039],[142.4,-36.4754,125.108],[142.3984,-36.4802,124.3505],[142.4024,-36.4818,124.7976],[142.3998,-36.4838,125.2888],[142.3993,-36.4879,123.9794],[142.4019,-36.4941,126.0895],[142.4044,-36.4947,126.4685],[142.4026,-36.4974,128.977],[142.3986,-36.4986,125.375],[142.3999,-36.5005,129.2513],[142.3963,-36.502,126.6616],[142.3944,-36.506,126.9653],[142.3964,-36.5104,128.2026],[142.3941,-36.5192,128.2621],[142.3918,-36.5216,128.9045],[142.3943,-36.5273,128.2907],[142.3981,-36.5281,128.9648],[142.3965,-36.5382,127.2729],[142.3906,-36.5468,132.1824],[142.3914,-36.5498,129.7775],[142.3874,-36.5566,130.7516],[142.382,-36.5738,130.7659],[142.388,-36.5783,131.216],[142.3878,-36.5845,132.0533],[142.3861,-36.5871,134.1051],[142.389,-36.5899,132.1211],[142.3873,-36.5912,131.5577],[142.3863,-36.5988,133.4228],[142.3783,-36.6036,133.5484],[142.3786,-36.6073,133.9385],[142.3719,-36.6133,133.4372],[142.3735,-36.6196,133.8003],[142.373,-36.6254,133.7018],[142.3709,-36.6278,134.1373],[142.3701,-36.6323,137.1157],[142.3719,-36.6372,134.7304],[142.3698,-36.646,133.1599],[142.373,-36.6502,134.1473],[142.3789,-36.6522,134.7],[142.3826,-36.6572,135.0658],[142.3831,-36.6631,136.8993],[142.3857,-36.6658,136.7217],[142.3823,-36.673,135.3979],[142.3869,-36.6769,136.643],[142.39,-36.6776,137.3592],[142.3929,-36.6763,136.9905],[142.3963,-36.6785,137.1915],[142.3973,-36.6812,138.3096],[142.3958,-36.6835,138.2007],[142.4023,-36.6898,138.1051],[142.3989,-36.6931,136.8592],[142.4015,-36.6967,139.0886],[142.4003,-36.6996,137.5937],[142.4082,-36.7008,138.4325],[142.4076,-36.7032,140.8527],[142.4104,-36.7063,139.3156],[142.4149,-36.707,144.0997],[142.4191,-36.7105,141.8853],[142.4238,-36.7116,143.8111],[142.4239,-36.7143,143.3816],[142.4284,-36.7162,142.9432],[142.4333,-36.722,145.8218],[142.4359,-36.7223,145.6857],[142.44,-36.7267,145.3173],[142.451,-36.7301,148.8703],[142.4537,-36.7293,145.7632],[142.4554,-36.732,149.9426],[142.4626,-36.7349,148.8689],[142.4634,-36.7398,149.7362],[142.4693,-36.7487,150.277],[142.4734,-36.7531,149.3648],[142.4753,-36.7529,148.2228],[142.474,-36.756,150.2419],[142.4753,-36.7586,149.2018],[142.4696,-36.7615,151.0073],[142.7315,-36.7614,154.5116],[142.7119,-36.7358,150.5361],[142.7141,-36.721,148.7086],[142.7304,-36.698,145.424],[142.7639,-36.6567,141.7205],[142.7947,-36.6395,137.7749],[142.8064,-36.615,135.4586],[142.8045,-36.6133,135.4452],[142.8079,-36.6064,134.8259],[142.8111,-36.6053,134.6646],[142.8164,-36.5943,133.0109],[142.8164,-36.5723,132.0296],[142.7829,-36.5721,132.3368],[142.7652,-36.5615,133.336],[142.7317,-36.5508,138.6757],[142.7319,-36.4977,126.7979],[142.7848,-36.4978,129.7526],[142.7851,-36.4959,130.2152],[142.7894,-36.4959,129.3811],[142.7894,-36.4733,127.1552],[142.7986,-36.4733,128.0712],[142.7986,-36.4596,129.0565],[142.8167,-36.4596,128.172],[142.8167,-36.4375,126.6932],[142.7986,-36.4376,124.6079],[142.7987,-36.4081,125.1019],[142.7621,-36.4081,125.0983],[142.7621,-36.4052,123.7603],[142.7318,-36.4052,124.4328],[142.7319,-36.3973,121.5024],[142.743,-36.3931,122.0649],[142.735,-36.376,119.2439],[142.7316,-36.3757,119.5954],[142.7316,-36.2986,115.7747],[142.7192,-36.3072,113.8139],[142.7219,-36.2911,114.7913],[142.7256,-36.2915,113.0115],[142.7272,-36.2814,113.1749],[142.7401,-36.2828,113.2247],[142.7431,-36.2646,113.1951],[142.7221,-36.2623,112.3832],[142.7221,-36.2394,110.6127],[142.728,-36.2394,110.6849],[142.728,-36.2245,110.6324],[142.7253,-36.2245,110.3207],[142.7252,-36.2097,108.7213],[142.7322,-36.2097,108.8041],[142.7321,-36.1831,107.6723],[142.7354,-36.1835,108.5395],[142.7364,-36.1657,107.4334],[142.7417,-36.166,107.4571],[142.7422,-36.1633,107.6394],[142.7458,-36.1637,107.1972],[142.7475,-36.1539,106.5662],[142.7422,-36.1532,106.226],[142.7432,-36.1478,106.0858],[142.7278,-36.1478,107.0976],[142.7289,-36.1471,107.6058],[142.7287,-36.1203,104.361],[142.7318,-36.1034,103.8208],[142.7033,-36.1,106.1581],[142.6809,-36.0999,106.4747],[142.6809,-36.0963,106.2586],[142.6316,-36.1253,106.6926],[142.6315,-36.1205,108.0317],[142.6042,-36.1205,101.6175],[142.6044,-35.9978,100.0069],[142.6008,-35.9979,100.0113],[142.601,-35.9349,94.7539],[142.5976,-35.932,99.6617],[142.6011,-35.9322,94.3262],[142.6011,-35.7364,82.0359],[142.7218,-35.736,90.6538],[142.7225,-35.4753,63.1306],[142.5433,-35.4758,75.1039],[142.5437,-35.387,67.3161],[142.5353,-35.3866,66.3935],[142.5358,-35.3029,74.3723]]]]}
,"properties": {"GID_2": "AUS.10.80_1","GID_0": "AUS","country": "Australia","GID_1": "AUS.10_1","state": "Victoria","NL_NAME_1": "NA","county": "Yarriambiack","VARNAME_2": "NA","NL_NAME_2": "NA","TYPE_2": "Shire","ENGTYPE_2": "Shire","CC_2": "27630","HASC_2": "AU.VI.YB","name": "Yarriambiack.county","area_km2": 7323.735,"hist_schema_id": "Elevation0-9000","hist_area_km2": {"50": 47.813,"75": 2743.119,"100": 2353.55,"125": 1632.055,"150": 547.148}}}