{"type": "Feature","bbox": [149.9641,-34.7692,150.7457,-34.2125],"geometry": {"type": "MultiPolygon","coordinates": [[[[150.3335,-34.7523,56.0],[150.3391,-34.7487,56.0],[150.3586,-34.7485,59.6497],[150.3728,-34.7428,56.0],[150.3743,-34.739,80.7842],[150.3777,-34.7374,65.1184],[150.3767,-34.7347,91.508],[150.3801,-34.7326,56.5],[150.3821,-34.7238,63.7421],[150.3922,-34.7181,83.8066],[150.3896,-34.7173,81.7826],[150.3889,-34.7132,86.3587],[150.3942,-34.7087,87.9802],[150.3939,-34.7069,87.3582],[150.4012,-34.7054,85.0253],[150.4006,-34.7034,88.5201],[150.405,-34.7013,95.3631],[150.4079,-34.7033,123.7501],[150.4085,-34.7011,107.1915],[150.4151,-34.7014,111.4401],[150.4182,-34.6987,106.5729],[150.4221,-34.6986,144.6269],[150.4327,-34.6897,116.378],[150.4349,-34.6915,133.7566],[150.4418,-34.6902,129.24],[150.4518,-34.6918,158.8218],[150.4692,-34.6782,224.6451],[150.4982,-34.6819,609.8962],[150.5017,-34.6791,611.609],[150.5008,-34.6753,616.1959],[150.5055,-34.6732,583.1569],[150.5015,-34.6706,601.0271],[150.5026,-34.6677,605.8482],[150.5139,-34.6644,649.6909],[150.5174,-34.6651,538.9743],[150.5188,-34.6607,585.5994],[150.5266,-34.6591,621.5195],[150.5263,-34.6571,628.0944],[150.531,-34.6569,575.8433],[150.5347,-34.6601,548.9493],[150.5357,-34.6639,613.6212],[150.5387,-34.6651,557.2094],[150.5396,-34.6632,543.4598],[150.5384,-34.6612,616.8074],[150.5416,-34.6572,565.3015],[150.5416,-34.6521,572.7264],[150.5464,-34.6441,603.8022],[150.5484,-34.6444,497.8753],[150.5483,-34.6505,356.8621],[150.5534,-34.6512,247.0576],[150.5513,-34.6502,273.4819],[150.5513,-34.6457,364.1118],[150.5533,-34.6422,409.4242],[150.5594,-34.6407,503.779],[150.5591,-34.6386,589.7515],[150.5601,-34.639,601.0012],[150.56,-34.6416,616.248],[150.5571,-34.644,590.2429],[150.5654,-34.6556,572.1135],[150.5676,-34.673,553.5465],[150.5628,-34.682,550.9895],[150.5593,-34.6833,411.0391],[150.5619,-34.6841,458.7917],[150.5691,-34.6818,520.0424],[150.564,-34.6866,508.5663],[150.5638,-34.6896,463.7694],[150.567,-34.694,566.3329],[150.5672,-34.6966,523.2041],[150.5771,-34.6955,504.0854],[150.5797,-34.6935,548.627],[150.5799,-34.6794,565.9961],[150.5767,-34.6756,520.475],[150.5764,-34.6696,535.7531],[150.5798,-34.6668,588.9229],[150.5828,-34.6668,492.7187],[150.5829,-34.6617,527.8229],[150.5908,-34.6585,476.9789],[150.5922,-34.6529,550.2951],[150.5907,-34.6471,570.1548],[150.604,-34.6519,147.8312],[150.6116,-34.6461,175.7448],[150.624,-34.6438,281.0535],[150.6323,-34.6345,274.7552],[150.6327,-34.6288,283.6416],[150.6351,-34.626,296.6483],[150.6374,-34.6269,317.4233],[150.6432,-34.6248,366.1467],[150.6548,-34.6245,559.6702],[150.6608,-34.6199,573.9604],[150.667,-34.6193,578.5255],[150.6664,-34.6128,587.3218],[150.6683,-34.6097,577.1908],[150.6931,-34.6073,695.4405],[150.6938,-34.6038,650.0849],[150.6825,-34.6022,610.7794],[150.6683,-34.592,579.6661],[150.6637,-34.5835,531.8216],[150.6657,-34.581,473.2206],[150.6543,-34.5816,602.0931],[150.6437,-34.58,628.306],[150.6408,-34.5774,615.5236],[150.6384,-34.5745,569.9739],[150.6379,-34.571,595.1401],[150.6398,-34.5605,625.0085],[150.6419,-34.5576,621.632],[150.6475,-34.5556,609.5184],[150.6553,-34.5466,700.9234],[150.6493,-34.5456,681.6317],[150.6488,-34.5481,726.4025],[150.6363,-34.5461,630.8807],[150.6351,-34.5432,623.1015],[150.7457,-34.3374,292.7907],[150.6015,-34.3144,373.6943],[150.5944,-34.3193,372.1429],[150.581,-34.3175,398.1499],[150.5621,-34.3312,447.9366],[150.5603,-34.3244,437.8357],[150.5657,-34.3234,421.0431],[150.5624,-34.3115,388.1977],[150.5656,-34.3103,375.8314],[150.5644,-34.3052,372.2491],[150.5615,-34.3048,388.0391],[150.563,-34.2975,363.5958],[150.5419,-34.2945,353.2449],[150.5434,-34.2919,340.9596],[150.5406,-34.2917,348.3156],[150.5393,-34.2896,363.8122],[150.5454,-34.2842,364.382],[150.5457,-34.2809,326.0879],[150.5489,-34.277,322.3568],[150.5513,-34.2669,306.0482],[150.5483,-34.2645,322.5477],[150.3572,-34.2369,216.1854],[150.3566,-34.2397,204.0535],[150.3517,-34.239,211.1316],[150.3528,-34.2347,194.1517],[150.3467,-34.2339,198.9249],[150.3309,-34.2375,247.9409],[150.3313,-34.2322,423.8286],[150.2865,-34.2257,318.0269],[150.2859,-34.2285,318.9873],[150.2771,-34.2272,221.9101],[150.2782,-34.2245,219.0672],[150.2702,-34.2234,170.3485],[150.2714,-34.2229,171.3665],[150.2708,-34.2178,163.1473],[150.2692,-34.2168,163.382],[150.2694,-34.2148,150.1794],[150.2659,-34.2125,130.1317],[150.262,-34.2138,131.2059],[150.2551,-34.2256,136.9103],[150.2356,-34.2277,175.9139],[150.2305,-34.2309,152.5953],[150.2293,-34.2348,158.0374],[150.2321,-34.2419,150.2883],[150.2306,-34.2493,146.4748],[150.2262,-34.2571,157.4673],[150.2244,-34.2679,159.3666],[150.2252,-34.271,157.4603],[150.2235,-34.2743,153.1193],[150.2116,-34.2797,162.7126],[150.2108,-34.2919,161.7918],[150.2052,-34.2979,163.9532],[150.2015,-34.2994,202.5256],[150.199,-34.3035,170.0696],[150.1966,-34.3045,176.0136],[150.1855,-34.3027,187.9429],[150.1792,-34.3077,177.4339],[150.1732,-34.3067,172.9226],[150.1642,-34.3083,186.1234],[150.1577,-34.3067,186.0472],[150.1546,-34.3031,180.43],[150.1538,-34.2975,187.0025],[150.1492,-34.2948,186.7178],[150.1414,-34.2999,188.1354],[150.1386,-34.3001,193.0034],[150.1351,-34.2932,192.8987],[150.1272,-34.294,194.6226],[150.1238,-34.2862,240.515],[150.1216,-34.2849,204.6062],[150.1039,-34.2788,205.0731],[150.0959,-34.2786,220.9244],[150.0952,-34.2748,207.2198],[150.0981,-34.2681,227.6568],[150.0957,-34.2661,234.4714],[150.0913,-34.2664,238.3904],[150.0866,-34.271,217.6599],[150.082,-34.2729,215.4343],[150.076,-34.2708,217.0321],[150.0742,-34.2686,218.0092],[150.0612,-34.2693,227.9604],[150.0593,-34.267,230.2174],[150.0538,-34.2664,272.4825],[150.0532,-34.2694,349.7302],[150.0505,-34.269,396.4868],[150.0497,-34.2733,391.1834],[150.0221,-34.2701,398.0695],[150.0236,-34.2624,513.0771],[149.9915,-34.2586,767.831],[149.9879,-34.2897,696.1003],[149.9856,-34.29,774.7382],[149.9853,-34.2931,776.8025],[149.9876,-34.294,779.0799],[149.9881,-34.2977,754.5244],[149.9744,-34.2959,658.1207],[149.9747,-34.2999,604.5391],[149.9723,-34.3011,613.1462],[149.971,-34.3068,597.4188],[149.9718,-34.3084,618.3368],[149.9668,-34.3107,615.0221],[149.9641,-34.3149,561.3518],[149.9659,-34.318,561.1144],[149.9704,-34.3189,600.2881],[149.968,-34.3226,534.0701],[149.9681,-34.326,515.5422],[149.9708,-34.3259,515.2561],[149.9714,-34.3295,509.8326],[149.974,-34.3288,497.6038],[149.9739,-34.3309,496.5918],[149.9803,-34.3366,486.5978],[149.9789,-34.339,489.135],[149.983,-34.3407,476.5605],[149.9838,-34.3441,476.0706],[149.9897,-34.3428,487.6655],[149.9952,-34.3461,465.0288],[150.0012,-34.3458,434.9797],[150.0021,-34.3473,440.589],[149.9985,-34.3499,482.8813],[149.9984,-34.3519,473.0771],[150.0014,-34.3538,409.8083],[150.0095,-34.3522,401.4036],[150.0102,-34.3564,391.5933],[150.0061,-34.3592,388.2],[150.0136,-34.3657,367.5806],[150.0188,-34.3674,401.8981],[150.0229,-34.3648,351.4532],[150.029,-34.3667,358.2598],[150.0282,-34.3597,332.1513],[150.036,-34.3544,341.326],[150.0385,-34.3551,319.4128],[150.0389,-34.3583,321.7766],[150.0422,-34.3609,310.4557],[150.0498,-34.3583,334.0488],[150.05,-34.356,311.3688],[150.0558,-34.3581,331.8293],[150.0598,-34.3564,294.2894],[150.0627,-34.3589,298.8244],[150.0665,-34.3562,313.9231],[150.0733,-34.3565,281.0472],[150.0751,-34.3497,261.8459],[150.0775,-34.3476,266.3945],[150.0809,-34.3491,258.5443],[150.0913,-34.3442,280.8769],[150.1031,-34.3575,272.705],[150.1019,-34.3608,267.5381],[150.0958,-34.3667,289.8491],[150.0957,-34.37,281.6788],[150.0986,-34.372,275.6886],[150.1009,-34.3716,273.383],[150.1084,-34.3653,278.1213],[150.1232,-34.3751,288.2518],[150.1093,-34.3868,322.5778],[150.1069,-34.3905,346.7812],[150.11,-34.4033,301.1017],[150.1157,-34.4102,351.2728],[150.1144,-34.413,309.3302],[150.1079,-34.4178,308.7092],[150.1056,-34.4248,313.9543],[150.098,-34.4329,320.6138],[150.0911,-34.431,377.5854],[150.0886,-34.4316,339.8008],[150.0887,-34.4374,368.0461],[150.0857,-34.4447,346.2348],[150.077,-34.4466,361.5789],[150.0704,-34.4522,359.621],[150.0683,-34.4562,360.416],[150.0642,-34.4582,430.2064],[150.0588,-34.4671,392.4421],[150.0583,-34.4719,394.2345],[150.0636,-34.4757,401.3516],[150.0654,-34.4753,410.0747],[150.0669,-34.4706,416.7988],[150.0712,-34.4708,418.8481],[150.0739,-34.4788,427.6865],[150.0673,-34.4853,442.1049],[150.0707,-34.4903,442.1164],[150.071,-34.4933,482.3779],[150.0771,-34.4957,461.4131],[150.0834,-34.4959,480.8021],[150.0888,-34.5028,545.2161],[150.0931,-34.512,486.2579],[150.0901,-34.5143,481.929],[150.0815,-34.5154,502.9904],[150.0773,-34.5175,506.9682],[150.0678,-34.5115,502.0232],[150.0648,-34.5134,508.1494],[150.0635,-34.518,512.971],[150.0592,-34.5186,509.456],[150.0452,-34.5257,583.8121],[150.0496,-34.5363,549.8214],[150.0584,-34.54,544.4027],[150.0623,-34.5457,555.5069],[150.0699,-34.5435,564.6048],[150.0743,-34.5439,576.6304],[150.0804,-34.5473,575.3442],[150.0825,-34.5546,581.2704],[150.0887,-34.5532,564.0656],[150.0943,-34.5558,565.3456],[150.0918,-34.5632,570.5002],[150.0937,-34.5733,577.9687],[150.0912,-34.5751,591.8412],[150.0829,-34.5761,575.5072],[150.0822,-34.5783,572.0723],[150.0829,-34.5823,582.2992],[150.0879,-34.5867,580.6933],[150.0921,-34.5829,579.1495],[150.0919,-34.5801,578.1735],[150.0983,-34.5807,588.3806],[150.099,-34.585,588.9639],[150.0933,-34.5877,581.2212],[150.0974,-34.5986,592.4557],[150.0953,-34.5999,580.3688],[150.0953,-34.603,583.4368],[150.0927,-34.6058,582.8234],[150.0901,-34.6143,578.2495],[150.1008,-34.6165,580.7546],[150.097,-34.6214,580.6681],[150.0996,-34.6273,582.2228],[150.094,-34.6297,583.8173],[150.0881,-34.6362,594.0145],[150.0805,-34.6377,586.7],[150.0778,-34.6411,594.1249],[150.0815,-34.6493,590.4988],[150.0883,-34.6536,592.8456],[150.0985,-34.6551,622.4576],[150.0927,-34.6805,618.5034],[150.1126,-34.6836,632.1094],[150.1117,-34.6874,630.9047],[150.1152,-34.6879,625.4504],[150.1143,-34.6927,657.1739],[150.118,-34.6932,672.2432],[150.1167,-34.6996,636.8237],[150.1204,-34.6981,637.7114],[150.1249,-34.7004,636.7827],[150.1434,-34.7027,667.4105],[150.1411,-34.7153,665.3702],[150.1707,-34.7196,669.7911],[150.1702,-34.7268,626.311],[150.1785,-34.7281,608.7193],[150.1772,-34.7352,603.7788],[150.1785,-34.7354,603.7788],[150.1779,-34.7391,630.9204],[150.1795,-34.7402,619.1886],[150.1781,-34.74,631.2902],[150.1764,-34.7492,542.5184],[150.1729,-34.7487,554.8679],[150.1692,-34.7692,510.2354],[150.1738,-34.7677,502.1482],[150.1768,-34.763,491.053],[150.1806,-34.7647,494.4415],[150.1835,-34.7616,481.721],[150.186,-34.7613,501.9866],[150.187,-34.7586,466.6268],[150.1859,-34.7575,472.1947],[150.191,-34.7572,456.3889],[150.1893,-34.7546,472.7691],[150.1926,-34.7547,464.407],[150.1917,-34.7528,455.1615],[150.194,-34.7513,449.8241],[150.1978,-34.7557,439.5642],[150.2033,-34.7572,430.8439],[150.2038,-34.7558,452.4423],[150.2148,-34.7515,411.2897],[150.2145,-34.7502,388.9495],[150.2172,-34.7487,382.3437],[150.2159,-34.7454,483.8458],[150.2193,-34.7475,470.1437],[150.2268,-34.7467,431.3527],[150.2288,-34.7421,500.5548],[150.2343,-34.7457,467.8434],[150.2415,-34.7449,409.0054],[150.2433,-34.7405,437.0279],[150.2504,-34.7391,439.5482],[150.2567,-34.7414,377.4254],[150.258,-34.739,424.2076],[150.2628,-34.7389,410.3015],[150.2642,-34.7364,386.9499],[150.2675,-34.7365,380.706],[150.2688,-34.7347,378.5525],[150.2673,-34.7336,423.7364],[150.2704,-34.7329,335.6219],[150.2685,-34.7317,401.4479],[150.2945,-34.7366,85.1303],[150.3035,-34.7339,66.5559],[150.3143,-34.7408,58.9303],[150.3256,-34.7442,108.109],[150.3335,-34.7523,56.0]]]]}
,"properties": {"GID_2": "AUS.5.147_1","GID_0": "AUS","country": "Australia","GID_1": "AUS.5_1","state": "NewSouthWales","NL_NAME_1": "NA","county": "Wingecarribee","VARNAME_2": "NA","NL_NAME_2": "NA","TYPE_2": "Area","ENGTYPE_2": "Area","CC_2": "18350","HASC_2": "AU.NS.WC","name": "Wingecarribee.county","area_km2": 2688.251,"hist_schema_id": "Elevation0-9000","hist_area_km2": {"50": 0.767,"75": 0.871,"100": 1.673,"125": 3.486,"150": 5.097,"175": 7.53,"200": 9.916,"225": 13.683,"250": 16.501,"275": 19.001,"300": 22.254,"325": 37.77,"350": 38.331,"375": 52.772,"400": 66.979,"425": 67.413,"450": 70.536,"475": 73.63,"500": 69.223,"525": 86.567,"550": 112.21,"575": 154.342,"600": 193.503,"625": 226.56,"650": 299.212,"675": 390.921,"700": 287.046,"725": 203.439,"750": 83.861,"775": 38.011,"800": 18.641,"825": 8.416,"850": 4.762,"875": 2.346,"900": 0.981}}}