{"type":"Feature","properties":{"GID_2":"AUS.7.7_1","GID_0":"AUS","country":"Australia","GID_1":"AUS.7_1","state":"Queensland","NL_NAME_1":"NA","county":"Boulia","VARNAME_2":"NA","NL_NAME_2":"NA","TYPE_2":"Shire","ENGTYPE_2":"Shire","CC_2":"30900","HASC_2":"AU.QL.BO","name":"Boulia.county"},
"geometry":{"type": "MultiPolygon","coordinates": [[[[137.9976,-21.9292,223.6679],[137.9982,-23.5209,151.3699],[138.4644,-23.5551,128.4551],[138.5921,-23.4625,126.9551],[138.6423,-23.5122,115.5501],[138.7365,-23.6113,98.455],[138.9211,-23.4765,138.0926],[138.8995,-23.4483,140.345],[139.0764,-23.3068,139.8555],[139.1227,-23.3521,138.7415],[139.1749,-23.31,141.3057],[139.339,-23.4739,156.8881],[139.2954,-23.51,167.4674],[139.4758,-23.5208,166.6464],[139.4637,-23.6713,166.1242],[139.6359,-23.6792,114.1267],[139.8926,-23.6936,106.5282],[139.8887,-23.6767,107.067],[139.8775,-23.6718,107.6527],[139.8749,-23.655,107.7892],[139.8721,-23.6498,108.0573],[139.8654,-23.6442,108.4729],[139.866,-23.6426,108.5563],[139.8638,-23.6375,108.8637],[139.8651,-23.6341,109.1501],[139.8625,-23.6297,108.8968],[139.8894,-23.614,112.0721],[139.9362,-23.5771,111.9372],[139.9392,-23.55,112.4955],[139.9294,-23.5491,112.2576],[139.9362,-23.4859,115.415],[140.1494,-23.5048,130.6312],[140.3556,-23.5258,165.1641],[140.3419,-23.4183,155.6106],[140.4132,-23.3462,157.9913],[140.5726,-23.2314,154.0438],[140.6432,-23.1746,170.4424],[140.6626,-23.1567,184.0377],[140.7194,-23.1886,199.3319],[140.7596,-23.2232,187.1533],[140.8294,-23.1702,184.7057],[140.8222,-23.1615,188.0922],[140.947,-23.0678,159.6866],[140.9246,-23.0444,172.4955],[141.0464,-22.9477,166.8744],[141.0214,-22.9219,178.764],[140.9857,-22.9116,175.0593],[140.9867,-22.899,177.0666],[141.0005,-22.9003,179.9039],[141.1223,-22.8045,211.1137],[141.1145,-22.7745,198.5093],[141.1204,-22.7522,208.4391],[141.1229,-22.7492,221.39],[141.1172,-22.7027,212.959],[141.1028,-22.6901,210.3725],[141.0949,-22.6419,233.5989],[141.0919,-22.6372,222.6203],[141.0896,-22.6282,224.806],[141.0909,-22.6182,230.8708],[141.1339,-22.6213,218.7555],[141.1456,-22.6334,210.7555],[141.1989,-22.5976,189.0298],[141.0797,-22.4656,242.095],[141.2458,-22.3354,206.9369],[141.2535,-22.3214,213.1827],[141.2285,-22.298,231.3836],[141.1828,-22.2496,263.1503],[141.1823,-22.2567,262.546],[141.1391,-22.2522,256.8275],[141.1008,-22.2512,250.0313],[140.9252,-22.2349,227.3177],[140.9288,-22.1817,219.9499],[140.9177,-22.1812,219.6482],[140.9116,-22.1762,219.2211],[140.9077,-22.1761,218.9093],[140.904,-22.1737,218.9102],[140.9004,-22.1693,218.9655],[140.8872,-22.1644,218.3816],[140.8727,-22.1656,217.8888],[140.8476,-22.1611,217.5358],[140.8408,-22.1633,217.3902],[140.8396,-22.1683,216.5401],[140.8328,-22.174,216.0558],[140.8295,-22.1802,215.8411],[140.8292,-22.1847,215.001],[140.8229,-22.1943,213.9169],[140.8232,-22.1987,214.2573],[140.8155,-22.2046,213.0146],[140.8113,-22.2115,212.2278],[140.8081,-22.213,212.2551],[140.8047,-22.2262,211.5647],[140.7874,-22.2479,208.9149],[140.7802,-22.25,208.3369],[140.7756,-22.2542,207.6115],[140.774,-22.257,207.5452],[140.776,-22.262,207.2684],[140.7746,-22.2648,207.5601],[140.7684,-22.2673,206.2964],[140.7668,-22.2738,205.5173],[140.764,-22.2769,205.9229],[140.7623,-22.286,205.1017],[140.7603,-22.289,205.1722],[140.7562,-22.2894,203.928],[140.7562,-22.2933,204.7704],[140.7495,-22.2982,203.6543],[140.7434,-22.3139,202.4671],[140.7345,-22.3212,202.0132],[140.7171,-22.3281,200.3741],[140.7072,-22.335,199.4177],[140.6383,-22.2551,217.9017],[140.6523,-22.244,209.0199],[140.6194,-22.2094,231.3765],[140.5643,-22.1695,236.6196],[140.5315,-22.1355,262.3573],[140.4142,-22.2338,287.8081],[140.3702,-22.2903,276.7725],[140.367,-22.3741,243.4254],[140.2585,-22.3669,226.9955],[140.2596,-22.353,235.2325],[140.2575,-22.3455,240.2687],[140.2579,-22.3391,245.2427],[140.0412,-22.3269,207.9776],[140.0603,-22.2861,216.6219],[140.0624,-22.2546,221.4357],[139.8851,-22.2429,219.8331],[139.8416,-22.1712,229.3121],[139.7579,-22.1628,233.299],[139.7503,-22.2287,260.0412],[139.6279,-22.2206,264.6368],[139.623,-22.2907,279.3272],[139.4903,-22.2817,237.0806],[139.4927,-22.2421,254.8391],[139.3893,-22.2339,232.6301],[139.4945,-22.1447,285.2525],[139.3176,-21.9864,325.6139],[139.3526,-21.9583,305.1634],[139.2679,-21.8721,312.6233],[139.323,-21.7261,333.1796],[139.2326,-21.6327,290.5068],[139.2422,-21.5406,293.6386],[139.2369,-21.5228,288.8396],[139.248,-21.5093,304.1797],[139.2367,-21.5024,303.2336],[139.3741,-21.3943,353.1456],[139.3772,-21.2724,352.6874],[139.5356,-21.2759,461.7111],[139.5414,-21.1625,433.2672],[139.553,-21.0304,465.634],[139.5533,-20.901,398.2068],[139.4749,-20.8992,413.7112],[139.3955,-20.8929,477.7087],[139.4005,-20.9373,411.6187],[139.3967,-20.9677,386.8247],[139.1289,-20.9602,350.3768],[139.041,-20.8645,309.2639],[138.9866,-20.9087,295.6706],[138.9903,-20.9128,296.9074],[138.8884,-20.9984,263.9369],[138.7438,-21.1235,229.7016],[138.6849,-21.147,221.7772],[138.53,-21.315,200.586],[138.4901,-21.3131,203.8863],[138.3642,-21.1767,203.0851],[138.4196,-21.1293,206.1724],[138.3156,-21.0211,205.7798],[138.3424,-20.9984,201.8641],[138.1781,-20.9983,226.6972],[138.1598,-21.2036,185.045],[137.9972,-21.1943,191.4671],[137.9976,-21.9292,223.6679]]]]}}