{"type":"Feature","properties":{"GID_2":"AUS.5.42_1","GID_0":"AUS","country":"Australia","GID_1":"AUS.5_1","state":"NewSouthWales","NL_NAME_1":"NA","county":"Cowra","VARNAME_2":"NA","NL_NAME_2":"NA","TYPE_2":"Area","ENGTYPE_2":"Area","CC_2":"12350","HASC_2":"AU.NS.CW","name":"Cowra.county"},
"geometry":{"type": "MultiPolygon","coordinates": [[[[149.2578,-33.7407,929.2341],[149.2413,-33.7385,967.9407],[149.2376,-33.7398,972.1675],[149.2347,-33.7322,966.6466],[149.2251,-33.7263,937.8732],[149.2222,-33.7303,930.6188],[149.2173,-33.7287,943.8926],[149.2148,-33.7326,949.9381],[149.2064,-33.7291,972.3676],[149.2056,-33.7306,964.2401],[149.1721,-33.7263,909.7443],[149.173,-33.7218,952.8796],[149.1691,-33.7212,966.4623],[149.1578,-33.73,939.3239],[149.1495,-33.7303,881.7587],[149.146,-33.732,905.2612],[149.1411,-33.7385,893.7529],[149.141,-33.7407,905.6622],[149.1334,-33.7482,886.9156],[149.135,-33.7514,884.4905],[149.1341,-33.7565,868.1822],[149.1371,-33.7569,871.3041],[149.1387,-33.7599,882.1295],[149.1312,-33.7589,853.9548],[149.1302,-33.7643,887.2849],[149.1082,-33.7611,868.5713],[149.1069,-33.7684,894.3062],[149.1056,-33.7686,894.3062],[149.0988,-33.7655,882.6818],[149.0914,-33.7654,857.0172],[149.0883,-33.7812,822.9424],[149.094,-33.782,783.1332],[149.0916,-33.7937,815.5558],[149.0672,-33.7901,793.6406],[149.0663,-33.7942,807.7665],[149.0681,-33.7944,808.8526],[149.0646,-33.8124,839.9048],[149.0413,-33.8093,823.0552],[149.042,-33.8056,816.2048],[149.026,-33.8033,779.8749],[149.0311,-33.798,843.2357],[149.0289,-33.7931,822.364],[149.0196,-33.7918,798.7045],[149.0186,-33.7964,776.74],[149.0077,-33.7949,784.2866],[149.0099,-33.784,769.5907],[148.9889,-33.7811,667.3483],[148.9905,-33.7736,696.6378],[148.9819,-33.7723,734.4713],[148.9848,-33.758,702.1042],[148.9746,-33.7565,701.2737],[148.9756,-33.7517,732.1877],[148.9929,-33.754,729.2296],[148.9875,-33.7488,744.3977],[148.976,-33.7499,738.6347],[148.9784,-33.7376,699.9572],[148.9871,-33.7292,685.8779],[148.993,-33.7268,679.2599],[148.9944,-33.724,679.1591],[148.9937,-33.7206,668.3212],[148.9853,-33.716,650.9485],[148.9853,-33.7139,649.636],[148.9685,-33.7111,632.5591],[148.9691,-33.7084,623.0709],[148.9656,-33.7094,618.559],[148.9624,-33.7076,613.123],[148.9585,-33.703,604.9433],[148.9588,-33.6993,604.6984],[148.9613,-33.6958,599.4225],[148.9576,-33.6881,591.6189],[148.952,-33.6894,583.8511],[148.947,-33.6871,572.2456],[148.9451,-33.688,581.8771],[148.9371,-33.6827,576.0129],[148.9304,-33.688,559.4045],[148.9244,-33.6856,544.403],[148.917,-33.6841,539.0364],[148.9141,-33.6853,533.063],[148.911,-33.6839,530.4451],[148.9107,-33.6793,524.8737],[148.9087,-33.677,520.9308],[148.9094,-33.6752,522.5869],[148.9072,-33.6738,516.3754],[148.9091,-33.6687,511.4561],[148.9089,-33.6619,507.0968],[148.9075,-33.6604,511.9261],[148.9111,-33.652,501.921],[148.9098,-33.6489,493.0745],[148.9117,-33.6479,493.8084],[148.9112,-33.6332,472.6412],[148.9145,-33.6312,465.6946],[148.9123,-33.6253,455.5532],[148.9144,-33.6223,453.4162],[148.9136,-33.6194,462.0781],[148.9148,-33.6164,452.3426],[148.9192,-33.6137,442.3743],[148.9193,-33.6043,434.6207],[148.9175,-33.6015,433.0816],[148.9203,-33.6016,432.3982],[148.9225,-33.5987,437.7893],[148.9178,-33.5933,424.1456],[148.9151,-33.5957,427.4023],[148.911,-33.5944,428.5774],[148.9115,-33.5883,412.8291],[148.91,-33.5878,411.266],[148.9108,-33.5853,409.7606],[148.9097,-33.5834,415.1673],[148.9082,-33.5825,408.8423],[148.9079,-33.584,415.9587],[148.9039,-33.5849,427.3125],[148.8984,-33.5791,406.70119999999997],[148.8888,-33.5828,402.3925],[148.8831,-33.5824,402.1538],[148.881,-33.5849,399.1852],[148.8812,-33.5883,402.2641],[148.8737,-33.5945,399.9249],[148.8719,-33.5907,393.5024],[148.8738,-33.5836,391.4944],[148.8723,-33.5815,391.1243],[148.8742,-33.5777,390.9448],[148.8722,-33.5736,389.6005],[148.8692,-33.5736,387.2145],[148.8649,-33.5797,402.3506],[148.8606,-33.5797,395.896],[148.8526,-33.5761,398.6795],[148.8508,-33.5767,388.7057],[148.8504,-33.5796,390.562],[148.8487,-33.5798,384.5579],[148.8457,-33.5774,373.2057],[148.8472,-33.5708,371.5809],[148.8457,-33.5693,373.1185],[148.8334,-33.568,367.1682],[148.8318,-33.5691,367.1682],[148.8319,-33.572,368.5762],[148.8275,-33.5744,363.5093],[148.8244,-33.5696,363.4579],[148.8268,-33.5666,360.0335],[148.8256,-33.5652,369.3718],[148.8231,-33.5655,403.2265],[148.8221,-33.5681,362.132],[148.8192,-33.5697,367.9954],[148.8146,-33.5676,359.1039],[148.8154,-33.563,353.6484],[148.8192,-33.5593,400.8352],[148.813,-33.5537,351.5218],[148.8103,-33.5467,345.5847],[148.8082,-33.5466,363.0786],[148.8059,-33.5508,347.8194],[148.8035,-33.5502,348.2548],[148.8019,-33.5453,346.83],[148.7983,-33.542,361.158],[148.7982,-33.539,341.483],[148.7934,-33.5384,340.319],[148.7944,-33.5348,373.21],[148.7901,-33.5308,336.956],[148.7825,-33.5278,344.4162],[148.7773,-33.5288,331.2963],[148.7759,-33.5255,332.8065],[148.7698,-33.526,331.3081],[148.7673,-33.5297,336.9865],[148.7623,-33.5275,341.8724],[148.7556,-33.5291,327.6243],[148.7443,-33.5374,322.4766],[148.7383,-33.5381,321.4628],[148.7358,-33.5406,319.9735],[148.7303,-33.5553,314.4748],[148.7238,-33.5589,315.1045],[148.7218,-33.5647,311.1332],[148.7165,-33.567,310.6698],[148.712,-33.5737,309.0514],[148.7067,-33.5745,308.2827],[148.7029,-33.579,306.2776],[148.6941,-33.5775,305.1834],[148.6933,-33.5818,305.7202],[148.6877,-33.5812,308.1346],[148.6828,-33.5864,303.8368],[148.6772,-33.5856,303.0788],[148.6761,-33.5805,301.6493],[148.6724,-33.5793,301.4702],[148.6631,-33.5781,321.8231],[148.6624,-33.5793,321.4763],[148.6526,-33.5771,307.564],[148.6583,-33.5664,296.7526],[148.657,-33.5644,295.7225],[148.6539,-33.564,295.6041],[148.6547,-33.5625,295.1708],[148.6518,-33.5601,296.3071],[148.6475,-33.5661,295.5242],[148.6359,-33.567,292.5892],[148.6319,-33.5707,291.0676],[148.6298,-33.5705,291.4476],[148.6295,-33.5749,290.2205],[148.6236,-33.5814,288.4061],[148.6254,-33.5849,287.9893],[148.6228,-33.5874,288.877],[148.6227,-33.5925,289.3034],[148.617,-33.5917,288.4116],[148.6168,-33.5931,287.3998],[148.6127,-33.5923,286.677],[148.602,-33.5944,285.7793],[148.5931,-33.5914,283.4666],[148.5849,-33.5962,284.0653],[148.5845,-33.5944,283.2086],[148.5824,-33.5936,282.5611],[148.5795,-33.5942,281.504],[148.58,-33.5959,282.4656],[148.5776,-33.5957,281.878],[148.575,-33.5928,281.3831],[148.5733,-33.5969,280.9345],[148.5696,-33.5982,280.03],[148.5672,-33.6012,282.154],[148.5648,-33.5998,279.3907],[148.564,-33.5968,280.9309],[148.5616,-33.5964,278.8862],[148.561,-33.5996,278.6381],[148.5569,-33.604,278.6262],[148.5561,-33.6025,277.4569],[148.5552,-33.6039,278.1164],[148.5518,-33.6035,277.4395],[148.5508,-33.6005,276.457],[148.5457,-33.6034,275.8219],[148.5432,-33.6001,274.0885],[148.5445,-33.5979,275.74],[148.5429,-33.597,274.2883],[148.5423,-33.5922,274.5679],[148.5357,-33.5898,272.8951],[148.5341,-33.5823,275.2253],[148.5275,-33.5796,274.026],[148.5201,-33.5724,270.9024],[148.5182,-33.5722,269.3746],[148.5177,-33.5736,269.8115],[148.5146,-33.573,269.2724],[148.5141,-33.5812,268.9213],[148.5103,-33.5805,267.4196],[148.5101,-33.5786,268.3309],[148.5083,-33.5803,268.4941],[148.4957,-33.5801,265.7911],[148.4953,-33.5815,267.2481],[148.4924,-33.5818,265.704],[148.492,-33.5841,268.1676],[148.4909,-33.5814,265.4943],[148.488,-33.5812,271.9828],[148.487,-33.5833,269.2312],[148.4861,-33.5809,274.5094],[148.4835,-33.5813,276.6554],[148.482,-33.5866,265.446],[148.4834,-33.5877,265.446],[148.4815,-33.5883,265.1088],[148.4799,-33.592,264.879],[148.4758,-33.5942,265.4566],[148.4789,-33.601,266.2234],[148.4767,-33.6014,265.4757],[148.4749,-33.598,264.9322],[148.4732,-33.6014,266.0476],[148.4512,-33.61,264.9609],[148.4464,-33.6142,263.8206],[148.4442,-33.6139,262.9916],[148.4431,-33.6084,265.5283],[148.4356,-33.607,264.566],[148.4372,-33.6049,262.9647],[148.4361,-33.6039,263.7571],[148.4333,-33.6038,263.7573],[148.4326,-33.6059,263.8716],[148.4289,-33.6075,261.6107],[148.4195,-33.6076,263.8204],[148.4138,-33.6043,263.1755],[148.3868,-33.6007,264.2359],[148.3896,-33.6063,265.5064],[148.3723,-33.604,270.475],[148.3711,-33.6071,267.4573],[148.3737,-33.6073,266.0195],[148.3734,-33.6091,266.5826],[148.369,-33.6077,267.5661],[148.3598,-33.6103,268.133],[148.3562,-33.6083,270.5995],[148.3535,-33.6095,272.5083],[148.3503,-33.6088,271.0945],[148.3482,-33.6125,271.202],[148.3437,-33.6158,270.664],[148.3449,-33.6175,271.7838],[148.3427,-33.6232,273.3365],[148.3436,-33.624,273.3365],[148.3417,-33.6247,273.7686],[148.3427,-33.6268,275.3599],[148.3402,-33.6287,274.2817],[148.3418,-33.6319,274.7025],[148.3389,-33.6349,274.7049],[148.3409,-33.6363,277.3364],[148.3411,-33.64,276.9571],[148.339,-33.6396,277.6388],[148.3367,-33.6443,280.8361],[148.3339,-33.6439,280.1489],[148.3342,-33.6458,280.8552],[148.3285,-33.6482,280.5359],[148.344,-33.6504,283.3824],[148.3448,-33.6463,282.6878],[148.356,-33.6461,290.9001],[148.3575,-33.6474,294.1411],[148.3531,-33.671,318.7905],[148.3701,-33.6731,514.9997],[148.3641,-33.6825,539.6743],[148.3616,-33.6896,500.2],[148.3636,-33.6905,525.6786],[148.3754,-33.6891,592.9861],[148.3665,-33.6997,531.278],[148.3601,-33.7038,558.8647],[148.351,-33.7161,547.3265],[148.3425,-33.7235,507.7879],[148.3485,-33.735,645.6102],[148.334,-33.7472,737.7591],[148.3365,-33.7516,576.1675],[148.3402,-33.7529,606.3174],[148.3562,-33.741,587.0206],[148.3629,-33.7381,547.9537],[148.3709,-33.7438,557.5446],[148.3621,-33.7534,574.1592],[148.3611,-33.7615,574.5232],[148.3587,-33.7628,569.5911],[148.3582,-33.7658,580.7158],[148.36,-33.7674,591.143],[148.3583,-33.7698,587.3673],[148.3591,-33.7712,587.3673],[148.3562,-33.7819,591.6377],[148.3548,-33.7831,603.5629],[148.3474,-33.7822,513.0803],[148.3461,-33.79,605.7517],[148.3369,-33.8013,615.1481],[148.3323,-33.8109,623.7537],[148.3282,-33.8149,655.4076],[148.325,-33.8212,657.7092],[148.3122,-33.8195,547.5624],[148.3091,-33.8363,646.9078],[148.3159,-33.8359,660.5172],[148.3233,-33.8258,662.9308],[148.3263,-33.826,647.6757],[148.3287,-33.8303,648.3203],[148.3467,-33.8353,643.0671],[148.3469,-33.8422,670.5138],[148.3482,-33.8431,651.7943],[148.3558,-33.843,641.9062],[148.3577,-33.8403,636.6116],[148.3689,-33.836,671.3487],[148.3731,-33.8315,679.3718],[148.3779,-33.8326,689.6138],[148.3795,-33.8343,692.707],[148.3806,-33.8439,658.169],[148.3863,-33.8481,639.2104],[148.3862,-33.8536,634.3561],[148.39,-33.8654,636.4657],[148.3939,-33.8682,642.4651],[148.3964,-33.8734,613.4352],[148.4017,-33.8748,705.3138],[148.4031,-33.8738,709.5757],[148.4049,-33.8836,730.0691],[148.4106,-33.8833,707.9631],[148.4135,-33.8787,700.9257],[148.4235,-33.8707,715.4537],[148.4461,-33.8401,656.0121],[148.453,-33.8367,552.7366],[148.4598,-33.8309,653.1254],[148.4721,-33.8269,637.5635],[148.4771,-33.8342,560.6066],[148.4781,-33.8366,584.1703],[148.4762,-33.8375,577.473],[148.4799,-33.8443,552.139],[148.4823,-33.845,559.6558],[148.4806,-33.8475,556.5704],[148.4945,-33.868,577.3985],[148.4951,-33.8721,580.7233],[148.4919,-33.8735,525.0341],[148.4916,-33.876,520.254],[148.495,-33.8799,507.7184],[148.4942,-33.8844,503.8466],[148.4979,-33.8864,501.8331],[148.4982,-33.8891,503.9744],[148.5022,-33.8918,475.6343],[148.5014,-33.8934,503.9678],[148.5088,-33.9003,547.8905],[148.5098,-33.9052,543.7867],[148.5059,-33.9115,539.4843],[148.5088,-33.911,544.5485],[148.513,-33.9162,554.5945],[148.5159,-33.9172,556.8399],[148.5135,-33.919,556.6816],[148.5136,-33.921,553.3091],[148.5093,-33.9228,547.1803],[148.5088,-33.9264,531.759],[148.5062,-33.9279,529.2103],[148.5031,-33.927,535.0483],[148.5004,-33.9326,544.6527],[148.4938,-33.9365,519.5596],[148.4916,-33.9454,490.0628],[148.4887,-33.945,497.8499],[148.4873,-33.9526,479.9716],[148.486,-33.9524,479.9716],[148.4854,-33.9553,476.0994],[148.4796,-33.9545,482.1812],[148.4781,-33.9621,457.812],[148.4688,-33.9607,493.7919],[148.4664,-33.9821,469.4866],[148.4614,-33.9814,495.092],[148.4597,-33.9861,504.3758],[148.4641,-33.9867,484.8693],[148.4621,-33.9977,485.4415],[148.4589,-33.9973,495.1775],[148.4579,-33.9992,488.3456],[148.445,-33.9973,432.6831],[148.4422,-34.0119,449.8594],[148.4942,-34.0186,421.5418],[148.493,-34.0256,378.6907],[148.5454,-34.0334,324.3079],[148.5452,-34.0307,325.3147],[148.5421,-34.0295,324.1316],[148.5473,-34.0265,325.9872],[148.5484,-34.0213,324.8],[148.5509,-34.0194,324.4106],[148.5544,-34.0223,326.5519],[148.5591,-34.021,323.9176],[148.5614,-34.0231,324.5321],[148.5629,-34.0327,332.8953],[148.5679,-34.0333,330.7478],[148.569,-34.0308,331.4869],[148.5752,-34.0362,335.3552],[148.5722,-34.0385,332.9081],[148.5772,-34.0432,349.6538],[148.5735,-34.0459,337.8488],[148.5765,-34.0516,346.3296],[148.5852,-34.0541,358.962],[148.5948,-34.0534,395.531],[148.5979,-34.0581,408.3339],[148.6035,-34.0569,455.8327],[148.6077,-34.058,468.3768],[148.6183,-34.0716,493.9407],[148.625,-34.0725,555.3003],[148.6312,-34.0705,585.1004],[148.6337,-34.0677,609.4266],[148.6358,-34.0676,602.1832],[148.6365,-34.0697,610.9834],[148.6405,-34.067,625.4317],[148.6418,-34.0694,618.3278],[148.6439,-34.0697,631.5396],[148.6476,-34.0663,605.1043],[148.6521,-34.0662,597.8916],[148.6524,-34.0708,597.4087],[148.6543,-34.0729,608.5037],[148.656,-34.0724,609.0151],[148.6604,-34.0751,605.5701],[148.6607,-34.0831,602.6716],[148.6675,-34.0892,598.752],[148.6676,-34.0937,597.9037],[148.6703,-34.0948,599.8255],[148.6705,-34.0972,604.74],[148.6771,-34.0942,553.8031],[148.6761,-34.0905,522.3638],[148.6869,-34.0821,500.3039],[148.6911,-34.0829,496.0342],[148.7023,-34.0803,490.1752],[148.7092,-34.082,492.0095],[148.7182,-34.074,482.0722],[148.7214,-34.0786,493.5304],[148.731,-34.0787,463.2906],[148.7322,-34.0701,469.5408],[148.7392,-34.0699,500.4384],[148.7378,-34.0672,483.6412],[148.7398,-34.0675,483.5434],[148.7418,-34.0581,479.0005],[148.7477,-34.0589,514.2789],[148.7468,-34.0552,520.2049],[148.748,-34.0518,526.2219],[148.7589,-34.0489,543.3743],[148.7591,-34.0437,546.312],[148.7631,-34.0382,535.8936],[148.7574,-34.0343,517.8226],[148.7518,-34.0244,478.0958],[148.7437,-34.0207,481.4839],[148.7462,-34.008,475.176],[148.7537,-34.009,499.8267],[148.7552,-34.001,475.6163],[148.7525,-34.0007,483.3987],[148.7527,-33.9992,475.888],[148.7653,-34.0005,433.3669],[148.7615,-33.9946,471.7182],[148.7658,-33.9924,521.4861],[148.766,-33.9887,537.5403],[148.7677,-33.9873,501.2784],[148.7674,-33.982,551.4772],[148.7711,-33.9809,483.6537],[148.778,-33.9855,449.225],[148.7853,-33.9825,419.1989],[148.7904,-33.9847,422.1646],[148.804,-33.9839,420.194],[148.8079,-33.9639,422.0863],[148.8215,-33.9658,389.7266],[148.8247,-33.959,398.1743],[148.8289,-33.9596,363.6627],[148.8317,-33.9453,296.5687],[148.8453,-33.951,303.1051],[148.8514,-33.9519,301.5865],[148.8705,-33.9465,299.9127],[148.8818,-33.9478,301.4283],[148.8853,-33.9453,304.1553],[148.8862,-33.9398,306.7881],[148.8902,-33.9393,302.6937],[148.8921,-33.9454,302.847],[148.8878,-33.9553,300.7554],[148.8882,-33.9605,303.3799],[148.891,-33.9647,309.8944],[148.8988,-33.9684,311.3964],[148.9052,-33.9751,308.7713],[148.9097,-33.9746,315.6795],[148.9136,-33.9705,319.2005],[148.916,-33.9705,310.5811],[148.9234,-33.9756,308.1818],[148.9269,-33.9808,308.8765],[148.9345,-33.982,314.5966],[148.9404,-33.9783,317.6123],[148.9411,-33.9758,320.4849],[148.9395,-33.9726,322.8446],[148.9424,-33.9694,314.1665],[148.9567,-33.9712,373.0],[148.9675,-33.9691,373.0],[148.9702,-33.9561,373.0],[148.9735,-33.9528,373.0],[148.9798,-33.9515,373.0],[148.981,-33.95,373.0],[148.9778,-33.9419,373.0],[148.979,-33.9273,373.0],[148.9811,-33.9244,373.0],[148.9961,-33.9266,373.0],[149.0138,-33.9337,373.0],[149.023,-33.9334,373.0],[149.0258,-33.9304,373.0],[149.0251,-33.9178,373.0],[149.0361,-33.9101,373.0],[149.049,-33.9133,373.0],[149.0519,-33.9126,373.0],[149.0547,-33.9099,376.9817],[149.0547,-33.9027,373.0],[149.0632,-33.8941,374.9351],[149.0692,-33.8918,373.0],[149.0728,-33.8926,377.5302],[149.0743,-33.8952,373.0],[149.0697,-33.8997,373.0],[149.0787,-33.9062,373.0],[149.0799,-33.9124,375.7284],[149.0943,-33.9103,373.0],[149.0967,-33.9077,378.5032],[149.0977,-33.9004,373.0],[149.1057,-33.8992,374.418],[149.1042,-33.8946,373.375],[149.1181,-33.8936,383.2523],[149.118,-33.889,374.0],[149.1198,-33.8878,380.0782],[149.1171,-33.8834,374.0],[149.1244,-33.8823,383.7282],[149.1184,-33.8798,385.9138],[149.1221,-33.8758,389.3568],[149.1203,-33.8751,378.5328],[149.1182,-33.8706,384.4584],[149.1206,-33.8707,389.4134],[149.1206,-33.8684,386.3823],[149.1261,-33.8664,391.1703],[149.1348,-33.8686,422.1254],[149.1375,-33.8648,410.3361],[149.1358,-33.863,409.0599],[149.1398,-33.8608,395.3419],[149.1349,-33.8599,413.5616],[149.1404,-33.8578,408.957],[149.14,-33.8554,429.0253],[149.1426,-33.8566,453.6445],[149.1428,-33.8541,416.2405],[149.146,-33.8551,430.8057],[149.144,-33.8511,430.3475],[149.1508,-33.8497,464.8447],[149.1508,-33.8515,431.9448],[149.1559,-33.852,434.7279],[149.1582,-33.8546,467.9855],[149.1605,-33.854,443.5942],[149.1662,-33.8589,442.8797],[149.1652,-33.8561,453.8925],[149.1672,-33.8552,443.8013],[149.1667,-33.8523,475.0919],[149.1702,-33.8547,449.7697],[149.1701,-33.8575,443.5315],[149.1729,-33.8562,460.524],[149.1718,-33.8594,458.3322],[149.1771,-33.86,463.2651],[149.1752,-33.8562,514.2569],[149.1772,-33.8581,510.1446],[149.1802,-33.8571,489.0237],[149.1817,-33.8581,498.0098],[149.184,-33.852,475.7425],[149.182,-33.8495,512.4214],[149.1795,-33.8511,488.568],[149.1747,-33.8494,497.1295],[149.1729,-33.8477,546.8745],[149.1752,-33.8474,500.7005],[149.1745,-33.8445,515.6625],[149.1703,-33.8409,514.0224],[149.1766,-33.8417,542.2921],[149.1775,-33.8405,558.291],[149.1762,-33.8388,535.056],[149.1799,-33.84,547.3636],[149.183,-33.8391,533.9075],[149.1831,-33.8372,542.3605],[149.1788,-33.8363,542.2297],[149.1811,-33.8351,542.8075],[149.1817,-33.8311,553.3821],[149.1796,-33.8285,581.329],[149.1805,-33.8257,565.9438],[149.1778,-33.8233,566.4288],[149.1798,-33.8218,591.5469],[149.1786,-33.8191,587.3269],[149.1817,-33.8187,597.4003],[149.1825,-33.8158,599.0609],[149.1791,-33.8137,612.9572],[149.1819,-33.8113,613.1915],[149.1804,-33.8064,610.6532],[149.1847,-33.8044,616.3564],[149.1824,-33.802,621.0529],[149.1852,-33.8003,632.8544],[149.1858,-33.7975,624.2037],[149.1906,-33.799,626.2418],[149.1967,-33.7979,688.2],[149.2028,-33.8018,646.2676],[149.2039,-33.7998,652.8153],[149.2086,-33.7996,660.8479],[149.2191,-33.792,720.0742],[149.22,-33.7868,774.3049],[149.224,-33.784,786.3679],[149.2284,-33.7704,809.4976],[149.231,-33.7682,824.6118],[149.234,-33.7608,832.7098],[149.235,-33.7596,841.3398],[149.2425,-33.7595,879.4554],[149.2533,-33.7481,922.8678],[149.2547,-33.7436,921.4956],[149.2578,-33.7407,929.2341]]]]}}