{"type": "Feature","bbox": [145.6377,-41.3562,145.9852,-41.0367],"geometry": {"type": "MultiPolygon","coordinates": [[[[145.9749,-41.0884,16.0033],[145.9725,-41.0829,46.806399999999996],[145.9764,-41.0788,2.2274],[145.9761,-41.0772,15.5421],[145.9786,-41.078,8.3689],[145.9852,-41.0763,5.176],[145.984,-41.0744,0.0],[145.9745,-41.0706,28.6764],[145.9716,-41.0679,0.7939],[145.9725,-41.0663,0.7939],[145.9667,-41.0677,4.6823],[145.9647,-41.0652,4.2841],[145.958,-41.063,13.315],[145.9549,-41.0632,5.4167],[145.9534,-41.0651,14.1054],[145.944,-41.0653,4.7247],[145.9392,-41.0673,3.2482],[145.9249,-41.0662,0.0],[145.9256,-41.0688,1.672],[145.9223,-41.0707,5.6952],[145.9233,-41.0759,11.5604],[145.925,-41.0765,24.1578],[145.9233,-41.078,44.3528],[145.9247,-41.0765,24.1578],[145.923,-41.0759,11.5604],[145.9215,-41.0712,29.5938],[145.925,-41.0678,2.659],[145.9169,-41.0631,5.2758],[145.9174,-41.0615,0.7951],[145.9158,-41.0627,0.7951],[145.9126,-41.0606,4.4488],[145.9142,-41.0594,0.9072],[145.9129,-41.057,3.1232],[145.9152,-41.0573,0.5938],[145.9128,-41.0539,1.8495],[145.9093,-41.0539,3.9602],[145.9129,-41.0531,1.8495],[145.9102,-41.0502,2.7924],[145.9128,-41.0511,2.0029],[145.9149,-41.0499,0.0],[145.9031,-41.0483,6.0564],[145.899,-41.0438,0.8666],[145.8943,-41.0461,1.8082],[145.8924,-41.0448,6.9145],[145.8847,-41.0447,23.2612],[145.8828,-41.0424,0.0],[145.8795,-41.0424,1.3924],[145.8763,-41.0367,2.2946],[145.8703,-41.0401,3.7804],[145.8527,-41.0406,2.3863],[145.8409,-41.0387,0.0],[145.8388,-41.0448,18.2367],[145.8355,-41.0456,7.7646],[145.8375,-41.048,54.287],[145.8336,-41.048,15.6438],[145.83,-41.0501,8.3743],[145.8338,-41.0529,8.8015],[145.8342,-41.051,24.4171],[145.8361,-41.0517,27.0248],[145.8366,-41.0565,17.6096],[145.8353,-41.0581,70.9316],[145.8389,-41.0587,35.9023],[145.8336,-41.0611,33.3581],[145.8301,-41.0609,55.8834],[145.8327,-41.0635,71.0356],[145.8341,-41.0627,43.3238],[145.8347,-41.065,45.258],[145.8299,-41.0652,33.6867],[145.828,-41.0698,45.6363],[145.8255,-41.0697,25.9381],[145.8248,-41.0725,31.9429],[145.8221,-41.0709,52.3096],[145.8184,-41.0783,42.3531],[145.8156,-41.0788,75.23],[145.8166,-41.0802,120.9732],[145.8198,-41.0793,69.9735],[145.8203,-41.0834,76.979],[145.8224,-41.0828,59.2322],[145.8247,-41.0858,44.9079],[145.8168,-41.0877,144.193],[145.8174,-41.0906,82.5663],[145.8201,-41.091,75.9564],[145.8182,-41.0946,52.5769],[145.8147,-41.0953,109.233],[145.8173,-41.0992,62.5202],[145.8148,-41.1003,58.6862],[145.8159,-41.1038,63.8872],[145.8136,-41.1043,84.9197],[145.8161,-41.1053,67.5703],[145.815,-41.1073,82.2702],[145.8117,-41.1099,110.8382],[145.8098,-41.1087,86.2164],[145.8074,-41.1114,129.6508],[145.8048,-41.1102,93.0739],[145.7994,-41.1125,90.6075],[145.7972,-41.1147,91.9523],[145.798,-41.1171,83.3824],[145.7946,-41.121,102.2701],[145.7878,-41.1218,102.8644],[145.7872,-41.1241,89.3244],[145.7857,-41.1233,86.6875],[145.7802,-41.127,105.4177],[145.7732,-41.1272,116.14],[145.7717,-41.1323,97.8051],[145.7749,-41.1346,101.6421],[145.768,-41.1355,97.4394],[145.7694,-41.1394,110.7561],[145.7673,-41.1406,113.2477],[145.768,-41.1423,112.3491],[145.7596,-41.1441,128.1936],[145.7548,-41.1479,127.4943],[145.7526,-41.1465,127.1631],[145.7465,-41.1487,149.1656],[145.7448,-41.151,198.9668],[145.7477,-41.1511,156.1774],[145.748,-41.1523,131.4925],[145.7437,-41.1537,143.4158],[145.7442,-41.1564,155.1582],[145.7406,-41.16,180.9507],[145.7385,-41.16,179.0157],[145.7387,-41.1621,247.121],[145.7362,-41.1625,203.9041],[145.7354,-41.1653,171.1242],[145.733,-41.1652,169.3241],[145.7301,-41.1693,172.0104],[145.7258,-41.1711,216.2978],[145.7287,-41.1725,176.8367],[145.7188,-41.1763,177.1748],[145.7151,-41.1815,206.7773],[145.713,-41.1807,219.1715],[145.7122,-41.1829,184.8699],[145.7094,-41.1829,223.7241],[145.7075,-41.1858,193.7485],[145.7043,-41.1861,211.5064],[145.7028,-41.188,236.8976],[145.6963,-41.1884,226.7062],[145.6942,-41.1923,248.7669],[145.6967,-41.1951,219.6604],[145.6935,-41.1956,225.4856],[145.6918,-41.1988,228.8336],[145.6892,-41.1993,270.3191],[145.6897,-41.2008,236.9431],[145.6852,-41.203,266.0587],[145.6816,-41.2028,270.3727],[145.6783,-41.2064,271.0427],[145.6757,-41.2056,264.6546],[145.6702,-41.2072,268.1346],[145.6695,-41.2096,303.8143],[145.6652,-41.2109,263.015],[145.6624,-41.2096,284.6774],[145.6555,-41.2137,292.7315],[145.6444,-41.2121,329.967],[145.6433,-41.2173,345.8773],[145.6461,-41.2177,311.3477],[145.6414,-41.235,482.3131],[145.6416,-41.2393,517.8287],[145.6476,-41.2398,500.9813],[145.6478,-41.2609,518.9518],[145.6477,-41.2626,522.739],[145.6377,-41.2626,548.5062],[145.6379,-41.3562,543.0143],[145.8455,-41.356,562.7073],[145.8461,-41.3496,558.5587],[145.8483,-41.346,554.5675],[145.8558,-41.3409,544.767],[145.8544,-41.3388,548.9147],[145.852,-41.3392,546.0194],[145.8487,-41.3369,536.6313],[145.8455,-41.3317,524.3004],[145.8453,-41.3299,523.5304],[145.8515,-41.323,509.1377],[145.8492,-41.3127,479.0639],[145.8524,-41.3127,458.2699],[145.8536,-41.3097,467.5231],[145.8599,-41.3087,447.6929],[145.8613,-41.3069,450.0395],[145.8681,-41.306399999999996,419.2347],[145.8679,-41.3033,415.8588],[145.8709,-41.3011,420.691],[145.8702,-41.3,412.6647],[145.8743,-41.2962,424.9229],[145.8753,-41.2928,404.4534],[145.8773,-41.2918,396.5938],[145.8765,-41.2847,402.729],[145.882,-41.2829,396.1979],[145.8838,-41.2788,394.7341],[145.8859,-41.2791,395.3572],[145.887,-41.2773,394.9414],[145.8925,-41.2794,384.42],[145.8924,-41.2757,392.1681],[145.8974,-41.2764,401.7433],[145.8965,-41.2709,393.0045],[145.9031,-41.2639,385.8163],[145.9049,-41.2647,398.1554],[145.9038,-41.2615,381.2439],[145.9064,-41.2617,389.8685],[145.9085,-41.2587,357.4113],[145.9068,-41.2568,352.0952],[145.9079,-41.2551,357.6209],[145.9163,-41.2557,333.6569],[145.9193,-41.2533,330.8539],[145.9195,-41.2509,344.9164],[145.9316,-41.2527,312.9749],[145.9324,-41.2495,297.8252],[145.9366,-41.2474,297.7896],[145.9333,-41.2452,302.5153],[145.9355,-41.243,295.1264],[145.9331,-41.2411,293.5941],[145.9296,-41.2326,278.7409],[145.9293,-41.2287,282.2041],[145.9328,-41.2245,312.9259],[145.9291,-41.2227,266.2747],[145.9301,-41.2208,275.2133],[145.9281,-41.2195,246.5229],[145.9285,-41.2147,248.0824],[145.9318,-41.2142,246.4036],[145.9312,-41.2094,199.7014],[145.9276,-41.2057,193.3166],[145.9302,-41.1976,186.9601],[145.9328,-41.1961,226.7984],[145.9306,-41.193,151.746],[145.9323,-41.1913,185.1477],[145.9386,-41.1902,141.5097],[145.9396,-41.1862,135.0787],[145.9516,-41.1769,76.8045],[145.9519,-41.1725,85.1516],[145.9566,-41.1718,77.8073],[145.9556,-41.1661,101.7572],[145.9627,-41.1641,81.7975],[145.9559,-41.1627,87.3501],[145.9584,-41.1596,87.3681],[145.9546,-41.158,83.2737],[145.9571,-41.1564,97.4082],[145.9589,-41.1499,97.7762],[145.9466,-41.1396,63.6857],[145.95,-41.138,61.5991],[145.9496,-41.1362,75.4935],[145.9461,-41.1368,73.9721],[145.9468,-41.1342,71.6425],[145.9437,-41.1336,50.0774],[145.9467,-41.1328,78.5102],[145.9451,-41.1311,51.1032],[145.9489,-41.1279,59.767],[145.9508,-41.1298,99.794],[145.9519,-41.1292,52.0094],[145.9515,-41.1268,66.2594],[145.9497,-41.1262,87.0992],[145.9539,-41.1231,51.7714],[145.9517,-41.1222,30.4899],[145.9531,-41.1207,45.5824],[145.9527,-41.118,49.2723],[145.9583,-41.1164,38.5323],[145.9572,-41.113,27.7882],[145.962,-41.1121,46.3741],[145.9628,-41.1094,33.8857],[145.9614,-41.1071,28.1564],[145.9642,-41.1076,23.183],[145.9639,-41.1051,32.1066],[145.967,-41.1044,24.3632],[145.9638,-41.1021,37.3792],[145.9694,-41.0982,89.3409],[145.9691,-41.096,29.5547],[145.9718,-41.0956,46.6509],[145.971,-41.0904,35.7145],[145.9749,-41.0884,16.0033]]],
[[[145.9214,-41.0514,0.0],[145.9169,-41.0485,0.0],[145.9168,-41.0486,0.0],[145.9201,-41.0511,0.0],[145.9214,-41.0514,0.0]]]]}
,"properties": {"GID_2": "AUS.9.3_1","GID_0": "AUS","country": "Australia","GID_1": "AUS.9_1","state": "Tasmania","NL_NAME_1": "NA","county": "Burnie","VARNAME_2": "NA","NL_NAME_2": "NA","TYPE_2": "City","ENGTYPE_2": "City","CC_2": "60610","HASC_2": "AU.TS.BU","name": "Burnie.county","area_km2": 609.9035,"hist_schema_id": "Elevation0-9000","hist_area_km2": {"0": 3.853,"25": 4.4917,"50": 4.9067,"75": 8.8856,"100": 12.1285,"125": 17.017,"150": 22.8312,"175": 22.2519,"200": 22.9663,"225": 24.3978,"250": 25.3029,"275": 28.4423,"300": 30.3834,"325": 26.7712,"350": 29.4147,"375": 29.1857,"400": 32.5259,"425": 29.2369,"450": 27.8635,"475": 30.7422,"500": 33.5727,"525": 35.4437,"550": 38.4151,"575": 28.216,"600": 19.4703,"625": 10.0287,"650": 4.2981,"675": 2.3082,"700": 1.2894,"725": 0.78,"750": 0.764,"775": 0.2865,"800": 0.3979,"825": 0.2547,"850": 0.2387,"875": 0.0955,"900": 0.0318,"925": 0.0318,"950": 0.1432,"975": 0.0637,"1000": 0.0477,"1025": 0.0477,"1050": 0.0477,"1075": 0.0159,"1100": 0.0159}}}