{"type": "Feature","id": "2656","bbox": [140.96709,-39.14495,149.97208,-33.98645],"geometry": {"type": "MultiPolygon","coordinates": [[[[146.48976,-38.7457,2.5051],[146.47136,-38.74725,5.0488],[146.47975,-38.76621,0.0],[146.49464,-38.77801,0.0],[146.51612,-38.78948,0.0],[146.53891,-38.79705,0.0],[146.55844,-38.79681,0.0],[146.56617,-38.79079,0.0],[146.57602,-38.77321,1.0953],[146.58277,-38.76946,0.0],[146.64405,-38.77028,0.0],[146.65203,-38.76881,0.0],[146.65756,-38.76442,0.0],[146.6609,-38.75595,0.0],[146.65138,-38.75351,0.0],[146.64259,-38.75254,0.0],[146.63453,-38.75319,0.0],[146.6268,-38.75595,0.0],[146.60231,-38.74684,0.0],[146.58058,-38.74782,5.1542],[146.53468,-38.75595,0.0],[146.48976,-38.7457,2.5051]]],
[[[145.34327,-38.51775,5.5783],[145.34441,-38.51336,8.0178],[145.34344,-38.51051,2.4667],[145.33522,-38.50945,6.8654],[145.32447,-38.50937,15.7969],[145.31739,-38.50791,0.0],[145.31495,-38.50368,0.0],[145.31837,-38.49521,0.0],[145.313,-38.49049,0.0],[145.30421,-38.47527,0.0],[145.30828,-38.47381,0.0],[145.31837,-38.46852,0.0],[145.31316,-38.46575,0.0],[145.3047,-38.45916,0.156],[145.29786000000001,-38.4555,0.5109],[145.28631,-38.45143,3.6746],[145.27931,-38.45159,4.8943],[145.2732,-38.45371,3.6172],[145.26441,-38.4555,4.3397],[145.2024,-38.46111,20.5755],[145.18767,-38.46697,36.0835],[145.17579,-38.47552,30.9506],[145.15455,-38.49521,19.1105],[145.12062,-38.51963,0.0],[145.11297,-38.53053,0.0],[145.12973,-38.53045,0.0],[145.15919,-38.52386,0.0],[145.17506,-38.52313,0.0],[145.18165,-38.52549,0.0],[145.19801,-38.53476,0.0],[145.20574,-38.5368,0.0],[145.21315,-38.5346,0.0],[145.22039,-38.53004,0.0],[145.22901,-38.52313,0.0],[145.26368,-38.51922,0.0],[145.29282,-38.52565,0.0],[145.31959,-38.53932,0.0],[145.34571,-38.55722,41.2316],[145.34832,-38.5608,57.4082],[145.3506,-38.56357,19.6601],[145.35231,-38.5665,6.8026],[145.35255,-38.57098,0.0],[145.36134,-38.56178,0.0],[145.36101,-38.54852,0.0],[145.3545,-38.53444,0.0],[145.34571,-38.52313,0.0],[145.34327,-38.51775,5.5783]]],
[[[145.36411,-38.32342,7.1502],[145.32455,-38.3108,8.4886],[145.31861,-38.30633,5.922],[145.31324,-38.2999,9.6167],[145.3069,-38.29534,3.2628],[145.29786000000001,-38.29656,6.5938],[145.29127,-38.30267,1.4379],[145.29021,-38.31015,1.5676],[145.29298,-38.3178,3.1812],[145.29786000000001,-38.32448,5.9625],[145.27003,-38.35866,0.0],[145.2798,-38.37933,5.6171],[145.28248,-38.39056,4.7474],[145.2837,-38.4026,0.0],[145.31577,-38.41432,0.0],[145.32455,-38.42067,0.0],[145.35328,-38.4284,0.0],[145.37664,-38.41546,0.0],[145.41407,-38.37908,0.0],[145.42701,-38.37493,0.0],[145.4686,-38.37282,0.0],[145.48878,-38.36907,0.0],[145.4944,-38.36517,0.0],[145.46315,-38.32855,12.2905],[145.45436,-38.32171,13.8008],[145.44191,-38.3165,11.6172],[145.42506,-38.31504,11.0582],[145.37989,-38.32448,25.3809],[145.36411,-38.32342,7.1502]]],
[[[141.19012,-34.08929,25.2153],[141.18118,-34.08438,23.3275],[141.17302,-34.07704,26.2458],[141.15886,-34.06903,23.2198],[141.1341,-34.06397,25.9603],[141.04558,-34.06221,21.6202],[141.02408,-34.05125,19.2018],[141.00011,-34.01854,23.4939],[140.98724,-34.00092,23.0093],[140.96709,-33.98645,22.8117],[140.96709,-34.0664,63.4923],[140.96724,-34.56611,50.9213],[140.9674,-35.06587,72.6724],[140.96755,-35.56553,124.0046],[140.9676,-36.06524,126.4949],[140.96771,-36.56495,108.8525],[140.96786,-37.06461,97.353],[140.96802,-37.56437,67.9361],[140.96817,-38.05943,0.0],[140.97055,-38.06015,0.0],[140.98756,-38.06992,0.0],[141.13429,-38.12762,0.0],[141.21388,-38.17303,0.0],[141.37477,-38.29119,5.232],[141.39112,-38.30608,11.2024],[141.39812,-38.32049,22.6272],[141.39991,-38.33636,42.2633],[141.39829,-38.34433,46.5585],[141.39137,-38.35866,69.5353],[141.37615,-38.37689,55.7107],[141.37086,-38.38649,0.0],[141.37965,-38.393,0.0],[141.39454,-38.40163,0.0],[141.41033,-38.40651,0.0],[141.42237,-38.40276,0.0],[141.42848,-38.39072,0.0],[141.42986,-38.38128,0.0],[141.43442,-38.3751,0.0],[141.44972,-38.37282,0.0],[141.4673,-38.37379,0.0],[141.48308,-38.37623,0.0],[141.49676,-38.38055,0.0],[141.50799,-38.38649,0.0],[141.51938,-38.39813,0.0],[141.53321,-38.42376,42.8316],[141.54282,-38.43434,0.0],[141.55787,-38.43971,0.0],[141.56463,-38.43141,0.0],[141.56804,-38.41953,0.0],[141.57325,-38.41326,0.0],[141.594,-38.39577,0.0],[141.60141,-38.39227,24.7332],[141.60808,-38.39373,5.1316],[141.61451,-38.39715,0.0],[141.62127,-38.39902,53.9517],[141.64796,-38.40276,0.0],[141.65398,-38.39983,0.0],[141.65211,-38.38649,0.0],[141.64405,-38.37298,0.0],[141.62379,-38.35361,0.0],[141.61785,-38.33815,0.0],[141.63209,-38.30877,0.0],[141.67254,-38.28427,0.0],[141.72145,-38.26751,0.0],[141.76197,-38.26181,0.0],[141.86451,-38.27109,0.0],[141.88754,-38.27996,0.0],[141.8991,-38.28289,0.0],[141.93531,-38.28143,0.0],[141.94679,-38.28289,9.0056],[141.9852,-38.299,10.1221],[142.09083,-38.36541,0.0],[142.17547,-38.3987,0.0],[142.22462,-38.40569,0.0],[142.26954,-38.39275,0.0],[142.28191,-38.37379,0.0],[142.31284,-38.36696,0.0],[142.39772,-38.36712,0.0],[142.41066,-38.37176,0.0],[142.43247,-38.39031,0.0],[142.44435,-38.39707,0.0],[142.46754,-38.40643,0.0],[142.46949,-38.39642,1.0674],[142.47291,-38.38535,4.2868],[142.47853,-38.37656,23.5645],[142.4878,-38.37282,7.933],[142.50245,-38.37444,12.9412],[142.50489,-38.37851,11.302],[142.50375,-38.38486,41.9376],[142.51539,-38.40643,0.0],[142.51873,-38.40748,0.0],[142.52833,-38.40789,0.0],[142.53248,-38.40984,0.0],[142.53907,-38.41465,0.0],[142.55307,-38.41953,0.0],[142.58985,-38.44313,0.0],[142.65382,-38.47275,22.1462],[142.73536,-38.52581,48.0924],[142.76197,-38.53704,51.1586],[142.81023,-38.57838,0.0],[142.84799,-38.58514,12.2147],[142.85401,-38.58733,9.5979],[142.87135,-38.59661,4.7369],[142.90024,-38.60117,7.9191],[142.94744,-38.61875,55.5065],[143.06007,-38.63592,49.7841],[143.0809,-38.64479,42.5325],[143.11866,-38.66644,32.8681],[143.17888,-38.71111,61.3305],[143.18588,-38.7265,111.4407],[143.20281,-38.74285,116.7377],[143.2234,-38.75628,131.805],[143.24155,-38.76279,159.7469],[143.33448,-38.75595,53.7883],[143.35743,-38.75823,0.0],[143.37615,-38.76434,0.0],[143.41342,-38.78379,0.0],[143.45118,-38.79681,87.1375],[143.45631,-38.80006,76.1105],[143.46697,-38.81463,0.0],[143.47193,-38.81797,3.1918],[143.48341,-38.82366,94.3789],[143.51734,-38.85019,100.2212],[143.53696,-38.85833,0.0],[143.55641,-38.85394,0.5489],[143.57325,-38.84295,0.0],[143.60133,-38.81422,0.0],[143.61085,-38.80657,0.0],[143.64625,-38.79013,30.0336],[143.65089,-38.78924,2.8227],[143.66228,-38.79095,0.0],[143.66676,-38.79013,0.0],[143.67058,-38.78631,0.0],[143.67091,-38.78338,0.0],[143.67107,-38.78037,0.0],[143.6836,-38.76116,0.0],[143.69239,-38.7431,0.0],[143.7046,-38.72812,2.1174],[143.72511,-38.72177,1.7461],[143.74545,-38.71933,0.0],[143.8449,-38.69118,0.0],[143.85515,-38.68353,0.0],[143.86988,-38.66619,0.0],[143.87989,-38.65691,0.0],[143.88966,-38.65293,0.0],[143.90553,-38.64381,0.0],[143.92848,-38.60052,0.0],[143.94117,-38.58514,0.0],[143.95387,-38.58034,0.0],[143.9795,-38.57562,0.0],[143.99236,-38.5678,0.0],[144.00017,-38.55641,0.0],[143.99928,-38.54746,0.0],[143.99684,-38.54013,0.0],[143.9992,-38.53362,0.0],[144.0525,-38.48577,0.0],[144.07146,-38.47527,0.0],[144.11622,-38.46852,0.0],[144.12127,-38.46526,0.0],[144.13136,-38.45062,0.0],[144.1364,-38.44736,0.0],[144.18751,-38.43434,0.0],[144.1941,-38.4284,0.0],[144.20753,-38.4118,0.0],[144.21485,-38.40643,0.0],[144.22788,-38.40342,0.0],[144.24903,-38.40163,0.0],[144.25953,-38.39577,0.0],[144.30974,-38.3567,0.0],[144.40187,-38.3012,0.0],[144.42237,-38.29339,0.0],[144.44483,-38.2903,0.0],[144.45607,-38.29225,0.0],[144.47901,-38.30104,0.0],[144.48927,-38.3034,0.0],[144.50213,-38.30267,0.0],[144.51075,-38.29941,0.0],[144.51881,-38.29502,0.0],[144.53012,-38.2903,0.0],[144.61158,-38.29258,1.3846],[144.65284,-38.28582,0.0],[144.65358,-38.26181,0.0],[144.66114,-38.24969,0.0],[144.67042,-38.23805,0.0],[144.68784,-38.22145,0.0],[144.69532,-38.21844,0.0],[144.70899,-38.21836,0.0],[144.7151,-38.21461,0.0],[144.71664,-38.20957,0.0],[144.71583,-38.19598,0.0],[144.71827,-38.19012,0.0],[144.72511,-38.16481,0.0],[144.70476,-38.14609,14.6338],[144.65358,-38.12469,27.7765],[144.58204,-38.16326,73.4337],[144.55812,-38.17303,47.2264],[144.52361,-38.17799,47.1681],[144.43385,-38.15936,5.7951],[144.38185,-38.15781,15.7477],[144.36256,-38.14658,17.5996],[144.37306,-38.11842,0.0],[144.39503,-38.10662,0.0],[144.45411,-38.10638,0.0],[144.48243,-38.09734,0.0],[144.48902,-38.1032,0.0],[144.49806,-38.10866,0.0],[144.50782,-38.11207,0.0],[144.5171,-38.11159,0.0],[144.52809,-38.10491,0.0],[144.52784,-38.09824,0.0],[144.52377,-38.09149,0.0],[144.52329,-38.08424,0.0],[144.53126,-38.07155,0.0],[144.5433,-38.05828,0.0],[144.55844,-38.04762,0.0],[144.67205,-38.01719,0.0],[144.68784,-38.00579,0.0],[144.69581,-37.99749,0.0],[144.73365,-37.96795,0.0],[144.7461,-37.96136,0.0],[144.76092,-37.95941,0.0],[144.77833,-37.95428,0.0],[144.79444,-37.94769,0.0],[144.80445,-37.94085,0.0],[144.81202,-37.92734,0.0],[144.81723,-37.91139,0.0],[144.82545,-37.89853,0.0],[144.84205,-37.89316,0.0],[144.90699,-37.89935,0.0],[144.91147,-37.86981,0.0],[144.93483,-37.86793,0.0],[144.96315,-37.88193,0.0],[144.98268,-37.89935,0.0],[144.99244,-37.9201,13.914],[145.00245,-37.96006,0.0],[145.02711,-37.99627,0.0],[145.03297,-38.00237,0.0],[145.04469,-38.00921,0.0],[145.07537,-38.01816,0.0],[145.08497,-38.02353,0.0],[145.1102,-38.05169,0.0],[145.1255,-38.08815,4.4602],[145.12916,-38.12615,3.6817],[145.11931,-38.15936,54.7295],[145.07244,-38.20623,69.6823],[145.06178,-38.22357,40.587],[145.04444,-38.23984,50.5558],[145.03728,-38.24879,42.1317],[145.03273,-38.2584,36.4867],[145.02719,-38.27581,57.2367],[145.02369,-38.28289,95.1195],[145.0018,-38.29608,143.1991],[144.99147,-38.30495,0.0],[144.99285,-38.31365,3.5115],[144.99806,-38.32391,12.1824],[144.99317,-38.33375,16.8407],[144.98292,-38.3414,37.9668],[144.95289,-38.34791,102.2048],[144.89324,-38.37282,13.8239],[144.84962,-38.37851,8.1021],[144.80397,-38.37908,14.3401],[144.78346,-38.37274,11.3927],[144.74806,-38.34222,7.9783],[144.72877,-38.33131,16.6454],[144.69337,-38.32635,46.199],[144.68474,-38.32049,26.2027],[144.67661,-38.31658,43.7446],[144.67302,-38.32334,0.0],[144.67677,-38.33318,0.0],[144.69125,-38.33815,0.0],[144.71119,-38.34205,0.0],[144.72901,-38.35133,0.0],[144.8864,-38.48211,19.85],[144.92107,-38.50302,0.0],[144.94459,-38.51035,0.0],[144.95533,-38.49879,0.0],[145.02467,-38.49391,0.0],[145.04469,-38.48895,0.0],[145.03728,-38.48211,0.0],[145.05047,-38.45599,0.0],[145.06072,-38.445,0.0],[145.0923,-38.43629,0.0],[145.10076,-38.42653,0.0],[145.10572,-38.41522,0.0],[145.11297,-38.40643,0.0],[145.13657,-38.40081,0.0],[145.22901,-38.41326,0.0],[145.22381,-38.386,0.0],[145.22283,-38.36199,0.0],[145.2186,-38.35036,0.0],[145.20281,-38.33571,0.2451],[145.2024,-38.32448,0.0],[145.21062,-38.31439,0.0],[145.22169,-38.3108,0.0],[145.2317,-38.30625,0.0],[145.23911,-38.28191,0.0],[145.24684,-38.27288,0.0],[145.25611,-38.26483,0.0],[145.26441,-38.25555,0.0],[145.25587,-38.24147,5.4093],[145.27174,-38.23317,0.0],[145.29656,-38.2317,5.4757999999999996],[145.31495,-38.23797,0.5385],[145.32765,-38.24725,0.0],[145.33399,-38.24538,0.0],[145.33855,-38.23886,0.0],[145.34571,-38.23455,0.0],[145.38331,-38.23455,0.0],[145.42986,-38.22682,0.0],[145.44809,-38.22829,0.0],[145.46437,-38.23455,0.0],[145.47657,-38.24489,0.0],[145.50294,-38.28525,0.0],[145.51857,-38.30185,0.0],[145.52394,-38.3108,5.1573],[145.51726,-38.32757,4.4528],[145.51547,-38.33904,0.0],[145.52052,-38.34441,0.0],[145.54005,-38.35198,0.0],[145.55437,-38.36858,3.4105],[145.5569,-38.38519,84.3833],[145.54086,-38.39275,27.0452],[145.53159,-38.39902,0.0],[145.52133,-38.41204,6.5582],[145.50611,-38.42409,3.9623],[145.48227,-38.42693,8.0875],[145.47771,-38.42449,4.9931],[145.47088,-38.41985,5.5798],[145.46217,-38.41522,8.5164],[145.45183,-38.41326,3.0478],[145.42075,-38.42693,0.0],[145.43116,-38.4428,7.2558],[145.43458,-38.45973,6.7394],[145.43116,-38.47576,1.8983],[145.42075,-38.48895,0.0],[145.43385,-38.50213,2.0133],[145.42026,-38.51531,14.0776],[145.39503,-38.52581,58.594],[145.37306,-38.53053,23.7574],[145.37306,-38.5368,8.096],[145.39161,-38.54274,0.0],[145.44809,-38.55047,0.0],[145.5018,-38.57464,0.0],[145.51368,-38.57838,8.2089],[145.52947,-38.59344,14.0638],[145.57081,-38.66172,0.0],[145.59962,-38.68011,0.0],[145.6395,-38.67742,0.0],[145.69923,-38.64625,2.545],[145.73308,-38.6386,0.0],[145.77735,-38.64088,0.0],[145.80934,-38.65016,0.0],[145.83302,-38.66912,0.5338],[145.85353,-38.70062,1.322],[145.82553,-38.69622,0.6562],[145.785,-38.66863,5.2692],[145.75717,-38.6596,14.0252],[145.76783,-38.67474,0.0],[145.82154,-38.71795,0.0],[145.85524,-38.75954,0.0],[145.89649,-38.8292,4.706],[145.91578,-38.89577,89.0966],[145.92115,-38.90667,15.0891],[145.93898,-38.90879,0.0],[145.99244,-38.90016,0.0],[146.00367,-38.89642,0.0],[146.00424,-38.86549,0.0],[146.00815,-38.84694,0.0],[146.01734,-38.83164,0.0],[146.09181,-38.81976,0.0],[146.18165,-38.86834,0.0],[146.25099,-38.93963,6.4251],[146.26385,-38.99603,41.0392],[146.28907,-39.02809,0.0],[146.29851,-39.03769,0.0],[146.34034,-39.05527,182.5159],[146.34693,-39.06439,15.2587],[146.34148,-39.07781,9.2212],[146.33058,-39.08278,153.0692],[146.3226,-39.08896,3.8585],[146.32586,-39.10589,0.0],[146.33579,-39.11858,0.0],[146.3506,-39.12802,0.0],[146.38038,-39.14007,0.0],[146.39422,-39.14495,0.0],[146.41066,-39.14316,0.0],[146.42555,-39.13641,0.0],[146.43507,-39.1264,0.0],[146.43898,-39.10809,0.0],[146.43491,-39.09743,65.2999],[146.43434,-39.08913,0.0],[146.44858,-39.07806,0.0],[146.46485,-39.07334,0.0],[146.47788,-39.07171,0.0],[146.48341,-39.06463,0.0],[146.47055,-39.02825,0.0],[146.46599,-39.02361,82.3646],[146.45265,-39.03037,311.5154],[146.44467,-39.03037,309.9041],[146.438,-39.02695,46.5289],[146.43507,-39.01995,11.0794],[146.43727,-39.00514,129.7401],[146.44654,-38.97576,0.0],[146.44858,-38.96502,0.0],[146.45411,-38.94931,0.0],[146.46583,-38.93768,0.0],[146.47755,-38.92946,0.0],[146.48292,-38.92409,0.0],[146.48325,-38.91513,0.0],[146.48406,-38.9109,34.7248],[146.48414,-38.9074,57.8433],[146.48292,-38.9,71.3837],[146.4795,-38.89186,10.55],[146.47486,-38.88592,105.1525],[146.47096,-38.87916,9.1288],[146.46925,-38.86924,0.0],[146.46852,-38.84026,59.9243],[146.47047,-38.82383,19.7428],[146.47674,-38.81048,2.1865],[146.46355,-38.79127,3.1662],[146.44776,-38.7903,23.4526],[146.43263,-38.80145,67.5072],[146.4214,-38.81797,0.0],[146.41896,-38.82757,0.0],[146.4183,-38.83733,0.0],[146.41676,-38.84686,0.0],[146.4109,-38.85516,1.1902],[146.40235,-38.85858,1.5096],[146.38299,-38.85719,0.0],[146.37371,-38.85833,0.0],[146.35499,-38.86858,3.3251],[146.33424,-38.89349,5.1433],[146.31902,-38.90667,35.433],[146.30291,-38.91188,46.2188],[146.28639,-38.90984,18.2496],[146.27768,-38.89935,18.1054],[146.28492,-38.87933,24.5912],[146.27027,-38.87322,27.3481],[146.26661000000001,-38.86338,16.43],[146.26677,-38.85125,1.3908],[146.26385,-38.83847,1.3554],[146.26319,-38.8331,1.3872],[146.26393,-38.82627,2.4945],[146.26393,-38.82041,22.5845],[146.26059,-38.81797,23.1297],[146.24122,-38.81902,17.0305],[146.23707,-38.81797,34.3164],[146.2295,-38.80885,11.0335],[146.22096,-38.79168,5.8314],[146.21599,-38.78379,16.1889],[146.18238,-38.75595,0.2445],[146.22413,-38.71445,0.0],[146.23829,-38.70582,0.0],[146.25571,-38.70176,0.0],[146.35043,-38.695,0.0],[146.36744,-38.70062,0.0],[146.37224,-38.70745,0.0],[146.39112,-38.72601,0.0],[146.41179,-38.73984,0.0],[146.4214,-38.73162,0.0],[146.43279,-38.71966,0.0],[146.45867,-38.71014,0.0],[146.50392,-38.70062,0.0],[146.53061,-38.70135,0.0],[146.55348,-38.70452,0.877],[146.57472,-38.70322,0.0],[146.61769,-38.67913,0.5712],[146.64145,-38.67685,0.0],[146.68881,-38.68011,0.4314],[146.83025,-38.65472,0.0],[146.84653,-38.6596,1.7563],[146.83204,-38.67278,0.0],[146.83644,-38.68239,0.0],[146.84767,-38.68499,0.0],[146.87859,-38.6443,0.0],[146.88445,-38.6386,0.0],[146.89487,-38.63421,0.0],[146.98365,-38.5722,0.0],[147.08277,-38.47283,0.0],[147.18067,-38.39788,0.0],[147.39552,-38.22015,0.0],[147.58937,-38.08066,0.0],[147.75758,-37.98512,0.0],[147.91651,-37.91855,0.0],[148.13063,-37.85711,0.0],[148.30641,-37.82342,0.0],[148.60401,-37.81113,0.0],[148.72413,-37.8235,0.0],[148.73601,-37.82049,0.0],[148.76515,-37.80381,0.0],[148.78631,-37.79811,0.0],[148.90219,-37.79632,0.0],[148.94386,-37.78948,0.0],[149.09278,-37.78965,0.0],[149.13559,-37.77581,19.1775],[149.15235,-37.78639,0.0],[149.17311,-37.79022,0.0],[149.25318,-37.78948,0.0],[149.25856,-37.7929,0.0],[149.25913,-37.8025,0.0],[149.26108,-37.81032,0.0],[149.26539,-37.81707,0.0],[149.27223,-37.8235,0.0],[149.299,-37.79852,0.0],[149.34108,-37.78672,0.0],[149.47901,-37.7859,0.0],[149.49122,-37.7833,0.0],[149.49781,-37.7776,0.0],[149.50733,-37.76141,0.0],[149.51246,-37.7553,0.0],[149.53207,-37.74627,0.0],[149.57504,-37.74098,0.0],[149.59498,-37.7348,0.0],[149.60483,-37.72633,0.0],[149.60987,-37.71746,0.0],[149.61524,-37.71038,0.0],[149.66668,-37.70013,0.0],[149.67848,-37.69101,0.0],[149.71168,-37.64853,0.0],[149.72543,-37.62029,0.0],[149.75758,-37.5971,0.0],[149.76629,-37.58408,0.0],[149.76149,-37.56634,4.8601],[149.71844,-37.5158,42.1481],[149.76002,-37.52402,0.0],[149.77247,-37.52939,0.0],[149.78273,-37.51279,0.0],[149.79396,-37.51084,19.825],[149.79786,-37.51971,33.2044],[149.78614,-37.53558,0.0],[149.79127,-37.54209,6.0171],[149.79135,-37.54795,2.1653],[149.78712,-37.55283,6.8484],[149.77866,-37.55608,5.6718],[149.89633,-37.5486,0.0],[149.95314,-37.53086,0.0],[149.97208,-37.51029,0.0],[149.76107,-37.42511,86.4369],[149.54419,-37.33757,255.7738],[149.3273,-37.24997,501.7893],[149.11041,-37.16238,920.5215],[148.89358,-37.07479,809.545],[148.67664,-36.9872,1132.4309],[148.45981,-36.89961,424.0656],[148.24297,-36.81202,1028.8278],[148.21682,-36.80168,1092.9692],[148.16039,-36.79837,1263.0134],[148.13466,-36.79279,1157.2959],[148.12329,-36.78825,1191.6847],[148.12298,-36.78421,1087.7156],[148.19512,-36.6912,967.3013],[148.20618,-36.67249,1049.4204],[148.21403,-36.6513,867.9731],[148.21703,-36.62815,685.3573],[148.21486,-36.61689,666.6678],[148.19796,-36.58547,621.7366],[148.1854,-36.58159,698.4664],[148.1714,-36.57958,600.7428],[148.16179,-36.57663,581.2676],[148.15481,-36.56986,606.5336],[148.15032,-36.56247,581.3681],[148.14784,-36.55451,619.7798],[148.14691,-36.54583,630.1637],[148.14877,-36.50428,725.2009],[148.1466,-36.49963,684.3068],[148.14189,-36.49467,623.6013],[148.13724,-36.4878,570.6783],[148.13404,-36.46651,593.132],[148.13099,-36.45886,688.6808],[148.12081,-36.44687,1138.1455],[148.0852,-36.42486,514.6137],[148.06758,-36.40972,725.4884],[148.05993,-36.38822,818.5381],[148.06304,-36.37762,893.5223],[148.07626,-36.36036,861.6288],[148.07926,-36.35442,851.0645],[148.07781,-36.34192,744.8081],[148.07435,-36.33236,639.9683],[148.06557,-36.31654,440.8841],[148.0434,-36.25851,306.2569],[148.04231,-36.24766,287.9745],[148.03193,-36.23712,325.2676],[148.0343,-36.21334,276.5372],[148.04547,-36.17257,289.5047],[148.03596,-36.15175,257.866],[147.99947,-36.13056,251.8793],[147.99141,-36.11418,247.9741],[147.99575,-36.08705,242.9892],[148.00133,-36.0703,239.1243],[147.99689,-36.05925,240.0398],[147.97095,-36.04901,234.2829],[147.94935,-36.04529,233.3714],[147.94067,-36.04261,232.1749],[147.9293,-36.03537,230.2927],[147.92129,-36.02535,233.2434],[147.91596,-36.01418,229.5085],[147.90971,-36.00504,229.9311],[147.8986,-36.00121,224.5188],[147.87178,-35.99837,223.8677],[147.7413,-35.94597,229.5916],[147.73163,-35.94458,237.1042],[147.71381,-35.93941,215.9395],[147.70342,-35.93977,430.744],[147.69474,-35.9439,362.2765],[147.67794,-35.95687,452.9993],[147.67236,-35.95967,507.8008],[147.55676,-35.99636,209.9596],[147.53893,-35.99067,231.289],[147.53366,-35.97243,243.2954],[147.52012,-35.95801,215.7658],[147.50229,-35.94881,196.6917],[147.48369,-35.94597,193.1955],[147.47563,-35.9484,192.1382],[147.45749,-35.95765,190.5],[147.44674,-35.95967,199.3349],[147.41956,-35.95734,219.2424],[147.4086,-35.95967,234.3391],[147.39662,-35.96669,202.4596],[147.3822,-35.97961,193.8451],[147.36918,-35.99465,482.6455],[147.3608,-36.00809,211.3275],[147.34825,-36.06245,239.29],[147.34029,-36.07635,315.6281],[147.32401,-36.06167,190.5],[147.30634,-36.05196,190.5],[147.28675,-36.04932,198.9696],[147.27202,-36.04901,236.0927],[147.2667,-36.05025,242.693],[147.21585,-36.06152,223.8898],[147.18433,-36.06426,212.8122],[147.16526,-36.05925,194.1539],[147.15405,-36.04762,190.5],[147.14418,-36.04049,190.5],[147.13472,-36.03935,190.5],[147.12459,-36.0456,225.8463],[147.09772,-36.07325,393.2269],[147.0939,-36.08007,445.7027],[147.09188,-36.08617,471.0865],[147.08258,-36.0979,380.0584],[147.07963,-36.10364,415.9924],[147.07932,-36.11211,312.9506],[147.08165,-36.11893,469.5833],[147.08459,-36.12513,306.357],[147.08645,-36.13159,239.7253],[147.09002,-36.15624,268.0476],[147.09379,-36.16802,219.8594],[147.1001,-36.17939,289.0598],[147.10893,-36.18947,207.207],[147.11984,-36.19743,275.4343],[147.13286,-36.20337,247.3494],[147.1479,-36.2073,191.7138],[147.17684,-36.20694,190.5],[147.18857,-36.20947,190.5],[147.19632,-36.22032,303.4979],[147.10692,-36.2412,282.1096],[147.0939,-36.23402,190.8729],[147.05152,-36.19536,190.5],[147.04098,-36.17371,190.5],[147.0386,-36.13841,190.5],[147.04491,-36.10761,190.5],[147.01617,-36.09304,159.2769],[147.00532,-36.09015,159.0504],[146.99023,-36.08999,159.4402],[146.9738,-36.09475,157.1437],[146.96636,-36.10302,156.2994],[146.96233,-36.1118,155.686],[146.95613,-36.1179,161.4988],[146.93111,-36.11573,173.8604],[146.90605,-36.0996,158.3278],[146.87877,-36.08756,150.3757],[146.84688,-36.09743,150.295],[146.82931,-36.08007,154.3637],[146.82073,-36.07361,148.1467],[146.81272,-36.06953,147.6797],[146.78539,-36.06891,147.7147],[146.77112,-36.06689,145.3421],[146.7564,-36.04633,145.8688],[146.73583,-36.04328,144.1741],[146.71092,-36.04405,149.5537],[146.68922,-36.04219,155.3832],[146.67077,-36.0315,144.4521],[146.63801,-36.00028,140.5906],[146.62405,-35.99377,141.5286],[146.54519,-35.99377,146.434],[146.53538,-35.99015,145.9751],[146.51455,-35.97687,136.7993],[146.50427,-35.97393,143.353],[146.49657,-35.97599,134.4456],[146.48463,-35.9854,139.7403],[146.47321,-35.98757,143.626],[146.46406,-35.98509,134.7013],[146.45331,-35.98059,139.6221],[146.44215,-35.97868,142.6902],[146.43192,-35.98385,142.8768],[146.38505,-36.04746,130.9739],[146.3695,-36.05273,139.9218],[146.30113,-36.04607,129.1229],[146.26661000000001,-36.03506,136.8179],[146.24356,-36.03537,126.449],[146.22925,-36.0377,130.8028],[146.22284,-36.03951,133.8359],[146.21622,-36.05584,126.8712],[146.19896,-36.05041,126.664],[146.18274,-36.04219,125.5737],[146.15912,-36.03764,131.5884],[146.09685,-36.03346,131.222],[146.07628,-36.02514,124.0],[146.06233,-36.01739,124.0],[146.03101,-36.01387,128.5993],[145.99226,-36.01604,126.0931],[145.98347,-36.01429,127.8144],[145.97355,-36.00612,121.4525],[145.96936,-35.9962,121.4017],[145.96632,-35.98597,121.5119],[145.9596,-35.97703,126.4553],[145.93975,-35.96685,114.9494],[145.91836,-35.96406,114.9582],[145.89614,-35.967,121.3311],[145.82989,-35.98349,120.8825],[145.78695,-35.97997,119.2163],[145.74462,-35.96494,123.3874],[145.57259,-35.8436,115.5841],[145.53657,-35.82913,110.753],[145.49379,-35.82898,108.805],[145.45079,-35.83957,107.1506],[145.37596,-35.8729,105.0246],[145.33411,-35.876,103.6405],[145.29142,-35.8698,113.1006],[145.25044,-35.85724,112.92529999999999],[145.21794,-35.8512,108.0089],[145.12079,-35.8512,100.3762],[145.00844,-35.86763,98.264],[144.99314,-35.87399,97.2097],[144.9764,-35.88732,106.232],[144.97123,-35.89481,100.9443],[144.96245,-35.95346,96.9587],[144.93919,-35.98767,96.9544],[144.93392,-36.00555,95.2983],[144.94509,-36.02514,97.6054],[144.96049,-36.03997,97.9809],[144.97744,-36.06018,96.7729],[144.98586,-36.081,96.4169],[144.97547,-36.09743,96.0365],[144.95625,-36.09924,95.9546],[144.91093,-36.08131,99.049],[144.89015,-36.07635,97.5547],[144.87212,-36.08364,94.0172],[144.83098,-36.11888,98.9077],[144.81093,-36.13159,95.0942],[144.76691,-36.1364,97.0385],[144.74071,-36.135,96.6425],[144.72908,-36.12787,97.8984],[144.72815,-36.11655,87.6419],[144.72448,-36.11154,86.0],[144.7173,-36.1103,92.7669],[144.70551,-36.11046,96.4239],[144.70582,-36.10658,95.7569],[144.69802,-36.09785,96.5956],[144.6819,-36.08379,92.6242],[144.66252,-36.07811,94.0425],[144.62004,-36.07516,91.4957],[144.60278,-36.06612,92.642],[144.49266,-35.95967,90.4456],[144.45256,-35.94716,92.4212],[144.43571,-35.93217,93.9202],[144.42259,-35.91393,94.2283],[144.37603,-35.81435,80.2996],[144.35329,-35.77756,86.9394],[144.32435,-35.7542,80.0169],[144.31267,-35.75131,76.64],[144.28828,-35.75048,79.8774],[144.2766,-35.748,79.3896],[144.26802,-35.7418,81.0613],[144.25329,-35.72433,79.4116],[144.23815,-35.7171,77.0151],[144.21893,-35.70092,75.0348],[144.21516,-35.69648,73.4872],[144.21107,-35.68981,78.9649],[144.20157,-35.68609,79.9791],[144.19009,-35.68314,78.1076],[144.18038,-35.67911,78.7218],[144.15097,-35.65007,75.7937],[144.10007,-35.58677,72.9492],[144.06493,-35.56925,77.0123],[144.02008,-35.56372,76.4341],[143.99843,-35.5554,75.6145],[143.9807,-35.52336,74.7998],[143.96075,-35.51313,72.2474],[143.89915,-35.49174,72.7365],[143.85843,-35.4706,73.8979],[143.83564,-35.45132,71.2632],[143.82634,-35.44559,77.6401],[143.81616,-35.44083,76.1486],[143.79477,-35.43685,70.7888],[143.78877,-35.43189,70.9155],[143.78464,-35.42523,71.7554],[143.77694,-35.41841,70.9735],[143.73379,-35.40182,72.0522],[143.65121,-35.38931,70.2029],[143.5955,-35.36053,67.7567],[143.586,-35.35293,67.4584],[143.57886,-35.3427,69.3464],[143.57644,-35.32901,67.3354],[143.58124,-35.32105,66.6847],[143.58796,-35.31454,66.171],[143.59137,-35.30544,66.7618],[143.59137,-35.28637,65.7949],[143.5892,-35.26736,66.2088],[143.5814,-35.24942,64.8584],[143.5646,-35.23346,65.1941],[143.54714,-35.22591,66.2207],[143.45991,-35.20938,64.6453],[143.43768,-35.19956,63.8406],[143.41836,-35.18803,64.9409],[143.40699,-35.17883,65.7592],[143.38384,-35.14571,68.5118],[143.36399,-35.10721,69.8417],[143.3502,-35.06602,73.6083],[143.34275,-35.00665,67.6374],[143.33345,-34.97921,63.7355],[143.33128,-34.96283,62.1675],[143.33319,-34.95508,70.7918],[143.34219,-34.93528,55.9452],[143.34493,-34.92495,69.7807],[143.34363,-34.91859,68.0588],[143.34027,-34.91105,68.9025],[143.33754,-34.902,65.0824],[143.33805,-34.89084,64.7138],[143.34188,-34.88697,61.6558],[143.34911,-34.88221,59.0476],[143.35609,-34.87575,59.8094],[143.35919,-34.86661,60.2888],[143.35821,-34.85911,59.6045],[143.3534,-34.84588,53.0508],[143.35175,-34.8356,53.8087],[143.35841,-34.81705,53.1519],[143.36048,-34.80625,59.1941],[143.35547,-34.80144,59.9021],[143.32813,-34.78439,60.1411],[143.31407,-34.78289,40.141],[143.29697,-34.79111,58.8926],[143.28271,-34.7925,55.9668],[143.27666,-34.77069,58.195],[143.26875,-34.75395,37.0],[143.25103,-34.74801,58.1597],[143.23222,-34.74393,58.1623],[143.22142,-34.73318,44.6973],[143.15672,-34.703,59.3995],[143.14261,-34.69902,55.8367],[143.05011,-34.6922,56.1277],[143.0127,-34.67287,49.2849],[142.99575,-34.66868,47.4663],[142.98862,-34.68228,55.2214],[142.98138,-34.6906,56.21],[142.96459,-34.68124,43.0543],[142.93405,-34.65804,45.8458],[142.92175,-34.65804,56.204],[142.91493,-34.66181,53.614],[142.90914,-34.66708,53.9521],[142.88035,-34.67933,54.8537],[142.87865,-34.67483,53.8363],[142.86919,-34.66181,50.9641],[142.86444,-34.65246,52.056],[142.86005,-34.62972,54.3088],[142.85519,-34.62083,47.0211],[142.84707,-34.61484,54.645],[142.81798,-34.60347,42.6424],[142.80723,-34.59189,56.0529],[142.79974,-34.58543,54.7995],[142.79002,-34.58233,38.1389],[142.77922,-34.58419,55.5212],[142.75716,-34.59375,56.012],[142.74532,-34.59598,53.7745],[142.7261,-34.60321,51.3355],[142.7168,-34.62088,52.4605],[142.70812,-34.66553,47.0113],[142.70502,-34.67054,52.0896],[142.70016,-34.67561,51.4673],[142.69577,-34.6814,50.1889],[142.69385,-34.6891,49.3164],[142.69664,-34.70522,48.0667],[142.69887,-34.71276,49.76],[142.70068,-34.71266,50.3186],[142.69468,-34.7309,50.7244],[142.68734,-34.73566,50.9752],[142.67644,-34.73395,50.8011],[142.65964,-34.73318,48.3598],[142.64006,-34.73442,48.9547],[142.63081,-34.73633,52.7976],[142.62921,-34.74362,49.5791],[142.63236,-34.76108,43.3787],[142.64373,-34.7785,52.277],[142.6428,-34.78764,56.9705],[142.62554,-34.79524,50.7731],[142.60879,-34.78144,49.3068],[142.59453,-34.77772,49.8214],[142.57851,-34.77741,48.1525],[142.5566,-34.77416,41.7882],[142.54797,-34.7709,49.8291],[142.53665,-34.76496,49.7888],[142.52673,-34.75767,48.9947],[142.52249,-34.75023,47.9697],[142.52363,-34.72744,48.7783],[142.52249,-34.71953,50.1556],[142.49459,-34.66553,51.0609],[142.47165,-34.64331,45.3814],[142.46792,-34.63416,40.7803],[142.46865,-34.62414,47.6524],[142.47009,-34.61778,44.2281],[142.4704,-34.612,44.3565],[142.46792,-34.60347,38.0016],[142.45857,-34.59158,48.6367],[142.3948,-34.54693,36.6686],[142.38576,-34.5334,42.3354],[142.37139,-34.44472,39.9135],[142.37232,-34.42467,40.7625],[142.37832,-34.40317,35.6064],[142.39806,-34.37372,37.4119],[142.40643,-34.3564,57.0753],[142.39646,-34.33801,37.8519],[142.3824,-34.33568,39.372],[142.36504,-34.34028,39.8169],[142.34493,-34.34276,39.8337],[142.32819,-34.3347,38.9699],[142.30514,-34.31713,35.7386],[142.28489,-34.29785,37.6047],[142.2729,-34.28044,74.6873],[142.26587,-34.27749,53.808],[142.25879,-34.27284,36.8688],[142.25564,-34.2639,50.4538],[142.25398,-34.24049,58.9004],[142.24882,-34.21863,46.5904],[142.23838,-34.19626,44.4798],[142.23512,-34.19192,45.5925],[142.22422,-34.19037,35.1709],[142.19978,-34.1928,35.2182],[142.19042,-34.1882,37.371],[142.17595,-34.17161,37.4038],[142.16417,-34.16246,32.7708],[142.15011,-34.15859,37.9884],[142.12872,-34.15781,32.452],[142.12293,-34.15983,36.2028],[142.10526,-34.16882,35.5256],[142.09425,-34.17083,31.4425],[142.07746,-34.13668,33.1946],[142.05126,-34.11595,35.3703],[142.02516,-34.11223,35.681],[141.97121,-34.1237,32.0269],[141.96036,-34.12464,34.388],[141.9494,-34.12412,44.788],[141.93814,-34.12164,27.3163],[141.92667,-34.11683,33.197],[141.90527,-34.1266,35.9687],[141.88739,-34.13047,34.3843],[141.84099,-34.13047,37.05],[141.81701,-34.12619,35.0412],[141.77071,-34.10743,31.1762],[141.74854,-34.10319,28.2299],[141.70611,-34.11001,29.8453],[141.66591,-34.12706,27.4952],[141.63097,-34.14908,30.1086],[141.60451,-34.17083,30.3955],[141.58147,-34.20194,29.11],[141.56793,-34.21388,29.0366],[141.54617,-34.21863,41.1021],[141.53734,-34.21584,49.5563],[141.52958,-34.20866,27.6748],[141.52405,-34.19884,29.8815],[141.51884,-34.17657,28.5784],[141.51067,-34.17223,31.2482],[141.4593,-34.16918,28.0217],[141.44628,-34.16401,31.643],[141.41522,-34.14577,27.7965],[141.40897,-34.14071,28.1296],[141.39192,-34.13368,22.5],[141.36866,-34.1373,25.4184],[141.34593,-34.14365,25.2132],[141.33078,-34.14474,27.4381],[141.32174,-34.13621,27.6675],[141.30955,-34.11435,27.0967],[141.29973,-34.11001,22.5728],[141.28577,-34.10572,34.9455],[141.27477,-34.09632,25.3813],[141.26583,-34.08696,25.1168],[141.25849,-34.08267,25.6877],[141.25275,-34.08138,31.287],[141.24185,-34.07601,29.6746],[141.23461,-34.07523,25.5465],[141.22821,-34.07756,24.384],[141.21415,-34.08686,25.6038],[141.20666,-34.0895,22.8192],[141.19012,-34.08929,25.2153]]]]}
,"properties": {"ISO3166-1-Alpha-3": "AUS","country": "Australia","fill": "#F0F","name": "Victoria","area_km2": 227876.27,"hist_schema_id": "Elevation0-9000","hist_area_km2": {"-75": 2.53,"-50": 4.98,"-25": 7.01,"0": 5333.0,"25": 7957.29,"50": 21187.61,"75": 24372.25,"100": 26191.72,"125": 23555.98,"150": 16635.29,"175": 12114.5,"200": 9406.57,"225": 8565.04,"250": 7158.14,"275": 5480.69,"300": 4536.27,"325": 3908.02,"350": 3731.26,"375": 3329.65,"400": 3172.42,"425": 2785.36,"450": 2543.81,"475": 2329.36,"500": 2066.66,"525": 1997.33,"550": 1854.79,"575": 1691.59,"600": 1549.06,"625": 1443.85,"650": 1364.57,"675": 1311.18,"700": 1312.91,"725": 1250.7,"750": 1164.35,"775": 1100.2,"800": 1030.76,"825": 993.01,"850": 950.52,"875": 913.58,"900": 892.37,"925": 841.0,"950": 776.47,"975": 724.06,"1000": 685.42,"1025": 649.78,"1050": 619.44,"1075": 590.34,"1100": 550.42,"1125": 501.66,"1150": 461.64,"1175": 438.26,"1200": 408.67,"1225": 377.16,"1250": 343.64,"1275": 325.79,"1300": 298.7,"1325": 266.57,"1350": 238.2,"1375": 211.76,"1400": 187.48,"1425": 179.34,"1450": 160.35,"1475": 141.3,"1500": 124.66,"1525": 106.37,"1550": 90.09,"1575": 73.92,"1600": 62.56,"1625": 49.43,"1650": 45.41,"1675": 36.71,"1700": 32.64,"1725": 24.54,"1750": 21.69,"1775": 14.93,"1800": 7.8,"1825": 4.23,"1850": 3.04,"1875": 1.83}}}