{"type": "Feature","bbox": [141.2266,-36.5675,142.239,-35.4984],"geometry": {"type": "MultiPolygon","coordinates": [[[[142.1659,-36.4327,128.3122],[142.1654,-36.3663,124.6643],[142.1686,-36.3658,124.8143],[142.168,-36.0405,97.6748],[142.1685,-36.0338,98.2101],[142.1726,-36.0338,98.1985],[142.1726,-36.0187,99.5125],[142.1685,-36.0183,101.4484],[142.1684,-35.9979,95.4672],[142.239,-35.9979,96.9854],[142.239,-35.8683,87.803],[141.9971,-35.8674,72.4171],[141.9973,-35.8247,74.1565],[141.9957,-35.8243,74.457],[141.9992,-35.8148,75.0476],[141.9995,-35.7979,77.6035],[142.0084,-35.7742,82.704],[142.0102,-35.7552,86.8414],[142.0099,-35.74,89.4029],[142.008,-35.7338,76.4169],[141.9989,-35.7161,72.6773],[141.9922,-35.7108,72.2929],[141.9974,-35.7108,85.2591],[141.9972,-35.6539,69.3138],[141.9949,-35.6539,74.7786],[141.9949,-35.6439,76.5975],[141.9975,-35.6396,73.7008],[141.9975,-35.4984,64.5937],[141.4995,-35.4985,83.7235],[141.4998,-35.7486,97.112],[141.3305,-35.7485,116.7453],[141.3354,-35.9051,124.323],[141.3409,-35.9061,125.067],[141.354,-35.913,131.7612],[141.374,-35.9437,129.7438],[141.3794,-36.0048,128.4521],[141.3527,-36.0083,127.5446],[141.3361,-35.9979,123.9801],[141.2848,-35.9969,124.2058],[141.2792,-35.9988,124.3476],[141.2709,-35.9987,124.0683],[141.2544,-35.9968,124.8695],[141.2489,-36.0635,137.953],[141.2442,-36.0801,142.1488],[141.2266,-36.1877,139.2114],[141.4037,-36.2063,145.4398],[141.4031,-36.2118,145.4255],[141.4059,-36.213,145.4943],[141.412,-36.2214,144.4037],[141.4115,-36.2289,145.5303],[141.4003,-36.2278,144.7937],[141.3791,-36.3597,148.5223],[141.4972,-36.3722,169.2525],[141.496,-36.3793,164.208],[141.4863,-36.3782,179.3144],[141.4843,-36.3915,179.3108],[141.4854,-36.3916,170.7674],[141.4797,-36.4273,170.9166],[141.4839,-36.4277,179.9042],[141.4779,-36.4649,180.8046],[141.4845,-36.4656,171.2399],[141.4736,-36.5311,162.7611],[141.6338,-36.5475,159.7391],[141.6502,-36.5474,161.2466],[141.6784,-36.5524,160.498],[141.7268,-36.5577,161.4528],[141.7287,-36.5445,164.2535],[141.9737,-36.5664,110.2723],[142.0039,-36.5675,106.9747],[142.0059,-36.565,106.9897],[142.0051,-36.5622,107.5238],[142.0101,-36.5602,108.0627],[142.0103,-36.5576,105.3763],[142.0125,-36.5558,107.4511],[142.0107,-36.5554,105.3936],[142.0097,-36.5519,106.8566],[142.0135,-36.551,106.5673],[142.0105,-36.5484,104.1084],[142.0136,-36.5423,104.2201],[142.0127,-36.5389,104.3144],[142.0156,-36.5384,105.2038],[142.015,-36.535,105.0568],[142.0199,-36.5361,105.6695],[142.0198,-36.5335,106.1925],[142.0251,-36.5317,106.979],[142.0221,-36.528,106.7232],[142.0284,-36.5219,107.6199],[142.028,-36.5198,107.1852],[142.0305,-36.5174,105.6919],[142.0302,-36.5153,106.4867],[142.0273,-36.513,104.8694],[142.03,-36.5112,105.6548],[142.0272,-36.5086,104.024],[142.0239,-36.5081,104.7613],[142.0215,-36.5056,104.4646],[142.022,-36.5036,103.0652],[142.0186,-36.5022,105.8811],[142.0189,-36.4968,106.9326],[142.0168,-36.497,102.155],[142.0178,-36.4946,103.8778],[142.0674,-36.4931,141.441],[142.0708,-36.4964,140.9391],[142.0761,-36.4929,135.3126],[142.0998,-36.4928,133.8476],[142.1002,-36.4942,133.8971],[142.1182,-36.4941,135.2031],[142.1184,-36.4927,134.3537],[142.1681,-36.4925,132.9524],[142.1646,-36.4819,132.563],[142.1645,-36.4696,131.4844],[142.166,-36.4695,130.8728],[142.1659,-36.4327,128.3122]]]]}
,"properties": {"GID_2": "AUS.10.30_1","GID_0": "AUS","country": "Australia","GID_1": "AUS.10_1","state": "Victoria","NL_NAME_1": "NA","county": "Hindmarsh","VARNAME_2": "NA","NL_NAME_2": "NA","TYPE_2": "Shire","ENGTYPE_2": "Shire","CC_2": "22980","HASC_2": "AU.VI.HI","name": "Hindmarsh.county","area_km2": 7522.154,"hist_schema_id": "Elevation0-9000","hist_area_km2": {"50": 1.536,"75": 1378.455,"100": 2909.579,"125": 1904.19,"150": 1012.727,"175": 263.568,"200": 51.178,"225": 0.921}}}