{"type":"Feature","properties":{"GID_2":"AUS.8.36_1","GID_0":"AUS","country":"Australia","GID_1":"AUS.8_1","state":"SouthAustralia","NL_NAME_1":"NA","county":"MountGambier","VARNAME_2":"NA","NL_NAME_2":"NA","TYPE_2":"City","ENGTYPE_2":"City","CC_2":"44620","HASC_2":"AU.SA.MG","name":"MountGambier.county"},
"geometry":{"type": "MultiPolygon","coordinates": [[[[140.7578,-37.8041,48.693],[140.7455,-37.8002,42.4103],[140.7376,-37.8158,40.2727],[140.7504,-37.8299,40.5815],[140.7478,-37.8361,46.3757],[140.7557,-37.845,64.6779],[140.7641,-37.8494,56.0048],[140.772,-37.8493,48.5015],[140.7933,-37.8551,43.2257],[140.7929,-37.8492,48.0713],[140.798,-37.8508,54.7201],[140.8004,-37.846,40.5695],[140.8189,-37.8517,38.008],[140.8262,-37.8372,51.789],[140.8139,-37.8333,45.7186],[140.8239,-37.8138,59.8075],[140.7628,-37.7943,52.3395],[140.7578,-37.8041,48.693]]]]}}