{"type": "Feature","bbox": [141.0019,-34.5936,143.6718,-32.7485],"geometry": {"type": "MultiPolygon","coordinates": [[[[143.5525,-33.1405,76.8714],[143.5728,-33.0124,69.5135],[143.6028,-33.0071,73.3852],[143.6534,-33.0124,65.5654],[143.6615,-32.9553,71.7658],[143.6706,-32.9453,72.5425],[143.6718,-32.9408,73.8705],[143.5852,-32.931,73.506],[143.592,-32.8851,79.1223],[143.5059,-32.876,97.2446],[143.4996,-32.9184,93.0796],[143.4352,-32.911,94.1993],[143.4324,-32.9093,94.2556],[143.417,-32.9075,98.081],[143.4324,-32.8084,82.3492],[143.2696,-32.7914,86.7562],[143.2712,-32.7802,82.278],[142.9646,-32.7485,59.2449],[142.9444,-32.8905,73.4445],[142.5155,-32.8475,69.0411],[142.5499,-32.9914,75.1398],[142.5519,-32.9916,76.344],[142.548,-33.0171,73.2346],[142.4245,-33.0052,84.4295],[142.428,-32.979,81.1649],[142.3765,-32.9737,52.5697],[142.372,-32.9752,52.6292],[142.3719,-32.9767,52.6228],[142.3757,-32.9793,52.2679],[142.3726,-32.9809,53.8564],[142.3754,-32.988,52.1906],[142.3725,-32.996,52.7642],[142.3816,-32.997,51.4734],[142.3807,-33.0012,53.3438],[142.3849,-32.9994,60.4901],[142.3851,-33.0021,53.6395],[142.3782,-33.0093,51.5927],[142.3758,-33.0146,51.2068],[142.3663,-33.0177,50.247],[142.3635,-33.0256,51.7989],[142.3665,-33.0283,52.1899],[142.3578,-33.0274,50.8095],[142.3581,-33.0353,52.0418],[142.3516,-33.0336,51.0027],[142.3492,-33.0374,52.5786],[142.3448,-33.0376,52.048],[142.3338,-33.0471,52.2021],[142.3294,-33.0474,51.6081],[142.3265,-33.0504,53.6734],[142.3168,-33.0491,51.9713],[142.3132,-33.05,53.204],[142.3144,-33.0594,51.0222],[142.3117,-33.0669,51.1152],[142.2892,-33.082,49.2744],[142.2876,-33.0855,49.3873],[142.2887,-33.0883,51.1722],[142.3026,-33.0926,52.2083],[142.295,-33.0955,52.3547],[142.2965,-33.1029,50.07],[142.2916,-33.0997,49.0382],[142.2905,-33.1053,50.549],[142.2869,-33.1074,48.8186],[142.2874,-33.1088,52.3698],[142.2954,-33.1093,50.1804],[142.2931,-33.1173,50.0131],[142.2793,-33.116,56.4397],[142.2743,-33.1123,50.1461],[142.2743,-33.1154,50.7408],[142.2807,-33.1215,50.138],[142.2751,-33.1245,49.7377],[142.2719,-33.1197,52.4517],[142.2699,-33.12,48.1535],[142.2688,-33.1224,48.5855],[142.2447,-33.1188,52.7617],[142.2428,-33.1309,52.3813],[142.2224,-33.129,49.0306],[142.227,-33.1263,46.5],[142.2226,-33.12,46.5],[142.1782,-33.1153,66.7148],[142.1731,-33.1168,72.148],[142.1057,-33.1124,44.0],[142.1078,-33.0901,47.5392],[142.0229,-33.0848,48.8277],[142.0384,-33.1439,61.9245],[141.5608,-33.0963,73.1839],[141.5732,-33.0056,81.8031],[141.4018,-32.9867,72.9906],[141.348,-33.3667,57.5499],[141.3058,-33.3625,90.5423],[141.3087,-33.3414,81.2265],[141.2666,-33.3372,69.345],[141.264,-33.3558,80.7891],[141.0024,-33.3288,70.107],[141.003,-34.0225,21.6462],[141.0124,-34.0247,23.6305],[141.0038,-34.0276,19.3031],[141.0019,-34.0393,20.7004],[141.0099,-34.0452,22.1232],[141.017,-34.0473,20.3241],[141.0186,-34.0563,22.4932],[141.0243,-34.0599,25.1545],[141.0275,-34.0572,20.8691],[141.0236,-34.0533,19.042],[141.0237,-34.0512,18.7834],[141.0323,-34.047,21.4545],[141.0311,-34.042,21.0155],[141.0323,-34.0374,18.8099],[141.0332,-34.036,18.8793],[141.0361,-34.036,19.2219],[141.0415,-34.0396,19.0023],[141.0436,-34.0432,20.2134],[141.0394,-34.0514,18.5],[141.0408,-34.0591,22.1818],[141.0425,-34.0611,20.2299],[141.049,-34.0611,18.5],[141.0529,-34.0575,19.8634],[141.0617,-34.055,24.1693],[141.0656,-34.0501,18.5],[141.0685,-34.0595,18.5],[141.0719,-34.0629,19.563],[141.0767,-34.0637,21.1451],[141.0816,-34.0612,21.0861],[141.0849,-34.0623,19.1286],[141.086,-34.065,21.6049],[141.0828,-34.0709,22.8845],[141.0853,-34.075,23.4858],[141.0892,-34.0767,24.5988],[141.0949,-34.0748,26.4971],[141.0976,-34.07,20.0109],[141.0956,-34.0607,26.386],[141.0879,-34.0593,19.3553],[141.0872,-34.0572,20.9083],[141.0876,-34.055,20.0873],[141.0942,-34.0507,19.6361],[141.1011,-34.0512,21.8217],[141.104,-34.0582,25.4038],[141.1069,-34.0611,19.9519],[141.1203,-34.0649,26.1459],[141.1282,-34.0634,24.4336],[141.1373,-34.0576,20.3665],[141.1376,-34.0616,21.081],[141.143,-34.0635,22.5559],[141.145,-34.0564,21.9138],[141.1531,-34.0545,26.7052],[141.1511,-34.0597,24.3826],[141.1534,-34.0642,22.0781],[141.1448,-34.0663,21.5696],[141.1438,-34.0678,21.5696],[141.1461,-34.0696,21.3816],[141.1512,-34.0679,23.4456],[141.1532,-34.0689,21.2573],[141.1537,-34.0821,22.4742],[141.1589,-34.0846,28.9938],[141.1658,-34.0832,24.5099],[141.169,-34.0806,21.4611],[141.1712,-34.0744,22.2615],[141.1746,-34.0733,22.1162],[141.1749,-34.0813,23.1917],[141.1784,-34.0882,25.1575],[141.185,-34.0919,23.8706],[141.1909,-34.0914,25.2608],[141.1935,-34.0896,26.6045],[141.1936,-34.0842,24.6234],[141.1875,-34.0793,21.0],[141.1924,-34.0783,21.3801],[141.1931,-34.0742,21.9568],[141.1998,-34.0721,26.2926],[141.2019,-34.0655,22.9637],[141.2059,-34.0617,24.2852],[141.2109,-34.0612,21.3597],[141.2155,-34.0654,23.9725],[141.2197,-34.0616,21.0],[141.2221,-34.0617,21.8686],[141.2222,-34.0689,23.0928],[141.2285,-34.0737,24.728],[141.2365,-34.0704,24.0395],[141.2375,-34.0639,22.2821],[141.2418,-34.0613,23.1097],[141.2443,-34.0638,24.2466],[141.2447,-34.069,22.2345],[141.2472,-34.0732,30.3983],[141.2417,-34.082,22.2098],[141.2425,-34.0873,22.4285],[141.2474,-34.0881,28.2821],[141.2495,-34.0861,28.0363],[141.2519,-34.079,23.176],[141.2554,-34.0775,22.4064],[141.2596,-34.0781,26.1289],[141.263,-34.0813,28.1593],[141.2682,-34.0917,23.2768],[141.275,-34.0979,25.3813],[141.2798,-34.0991,22.336],[141.2837,-34.1039,21.5],[141.2985,-34.107,23.5557],[141.298,-34.1116,27.9353],[141.3008,-34.1137,27.2296],[141.3138,-34.1117,24.6193],[141.3174,-34.1124,23.8803],[141.3184,-34.1163,29.4408],[141.3135,-34.1249,23.9337],[141.3168,-34.1273,23.9545],[141.3226,-34.1255,23.1141],[141.3259,-34.1269,25.4587],[141.3262,-34.1298,25.6722],[141.3231,-34.1332,22.0],[141.3232,-34.1376,22.0],[141.3249,-34.1388,24.2273],[141.3281,-34.1386,24.0326],[141.3314,-34.136,24.532],[141.3329,-34.1307,22.0],[141.3414,-34.128,27.1528],[141.3464,-34.1243,25.2462],[141.347,-34.1151,23.8599],[141.3485,-34.1123,23.1564],[141.359,-34.1107,25.947],[141.3627,-34.1129,24.9165],[141.3644,-34.1211,23.4243],[141.3688,-34.1271,25.7285],[141.3718,-34.1264,23.7543],[141.3697,-34.1202,23.7278],[141.3816,-34.1221,24.7375],[141.3846,-34.125,22.5],[141.3855,-34.1319,27.0227],[141.3881,-34.1347,29.5371],[141.3926,-34.1342,22.5],[141.4034,-34.1272,25.7279],[141.4082,-34.1279,23.0],[141.4103,-34.1322,24.5353],[141.4061,-34.142,30.5798],[141.4074,-34.1464,24.8018],[141.4119,-34.15,26.6843],[141.4172,-34.1508,25.2977],[141.4302,-34.1456,25.0495],[141.434,-34.146,23.5],[141.4348,-34.1478,23.5],[141.4321,-34.1545,25.7943],[141.4328,-34.1599,29.2587],[141.4445,-34.168,30.4742],[141.4488,-34.1675,25.7253],[141.4485,-34.1627,25.5807],[141.4502,-34.1611,26.9555],[141.4659,-34.1658,26.3858],[141.4697,-34.1634,28.9273],[141.4712,-34.1592,24.6938],[141.4828,-34.1634,28.2957],[141.486,-34.1614,30.0357],[141.4857,-34.1571,27.7542],[141.4874,-34.1549,28.4903],[141.4918,-34.1541,26.4903],[141.4968,-34.1555,25.9175],[141.5013,-34.16,35.0578],[141.5047,-34.1692,24.0],[141.5108,-34.1777,25.6257],[141.5187,-34.1809,25.0163],[141.5173,-34.1839,25.8925],[141.5107,-34.1858,29.7389],[141.5067,-34.1906,25.0747],[141.5077,-34.1942,27.31],[141.5146,-34.1982,26.6547],[141.5186,-34.2032,24.0],[141.5172,-34.2068,25.6512],[141.5085,-34.2084,25.0668],[141.5061,-34.2105,24.8574],[141.5061,-34.2138,25.4305],[141.5101,-34.2165,29.8167],[141.5339,-34.2107,25.5332],[141.5364,-34.2049,24.5],[141.5308,-34.1956,29.7983],[141.5335,-34.1914,27.7854],[141.538,-34.1927,27.1487],[141.5445,-34.2002,30.2498],[141.5477,-34.2008,26.8587],[141.5565,-34.1973,28.4548],[141.5582,-34.1919,26.093],[141.5605,-34.1909,24.5],[141.5672,-34.1915,35.1794],[141.5731,-34.196,27.138],[141.5839,-34.1988,26.43],[141.5881,-34.196,24.5],[141.5882,-34.1884,25.5283],[141.5897,-34.1869,24.5],[141.5958,-34.1918,29.3493],[141.6033,-34.1912,24.8692],[141.6059,-34.188,27.0543],[141.6049,-34.1839,29.3101],[141.6013,-34.1819,26.6651],[141.5926,-34.1818,25.6403],[141.5894,-34.1774,23.0],[141.5932,-34.1728,25.1281],[141.6027,-34.1687,32.7556],[141.6038,-34.1655,27.0878],[141.603,-34.1623,32.1908],[141.5993,-34.1561,33.1867],[141.5963,-34.1553,26.1056],[141.5878,-34.1576,29.3773],[141.5844,-34.1554,31.0076],[141.5839,-34.152,24.9335],[141.5873,-34.1507,24.888],[141.5953,-34.1548,26.1056],[141.6046,-34.1491,23.0],[141.6083,-34.1508,34.0781],[141.6125,-34.1568,32.7962],[141.6185,-34.1563,31.577],[141.621,-34.1543,23.0],[141.621,-34.1493,25.8589],[141.6118,-34.139,24.9444],[141.6153,-34.139,25.6539],[141.6182,-34.1435,26.5512],[141.6213,-34.1452,27.1878],[141.6284,-34.1452,30.1477],[141.6321,-34.1401,29.1446],[141.6301,-34.1297,30.1805],[141.6327,-34.1215,27.3172],[141.6547,-34.1167,30.6465],[141.6774,-34.1012,26.4089],[141.6886,-34.1023,26.2334],[141.6947,-34.0985,24.7456],[141.7049,-34.0957,23.0],[141.7083,-34.0964,30.8336],[141.7106,-34.0986,25.1285],[141.7128,-34.1123,30.9598],[141.7153,-34.1146,33.7391],[141.719,-34.1149,33.4985],[141.7235,-34.1127,25.3988],[141.7299,-34.1056,23.0],[141.7255,-34.094,23.0],[141.7273,-34.0915,24.2785],[141.7315,-34.091,23.0],[141.7463,-34.1034,32.2713],[141.7526,-34.1024,26.2673],[141.7583,-34.0968,32.3728],[141.7618,-34.0975,25.0],[141.7614,-34.1006,25.0],[141.754,-34.104,33.0966],[141.7526,-34.1062,33.3464],[141.7533,-34.1101,30.3088],[141.7569,-34.1121,29.2366],[141.7627,-34.1113,32.328],[141.771,-34.1047,28.087],[141.7779,-34.1018,26.8957],[141.7793,-34.1043,34.7637],[141.7747,-34.1139,36.2271],[141.7769,-34.1169,31.601],[141.7804,-34.1166,31.2454],[141.7841,-34.1123,29.3569],[141.7864,-34.1117,31.8272],[141.7907,-34.1152,33.9146],[141.8013,-34.1155,31.8891],[141.8065,-34.1203,30.9589],[141.8147,-34.1211,26.0],[141.8254,-34.1277,27.351],[141.8414,-34.1325,29.4938],[141.8446,-34.1314,30.7802],[141.8507,-34.1243,27.493],[141.8527,-34.1257,33.01],[141.8515,-34.1299,35.5794],[141.8533,-34.1312,31.4308],[141.8633,-34.1282,30.3529],[141.8678,-34.1287,34.6312],[141.8725,-34.1315,27.1664],[141.8766,-34.1374,28.7224],[141.8809,-34.1306,33.992],[141.8888,-34.1244,35.7438],[141.8887,-34.1215,35.791],[141.8852,-34.1179,31.8628],[141.8848,-34.115,30.5208],[141.9035,-34.1111,28.0139],[141.9082,-34.1144,27.5177],[141.9133,-34.1155,31.4669],[141.9226,-34.1146,38.5892],[141.9298,-34.1258,26.0],[141.9256,-34.1346,33.4506],[141.9341,-34.1383,33.5881],[141.9388,-34.135,28.9994],[141.938,-34.1289,28.5065],[141.9398,-34.1223,27.3163],[141.945,-34.1195,26.0],[141.948,-34.1205,42.7415],[141.954,-34.129,33.309],[141.9624,-34.136,28.6968],[141.9704,-34.1361,26.0],[141.9723,-34.1331,29.1285],[141.969,-34.1257,33.4326],[141.9697,-34.1199,34.4431],[141.9727,-34.115,29.0028],[141.9776,-34.1127,28.4027],[141.9849,-34.1129,28.4386],[141.993,-34.1213,48.009],[141.9985,-34.1185,26.0],[142.0133,-34.1253,32.833],[142.0222,-34.125,32.7726],[142.0242,-34.1234,27.0],[142.024,-34.1212,32.9863],[142.0165,-34.1173,31.0051],[142.0129,-34.1052,33.9449],[142.0155,-34.1041,27.0],[142.0211,-34.1065,35.9816],[142.026,-34.1065,34.29],[142.0375,-34.0994,27.0],[142.042,-34.1031,34.6839],[142.0423,-34.1053,31.4471],[142.0343,-34.1109,39.7706],[142.0294,-34.1182,30.2577],[142.0238,-34.1151,37.1914],[142.0285,-34.1189,39.1363],[142.0287,-34.1227,30.6922],[142.0276,-34.123,32.8684],[142.032,-34.1281,34.2787],[142.0361,-34.1295,27.0],[142.0488,-34.1254,31.9427],[142.0618,-34.1258,29.1086],[142.0756,-34.1314,34.1111],[142.0777,-34.1356,34.9589],[142.0772,-34.1387,30.3071],[142.0739,-34.1423,28.0],[142.0666,-34.1447,28.0],[142.0653,-34.1506,34.8726],[142.0676,-34.1536,34.1361],[142.0775,-34.1573,32.2451],[142.0828,-34.1735,33.5822],[142.0931,-34.1719,32.3652],[142.1054,-34.1775,32.2889],[142.1124,-34.1751,32.1247],[142.1196,-34.1749,37.2343],[142.1216,-34.1724,34.0593],[142.1185,-34.1615,32.3943],[142.1201,-34.1569,32.384],[142.1238,-34.1565,36.5882],[142.1327,-34.1606,33.8148],[142.138,-34.1601,35.5683],[142.1403,-34.1583,35.3232],[142.1433,-34.1514,30.0],[142.1483,-34.1487,33.3967],[142.1666,-34.1531,31.5],[142.1593,-34.1715,39.3068],[142.1665,-34.1714,32.5],[142.1634,-34.1764,34.952],[142.1673,-34.1835,37.1126],[142.1783,-34.1837,33.6851],[142.1814,-34.1764,39.6128],[142.1836,-34.1757,34.6369],[142.1903,-34.1805,36.1011],[142.1982,-34.1834,36.1362],[142.2063,-34.1837,35.9438],[142.2168,-34.1808,33.3989],[142.2207,-34.182,35.5996],[142.2253,-34.1891,33.447],[142.2293,-34.2077,38.2664],[142.2331,-34.2144,39.3329],[142.2337,-34.2133,39.3329],[142.2323,-34.2111,38.6967],[142.233,-34.21,38.6967],[142.2318,-34.2089,34.4532],[142.2386,-34.2065,37.462],[142.2347,-34.2053,33.6364],[142.2365,-34.2038,33.3306],[142.2434,-34.2092,33.0],[142.2442,-34.2115,35.6974],[142.2438,-34.2165,34.372],[142.2418,-34.216,36.7655],[142.2353,-34.2237,36.9746],[142.2414,-34.2284,34.2764],[142.244,-34.2325,36.4136],[142.245,-34.2379,33.0],[142.2436,-34.2458,36.1259],[142.2415,-34.2481,33.6902],[142.2348,-34.2494,39.3697],[142.2323,-34.255,34.4171],[142.234,-34.2571,35.5385],[142.2419,-34.2581,36.3447],[142.249,-34.2651,35.437],[142.2494,-34.2676,33.0],[142.2447,-34.2769,33.0],[142.2488,-34.285,35.706],[142.2437,-34.2919,34.4438],[142.2325,-34.2967,33.0],[142.2319,-34.3022,59.1469],[142.2359,-34.307,42.557],[142.2531,-34.3061,33.0],[142.2673,-34.2953,33.8745],[142.2693,-34.2961,33.4584],[142.2708,-34.3016,39.0295],[142.2737,-34.304,36.1815],[142.2775,-34.3032,38.1057],[142.2861,-34.2965,35.1606],[142.2915,-34.302,43.0157],[142.2989,-34.3057,35.1323],[142.2968,-34.3074,35.5517],[142.2883,-34.3064,34.3152],[142.2841,-34.3106,33.0],[142.2806,-34.3159,37.3501],[142.28,-34.3198,33.9695],[142.2839,-34.3266,37.0567],[142.2907,-34.326,34.1761],[142.2944,-34.3235,33.9685],[142.3017,-34.3291,36.7309],[142.3163,-34.3301,37.2848],[142.3216,-34.3369,36.7339],[142.3309,-34.3394,33.5],[142.3472,-34.3372,35.7024],[142.3619,-34.3281,37.634],[142.3678,-34.3269,36.1001],[142.3732,-34.3315,39.4691],[142.3796,-34.3309,33.9876],[142.3958,-34.3368,38.0118],[142.3975,-34.3398,38.3455],[142.397,-34.3438,36.1734],[142.3883,-34.3431,35.3883],[142.3844,-34.3473,41.007],[142.3863,-34.3553,36.9438],[142.3915,-34.3601,34.0],[142.3904,-34.3623,38.6441],[142.3852,-34.3638,37.4066],[142.3799,-34.3604,34.9366],[142.3713,-34.3578,40.3786],[142.3635,-34.3622,40.8164],[142.3661,-34.3651,42.3971],[142.3748,-34.3624,35.0],[142.3783,-34.3647,38.0837],[142.3772,-34.3673,35.224],[142.3681,-34.3707,36.1175],[142.3703,-34.3746,35.0],[142.3707,-34.3833,45.9724],[142.3739,-34.3881,35.0811],[142.368,-34.3855,37.4585],[142.3639,-34.3857,44.903],[142.351,-34.3966,37.3287],[142.3517,-34.3992,35.4459],[142.3565,-34.4004,35.0],[142.3524,-34.4045,39.85],[142.3526,-34.4079,37.6757],[142.3596,-34.41,36.2329],[142.3607,-34.4118,35.0],[142.3526,-34.4191,39.11],[142.3518,-34.4223,36.1645],[142.3545,-34.4241,36.6051],[142.3645,-34.4227,40.1645],[142.3639,-34.4277,41.2401],[142.3599,-34.4319,35.9014],[142.3679,-34.4354,35.9335],[142.3609,-34.4404,39.4652],[142.3607,-34.442,39.5825],[142.3651,-34.4474,35.0],[142.3607,-34.4595,48.1144],[142.3539,-34.4645,36.8431],[142.3533,-34.4696,42.8759],[142.3563,-34.4723,38.6538],[142.3644,-34.4693,35.0],[142.3723,-34.4717,44.4805],[142.3793,-34.4667,37.0165],[142.3842,-34.4781,35.0],[142.383,-34.4793,35.0],[142.3782,-34.4765,36.3402],[142.3747,-34.477,39.1895],[142.3725,-34.4807,38.3302],[142.3643,-34.4847,35.7373],[142.3598,-34.4912,43.075],[142.3596,-34.4988,42.6092],[142.3697,-34.5038,39.9896],[142.3724,-34.4957,39.4101],[142.3777,-34.4914,37.8531],[142.3911,-34.492,35.9644],[142.3947,-34.4935,38.5216],[142.3868,-34.499,38.6977],[142.3847,-34.5053,35.0],[142.3761,-34.5122,41.185],[142.3749,-34.5153,36.8003],[142.3772,-34.5183,42.7072],[142.3807,-34.5195,35.0],[142.3928,-34.5159,37.4896],[142.4006,-34.5227,36.4226],[142.3985,-34.5242,38.9546],[142.3829,-34.524,41.5337],[142.37,-34.5264,40.9795],[142.3678,-34.5283,47.0164],[142.368,-34.531,45.2259],[142.3721,-34.535,43.1302],[142.3782,-34.5321,38.6553],[142.3758,-34.5383,42.2535],[142.3767,-34.541,36.0907],[142.3866,-34.5451,37.581],[142.3902,-34.5491,38.8759],[142.3998,-34.547,41.7317],[142.4033,-34.542,37.4714],[142.4056,-34.5415,36.5371],[142.4067,-34.5478,46.2871],[142.4107,-34.5537,36.1434],[142.4066,-34.5619,44.8376],[142.4076,-34.5679,40.0288],[142.412,-34.5692,36.7237],[142.4261,-34.5623,35.5],[142.4294,-34.5666,46.3484],[142.4286,-34.5726,39.4949],[142.4302,-34.5748,44.529],[142.4348,-34.5761,36.0],[142.4449,-34.5755,37.369],[142.4516,-34.5843,36.0],[142.4575,-34.5842,38.9403],[142.4587,-34.5813,45.5705],[142.4516,-34.5727,46.4079],[142.4488,-34.5596,39.8479],[142.4546,-34.5576,36.0],[142.4653,-34.562,41.4729],[142.4689,-34.5658,38.3925],[142.4727,-34.5765,42.8435],[142.4662,-34.583,41.3874],[142.4587,-34.5852,39.81],[142.4599,-34.5894,36.0],[142.4673,-34.5893,37.1404],[142.4704,-34.5913,42.4945],[142.4874,-34.5936,43.9212],[142.5282,-34.5798,45.9728],[142.5834,-34.558,59.155],[142.6125,-34.3713,59.4829],[142.7888,-34.3893,55.3305],[142.8327,-34.0913,63.3095],[142.7444,-34.0818,55.5591],[142.7601,-33.9792,75.8964],[142.7966,-33.9829,59.7404],[142.8059,-33.9219,75.4032],[142.931,-33.9348,73.7053],[142.9448,-33.8484,75.149],[142.9924,-33.8536,64.4242],[143.0395,-33.5503,63.5878],[143.2108,-33.5686,64.0825],[143.2433,-33.3507,70.666],[143.2949,-33.3563,74.0738],[143.3082,-33.2708,70.5747],[143.3557,-33.2759,69.4611],[143.3783,-33.1413,74.395],[143.5494,-33.1597,73.3615],[143.5525,-33.1405,76.8714]]]]}
,"properties": {"GID_2": "AUS.5.145_1","GID_0": "AUS","country": "Australia","GID_1": "AUS.5_1","state": "NewSouthWales","NL_NAME_1": "NA","county": "Wentworth","VARNAME_2": "NA","NL_NAME_2": "NA","TYPE_2": "Area","ENGTYPE_2": "Area","CC_2": "18200","HASC_2": "AU.NS.WE","name": "Wentworth.county","area_km2": 26267.34,"hist_schema_id": "Elevation0-9000","hist_area_km2": {"25": 2189.32,"50": 12445.76,"75": 9701.72,"100": 1708.3,"125": 222.13}}}