{"type":"Feature","properties":{"GID_2":"AUS.5.11_1","GID_0":"AUS","country":"Australia","GID_1":"AUS.5_1","state":"NewSouthWales","NL_NAME_1":"NA","county":"Berrigan","VARNAME_2":"NA","NL_NAME_2":"NA","TYPE_2":"Area","ENGTYPE_2":"Area","CC_2":"10650","HASC_2":"AU.NS.BG","name":"Berrigan.county"},
"geometry":{"type": "MultiPolygon","coordinates": [[[[145.343,-35.7114,105.0933],[145.3384,-35.7376,102.9174],[145.3357,-35.7373,102.7923],[145.332,-35.7646,103.2807],[145.3428,-35.7659,104.0715],[145.3407,-35.7782,104.4556],[145.3436,-35.7786,108.4546],[145.341,-35.793,104.1444],[145.3469,-35.7937,104.1872],[145.3404,-35.8315,104.216],[145.3457,-35.832,104.8549],[145.3434,-35.8455,111.6257],[145.3637,-35.8479,109.2126],[145.3602,-35.8618,101.4691],[145.3694,-35.8583,103.1604],[145.377,-35.8589,97.7047],[145.3803,-35.8547,97.0],[145.3871,-35.8501,98.7799],[145.4048,-35.8509,98.9337],[145.4106,-35.8486,99.6628],[145.4119,-35.8464,103.2387],[145.4099,-35.8434,101.5192],[145.4111,-35.84,97.0],[145.4097,-35.8368,103.3535],[145.4126,-35.8344,97.7911],[145.4126,-35.8306,97.0],[145.4165,-35.8314,104.5945],[145.4199,-35.8282,105.3517],[145.425,-35.8287,98.5587],[145.4269,-35.8329,98.165],[145.4294,-35.8345,97.5],[145.4358,-35.8296,103.0828],[145.4399,-35.8355,108.9392],[145.4423,-35.8356,100.152],[145.4491,-35.8291,101.875],[145.448,-35.8267,100.3723],[145.4507,-35.8214,107.132],[145.4534,-35.8214,100.6324],[145.4568,-35.826,100.8393],[145.4625,-35.8269,106.0226],[145.4644,-35.8252,101.5329],[145.464,-35.8219,98.0],[145.4691,-35.8182,110.8431],[145.4678,-35.8136,104.5673],[145.4715,-35.8113,110.2715],[145.4721,-35.8092,98.0],[145.4745,-35.8124,104.3968],[145.478,-35.8108,98.5],[145.4822,-35.8135,105.8337],[145.4877,-35.8125,102.1915],[145.492,-35.8151,106.2018],[145.4943,-35.814,111.8638],[145.4955,-35.809,98.5],[145.5003,-35.8103,107.0031],[145.5025,-35.8094,104.3689],[145.5068,-35.8121,106.7651],[145.5116,-35.8119,100.3773],[145.5132,-35.8158,98.5],[145.5217,-35.8187,107.6839],[145.5253,-35.817,114.2763],[145.5235,-35.8158,104.4104],[145.5237,-35.8138,101.8571],[145.5282,-35.8115,98.5],[145.527,-35.8068,100.7062],[145.5357,-35.802,99.3848],[145.5339,-35.8058,102.2158],[145.5352,-35.8082,111.9188],[145.5419,-35.8089,99.5704],[145.5365,-35.8174,111.5755],[145.5367,-35.8199,115.8991],[145.5388,-35.8218,106.6739],[145.5424,-35.8217,105.6019],[145.5467,-35.8129,110.2765],[145.5542,-35.8147,111.718],[145.5628,-35.8134,110.3278],[145.5629,-35.8162,111.2355],[145.5571,-35.8189,103.5561],[145.5599,-35.8227,101.0986],[145.5572,-35.826,106.5087],[145.558,-35.8282,105.7399],[145.5611,-35.8283,104.1955],[145.5642,-35.8259,99.0],[145.5668,-35.8265,106.8514],[145.5672,-35.8285,102.7778],[145.5637,-35.8316,115.9503],[145.564,-35.8342,105.3434],[145.5685,-35.8339,99.7905],[145.571,-35.8371,108.2414],[145.5748,-35.8379,104.1435],[145.5816,-35.8483,111.8382],[145.5932,-35.8491,99.0],[145.5925,-35.8555,111.9252],[145.5882,-35.8577,117.8796],[145.5868,-35.8612,99.0],[145.5887,-35.8626,100.925],[145.598,-35.8615,106.7531],[145.5955,-35.8697,107.6062],[145.6009,-35.8749,107.4289],[145.6065,-35.8749,108.0599],[145.6017,-35.8704,102.2384],[145.6017,-35.8679,99.9566],[145.6096,-35.8703,105.0286],[145.6151,-35.8653,101.0419],[145.626,-35.8625,101.7753],[145.6286,-35.8657,102.544],[145.6283,-35.8678,102.0797],[145.6191,-35.8691,104.6973],[145.6149,-35.8726,113.5414],[145.6171,-35.8755,108.8488],[145.623,-35.8731,101.6477],[145.6281,-35.8754,99.5],[145.6207,-35.8805,109.9759],[145.6204,-35.884,106.7298],[145.6234,-35.8845,113.2859],[145.6273,-35.8799,111.1086],[145.6296,-35.8801,100.6034],[145.6317,-35.8881,114.4051],[145.6368,-35.8893,101.2724],[145.6397,-35.8942,114.7091],[145.6431,-35.8947,112.5798],[145.6473,-35.8931,104.7506],[145.6512,-35.8997,117.3219],[145.6575,-35.9007,101.5056],[145.6615,-35.9124,101.6571],[145.6686,-35.9129,99.5],[145.669,-35.9195,102.8481],[145.679,-35.9168,104.2028],[145.6788,-35.9194,111.3834],[145.6735,-35.9232,100.5],[145.674,-35.9259,102.6082],[145.6783,-35.9262,104.7917],[145.682,-35.9298,109.4047],[145.6859,-35.9306,102.4371],[145.6877,-35.9291,111.9847],[145.6871,-35.9241,109.0178],[145.6971,-35.9206,103.2658],[145.7021,-35.9235,106.3581],[145.7033,-35.9257,109.1635],[145.7018,-35.9268,102.0],[145.6977,-35.9247,102.7126],[145.6956,-35.926,102.5],[145.6976,-35.9297,105.77],[145.6962,-35.9341,102.5],[145.6977,-35.9368,108.4009],[145.7006,-35.9368,110.0955],[145.7067,-35.932,104.8436],[145.7144,-35.9374,105.9967],[145.7208,-35.9347,109.3537],[145.7272,-35.9455,107.0213],[145.7255,-35.9464,107.631],[145.7184,-35.9443,113.6683],[145.7157,-35.9476,113.1325],[145.7161,-35.95,107.2213],[145.7215,-35.9515,110.8516],[145.7243,-35.9541,107.4853],[145.73,-35.9511,110.9806],[145.7345,-35.9515,112.8516],[145.7368,-35.9548,108.1373],[145.7315,-35.9563,108.4481],[145.7308,-35.9584,108.4654],[145.7325,-35.96,111.9953],[145.7443,-35.9591,110.2625],[145.7436,-35.9626,107.3826],[145.7465,-35.9642,109.9742],[145.7542,-35.9613,118.4729],[145.7579,-35.9581,113.4453],[145.763,-35.9614,118.9816],[145.7643,-35.9659,113.7463],[145.7661,-35.9667,122.3235],[145.7683,-35.9631,114.857],[145.7782,-35.9602,111.5759],[145.7814,-35.9638,119.4276],[145.777,-35.9726,111.3127],[145.7845,-35.972,110.8003],[145.788,-35.9753,116.1362],[145.7927,-35.9728,111.8986],[145.7934,-35.9828,110.8572],[145.808,-35.9838,114.5849],[145.8069,-35.9891,114.8172],[145.8119,-35.9918,116.575],[145.815,-35.991,112.4064],[145.8167,-35.9882,115.7625],[145.8111,-35.9844,112.7685],[145.8179,-35.9823,111.7297],[145.8235,-35.9846,116.7439],[145.8269,-35.9839,113.1269],[145.8289,-35.9802,113.1718],[145.8244,-35.9793,112.0],[145.8275,-35.9754,114.0342],[145.8361,-35.9771,113.1084],[145.837,-35.9831,120.3386],[145.8478,-35.9817,118.4033],[145.8488,-35.9789,113.7753],[145.8445,-35.974,114.139],[145.8479,-35.9729,115.0577],[145.8542,-35.9766,120.8377],[145.8598,-35.973,113.0],[145.8585,-35.9711,117.6278],[145.848,-35.9687,116.3326],[145.8539,-35.9656,119.0316],[145.853,-35.9607,115.3506],[145.8606,-35.9605,114.941],[145.8706,-35.9555,114.9893],[145.8764,-35.9553,118.6728],[145.8805,-35.9578,113.0],[145.8853,-35.9554,114.8838],[145.89,-35.9573,115.8053],[145.8944,-35.9532,116.212],[145.9079,-35.9535,114.0011],[145.9103,-35.9555,113.4536],[145.9094,-35.9578,121.0219],[145.9017,-35.9607,116.0204],[145.9002,-35.9632,114.1224],[145.9033,-35.9691,116.0478],[145.905,-35.969,116.0478],[145.9048,-35.9645,115.3348],[145.9061,-35.9633,115.4982],[145.9138,-35.9696,120.2522],[145.9151,-35.9688,113.0652],[145.9149,-35.9645,116.7979],[145.9243,-35.9643,115.4171],[145.9283,-35.967,113.9068],[145.9251,-35.9703,116.4291],[145.9256,-35.9727,116.4422],[145.9282,-35.974,114.5138],[145.9332,-35.9731,115.0958],[145.9471,-35.9605,116.9715],[145.949,-35.9505,124.4966],[145.9879,-35.7473,124.8867],[145.9852,-35.747,127.061],[145.9906,-35.7186,124.323],[145.9857,-35.718,124.4488],[145.9863,-35.7143,123.9716],[145.984,-35.714,123.9631],[145.9853,-35.706,124.2498],[145.9738,-35.7046,123.9],[145.9781,-35.6816,123.2759],[145.9916,-35.6833,123.7073],[145.9945,-35.6688,122.5374],[145.9845,-35.6674,122.5425],[145.9859,-35.6606,122.1734],[145.9958,-35.6616,122.8346],[145.998,-35.6498,122.1562],[145.9846,-35.6482,121.6439],[145.9869,-35.636,121.2667],[146.0045,-35.6382,121.8455],[146.0072,-35.6242,122.0107],[145.9941,-35.6222,121.6745],[145.9948,-35.619,121.7338],[146.0018,-35.62,122.5402],[146.0032,-35.6136,121.7427],[146.0012,-35.6116,121.636],[146.0076,-35.5869,121.5014],[145.9962,-35.5854,121.0869],[145.9972,-35.5805,120.8779],[145.9912,-35.5798,120.4513],[145.9894,-35.5886,121.0684],[145.9714,-35.5766,120.8775],[145.9696,-35.5779,120.4324],[145.7919,-35.5557,114.9546],[145.7937,-35.5444,115.8938],[145.7379,-35.5377,112.9189],[145.7378,-35.5428,113.0984],[145.7215,-35.5494,113.4027],[145.7158,-35.5398,112.6034],[145.6499,-35.5319,109.7482],[145.6483,-35.5347,109.8915],[145.6365,-35.5303,110.0121],[145.4845,-35.512,105.2773],[145.4743,-35.5681,106.8142],[145.478,-35.5685,107.114],[145.4742,-35.5895,106.8169],[145.4716,-35.5894,107.1717],[145.4692,-35.6026,106.4284],[145.461,-35.6016,105.8804],[145.459,-35.6119,107.069],[145.4686,-35.613,107.5248],[145.4614,-35.6532,106.3463],[145.4648,-35.6536,106.0217],[145.4616,-35.6697,106.351],[145.4557,-35.6685,106.002],[145.4544,-35.6748,105.9172],[145.461,-35.6757,105.4361],[145.4597,-35.6826,105.586],[145.456,-35.6821,105.8197],[145.4545,-35.6898,106.6289],[145.4581,-35.691,106.6234],[145.4569,-35.6975,106.0659],[145.4436,-35.6959,105.5078],[145.44,-35.7153,106.6935],[145.436,-35.7129,107.5659],[145.4342,-35.709,105.0228],[145.4304,-35.7091,108.6151],[145.4297,-35.7067,109.133],[145.4249,-35.7059,104.8377],[145.423,-35.709,110.3776],[145.4202,-35.7076,106.3869],[145.4173,-35.7087,106.0686],[145.4157,-35.7113,106.7325],[145.412,-35.7111,106.2567],[145.409,-35.7148,105.4522],[145.4027,-35.7163,103.8683],[145.404,-35.7187,104.9121],[145.4025,-35.7221,104.5855],[145.3973,-35.7228,104.8924],[145.3932,-35.7274,104.4701],[145.3875,-35.7271,104.8029],[145.3839,-35.7238,105.1942],[145.3795,-35.7243,108.325],[145.3742,-35.7218,105.0282],[145.3699,-35.7236,103.7984],[145.3691,-35.719,104.768],[145.3623,-35.7204,104.4394],[145.3585,-35.7177,104.5047],[145.3587,-35.7162,103.591],[145.3523,-35.7191,104.6177],[145.3498,-35.7133,104.6305],[145.3462,-35.711,102.7449],[145.343,-35.7114,105.0933]]]]}}