{"type":"Feature","properties":{"GID_2":"AUS.10.33_1","GID_0":"AUS","country":"Australia","GID_1":"AUS.10_1","state":"Victoria","NL_NAME_1":"NA","county":"Hume","VARNAME_2":"NA","NL_NAME_2":"NA","TYPE_2":"City","ENGTYPE_2":"City","CC_2":"23270","HASC_2":"AU.VI.HU","name":"Hume.county"},
"geometry":{"type": "MultiPolygon","coordinates": [[[[144.8862,-37.7077,89.1351],[144.9038,-37.6941,82.3723],[144.919,-37.6947,106.7195],[144.9592,-37.6922,91.5632],[144.9721,-37.691,85.6163],[144.9737,-37.6895,91.2636],[144.9707,-37.6879,92.2506],[144.9726,-37.681,86.198],[144.9746,-37.6801,86.0515],[144.9724,-37.677,97.7868],[144.9778,-37.6764,92.7182],[144.9749,-37.6739,112.1288],[144.9763,-37.6717,104.2264],[144.974,-37.6714,113.8693],[144.976,-37.6666,110.6975],[144.9724,-37.6637,122.7007],[144.9735,-37.6608,124.1004],[144.9722,-37.6593,126.3421],[144.977,-37.6582,124.4954],[144.9746,-37.6524,133.9923],[144.9763,-37.6501,130.9565],[144.9711,-37.6433,139.8134],[144.9693,-37.6431,134.8432],[144.9702,-37.6404,136.7237],[144.9689,-37.6386,138.3716],[144.9669,-37.6383,146.1578],[144.965,-37.6355,143.3984],[144.9585,-37.6344,149.9003],[144.9574,-37.6318,147.1169],[144.9587,-37.6277,155.1246],[144.9556,-37.6261,157.2502],[144.9555,-37.6238,159.4484],[144.9528,-37.6232,160.4557],[144.9573,-37.6208,161.7552],[144.9554,-37.6192,162.2333],[144.956,-37.6168,162.8483],[144.954,-37.6137,164.6915],[144.9519,-37.6133,166.5067],[144.9524,-37.6107,170.5208],[144.9505,-37.6112,176.407],[144.9465,-37.6074,173.9903],[144.9523,-37.6068,176.4191],[144.953,-37.5964,180.7253],[144.9548,-37.5954,181.632],[144.9559,-37.5913,180.1532],[144.9588,-37.5911,188.8533],[144.957,-37.5858,184.7201],[144.9585,-37.5851,184.7201],[144.9566,-37.5825,199.6635],[144.9632,-37.5794,202.234],[144.9624,-37.5776,200.3817],[144.9653,-37.5735,201.184],[144.9632,-37.5672,205.5633],[144.9655,-37.5602,209.9062],[144.9639,-37.5573,213.2381],[144.961,-37.5568,214.4249],[144.9538,-37.5498,220.5179],[144.9538,-37.5451,219.3796],[144.9595,-37.5425,218.9308],[144.9603,-37.5395,218.6555],[144.9632,-37.5397,219.289],[144.9687,-37.5347,219.9474],[144.9725,-37.5353,221.4676],[144.9735,-37.5316,225.5111],[144.9768,-37.5289,226.9941],[144.9728,-37.5258,231.0361],[144.9743,-37.5255,232.1472],[144.9762,-37.5198,241.9453],[144.9744,-37.516,247.6603],[144.9772,-37.5137,249.3759],[144.8904,-37.504,233.3765],[144.8871,-37.505,219.9431],[144.8849,-37.503,201.6591],[144.8832,-37.505,199.325],[144.8777,-37.5054,188.29],[144.8753,-37.5021,182.6852],[144.8728,-37.5046,198.1891],[144.8678,-37.5033,185.2282],[144.871,-37.5057,182.9856],[144.8663,-37.5069,171.4995],[144.869,-37.5095,170.0857],[144.8669,-37.5119,169.7613],[144.8716,-37.5134,172.3593],[144.8705,-37.5155,175.1474],[144.7704,-37.5018,306.6457],[144.7669,-37.505,273.2242],[144.7628,-37.4996,305.3648],[144.7604,-37.4995,306.3484],[144.761,-37.5017,305.9294],[144.7598,-37.5016,305.9294],[144.7575,-37.4948,306.9845],[144.7519,-37.497,234.7171],[144.7405,-37.4893,257.343],[144.739,-37.4897,238.1208],[144.7406,-37.4932,244.9019],[144.7395,-37.493899999999996,244.9019],[144.7325,-37.4873,286.0581],[144.7262,-37.4865,262.762],[144.7216,-37.4834,274.5122],[144.7195,-37.4837,288.6233],[144.7188,-37.4874,267.5354],[144.7127,-37.4877,288.4834],[144.7118,-37.4866,319.371],[144.7137,-37.4843,302.1513],[144.7126,-37.4828,295.4881],[144.7047,-37.4824,312.6711],[144.702,-37.4853,317.5407],[144.7011,-37.4819,312.8514],[144.6999,-37.4848,326.4628],[144.6962,-37.4851,316.4274],[144.6978,-37.4892,334.1794],[144.693,-37.4892,325.4187],[144.6917,-37.4867,321.4628],[144.688,-37.4904,326.0797],[144.6893,-37.4933,343.3148],[144.6861,-37.493,326.7822],[144.685,-37.4956,335.0555],[144.6837,-37.4925,335.2997],[144.6783,-37.4944,349.9218],[144.6779,-37.4965,345.9482],[144.6817,-37.4978,336.7098],[144.6795,-37.4994,331.4215],[144.6752,-37.4988,338.6711],[144.6738,-37.5004,338.0649],[144.6679,-37.4982,334.8466],[144.6656,-37.5011,335.0749],[144.6634,-37.4988,347.0767],[144.6552,-37.4999,341.9258],[144.6516,-37.4988,342.0087],[144.6513,-37.4965,341.865],[144.648,-37.4969,345.1267],[144.645,-37.495,346.5469],[144.638,-37.4995,349.3105],[144.6324,-37.5301,447.1855],[144.6481,-37.5429,403.4672],[144.6567,-37.5534,376.1771],[144.6638,-37.5584,356.8115],[144.7009,-37.6054,248.7847],[144.7152,-37.6208,210.8992],[144.7243,-37.6268,210.4211],[144.743,-37.6607,142.0107],[144.7465,-37.663,139.9432],[144.7573,-37.6641,94.5623],[144.7585,-37.6629,84.6973],[144.7647,-37.6658,68.813],[144.7677,-37.664,68.9813],[144.772,-37.664,73.2587],[144.7684,-37.6684,66.1519],[144.7742,-37.6707,64.928],[144.777,-37.6768,70.4039],[144.7819,-37.675,54.6046],[144.7919,-37.6754,51.2859],[144.7978,-37.6717,43.6944],[144.8011,-37.6755,51.9935],[144.8017,-37.6714,42.6003],[144.8047,-37.6695,63.6871],[144.8034,-37.6759,40.2443],[144.8056,-37.6776,41.5183],[144.8063,-37.6831,44.3855],[144.8121,-37.6816,39.1377],[144.8187,-37.6824,45.6174],[144.8205,-37.6843,42.9366],[144.8188,-37.6874,67.6951],[144.8206,-37.6924,35.8422],[144.8112,-37.6956,34.7984],[144.8097,-37.6981,74.9446],[144.8185,-37.7001,38.4406],[144.8247,-37.6983,30.067],[144.8282,-37.7008,42.6599],[144.8251,-37.7012,28.3502],[144.8249,-37.7026,35.8243],[144.8282,-37.7046,26.572],[144.8288,-37.7057,26.572],[144.8273,-37.7063,28.4907],[144.8288,-37.7069,28.4907],[144.8319,-37.7069,29.1166],[144.8309,-37.7056,26.1377],[144.8351,-37.7033,26.859],[144.8382,-37.7056,31.7859],[144.8381,-37.7093,27.715699999999998],[144.8594,-37.7124,73.3944],[144.8607,-37.7058,80.5468],[144.8829,-37.7086,88.3522],[144.8862,-37.7077,89.1351]]]]}}