{"type":"Feature","properties":{"GID_2":"AUS.11.22_1","GID_0":"AUS","country":"Australia","GID_1":"AUS.11_1","state":"WesternAustralia","NL_NAME_1":"NA","county":"Carnarvon","VARNAME_2":"NA","NL_NAME_2":"NA","TYPE_2":"Shire","ENGTYPE_2":"Shire","CC_2":"51540","HASC_2":"AU.WA.CA","name":"Carnarvon.county"},
"geometry":{"type": "MultiPolygon","coordinates": [[[[113.8807,-25.3229,1.6852],[113.883,-25.3255,1.509],[113.8834,-25.3252,1.509],[113.8815,-25.3228,1.6852],[113.8807,-25.3229,1.6852]]],
[[[113.1246,-25.0114,14.6537],[113.1242,-25.0078,4.7893],[113.1204,-25.0058,16.2572],[113.1184,-24.9922,8.372],[113.1173,-24.9927,8.372],[113.1165,-25.0162,0.0],[113.1121,-25.0236,9.9204],[113.11,-25.0227,0.0],[113.1016,-25.0327,2.1978],[113.1005,-25.0436,5.0773],[113.0903,-25.0599,0.0],[113.0909,-25.0678,6.2506],[113.0877,-25.0698,0.0],[113.0884,-25.0723,0.0],[113.087,-25.0756,1.4904],[113.0907,-25.0898,26.1447],[113.0948,-25.1211,25.5374],[113.0921,-25.137,0.0],[113.0924,-25.1583,0.0],[113.0874,-25.1921,0.9861],[113.0801,-25.2057,0.0],[113.0775,-25.216,14.0838],[113.0725,-25.2222,19.7804],[113.0693,-25.2314,0.0],[113.069,-25.2378,0.0],[113.0733,-25.2502,0.0],[113.0761,-25.2732,0.0],[113.0816,-25.2679,11.6873],[113.0828,-25.2474,5.6081],[113.0888,-25.2375,4.8896],[113.0881,-25.2319,12.1945],[113.0905,-25.2207,0.0],[113.0877,-25.2133,23.0291],[113.0896,-25.2091,8.3664],[113.0886,-25.2059,8.346],[113.0914,-25.2019,1.3834],[113.0911,-25.1879,5.9556],[113.096,-25.1813,0.0],[113.1022,-25.179,1.7195],[113.1042,-25.1748,5.0485],[113.1018,-25.1599,13.5901],[113.1046,-25.1499,16.1043],[113.11,-25.1423,0.0],[113.1111,-25.1376,0.0],[113.1104,-25.1353,9.0165],[113.1125,-25.1279,8.7338],[113.1101,-25.1255,11.5139],[113.1124,-25.1096,9.1352],[113.1107,-25.1068,18.7339],[113.1133,-25.1049,0.0],[113.1186,-25.0934,3.7061],[113.1201,-25.0853,1.3132],[113.1196,-25.0744,10.5727],[113.1246,-25.0681,0.0],[113.1282,-25.06,0.0],[113.1222,-25.0468,5.0059],[113.1197,-25.0322,0.0],[113.1173,-25.0311,6.4492],[113.1208,-25.0264,0.0],[113.1211,-25.018,15.3205],[113.1246,-25.0114,14.6537]]],
[[[113.6452,-24.8907,2.1824],[113.647,-24.8888,2.0494],[113.6475,-24.8906,2.5028],[113.6518,-24.8892,2.313],[113.6534,-24.8863,0.843],[113.645,-24.8809,0.4273],[113.6405,-24.8853,2.1187],[113.6418,-24.8887,2.694],[113.6452,-24.8907,2.1824]]],
[[[113.639,-24.8858,4.7422],[113.6435,-24.8802,2.7455],[113.6426,-24.8756,2.8821],[113.6438,-24.8711,0.5],[113.6417,-24.8697,0.5],[113.6285,-24.8709,0.0],[113.6259,-24.8728,0.0],[113.6289,-24.876,1.8681],[113.6284,-24.8776,1.8381],[113.6199,-24.8717,0.0],[113.6203,-24.8735,0.0],[113.6347,-24.8866,3.4716],[113.6384,-24.9018,0.0],[113.6388,-24.8977,2.1163],[113.6414,-24.8964,3.1076],[113.6377,-24.8904,3.0],[113.6409,-24.8943,1.7283],[113.6429,-24.8938,1.2413],[113.639,-24.8858,4.7422]]],
[[[113.1607,-24.767,0.0],[113.1605,-24.7552,0.0],[113.1582,-24.7543,0.0],[113.1571,-24.7546,0.0],[113.1576,-24.7569,10.2576],[113.1542,-24.7574,0.0],[113.151,-24.7713,2.8103],[113.1423,-24.7843,10.7624],[113.1398,-24.7935,0.0],[113.1402,-24.8056,2.531],[113.1373,-24.8168,0.0],[113.1377,-24.8218,0.0],[113.128,-24.8441,7.0399],[113.125,-24.8653,0.0],[113.1261,-24.8749,9.4973],[113.1244,-24.8876,0.0],[113.1306,-24.9166,0.0],[113.124,-24.9389,0.0],[113.1254,-24.9407,0.0],[113.1236,-24.9456,0.0],[113.1243,-24.9545,0.0],[113.1213,-24.9603,0.0],[113.119,-24.9869,0.0],[113.1202,-24.9866,0.0],[113.1224,-24.9798,7.8691],[113.1267,-24.9759,1.8014],[113.1255,-24.9735,0.0],[113.129,-24.9716,0.6599],[113.1273,-24.9696,13.2219],[113.1293,-24.9673,5.559],[113.1274,-24.9643,17.2725],[113.1333,-24.9577,23.8881],[113.1322,-24.9562,20.2335],[113.1336,-24.9522,24.5663],[113.1498,-24.9351,12.5693],[113.15,-24.9282,22.8567],[113.1492,-24.9269,3.734],[113.1471,-24.9283,18.4902],[113.1437,-24.9261,8.3086],[113.141,-24.9212,33.0531],[113.1428,-24.9168,0.0],[113.141,-24.9031,31.5954],[113.1426,-24.8979,0.0],[113.1422,-24.8877,0.0],[113.1405,-24.8865,18.0607],[113.1414,-24.8819,12.9308],[113.1386,-24.878,19.1745],[113.1395,-24.8746,19.3016],[113.1378,-24.8711,20.3964],[113.1418,-24.8635,14.8234],[113.1462,-24.8592,2.8342],[113.1489,-24.8514,3.3813],[113.1468,-24.8494,14.451],[113.159,-24.8276,7.8169],[113.1588,-24.8241,14.7995],[113.1614,-24.8211,3.9223],[113.1607,-24.8157,0.5598],[113.1628,-24.8125,4.0835],[113.1623,-24.8088,20.6559],[113.1651,-24.8045,2.4255],[113.1654,-24.7988,3.2263],[113.1632,-24.7953,2.2691],[113.1633,-24.7914,1.2329],[113.1639,-24.7851,6.8978],[113.1664,-24.7818,4.7433],[113.1644,-24.7794,12.8624],[113.1655,-24.7745,0.0],[113.1607,-24.767,0.0]]],
[[[113.6226,-24.8677,2.5877],[113.6287,-24.8644,0.0],[113.6253,-24.8626,0.0],[113.6207,-24.8645,0.0],[113.6183,-24.8639,0.0],[113.6161,-24.8684,0.0],[113.6201,-24.869,0.0],[113.6192,-24.8667,-0.0898],[113.6226,-24.8677,2.5877]]],
[[[113.6187,-24.861,1.0029],[113.619,-24.8628,0.0],[113.6205,-24.8627,0.0],[113.62,-24.8617,0.0],[113.6187,-24.861,1.0029]]],
[[[113.1676,-24.7974,0.0],[113.1668,-24.798,0.0],[113.1686,-24.7986,0.0],[113.1684,-24.798,0.0],[113.1676,-24.7974,0.0]]],
[[[113.1607,-24.7485,0.8844],[113.1595,-24.7494,0.0],[113.1603,-24.7509,0.0],[113.161,-24.7503,0.5222],[113.1607,-24.7485,0.8844]]],
[[[113.4075,-24.4899,1.7509],[113.4084,-24.4904,1.7509],[113.4094,-24.488,2.2903],[113.4087,-24.4879,1.3617],[113.4075,-24.4899,1.7509]]],
[[[114.0715,-25.6904,0.0],[114.0716,-25.6893,0.4185],[114.0675,-25.688,0.0],[114.0684,-25.69,0.0],[114.0715,-25.6904,0.0]]],
[[[114.0663,-25.6836,0.8591],[114.0682,-25.687,0.0],[114.0702,-25.6868,0.0],[114.07,-25.6861,0.0],[114.0663,-25.6836,0.8591]]],
[[[114.0597,-25.6823,0.0],[114.0594,-25.6806,0.0],[114.0567,-25.6802,0.0],[114.0539,-25.677,0.0],[114.0543,-25.68,0.0],[114.0616,-25.6854,0.0],[114.0639,-25.6855,0.0],[114.0636,-25.6839,0.0],[114.0597,-25.6823,0.0]]],
[[[114.0343,-25.6544,1.3985],[114.0331,-25.6534,1.3985],[114.0327,-25.6547,0.0518],[114.0338,-25.655,0.486],[114.0343,-25.6544,1.3985]]],
[[[114.0287,-25.6614,0.0],[114.0244,-25.656,1.1671],[114.0225,-25.6567,0.0],[114.0247,-25.6611,0.37],[114.0287,-25.6614,0.0]]],
[[[114.024,-25.6361,0.2223],[114.024,-25.6372,0.2794],[114.0256,-25.637,0.566],[114.0255,-25.6367,0.566],[114.024,-25.6361,0.2223]]],
[[[114.021,-25.6327,0.3897],[114.0206,-25.6336,1.0066],[114.0221,-25.6344,1.0066],[114.0224,-25.6337,1.0066],[114.021,-25.6327,0.3897]]],
[[[114.0038,-25.6156,0.2995],[114.0036,-25.6151,0.2995],[114.0022,-25.6155,0.2995],[114.0025,-25.6161,0.2995],[114.0038,-25.6156,0.2995]]],
[[[113.9097,-25.399,1.801],[113.9099,-25.4004,1.4517],[113.9115,-25.4016,0.8558],[113.9117,-25.4008,1.9314],[113.9097,-25.399,1.801]]],
[[[113.889,-25.3367,1.7251],[113.8889,-25.3377,1.7251],[113.89,-25.3382,1.6796],[113.8901,-25.3378,1.7251],[113.889,-25.3367,1.7251]]],
[[[113.8855,-25.3323,1.6246],[113.8869,-25.335,1.5389],[113.8879,-25.3351,1.5389],[113.8865,-25.3323,1.6246],[113.8855,-25.3323,1.6246]]],
[[[113.8823,-25.3326,0.5876],[113.8853,-25.3331,1.5258],[113.8831,-25.3299,1.278],[113.8799,-25.3288,0.9076],[113.8768,-25.3236,0.2014],[113.8792,-25.3315,0.5265],[113.8823,-25.3326,0.5876]]],
[[[114.0336,-25.6508,1.4911],[114.0341,-25.6517,1.3775],[114.0352,-25.652,1.5004],[114.0342,-25.6501,1.4911],[114.0336,-25.6508,1.4911]]],
[[[114.0283,-25.6426,0.8042],[114.0257,-25.6437,1.5699],[114.024,-25.6381,0.0],[114.0231,-25.6436,0.6718],[114.0311,-25.6512,1.5353],[114.0314,-25.6471,1.1539],[114.0283,-25.6426,0.8042]]],
[[[114.5108,-23.0183,67.1107],[114.5977,-23.0183,78.9817],[114.5977,-23.0113,79.0173],[114.5561,-22.9832,70.5357],[114.5316,-22.9622,59.6754],[114.5026,-22.9303,52.7286],[114.4794,-22.8999,45.9],[114.4557,-22.8546,38.5392],[114.2002,-22.8548,146.2108],[114.2002,-22.7907,134.2069],[113.8939,-22.7909,50.41],[113.8939,-22.9272,39.1912],[113.8188,-22.9272,0.0],[113.823,-22.9387,0.0],[113.8262,-22.956,2.7251],[113.8248,-22.9736,0.0],[113.8198,-22.9771,3.7221],[113.8265,-22.9867,0.0],[113.8295,-22.9949,4.248],[113.8277,-23.0034,7.9991],[113.8294,-23.0309,14.676],[113.8276,-23.0423,15.3042],[113.8218,-23.0505,0.5765],[113.8125,-23.0828,0.0],[113.8082,-23.0888,0.0],[113.7897,-23.1067,0.0],[113.7606,-23.1205,0.6995],[113.7686,-23.1258,5.1912],[113.7709,-23.1306,0.0],[113.7706,-23.1418,1.509],[113.7681,-23.1422,1.091],[113.7662,-23.1454,6.2192],[113.7684,-23.1525,4.3607],[113.7649,-23.1579,0.0],[113.7664,-23.1688,9.9216],[113.7638,-23.1778,0.0],[113.7645,-23.1804,0.0],[113.7716,-23.1861,7.3334],[113.7744,-23.1946,16.0315],[113.775,-23.2027,8.2419],[113.7704,-23.2178,0.4577],[113.7732,-23.2214,0.0],[113.7762,-23.23,6.5146],[113.776,-23.2339,9.9347],[113.7795,-23.2405,0.0],[113.7797,-23.2458,0.0],[113.7833,-23.2524,0.0],[113.782,-23.2559,0.0],[113.7845,-23.2633,7.8356],[113.7835,-23.2722,0.0],[113.7919,-23.2838,0.0],[113.7944,-23.2961,9.2907],[113.7937,-23.3115,2.1578],[113.7899,-23.3211,0.0],[113.7916,-23.3295,0.0],[113.7888,-23.342,0.7876],[113.7881,-23.3652,4.7794],[113.7862,-23.3707,3.2762],[113.7819,-23.3739,1.04],[113.7792,-23.3737,0.6958],[113.7769,-23.3789,1.073],[113.7765,-23.3915,0.0],[113.7823,-23.4029,1.6231],[113.7817,-23.4107,0.0],[113.7835,-23.4161,0.0],[113.781,-23.423,0.0],[113.7819,-23.435,3.7264],[113.7797,-23.4374,0.0],[113.7821,-23.4411,2.8085],[113.7795,-23.45,0.0],[113.7797,-23.4706,0.0],[113.7773,-23.4808,0.0],[113.7754,-23.4848,5.1314],[113.7702,-23.4867,0.0],[113.7655,-23.4939,0.0],[113.767,-23.498,5.2234],[113.7649,-23.5013,0.0],[113.764,-23.5136,2.9674],[113.7533,-23.528199999999998,4.9281],[113.742,-23.5349,2.2607],[113.7375,-23.5407,0.0],[113.7259,-23.545,1.6469],[113.7195,-23.5514,0.0],[113.7167,-23.5574,4.5179],[113.7127,-23.5595,1.8489],[113.7005,-23.5752,0.7085],[113.6745,-23.5905,0.0],[113.6509,-23.5996,1.3412],[113.6434,-23.6124,0.0],[113.6362,-23.6189,4.9768],[113.6282,-23.6235,1.8852],[113.6207,-23.6239,0.0],[113.6132,-23.6309,0.758],[113.6127,-23.6364,0.0],[113.6153,-23.6415,2.4728],[113.6142,-23.6467,0.0],[113.6108,-23.6521,0.0],[113.6033,-23.6556,0.0],[113.5966,-23.6634,0.0],[113.596,-23.6751,0.0],[113.5925,-23.6822,0.0],[113.5908,-23.6915,5.9532],[113.5917,-23.6989,6.1007],[113.5834,-23.7077,0.7911],[113.5791,-23.716,0.0],[113.5768,-23.7213,0.0],[113.5786,-23.7262,2.0109],[113.5673,-23.7522,0.0],[113.5637,-23.7579,0.0],[113.555,-23.7656,0.0],[113.5459,-23.767,2.1791],[113.5402,-23.7641,0.0],[113.5384,-23.7698,2.1962],[113.5319,-23.7748,0.0],[113.53,-23.7811,0.0],[113.527,-23.7833,0.0],[113.5202,-23.7976,0.0],[113.5217,-23.8074,5.1259],[113.5193,-23.8152,0.0],[113.5185,-23.8314,4.1906],[113.5138,-23.8473,1.2806],[113.4986,-23.8676,1.1592],[113.4971,-23.8732,5.4506],[113.4893,-23.8803,4.0593],[113.4812,-23.8851,2.3185],[113.4703,-23.8986,4.8819],[113.4718,-23.9027,16.3719],[113.4702,-23.9064,7.2372],[113.4715,-23.9114,19.1017],[113.4652,-23.9224,4.4453],[113.465,-23.9256,8.9795],[113.4693,-23.9475,28.1744],[113.4694,-23.9628,21.951],[113.4709,-23.9665,3.4687],[113.4666,-23.9771,0.0],[113.4656,-23.9894,4.5619],[113.4614,-23.9987,3.088],[113.4587,-24.0136,0.0],[113.4469,-24.0322,0.0],[113.444,-24.0327,0.0],[113.4404,-24.0303,0.0],[113.43,-24.0327,0.0],[113.4222,-24.0429,0.0],[113.4279,-24.0558,2.1847],[113.4281,-24.0807,15.1592],[113.4265,-24.0842,16.9795],[113.4194,-24.0903,4.3454],[113.4223,-24.0988,5.5178],[113.4418,-24.1344,16.6759],[113.4447,-24.1464,7.7196],[113.4428,-24.1522,7.2958],[113.4433,-24.1817,10.942],[113.4295,-24.2044,0.0],[113.4091,-24.2235,7.0412],[113.3953,-24.2241,0.0],[113.3916,-24.2225,0.0],[113.3902,-24.224,0.0],[113.3956,-24.2495,1.5857],[113.3965,-24.2647,0.0],[113.4054,-24.2942,29.4131],[113.4062,-24.3031,19.3963],[113.4054,-24.3234,23.5461],[113.4031,-24.3313,0.0],[113.4045,-24.333,0.0],[113.4038,-24.336,3.1696],[113.4072,-24.3506,4.254],[113.4073,-24.3621,0.5663],[113.4035,-24.3667,0.5652],[113.4044,-24.3711,0.0],[113.4022,-24.375,0.0],[113.4032,-24.3975,0.0],[113.4007,-24.4005,0.0],[113.3995,-24.4114,2.9103],[113.404,-24.4398,0.0],[113.4048,-24.4716,0.0],[113.407,-24.4842,0.8409],[113.4136,-24.4898,0.7368],[113.4192,-24.4917,1.1583],[113.4219,-24.4962,5.5789],[113.4276,-24.5156,0.0],[113.4356,-24.5216,0.0],[113.4436,-24.5365,0.0],[113.4493,-24.5429,1.4049],[113.4719,-24.5577,7.0353],[113.4899,-24.576,8.0116],[113.5187,-24.6184,0.0],[113.5395,-24.6395,8.8884],[113.5663,-24.6754,6.6466],[113.5766,-24.6845,10.1429],[113.5952,-24.7106,1.8315],[113.6173,-24.7363,5.8379],[113.6232,-24.746,0.0],[113.6291,-24.7602,0.0],[113.6323,-24.7729,0.0],[113.6327,-24.7974,0.0],[113.6301,-24.8177,0.0],[113.6225,-24.8317,0.0],[113.6264,-24.8289,2.0375],[113.6206,-24.8435,2.0141],[113.6202,-24.8497,2.3861],[113.62,-24.8363,2.1406],[113.6229,-24.8345,1.9767],[113.6227,-24.8335,1.9767],[113.6195,-24.8345,0.491],[113.6209,-24.8318,0.0],[113.6187,-24.8336,0.0],[113.6182,-24.8447,0.0],[113.6159,-24.8445,0.0],[113.6175,-24.8586,2.1353],[113.6184,-24.8545,1.2704],[113.6204,-24.8604,1.7636],[113.6276,-24.8613,2.3322],[113.6311,-24.8596,2.5666],[113.6293,-24.8624,2.3322],[113.6304,-24.8641,0.0],[113.6381,-24.8627,3.4192],[113.647,-24.8645,4.8067],[113.6634,-24.8541,6.2871],[113.6765,-24.8487,7.5535],[113.6793,-24.8498,5.4343],[113.6849,-24.8489,8.9293],[113.7006,-24.8527,10.385],[113.7069,-24.8507,11.3756],[113.7055,-24.8549,5.6346],[113.6805,-24.8563,6.1841],[113.6661,-24.862,4.2744],[113.6615,-24.8683,1.0],[113.6492,-24.8714,1.9838],[113.6461,-24.8782,2.5987],[113.6442,-24.8791,1.3687],[113.647,-24.8797,1.139],[113.6497,-24.8827,0.9866],[113.6532,-24.8834,0.6438],[113.6552,-24.8822,3.5157],[113.6555,-24.8868,0.0],[113.6532,-24.8921,0.5183],[113.6469,-24.8992,0.3969],[113.6498,-24.9052,0.0],[113.6494,-24.9001,4.4133],[113.6515,-24.8977,2.6004],[113.6524,-24.9051,1.1343],[113.6564,-24.9018,1.1451],[113.6558,-24.8992,2.5991],[113.6651,-24.8959,4.0377],[113.663,-24.8985,2.0337],[113.6692,-24.9022,2.2399],[113.6704,-24.9107,0.4211],[113.6742,-24.9156,0.9691],[113.6778,-24.925,0.3982],[113.6864,-24.9292,1.6711],[113.6919,-24.9285,1.7321],[113.6877,-24.9306,1.0547],[113.6881,-24.9326,1.3356],[113.6799,-24.933,0.3528],[113.68,-24.9393,1.3111],[113.6742,-24.9394,0.0],[113.6758,-24.9438,1.2436],[113.672,-24.9437,0.4072],[113.67,-24.9457,0.0],[113.6706,-24.9492,0.3641],[113.6672,-24.9524,0.0],[113.6681,-24.9558,0.2372],[113.6642,-24.9587,0.0],[113.6622,-24.9667,0.0],[113.6646,-25.0182,2.5357],[113.6742,-25.043,0.9108],[113.6869,-25.0606,0.5737],[113.6977,-25.0866,2.6696],[113.7247,-25.1155,2.0651],[113.7432,-25.129,2.3264],[113.758,-25.1319,2.1389],[113.7628,-25.1348,1.0432],[113.7696,-25.1363,1.8044],[113.7892,-25.1546,0.0],[113.8022,-25.1573,1.7783],[113.8033,-25.1597,1.7004],[113.811,-25.1652,1.5154],[113.8114,-25.1697,0.9489],[113.8171,-25.1736,0.6062],[113.8176,-25.1758,1.3235],[113.8157,-25.1756,0.2281],[113.8164,-25.179,0.0],[113.82,-25.183,0.8363],[113.8211,-25.1887,1.352],[113.8296,-25.1995,1.6202],[113.8303,-25.2074,0.5655],[113.8329,-25.2109,0.9228],[113.8369,-25.2102,1.4603],[113.8396,-25.217,1.4629],[113.8375,-25.2204,2.5119],[113.8397,-25.223,1.4656],[113.8482,-25.2569,1.2528],[113.8463,-25.2595,0.5938],[113.8421,-25.2559,0.2994],[113.8403,-25.2588,0.8344],[113.8426,-25.2646,0.0],[113.8472,-25.2701,0.3414],[113.8573,-25.2761,1.5319],[113.8715,-25.2903,1.9696],[113.8695,-25.2908,1.3421],[113.8649,-25.2876,1.2548],[113.8704,-25.2981,1.0633],[113.8686,-25.2993,0.3228],[113.8567,-25.2925,0.0],[113.8624,-25.2976,0.9877],[113.8761,-25.3175,1.2481],[113.8835,-25.3234,1.9023],[113.8913,-25.337,2.4697],[113.8935,-25.3455,3.3226],[113.8921,-25.3475,0.7683],[113.8942,-25.3504,1.5811],[113.8927,-25.352,0.0],[113.8967,-25.3574,1.6067],[113.8952,-25.3608,0.8221],[113.896,-25.3642,0.9348],[113.8933,-25.366,0.5333],[113.8951,-25.3735,1.2647],[113.8921,-25.371,0.4755],[113.8911,-25.373,1.5692],[113.8983,-25.3839,1.5341],[113.8983,-25.3875,1.7803],[113.9045,-25.3952,0.4554],[113.9138,-25.4009,1.9694],[113.9081,-25.4067,1.051],[113.9136,-25.4135,1.2035],[113.9089,-25.4102,0.6647],[113.902,-25.4101,0.0],[113.9099,-25.4197,0.3146],[113.925,-25.433,1.2771],[113.9291,-25.4427,1.5044],[113.9442,-25.4587,1.8087],[113.9423,-25.4609,1.6737],[113.9484,-25.4772,1.7084],[113.9412,-25.4732,1.8659],[113.9397,-25.4802,1.7449],[113.9392,-25.4706,1.4613],[113.9377,-25.4773,1.2812],[113.9345,-25.4745,0.0],[113.934,-25.4755,0.0],[113.9377,-25.4812,0.7883],[113.945,-25.4861,2.2117],[113.9488,-25.4919,2.3913],[113.9523,-25.4941,2.346],[113.9545,-25.4934,1.9736],[113.9529,-25.4963,1.6755],[113.9649,-25.5145,0.0],[113.9667,-25.521,0.0],[113.9702,-25.5262,0.0],[113.9706,-25.5308,0.0],[113.9767,-25.5379,0.0],[113.9803,-25.5492,0.0],[113.9863,-25.555,0.8761],[113.9916,-25.5649,1.0267],[113.9917,-25.5751,0.9965],[113.9872,-25.562,0.0],[113.9856,-25.5621,0.0],[113.9846,-25.5668,0.0],[113.9844,-25.5604,0.0],[113.9822,-25.5608,0.0],[113.9836,-25.5677,0.0],[113.9874,-25.5675,0.8671],[113.9894,-25.5758,0.0],[113.9871,-25.5754,0.0],[113.9876,-25.5791,0.0],[113.9913,-25.5861,0.0],[113.9902,-25.5899,0.0],[113.9968,-25.599,0.2733],[113.9977,-25.5981,0.2733],[113.9947,-25.5897,0.0],[113.9969,-25.5906,0.0],[113.9987,-25.5969,0.0],[114.0031,-25.5999,0.3979],[114.0153,-25.6169,0.3297],[113.9995,-25.6022,1.7283],[114.0003,-25.6072,0.2985],[114.0042,-25.6086,0.7242],[114.0154,-25.6205,0.0],[114.0051,-25.6167,1.0911],[114.0042,-25.6185,0.3062],[114.0197,-25.6323,1.0123],[114.0182,-25.6296,0.295],[114.0218,-25.631,1.6047],[114.0168,-25.6271,0.244],[114.0162,-25.6241,0.9316],[114.018,-25.6231,0.0],[114.0192,-25.6241,0.2116],[114.0327,-25.6472,1.1539],[114.0363,-25.6495,1.4888],[114.041,-25.6602,0.2805],[114.0484,-25.6673,1.4257],[114.0468,-25.6675,0.915],[114.0416,-25.662,0.9321],[114.0363,-25.6594,1.295],[114.0349,-25.6599,0.7974],[114.0354,-25.6625,0.0],[114.0452,-25.669,0.0],[114.0585,-25.6749,0.0],[114.0619,-25.679,0.0],[114.0693,-25.6817,1.2199],[114.0688,-25.684,0.2474],[114.0776,-25.6864,1.7037],[114.0835,-25.6915,1.5384],[114.0833,-25.6936,0.0],[114.0911,-25.6964,1.0821],[114.1056,-25.7126,1.4901],[114.1093,-25.7189,1.7963],[114.1196,-25.7282,1.7457],[114.1183,-25.729,1.7293],[114.1136,-25.7255,0.6622],[114.1222,-25.736,1.7682],[114.1225,-25.7373,0.701],[114.1192,-25.74,0.0],[114.1149,-25.7403,0.0],[114.1141,-25.7432,0.0],[114.1152,-25.7458,0.0],[114.1219,-25.7495,0.0],[114.1178,-25.749,0.0],[114.1194,-25.7553,0.0],[114.1237,-25.7602,0.0],[114.1324,-25.7639,0.0],[114.1281,-25.7631,0.0],[114.1334,-25.7717,0.0],[114.1355,-25.7716,0.0],[114.1359,-25.7687,0.0],[114.1383,-25.7698,0.0],[114.1463,-25.7802,1.7768],[114.1452,-25.7823,0.0],[114.1417,-25.7794,1.5745],[114.1403,-25.7803,0.3596],[114.1325,-25.7723,0.0],[114.1345,-25.7781,0.0],[114.1522,-25.7882,0.0],[114.1647,-25.8057,0.0],[114.1684,-25.8061,0.2846],[114.1634,-25.8028,0.9045],[114.1664,-25.8016,1.4538],[114.1721,-25.8064,1.619],[114.1755,-25.8127,1.7694],[114.1714,-25.8126,1.6803],[114.1685,-25.8096,0.0],[114.168,-25.8113,0.0],[114.1845,-25.8226,0.81],[114.1842,-25.8237,0.0],[114.1811,-25.8226,0.0],[114.1822,-25.8243,0.0],[114.1896,-25.8268,1.3114],[114.1866,-25.8278,0.0],[114.1909,-25.83,0.0],[114.1918,-25.8322,0.0],[114.1966,-25.8339,0.7751],[114.1934,-25.8348,0.0],[114.1987,-25.8356,0.2779],[114.1984,-25.8368,0.0],[114.2026,-25.8405,0.2438],[114.2071,-25.8518,0.0],[114.2054,-25.853,0.0],[114.2101,-25.8545,0.5445],[114.2129,-25.8577,0.2656],[114.2205,-25.8588,0.0],[114.2239,-25.86,0.0],[114.2233,-25.8615,0.0],[114.227,-25.862,0.0],[114.2301,-25.867,0.0],[114.2266,-25.8679,0.0],[114.2264,-25.8698,0.0],[114.2332,-25.8687,0.0],[114.231,-25.871,0.0],[114.2333,-25.8742,0.0],[114.2321,-25.8757,0.0],[114.2457,-25.8806,0.0],[114.2591,-25.8807,1.3652],[114.2668,-25.8877,1.383],[114.2646,-25.8963,0.0],[114.2582,-25.9046,0.6387],[114.2553,-25.913,0.3679],[114.2481,-25.9235,0.6852],[114.2475,-25.9278,0.7717],[114.2491,-25.9326,3.2065],[114.247,-25.9365,3.9379],[114.2494,-25.947,3.161],[114.2472,-25.9556,2.4842],[114.252,-25.9631,0.0],[114.2529,-25.973,0.0],[114.2576,-25.9833,0.0],[114.2647,-25.9808,1.4189],[114.2653,-25.9821,1.289],[114.2569,-25.9897,0.4165],[114.245,-25.9926,0.0],[114.2319,-25.9868,0.0],[114.2236,-25.9874,1.3159],[114.2235,-25.9783,0.677],[114.2257,-25.9737,0.7995],[114.2184,-25.9689,0.8232],[114.215,-25.9696,1.5439],[114.2111,-25.9736,0.6558],[114.2072,-25.9735,0.3427],[114.1979,-25.9784,2.6193],[114.1947,-25.9836,0.0],[114.1968,-25.9987,0.4844],[114.2015,-26.0039,1.7421],[114.1983,-26.0057,1.5545],[114.2051,-26.0111,2.461],[114.2096,-26.0171,0.4846],[114.2103,-26.0207,2.12],[114.2085,-26.0235,1.8184],[114.2103,-26.029,1.5734],[114.2091,-26.0316,0.5277],[114.2231,-26.044,3.1337],[114.2247,-26.0497,3.1647],[114.2226,-26.0565,2.1966],[114.2281,-26.0611,0.8049],[114.2315,-26.0665,0.9735],[114.2329,-26.0675,2.1538],[114.2331,-26.0663,2.1538],[114.2373,-26.0702,1.8503],[114.2374,-26.0751,1.2518],[114.2382,-26.0715,1.7241],[114.2393,-26.0727,3.0063],[114.2388,-26.077,2.7544],[114.24,-26.0763,2.7544],[114.2405,-26.079,2.6945],[114.2396,-26.0839,2.602],[114.2405,-26.0834,2.602],[114.2409,-26.086,2.6537],[114.2371,-26.0991,1.0229],[114.2338,-26.1047,0.0],[114.2377,-26.1111,0.0],[114.2357,-26.1118,0.2769],[114.2358,-26.1133,0.0],[114.2385,-26.1159,0.0],[114.236,-26.1178,0.0],[114.2398,-26.1235,0.0],[114.2468,-26.127,0.2673],[114.2473,-26.1343,1.7315],[114.2455,-26.1335,0.8138],[114.2452,-26.1355,1.0656],[114.2539,-26.1432,0.4794],[114.2584,-26.1437,4.3864],[114.3528,-26.1437,25.1962],[114.3528,-25.9987,29.599],[114.7579,-25.9986,133.1515],[114.7579,-25.9411,143.8274],[114.8493,-25.9411,129.8916],[114.8493,-25.8746,119.8813],[114.9914,-25.8746,152.4636],[114.9914,-25.5751,151.4246],[114.9446,-25.5751,139.954],[114.9446,-25.4418,136.3834],[114.9394,-25.4341,132.9904],[114.9394,-25.4158,139.0515],[114.9446,-25.4028,145.0267],[114.9446,-25.3489,145.528],[114.8065,-25.349,122.0616],[114.8065,-25.288,126.1331],[114.8966,-25.288,138.859],[114.8966,-25.207,139.7621],[114.807,-25.207,138.6916],[114.8067,-24.9655,111.9355],[114.8104,-24.9656,111.6222],[114.8104,-24.9611,107.469],[114.8151,-24.9613,109.3647],[114.8172,-24.9515,110.3633],[114.821,-24.9514,112.6382],[114.821,-24.9107,126.6533],[114.9699,-24.9105,156.5446],[114.9699,-24.9169,151.9447],[115.0384,-24.9168,204.452],[115.0384,-24.9127,221.3534],[115.1283,-24.9126,226.8991],[115.1283,-24.8661,263.9787],[115.1677,-24.8661,240.5242],[115.1677,-24.7935,241.7507],[115.1836,-24.7935,326.3603],[115.1836,-24.6484,218.8608],[115.149,-24.6484,360.2697],[115.149,-24.5778,352.9358],[114.988,-24.5795,316.5211],[114.988,-24.4554,311.3941],[114.995,-24.4555,311.2535],[114.995,-24.239,322.7901],[115.0338,-24.239,292.4238],[115.0337,-24.2372,259.5771],[115.1132,-24.2377,306.4567],[115.1125,-24.1225,280.757],[115.2109,-24.1186,233.9024],[115.2107,-24.2242,254.4547],[115.3854,-24.2246,256.2113],[115.3845,-24.2739,251.0847],[115.4448,-24.2739,247.2592],[115.4448,-24.2417,250.2833],[115.4624,-24.2417,248.2163],[115.4624,-24.1691,258.8499],[115.4812,-24.1691,248.4349],[115.4812,-24.0873,263.5139],[115.4769,-24.0873,263.4689],[115.4769,-24.006,295.3933],[115.4051,-24.006,279.4025],[115.4052,-23.9619,260.7589],[115.408,-23.9564,262.4203],[115.4085,-23.95,266.414],[115.4051,-23.9474,262.5612],[115.4056,-23.9295,262.9476],[115.4024,-23.9219,262.7571],[115.4059,-23.9105,273.3544],[115.4166,-23.8949,267.83],[115.4196,-23.8878,265.4343],[115.4287,-23.8475,261.7444],[115.4288,-23.8425,265.4585],[115.4175,-23.8041,270.3058],[115.4252,-23.7993,284.414],[115.4705,-23.7995,295.0716],[115.4705,-23.7787,282.0333],[115.5692,-23.7787,308.5334],[115.569,-23.6754,330.8357],[115.6048,-23.6753,349.0113],[115.6047,-23.5754,261.157],[115.5257,-23.5754,308.0152],[115.5257,-23.4868,229.6165],[115.524,-23.4867,228.8453],[115.5321,-23.4847,231.6113],[115.4781,-23.4847,226.1485],[115.478,-23.3921,207.9636],[115.1955,-23.3921,193.689],[115.1955,-23.4523,190.3112],[114.7372,-23.4523,141.2914],[114.7374,-23.3897,119.4813],[114.6319,-23.3897,105.7312],[114.6321,-23.2424,95.9904],[114.6897,-23.2437,103.6094],[114.6885,-23.1475,96.8823],[114.526,-23.1462,78.8319],[114.5285,-23.0744,76.9246],[114.4794,-23.0738,78.489],[114.4794,-23.0183,68.0947],[114.5108,-23.0183,67.1107]]]]}}