{"type":"Feature","properties":{"GID_2":"AUS.8.68_1","GID_0":"AUS","country":"Australia","GID_1":"AUS.8_1","state":"SouthAustralia","NL_NAME_1":"NA","county":"Whyalla","VARNAME_2":"NA","NL_NAME_2":"NA","TYPE_2":"City","ENGTYPE_2":"City","CC_2":"48540","HASC_2":"AU.SA.WH","name":"Whyalla.county"},
"geometry":{"type": "MultiPolygon","coordinates": [[[[137.3783,-33.3259,0.0],[137.3781,-33.321,1.1908],[137.3811,-33.3137,2.0483],[137.3801,-33.3079,0.7665],[137.3792,-33.3088,1.8361],[137.3807,-33.3049,1.1473],[137.3788,-33.3061,1.4147],[137.3788,-33.3036,0.9712],[137.3845,-33.2985,0.6128],[137.3817,-33.2998,2.1892],[137.3832,-33.2968,0.9404],[137.3805,-33.296,1.107],[137.3788,-33.2984,2.2487],[137.3764,-33.2988,0.725],[137.3788,-33.2966,1.1621],[137.3744,-33.2927,1.0832],[137.3845,-33.296,1.3248],[137.3854,-33.2983,0.6128],[137.3858,-33.295,1.3248],[137.3888,-33.2922,1.6739],[137.3835,-33.2909,0.8751],[137.3883,-33.2904,0.9656],[137.3893,-33.2919,1.6739],[137.3937,-33.2899,0.7081],[137.3925,-33.2895,1.7402],[137.3932,-33.2871,1.6416],[137.3918,-33.2885,2.3885],[137.3892,-33.2878,0.8305],[137.3897,-33.2853,1.1213],[137.3942,-33.2832,0.8567],[137.393,-33.2853,1.5754],[137.3946,-33.2864,1.5856],[137.3975,-33.2853,1.8052],[137.3979,-33.281,1.1527],[137.3958,-33.2823,1.1938],[137.3961,-33.2797,0.946],[137.3986,-33.2792,1.2088],[137.3994,-33.2763,0.9203],[137.408,-33.2722,2.085],[137.4088,-33.2708,1.471],[137.4059,-33.2712,1.0105],[137.4061,-33.2697,1.0105],[137.4079,-33.2701,1.471],[137.411,-33.2678,1.2103],[137.4102,-33.2646,1.1115],[137.4143,-33.2556,1.1724],[137.4237,-33.2469,0.0],[137.4237,-33.2433,0.604],[137.431,-33.2338,0.4492],[137.4312,-33.2315,1.3292],[137.4342,-33.2299,0.0748],[137.4335,-33.2295,1.3048],[137.4299,-33.2322,1.3292],[137.4323,-33.2293,1.3048],[137.4319,-33.226,1.2088],[137.4389,-33.2166,1.61],[137.4382,-33.1984,1.2532],[137.4405,-33.1948,1.1787],[137.4391,-33.1827,1.1019],[137.4432,-33.1717,1.1488],[137.442,-33.1597,1.4233],[137.4413,-33.1611,1.6057],[137.4423,-33.1565,1.667],[137.4434,-33.1559,2.1769],[137.4423,-33.1522,1.3695],[137.4464,-33.1461,0.9913],[137.4441,-33.1486,1.2045],[137.4441,-33.1465,1.8168],[137.4491,-33.1423,1.2972],[137.4483,-33.1398,1.3452],[137.4498,-33.1405,1.3452],[137.4533,-33.1359,1.2171],[137.452,-33.1307,1.4653],[137.455,-33.1329,1.419],[137.4561,-33.1309,0.9304],[137.4543,-33.1295,1.1176],[137.4564,-33.1298,1.2469],[137.4566,-33.1349,1.2751],[137.4549,-33.1338,1.3048],[137.4541,-33.1356,1.2171],[137.4576,-33.1356,1.2751],[137.4573,-33.1324,1.4123],[137.462,-33.1287,0.6193],[137.4689,-33.1295,1.2546],[137.4668,-33.1285,1.0338],[137.4738,-33.125,0.0],[137.4861,-33.1247,0.0],[137.4843,-33.1227,1.6765],[137.485,-33.1213,1.6765],[137.4901,-33.1214,1.7002],[137.493,-33.1173,1.5901],[137.4971,-33.117,1.9612],[137.4966,-33.113,1.5479],[137.4985,-33.1128,1.0317],[137.4977,-33.1112,1.0297],[137.4998,-33.1096,0.9203],[137.5079,-33.1068,1.3109],[137.5089,-33.1084,1.7244],[137.5116,-33.1078,1.7793],[137.5173,-33.1033,1.6364],[137.5223,-33.1022,0.0],[137.5235,-33.0987,1.3423],[137.5263,-33.0968,0.353],[137.536,-33.0948,0.968],[137.5376,-33.091,1.495],[137.5416,-33.0885,0.2569],[137.5385,-33.0896,1.495],[137.539,-33.0878,1.5798],[137.5359,-33.0865,0.7866],[137.5387,-33.0843,1.0729],[137.5387,-33.0821,0.9693],[137.5427,-33.0786,1.0173],[137.5455,-33.0793,1.2245],[137.5445,-33.0783,1.0173],[137.5513,-33.072,1.9887],[137.5499,-33.0703,1.1809],[137.5539,-33.0695,0.9387],[137.5439,-33.0424,6.7982],[137.5555,-33.0399,4.8006],[137.563,-33.0404,4.1422],[137.563,-33.0491,1.2332],[137.5659,-33.0483,2.531],[137.5671,-33.0507,2.5347],[137.5701,-33.0511,1.151],[137.5698,-33.0479,2.2503],[137.5734,-33.0449,2.1589],[137.5901,-33.0404,1.9292],[137.5883,-33.039,16.9096],[137.5903,-33.0361,20.9716],[137.588,-33.035,21.628],[137.5889,-33.0337,13.1302],[137.5724,-33.0246,39.5618],[137.5748,-33.0213,27.3925],[137.5761,-33.0097,14.5905],[137.5831,-32.9845,17.818],[137.5745,-32.9465,21.9812],[137.617,-32.9376,4.073],[137.6231,-32.9247,4.3953],[137.6341,-32.9176,4.1249],[137.6396,-32.9165,4.5936],[137.6639,-32.9353,3.3637],[137.6684,-32.9501,2.5615],[137.6675,-32.9541,2.0258],[137.6946,-32.9609,5.1027],[137.6967,-32.9655,0.4575],[137.7018,-32.9703,2.5154],[137.7133,-32.9745,2.949],[137.7137,-32.978,2.0316],[137.7202,-32.9859,22.3843],[137.7213,-32.9905,2.3596],[137.7478,-32.9954,5.1028],[137.7603,-32.9954,0.0],[137.7569,-32.9903,2.0037],[137.7592,-32.989,4.9173],[137.7672,-32.9945,0.3058],[137.7691,-32.9928,7.1794],[137.7769,-32.9926,3.7898],[137.7838,-32.9977,4.4752],[137.7831,-33.0007,0.0],[137.7865,-32.9999,0.0],[137.7865,-32.9974,0.0],[137.7824,-32.9929,3.7341],[137.78,-32.9801,0.8346],[137.7742,-32.9689,6.0777],[137.7596,-32.9495,0.0],[137.7557,-32.9363,2.1711],[137.7504,-32.9271,7.2429],[137.7495,-32.9215,4.3839],[137.7533,-32.9099,1.1099],[137.7583,-32.9074,2.0405],[137.7626,-32.9105,0.6828],[137.7689,-32.91,1.0373],[137.7723,-32.9132,0.0],[137.7893,-32.9152,2.5581],[137.789,-32.9114,10.0173],[137.7924,-32.9097,1.9635],[137.7919,-32.9045,4.8213],[137.794,-32.8991,0.0],[137.7983,-32.8935,0.0],[137.7971,-32.8842,1.6791],[137.7918,-32.871,1.5433],[137.796,-32.8678,9.0752],[137.8005,-32.8681,0.0],[137.8008,-32.8652,3.2092],[137.7982,-32.8622,0.3804],[137.81,-32.8528,2.7143],[137.8073,-32.8497,5.4423],[137.8106,-32.8453,2.292],[137.81,-32.8416,7.6426],[137.8077,-32.8407,3.6491],[137.8093,-32.8374,2.8183],[137.8086,-32.8329,0.3168],[137.8063,-32.8301,0.7582],[137.8032,-32.8179,0.87],[137.8045,-32.8117,0.1067],[137.8019,-32.807,8.8224],[137.8036,-32.7969,1.2773],[137.7995,-32.7929,2.2515],[137.7984,-32.7895,1.2615],[137.7988,-32.7794,1.7937],[137.7985,-32.7847,1.2663],[137.7975,-32.7801,1.2605],[137.7975,-32.7845,1.6355],[137.7932,-32.78,2.1024],[137.7942,-32.7779,4.3796],[137.7974,-32.7772,3.4261],[137.8016,-32.7652,2.4855],[137.6147,-32.8775,11.9182],[137.5067,-32.8776,71.129],[137.3134,-33.0094,101.4869],[137.3135,-33.1544,119.8657],[137.2788,-33.1544,121.082],[137.2791,-33.3261,94.3187],[137.3783,-33.3259,0.0]],
[[137.5315,-33.0094,37.4089],[137.5403,-33.0119,32.9122],[137.5395,-33.0135,30.0707],[137.5329,-33.0131,26.3701],[137.5315,-33.0094,37.4089]],
[[137.5677,-33.0227,35.2454],[137.5305,-33.0072,44.3131],[137.5126,-32.9597,65.762],[137.5737,-32.9467,21.9812],[137.5822,-32.9838,17.818],[137.5768,-33.0003,14.0938],[137.5743,-33.0205,29.0581],[137.5722,-33.0245,33.275],[137.5677,-33.0227,35.2454]]]]}}