{"type":"Feature","properties":{"GID_2":"AUS.10.48_1","GID_0":"AUS","country":"Australia","GID_1":"AUS.10_1","state":"Victoria","NL_NAME_1":"NA","county":"Moira","VARNAME_2":"NA","NL_NAME_2":"NA","TYPE_2":"Shire","ENGTYPE_2":"Shire","CC_2":"24900","HASC_2":"AU.VI.MI","name":"Moira.county"},
"geometry":{"type": "MultiPolygon","coordinates": [[[[145.3602,-35.8618,101.4691],[145.3582,-35.866,97.8756],[145.354,-35.8668,100.2815],[145.3501,-35.8605,97.5129],[145.3415,-35.8624,97.5136],[145.3334,-35.855,101.7833],[145.3275,-35.8536,100.3123],[145.3244,-35.8507,98.453],[145.3182,-35.855,102.6781],[145.3123,-35.8556,98.1054],[145.309,-35.8605,108.635],[145.3017,-35.8585,101.2779],[145.2965,-35.8606,100.3949],[145.2931,-35.8586,96.7465],[145.2927,-35.8538,98.8482],[145.284,-35.8565,106.2853],[145.2831,-35.8548,102.1247],[145.285,-35.8507,97.694],[145.2786,-35.8533,101.5636],[145.2772,-35.8492,96.6513],[145.2727,-35.8452,100.037],[145.2706,-35.8459,96.3588],[145.2671,-35.8524,98.89],[145.262,-35.8499,98.6684],[145.2583,-35.8506,98.2603],[145.258,-35.848,96.3919],[145.2642,-35.8422,98.0878],[145.2596,-35.8394,96.1934],[145.2608,-35.8355,96.5451],[145.253,-35.835,104.3924],[145.2462,-35.8303,96.5564],[145.2405,-35.8337,98.749],[145.2369,-35.8324,96.0414],[145.2353,-35.8297,98.1677],[145.2291,-35.8333,98.2197],[145.225,-35.8322,96.7681],[145.223,-35.8358,102.3481],[145.2201,-35.8367,94.7698],[145.2244,-35.8396,103.7603],[145.2228,-35.8424,98.3937],[145.2159,-35.8414,105.3671],[145.2171,-35.8376,95.3696],[145.2152,-35.8362,102.4768],[145.2123,-35.8358,96.2824],[145.2074,-35.838,106.4764],[145.1978,-35.8348,105.5984],[145.1934,-35.8376,94.5472],[145.1898,-35.8343,95.4613],[145.1826,-35.8353,95.8594],[145.1823,-35.8409,96.131],[145.181,-35.842,102.5411],[145.1718,-35.8387,96.7897],[145.1681,-35.8425,96.0902],[145.1536,-35.8431,101.8284],[145.1529,-35.8412,97.1216],[145.1575,-35.8381,95.46],[145.1586,-35.8307,95.5795],[145.1547,-35.8303,101.7784],[145.1478,-35.8335,98.2552],[145.1396,-35.8285,93.8299],[145.1387,-35.8331,97.8748],[145.1366,-35.8342,93.5682],[145.1343,-35.832,95.1146],[145.134,-35.8274,96.8028],[145.1306,-35.8282,99.7105],[145.1286,-35.8269,95.4098],[145.128,-35.8208,94.4707],[145.1262,-35.8217,95.1173],[145.1274,-35.8284,92.5],[145.1259,-35.8298,99.0041],[145.1227,-35.8275,98.5091],[145.1223,-35.8208,94.9011],[145.1153,-35.826,91.062],[145.1139,-35.8243,96.5774],[145.1155,-35.8211,92.7896],[145.1142,-35.8205,92.347],[145.104,-35.8286,95.0635],[145.0995,-35.8258,93.113],[145.0922,-35.8359,91.0142],[145.0894,-35.8309,92.794],[145.0934,-35.8279,92.2617],[145.09,-35.8255,93.7253],[145.0845,-35.828,94.2623],[145.0774,-35.8274,91.1912],[145.0779,-35.8307,91.0252],[145.0765,-35.8318,98.7757],[145.0752,-35.8308,92.2276],[145.0755,-35.8273,91.5932],[145.0741,-35.8267,91.5932],[145.0718,-35.8332,91.9845],[145.0614,-35.8372,93.1039],[145.0538,-35.8352,91.7315],[145.0544,-35.8377,91.1995],[145.0509,-35.8387,94.918],[145.0494,-35.837,93.6313],[145.0516,-35.8341,92.713],[145.0496,-35.8337,94.2387],[145.041,-35.8417,95.1386],[145.0394,-35.8411,92.2177],[145.0388,-35.8384,93.1622],[145.037,-35.842,98.8478],[145.0378,-35.8454,96.5709],[145.0362,-35.847,93.0826],[145.0299,-35.8496,96.0751],[145.0246,-35.8471,93.001],[145.0228,-35.8534,101.3707],[145.0191,-35.8566,98.5609],[145.0132,-35.8577,93.9171],[145.007,-35.8562,91.5712],[145.0006,-35.8493,94.6124],[144.9999,-35.8548,95.0549],[144.9933,-35.8522,94.3411],[144.992,-35.8526,94.3411],[144.9939,-35.8542,99.1496],[144.9932,-35.856,99.9399],[144.9913,-35.8564,93.7125],[144.9897,-35.8547,93.7534],[144.9913,-35.8591,91.1778],[144.985,-35.8575,96.0406],[144.982,-35.8599,97.9719],[144.9793,-35.8584,93.228],[144.9751,-35.8609,93.4942],[144.9709,-35.861,94.3509],[144.9709,-35.8634,93.3118],[144.9682,-35.8657,92.614],[144.9697,-35.8679,96.1586],[144.9689,-35.8711,92.3771],[144.9725,-35.8745,91.7347],[144.9697,-35.8786,91.6367],[144.975,-35.8836,97.2504],[144.9727,-35.8883,93.2891],[144.9648,-35.8958,96.6457],[144.9673,-35.9011,100.2744],[144.967,-35.9052,102.8529],[144.965,-35.9056,91.5824],[144.9619,-35.9115,96.4822],[144.9586,-35.9116,95.0233],[144.9528,-35.9166,95.109],[144.9529,-35.9212,94.4709],[144.9489,-35.9316,91.4247],[144.9515,-35.9352,93.7082],[144.9505,-35.942,94.4901],[144.9553,-35.9465,91.0426],[144.954,-35.9524,92.4771],[144.9575,-35.9578,90.7144],[144.9574,-35.9609,89.0],[144.955,-35.9625,90.1133],[144.9449,-35.9633,99.2175],[144.9415,-35.9668,96.8792],[144.9367,-35.9662,91.9171],[144.931,-35.9685,91.0317],[144.9259,-35.9747,100.4934],[144.9236,-35.9888,95.824],[144.9297,-35.9906,93.0139],[144.9362,-35.9995,93.7735],[144.9458,-36.0043,93.5607],[144.9472,-36.008,92.8154],[144.9455,-36.0122,90.4056],[144.954,-36.0164,89.3293],[144.9546,-36.0188,90.249],[144.9577,-36.0198,95.5329],[144.9617,-36.0181,94.2448],[144.9623,-36.0269,93.3887],[144.9665,-36.0298,102.2841],[144.9655,-36.0375,89.9557],[144.9678,-36.0421,90.0719],[144.9831,-36.0494,90.539],[144.9839,-36.0546,91.6153],[144.9859,-36.0565,102.9447],[144.9869,-36.0643,92.4572],[144.9806,-36.0732,96.207],[144.9761,-36.0737,91.1815],[144.9739,-36.0761,90.3177],[144.9652,-36.0792,90.1888],[144.9542,-36.0792,90.6437],[144.9521,-36.0822,90.7238],[144.9495,-36.083,98.2175],[144.9365,-36.0758,86.4402],[144.9382,-36.0729,89.8758],[144.9377,-36.07,95.1826],[144.934,-36.0691,92.2515],[144.9326,-36.0671,96.4604],[144.9135,-36.063,96.2492],[144.9085,-36.064,89.7994],[144.9039,-36.0609,94.6516],[144.9016,-36.0636,94.5525],[144.898,-36.0624,93.3464],[144.8891,-36.0636,91.6884],[144.875,-36.0576,92.816],[144.8634,-36.0591,93.8781],[144.8643,-36.0655,99.8165],[144.8636,-36.0686,94.499],[144.8606,-36.0692,88.885],[144.8615,-36.0717,92.1768],[144.8596,-36.0718,98.2665],[144.8576,-36.069,93.8985],[144.8605,-36.0665,89.733],[144.8563,-36.0656,87.546],[144.8539,-36.0695,100.7209],[144.8565,-36.0736,94.3787],[144.8526,-36.074,91.0851],[144.8496,-36.0712,95.0753],[144.8471,-36.073,86.5989],[144.8498,-36.0767,90.7663],[144.8506,-36.0813,94.5523],[144.8465,-36.081,94.4772],[144.8449,-36.0831,92.9208],[144.842,-36.083,88.6758],[144.8417,-36.0874,90.9231],[144.8439,-36.0923,90.6918],[144.8398,-36.0944,89.171],[144.843,-36.0962,90.9796],[144.8424,-36.0999,92.2205],[144.8403,-36.1005,92.8685],[144.8355,-36.0985,93.2588],[144.8298,-36.1028,89.4477],[144.8322,-36.1049,96.5377],[144.8349,-36.1025,96.5568],[144.8416,-36.1018,93.4643],[144.8423,-36.1058,94.4356],[144.8455,-36.1091,96.8683],[144.8486,-36.1093,91.8757],[144.8497,-36.1074,94.8832],[144.8467,-36.1065,89.862799999999993],[144.849,-36.1025,94.0677],[144.8525,-36.1069,93.8351],[144.8521,-36.1038,90.6964],[144.8576,-36.1032,95.5086],[144.8582,-36.1013,93.1636],[144.8579,-36.0989,94.5675],[144.856,-36.0983,94.5675],[144.8495,-36.0994,95.1385],[144.852,-36.0952,91.2674],[144.8497,-36.0934,86.9598],[144.8545,-36.093,95.4242],[144.8526,-36.0902,94.4384],[144.8602,-36.0897,93.9919],[144.8611,-36.0847,95.6451],[144.8612,-36.0879,95.6836],[144.8644,-36.088,95.3499],[144.8675,-36.0927,92.3075],[144.8694,-36.0924,94.359],[144.8687,-36.0891,93.1032],[144.87,-36.0885,93.1032],[144.8747,-36.0904,94.5125],[144.8748,-36.0943,92.4772],[144.8821,-36.0892,94.1452],[144.8839,-36.0927,90.9365],[144.8897,-36.094,94.6919],[144.8952,-36.0921,91.8572],[144.8913,-36.0888,92.6314],[144.8908,-36.0859,95.1084],[144.8928,-36.085,91.8561],[144.894,-36.0879,90.6629],[144.8963,-36.0886,96.2449],[144.8977,-36.0856,98.8255],[144.8962,-36.0837,96.2013],[144.8966,-36.0795,101.9342],[144.8991,-36.0794,101.6808],[144.8994,-36.0825,92.7611],[144.9011,-36.0838,92.2847],[144.9018,-36.0792,90.6521],[144.9039,-36.0778,97.2795],[144.9056,-36.0845,90.4891],[144.9096,-36.0835,96.8471],[144.9117,-36.0865,95.812],[144.9144,-36.0864,91.6328],[144.9144,-36.0882,95.3122],[144.9189,-36.0884,91.5326],[144.9164,-36.0914,94.7677],[144.9189,-36.092,91.9538],[144.9202,-36.0946,98.7284],[144.9253,-36.0925,100.1198],[144.9242,-36.0989,88.7496],[144.9305,-36.1003,91.9337],[144.927,-36.1055,89.158],[144.9326,-36.1047,97.4706],[144.9313,-36.1092,94.6446],[144.9361,-36.1091,91.5499],[144.9393,-36.1135,92.0101],[144.9429,-36.1097,94.2893],[144.9528,-36.1137,96.7143],[144.9565,-36.1083,94.3125],[144.9601,-36.1069,96.928],[144.9617,-36.1094,95.3401],[144.967,-36.1105,105.6002],[144.963,-36.1123,95.8714],[144.9667,-36.1136,97.2062],[144.9636,-36.1163,95.7126],[144.9664,-36.1169,98.9059],[144.9691,-36.1204,92.5127],[144.9749,-36.1192,94.7374],[144.9723,-36.1255,92.1092],[144.9767,-36.125,92.271],[144.9814,-36.127,90.8598],[144.9795,-36.1236,89.6116],[144.9845,-36.1252,93.9395],[144.9834,-36.1219,96.9819],[144.9868,-36.1203,92.8163],[144.9862,-36.1183,92.4467],[144.9893,-36.1149,93.1008],[144.9953,-36.1146,94.1143],[144.9921,-36.1177,91.6802],[144.9948,-36.1195,99.1202],[144.995,-36.122,93.0247],[144.9932,-36.124,100.1499],[144.9966,-36.1245,95.5877],[144.9998,-36.1288,91.5227],[145.0038,-36.1286,90.6351],[145.0033,-36.1307,94.06],[144.9989,-36.134,90.4378],[145.0018,-36.1345,89.8595],[145.0012,-36.1394,91.4199],[145.0036,-36.1394,93.8053],[145.0038,-36.1365,88.6581],[145.0117,-36.139,92.4642],[145.0094,-36.1411,96.6417],[145.0126,-36.146,97.1104],[145.0076,-36.1461,97.2211],[145.0067,-36.1501,95.9568],[145.0087,-36.1515,99.4041],[145.0096,-36.1478,94.7762],[145.011,-36.1474,91.4416],[145.0108,-36.1505,90.8433],[145.0144,-36.1523,95.6744],[145.0109,-36.1552,94.0915],[145.0153,-36.1614,95.5348],[145.018,-36.1611,95.653],[145.0155,-36.1579,93.9863],[145.0169,-36.1549,93.9567],[145.019,-36.1552,93.6418],[145.0212,-36.159,91.9854],[145.0235,-36.1592,93.8746],[145.0212,-36.1542,90.6199],[145.0273,-36.1543,94.7395],[145.0269,-36.1496,93.5605],[145.0287,-36.148,94.0668],[145.0312,-36.152,94.6995],[145.0302,-36.1555,91.7417],[145.0329,-36.155,96.9605],[145.0326,-36.1526,94.6995],[145.037,-36.1518,105.4693],[145.0354,-36.1557,92.5462],[145.0397,-36.1543,99.1686],[145.0383,-36.1574,97.5751],[145.0394,-36.1588,96.3321],[145.0409,-36.1586,96.3321],[145.0416,-36.1549,90.8339],[145.0426,-36.1575,89.9027],[145.045,-36.1562,102.3878],[145.047,-36.1572,92.8098],[145.0452,-36.1597,90.1784],[145.0462,-36.1614,100.7936],[145.0548,-36.1644,94.033],[145.0564,-36.1621,96.8317],[145.0573,-36.1642,90.0691],[145.0607,-36.1641,99.2102],[145.0608,-36.1703,96.1437],[145.0622,-36.1712,93.9443],[145.0636,-36.1707,93.9443],[145.063,-36.1675,98.8175],[145.0673,-36.1693,88.7014],[145.07,-36.1658,91.3957],[145.0771,-36.1646,100.8395],[145.077,-36.1617,87.8618],[145.0797,-36.1652,103.2966],[145.0816,-36.1654,95.4033],[145.0828,-36.1626,92.6452],[145.0865,-36.1618,99.8352],[145.0886,-36.1583,112.8915],[145.0911,-36.1577,102.3943],[145.0918,-36.1598,105.7441],[145.0892,-36.1619,98.7661],[145.092,-36.1615,100.6726],[145.0956,-36.1651,101.1514],[145.1,-36.1638,94.9542],[145.1015,-36.1675,90.5652],[145.1061,-36.1691,91.0531],[145.1088,-36.1669,93.9894],[145.1116,-36.1668,94.7709],[145.1139,-36.1702,96.5418],[145.1126,-36.1728,96.2878],[145.1142,-36.1763,101.1112],[145.1177,-36.1764,92.2133],[145.1214,-36.1798,98.7776],[145.1244,-36.1768,89.5446],[145.1279,-36.1831,100.8952],[145.1327,-36.179,106.5211],[145.1277,-36.1768,108.5936],[145.1287,-36.175,97.9682],[145.1321,-36.1748,94.9426],[145.1298,-36.1709,105.2887],[145.1324,-36.1706,105.0006],[145.1335,-36.174,100.2382],[145.1382,-36.1712,96.1953],[145.1351,-36.1681,92.2278],[145.1385,-36.1663,93.4286],[145.1354,-36.1636,96.3662],[145.132,-36.1638,97.0797],[145.1301,-36.1621,98.5647],[145.1312,-36.1609,100.3206],[145.1346,-36.1614,107.229],[145.1326,-36.1562,102.9117],[145.1345,-36.1554,108.6251],[145.1359,-36.1573,114.4242],[145.1362,-36.1549,114.7225],[145.138,-36.1543,116.6395],[145.1401,-36.1591,128.8402],[145.1442,-36.1553,111.92],[145.1468,-36.1585,109.9096],[145.1453,-36.1608,103.5766],[145.1463,-36.1626,86.9324],[145.1472,-36.1608,92.8974],[145.1577,-36.1577,96.4428],[145.1589,-36.1602,101.0308],[145.1655,-36.161,96.5744],[145.1643,-36.1636,101.1715],[145.1665,-36.165,96.6751],[145.1655,-36.1668,97.4033],[145.1666,-36.1678,93.5825],[145.1725,-36.1652,102.9259],[145.1728,-36.1665,108.0877],[145.1694,-36.1679,110.863],[145.1702,-36.1693,97.3733],[145.1734,-36.1674,108.0877],[145.1751,-36.1684,107.2329],[145.172,-36.1699,92.4872],[145.1725,-36.1767,99.1187],[145.1765,-36.1815,100.542],[145.1782,-36.1804,94.657],[145.1806,-36.1816,96.5927],[145.1826,-36.185,99.885],[145.1843,-36.1823,93.5376],[145.181,-36.1782,92.2604],[145.192,-36.1794,98.4779],[145.1956,-36.1747,108.5266],[145.1945,-36.1736,93.4725],[145.1918,-36.1754,95.5128],[145.1876,-36.1747,95.8898],[145.1907,-36.1716,92.813],[145.1888,-36.1654,93.4058],[145.1983,-36.1654,99.206],[145.1981,-36.1638,95.6785],[145.1927,-36.1635,104.6998],[145.194,-36.1591,108.4802],[145.2005,-36.1574,109.7739],[145.2003,-36.159,109.7598],[145.1957,-36.1608,105.3872],[145.1956,-36.1625,91.4819],[145.1994,-36.1608,98.7344],[145.2033,-36.1614,103.5777],[145.2041,-36.1666,94.9904],[145.2089,-36.1678,91.8566],[145.2096,-36.1663,91.8566],[145.2067,-36.1646,102.115],[145.2119,-36.1588,99.6447],[145.2145,-36.1591,105.3439],[145.2128,-36.1617,103.4817],[145.2168,-36.1656,93.5788],[145.2232,-36.1594,107.3213],[145.229,-36.1589,112.2702],[145.2303,-36.1604,112.9625],[145.2292,-36.1616,106.0177],[145.2267,-36.1607,108.8747],[145.2211,-36.1627,98.7758],[145.2236,-36.1653,93.6407],[145.2222,-36.168,105.9556],[145.2229,-36.1701,93.5058],[145.2247,-36.1705,96.9976],[145.2299,-36.1646,96.0408],[145.2306,-36.1659,95.9709],[145.2278,-36.1689,94.3163],[145.2297,-36.1709,92.703],[145.2326,-36.1652,95.8585],[145.2377,-36.1649,101.5536],[145.238,-36.1663,97.8093],[145.2319,-36.1683,93.2049],[145.2351,-36.1699,98.2126],[145.2353,-36.1764,100.1243],[145.2374,-36.1773,96.4762],[145.2366,-36.1738,96.218],[145.2401,-36.1717,97.7735],[145.2406,-36.179,98.1071],[145.2438,-36.1802,102.7038],[145.2433,-36.1767,95.94],[145.2454,-36.1759,100.4665],[145.2457,-36.1786,97.7712],[145.2488,-36.1805,109.9441],[145.2487,-36.1876,109.2619],[145.2524,-36.1844,102.6469],[145.2558,-36.1843,99.7213],[145.2556,-36.1859,96.6946],[145.2522,-36.1874,95.9854],[145.2535,-36.1901,98.2351],[145.2516,-36.192,99.92],[145.2552,-36.1938,104.7166],[145.2582,-36.1927,110.2296],[145.2569,-36.196,115.5967],[145.2602,-36.1972,99.2795],[145.2603,-36.1993,95.0373],[145.6316,-36.1992,119.553],[145.6315,-36.2991,120.5223],[146.0309,-36.299,142.1736],[146.0312,-36.2654,210.1689],[146.0369,-36.2551,223.4627],[146.1314,-36.2551,185.9301],[146.1311,-36.1868,171.2051],[146.2236,-36.1869,141.2026],[146.2245,-36.1855,140.0596],[146.2209,-36.1854,142.2246],[146.2209,-36.183,143.2668],[146.2341,-36.183,135.2551],[146.2331,-36.1883,131.8772],[146.2358,-36.1882,136.3606],[146.2367,-36.1906,133.1666],[146.2374,-36.1892,133.1681],[146.2361,-36.1873,137.0498],[146.239,-36.1814,141.1429],[146.2445,-36.182,130.1679],[146.2419,-36.1797,131.5234],[146.2466,-36.1769,131.0204],[146.2428,-36.1701,134.6844],[146.2452,-36.1674,136.0793],[146.2398,-36.1687,133.3909],[146.239,-36.1716,134.2759],[146.2376,-36.1693,133.4404],[146.2362,-36.1713,133.479],[146.2334,-36.1698,134.1577],[146.2303,-36.1704,137.2918],[146.2289,-36.1671,131.4378],[146.2318,-36.1667,133.1998],[146.2321,-36.1651,131.7012],[146.2334,-36.1668,130.2396],[146.2363,-36.1649,131.3119],[146.2357,-36.1627,132.7909],[146.2374,-36.1604,131.3044],[146.2357,-36.159,130.3887],[146.2382,-36.1577,135.6595],[146.2355,-36.1571,129.4208],[146.2372,-36.1549,129.6251],[146.2349,-36.1541,131.8276],[146.2397,-36.1518,134.0042],[146.2388,-36.1491,134.1111],[146.2369,-36.1497,139.6328],[146.2365,-36.147,138.3841],[146.2373,-36.1461,136.6246],[146.2397,-36.1487,134.1111],[146.2408,-36.1482,136.0289],[146.2402,-36.1436,133.1694],[146.2372,-36.1424,131.0961],[146.2387,-36.1393,132.8918],[146.2424,-36.1414,132.4478],[146.2435,-36.1391,131.0323],[146.2387,-36.1358,137.2798],[146.2413,-36.1333,130.4389],[146.2358,-36.1285,133.8568],[146.2304,-36.1285,129.0383],[146.2283,-36.1317,132.7986],[146.2187,-36.1276,133.4178],[146.2045,-36.1258,128.7594],[146.2068,-36.1191,129.2377],[146.2056,-36.1132,130.9427],[146.2089,-36.1119,130.9161],[146.2106,-36.1137,129.9774],[146.2098,-36.1153,132.767],[146.2157,-36.1149,129.5304],[146.2156,-36.1111,129.1862],[146.2134,-36.1086,131.192],[146.2168,-36.1076,128.0684],[146.2152,-36.1061,129.6544],[146.2121,-36.1073,129.9918],[146.2111,-36.1058,129.8513],[146.2094,-36.1068,130.7357],[146.2081,-36.105,128.3472],[146.2048,-36.1053,125.7096],[146.2067,-36.1029,131.1016],[146.2107,-36.1029,127.5762],[146.2094,-36.0994,132.4967],[146.2127,-36.0983,129.5461],[146.2099,-36.097,127.7319],[146.2123,-36.0965,128.7201],[146.2151,-36.0985,129.1998],[146.2164,-36.0967,130.4263],[146.2148,-36.0921,128.5144],[146.2131,-36.0941,127.8667],[146.2101,-36.0919,128.1506],[146.2152,-36.0893,127.6663],[146.2129,-36.0874,129.0609],[146.2078,-36.0873,129.3428],[146.2042,-36.0852,129.1597],[146.1973,-36.0863,126.4416],[146.1961,-36.0846,128.7427],[146.2016,-36.0803,127.2295],[146.2007,-36.0758,124.5],[146.2022,-36.0723,125.7855],[146.2007,-36.0714,126.0765],[146.2029,-36.0705,125.6713],[146.1996,-36.0668,126.2319],[146.2005,-36.0645,129.9192],[146.1964,-36.0612,124.5],[146.1977,-36.0493,126.0683],[146.1994,-36.0477,127.0727],[146.1981,-36.0444,128.9334],[146.1935,-36.0448,125.5556],[146.1922,-36.0475,125.0064],[146.1855,-36.0456,129.1687],[146.1816,-36.0493,125.4354],[146.1817,-36.0512,124.0],[146.1785,-36.0508,126.2787],[146.1752,-36.0405,124.0],[146.1785,-36.0288,124.0],[146.1744,-36.0204,130.4274],[146.1632,-36.0245,125.4486],[146.157,-36.0219,126.7281],[146.1537,-36.0249,130.444],[146.1461,-36.02,125.3251],[146.1455,-36.0143,125.5985],[146.1418,-36.0174,124.0],[146.1322,-36.0205,127.1417],[146.1309,-36.0177,126.6896],[146.1326,-36.0149,128.3196],[146.1319,-36.0102,124.0],[146.1405,-36.009,124.0],[146.136,-36.0034,124.3418],[146.1323,-36.0039,124.0],[146.1305,-36.0086,124.0],[146.1256,-36.0106,124.0],[146.1239,-36.014,124.0],[146.1199,-36.0169,124.0],[146.1088,-36.0145,124.0],[146.1095,-36.0115,124.0],[146.1143,-36.0085,124.0],[146.1109,-36.007,124.0],[146.1065,-36.0079,124.0],[146.1014,-36.0132,124.0],[146.0922,-36.0097,124.0],[146.0908,-36.0122,124.0],[146.0968,-36.0176,124.0],[146.0961,-36.0202,124.0],[146.0936,-36.0211,124.0],[146.0811,-36.0176,124.0],[146.0757,-36.0178,124.0],[146.0732,-36.0095,124.0],[146.0718,-36.0099,124.0],[146.0732,-36.0137,124.0],[146.0712,-36.0151,124.0],[146.0596,-36.0143,124.0],[146.0566,-35.9993,124.0],[146.0524,-35.9955,124.0],[146.0514,-35.9963,124.0],[146.0527,-36.0006,124.0],[146.05,-36.0029,124.0],[146.0437,-35.9998,124.0],[146.0388,-36.0009,124.0],[146.0315,-35.9947,124.0],[146.0232,-35.9984,125.1669],[146.0159,-36.0054,124.0],[146.0061,-36.0026,124.0],[146.0012,-36.0086,125.7467],[145.9895,-36.013,125.6913],[145.9846,-36.0127,120.0767],[145.9755,-36.0088,117.1268],[145.9747,-36.0146,116.6961],[145.9721,-36.0157,118.8464],[145.9693,-36.013,116.4835],[145.9735,-36.0084,116.5703],[145.9713,-36.0057,116.0],[145.9678,-36.0058,116.4715],[145.9622,-36.0094,117.624],[145.9583,-36.007,124.4872],[145.9579,-36.0034,133.2038],[145.965,-35.9967,115.0],[145.9529,-35.9922,114.5],[145.9516,-35.9829,117.7108],[145.9498,-35.9829,117.7164],[145.9483,-35.9852,119.2556],[145.946,-35.9832,119.3045],[145.9462,-35.9787,119.4292],[145.9504,-35.9787,116.1972],[145.9515,-35.9766,115.2238],[145.9492,-35.9721,115.0875],[145.9447,-35.9694,115.0946],[145.9442,-35.9669,114.3034],[145.9473,-35.9649,119.61],[145.9542,-35.9648,115.5254],[145.955,-35.9629,118.819],[145.9537,-35.9616,117.7596],[145.9462,-35.9613,117.9367],[145.9391,-35.9683,116.1204],[145.9357,-35.9696,114.0967],[145.9346,-35.9727,116.5722],[145.928,-35.9739,114.5138],[145.925,-35.9716,116.4422],[145.9282,-35.9676,113.9068],[145.9258,-35.9646,119.988],[145.9149,-35.9645,116.7979],[145.9151,-35.9688,113.0652],[145.9138,-35.9696,120.2522],[145.9061,-35.9633,115.4982],[145.9048,-35.9645,115.3348],[145.905,-35.969,116.0478],[145.9029,-35.9689,121.7019],[145.9001,-35.9645,114.1224],[145.9008,-35.9615,115.0844],[145.9088,-35.9584,114.3453],[145.9103,-35.956,113.4536],[145.9084,-35.9537,114.0011],[145.9027,-35.9525,114.7498],[145.8944,-35.9532,116.212],[145.89,-35.9573,115.8053],[145.8853,-35.9554,114.8838],[145.8805,-35.9578,113.0],[145.8764,-35.9553,118.6728],[145.8706,-35.9555,114.9893],[145.8606,-35.9605,114.941],[145.854,-35.9599,117.3541],[145.8526,-35.9615,115.7257],[145.8539,-35.9656,119.0316],[145.848,-35.9687,116.3326],[145.8593,-35.9716,113.0],[145.858,-35.9753,115.4926],[145.8538,-35.9766,116.904],[145.8483,-35.973,120.521],[145.8456,-35.9735,114.139],[145.8444,-35.975,116.0041],[145.8486,-35.9786,113.7753],[145.8487,-35.9807,114.0682],[145.84,-35.9832,117.8252],[145.8361,-35.9821,112.5],[145.8358,-35.9768,113.1084],[145.8275,-35.9754,114.0342],[145.8244,-35.9793,112.0],[145.8286,-35.9798,113.1718],[145.8282,-35.983,118.1103],[145.8246,-35.9847,116.7439],[145.8182,-35.9823,111.7297],[145.8114,-35.9841,112.7685],[145.8114,-35.9855,117.142],[145.8167,-35.9884,115.7625],[145.8146,-35.9913,117.9313],[145.81,-35.9914,116.2719],[145.8067,-35.9886,114.8172],[145.808,-35.9838,114.5849],[145.7934,-35.9828,110.8572],[145.7927,-35.9728,111.8986],[145.788,-35.9753,116.1362],[145.7845,-35.972,110.8003],[145.7769,-35.9724,111.3127],[145.7814,-35.9638,119.4276],[145.7782,-35.9602,111.5759],[145.7683,-35.9631,114.857],[145.7661,-35.9667,122.3235],[145.7643,-35.9659,113.7463],[145.763,-35.9614,118.9816],[145.7579,-35.9581,113.4453],[145.7542,-35.9613,118.4729],[145.7461,-35.9642,109.9742],[145.7435,-35.9623,107.3826],[145.7443,-35.9591,110.2625],[145.7317,-35.9595,108.4654],[145.7317,-35.9562,116.3912],[145.7368,-35.9548,108.1373],[145.7341,-35.9513,112.8516],[145.73,-35.9511,110.9806],[145.7248,-35.9541,107.4853],[145.7215,-35.9515,110.8516],[145.7168,-35.9506,107.2213],[145.7157,-35.9478,113.1325],[145.7173,-35.945,107.5767],[145.7211,-35.9441,112.4359],[145.7265,-35.9464,108.7142],[145.7263,-35.9423,107.6662],[145.7203,-35.9344,111.1255],[145.7179,-35.9368,107.4861],[145.7144,-35.9374,105.9967],[145.7067,-35.932,104.8436],[145.7003,-35.937,110.0955],[145.6973,-35.9365,117.2892],[145.6962,-35.9341,102.5],[145.6976,-35.9299,105.77],[145.6958,-35.9258,102.5],[145.6977,-35.9247,102.7126],[145.7021,-35.9268,102.0],[145.7033,-35.9257,109.1635],[145.6982,-35.921,107.7947],[145.6951,-35.9206,102.6164],[145.6873,-35.9239,105.9924],[145.6862,-35.9256,103.5743],[145.6877,-35.9291,111.9847],[145.6859,-35.9306,102.4371],[145.682,-35.9298,109.4047],[145.6783,-35.9262,104.7917],[145.674,-35.9259,102.6082],[145.6735,-35.9232,100.5],[145.6788,-35.9194,111.3834],[145.679,-35.9168,104.2028],[145.669,-35.9195,102.8481],[145.6686,-35.9129,99.5],[145.6615,-35.9124,101.6571],[145.6575,-35.9007,101.5056],[145.6512,-35.8997,117.3219],[145.6473,-35.8931,104.7506],[145.6431,-35.8947,112.5798],[145.6397,-35.8942,114.7091],[145.6368,-35.8893,101.2724],[145.6317,-35.8881,114.4051],[145.6296,-35.8801,100.6034],[145.6273,-35.8799,111.1086],[145.6234,-35.8845,113.2859],[145.6203,-35.8839,106.7298],[145.6207,-35.8805,109.9759],[145.6281,-35.8754,99.5],[145.623,-35.8731,101.6477],[145.6171,-35.8755,108.8488],[145.6149,-35.8726,113.5414],[145.6191,-35.8691,104.6973],[145.6283,-35.8678,102.0797],[145.6286,-35.8657,102.544],[145.6263,-35.8628,101.7753],[145.616,-35.8649,105.1533],[145.6096,-35.8703,105.0286],[145.6017,-35.8679,99.9566],[145.6017,-35.8704,102.2384],[145.6065,-35.8749,108.0599],[145.6011,-35.875,107.4289],[145.5955,-35.8697,107.6062],[145.598,-35.8615,106.7531],[145.5887,-35.8626,100.925],[145.5868,-35.8612,99.0],[145.5882,-35.8577,117.8796],[145.5925,-35.8555,111.9252],[145.5932,-35.8491,99.0],[145.5816,-35.8483,111.8382],[145.5748,-35.8379,104.1435],[145.571,-35.8371,108.2414],[145.5685,-35.8339,99.7905],[145.564,-35.8342,105.3434],[145.5637,-35.8316,115.9503],[145.5672,-35.8285,102.7778],[145.5668,-35.8265,106.8514],[145.5642,-35.8259,99.0],[145.5611,-35.8283,104.1955],[145.558,-35.8282,105.7399],[145.5572,-35.826,106.5087],[145.5599,-35.8227,101.0986],[145.5571,-35.8189,103.5561],[145.5629,-35.8162,111.2355],[145.5628,-35.8134,110.3278],[145.5542,-35.8147,111.718],[145.5467,-35.8129,110.2765],[145.5424,-35.8217,105.6019],[145.5388,-35.8218,106.6739],[145.5367,-35.8199,115.8991],[145.5365,-35.8174,111.5755],[145.5419,-35.8089,99.5704],[145.5352,-35.8082,111.9188],[145.5339,-35.8058,102.2158],[145.5357,-35.802,99.3848],[145.527,-35.8068,100.7062],[145.5282,-35.8115,98.5],[145.5237,-35.8138,101.8571],[145.5235,-35.8158,104.4104],[145.5253,-35.817,114.2763],[145.5217,-35.8187,107.6839],[145.5132,-35.8158,98.5],[145.5116,-35.8119,100.3773],[145.5068,-35.8121,106.7651],[145.5025,-35.8094,104.3689],[145.5003,-35.8103,107.0031],[145.4955,-35.809,98.5],[145.4943,-35.814,111.8638],[145.492,-35.8151,106.2018],[145.4877,-35.8125,102.1915],[145.4822,-35.8135,105.8337],[145.478,-35.8108,98.5],[145.4745,-35.8124,104.3968],[145.4721,-35.8092,98.0],[145.4715,-35.8113,110.2715],[145.4678,-35.8136,104.5673],[145.4691,-35.8182,110.8431],[145.464,-35.8219,98.0],[145.4644,-35.8252,101.5329],[145.4625,-35.8269,106.0226],[145.4568,-35.826,100.8393],[145.4534,-35.8214,100.6324],[145.4507,-35.8214,107.132],[145.448,-35.8267,100.3723],[145.4491,-35.8291,101.875],[145.4423,-35.8356,100.152],[145.4399,-35.8355,108.9392],[145.4358,-35.8296,103.0828],[145.4294,-35.8345,97.5],[145.4269,-35.8329,98.165],[145.425,-35.8287,98.5587],[145.4199,-35.8282,105.3517],[145.4165,-35.8314,104.5945],[145.4126,-35.8306,97.0],[145.4126,-35.8344,97.7911],[145.4097,-35.8368,103.3535],[145.4111,-35.84,97.0],[145.4099,-35.8434,101.5192],[145.4119,-35.8464,103.2387],[145.4106,-35.8486,99.6628],[145.4048,-35.8509,98.9337],[145.3871,-35.8501,98.7799],[145.3803,-35.8547,97.0],[145.377,-35.8589,97.7047],[145.3694,-35.8583,103.1604],[145.3602,-35.8618,101.4691]]]]}}