{"type": "Feature","bbox": [130.859,-12.8619,131.3963,-12.1427],"geometry": {"type": "MultiPolygon","coordinates": [[[[130.9503,-12.6337,6.4937],[130.9529,-12.6352,1.3298],[130.9537,-12.6276,5.1599],[130.948,-12.6174,0.0],[130.9455,-12.6193,1.4147],[130.945,-12.622,0.0],[130.9503,-12.6337,6.4937]]],
[[[130.944,-12.6166,6.1793],[130.9449,-12.6178,6.1793],[130.9464,-12.6157,0.0],[130.9442,-12.6138,1.8429],[130.9439,-12.614,1.8429],[130.944,-12.6166,6.1793]]],
[[[130.8775,-12.5563,1.7686],[130.8772,-12.5571,1.7686],[130.8776,-12.5574,1.7686],[130.8778,-12.5567,5.3709],[130.8775,-12.5563,1.7686]]],
[[[130.8671,-12.558,2.4588],[130.8684,-12.5583,0.9607],[130.8718,-12.5544,0.6982],[130.8724,-12.5482,0.9752],[130.8657,-12.545,0.0],[130.8641,-12.5461,0.0],[130.8657,-12.5501,5.4842],[130.8629,-12.5531,0.5768],[130.8642,-12.5555,8.3913],[130.8626,-12.5591,4.0027],[130.8636,-12.5604,0.0],[130.8671,-12.558,2.4588]]],
[[[130.9514,-12.5373,1.2394],[130.9532,-12.5379,3.2851],[130.9543,-12.5366,0.8191],[130.9515,-12.5365,1.2394],[130.9514,-12.5373,1.2394]]],
[[[131.1745,-12.8617,29.2982],[131.2038,-12.8614,4.62],[131.2087,-12.8492,6.0107],[131.2076,-12.8378,5.7287],[131.2114,-12.8291,6.7924],[131.209,-12.8255,5.9761],[131.209,-12.8221,5.2102],[131.2112,-12.8205,5.0467],[131.2195,-12.8193,6.7608],[131.217,-12.807,3.7415],[131.214,-12.8031,4.227],[131.2213,-12.8029,2.1916],[131.2299,-12.7896,4.7828],[131.2358,-12.7886,6.6823],[131.2363,-12.7853,5.5594],[131.2417,-12.7795,4.1867],[131.2449,-12.779,4.8268],[131.2527,-12.7824,2.9419],[131.2561,-12.7792,3.4533],[131.2602,-12.7795,6.3817],[131.2607,-12.7735,4.8779],[131.255,-12.7706,6.9181],[131.2557,-12.7674,2.3022],[131.2595,-12.7678,3.5841],[131.2624,-12.7656,2.8678],[131.2711,-12.7689,1.5855],[131.2742,-12.767,1.3382],[131.2757,-12.7577,2.0955],[131.283,-12.7535,3.2768],[131.2817,-12.7414,2.6238],[131.2841,-12.7361,1.3251],[131.2828,-12.7342,1.3478],[131.2779,-12.733,1.1717],[131.2705,-12.7238,1.5998],[131.2758,-12.7137,1.2106],[131.2734,-12.7058,0.4402],[131.278,-12.7031,0.6287],[131.2806,-12.6974,1.2325],[131.2886,-12.695,1.1191],[131.2934,-12.6965,4.087],[131.2975,-12.6901,1.4602],[131.3049,-12.6896,3.9525],[131.3068,-12.6855,0.8609],[131.316,-12.6848,5.4278],[131.333,-12.6752,4.6327],[131.339,-12.6535,0.5804],[131.3481,-12.644,0.7457],[131.3511,-12.6431,0.7629],[131.3577,-12.6482,0.7122],[131.368,-12.6479,0.551],[131.3685,-12.6436,1.4343],[131.3638,-12.6409,1.6878],[131.3578,-12.6403,1.236],[131.356,-12.6347,0.0],[131.3598,-12.6284,10.7768],[131.3703,-12.6214,3.7976],[131.3776,-12.6124,3.1291],[131.3786,-12.6088,0.9557],[131.3745,-12.6014,0.0],[131.3763,-12.5973,9.5031],[131.3802,-12.5942,0.955],[131.3869,-12.5928,1.3505],[131.3862,-12.5901,2.3068],[131.38,-12.5868,4.134],[131.3796,-12.5845,1.0493],[131.3882,-12.5747,2.8358],[131.3865,-12.5726,2.1806],[131.3813,-12.5726,3.4461],[131.3798,-12.5705,11.9248],[131.3806,-12.5668,2.5984],[131.3847,-12.5636,0.6262],[131.3856,-12.5605,0.5363],[131.3744,-12.552,0.0],[131.382,-12.5461,0.4395],[131.3927,-12.5446,9.3154],[131.3951,-12.5405,4.6543],[131.3963,-12.5301,8.2154],[131.3892,-12.521,0.0],[131.3948,-12.5118,1.8563],[131.3949,-12.5078,3.9658],[131.3918,-12.5066,0.0],[131.3824,-12.512,2.6252],[131.3783,-12.511,14.7032],[131.3761,-12.5046,6.941],[131.3806,-12.4996,1.2999],[131.38,-12.493,1.3713],[131.3732,-12.4892,1.406],[131.3641,-12.4918,1.6514],[131.362,-12.4889,8.5313],[131.3622,-12.4846,2.9307],[131.3695,-12.4798,5.7393],[131.3699,-12.478,4.3727],[131.3669,-12.475,0.0],[131.3582,-12.4747,8.4549],[131.3547,-12.4762,2.1192],[131.3489,-12.4824,0.7944],[131.3451,-12.4811,14.3826],[131.3437,-12.4758,6.5995],[131.3447,-12.4732,0.0],[131.353,-12.4691,0.6949],[131.3545,-12.4647,0.0],[131.3492,-12.4615,1.7324],[131.3413,-12.4642,1.7164],[131.3385,-12.4637,0.4971],[131.3378,-12.4571,0.5315],[131.3427,-12.4531,8.2811],[131.3425,-12.4497,0.0],[131.3362,-12.4499,0.0],[131.3333,-12.4551,2.7832],[131.3308,-12.4564,2.7695],[131.3273,-12.4566,0.0],[131.3233,-12.4534,6.07],[131.3234,-12.4478,1.8016],[131.3273,-12.4443,0.0],[131.3313,-12.4434,0.0],[131.3399,-12.4457,0.0],[131.3408,-12.4445,2.1744],[131.3419,-12.4395,4.2243],[131.3381,-12.4348,2.3418],[131.332,-12.4325,3.1272],[131.3292,-12.4334,0.0],[131.3231,-12.4408,0.0],[131.3193,-12.4383,0.0],[131.3189,-12.4296,0.0],[131.3167,-12.4257,2.0038],[131.3113,-12.4241,2.09],[131.3026,-12.4255,0.0],[131.3013,-12.4243,0.2995],[131.3007,-12.4192,0.0],[131.3025,-12.4155,0.0],[131.3063,-12.4137,0.0],[131.3128,-12.4148,0.9529],[131.3164,-12.4111,3.4165],[131.3147,-12.4054,1.7969],[131.308,-12.4022,5.2501],[131.3079,-12.3954,6.2046],[131.3099,-12.394,0.0],[131.3187,-12.395,0.0],[131.3241,-12.3936,0.0],[131.3277,-12.3883,0.0],[131.3276,-12.385,0.0],[131.3241,-12.3791,1.021],[131.3206,-12.3786,0.0],[131.3118,-12.3845,4.6361],[131.3039,-12.3774,2.1439],[131.2958,-12.3737,0.2405],[131.2901,-12.3637,0.0],[131.2815,-12.3545,0.0],[131.2806,-12.3414,0.0],[131.2716,-12.3342,0.0],[131.2735,-12.3265,0.0],[131.2897,-12.3095,0.0],[131.2942,-12.2996,0.0],[131.2932,-12.296,0.0],[131.2852,-12.2895,0.0],[131.2819,-12.2837,0.0],[131.2763,-12.2479,0.0],[131.2717,-12.2398,0.0],[131.2652,-12.2353,0.0],[131.2563,-12.232,0.0],[131.2482,-12.2223,0.0],[131.2458,-12.2244,0.0],[131.2346,-12.2254,3.633],[131.2251,-12.232,0.0],[131.2252,-12.234,2.1491],[131.2144,-12.2371,1.6497],[131.2121,-12.2414,6.8678],[131.2133,-12.2533,4.335],[131.2066,-12.2599,1.1517],[131.2062,-12.2621,3.3231],[131.2288,-12.2636,2.126],[131.234,-12.2663,5.9129],[131.2337,-12.2697,5.9524],[131.2311,-12.2727,1.431],[131.2336,-12.2755,4.0763],[131.2313,-12.2745,0.7161],[131.2294,-12.2755,2.8449],[131.2285,-12.2814,2.71],[131.2277,-12.2773,7.4013],[131.2291,-12.2732,3.4008],[131.2229,-12.2779,1.2651],[131.2225,-12.2811,5.4949],[131.225,-12.285,2.4798],[131.2223,-12.2824,3.074],[131.222,-12.278,2.2411],[131.2252,-12.2746,1.2955],[131.2322,-12.2693,2.9636],[131.232,-12.2668,2.0031],[131.2176,-12.2643,0.0],[131.2083,-12.2667,0.0],[131.206,-12.2704,1.777],[131.207,-12.2669,0.0],[131.2038,-12.2613,0.6223],[131.211,-12.2522,0.0],[131.2098,-12.2396,0.0],[131.2035,-12.2426,2.2928],[131.1934,-12.2377,0.9714],[131.2052,-12.2417,0.5876],[131.2202,-12.2303,0.9269],[131.222,-12.2272,0.0],[131.2115,-12.22,1.4593],[131.208,-12.2199,1.8368],[131.2027,-12.2112,0.4828],[131.1956,-12.2049,1.3485],[131.1877,-12.2019,1.7404],[131.1759,-12.1921,2.3136],[131.1695,-12.1836,4.5173],[131.1701,-12.174,0.0],[131.1576,-12.1688,0.2793],[131.1483,-12.1804,4.4805],[131.1443,-12.1824,1.6711],[131.1377,-12.184,2.4424],[131.1254,-12.1826,0.6952],[131.1143,-12.175,2.2124],[131.1164,-12.1713,0.0],[131.1143,-12.1631,0.0],[131.1157,-12.1575,1.5075],[131.1132,-12.1551,1.9602],[131.0876,-12.1538,3.0779],[131.0762,-12.1588,0.8019],[131.072,-12.1648,3.8756],[131.0653,-12.1668,3.853],[131.0579,-12.1638,2.0243],[131.0518,-12.1583,0.0],[131.0488,-12.1515,1.2783],[131.0514,-12.1467,0.6727],[131.0453,-12.1427,0.0],[131.0306,-12.1464,6.5333],[131.0198,-12.1533,6.9009],[131.0104,-12.1561,0.0],[131.0091,-12.1624,6.2881],[131.0081,-12.1577,1.6788],[131.0046,-12.1595,0.0],[130.996,-12.1686,4.1811],[130.9946,-12.1778,4.659],[130.9961,-12.1839,4.184],[130.9946,-12.1861,1.7932],[131.0024,-12.205,1.0379],[131.0056,-12.2038,4.998],[131.0047,-12.2091,2.2002],[131.0119,-12.2157,8.0074],[131.0185,-12.215,0.327],[131.0216,-12.2163,0.0],[131.0247,-12.223,0.2028],[131.0292,-12.2268,5.4459],[131.0305,-12.2315,8.3555],[131.0312,-12.2385,4.3194],[131.0274,-12.2651,3.7087],[131.0149,-12.3047,0.0],[131.0145,-12.3123,0.8577],[131.0125,-12.3165,0.0],[131.013,-12.3233,0.0],[131.0177,-12.3269,0.0],[131.0171,-12.3244,6.309],[131.0269,-12.313,1.6673],[131.0286,-12.3068,2.5654],[131.0253,-12.3057,3.2903],[131.0284,-12.3055,8.0165],[131.0296,-12.3065,2.5654],[131.0278,-12.3106,3.3297],[131.028,-12.3178,11.4418],[131.034,-12.3165,6.1919],[131.0319,-12.319,3.3915],[131.0333,-12.3206,5.9936],[131.0426,-12.3242,15.2051],[131.0462,-12.3226,7.2899],[131.0468,-12.326599999999999,8.8458],[131.0516,-12.3317,8.0545],[131.061,-12.3321,6.8773],[131.0516,-12.3331,6.1428],[131.0446,-12.3284,0.0],[131.0334,-12.3253,4.2511],[131.0298,-12.3256,0.0],[131.025,-12.3352,0.0],[131.0288,-12.3396,3.1853],[131.0326,-12.3393,14.8282],[131.0312,-12.342,10.7116],[131.0285,-12.3424,4.8482],[131.0298,-12.3464,0.0],[131.0337,-12.3488,6.4845],[131.0488,-12.3462,15.0531],[131.0551,-12.3478,11.2285],[131.0521,-12.3493,4.6089],[131.0481,-12.3482,16.2978],[131.045,-12.3492,15.4526],[131.0403,-12.353,13.251],[131.0402,-12.3578,12.6471],[131.0349,-12.3609,0.0],[131.0338,-12.3595,0.0],[131.0246,-12.3586,0.0],[131.0204,-12.3602,0.0],[131.0089,-12.3564,4.5193],[131.0078,-12.3591,9.2001],[131.0132,-12.3663,7.8406],[131.0164,-12.3612,0.0],[131.0193,-12.3621,3.5123],[131.0188,-12.3716,3.5638],[131.0179,-12.3618,3.5123],[131.0147,-12.3663,8.8444],[131.0125,-12.367,7.8406],[131.007,-12.3593,5.437],[131.0072,-12.3545,2.7458],[131.0048,-12.3522,3.1076],[130.9897,-12.3489,5.564],[130.9913,-12.3474,3.9707],[130.9828,-12.3419,0.0],[130.9792,-12.3415,0.4997],[130.9758,-12.3439,0.0],[130.966,-12.3435,2.085],[130.9579,-12.3479,2.6416],[130.9602,-12.345,1.8587],[130.9542,-12.3468,3.1471],[130.9501,-12.346,0.8888],[130.9467,-12.3489,4.851],[130.9473,-12.3572,4.6406],[130.9454,-12.3566,8.7829],[130.9446,-12.3495,3.6551],[130.9476,-12.3441,0.0],[130.946,-12.342,0.0],[130.9369,-12.343,0.0],[130.937,-12.3655,3.4223],[130.9385,-12.3655,6.8574],[130.9382,-12.4096,23.4471],[130.9227,-12.4099,39.413],[130.9234,-12.4331,37.0075],[130.951,-12.4434,34.2585],[130.9731,-12.4609,32.3305],[130.9776,-12.4675,29.931],[130.9903,-12.468,36.5572],[130.9981,-12.4731,45.1492],[131.0132,-12.4871,35.558],[131.0143,-12.5272,7.668],[131.0122,-12.5286,4.8871],[131.0119,-12.5315,6.3982],[131.0074,-12.5338,4.5076],[131.0058,-12.5325,4.7016],[131.0001,-12.535,4.4317],[130.9986,-12.5376,2.803],[130.9916,-12.5387,1.5606],[130.9872,-12.5472,0.0],[130.9669,-12.5346,0.0],[130.9603,-12.5333,0.0],[130.9559,-12.5341,0.0],[130.9564,-12.5374,2.0439],[130.9542,-12.5391,4.4875],[130.9573,-12.5472,4.1249],[130.9565,-12.5529,4.8929],[130.9538,-12.5551,3.9302],[130.9557,-12.5458,1.0925],[130.9535,-12.5421,3.3156],[130.9494,-12.5396,1.9025],[130.9473,-12.549,2.093],[130.9417,-12.5505,1.5917],[130.939,-12.5541,1.9796],[130.9407,-12.5503,2.2383],[130.946,-12.5482,2.093],[130.947,-12.5417,0.0],[130.9437,-12.5375,0.0],[130.9343,-12.5322,0.0],[130.934,-12.5344,3.3814],[130.9359,-12.5363,5.1113],[130.9348,-12.5406,1.4617],[130.9315,-12.5353,0.0],[130.9274,-12.5366,4.0865],[130.9309,-12.5265,1.2479],[130.9305,-12.5202,0.0],[130.9278,-12.5144,0.0],[130.9226,-12.5093,0.0],[130.916,-12.5124,0.0],[130.9104,-12.5175,0.0],[130.9114,-12.5306,5.1757],[130.9131,-12.5318,2.4576],[130.9154,-12.53,1.9701],[130.9166,-12.5309,1.9701],[130.9106,-12.5347,4.9625],[130.9109,-12.5375,4.9185],[130.908,-12.5407,1.7202],[130.9101,-12.5311,2.8607],[130.9071,-12.5165,0.0],[130.9054,-12.5169,3.4286],[130.9013,-12.5251,7.7694],[130.8965,-12.5283,6.2101],[130.8966,-12.532,6.5596],[130.8956,-12.5298,3.777],[130.8957,-12.528,1.7372],[130.9047,-12.5165,3.4286],[130.9036,-12.5133,1.4856],[130.8849,-12.5208,0.0],[130.8796,-12.5211,0.7099],[130.8715,-12.5152,0.0],[130.8718,-12.5102,0.0],[130.8698,-12.5058,0.0],[130.8629,-12.5029,0.0],[130.859,-12.5076,1.0961],[130.8612,-12.5098,7.3767],[130.8621,-12.5263,3.8034],[130.8652,-12.5268,2.5376],[130.8675,-12.5255,6.9341],[130.8739,-12.528,4.3412],[130.8795,-12.5479,5.8962],[130.8867,-12.5525,6.2064],[130.8889,-12.5507,2.5476],[130.8886,-12.5534,3.5951],[130.8943,-12.5585,1.8971],[130.8976,-12.5586,1.9121],[130.9014,-12.5563,4.449],[130.9,-12.5597,3.4189],[130.8934,-12.5605,0.0],[130.8877,-12.5559,0.0],[130.8778,-12.5524,0.0],[130.8846,-12.5748,4.4684],[130.8909,-12.5747,1.1878],[130.9026,-12.5789,0.0],[130.9029,-12.5727,5.1812],[130.9057,-12.574,3.317],[130.9075,-12.5728,2.4554],[130.9173,-12.5788,5.765],[130.9231,-12.5799,7.6092],[130.933,-12.5883,0.6979],[130.935,-12.5929,0.6378],[130.937,-12.594,3.4269],[130.9378,-12.598,6.4505],[130.9455,-12.6065,0.0],[130.9484,-12.6062,1.8126],[130.9533,-12.5969,4.0309],[130.9481,-12.6084,7.8507],[130.9532,-12.6178,3.8326],[130.9562,-12.6195,6.7056],[130.9572,-12.6309,7.3299],[130.9602,-12.6321,3.118],[130.9668,-12.6298,6.5675],[130.9598,-12.6333,2.0532],[130.9555,-12.6322,0.0],[130.9547,-12.637,6.8236],[130.9453,-12.6379,3.6321],[130.94,-12.63,0.0],[130.9329,-12.6111,0.0],[130.923,-12.6085,0.9306],[130.9222,-12.6104,4.4139],[130.9206,-12.6078,0.0],[130.9166,-12.6062,0.0],[130.9005,-12.6075,0.0],[130.8941,-12.6049,3.3241],[130.8823,-12.6062,0.0],[130.8837,-12.6103,0.0],[130.8815,-12.6176,0.0],[130.8828,-12.6246,1.1647],[130.8869,-12.6254,5.4133],[130.8857,-12.6279,4.6166],[130.8872,-12.63,4.1183],[130.8936,-12.6343,6.6506],[130.8901,-12.6341,2.7112],[130.8906,-12.639099999999999,6.0444],[130.8925,-12.6402,3.8102],[130.8904,-12.6418,2.8317],[130.8992,-12.6465,1.5319],[130.9045,-12.652,4.3517],[130.9052,-12.6558,3.4438],[130.9082,-12.6564,3.3231],[130.9037,-12.658,4.4782],[130.9012,-12.6617,5.1827],[130.8999,-12.6611,0.0],[130.8983,-12.6628,1.9746],[130.8988,-12.6759,5.0527],[130.8952,-12.6825,2.5166],[130.8978,-12.6752,2.1413],[130.8962,-12.665,1.3339],[130.9,-12.6553,2.7289],[130.8948,-12.6507,0.0],[130.8893,-12.6482,0.9675],[130.8892,-12.8596,34.501],[131.0387,-12.8604,44.8715],[131.0388,-12.8158,67.5842],[131.0687,-12.8159,55.3789],[131.0687,-12.8232,109.0498],[131.1119,-12.8232,66.3661],[131.112,-12.8253,65.5423],[131.1344,-12.8247,42.2558],[131.1347,-12.8386,29.8717],[131.1422,-12.8391,25.5328],[131.1423,-12.846,25.5184],[131.1583,-12.846,30.4934],[131.1582,-12.8619,26.9115],[131.1745,-12.8617,29.2982]]],
[[[130.9963,-12.1562,3.4935],[130.9961,-12.1602,2.5918],[130.9984,-12.1612,9.2659],[131.0041,-12.1553,2.1182],[131.0006,-12.1528,0.0],[130.9959,-12.1549,3.4935],[130.9963,-12.1562,3.4935]]],
[[[131.0104,-12.1524,1.8214],[131.0123,-12.1519,2.2018],[131.0141,-12.1509,1.003],[131.0114,-12.1511,2.8701],[131.0104,-12.1524,1.8214]]],
[[[131.0181,-12.1451,9.6147],[131.0154,-12.148,0.0],[131.0156,-12.1502,0.0],[131.0241,-12.1457,0.0],[131.0203,-12.1437,6.2111],[131.0181,-12.1451,9.6147]]]]}
,"properties": {"GID_2": "AUS.6.9_1","GID_0": "AUS","country": "Australia","GID_1": "AUS.6_1","state": "NorthernTerritory","NL_NAME_1": "NA","county": "Litchfield","VARNAME_2": "NA","NL_NAME_2": "NA","TYPE_2": "Municipality","ENGTYPE_2": "Municipality","CC_2": "72300","HASC_2": "AU.NT.LI","name": "Litchfield.county","area_km2": 2912.145,"hist_schema_id": "Elevation0-9000","hist_area_km2": {"0": 1080.952,"25": 1452.418,"50": 330.656,"75": 40.18,"100": 6.471,"125": 1.468}}}