{"type":"Feature","properties":{"GID_2":"AUS.7.33_1","GID_0":"AUS","country":"Australia","GID_1":"AUS.7_1","state":"Queensland","NL_NAME_1":"NA","county":"Ipswich","VARNAME_2":"NA","NL_NAME_2":"NA","TYPE_2":"City","ENGTYPE_2":"City","CC_2":"33960","HASC_2":"AU.QL.IP","name":"Ipswich.county"},
"geometry":{"type": "MultiPolygon","coordinates": [[[[152.901,-27.6033,8.7076],[152.8955,-27.6016,2.6547],[152.8888,-27.591,1.1925],[152.8743,-27.5796,15.9868],[152.8701,-27.5819,6.4421],[152.8622,-27.5982,17.7448],[152.8562,-27.5969,15.6974],[152.8556,-27.5948,4.3393],[152.8569,-27.5948,1.8269],[152.8572,-27.5925,3.8882],[152.8561,-27.5824,0.0],[152.8495,-27.5645,0.0],[152.8497,-27.5563,9.7274],[152.8534,-27.5434,15.5391],[152.848,-27.5322,7.8832],[152.8402,-27.5309,13.8956],[152.8316,-27.5331,9.4116],[152.8317,-27.5371,0.0],[152.8406,-27.5405,1.6536],[152.8413,-27.5447,4.0814],[152.8239,-27.55,4.4142],[152.8207,-27.5559,6.3282],[152.8053,-27.5578,1.8049],[152.7984,-27.5551,4.9007],[152.7906,-27.5553,6.6003],[152.7851,-27.5503,7.3463],[152.7827,-27.5522,47.7802],[152.7851,-27.5568,75.9777],[152.7827,-27.5566,78.8158],[152.7816,-27.5593,74.572],[152.7727,-27.5595,72.8768],[152.7706,-27.5565,84.9661],[152.7672,-27.556,95.6582],[152.7566,-27.5664,86.5822],[152.7546,-27.5662,75.48],[152.7538,-27.5683,71.3013],[152.7486,-27.565,23.1886],[152.746,-27.5673,21.5114],[152.7414,-27.566,8.4781],[152.7402,-27.562,9.0369],[152.7421,-27.5478,14.7945],[152.7446,-27.5343,25.791],[152.7478,-27.5263,23.6799],[152.7543,-27.5224,25.5336],[152.7607,-27.525,12.3132],[152.7626,-27.5211,20.5329],[152.7602,-27.5181,22.4669],[152.7513,-27.518,40.254],[152.7444,-27.5148,34.0068],[152.7397,-27.5046,27.6916],[152.7307,-27.4974,21.2487],[152.7293,-27.4923,37.807],[152.7265,-27.4903,17.8914],[152.7209,-27.4924,16.4567],[152.7198,-27.4943,34.8387],[152.7212,-27.4979,16.5881],[152.727,-27.5014,13.0018],[152.7263,-27.5063,23.3976],[152.7149,-27.5076,24.4193],[152.7143,-27.5098,30.9283],[152.7122,-27.5101,32.8712],[152.7063,-27.5067,25.2549],[152.7061,-27.5106,25.1253],[152.7039,-27.5134,33.3886],[152.7063,-27.5137,33.3984],[152.7061,-27.5157,29.59],[152.702,-27.5182,45.9421],[152.6998,-27.5153,32.5222],[152.692,-27.5198,47.6137],[152.6911,-27.5177,41.5853],[152.6888,-27.5229,36.3519],[152.6895,-27.5259,38.2992],[152.6821,-27.5292,42.9924],[152.6822,-27.5316,40.3455],[152.6793,-27.5313,41.8653],[152.6794,-27.5334,40.0792],[152.6702,-27.5393,55.173],[152.6663,-27.5348,76.5082],[152.6629,-27.537,73.3936],[152.6593,-27.5325,49.9774],[152.6547,-27.5355,67.1207],[152.6514,-27.533,73.094],[152.6481,-27.5509,66.6484],[152.6179,-27.546,83.3281],[152.6171,-27.5496,91.1693],[152.6045,-27.5477,95.4112],[152.6036,-27.5497,112.843],[152.6015,-27.5496,103.0703],[152.6031,-27.5537,111.4908],[152.6002,-27.5514,79.5704],[152.598,-27.5519,70.5335],[152.5974,-27.5548,71.2623],[152.5885,-27.5523,130.7954],[152.5893,-27.5484,116.5274],[152.5703,-27.5451,105.9591],[152.5688,-27.5542,173.7376],[152.5643,-27.5536,189.1533],[152.5636,-27.5574,195.388],[152.5675,-27.5579,163.6099],[152.5648,-27.5693,204.2757],[152.5607,-27.5684,199.8825],[152.5547,-27.569,141.532],[152.5543,-27.5707,143.5484],[152.5454,-27.5695,108.66],[152.5453,-27.5705,109.3543],[152.5138,-27.5663,246.4314],[152.5125,-27.5744,209.3444],[152.5093,-27.5725,177.5302],[152.5078,-27.5811,149.6685],[152.5031,-27.5803,135.6424],[152.497,-27.583,106.0705],[152.5044,-27.5959,141.1755],[152.488,-27.6033,106.5483],[152.4885,-27.6045,120.7726],[152.4861,-27.6059,109.0506],[152.4876,-27.6064,111.6134],[152.487,-27.6076,111.6134],[152.4811,-27.6127,124.2118],[152.4786,-27.6194,130.5878],[152.4724,-27.6268,142.9796],[152.469,-27.6386,176.5199],[152.4639,-27.6435,240.6264],[152.4654,-27.6484,173.7702],[152.4629,-27.6545,133.3312],[152.4594,-27.654,118.1853],[152.4578,-27.6628,96.3149],[152.4547,-27.661,98.9775],[152.4541,-27.657,112.6908],[152.4511,-27.6531,134.2615],[152.4486,-27.653,166.535],[152.448,-27.6549,134.589],[152.4414,-27.6534,139.9859],[152.4392,-27.6494,177.6677],[152.4309,-27.6512,198.6414],[152.4303,-27.6531,208.0189],[152.4323,-27.6552,196.7104],[152.431,-27.657,171.7513],[152.4227,-27.655,233.5269],[152.4206,-27.6529,179.7786],[152.4184,-27.6579,177.6834],[152.4133,-27.6574,160.9306],[152.4126,-27.6614,168.054],[152.4226,-27.6637,233.4429],[152.4174,-27.6737,234.8758],[152.412,-27.6771,219.2125],[152.4111,-27.6814,239.9405],[152.3954,-27.6868,284.7718],[152.3915,-27.6908,302.564],[152.3906,-27.6978,278.3454],[152.4135,-27.701,183.2296],[152.4122,-27.7082,255.6102],[152.4091,-27.7078,240.6276],[152.4068,-27.7203,295.5348],[152.4101,-27.7208,343.5352],[152.4051,-27.7491,409.3542],[152.4035,-27.7489,372.0738],[152.4029,-27.7519,406.9941],[152.3973,-27.7511,277.3324],[152.3955,-27.7611,268.0037],[152.3919,-27.7569,241.6141],[152.3892,-27.7698,338.708],[152.3954,-27.7819,321.626],[152.4037,-27.7896,246.394],[152.4026,-27.7953,394.8709],[152.4088,-27.7961,226.9751],[152.407,-27.8055,329.9812],[152.3858,-27.803,325.8503],[152.3834,-27.8037,277.6451],[152.3828,-27.8072,229.4895],[152.3933,-27.8097,513.6379],[152.392,-27.8177,289.3548],[152.3987,-27.8186,506.6021],[152.3995,-27.8201,497.3697],[152.4007,-27.8248,487.5948],[152.3949,-27.8309,409.7078],[152.3948,-27.8342,381.9554],[152.3998,-27.8447,359.1639],[152.4023,-27.8637,505.0822],[152.4193,-27.8655,305.9403],[152.42,-27.8614,386.4625],[152.4269,-27.8623,252.9051],[152.4361,-27.8587,207.1687],[152.4405,-27.8599,162.7622],[152.4509,-27.8026,123.1858],[152.4621,-27.8036,148.3466],[152.464,-27.7938,161.7565],[152.4662,-27.7942,146.5829],[152.4652,-27.7928,162.769],[152.4674,-27.7893,152.2345],[152.4675,-27.7832,167.1636],[152.4813,-27.7852,136.8],[152.482,-27.7818,162.0479],[152.4945,-27.7834,117.7362],[152.499,-27.7583,86.5476],[152.5193,-27.7612,78.1767],[152.5237,-27.7364,60.9665],[152.523,-27.7269,60.7581],[152.525,-27.7211,58.8181],[152.5295,-27.7172,54.3476],[152.5618,-27.721,62.7336],[152.5619,-27.7165,57.3655],[152.5807,-27.7191,88.3799],[152.5798,-27.7236,92.414],[152.5982,-27.7263,91.5855],[152.5986,-27.7239,93.9018],[152.6058,-27.725,78.878],[152.6046,-27.7313,95.4883],[152.6087,-27.7316,96.7268],[152.6076,-27.7371,82.3128],[152.6382,-27.7416,45.9106],[152.6391,-27.7366,42.4985],[152.656,-27.7383,36.9486],[152.6554,-27.7414,43.336],[152.6634,-27.7424,48.9486],[152.6635,-27.7494,66.7425],[152.6843,-27.7525,39.3389],[152.684,-27.7514,39.3389],[152.6863,-27.7505,39.7609],[152.6864,-27.7469,38.6628],[152.7044,-27.7496,63.4311],[152.7075,-27.7583,59.8836],[152.7578,-27.7673,72.4023],[152.7627,-27.7729,67.2784],[152.7606,-27.7853,93.6516],[152.7848,-27.7888,101.6265],[152.7863,-27.7914,120.6072],[152.7915,-27.7944,131.8615],[152.793,-27.793,150.0103],[152.8055,-27.7938,150.0018],[152.8076,-27.7919,165.0391],[152.8106,-27.792,166.8624],[152.8109,-27.7905,193.0934],[152.8089,-27.79,207.946],[152.8095,-27.7865,256.3545],[152.8033,-27.7856,329.8134],[152.808,-27.7587,134.5686],[152.8111,-27.759,143.9329],[152.8114,-27.7549,130.6442],[152.8223,-27.7564,153.7473],[152.823,-27.752,141.8712],[152.8282,-27.7527,122.2751],[152.8293,-27.7468,90.604],[152.8346,-27.7476,122.9976],[152.8339,-27.7527,115.5937],[152.836,-27.7557,133.623],[152.8568,-27.7573,145.8746],[152.8579,-27.7511,217.4528],[152.8733,-27.7534,94.4323],[152.8746,-27.7463,100.5473],[152.8828,-27.7474,185.9129],[152.8907,-27.7036,110.4655],[152.9235,-27.7076,136.8183],[152.9315,-27.6661,79.9237],[152.9247,-27.6577,82.2628],[152.9378,-27.6424,69.6523],[152.9409,-27.6238,48.6518],[152.9339,-27.6139,38.2714],[152.9214,-27.6062,22.4934],[152.9155,-27.605,21.8555],[152.909,-27.6065,9.0444],[152.9071,-27.6043,14.2883],[152.9031,-27.6056,11.3072],[152.901,-27.6033,8.7076]]]]}}