{"type": "Feature","bbox": [138.5767,-34.9424,138.6245,-34.8987],"geometry": {"type": "MultiPolygon","coordinates": [[[[138.6236,-34.9279,55.1695],[138.6157,-34.9226,44.9741],[138.6128,-34.9056,34.7041],[138.6099,-34.9022,37.4366],[138.5979,-34.8987,51.2295],[138.5879,-34.8992,35.4541],[138.5767,-34.9087,20.0388],[138.5829,-34.9424,28.2631],[138.6245,-34.9402,62.1447],[138.6236,-34.9279,55.1695]]]]}
,"properties": {"GID_2": "AUS.8.1_1","GID_0": "AUS","country": "Australia","GID_1": "AUS.8_1","state": "SouthAustralia","NL_NAME_1": "NA","county": "Adelaide","VARNAME_2": "NA","NL_NAME_2": "NA","TYPE_2": "City","ENGTYPE_2": "City","CC_2": "40070","HASC_2": "AU.SA.AD","name": "Adelaide.county","area_km2": 15.73283,"hist_schema_id": "Elevation0-9000","hist_area_km2": {"25": 5.68502,"50": 10.01305,"75": 0.03477}}}