{"type": "Feature","bbox": [151.0335,-33.9942,151.1189,-33.9391],"geometry": {"type": "MultiPolygon","coordinates": [[[[151.0446,-33.9477,8.4298],[151.0423,-33.9521,1.75],[151.0421,-33.9628,1.7383],[151.0465,-33.9661,22.4089],[151.0454,-33.9672,2.0576],[151.0465,-33.9705,15.4108],[151.0373,-33.9785,0.0],[151.0394,-33.9801,29.7674],[151.0397,-33.9835,33.3574],[151.0335,-33.9846,6.9721],[151.0372,-33.9866,14.7854],[151.034,-33.9871,1.6777],[151.0367,-33.991,26.8493],[151.0438,-33.9913,0.0],[151.046,-33.9898,10.5512],[151.0529,-33.991,42.8088],[151.0552,-33.9888,0.0],[151.0494,-33.9802,32.751],[151.0537,-33.9828,7.9817],[151.0618,-33.9752,26.4874],[151.0643,-33.9765,15.8198],[151.0597,-33.9775,11.7372],[151.0582,-33.9809,6.8232],[151.0542,-33.9836,21.565],[151.0545,-33.9851,26.7127],[151.0575,-33.9862,37.8234],[151.0608,-33.9826,32.2082],[151.0653,-33.9828,18.8318],[151.0641,-33.9873,35.5482],[151.0668,-33.9882,0.0],[151.0676,-33.9861,23.8682],[151.071,-33.9863,5.3847],[151.0711,-33.9836,12.3724],[151.0748,-33.984,17.6034],[151.0696,-33.99,0.0],[151.0715,-33.9942,16.0608],[151.0767,-33.9878,33.1064],[151.0789,-33.981,33.5278],[151.0786,-33.9753,47.4365],[151.0848,-33.9674,54.1753],[151.097,-33.9652,63.5044],[151.1052,-33.9684,70.4589],[151.1189,-33.9694,45.8355],[151.102,-33.9497,47.7062],[151.103,-33.9495,45.0103],[151.1008,-33.9393,18.934],[151.0939,-33.9412,26.0536],[151.0916,-33.941,27.6011],[151.0905,-33.9391,28.1462],[151.0774,-33.9442,39.0823],[151.0788,-33.9471,50.3555],[151.0596,-33.9502,28.642],[151.0446,-33.9477,8.4298]]]]}
,"properties": {"GID_2": "AUS.5.68_1","GID_0": "AUS","country": "Australia","GID_1": "AUS.5_1","state": "NewSouthWales","NL_NAME_1": "NA","county": "Hurstville","VARNAME_2": "NA","NL_NAME_2": "NA","TYPE_2": "City","ENGTYPE_2": "City","CC_2": "14150","HASC_2": "AU.NS.HV","name": "Hurstville.county","area_km2": 22.80744,"hist_schema_id": "Elevation0-9000","hist_area_km2": {"0": 1.26605,"25": 8.91567,"50": 10.97287,"75": 1.65285}}}