{"type": "Feature","bbox": [115.7509,-31.9384,115.8934,-31.8422],"geometry": {"type": "MultiPolygon","coordinates": [[[[115.8794,-31.8718,36.6787],[115.8776,-31.8718,39.7225],[115.8788,-31.865,42.9228],[115.8777,-31.8507,40.8952],[115.87,-31.8488,42.5746],[115.8376,-31.8484,60.9592],[115.8256,-31.8422,42.0138],[115.8057,-31.8458,32.9533],[115.7689,-31.845,31.9667],[115.7624,-31.8458,12.0401],[115.7624,-31.8473,12.3025],[115.751,-31.8462,0.0],[115.7522,-31.8671,2.68],[115.7509,-31.8761,0.0],[115.7541,-31.8905,0.0],[115.755,-31.9082,0.0],[115.7662,-31.9081,14.0744],[115.7661,-31.9218,37.8584],[115.7841,-31.9227,28.5487],[115.7889,-31.9274,14.4131],[115.7965,-31.9274,11.013],[115.8021,-31.9327,11.1686],[115.814,-31.9297,12.721],[115.8176,-31.9228,13.4143],[115.826,-31.9223,18.5163],[115.8231,-31.9143,15.2983],[115.8459,-31.9141,35.7306],[115.8471,-31.9128,26.0742],[115.8769,-31.9384,17.6557],[115.8885,-31.9306,23.4414],[115.8851,-31.9277,31.1434],[115.8911,-31.9235,29.8803],[115.8934,-31.9195,23.8843],[115.8806,-31.9085,28.2986],[115.8911,-31.8981,28.1961],[115.8871,-31.8948,27.7973],[115.8923,-31.8904,29.5519],[115.8795,-31.8795,33.2364],[115.8794,-31.8718,36.6787]]]]}
,"properties": {"GID_2": "AUS.11.114_1","GID_0": "AUS","country": "Australia","GID_1": "AUS.11_1","state": "WesternAustralia","NL_NAME_1": "NA","county": "Stirling","VARNAME_2": "NA","NL_NAME_2": "NA","TYPE_2": "City","ENGTYPE_2": "City","CC_2": "57910","HASC_2": "AU.WA.ST","name": "Stirling.county","area_km2": 105.13684,"hist_schema_id": "Elevation0-9000","hist_area_km2": {"0": 10.87293,"25": 62.1619,"50": 23.1713,"75": 8.93071}}}