{"type": "Feature","bbox": [135.825,-33.3312,136.8109,-32.7651],"geometry": {"type": "MultiPolygon","coordinates": [[[[136.498,-33.3286,300.8131],[136.8106,-33.327,241.1782],[136.8109,-33.1239,201.7744],[136.5984,-33.1246,231.081],[136.5986,-32.9951,195.7205],[136.5948,-32.9987,195.4554],[136.5899,-32.9967,198.3834],[136.5852,-32.9969,197.8424],[136.5808,-33.0002,195.1754],[136.5781,-33.0001,195.7811],[136.5768,-33.0021,195.754],[136.5716,-33.003,196.0997],[136.5705,-33.0051,199.1975],[136.5773,-33.0085,194.0],[136.5751,-33.0158,196.584],[136.5858,-33.0254,195.451],[136.5094,-33.025,209.972],[136.51,-32.95,303.3098],[136.507,-32.95,293.4389],[136.4965,-32.9381,299.631],[136.4785,-32.9069,329.9691],[136.4577,-32.9069,327.8357],[136.4612,-32.881,338.275],[136.453,-32.8811,352.8514],[136.4386,-32.8623,360.4425],[136.4388,-32.8547,387.6048],[136.4243,-32.8535,335.2539],[136.4199,-32.8482,338.7757],[136.4178,-32.8488,337.5483],[136.3918,-32.8259,341.726],[136.3699,-32.8257,283.8055],[136.3703,-32.8113,297.3929],[136.3209,-32.8218,240.0222],[136.3139,-32.8246,229.0893],[136.2621,-32.8204,202.4736],[136.2534,-32.8151,200.1528],[136.2534,-32.8569,233.574],[136.2496,-32.8537,221.4057],[136.2105,-32.8404,192.194],[136.1779,-32.8407,195.2521],[136.1647,-32.8461,203.3944],[136.0833,-32.8387,225.5395],[136.0014,-32.8487,235.9477],[136.0014,-32.7651,195.6191],[135.825,-32.7661,157.3894],[135.8256,-33.0555,115.3293],[136.0013,-33.0543,143.1946],[136.0013,-33.1334,122.1332],[135.9602,-33.1346,120.53],[135.9629,-33.1634,130.0193],[135.9615,-33.1677,131.0626],[135.9356,-33.1912,169.7857],[135.9258,-33.2057,173.2502],[135.9109,-33.2142,136.0607],[135.9008,-33.2285,121.902],[135.8938,-33.234,130.679],[135.8866,-33.2448,150.3683],[135.8869,-33.2504,140.3224],[135.8846,-33.2554,146.1927],[135.8849,-33.3312,97.881],[136.498,-33.3286,300.8131]]]]}
,"properties": {"GID_2": "AUS.8.25_1","GID_0": "AUS","country": "Australia","GID_1": "AUS.8_1","state": "SouthAustralia","NL_NAME_1": "NA","county": "Kimba","VARNAME_2": "NA","NL_NAME_2": "NA","TYPE_2": "DistrictCouncil","ENGTYPE_2": "DistrictCouncil","CC_2": "43220","HASC_2": "AU.SA.KB","name": "Kimba.county","area_km2": 3984.552,"hist_schema_id": "Elevation0-9000","hist_area_km2": {"75": 3.348,"100": 103.598,"125": 241.891,"150": 346.907,"175": 419.369,"200": 498.15,"225": 642.356,"250": 644.822,"275": 479.883,"300": 292.777,"325": 170.684,"350": 99.642,"375": 32.635,"400": 6.24,"425": 1.843,"450": 0.248,"475": 0.16}}}