{"type": "Feature","bbox": [113.5883,-28.9865,115.4035,-27.1125],"geometry": {"type": "MultiPolygon","coordinates": [[[[113.8578,-28.9053,0.0],[113.8573,-28.9052,0.0],[113.8573,-28.9059,0.0],[113.8579,-28.9059,0.0],[113.8578,-28.9053,0.0]]],
[[[113.861,-28.8982,0.0],[113.8606,-28.8987,0.0],[113.8613,-28.899,0.0],[113.8617,-28.8984,0.0],[113.861,-28.8982,0.0]]],
[[[113.8607,-28.8865,1.9124],[113.8602,-28.8841,0.2804],[113.8577,-28.8837,0.0],[113.857,-28.8875,0.3209],[113.8613,-28.8902,0.0],[113.8607,-28.8865,1.9124]]],
[[[113.8178,-28.7411,0.0],[113.8173,-28.7413,0.0],[113.8173,-28.7417,0.0],[113.8179,-28.7416,0.0],[113.8178,-28.7411,0.0]]],
[[[113.788,-28.7747,0.0],[113.7866,-28.7738,0.9218],[113.7865,-28.7756,0.0],[113.7876,-28.7754,0.0],[113.788,-28.7747,0.0]]],
[[[113.8026,-28.7521,0.5178],[113.806,-28.7531,0.0],[113.8101,-28.7495,0.5562],[113.8017,-28.7517,0.0],[113.8026,-28.7521,0.5178]]],
[[[113.8105,-28.7475,0.0],[113.8098,-28.748,0.5562],[113.8102,-28.7485,0.5562],[113.8108,-28.7481,0.0],[113.8105,-28.7475,0.0]]],
[[[113.8117,-28.7477,0.7488],[113.8173,-28.7427,0.0],[113.814,-28.7448,2.3432],[113.8104,-28.7436,0.7051],[113.8117,-28.7477,0.7488]]],
[[[113.8335,-28.727,0.0],[113.8352,-28.726,0.6616],[113.8358,-28.7239,0.0],[113.8332,-28.7253,0.0],[113.8335,-28.727,0.0]]],
[[[113.8369,-28.7209,1.0227],[113.8364,-28.723,0.0],[113.8411,-28.71,1.2876],[113.8411,-28.7025,1.6211],[113.8399,-28.7007,0.5942],[113.8399,-28.7103,1.2876],[113.8369,-28.7209,1.0227]]],
[[[113.8343,-28.6948,0.0],[113.8371,-28.6981,0.0],[113.8377,-28.6949,0.0],[113.8363,-28.6925,0.0],[113.8343,-28.6948,0.0]]],
[[[113.8298,-28.6867,0.0],[113.8295,-28.6864,0.0],[113.8288,-28.6868,0.0],[113.8293,-28.6873,0.0],[113.8298,-28.6867,0.0]]],
[[[113.8337,-28.6827,1.6456],[113.8342,-28.6796,2.2858],[113.8316,-28.6794,0.0],[113.8335,-28.685,0.5199],[113.8321,-28.6869,0.0],[113.8348,-28.684,1.4864],[113.8337,-28.6827,1.6456]]],
[[[113.8593,-28.6814,0.0],[113.8595,-28.6812,0.0],[113.8589,-28.681,0.0],[113.8587,-28.6812,0.0],[113.8593,-28.6814,0.0]]],
[[[113.8564,-28.6749,0.0],[113.8561,-28.6744,0.0],[113.8557,-28.6748,0.0],[113.8559,-28.675,0.0],[113.8564,-28.6749,0.0]]],
[[[113.8573,-28.6744,0.0],[113.857,-28.6744,0.0],[113.8567,-28.6747,0.0],[113.8573,-28.6748,0.0],[113.8573,-28.6744,0.0]]],
[[[113.7806,-28.7378,0.0],[113.7797,-28.7384,0.0],[113.7796,-28.7405,0.0],[113.7807,-28.7388,0.9286],[113.7806,-28.7378,0.0]]],
[[[113.7829,-28.7346,0.0],[113.7822,-28.7347,0.0],[113.7822,-28.7354,0.0],[113.783,-28.7354,0.0],[113.7829,-28.7346,0.0]]],
[[[113.7874,-28.7327,0.0],[113.7868,-28.7317,0.0],[113.7857,-28.7324,0.0],[113.7863,-28.7331,0.0],[113.7874,-28.7327,0.0]]],
[[[113.7849,-28.7274,0.675],[113.7875,-28.7293,1.4604],[113.7878,-28.7255,1.9071],[113.7869,-28.7252,1.9071],[113.7849,-28.7274,0.675]]],
[[[113.7878,-28.7243,0.0],[113.7877,-28.7233,0.0],[113.7871,-28.7231,0.0],[113.787,-28.7235,0.0],[113.7878,-28.7243,0.0]]],
[[[113.785,-28.7095,0.0],[113.7799,-28.7095,0.0],[113.7837,-28.7176,0.0],[113.7841,-28.7229,1.5188],[113.7858,-28.7216,1.5188],[113.7879,-28.7139,3.5698],[113.7866,-28.7099,0.4892],[113.785,-28.7095,0.0]]],
[[[113.7804,-28.7012,0.0],[113.7799,-28.7007,0.0],[113.779,-28.7013,0.0],[113.7791,-28.7015,0.0],[113.7804,-28.7012,0.0]]],
[[[113.7844,-28.4837,0.0],[113.7835,-28.4835,0.0],[113.7828,-28.4837,0.0],[113.7838,-28.4843,0.0],[113.7844,-28.4837,0.0]]],
[[[113.7664,-28.4959,0.0],[113.7659,-28.4966,1.4202],[113.7678,-28.4975,0.6505],[113.7679,-28.4952,0.6151],[113.7664,-28.4959,0.0]]],
[[[113.7411,-28.4948,0.0],[113.7404,-28.4945,0.0],[113.7401,-28.4952,0.0],[113.7407,-28.4952,0.0],[113.7411,-28.4948,0.0]]],
[[[113.7315,-28.4778,0.0],[113.7304,-28.4779,0.0],[113.7309,-28.4793,0.0],[113.7316,-28.4789,0.0],[113.7315,-28.4778,0.0]]],
[[[113.7445,-28.476,0.0],[113.7431,-28.4758,0.0],[113.7425,-28.4767,0.0],[113.7431,-28.4769,0.0],[113.7445,-28.476,0.0]]],
[[[113.7132,-28.4736,0.0],[113.7125,-28.4736,0.0],[113.7125,-28.4744,0.0],[113.7136,-28.4745,0.0],[113.7132,-28.4736,0.0]]],
[[[113.7007,-28.4735,0.0],[113.7,-28.4736,0.0],[113.6998,-28.4741,0.0],[113.7009,-28.4745,0.0],[113.7007,-28.4735,0.0]]],
[[[113.6984,-28.4735,0.8271],[113.6982,-28.4743,0.8271],[113.6995,-28.4738,0.8271],[113.6991,-28.4734,0.8271],[113.6984,-28.4735,0.8271]]],
[[[113.7642,-28.4705,0.0],[113.7636,-28.4701,0.0],[113.7633,-28.4705,0.0],[113.7639,-28.4709,0.0],[113.7642,-28.4705,0.0]]],
[[[113.7735,-28.4769,0.0],[113.7727,-28.4786,0.0],[113.7744,-28.4782,0.0],[113.7746,-28.4754,0.7218],[113.7729,-28.4638,0.0],[113.772,-28.4656,0.0],[113.7735,-28.4769,0.0]]],
[[[113.8126,-28.4635,0.0],[113.8125,-28.4652,0.0],[113.8129,-28.4658,0.5598],[113.8141,-28.4635,1.2286],[113.8126,-28.4635,0.0]]],
[[[113.7722,-28.4614,0.0],[113.7724,-28.4627,0.0],[113.7731,-28.4618,0.0],[113.7722,-28.4614,0.0]]],
[[[113.7085,-28.4684,0.0],[113.7074,-28.4677,0.0],[113.7067,-28.4682,1.0374],[113.7075,-28.4688,1.0374],[113.7085,-28.4684,0.0]]],
[[[113.712,-28.4677,0.0],[113.7109,-28.4677,0.0],[113.7109,-28.4685,0.0],[113.7119,-28.4685,0.0],[113.712,-28.4677,0.0]]],
[[[113.706,-28.4603,2.5528],[113.7009,-28.4501,6.3779],[113.7021,-28.4475,4.5428],[113.7006,-28.4403,0.0],[113.6939,-28.4505,0.0],[113.6879,-28.4535,2.995],[113.6821,-28.454,0.0],[113.687,-28.4655,0.0],[113.6849,-28.469,0.0],[113.6858,-28.4851,0.0],[113.6961,-28.484,0.9072],[113.6954,-28.4804,5.9388],[113.6972,-28.4756,4.1274],[113.6958,-28.4757,4.1274],[113.6977,-28.4714,0.0],[113.6963,-28.4698,2.4041],[113.6993,-28.4674,5.7407],[113.7036,-28.4684,2.1983],[113.7042,-28.465,2.1441],[113.7083,-28.4647,1.2147],[113.7085,-28.4619,4.1682],[113.706,-28.4603,2.5528]]],
[[[113.7136,-28.4612,0.0],[113.7127,-28.4626,0.0],[113.7134,-28.4636,1.003],[113.7154,-28.4609,0.0],[113.7136,-28.4612,0.0]]],
[[[113.7245,-28.4612,0.0],[113.7238,-28.461,0.0],[113.7233,-28.4625,2.4754],[113.7242,-28.4622,2.4754],[113.7245,-28.4612,0.0]]],
[[[113.6785,-28.4586,0.0],[113.6783,-28.4581,0.0],[113.6764,-28.4583,0.0],[113.6767,-28.4587,0.0],[113.6785,-28.4586,0.0]]],
[[[113.7156,-28.4563,0.0],[113.7141,-28.4579,0.0],[113.7154,-28.4592,4.0563],[113.7185,-28.4531,1.2522],[113.7177,-28.4532,0.0],[113.7156,-28.4563,0.0]]],
[[[113.7276,-28.4526,0.0],[113.7255,-28.4546,0.0],[113.7256,-28.4556,0.0],[113.7281,-28.4531,1.4549],[113.7276,-28.4526,0.0]]],
[[[113.7175,-28.4506,0.0],[113.7167,-28.4505,0.0],[113.7162,-28.4515,1.4138],[113.7173,-28.4518,1.4138],[113.7175,-28.4506,0.0]]],
[[[113.7351,-28.4396,2.8082],[113.7435,-28.4301,1.8681],[113.7447,-28.4264,0.0],[113.7388,-28.4315,5.146],[113.7355,-28.4319,5.7998],[113.7322,-28.4288,0.0],[113.7245,-28.4277,0.0],[113.7188,-28.4296,0.0],[113.716,-28.433,0.0],[113.7191,-28.4448,0.0],[113.7212,-28.4474,0.823],[113.7298,-28.4441,4.7788],[113.7351,-28.4396,2.8082]]],
[[[113.5948,-28.3067,3.2167],[113.5994,-28.3075,2.8547],[113.6031,-28.3008,0.0],[113.6029,-28.2972,0.0],[113.5997,-28.2961,0.0],[113.5952,-28.2893,0.0],[113.5883,-28.2979,0.0],[113.5898,-28.3041,0.0],[113.5948,-28.3067,3.2167]]],
[[[113.9614,-28.9862,1.5542],[113.9607,-28.986,0.0],[113.9605,-28.9865,0.0],[113.9613,-28.9865,0.0],[113.9614,-28.9862,1.5542]]],
[[[113.8723,-28.9156,0.0],[113.8722,-28.9173,0.0],[113.8735,-28.9172,0.4333],[113.8737,-28.9162,0.2088],[113.8723,-28.9156,0.0]]],
[[[113.8768,-28.913,0.2547],[113.876,-28.9145,0.0],[113.8762,-28.9148,0.0],[113.8782,-28.9134,0.2547],[113.8768,-28.913,0.2547]]],
[[[113.8659,-28.9108,0.2089],[113.8649,-28.9101,0.2089],[113.8644,-28.9106,0.2089],[113.8652,-28.9112,0.2089],[113.8659,-28.9108,0.2089]]],
[[[113.994,-28.9113,0.0],[114.0022,-28.9063,0.0],[114.0054,-28.9006,0.87],[114.0034,-28.9004,0.6617],[114.0004,-28.9061,0.2043],[113.9952,-28.9082,0.5112],[113.9884,-28.9138,0.5163],[113.9824,-28.9234,1.6391],[113.9735,-28.9278,0.0],[113.9755,-28.9285,0.7525],[113.9692,-28.9346,0.0],[113.9667,-28.9328,0.0],[113.9647,-28.9417,0.0],[113.9645,-28.9545,0.0],[113.9568,-28.9648,0.2603],[113.9541,-28.9772,0.0],[113.9551,-28.9806,0.249],[113.9605,-28.9826,2.8635],[113.962,-28.9851,1.5542],[113.9607,-28.978,0.9604],[113.9574,-28.975,1.881],[113.9575,-28.9671,0.8579],[113.9664,-28.9545,-0.8341],[113.9656,-28.9486,0.7783],[113.9672,-28.9385,0.0],[113.9815,-28.9257,0.5089],[113.994,-28.9113,0.0]]],
[[[114.0064,-28.898,0.0],[114.006,-28.8992,0.0],[114.0063,-28.8994,0.0],[114.0075,-28.8981,0.0],[114.0064,-28.898,0.0]]],
[[[114.0046,-28.8968,0.0],[114.0042,-28.8977,0.0],[114.0049,-28.8982,0.0],[114.0051,-28.897,0.0],[114.0046,-28.8968,0.0]]],
[[[114.0041,-28.8724,0.2708],[114.0034,-28.8733,0.0],[114.0041,-28.8737,0.0],[114.005,-28.8733,0.0],[114.0041,-28.8724,0.2708]]],
[[[113.8818,-28.9091,0.0],[113.884,-28.9095,0.0],[113.8846,-28.9087,0.0],[113.882,-28.9084,0.0],[113.8818,-28.9091,0.0]]],
[[[113.879,-28.9085,0.0],[113.8785,-28.9085,0.0],[113.8783,-28.909,0.0],[113.8796,-28.909,0.0],[113.879,-28.9085,0.0]]],
[[[113.9098,-28.9091,0.6546],[113.9114,-28.9121,0.0],[113.9142,-28.9106,0.0],[113.9137,-28.9046,0.0],[113.911,-28.906,0.0],[113.9098,-28.9091,0.6546]]],
[[[113.8713,-28.9056,0.0],[113.8709,-28.9062,0.0],[113.8733,-28.9062,0.0],[113.8733,-28.9058,0.0],[113.8713,-28.9056,0.0]]],
[[[113.9462,-28.901,0.3324],[113.9459,-28.9006,0.3324],[113.9454,-28.9003,0.3324],[113.9454,-28.901,0.3324],[113.9462,-28.901,0.3324]]],
[[[113.897,-28.8971,0.0],[113.8978,-28.8988,0.0],[113.8996,-28.8961,0.0],[113.8968,-28.8963,0.0],[113.897,-28.8971,0.0]]],
[[[113.9221,-28.8876,0.0],[113.921,-28.8897,0.0],[113.9217,-28.8903,0.0],[113.9221,-28.8901,0.0],[113.9221,-28.8876,0.0]]],
[[[113.9625,-28.8743,0.0],[113.9613,-28.8761,0.0],[113.9619,-28.8767,0.0],[113.9631,-28.8747,0.0],[113.9625,-28.8743,0.0]]],
[[[113.852,-28.674,1.6634],[113.851,-28.6748,0.0],[113.8531,-28.6756,0.3831],[113.8541,-28.6733,0.0],[113.8539,-28.6732,1.6634],[113.852,-28.674,1.6634]]],
[[[113.8298,-28.6741,2.2987],[113.8307,-28.676,1.0738],[113.8323,-28.6738,3.0038],[113.8294,-28.6703,0.6507],[113.8303,-28.6731,2.2987],[113.8298,-28.6741,2.2987]]],
[[[113.8593,-28.6727,0.0],[113.8593,-28.6719,0.0],[113.8589,-28.6719,0.0],[113.8587,-28.6726,0.0],[113.8593,-28.6727,0.0]]],
[[[113.8552,-28.6721,0.0],[113.8551,-28.6715,0.0],[113.8544,-28.6718,0.0],[113.8545,-28.6721,0.0],[113.8552,-28.6721,0.0]]],
[[[113.8539,-28.6706,0.0],[113.8537,-28.6699,0.0],[113.853,-28.6704,0.0],[113.8533,-28.6708,0.0],[113.8539,-28.6706,0.0]]],
[[[113.862,-28.6684,0.0],[113.8616,-28.6697,0.0],[113.8635,-28.6689,0.0],[113.8628,-28.668,0.0],[113.862,-28.6684,0.0]]],
[[[113.827,-28.6671,0.0],[113.8274,-28.6684,0.0],[113.8296,-28.6684,0.0],[113.8276,-28.6667,0.5037],[113.827,-28.6671,0.0]]],
[[[113.8764,-28.6645,0.0],[113.8756,-28.6664,0.0],[113.877,-28.6659,0.7225],[113.8776,-28.6622,0.3377],[113.8764,-28.6626,0.0],[113.8764,-28.6645,0.0]]],
[[[113.8783,-28.6571,0.0],[113.8776,-28.6604,0.0],[113.8781,-28.6607,0.0],[113.8786,-28.6583,0.0],[113.8783,-28.6571,0.0]]],
[[[113.883,-28.6294,0.0],[113.8822,-28.6303,0.0],[113.8841,-28.6305,1.7339],[113.8842,-28.6296,1.7339],[113.883,-28.6294,0.0]]],
[[[113.8034,-28.4815,0.0],[113.802,-28.4835,0.0],[113.802,-28.484,0.0],[113.8041,-28.4824,0.0],[113.8034,-28.4815,0.0]]],
[[[113.808,-28.474,0.0],[113.8076,-28.4765,0.0],[113.8077,-28.4768,0.0],[113.809,-28.4753,0.0],[113.808,-28.474,0.0]]],
[[[113.7844,-28.4757,1.0676],[113.7862,-28.4761,0.4835],[113.7865,-28.4758,0.4835],[113.7842,-28.4743,0.0],[113.7844,-28.4757,1.0676]]],
[[[113.8096,-28.4738,0.0],[113.8096,-28.4734,0.0],[113.8091,-28.4735,0.0],[113.8093,-28.4739,0.0],[113.8096,-28.4738,0.0]]],
[[[114.0026,-28.8706,0.0],[114.0014,-28.8704,0.1579],[114.0005,-28.8709,0.1579],[114.0029,-28.8718,0.2708],[114.0026,-28.8706,0.0]]],
[[[113.9869,-28.8691,0.3283],[113.9863,-28.8712,0.6354],[113.9881,-28.8711,0.0],[113.9877,-28.8689,0.0],[113.9869,-28.8691,0.3283]]],
[[[113.9698,-28.8668,0.0],[113.9678,-28.867,0.1284],[113.9673,-28.8691,0.0],[113.9682,-28.8678,0.1284],[113.9698,-28.8668,0.0]]],
[[[113.9871,-28.8658,0.2954],[113.9862,-28.8655,0.2954],[113.9856,-28.8659,0.2954],[113.9864,-28.8667,0.0],[113.9871,-28.8658,0.2954]]],
[[[113.9757,-28.8671,0.2167],[113.978,-28.8661,0.2731],[113.9769,-28.8629,0.0],[113.9746,-28.8653,0.0],[113.9772,-28.8654,0.197],[113.9757,-28.8671,0.2167]]],
[[[113.9957,-28.8648,0.0],[114.0008,-28.8637,0.0],[113.9959,-28.8626,0.053],[113.9934,-28.8644,0.0],[113.9957,-28.8648,0.0]]],
[[[114.017,-28.8526,0.0],[114.0163,-28.8533,0.0],[114.0174,-28.8539,0.0],[114.0174,-28.8531,0.0],[114.017,-28.8526,0.0]]],
[[[114.0158,-28.8519,0.0],[114.0148,-28.8518,0.0],[114.0148,-28.8523,0.0],[114.0153,-28.8525,0.0],[114.0158,-28.8519,0.0]]],
[[[113.8778,-28.8728,0.0],[113.878,-28.8726,0.0],[113.8775,-28.8715,0.0],[113.8772,-28.8719,0.0],[113.8778,-28.8728,0.0]]],
[[[113.9641,-28.8716,0.0],[113.9651,-28.8731,0.0],[113.966,-28.8711,0.1663],[113.9656,-28.8709,0.1663],[113.9641,-28.8716,0.0]]],
[[[113.8607,-28.6912,1.4877],[113.8655,-28.6898,0.0],[113.8696,-28.686,0.3326],[113.8651,-28.6887,1.4063],[113.8603,-28.6893,1.6093],[113.8598,-28.6861,0.0],[113.8586,-28.6907,0.6676],[113.8607,-28.6912,1.4877]]],
[[[113.8764,-28.6695,0.0],[113.8759,-28.6726,0.0],[113.8778,-28.6731,0.0],[113.878,-28.6708,2.3515],[113.8764,-28.6695,0.0]]],
[[[114.0179,-28.8512,0.0],[114.0171,-28.8511,0.0],[114.017,-28.8519,0.0],[114.0179,-28.8521,0.0],[114.0179,-28.8512,0.0]]],
[[[114.0381,-28.7993,-0.6294],[114.0384,-28.801,-0.2534],[114.0428,-28.8011,-0.1186],[114.0417,-28.7997,-0.1186],[114.0381,-28.7993,-0.6294]]],
[[[114.2774,-28.2143,0.0],[114.2773,-28.2141,0.0],[114.2771,-28.2141,0.0],[114.2772,-28.2143,0.0],[114.2774,-28.2143,0.0]]],
[[[115.2549,-27.9144,237.1111],[115.2592,-27.9143,241.6737],[115.2587,-27.8181,240.4803],[115.358,-27.8182,254.6649],[115.3579,-27.8161,254.2267],[115.3295,-27.8161,257.5255],[115.3296,-27.6926,249.8957],[115.399,-27.6926,267.4939],[115.399,-27.6676,266.871],[115.4035,-27.6676,263.6904],[115.4035,-27.5648,254.6213],[115.3353,-27.5648,244.8375],[115.3353,-27.5632,244.2043],[115.3048,-27.5632,267.9922],[115.3048,-27.539,246.4298],[115.2289,-27.5389,214.1356],[115.2289,-27.495,231.2741],[115.2025,-27.495,235.3042],[115.2025,-27.387,255.2455],[115.2292,-27.387,265.5336],[115.2292,-27.3031,264.173],[115.2137,-27.3031,260.7752],[115.2137,-27.2832,267.4142],[114.9749,-27.2832,220.0798],[114.9749,-27.2979,219.3412],[114.8105,-27.2832,219.6812],[114.4573,-27.2832,190.3779],[114.4573,-27.2282,192.4852],[114.2828,-27.2282,179.5533],[114.2821,-27.2014,171.5075],[114.2305,-27.2014,154.2755],[114.2305,-27.1125,144.0582],[114.0679,-27.1125,88.1471],[114.0679,-27.23,105.2362],[113.9643,-27.2295,9.1792],[113.976,-27.253,5.0346],[113.9873,-27.2706,9.3805],[113.9893,-27.2772,0.0],[113.9998,-27.2944,0.0],[114.0005,-27.298,0.0],[114.0042,-27.3006,34.2435],[114.0069,-27.3078,7.1485],[114.0164,-27.3208,3.5453],[114.037,-27.3638,0.0],[114.0436,-27.3738,39.9585],[114.0649,-27.4201,18.5586],[114.086,-27.4603,9.5228],[114.0923,-27.479,5.7204],[114.1043,-27.5032,0.0],[114.1115,-27.5243,38.9602],[114.1152,-27.5447,0.0],[114.1293,-27.5871,0.0],[114.1371,-27.6036,19.5209],[114.145,-27.6271,14.584],[114.1511,-27.6497,0.0],[114.154,-27.6688,3.6706],[114.1587,-27.6834,11.3561],[114.1596,-27.6958,0.8702],[114.1634,-27.707,0.0],[114.1657,-27.7063,0.0],[114.1636,-27.7023,1.0459],[114.1639,-27.6985,2.1709],[114.1685,-27.6972,0.9561],[114.1725,-27.6876,1.1703],[114.1705,-27.6786,2.1859],[114.1662,-27.673,24.8967],[114.1656,-27.6681,4.0277],[114.1735,-27.6589,0.9747],[114.1748,-27.6604,0.5],[114.1726,-27.6625,0.5],[114.17,-27.6746,1.0662],[114.1762,-27.6809,2.28],[114.1817,-27.6803,3.9185],[114.1769,-27.6893,0.5],[114.1778,-27.6923,5.5405],[114.1752,-27.6927,0.2943],[114.1675,-27.7004,1.0404],[114.1672,-27.7066,2.5177],[114.1658,-27.7083,2.7023],[114.1621,-27.7101,5.6135],[114.1619,-27.7078,0.0],[114.1607,-27.7091,0.0],[114.1577,-27.7085,0.0],[114.1516,-27.7335,1.0322],[114.1454,-27.7357,0.0],[114.1444,-27.7431,10.327],[114.1393,-27.7452,8.6172],[114.133,-27.7626,4.2449],[114.1244,-27.7729,1.7977],[114.1173,-27.7938,75.9137],[114.1179,-27.8001,42.8937],[114.1123,-27.8133,4.8145],[114.1126,-27.8263,53.6916],[114.1084,-27.8332,33.2623],[114.1062,-27.8441,0.0],[114.1072,-27.847,60.1738],[114.1054,-27.8504,19.6413],[114.1255,-27.9042,0.0],[114.1446,-27.9724,5.8717],[114.1499,-28.0008,0.0],[114.1561,-28.0178,0.0],[114.1582,-28.0379,0.0],[114.1657,-28.0645,1.3139],[114.1641,-28.0676,0.0],[114.1692,-28.0931,6.1061],[114.1747,-28.111,0.0],[114.1779,-28.1142,2.9015],[114.1899,-28.1196,1.5873],[114.1972,-28.1268,4.3117],[114.2328,-28.1755,0.383],[114.2387,-28.1872,0.0],[114.2426,-28.1873,4.2353],[114.2538,-28.1926,3.4121],[114.2689,-28.2064,0.0],[114.2774,-28.2116,0.0],[114.3084,-28.2232,0.0],[114.3233,-28.2331,6.272],[114.3288,-28.2458,2.9937],[114.3327,-28.2494,10.3408],[114.3343,-28.2561,5.0722],[114.3417,-28.2672,8.8372],[114.3479,-28.2727,40.427],[114.3559,-28.2839,3.3362],[114.3633,-28.2879,45.6427],[114.3746,-28.2981,38.3052],[114.3761,-28.3049,0.0],[114.3848,-28.3158,14.2462],[114.4054,-28.3354,62.2102],[114.4088,-28.3418,2.5729],[114.4083,-28.3516,4.9462],[114.4207,-28.3697,0.0],[114.4281,-28.377,7.5478],[114.4311,-28.3866,2.3794],[114.4306,-28.3898,2.2036],[114.433,-28.3942,8.6707],[114.4518,-28.4104,6.2477],[114.4539,-28.4105,2.8788],[114.4545,-28.4085,7.952],[114.4571,-28.4069,4.7823],[114.4576,-28.4082,1.8249],[114.4656,-28.4073,3.7665],[114.4667,-28.4085,9.1982],[114.4553,-28.4085,2.293],[114.4546,-28.4103,2.8788],[114.4657,-28.4245,4.1201],[114.4714,-28.428,2.7279],[114.4947,-28.4506,12.9155],[114.5217,-28.4835,4.7132],[114.5267,-28.4922,0.0],[114.53,-28.4949,0.7484],[114.5337,-28.4945,18.2234],[114.5329,-28.4954,5.2365],[114.5314,-28.4952,5.2365],[114.531,-28.496,5.2365],[114.5329,-28.5023,0.0],[114.5492,-28.527,0.6512],[114.5563,-28.5341,9.8428],[114.56,-28.5439,4.1637],[114.5733,-28.5341,91.3873],[114.5712,-28.5289,95.4852],[114.5832,-28.5206,42.3205],[114.5855,-28.5254,60.4429],[114.597,-28.5254,72.8314],[114.5964,-28.5307,63.4866],[114.614,-28.5307,116.6355],[114.6154,-28.5372,103.0003],[114.6307,-28.5373,110.7314],[114.6305,-28.5262,125.1833],[114.6283,-28.5198,136.4762],[114.6315,-28.5199,138.8362],[114.6308,-28.5093,159.7727],[114.6267,-28.504,153.7801],[114.6272,-28.4958,146.1871],[114.6326,-28.4959,166.0377],[114.6326,-28.499,166.5294],[114.6451,-28.4992,213.4848],[114.6452,-28.4905,179.395],[114.6673,-28.4908,193.4648],[114.6673,-28.4821,183.8735],[114.6788,-28.4809,198.1895],[114.6794,-28.4562,189.6217],[114.6877,-28.4562,218.3815],[114.6877,-28.4409,199.6713],[114.6796,-28.4408,192.5365],[114.6795,-28.4374,178.7955],[114.7241,-28.4373,230.3719],[114.7241,-28.4219,236.6053],[114.7424,-28.4219,202.585],[114.7368,-28.4133,224.9387],[114.7369,-28.4056,223.1484],[114.7456,-28.4057,207.6089],[114.7459,-28.395,213.6599],[114.7507,-28.3912,218.7791],[114.7551,-28.3909,226.9531],[114.7613,-28.383,246.8564],[114.782,-28.3724,276.7569],[114.7819,-28.354,266.2814],[114.7905,-28.354,285.5511],[114.7906,-28.3387,289.4823],[114.7959,-28.3387,290.4855],[114.796,-28.2755,285.3063],[114.7917,-28.2755,284.7965],[114.7917,-28.2626,297.1636],[114.7694,-28.2626,289.7022],[114.7694,-28.2171,276.4247],[114.9846,-28.2171,277.1511],[114.9893,-28.1687,273.9583],[115.0206,-28.161,276.0005],[115.0393,-28.0468,258.8151],[115.0393,-28.0242,251.4911],[115.0518,-28.0242,252.1822],[115.0518,-28.0063,256.5052],[115.0574,-28.0061,258.7491],[115.0574,-27.9902,258.7675],[115.0589,-27.9902,260.0281],[115.0589,-27.9521,270.4759],[115.0707,-27.9499,273.4883],[115.0777,-27.9512,278.9608],[115.1016,-27.9402,256.5164],[115.1197,-27.9417,258.7424],[115.1287,-27.9369,261.5217],[115.1833,-27.9397,248.702],[115.1946,-27.9344,246.986],[115.2518,-27.9364,238.6613],[115.2518,-27.9144,232.8845],[115.2549,-27.9144,237.1111]]]]}
,"properties": {"GID_2": "AUS.11.97_1","GID_0": "AUS","country": "Australia","GID_1": "AUS.11_1","state": "WesternAustralia","NL_NAME_1": "NA","county": "Northampton","VARNAME_2": "NA","NL_NAME_2": "NA","TYPE_2": "Shire","ENGTYPE_2": "Shire","CC_2": "56790","HASC_2": "AU.WA.NP","name": "Northampton.county","area_km2": 12639.602,"hist_schema_id": "Elevation0-9000","hist_area_km2": {"0": 138.756,"25": 140.593,"50": 186.977,"75": 289.022,"100": 523.659,"125": 634.174,"150": 1011.258,"175": 1155.833,"200": 1627.843,"225": 2791.402,"250": 3042.169,"275": 1030.027,"300": 67.888}}}