{"type":"Feature","properties":{"GID_2":"AUS.5.40_1","GID_0":"AUS","country":"Australia","GID_1":"AUS.5_1","state":"NewSouthWales","NL_NAME_1":"NA","county":"Cootamundra","VARNAME_2":"NA","NL_NAME_2":"NA","TYPE_2":"Area","ENGTYPE_2":"Area","CC_2":"12200","HASC_2":"AU.NS.CQ","name":"Cootamundra.county"},
"geometry":{"type": "MultiPolygon","coordinates": [[[[148.2738,-34.7988,281.6359],[148.2727,-34.7969,284.2831],[148.2753,-34.7942,294.281],[148.2733,-34.7927,287.2144],[148.2718,-34.794,283.1802],[148.2693,-34.791,287.107],[148.272,-34.7877,289.2876],[148.269,-34.7816,291.3453],[148.2672,-34.7792,293.0617],[148.2646,-34.7794,295.2955],[148.2605,-34.7734,295.4437],[148.2561,-34.7709,302.5953],[148.2625,-34.761,309.9446],[148.2654,-34.7605,309.4984],[148.2621,-34.7566,311.0851],[148.2615,-34.7508,315.8749],[148.2685,-34.746,325.8373],[148.2682,-34.7422,333.9623],[148.2654,-34.7392,337.9774],[148.2607,-34.7385,338.0767],[148.2606,-34.7373,337.3936],[148.2466,-34.7354,357.1127],[148.2469,-34.7323,373.8888],[148.2432,-34.7321,381.002],[148.2426,-34.735,366.2909],[148.2329,-34.7337,391.7593],[148.232,-34.7378,372.9351],[148.2415,-34.7391,375.3727],[148.2401,-34.7421,395.4819],[148.2306,-34.7408,391.6605],[148.2313,-34.7368,372.9351],[148.2252,-34.7361,400.8087],[148.2259,-34.7319,409.9384],[148.2239,-34.7317,394.3587],[148.2248,-34.7274,423.1008],[148.2225,-34.7271,407.1278],[148.2233,-34.7229,419.102],[148.2278,-34.7234,429.9218],[148.2301,-34.7092,441.434],[148.2345,-34.7096,464.4114],[148.2358,-34.7018,478.6896],[148.2264,-34.7006,473.807],[148.2268,-34.6987,474.2255],[148.2193,-34.6977,458.6747],[148.2201,-34.6936,490.4825],[148.2155,-34.693,469.0464],[148.2152,-34.6946,468.3943],[148.207,-34.6936,533.5795],[148.2062,-34.6981,517.0569],[148.2021,-34.6976,522.3664],[148.2073,-34.6676,560.3817],[148.2023,-34.667,532.5177],[148.2026,-34.665,532.0349],[148.1935,-34.6638,517.5897],[148.1973,-34.6437,554.6185],[148.2021,-34.6443,549.4045],[148.2018,-34.6459,538.1705],[148.2031,-34.646,538.1705],[148.2041,-34.6409,533.4982],[148.2118,-34.6419,523.5524],[148.214,-34.6303,537.5696],[148.2118,-34.63,537.2199],[148.2129,-34.6249,539.8158],[148.2099,-34.6244,529.1782],[148.2092,-34.6277,535.5959],[148.2049,-34.627,542.1608],[148.2041,-34.6307,553.9718],[148.1997,-34.6301,532.4417],[148.2012,-34.6228,532.0015],[148.1928,-34.6215,517.2549],[148.1942,-34.6149,545.1628],[148.204,-34.6159,528.5048],[148.2062,-34.6058,533.506],[148.2091,-34.6054,524.9126],[148.2028,-34.6045,525.7544],[148.2035,-34.6009,527.1093],[148.1986,-34.6003,499.9173],[148.1991,-34.5959,492.3742],[148.1949,-34.5954,506.3611],[148.1933,-34.599,507.871],[148.1938,-34.5952,506.3611],[148.1983,-34.5951,492.3742],[148.1987,-34.5933,490.4435],[148.2026,-34.594,498.9272],[148.2031,-34.5832,518.6801],[148.209,-34.584,502.0264],[148.208,-34.5895,529.5151],[148.212,-34.5901,517.9037],[148.213,-34.5855,503.6987],[148.2361,-34.5874,447.857],[148.2371,-34.5823,443.9483],[148.2244,-34.5807,492.2874],[148.2285,-34.5593,418.0209],[148.2224,-34.5586,417.9513],[148.2198,-34.5613,430.3232],[148.2131,-34.561,433.8798],[148.2057,-34.5557,431.9183],[148.2077,-34.5453,460.7523],[148.2181,-34.5467,464.8593],[148.2239,-34.543,488.7398],[148.2194,-34.5423,480.5028],[148.2216,-34.5317,504.8478],[148.212,-34.5289,519.3276],[148.2099,-34.5261,519.1998],[148.2048,-34.5243,520.1273],[148.2036,-34.5169,518.6799],[148.1949,-34.5133,512.7965],[148.1966,-34.5116,524.4742],[148.1975,-34.5037,532.5657],[148.1956,-34.4969,541.7111],[148.2001,-34.4906,522.476],[148.1986,-34.489,518.6667],[148.1824,-34.4855,526.735],[148.1821,-34.4869,530.7269],[148.1642,-34.4848,493.2477],[148.1678,-34.4706,494.9831],[148.1566,-34.4687,488.0782],[148.1567,-34.4673,487.7693],[148.1192,-34.4616,427.0103],[148.1076,-34.4668,402.4429],[148.1027,-34.4612,389.1776],[148.1013,-34.4569,392.1393],[148.0987,-34.4581,390.8229],[148.0873,-34.4409,381.4391],[148.0774,-34.4398,407.394],[148.0781,-34.4362,380.6814],[148.0662,-34.4348,390.1569],[148.0676,-34.4269,374.9108],[148.0576,-34.4256,370.818],[148.0598,-34.4121,340.8121],[148.0397,-34.4098,330.0139],[148.0386,-34.4155,329.0228],[148.0158,-34.4131,324.0013],[148.0274,-34.3498,318.345],[147.9114,-34.3365,280.1845],[147.9103,-34.3428,279.4069],[147.8958,-34.3409,272.5614],[147.8945,-34.348,271.6549],[147.8245,-34.34,263.9555],[147.8267,-34.3514,263.2648],[147.8253,-34.3527,263.2648],[147.8258,-34.3562,262.6356],[147.8309,-34.3591,261.0017],[147.8321,-34.3572,260.5873],[147.8331,-34.3601,259.813],[147.8352,-34.3595,260.6976],[147.8338,-34.3607,260.661],[147.8343,-34.3654,264.5541],[147.8366,-34.3689,264.2647],[147.8396,-34.368,262.653],[147.8443,-34.3719,262.137],[147.8421,-34.3792,266.2516],[147.8348,-34.3826,268.5685],[147.8365,-34.3827,267.1903],[147.8358,-34.3846,267.4746],[147.8382,-34.3861,265.0259],[147.8371,-34.387,270.47],[147.8374,-34.3924,271.8698],[147.8392,-34.3938,270.0507],[147.8376,-34.3952,271.5047],[147.8418,-34.3985,271.7085],[147.8432,-34.3978,266.5764],[147.8428,-34.3994,271.7085],[147.8482,-34.3996,273.6099],[147.8499,-34.4037,275.3543],[147.8517,-34.4029,273.967],[147.8552,-34.4045,268.6832],[147.8528,-34.407,273.1103],[147.855,-34.4089,275.5953],[147.8565,-34.4083,269.4671],[147.855,-34.4103,274.9023],[147.8573,-34.4138,274.3698],[147.8549,-34.4154,277.6235],[147.8564,-34.4163,273.9073],[147.8555,-34.4212,277.2469],[147.8523,-34.4226,277.7208],[147.8556,-34.4233,277.808],[147.8537,-34.427,274.5177],[147.856,-34.4266,274.7983],[147.8574,-34.4279,274.6833],[147.8566,-34.4294,277.293],[147.8605,-34.4283,278.7672],[147.8611,-34.4318,273.9016],[147.8626,-34.4317,277.1452],[147.8615,-34.4348,281.3561],[147.8674,-34.438,284.4435],[147.872,-34.445,278.6201],[147.8723,-34.4501,278.2499],[147.8755,-34.4571,282.1598],[147.8655,-34.4559,280.8235],[147.8638,-34.4569,282.731],[147.8642,-34.4547,282.1433],[147.8487,-34.4526,289.342],[147.8497,-34.4473,288.9203],[147.836,-34.4456,288.779],[147.8354,-34.4487,287.7312],[147.8388,-34.4491,298.889],[147.8379,-34.4539,313.6738],[147.7904,-34.4468,302.4531],[147.7893,-34.4525,305.7764],[147.788,-34.4524,301.9537],[147.7873,-34.4563,308.8244],[147.7855,-34.4561,305.3557],[147.7842,-34.4629,299.6672],[147.7864,-34.4632,299.3323],[147.7848,-34.4724,307.3891],[147.7831,-34.4799,312.2029],[147.781,-34.4797,312.6078],[147.7798,-34.4853,317.5271],[147.7817,-34.4856,317.0605],[147.7787,-34.4888,322.1828],[147.7852,-34.4897,337.0025],[147.7832,-34.4912,330.1915],[147.786,-34.4941,351.3796],[147.7655,-34.5159,362.8786],[147.7728,-34.5168,396.4965],[147.7696,-34.5331,480.0123],[147.7733,-34.5339,476.0498],[147.7822,-34.543,453.202],[147.7894,-34.5379,488.6998],[147.7965,-34.5457,471.7362],[147.7968,-34.5495,444.0192],[147.8005,-34.5534,409.9233],[147.8049,-34.553,410.4879],[147.8038,-34.5586,393.8087],[147.8089,-34.563,393.7728],[147.8097,-34.5585,387.2115],[147.8119,-34.5588,391.1099],[147.8107,-34.5665,404.7965],[147.8137,-34.5692,396.5031],[147.8103,-34.5687,395.5516],[147.8086,-34.5781,392.2865],[147.8195,-34.5795,396.3468],[147.8175,-34.5894,406.6776],[147.8212,-34.5898,430.9142],[147.8214,-34.5886,423.2202],[147.8246,-34.5891,426.7921],[147.8249,-34.5878,418.9657],[147.8303,-34.5885,413.8846],[147.8297,-34.5916,408.5533],[147.8344,-34.5922,405.637],[147.8329,-34.6003,391.364],[147.8385,-34.6011,383.2595],[147.8388,-34.6077,385.1163],[147.8406,-34.608,381.7337],[147.8382,-34.6209,383.79],[147.851,-34.6225,413.2324],[147.8503,-34.6266,422.134],[147.8622,-34.628,457.0267],[147.8611,-34.6343,435.6274],[147.8703,-34.6354,438.9083],[147.8689,-34.6431,458.1115],[147.87,-34.6433,458.1115],[147.8701,-34.6494,448.9047],[147.8673,-34.6676,483.0166],[147.8681,-34.6697,480.0179],[147.8705,-34.6703,465.7757],[147.8724,-34.6762,488.0034],[147.8675,-34.6799,523.1058],[147.8661,-34.6832,541.5627],[147.8664,-34.6873,625.0427],[147.8699,-34.6908,652.0772],[147.872,-34.6965,668.3203],[147.8651,-34.6962,466.7923],[147.8635,-34.7059,432.4164],[147.8736,-34.7072,702.8984],[147.8785,-34.7149,612.7131],[147.8792,-34.7185,687.2087],[147.8767,-34.7213,689.661],[147.8789,-34.7254,570.8913],[147.8822,-34.7263,498.8285],[147.8842,-34.731,466.8601],[147.8885,-34.7329,437.1615],[147.8956,-34.7337,434.3439],[147.8952,-34.7325,437.2733],[147.9088,-34.7354,510.3674],[147.9141,-34.7351,536.8328],[147.9148,-34.7314,541.5524],[147.9165,-34.7341,542.236],[147.9231,-34.7314,521.17],[147.9243,-34.7341,523.3011],[147.9279,-34.7346,510.1196],[147.9276,-34.7363,514.5081],[147.9358,-34.7374,519.7521],[147.935,-34.7421,525.3688],[147.9385,-34.7426,514.4608],[147.9393,-34.7443,521.7222],[147.9479,-34.7428,556.8475],[147.9499,-34.7439,566.5923],[147.9492,-34.7472,570.8995],[147.9466,-34.7494,546.5062],[147.9454,-34.7553,533.5307],[147.95,-34.7559,517.3566],[147.9485,-34.7631,515.2896],[147.942,-34.7623,487.1486],[147.9415,-34.7646,492.5468],[147.9461,-34.7652,503.1665],[147.9442,-34.7701,507.1029],[147.9411,-34.7738,534.3306],[147.9412,-34.776,539.4028],[147.9337,-34.7767,524.7681],[147.9316,-34.7866,501.8138],[147.9488,-34.789,492.7724],[147.9454,-34.8074,555.14],[147.9377,-34.806399999999996,594.8903],[147.9364,-34.8161,582.6735],[147.9419,-34.8267,604.8134],[147.9433,-34.833,596.6002],[147.9429,-34.8352,589.5651],[147.9394,-34.837,565.8981],[147.9621,-34.8331,514.1432],[147.9653,-34.8331,494.3577],[147.9713,-34.8371,513.3785],[147.9783,-34.8348,517.5147],[147.984,-34.8363,497.8833],[147.9857,-34.8282,513.2394],[147.9896,-34.8309,513.9672],[147.9895,-34.8351,491.9658],[148.0147,-34.8386,457.4406],[148.0167,-34.8287,494.4565],[148.0154,-34.8286,510.8822],[148.0212,-34.8251,469.2487],[148.0229,-34.8197,468.8302],[148.0351,-34.8175,412.5237],[148.0441,-34.8223,406.1367],[148.0485,-34.8221,388.3553],[148.0501,-34.8135,344.4684],[148.0632,-34.8153,342.0439],[148.0658,-34.8023,322.5939],[148.0782,-34.8039,330.4831],[148.0794,-34.7975,330.7436],[148.087,-34.7984,316.168],[148.0888,-34.7886,317.4179],[148.0916,-34.7889,307.9064],[148.0919,-34.7875,302.3969],[148.1019,-34.7889,293.2296],[148.1036,-34.78,272.8665],[148.1058,-34.7824,272.9471],[148.1169,-34.7762,313.4227],[148.1179,-34.7708,351.626],[148.1215,-34.7712,356.8022],[148.1211,-34.7739,343.6266],[148.1223,-34.7732,360.6065],[148.1274,-34.7789,324.3589],[148.1405,-34.7805,351.9917],[148.1403,-34.7818,349.0272],[148.1452,-34.7824,388.6306],[148.1448,-34.7845,402.5823],[148.1528,-34.7855,441.7371],[148.1533,-34.783,452.2501],[148.1674,-34.785,446.4721],[148.1666,-34.7896,433.1378],[148.1787,-34.7913,507.1613],[148.1792,-34.789,523.1345],[148.2323,-34.7958,330.2885],[148.2362,-34.8012,310.1931],[148.2418,-34.8017,308.6542],[148.2449,-34.7994,328.1566],[148.2536,-34.7975,294.8926],[148.2573,-34.7993,292.4158],[148.2594,-34.7986,289.0075],[148.264,-34.8043,288.5168],[148.2738,-34.7988,281.6359]]]]}}