{"type": "Feature","bbox": [128.49539124120247,-16.796303316061,129.04909016433714,-16.066574644901607],"geometry": {"type": "Polygon","coordinates": [[[129.02612976242085,-16.115144725878338,117.2082],[128.95077254587517,-16.108079986827164,115.1933],[128.93046142110308,-16.109257443335679,112.8963],[128.91338830172941,-16.11278981286128,114.8328],[128.89778700299144,-16.119854551912425,98.5865],[128.88248006838057,-16.131629116997686,200.9424],[128.87158859567671,-16.145758595100034,98.23],[128.86452385662557,-16.159004980820953,105.0652],[128.85539856868451,-16.168130268762013,91.0],[128.83803108518373,-16.1696020893977,112.513],[128.84686200899768,-16.151351513515522,91.0],[128.84097472645504,-16.144875502718634,94.4258],[128.83008325375118,-16.149879692879864,91.4606],[128.82066360168295,-16.178138649084502,94.7989],[128.811832677869,-16.187558301152706,91.0],[128.80064684103797,-16.193739947822479,108.7441],[128.79004973246123,-16.196977953220937,99.8874],[128.8065341235806,-16.177844284957359,147.031],[128.80947776485192,-16.168424632889156,94.8143],[128.80300175405506,-16.156061339549638,97.7975],[128.80005811278374,-16.16047680145661,102.4023],[128.79004973246123,-16.1696020893977,115.0115],[128.79181591722403,-16.164303535109326,91.0],[128.79387646611394,-16.15458951891398,91.0],[128.79623137913103,-16.148996600498464,95.5198],[128.77562589023182,-16.152234605896922,91.0],[128.73647546132327,-16.170779545906214,113.3666],[128.72793890163649,-16.1696020893977,91.0],[128.73264872767055,-16.153412062405437,91.0],[128.74972184704421,-16.138105127794603,114.4604],[128.807417215962,-16.102781432538791,114.5142],[128.82154669406435,-16.087768862055071,124.7882],[128.82301851469998,-16.074228112207038,101.4374],[128.80300175405506,-16.066574644901607,117.2841],[128.78651736293568,-16.069223922045779,91.0],[128.77032733594342,-16.077466117605468,316.2532],[128.7450120210101,-16.097482878250418,153.7868],[128.73647546132327,-16.111612356352737,199.0738],[128.73058817878064,-16.128685475726371,159.1599],[128.72175725496669,-16.143109317955833,91.0],[128.70380104321168,-16.148996600498464,91.0],[128.69438139114345,-16.145169866845748,97.8931],[128.67671954351556,-16.131040388743429,117.5597],[128.66965480446441,-16.131629116997686,124.5179],[128.66288442954038,-16.141931861447318,128.1301],[128.65876333176055,-16.151940241769779,98.4208],[128.65346477747215,-16.15959370907521,96.9094],[128.6231452723776,-16.166364083999241,99.2632],[128.63698038635277,-16.174311915431787,93.9318],[128.66023515239618,-16.18049356210156,91.0],[128.66965480446441,-16.179904833847303,91.0],[128.70291795083028,-16.210518703069,134.7026],[128.71439815178843,-16.224353817044175,91.0],[128.70527286384731,-16.241721300544953,110.3999],[128.69379266288922,-16.2590887840457,91.0],[128.68142936954968,-16.229358007205406,139.1397],[128.68025191304116,-16.224353817044175,280.3522],[128.67053789684581,-16.223765088789918,121.5445],[128.6640618860489,-16.228180550696891,112.5945],[128.65994078826907,-16.235834018002322,126.4178],[128.65905769588767,-16.244664941816268,102.042],[128.64463385365821,-16.239955115782152,106.5249],[128.6257945495218,-16.254967686265871,103.7],[128.61048761491094,-16.252024044994556,416.3218],[128.61814108221637,-16.269097164368191,127.9686],[128.64080712000549,-16.302065946606945,91.0],[128.64551694603961,-16.323260163760409,91.0],[128.64021839175126,-16.349752935202275,91.0],[128.62756073428454,-16.370652788228625,91.0],[128.54248950154351,-16.474268960978975,113.9769],[128.53925149614508,-16.484866069555693,107.8478],[128.51599673010168,-16.512241933378959,108.8096],[128.50981508343193,-16.523427770209963,106.808],[128.5021616161265,-16.543738894982027,107.3245],[128.49539124120247,-16.553158547050259,107.2973],[128.52629947455125,-16.554041639431659,104.3598],[128.56103444155281,-16.5107701127433,104.0623],[128.59076521839313,-16.505471558454929,108.7217],[128.60989888665665,-16.513125025760331,102.7006],[128.60783833776674,-16.520484128938648,102.9069],[128.56751045234972,-16.541972710219255,106.7069],[128.56221189806132,-16.547271264507629,104.6046],[128.55661897964586,-16.572880943568066,112.5891],[128.5831117510877,-16.566404932771178,110.5457],[128.59812432157139,-16.564344383881263,104.977],[128.61048761491094,-16.566993661025435,112.8109],[128.61460871269077,-16.574058400076609,103.2141],[128.61460871269077,-16.585538601034727,104.3015],[128.60960452252954,-16.596135709611474,113.6147],[128.60077359871559,-16.601139899772704,112.8128],[128.57222027838384,-16.596724437865731,113.0594],[128.56132880567992,-16.598784986755646,113.9742],[128.55661897964586,-16.611148280095193,110.9904],[128.56309499044272,-16.614386285493651,107.4273],[128.60460033236831,-16.614680649620766,99.2669],[128.60460033236831,-16.622039752799054,100.9815],[128.59635813680859,-16.62586648645177,128.9808],[128.58958776188456,-16.632342497248658,106.6328],[128.57663574029078,-16.649415616622292,98.4322],[128.59076521839313,-16.655597263292066,106.8336],[128.60931015840242,-16.643233969952547,92.5066],[128.6204959952334,-16.638229779791317,91.224],[128.63197619619154,-16.635874866774259,92.682],[128.63197619619154,-16.642056513444004,106.0801],[128.62726637015743,-16.64676633947812,101.9654],[128.62343963650471,-16.653242350275008,96.1686],[128.6204959952334,-16.660895817580439,99.3195],[128.61814108221637,-16.669726741394385,99.6976],[128.62873819079311,-16.66943237726727,97.6923],[128.63374238095435,-16.670609833775785,101.966],[128.63639165809855,-16.675025295682758,104.1025],[128.63874657111558,-16.683561855369589,100.8876],[128.64551694603961,-16.683561855369589,101.7606],[128.65493659810784,-16.678557665208331,101.0515],[128.67848572827836,-16.686799860768019,98.6323],[128.69379266288922,-16.683561855369589,101.5352],[128.68643355971091,-16.676791480445559,98.5745],[128.70291795083028,-16.6753196598099,104.5107],[128.72028543433106,-16.684150583623847,99.0417],[128.73323745592484,-16.687388589022305,104.2934],[128.73500364068764,-16.669726741394385,105.0241],[128.75619785784113,-16.685916768386647,104.2471],[128.75649222196824,-16.7144700887184,118.8222],[128.74618947751861,-16.742729044923038,105.2383],[128.72970508639924,-16.766572539220704,106.4509],[128.73029381465352,-16.77304855001762,97.5842],[128.73323745592484,-16.780113289068765,103.9817],[128.73500364068764,-16.789827305264112,107.4011],[128.73765291783184,-16.796303316061,129.8696],[128.74354020037447,-16.790416033518369,109.4879],[128.75207676006124,-16.775992191288935,141.104],[128.76208514038376,-16.763040169695131,128.4581],[128.76944424356202,-16.748616327465669,114.9139],[128.77415406959614,-16.732426300473435,106.0279],[128.77592025435894,-16.714764452845543,137.6019],[128.77474279785042,-16.695336420454851,108.3806],[128.77650898261322,-16.68768295314942,104.9159],[128.78269062928297,-16.676791480445559,105.9799],[128.78916664007988,-16.671492926157185,106.8334],[128.79829192802094,-16.666488735995955,109.4424],[128.80682848770778,-16.659718361071924,110.0781],[128.81065522136049,-16.649415616622292,108.3471],[128.80388484643646,-16.639112872172689,120.4089],[128.789461004207,-16.635580502647116,128.8512],[128.77533152610465,-16.628515763595971,117.697],[128.76914987943491,-16.607910274696735,110.6373],[128.77385970546902,-16.5899540629417,111.8553],[128.78533990642717,-16.582006231509155,126.109],[128.80005811278374,-16.580240046746354,114.7657],[128.81359886263181,-16.580534410873497,128.9101],[128.81742559628452,-16.576118948966524,124.2975],[128.81477631914032,-16.566993661025435,123.2506],[128.80800594421629,-16.557574008957232,138.1552],[128.79976374865657,-16.553158547050259,121.5925],[128.78975536833411,-16.552864182923116,142.4974],[128.78475117817288,-16.5508036340332,121.9372],[128.78298499341008,-16.545799443871971,129.8862],[128.78269062928297,-16.535791063549482,116.548],[128.7859286346814,-16.526960139735536,122.7434],[128.79269900960543,-16.520484128938648,123.0431],[128.79946938452946,-16.515774302904532,114.3063],[128.80300175405506,-16.512241933378959,121.1817],[128.80270738992789,-16.502527917183613,116.4965],[128.7921102813512,-16.493108265115382,101.9485],[128.79004973246123,-16.484277341301436,98.2692],[128.79475955849534,-16.47132531970766,104.696],[128.80241302580077,-16.456018385096797,103.7243],[128.807417215962,-16.43953399397742,103.2631],[128.80300175405506,-16.422755238730929,100.3711],[128.81301013437752,-16.40862576062861,105.4874],[128.82036923755584,-16.410097581264267,110.0214],[128.8303776178783,-16.422755238730929,102.3074],[128.83155507438681,-16.426581972383644,104.3495],[128.83655926454804,-16.433352347307647,120.9619],[128.84215218296356,-16.435707260324705,139.2539],[128.84568455248916,-16.421577782222386,126.4246],[128.85186619915891,-16.408920124755724,116.8553],[128.85480984043022,-16.405093391103009,111.5309],[128.86246330773565,-16.405387755230151,95.3467],[128.86275767186277,-16.419222869205328,98.37],[128.85834220995582,-16.446893097155709,103.926],[128.86216894360854,-16.449836738427024,104.061],[128.8704111391682,-16.446010004774337,105.2848],[128.87747587821934,-16.436295988578991,104.8522],[128.87894769885503,-16.422755238730929,107.0067],[128.88306879663486,-16.425993244129359,120.1446],[128.88630680203329,-16.428348157146416,108.6191],[128.8892504433046,-16.430997434290617,107.1882],[128.89248844870309,-16.436590352706105,108.5175],[128.90249682902555,-16.42952561365496,102.3712],[128.91015029633098,-16.41775104856967,103.5795],[128.91162211696661,-16.407153939992952,121.2008],[128.894548997593,-16.398617380306121,100.1855],[128.89425463346589,-16.390080820619318,106.4574],[128.89925882362712,-16.371241516482883,116.8288],[128.9095615680767,-16.362704956796051,110.9269],[128.95077254587517,-16.375068250135598,108.2718],[128.95459927952788,-16.360644407906136,115.398],[128.94812326873097,-16.355345853617763,128.8038],[128.92486850268756,-16.3435712885325,111.6164],[128.91986431252633,-16.336800913608471,105.6948],[128.92310231792476,-16.327675625667382,94.6355],[128.9310501493573,-16.326498169158867,96.2557],[128.94105852967982,-16.327086897413125,98.6745],[128.97432167604569,-16.311779962802291,109.3471],[128.98109205096972,-16.30412649549686,113.1008],[128.97432167604569,-16.293235022793,113.3176],[128.96666820874026,-16.291468838030198,122.3712],[128.9566598284178,-16.293529386920113,122.1481],[128.94017543729842,-16.300005397717,114.7928],[128.95018381762088,-16.279399908817794,116.2504],[128.95459927952788,-16.272629533893763,111.7064],[128.94576835571388,-16.266447887224018,99.922],[128.92398541030616,-16.255262050393014,104.1564],[128.91986431252633,-16.248491675468983,115.1422],[128.92280795379764,-16.239660751655009,100.5275],[128.93046142110308,-16.240249479909295,103.5338],[128.93929234491702,-16.24407621356201,100.7207],[128.94694581222245,-16.244664941816268,104.3503],[128.9540105512736,-16.239660751655009,98.9773],[128.96696257286737,-16.226708730061233,107.4069],[128.97137803477438,-16.224353817044175,113.0415],[129.00199190399604,-16.219643991010059,102.4346],[129.00905664304719,-16.217583442120144,98.9199],[129.01582701797122,-16.213462344340314,99.5986],[129.01994811575111,-16.2096356106876,103.5593],[129.02230302876814,-16.203748328144968,107.4085],[129.02289175702242,-16.193445583695336,101.823],[129.01935938749682,-16.183437203372876,100.7902],[129.01141155606427,-16.18049356210156,105.9454],[129.00434681701313,-16.18137665448296,99.7569],[129.00258063225033,-16.183437203372876,100.5697],[128.99021733891078,-16.172545730669015,105.9541],[128.98815679002087,-16.166364083999241,105.3836],[128.99728207796193,-16.163420442727926,111.9151],[129.01935938749682,-16.162831714473668,101.7264],[129.03967051226891,-16.155178247168237,114.1129],[129.04909016433714,-16.13869385604886,103.9476],[129.04555779481154,-16.122503829056626,118.8877],[129.02612976242085,-16.115144725878338,117.2082]]]}
,"properties": {"featurecla": "Reservoir","scalerank": 5,"name": "Lake Argyle","name_abb": "L. Argyle","name_alt": null,"note": null,"delta": null,"dam_name": "Ord River Dam","year": 1972,"admin": null,"min_zoom": 4.7,"min_label": 6.0,"area_km2": 1818.198,"hist_schema_id": "Elevation0-9000","hist_area_km2": {"50": 0.102,"75": 0.204,"100": 1726.643,"125": 71.202,"150": 9.726,"175": 4.438,"200": 2.403,"225": 1.303,"250": 1.079,"275": 0.631,"300": 0.285,"325": 0.143,"350": 0.02,"425": 0.02}}}