{"type":"Feature","properties":{"featurecla":"River","scalerank":9,"rivernum":1101,"dissolve":"1101River","name":"Swan2","name_alt":null,"note":null,"min_zoom":7.1,"strokeweig":0.25,"name_en":"Swan","min_label":8.1},
"geometry":{"type": "LineString","coordinates": [[116.030517578125,-31.749053643755886,22.3621],[116.0126953125,-31.77703215938088,13.0923],[116.00205078125003,-31.80046965938088,17.867],[115.9912109375,-31.839385675005886,20.6498],[115.98388671875,-31.856475518755886,17.1232],[115.9716796875,-31.872393487505889,11.7131],[115.95673828125001,-31.88250090938088,18.4821],[115.91875,-31.89812590938088,24.7307],[115.899658203125,-31.909698175005886,28.7603],[115.882080078125,-31.930010675005889,31.9859],[115.872314453125,-31.93694426875588,18.5039],[115.8369140625,-31.948565362505889,46.1856],[115.81894531250003,-31.959991143755886,23.1792],[115.80126953125,-31.968291925005886,24.8852],[115.776123046875,-31.991241143755886,0.0],[115.73505859375001,-32.019561456255886,0.0]]}}