{"type":"Feature","properties":{"featurecla":"River","scalerank":9,"rivernum":1101,"dissolve":"1101River","name":"Swan1","name_alt":null,"note":null,"min_zoom":7.1,"strokeweig":0.2,"name_en":"Swan","min_label":8.1},
"geometry":{"type": "LineString","coordinates": [[117.19843750000001,-32.277178643755889,248.9265],[117.11572265625,-32.227569268755886,211.9283],[117.105712890625,-32.22869231563088,209.258],[117.09423828125,-32.222198175005886,224.9384],[117.023681640625,-32.21135833125588,227.8254],[117.00156250000003,-32.203643487505886,209.3182],[116.9853515625,-32.19573333125588,203.8834],[116.958251953125,-32.174151300005889,199.877],[116.94638671875003,-32.156768487505886,200.7451],[116.93173828125003,-32.114092706255889,194.8245],[116.920654296875,-32.095245050005886,191.9264],[116.90341796875003,-32.08294036250588,203.3486],[116.88037109375,-32.07415130000588,216.1698],[116.85595703125,-32.06902434688088,205.3181],[116.83505859375003,-32.06731536250588,230.5807],[116.81845703125003,-32.05706145625588,187.0702],[116.81015625000003,-32.033233331255886,186.3832],[116.79697265625003,-31.941241143755889,217.3201],[116.79013671875003,-31.91912200313088,182.7876],[116.78076171875,-31.909698175005886,181.9742],[116.77402343750003,-31.89763762813088,176.2177],[116.77880859375,-31.87127044063088,181.1369],[116.79091796875002,-31.835284112505889,193.2474],[116.792724609375,-31.824248956255886,177.6868],[116.794189453125,-31.819854425005886,171.7348],[116.797119140625,-31.813995050005886,165.432],[116.7900390625,-31.80925872188088,166.5737],[116.77919921875002,-31.79583098750588,163.4386],[116.7705078125,-31.787432550005889,180.3127],[116.76259765625002,-31.783233331255886,170.4841],[116.7421875,-31.77605559688088,161.282],[116.71572265625002,-31.75945403438088,192.6703],[116.67519531250002,-31.741045831255889,193.032],[116.66064453125,-31.725420831255889,157.3682],[116.65585937500003,-31.70745208125588,152.8615],[116.65273437500002,-31.684600518755886,172.3952],[116.64765625000001,-31.664873956255889,153.2746],[116.636962890625,-31.65642669063088,214.2932],[116.61972656250003,-31.647979425005886,202.6028],[116.50439453125,-31.54436614375588,163.7402],[116.47119140625,-31.52117278438088,216.1872],[116.43466796875003,-31.51238372188088,211.0686],[116.36933593750001,-31.546221612505889,280.8191],[116.34589843750001,-31.538116143755886,226.5753],[116.31689453125,-31.544268487505889,261.4614],[116.223876953125,-31.579131768755886,309.175],[116.19863281250002,-31.59246184688088,307.9599],[116.18759765625003,-31.60491301875588,290.7664],[116.18222656250003,-31.630694268755889,122.7107],[116.168212890625,-31.642413018755889,277.0706],[116.126220703125,-31.65642669063088,183.4095],[116.101318359375,-31.67302825313088,202.9251],[116.0517578125,-31.721709893755886,147.5048],[116.030517578125,-31.749053643755886,22.3621]]}}