{"type":"Feature","properties":{"featurecla":"River","scalerank":8,"rivernum":787,"dissolve":"787River","name":"Blackwood1","name_alt":null,"note":null,"min_zoom":7.0,"strokeweig":0.2,"name_en":"Blackwood","min_label":8.0},
"geometry":{"type": "LineString","coordinates": [[116.48867187500002,-33.79094817500588,217.8845],[116.42724609375,-33.808428643755889,188.7206],[116.37949218750003,-33.837920831255886,228.4095],[116.37255859375,-33.84587981563088,225.5138],[116.3720703125,-33.864776300005886,183.1137],[116.37294921875002,-33.87273528438088,186.838],[116.39306640625,-33.890948175005889,234.3118],[116.37949218750003,-33.89714934688088,225.4146],[116.38779296875003,-33.911651300005886,203.5541],[116.390869140625,-33.92473723750588,222.4084],[116.384765625,-33.93254973750588,173.5009],[116.36572265625,-33.931182550005886,230.7405],[116.371337890625,-33.938799737505889,205.201],[116.37119140625003,-33.94280364375588,230.2711],[116.36835937500001,-33.94646575313088,213.6451],[116.36572265625,-33.95232512813088,225.9001],[116.3466796875,-33.93792083125588,197.7811],[116.3359375,-33.93206145625588,252.9507],[116.32480468750003,-33.931182550005886,203.3937],[116.31669921874999,-33.938018487505886,213.5273],[116.304443359375,-33.96111419063088,179.0267],[116.293212890625,-33.96599700313088,223.0661],[116.28212890625002,-33.963897393755886,272.4488],[116.264892578125,-33.95452239375588,246.9351],[116.25927734375,-33.95232512813088,252.0775],[116.248779296875,-33.95549895625588,293.3504],[116.24326171875003,-33.963213800005889,214.9785],[116.239990234375,-33.972198175005886,307.4506],[116.236083984375,-33.97966887813088,303.1853],[116.2255859375,-33.992217706255886,169.8625],[116.2177734375,-33.998077081255886,194.9538],[116.20810546875003,-34.000811456255889,218.361],[116.19716796875002,-33.997588800005886,210.2791],[116.181396484375,-33.982940362505886,178.6884],[116.170654296875,-33.97966887813088,164.0259],[116.15869140625,-33.97747161250588,153.2245],[116.13515625000002,-33.96819426875588,147.3093],[116.122802734375,-33.96599700313088,176.9182],[116.110595703125,-33.96721770625588,134.9061],[116.087890625,-33.97210051875588,167.6681],[116.07773437500003,-33.97283294063088,253.4306],[116.06689453125,-33.971514581255889,125.656],[116.057373046875,-33.96868255000588,188.4449],[116.04941406250003,-33.96453215938088,169.5947],[116.04375,-33.95916106563088,215.485],[116.04091796875002,-33.95159270625588,126.4],[116.03769531250003,-33.93010833125588,113.2103],[116.03330078125003,-33.921709893755889,227.9008],[116.025,-33.91399505000588,169.5243],[116.01845703125002,-33.910967706255889,181.0917],[115.98388671875,-33.909698175005886,237.047],[115.977783203125,-33.90618255000588,272.2329],[115.97431640625001,-33.899932550005886,180.9478],[115.96787109375003,-33.890948175005889,101.157],[115.903076171875,-33.83904387813088,138.2219],[115.8828125,-33.83074309688088,308.0854],[115.86582031250003,-33.840850518755886,245.9502],[115.844482421875,-33.870440362505889,218.291],[115.789794921875,-33.91082122188088,197.8817],[115.78359375000002,-33.91863372188088,205.0919],[115.77529296875002,-33.93328215938088,135.1254],[115.76923828125001,-33.93865325313088,159.2868],[115.68886718750002,-33.95891692500588,71.042],[115.67373046875002,-33.96599700313088,91.8943],[115.66083984375001,-33.974444268755889,100.9505],[115.654052734375,-33.98211028438088,67.283],[115.6396484375,-34.00701262813088,48.6191],[115.63027343750002,-34.01531340938088,80.6216],[115.60556640625003,-34.03069426875588,101.2761],[115.5986328125,-34.041045831255886,49.8207],[115.60097656250002,-34.049639581255889,54.31],[115.61376953125,-34.066729425005889,70.6113],[115.6123046875,-34.075225518755886,48.7053],[115.60488281250002,-34.077471612505889,52.4584],[115.59492187500001,-34.074737237505886,39.2972],[115.5849609375,-34.070635675005889,55.2481],[115.578125,-34.06902434688088,53.2156],[115.552001953125,-34.083526300005886,61.1573],[115.52988281250003,-34.10247161250588,107.0317],[115.514892578125,-34.10466887813088,71.7458],[115.50927734375,-34.06902434688088,65.5004],[115.48935546875003,-34.074053643755889,88.2352],[115.47089843750001,-34.07561614375588,55.1029],[115.43544921875002,-34.07244231563088,36.7873]]}}