{"type":"Feature","properties":{"featurecla":"River","scalerank":8,"rivernum":787,"dissolve":"787River","name":"Blackwood","name_alt":null,"note":null,"min_zoom":7.0,"strokeweig":0.15,"name_en":"Blackwood","min_label":8.0},
"geometry":{"type": "LineString","coordinates": [[116.7431640625,-33.21868255000588,267.1194],[116.767578125,-33.24480559688088,256.1835],[116.7841796875,-33.267120050005886,249.9748],[116.79511718750001,-33.293975518755886,247.6553],[116.80380859375003,-33.30852630000588,249.1144],[116.81416015625001,-33.31487395625588,243.8019],[116.82861328125,-33.330596612505886,241.1919],[116.82822265625003,-33.366729425005886,245.5711],[116.815673828125,-33.442705987505889,229.9633],[116.806640625,-33.45061614375588,251.0185],[116.80458984375002,-33.45891692500588,229.401],[116.80556640625002,-33.46721770625588,227.2847],[116.809814453125,-33.475909112505889,226.008],[116.810791015625,-33.48284270625588,225.479],[116.81064453125003,-33.50457122188088,228.6758],[116.80673828125003,-33.51336028438088,231.7331],[116.797119140625,-33.52776458125588,222.7293],[116.80419921875,-33.54534270625588,243.582],[116.80712890625,-33.569366143755886,220.1828],[116.80703125000002,-33.59124114375588,218.7076],[116.80458984375002,-33.60222747188088,217.3431],[116.795654296875,-33.60662200313088,231.7622],[116.78564453125,-33.60613372188088,236.1917],[116.77402343750003,-33.60369231563088,243.5468],[116.75986328125003,-33.60222747188088,240.4816],[116.74755859375,-33.60564544063088,216.9122],[116.741943359375,-33.614092706255889,255.1129],[116.736328125,-33.637041925005889,224.1909],[116.727294921875,-33.65642669063088,217.9513],[116.71640625000003,-33.67107512813088,223.5372],[116.70156250000002,-33.680694268755886,219.9839],[116.68105468750002,-33.684893487505889,240.0309],[116.658203125,-33.68279387813088,228.1454],[116.63583984375003,-33.67473723750588,219.0886],[116.619140625,-33.66130950313088,266.7527],[116.61347656250001,-33.64324309688088,249.0096],[116.59589843750001,-33.65422942500588,328.1701],[116.58154296875,-33.65349700313088,246.8865],[116.57080078125,-33.654620050005889,217.5495],[116.564453125,-33.671221612505889,292.8357],[116.56494140625,-33.682452081255889,238.0413],[116.57080078125,-33.703643487505886,201.7472],[116.57119140625002,-33.712237237505889,198.0141],[116.56757812500001,-33.716143487505889,200.1462],[116.55078125,-33.726397393755889,211.7109],[116.550537109375,-33.729034112505886,206.7174],[116.54453125000003,-33.744170831255886,216.1899],[116.54335937500002,-33.74627044063088,200.0872],[116.53828125000001,-33.741241143755886,203.8649],[116.5234375,-33.73259856563088,216.6003],[116.52783203125,-33.75408294063088,192.7019],[116.53085937500003,-33.760577081255889,196.0425],[116.523193359375,-33.760772393755886,212.5051],[116.51416015625,-33.762530206255889,215.308],[116.50673828125002,-33.765655206255886,221.7973],[116.503662109375,-33.77044036250588,213.185],[116.501220703125,-33.780108331255889,190.5064],[116.49609375,-33.78484465938088,200.1943],[116.49091796875001,-33.78753020625588,230.3183],[116.48867187500002,-33.79094817500588,217.8845]]}}