{"type":"Feature","properties":{"featurecla":"River","scalerank":6,"rivernum":257,"dissolve":"257River","name":"Ord3","name_alt":null,"note":null,"min_zoom":5.0,"strokeweig":0.25,"name_en":"Ord","min_label":6.0},
"geometry":{"type": "LineString","coordinates": [[128.739013671875,-16.108233331255889,184.3817],[128.7265625,-16.096514581255889,63.5792],[128.68798828125,-16.100616143755886,62.5831],[128.68017578125,-16.08367278438088,196.7971],[128.682373046875,-16.073565362505889,171.5864],[128.69169921875005,-16.05437590938088,59.738],[128.69384765625,-16.04265715938088,42.3131],[128.694580078125,-16.01921965938088,253.7295],[128.696533203125,-16.008623956255889,180.7349],[128.70068359375,-15.998370050005889,123.7345],[128.71621093750002,-15.979522393755886,101.3524],[128.74912109375003,-15.95208098750588,62.5404],[128.75537109375,-15.93279387813088,270.7088],[128.76503906250002,-15.877276300005889,39.0],[128.76220703125,-15.854327081255889,61.6949],[128.732421875,-15.79143645625588,41.9092],[128.725830078125,-15.764483331255889,46.1838],[128.716552734375,-15.74456145625588,39.2613],[128.711669921875,-15.72210051875588,39.9379],[128.6984375,-15.709014581255886,37.4287],[128.69384765625,-15.697295831255886,35.0503],[128.70849609375,-15.66375090938088,30.8138],[128.71347656250003,-15.64397551875588,33.8452],[128.703857421875,-15.63518645625588,28.3645],[128.70566406250003,-15.62493255000588,33.2783],[128.702392578125,-15.601592706255886,32.2304],[128.69404296875,-15.57610442500588,12.4978],[128.68017578125,-15.55950286250588,25.6944],[128.666015625,-15.55559661250588,28.1061],[128.656494140625,-15.55877044063088,23.1927],[128.6474609375,-15.563995050005886,12.6115],[128.63525390625,-15.566924737505886,10.2292],[128.624267578125,-15.563506768755886,22.5325],[128.61171875000002,-15.55681731563088,28.6655],[128.59902343750002,-15.55266692500588,16.661],[128.58740234375,-15.556475518755889,18.6505],[128.565673828125,-15.568682550005889,18.0819],[128.55429687500003,-15.55925872188088,15.8882],[128.546875,-15.53875090938088,15.5498],[128.53623046875003,-15.517901300005889,12.5955],[128.50283203125002,-15.56316497188088,13.1254],[128.482177734375,-15.57488372188088,11.7376],[128.45742187500002,-15.563311456255889,12.1033],[128.447021484375,-15.556182550005886,12.0812],[128.437255859375,-15.55217864375588,10.7521],[128.4298828125,-15.546709893755889,10.8038],[128.427001953125,-15.53557708125588,9.0674],[128.42714843750002,-15.52190520625588,2.0],[128.4248046875,-15.51433684688088,9.3688],[128.41679687500005,-15.51140715938088,7.1418],[128.39912109375,-15.51165130000588,7.865],[128.38535156250003,-15.522784112505889,7.6668],[128.374755859375,-15.527862237505886,5.2196],[128.36484375000003,-15.52532317500588,7.4372],[128.36191406250003,-15.51409270625588,5.4056],[128.36513671875002,-15.500323175005889,5.773],[128.365478515625,-15.48870208125588,4.5133],[128.354736328125,-15.48381926875588,0.761],[128.3291015625,-15.47649505000588,4.1977],[128.31044921875002,-15.458038018755886,4.2063],[128.29746093750003,-15.43377044063088,0.0],[128.2892578125,-15.40178801875588,0.0]]}}