{"type":"Feature","properties":{"featurecla":"River","scalerank":8,"rivernum":787,"dissolve":"787River","name":"Blackwood2","name_alt":null,"note":null,"min_zoom":7.0,"strokeweig":0.25,"name_en":"Blackwood","min_label":8.0},
"geometry":{"type": "LineString","coordinates": [[115.43544921875002,-34.07244231563088,36.7873],[115.40595703125001,-34.06902434688088,79.7168],[115.25537109375,-34.067901300005886,69.1356],[115.22060546875002,-34.075225518755886,42.3591],[115.18955078125003,-34.09807708125588,38.6642],[115.186279296875,-34.12664153438088,4.8058],[115.20751953125,-34.191924737505886,4.2131],[115.209228515625,-34.209307550005889,4.8466],[115.208251953125,-34.228350518755889,24.2675],[115.20419921875003,-34.24553801875588,11.4339],[115.197265625,-34.257159112505889,8.983],[115.16689453125002,-34.281084893755889,0.0],[115.15839843750001,-34.296709893755889,7.1534],[115.16494140625002,-34.31023528438088,0.0]]}}