{"type":"Feature","properties":{"featurecla":"River","scalerank":6,"rivernum":331,"dissolve":"331River","name":"Fitzroy2","name_alt":null,"note":null,"min_zoom":5.0,"strokeweig":0.2,"name_en":"Fitzroy","min_label":6.0},
"geometry":{"type": "LineString","coordinates": [[126.775390625,-17.478057550005886,357.1141],[126.695068359375,-17.49749114375588,324.5903],[126.6572265625,-17.50042083125588,332.3119],[126.53925781250001,-17.479327081255889,334.1899],[126.45224609375003,-17.47551848750588,299.5679],[126.43212890625,-17.471221612505886,432.426],[126.35498046875,-17.435088800005886,287.2357],[126.31748046875003,-17.42986419063088,253.468],[126.2744140625,-17.450713800005886,341.3339],[126.24277343750003,-17.472686456255886,279.8156],[126.22714843750003,-17.48894622188088,278.5537],[126.21337890625,-17.52874114375588,201.0771],[126.19589843750003,-17.54045989375588,216.0635],[126.15156250000001,-17.55315520625588,177.5059],[126.12841796875,-17.56365325313088,184.4241],[126.124267578125,-17.56682708125588,195.7155],[126.12343750000002,-17.57927825313088,210.7041],[126.12841796875,-17.58709075313088,182.2262],[126.134765625,-17.59246184688088,182.9872],[126.13779296875003,-17.59783294063088,183.8685],[126.13417968750002,-17.61687590938088,186.4513],[126.12441406250002,-17.628448175005886,187.4937],[126.07421875,-17.654815362505886,324.4077],[126.06904296875001,-17.65618255000588,304.4769],[126.057861328125,-17.65203215938088,172.7965],[126.04257812500003,-17.63909270625588,165.5619],[126.03134765625003,-17.636260675005886,324.7174],[126.017822265625,-17.64544036250588,194.5697],[126.01025390625,-17.667022393755886,186.7012],[126.00068359375001,-17.710772393755889,151.2426],[125.98779296875,-17.724932550005889,162.8154],[125.947265625,-17.758135675005889,137.8845],[125.938720703125,-17.77654387813088,131.6502],[125.93427734375001,-17.79485442500588,129.0996],[125.89580078124999,-17.87468840938088,127.1434],[125.88525390625,-17.891631768755886,123.8296],[125.853271484375,-17.92717864375588,122.0241],[125.83603515625003,-17.938311456255889,121.7894],[125.79541015625,-17.953643487505886,119.1943],[125.78095703125001,-17.964678643755889,119.2581],[125.73886718750003,-18.053252862505886,117.1013],[125.69287109375,-18.108721612505889,115.3501],[125.64589843750002,-18.13274505000588,114.6022],[125.63427734375,-18.136065362505889,114.7203],[125.62363281250003,-18.14324309688088,112.4958],[125.5107421875,-18.27654387813088,125.5418]]}}