{"type":"Feature","properties":{"GID_2":"AUS.7.52_1","GID_0":"AUS","country":"Australia","GID_1":"AUS.7_1","state":"Queensland","NL_NAME_1":"NA","county":"Paroo","VARNAME_2":"NA","NL_NAME_2":"NA","TYPE_2":"Shire","ENGTYPE_2":"Shire","CC_2":"35800","HASC_2":"AU.QL.PA","name":"Paroo.county"},
"geometry":{"type": "MultiPolygon","coordinates": [[[[146.3754,-28.9988,140.6969],[146.945,-28.9991,151.6264],[146.9345,-28.9907,143.3183],[146.9526,-28.8615,132.8774],[146.8631,-28.8544,135.1801],[146.8702,-28.8212,143.258],[146.8847,-28.7674,139.0379],[146.8923,-28.7214,151.804],[146.9251,-28.7241,150.2449],[146.9388,-28.6307,141.4635],[146.9283,-28.6295,141.9748],[146.9382,-28.5595,145.5341],[146.9596,-28.5371,146.2189],[146.9654,-28.5068,149.5529],[146.9603,-28.4395,152.1413],[146.9652,-28.4142,152.5067],[146.9601,-28.413,153.3295],[146.9681,-28.3602,155.2856],[146.9158,-28.3542,154.2538],[146.9263,-28.2822,158.7284],[146.9321,-28.2608,160.5791],[146.9491,-28.263,160.2416],[146.9904,-27.9829,188.9006],[147.0672,-27.9868,182.3923],[147.0715,-27.9857,182.9245],[147.1064,-27.987,184.4286],[147.1199,-27.928,191.8846],[147.1248,-27.8977,203.9132],[147.11,-27.8957,197.2694],[147.1175,-27.8567,211.1477],[147.108,-27.8178,203.1544],[147.1167,-27.7611,235.0866],[147.1211,-27.7136,221.5486],[147.1428,-27.575,229.676],[147.0631,-27.5663,234.5314],[147.0643,-27.5574,229.8179],[147.0603,-27.5367,234.8866],[147.0452,-27.5438,233.8522],[146.9025,-27.5229,226.8666],[146.8894,-27.526,225.2784],[146.8779,-27.5246,218.5646],[146.7781,-27.5075,223.8173],[146.6407,-27.4907,226.924],[146.6499,-27.4102,237.4486],[146.6595,-27.4117,239.3015],[146.6692,-27.3372,245.0511],[146.5847,-27.3284,248.3222],[146.5906,-27.3153,249.0453],[146.6051,-27.1935,278.7944],[146.5977,-27.192,279.7714],[146.5947,-27.1891,283.4427],[146.5843,-27.1873,275.0486],[146.5853,-27.1798,281.3379],[146.5771,-27.1789,277.7136],[146.5762,-27.1863,275.5778],[146.4533,-27.1733,271.8575],[146.4613,-27.1048,278.5821],[146.2211,-27.082,262.9949],[146.2289,-27.0112,269.8823],[146.0043,-26.9956,255.5424],[145.807,-26.9757,246.8623],[145.7953,-27.0614,244.2805],[145.6974,-27.0505,246.1847],[145.6234,-27.0443,306.6766],[145.6209,-27.0635,311.6641],[145.6009,-27.0616,308.7503],[145.5991,-27.0751,294.5806],[145.557,-27.0695,266.2517],[145.4486,-27.0607,223.3036],[145.2548,-27.0402,270.5822],[145.259,-27.0071,273.1662],[145.225,-27.0031,279.6665],[145.2159,-27.0059,260.9637],[145.2078,-27.0047,267.5104],[145.2067,-27.0016,266.8842],[145.1837,-26.9991,238.0507],[145.1652,-27.1447,246.1414],[145.1819,-27.1465,243.8338],[145.1633,-27.2915,205.1652],[145.0173,-27.276,206.8121],[145.0007,-27.3406,205.1465],[144.9922,-27.4116,217.7779],[144.9116,-27.4035,217.5683],[144.9054,-27.4328,220.7011],[144.8976,-27.498,246.6235],[144.8033,-27.4881,243.7991],[144.7988,-27.4853,239.8618],[144.7878,-27.4864,239.8826],[144.6236,-27.4668,233.0677],[144.52,-27.4561,215.3142],[144.5167,-27.479,213.4276],[144.5148,-27.4813,218.3696],[144.5161,-27.4859,216.913],[144.5079,-27.5442,207.4981],[144.4326,-27.537,184.0298],[144.4242,-27.5994,194.8516],[144.4249,-27.6022,198.9844],[144.4233,-27.6061,194.5243],[144.3293,-27.5963,178.9237],[144.2958,-27.8439,145.8779],[144.3166,-27.8461,146.0395],[144.3138,-27.8534,145.3257],[144.3121,-27.8645,145.1919],[144.3173,-27.8672,144.9456],[144.3162,-27.8744,143.5921],[144.3098,-27.8759,145.235],[144.306,-27.8813,143.1718],[144.308,-27.8866,142.8947],[144.3048,-27.896,141.7957],[144.3067,-27.8969,142.1231],[144.3066,-27.8989,142.3551],[144.303,-27.903199999999998,140.98],[144.2999,-27.9033,141.0142],[144.3015,-27.9047,141.5874],[144.2979,-27.9088,140.9602],[144.2961,-27.9156,140.4395],[144.297,-27.92,140.7602],[144.2923,-27.9261,141.6982],[144.4225,-27.9397,165.9079],[144.4205,-27.9557,164.2026],[144.6012,-27.9741,222.214],[144.5918,-28.0499,217.0264],[144.6493,-28.0559,198.8561],[144.6351,-28.1598,204.3386],[144.7798,-28.1737,170.51],[144.775,-28.2113,173.3459],[144.8299,-28.2169,158.1159],[144.8188,-28.2903,171.0117],[144.728,-28.2806,176.7295],[144.7262,-28.2786,178.563],[144.5874,-28.2637,278.0815],[144.5864,-28.2708,270.7072],[144.5735,-28.2695,217.8601],[144.563,-28.3466,203.4706],[144.6442,-28.3554,182.7281],[144.636,-28.4209,208.9828],[144.6279,-28.425,217.2451],[144.5958,-28.5675,150.2692],[144.6686,-28.5807,142.6653],[144.6411,-28.7231,138.1884],[144.64,-28.8087,137.446],[144.6313,-28.8133,136.7869],[144.6228,-28.8207,136.5832],[144.6162,-28.8322,137.3346],[144.6084,-28.8367,136.4259],[144.6031,-28.8441,136.0827],[144.6025,-28.8476,135.9982],[144.5966,-28.851,136.4287],[144.5933,-28.8579,135.1575],[144.5868,-28.8624,134.9606],[144.5841,-28.8739,135.2795],[144.5852,-28.8817,135.2206],[144.5819,-28.8926,136.1008],[144.5825,-28.9075,134.8313],[144.5812,-28.9098,133.1904],[144.5733,-28.9138,134.638],[144.5558,-28.9131,134.6084],[144.546,-28.9148,133.7262],[144.5297,-28.9193,132.3949],[144.5199,-28.925,132.6929],[144.5042,-28.9295,131.8774],[144.4944,-28.9306,131.1404],[144.4716,-28.9414,129.6054],[144.463,-28.948,129.9169],[144.4804,-28.999,143.7203],[146.3754,-28.9988,140.6969]]]]}}