{"type": "Feature","bbox": [117.5964,-31.392,118.0799,-30.9416],"geometry": {"type": "MultiPolygon","coordinates": [[[[117.9347,-31.3338,264.3789],[117.9448,-31.3166,281.5823],[117.9381,-31.3134,294.7802],[117.9493,-31.2962,261.9771],[117.9545,-31.2987,266.4904],[117.9568,-31.295,261.6987],[117.9348,-31.2845,263.4312],[117.9369,-31.283,262.9966],[117.9306,-31.2763,264.2099],[117.9288,-31.2766,263.8987],[117.9339,-31.2688,264.4742],[117.9556,-31.2818,266.439],[117.955,-31.2406,291.8484],[117.9851,-31.2406,289.8891],[117.9851,-31.2334,303.3195],[117.966,-31.2268,331.0425],[117.9806,-31.1935,362.0549],[117.985,-31.1894,366.8012],[117.9849,-31.1833,343.4001],[117.9906,-31.1816,361.448],[117.9968,-31.1704,349.2148],[117.9958,-31.1576,357.8166],[118.001,-31.1437,324.6073],[117.9911,-31.1437,333.0162],[117.9911,-31.1327,345.6659],[118.0,-31.1373,327.5378],[117.9994,-31.1211,330.8693],[118.0081,-31.0979,363.0714],[118.0113,-31.0944,354.2032],[118.0205,-31.0894,365.0842],[118.0204,-31.0848,372.5211],[118.033,-31.0848,354.4063],[118.033,-31.078,336.8534],[118.0475,-31.0714,324.8753],[118.0514,-31.0644,324.3606],[118.0799,-31.0491,360.0497],[118.0798,-31.0009,366.8527],[118.0588,-31.0009,394.1259],[118.0584,-30.9606,390.7642],[118.0138,-30.9607,347.4396],[118.0138,-30.9664,337.9424],[117.9951,-30.9663,327.7001],[117.995,-30.9607,332.4291],[117.9229,-30.9621,297.3462],[117.9229,-30.9416,295.976],[117.8622,-30.9416,345.3005],[117.8612,-30.9434,352.0237],[117.8643,-30.945,355.8484],[117.86279999999999,-30.9485,358.5117],[117.8608,-30.9521,369.3459],[117.857,-30.9542,374.1934],[117.8496,-30.9539,390.0461],[117.8488,-30.9465,402.6272],[117.8322,-30.9465,386.0043],[117.8322,-30.9498,382.7511],[117.7926,-30.9516,332.507],[117.7926,-30.9588,342.263],[117.7842,-30.9588,336.5313],[117.7842,-30.9516,327.4101],[117.7541,-30.9518,335.7826],[117.7547,-30.9752,342.1383],[117.7203,-30.9752,299.2382],[117.7203,-30.9726,297.3824],[117.7011,-30.9726,291.2614],[117.7011,-30.9672,291.6901],[117.6969,-30.9672,291.1631],[117.6969,-30.9554,289.8328],[117.6866,-30.9535,293.5172],[117.621,-30.9537,294.5655],[117.6211,-31.0064,332.2802],[117.5964,-31.0179,309.4193],[117.6142,-31.0375,332.8823],[117.6142,-31.0827,345.2009],[117.6165,-31.0827,348.863],[117.6165,-31.1166,350.0363],[117.6096,-31.1166,336.9679],[117.6096,-31.2198,365.0429],[117.6024,-31.2198,362.4593],[117.6025,-31.2699,377.1866],[117.6041,-31.2699,374.4521],[117.6042,-31.2919,342.7976],[117.6,-31.2919,348.8605],[117.6,-31.3009,344.1132],[117.6043,-31.3009,342.1458],[117.6043,-31.3191,315.4138],[117.642,-31.3191,319.1913],[117.6418,-31.3692,297.4919],[117.6533,-31.3692,301.4772],[117.654,-31.3783,313.9146],[117.6696,-31.3783,311.9673],[117.6696,-31.3846,321.1203],[117.6812,-31.3847,312.2327],[117.6816,-31.392,317.6462],[117.7429,-31.392,356.5444],[117.7533,-31.3904,373.567],[117.7535,-31.3793,373.0367],[117.7619,-31.3793,385.6612],[117.7619,-31.3723,389.5979],[117.7642,-31.3731,381.3682],[117.7807,-31.3617,338.426],[117.7792,-31.3602,341.0098],[117.7908,-31.3521,336.5009],[117.792,-31.3399,348.7651],[117.8128,-31.3399,331.472],[117.8128,-31.344,318.9134],[117.8387,-31.344,293.9338],[117.8387,-31.3337,296.754],[117.9347,-31.3338,264.3789]]]]}
,"properties": {"GID_2": "AUS.11.120_1","GID_0": "AUS","country": "Australia","GID_1": "AUS.11_1","state": "WesternAustralia","NL_NAME_1": "NA","county": "Trayning","VARNAME_2": "NA","NL_NAME_2": "NA","TYPE_2": "Shire","ENGTYPE_2": "Shire","CC_2": "58400","HASC_2": "AU.WA.TR","name": "Trayning.county","area_km2": 1651.386,"hist_schema_id": "Elevation0-9000","hist_area_km2": {"250": 1.994,"275": 289.368,"300": 481.988,"325": 442.162,"350": 301.97,"375": 116.674,"400": 17.139,"425": 0.091}}}