{"type": "Feature","bbox": [144.8461,-37.7896,144.9404,-37.7092],"geometry": {"type": "MultiPolygon","coordinates": [[[[144.8513,-37.7704,16.7672],[144.8526,-37.7732,26.0144],[144.8585,-37.776,6.4066],[144.8613,-37.7759,6.019],[144.8651,-37.7723,12.128],[144.8726,-37.7723,10.8742],[144.8744,-37.7691,17.5038],[144.8706,-37.7662,10.3151],[144.8726,-37.7621,8.9348],[144.8813,-37.7562,18.6406],[144.8851,-37.756,24.0013],[144.8848,-37.7615,5.0696],[144.8895,-37.7621,10.3101],[144.8937,-37.7657,2.0645],[144.8992,-37.7646,2.4923],[144.9018,-37.7656,4.2727],[144.9021,-37.7694,1.9314],[144.8958,-37.7733,9.9879],[144.8977,-37.7804,2.3912],[144.904,-37.7846,0.2114],[144.9027,-37.7896,1.4293],[144.9063,-37.7874,17.7746],[144.9082,-37.7825,19.6166],[144.9136,-37.7794,11.9747],[144.9213,-37.7875,11.0832],[144.9382,-37.789,14.6612],[144.9404,-37.7876,18.2861],[144.9365,-37.7757,11.5871],[144.9384,-37.7716,21.3763],[144.9352,-37.7706,13.3506],[144.9379,-37.7686,14.4725],[144.9384,-37.7609,21.7272],[144.9342,-37.7606,20.0],[144.933,-37.7589,20.4695],[144.9349,-37.7532,21.3356],[144.9305,-37.7536,24.6109],[144.9268,-37.7516,26.2408],[144.9293,-37.7475,25.537],[144.9286,-37.7457,27.7345],[144.9347,-37.7439,44.9888],[144.9301,-37.7402,32.6799],[144.9283,-37.7348,37.6369],[144.9243,-37.7324,36.2453],[144.9247,-37.7289,37.5787],[144.9225,-37.7288,37.6332],[144.9182,-37.7241,41.8358],[144.9146,-37.7238,44.0276],[144.9125,-37.7209,43.6778],[144.9106,-37.7219,49.7726],[144.9094,-37.7174,46.9362],[144.9056,-37.7173,48.671],[144.9046,-37.7158,48.4516],[144.9023,-37.7167,51.9253],[144.903,-37.7144,50.5409],[144.8982,-37.7092,52.0926],[144.8884,-37.7108,85.9533],[144.8713,-37.7207,70.2749],[144.8461,-37.7474,36.7747],[144.8496,-37.7546,10.4758],[144.8484,-37.7599,12.75],[144.8539,-37.7626,43.538],[144.8542,-37.7651,35.0345],[144.8512,-37.7685,15.6318],[144.8513,-37.7704,16.7672]]]]}
,"properties": {"GID_2": "AUS.10.50_1","GID_0": "AUS","country": "Australia","GID_1": "AUS.10_1","state": "Victoria","NL_NAME_1": "NA","county": "MooneeValley","VARNAME_2": "NA","NL_NAME_2": "NA","TYPE_2": "City","ENGTYPE_2": "City","CC_2": "25060","HASC_2": "AU.VI.MV","name": "MooneeValley.county","area_km2": 42.93376,"hist_schema_id": "Elevation0-9000","hist_area_km2": {"0": 3.80443,"25": 10.945,"50": 16.76461,"75": 11.40295,"100": 0.01677}}}