{"type": "Feature","bbox": [145.852,-41.6847,146.5025,-41.2421],"geometry": {"type": "MultiPolygon","coordinates": [[[[145.8528,-41.4659,632.8295],[145.852,-41.5094,762.3063],[145.8535,-41.5829,693.9276],[145.9513,-41.6847,1500.4862],[146.0268,-41.577,732.7037],[146.0491,-41.578,802.0795],[146.0491,-41.5799,747.4492],[146.0568,-41.5798,750.5065],[146.173,-41.6018,730.4258],[146.1767,-41.6072,713.0713],[146.1741,-41.6162,706.6595],[146.1864,-41.6183,783.7484],[146.189,-41.6098,762.0413],[146.1818,-41.6089,761.2376],[146.1832,-41.6032,767.0459],[146.1789,-41.6026,762.6234],[146.1819,-41.5897,760.2184],[146.1741,-41.5888,744.3504],[146.1773,-41.5769,736.5834],[146.1855,-41.578,748.5384],[146.1863,-41.5749,734.9641],[146.1924,-41.5758,746.6576],[146.1933,-41.5722,754.1733],[146.1853,-41.5713,735.2923],[146.1986,-41.5228,623.5343],[146.1875,-41.5195,710.8995],[146.1888,-41.513,699.9483],[146.2293,-41.4879,479.5028],[146.2596,-41.4904,1047.5929],[146.3211,-41.5047,255.3261],[146.3531,-41.5086,360.0829],[146.3823,-41.5067,697.1948],[146.4158,-41.5132,709.177],[146.4389,-41.5112,673.0667],[146.4464,-41.512,668.0564],[146.451,-41.5103,700.0656],[146.4532,-41.5115,690.7606],[146.4618,-41.5109,660.4108],[146.4703,-41.5136,714.0315],[146.4941,-41.5148,157.9975],[146.4908,-41.5027,125.5858],[146.4976,-41.4958,102.7344],[146.494,-41.4886,116.2221],[146.4872,-41.4874,99.7841],[146.4802,-41.4837,101.9394],[146.4772,-41.4785,99.7506],[146.4665,-41.476,117.721],[146.4667,-41.4793,93.5705],[146.458,-41.4823,124.6286],[146.4557,-41.4797,116.4127],[146.4574,-41.4795,91.0006],[146.4588,-41.4768,89.62],[146.4575,-41.4749,87.5702],[146.4471,-41.4725,93.0865],[146.4538,-41.4691,92.3137],[146.4498,-41.4659,112.414],[146.4536,-41.463,86.9266],[146.4498,-41.4587,108.9219],[146.4557,-41.4564,84.6149],[146.4678,-41.4547,103.2531],[146.4632,-41.4479,76.7629],[146.4685,-41.4376,83.3683],[146.4662,-41.4329,78.2162],[146.4592,-41.4272,73.6475],[146.4613,-41.4239,69.8418],[146.4681,-41.42,93.8853],[146.4681,-41.4131,62.8065],[146.4668,-41.411,69.0489],[146.4683,-41.4053,61.6215],[146.474,-41.4011,71.8268],[146.4802,-41.4054,57.0378],[146.4836,-41.4054,59.9493],[146.4843,-41.3988,65.9507],[146.4964,-41.3955,51.9287],[146.5025,-41.3894,96.0674],[146.4941,-41.3769,87.506],[146.4896,-41.378,47.7808],[146.4843,-41.3762,46.0901],[146.4797,-41.3696,41.6174],[146.479,-41.3628,44.3514],[146.4771,-41.3639,44.7158],[146.4769,-41.3631,44.7158],[146.4782,-41.3622,44.3514],[146.4777,-41.3612,44.2122],[146.4599,-41.3474,35.9041],[146.4592,-41.344,34.0562],[146.4618,-41.3362,31.8355],[146.4597,-41.3201,28.682],[146.4513,-41.317,29.3747],[146.4511,-41.3185,28.1511],[146.4508,-41.318,28.1511],[146.4508,-41.3163,29.3747],[146.4468,-41.315,32.9102],[146.448,-41.3093,31.3428],[146.4441,-41.3022,36.2768],[146.4444,-41.2978,50.3929],[146.4142,-41.293,70.3833],[146.4137,-41.2957,82.7478],[146.408,-41.2931,95.8474],[146.4005,-41.2953,42.6339],[146.3987,-41.289,39.3071],[146.3902,-41.2879,44.4956],[146.389,-41.2936,63.554],[146.3837,-41.2929,94.6859],[146.3841,-41.2869,59.1673],[146.3589,-41.2842,290.6138],[146.3583,-41.2797,293.4589],[146.3623,-41.2778,178.9401],[146.3575,-41.2726,366.9078],[146.3701,-41.2668,198.9671],[146.3614,-41.2572,156.4459],[146.3628,-41.2564,152.7688],[146.3495,-41.2421,61.0855],[146.3234,-41.2549,61.4332],[146.3195,-41.2606,71.1971],[146.3197,-41.2617,66.8258],[146.3208,-41.2604,71.1971],[146.3221,-41.2614,82.2548],[146.3227,-41.264,72.7984],[146.3222,-41.2662,70.8886],[146.3195,-41.2665,76.6693],[146.3211,-41.2719,148.2848],[146.2657,-41.2656,100.2467],[146.2651,-41.2678,82.7669],[146.2618,-41.2674,36.8632],[146.261,-41.2693,39.5519],[146.256,-41.2686,25.5539],[146.251,-41.2721,28.8708],[146.2481,-41.2779,39.2487],[146.2361,-41.2783,73.4128],[146.2325,-41.2777,45.1941],[146.2308,-41.2737,65.4392],[146.2262,-41.2716,36.9139],[146.2165,-41.276,53.2082],[146.2147,-41.2787,76.7203],[146.2108,-41.2795,80.2317],[146.2101,-41.2824,73.4295],[146.2071,-41.2838,59.0149],[146.2077,-41.288,79.7749],[146.2033,-41.2872,75.2278],[146.1965,-41.2907,64.24],[146.1983,-41.2922,65.4861],[146.2033,-41.2909,76.0193],[146.202,-41.2946,67.3737],[146.2034,-41.2979,61.8261],[146.197,-41.2956,71.8079],[146.1943,-41.303,99.0003],[146.1959,-41.3045,68.8387],[146.1993,-41.3028,125.9053],[146.2031,-41.3039,76.7804],[146.205,-41.3118,119.5024],[146.1976,-41.3107,87.5476],[146.1965,-41.3126,84.6403],[146.2004,-41.316,95.8939],[146.1933,-41.3176,93.0627],[146.1847,-41.3163,97.8025],[146.1858,-41.3198,103.4439],[146.1831,-41.3282,107.4685],[146.1766,-41.3367,117.5271],[146.1772,-41.3377,211.4137],[146.1751,-41.338,114.7991],[146.177,-41.3413,203.9173],[146.1669,-41.3436,118.253],[146.1674,-41.3458,126.873],[146.1637,-41.3487,132.1057],[146.1639,-41.3517,140.0142],[146.1596,-41.3521,141.114],[146.1546,-41.3573,142.8443],[146.1521,-41.3565,144.9116],[146.1485,-41.358,153.2221],[146.1448,-41.3626,152.7845],[146.1348,-41.3626,154.4426],[146.1363,-41.367,165.4499],[146.1352,-41.3685,156.3336],[146.1309,-41.3658,184.3653],[146.1285,-41.3688,165.0198],[146.1242,-41.3677,181.5029],[146.1196,-41.3715,220.1598],[146.1143,-41.3717,179.188],[146.1137,-41.3782,198.3065],[146.1207,-41.3775,200.9558],[146.1179,-41.3794,177.9859],[146.1174,-41.3843,228.7955],[146.1125,-41.3854,210.5973],[146.1081,-41.39,216.7765],[146.1023,-41.4023,253.2158],[146.0933,-41.4058,281.9064],[146.0928,-41.4088,289.7538],[146.0945,-41.4102,288.9567],[146.092,-41.413,308.5516],[146.0936,-41.415,321.9085],[146.0853,-41.4211,356.9268],[146.0885,-41.4235,380.0641],[146.0848,-41.4275,396.7439],[146.0872,-41.4298,436.3212],[146.0903,-41.4297,446.2262],[146.092,-41.4322,415.3623],[146.0906,-41.4355,447.2805],[146.0922,-41.439,396.1134],[146.0896,-41.4408,417.7893],[146.0947,-41.444,433.1422],[146.0923,-41.4458,426.4067],[146.0908,-41.4496,452.36],[146.0921,-41.4515,454.6062],[146.0887,-41.4528,455.1371],[146.0889,-41.4567,459.7517],[146.0872,-41.4581,478.1972],[146.0832,-41.4564,426.6711],[145.9541,-41.4518,1323.4918],[145.8528,-41.4659,632.8295]]]]}
,"properties": {"GID_2": "AUS.9.17_1","GID_0": "AUS","country": "Australia","GID_1": "AUS.9_1","state": "Tasmania","NL_NAME_1": "NA","county": "Kentish","VARNAME_2": "NA","NL_NAME_2": "NA","TYPE_2": "Municipality","ENGTYPE_2": "Municipality","CC_2": "63210","HASC_2": "AU.TS.KE","name": "Kentish.county","area_km2": 1155.1166,"hist_schema_id": "Elevation0-9000","hist_area_km2": {"-50": 0.0318,"-25": 0.0478,"0": 0.1274,"25": 2.102,"50": 16.6861,"75": 22.4791,"100": 18.7658,"125": 27.07,"150": 24.3316,"175": 35.3963,"200": 44.2538,"225": 62.8404,"250": 73.6024,"275": 75.1766,"300": 58.2472,"325": 45.1714,"350": 37.8238,"375": 33.6259,"400": 24.3496,"425": 21.7248,"450": 19.4811,"475": 18.0142,"500": 15.5978,"525": 15.3444,"550": 16.0111,"575": 17.8391,"600": 17.4729,"625": 12.0372,"650": 13.8464,"675": 14.2904,"700": 17.3358,"725": 22.2376,"750": 29.0598,"775": 31.6436,"800": 33.0564,"825": 32.1053,"850": 26.6595,"875": 29.687,"900": 29.1326,"925": 23.1794,"950": 19.6271,"975": 16.1375,"1000": 12.6638,"1025": 11.6808,"1050": 9.394,"1075": 7.0473,"1100": 5.3973,"1125": 4.2547,"1150": 3.0796,"1175": 1.3178,"1200": 1.1272,"1225": 1.4123,"1250": 1.6967,"1275": 1.4747,"1300": 0.4604,"1325": 0.2857,"1375": 0.0475,"1425": 0.0317,"1450": 0.0158,"1475": 0.0317,"1500": 0.0475}}}