{"type":"Feature","properties":{"GID_2":"AUS.11.77_1","GID_0":"AUS","country":"Australia","GID_1":"AUS.11_1","state":"WesternAustralia","NL_NAME_1":"NA","county":"Menzies","VARNAME_2":"NA","NL_NAME_2":"NA","TYPE_2":"Shire","ENGTYPE_2":"Shire","CC_2":"55390","HASC_2":"AU.WA.MZ","name":"Menzies.county"},
"geometry":{"type": "MultiPolygon","coordinates": [[[[129.0016,-29.0331,287.4863],[122.8841,-29.0329,446.2908],[122.8841,-29.0298,447.8014],[122.7675,-29.0298,519.3881],[122.7675,-29.1021,465.9601],[122.7465,-29.1021,469.1204],[122.7465,-29.1928,487.1342],[122.474,-29.1928,399.7835],[122.474,-29.3538,419.8333],[122.3698,-29.3538,397.9073],[122.3698,-29.4453,366.64],[122.2882,-29.4452,358.9926],[122.2878,-29.4982,346.7897],[122.1632,-29.4982,344.717],[122.1632,-29.4531,423.4788],[122.0645,-29.4531,349.0948],[122.0645,-29.3115,399.8917],[121.8816,-29.3115,353.9894],[121.8816,-29.2766,361.2532],[121.8785,-29.2766,360.8078],[121.882,-29.1857,390.0557],[121.7801,-29.1846,360.3151],[121.7801,-29.1251,366.1095],[121.6979,-29.1251,352.9703],[121.6979,-29.1779,352.7141],[121.5293,-29.1779,377.5998],[121.5293,-29.1846,377.8572],[121.3846,-29.1847,417.7303],[121.3846,-29.113,389.2983],[121.1847,-29.113,424.0047],[121.1847,-29.0552,411.6818],[120.8375,-29.0567,465.5784],[120.8376,-28.9366,407.113],[120.688,-28.9365,388.2646],[120.6881,-28.7717,369.8901],[120.7605,-28.7717,387.4404],[120.7605,-28.6102,422.8506],[120.6231,-28.6102,438.0509],[120.6231,-28.516,428.5255],[120.4504,-28.5159,438.949],[120.4504,-28.464,420.7768],[119.8484,-28.4641,426.7391],[119.8484,-28.4656,427.17],[119.8019,-28.4656,416.8301],[119.802,-28.8478,413.5067],[119.7758,-28.8478,400.7734],[119.7758,-28.916,400.7859],[119.663,-29.113,400.5858],[119.3444,-29.1109,395.8874],[119.2006,-29.2909,395.7271],[119.0582,-29.2923,475.6084],[118.7203,-29.2923,444.2179],[118.7203,-29.1174,421.5347],[118.4361,-29.118,438.2873],[118.4359,-29.2791,365.593],[118.5037,-29.6123,372.1291],[119.0809,-29.8261,507.0407],[119.0809,-29.8204,498.7698],[119.4199,-29.9447,498.9691],[119.4199,-29.9501,500.51],[119.9882,-30.1585,468.9833],[120.0023,-30.1584,466.5202],[120.0097,-30.1611,457.1309],[120.5204,-30.163,481.9889],[120.8455,-30.1608,413.2296],[121.1836,-30.1438,385.037],[121.8425,-30.1455,359.6617],[122.0101,-30.1454,408.9955],[122.01,-30.1434,407.7188],[122.3202,-30.1427,382.087],[122.3203,-30.1446,383.3244],[122.4079,-30.1443,379.2645],[122.4079,-30.1422,379.8867],[122.817,-30.1437,394.7365],[122.817,-30.1424,393.0493],[123.0014,-30.1422,357.6099],[124.5014,-30.1421,257.3081],[125.5927,-30.1534,220.5298],[127.3384,-30.1634,219.3731],[127.3407,-30.3193,212.4813],[128.1264,-30.3195,196.5508],[129.0014,-30.3054,176.578],[129.0016,-29.0331,287.4863]]]]}}