{"type":"Feature","properties":{"GID_2":"AUS.11.138_1","GID_0":"AUS","country":"Australia","GID_1":"AUS.11_1","state":"WesternAustralia","NL_NAME_1":"NA","county":"Yalgoo","VARNAME_2":"NA","NL_NAME_2":"NA","TYPE_2":"Shire","ENGTYPE_2":"Shire","CC_2":"59350","HASC_2":"AU.WA.YA","name":"Yalgoo.county"},
"geometry":{"type": "MultiPolygon","coordinates": [[[[117.256,-27.2652,428.6021],[117.2516,-27.2618,427.674],[117.251,-27.1744,435.0519],[117.0327,-27.1744,443.8904],[117.0327,-27.3051,392.0781],[116.8689,-27.3051,402.7408],[116.8689,-27.4043,366.5996],[116.8293,-27.4043,351.835],[116.8293,-27.2681,398.7097],[116.7171,-27.2681,412.9753],[116.7171,-27.3852,344.7847],[116.74,-27.3852,347.4368],[116.7399,-27.6703,389.523],[116.5858,-27.6702,393.2126],[116.5858,-27.6289,376.6181],[116.5689,-27.6289,385.803],[116.5689,-27.6042,392.2095],[116.4536,-27.6042,370.4238],[116.4536,-27.6471,377.2771],[116.4048,-27.6471,376.3964],[116.4048,-27.7511,386.0379],[116.3405,-27.7511,388.0019],[116.3405,-27.7745,376.8661],[116.1684,-27.7745,341.7134],[116.1683,-28.0485,355.0916],[116.1187,-28.0486,320.8994],[116.1181,-28.0125,313.2162],[116.0528,-28.0125,284.8799],[116.0533,-28.1198,324.8844],[116.2404,-28.1198,332.3633],[116.24,-28.184,342.0122],[116.1734,-28.1854,329.4374],[116.1733,-28.2001,328.7382],[116.0325,-28.1993,319.8984],[116.0326,-28.2532,294.4304],[116.1693,-28.2532,356.9774],[116.1693,-28.3319,333.707],[116.2268,-28.3319,361.2673],[116.2268,-28.4917,369.8948],[116.2596,-28.4917,369.4766],[116.2597,-28.5959,357.0605],[116.2303,-28.5959,339.6233],[116.2303,-28.6035,341.6865],[116.1685,-28.6035,338.486],[116.1685,-28.7155,345.0691],[116.2303,-28.7155,325.0092],[116.2303,-28.7968,310.4306],[116.2218,-28.7968,315.5832],[116.2218,-28.7997,318.7344],[116.2152,-28.7997,322.6284],[116.2152,-28.7968,318.1966],[116.0839,-28.7975,317.3806],[116.084,-28.8365,303.4251],[116.0871,-28.8365,304.2497],[116.0876,-28.8469,305.3811],[116.1568,-28.8468,308.3949],[116.1568,-28.8765,321.5514],[116.1801,-28.8753,335.9792],[116.1802,-28.8911,341.3356],[116.2116,-28.8911,353.0798],[116.2118,-28.922,379.0461],[116.235,-28.9219,339.2588],[116.235,-28.9523,345.8972],[116.3449,-28.9523,293.5983],[116.3487,-29.0013,278.916],[116.346,-29.0064,266.426],[116.346,-29.016,263.6407],[116.3824,-29.0159,270.7959],[116.3837,-29.0937,265.2771],[116.4804,-29.0939,282.4823],[116.4804,-29.0818,282.114],[116.5465,-29.0818,316.5516],[116.5463,-28.908,317.2097],[116.6264,-28.908,350.4001],[116.6255,-28.8667,368.6269],[116.8385,-28.8662,369.9865],[116.8392,-28.9609,406.2066],[116.9337,-28.9604,408.6787],[116.9335,-29.0709,376.2018],[116.9592,-29.0709,406.0529],[116.9592,-29.0618,420.2466],[117.0516,-29.0618,367.4226],[117.0516,-29.1,354.3291],[117.0648,-29.1,347.4592],[117.0648,-29.1218,339.8284],[117.0516,-29.1218,351.1791],[117.0516,-29.1429,364.6886],[117.0306,-29.1429,374.3897],[117.0308,-29.1865,356.6634],[117.1531,-29.1864,335.4156],[117.1531,-29.2621,282.1844],[117.0289,-29.2621,315.1511],[117.0289,-29.4406,324.079],[117.1015,-29.4421,313.1164],[117.1009,-29.8013,330.3945],[117.502,-29.8013,305.9927],[117.5027,-29.7987,307.6902],[117.5054,-29.7978,309.5403],[117.5055,-29.7935,309.4669],[117.509,-29.7909,312.4197],[117.5098,-29.7891,311.7522],[117.5082,-29.7874,308.5458],[117.5163,-29.7806,318.0987],[117.5372,-29.7716,306.3599],[117.5512,-29.7556,301.5],[117.5562,-29.7556,301.5],[117.5607,-29.7599,307.3098],[117.5662,-29.7549,301.5],[117.5641,-29.7523,306.8681],[117.5617,-29.754,304.9978],[117.5517,-29.7479,308.1206],[117.5521,-29.7465,308.1206],[117.5619,-29.7439,306.5314],[117.5629,-29.7424,305.4072],[117.5474,-29.7351,303.5613],[117.5425,-29.7297,301.5],[117.544,-29.7224,303.0309],[117.5525,-29.7099,307.4703],[117.56,-29.6826,313.7179],[117.5599,-29.6728,310.3969],[117.5581,-29.6664,305.8343],[117.5532,-29.6614,302.6689],[117.5533,-29.6566,303.4338],[117.5554,-29.6543,303.536],[117.5741,-29.6527,312.3869],[117.5761,-29.6507,312.3706],[117.5766,-29.6356,306.3973],[117.5732,-29.6308,303.5403],[117.5736,-29.6243,306.815],[117.5743,-29.6204,304.1805],[117.5785,-29.6156,301.8446],[117.5847,-29.6143,301.5],[117.5933,-29.6154,301.5],[117.6061,-29.6231,301.5],[117.613,-29.6296,301.5],[117.617,-29.6451,305.7049],[117.6213,-29.6483,305.9545],[117.6316,-29.6516,305.0538],[117.6317,-29.6546,305.0692],[117.6489,-29.6597,307.0111],[117.6585,-29.6644,305.9434],[117.6702,-29.6664,309.9777],[117.6735,-29.6692,306.6404],[117.668,-29.6716,302.3631],[117.6713,-29.6737,304.0591],[117.6894,-29.6755,303.0212],[117.6985,-29.6713,303.0061],[117.6959,-29.6751,306.0819],[117.6976,-29.6758,306.0819],[117.7041,-29.6725,301.5],[117.7129,-29.6611,301.5],[117.7148,-29.662,304.421],[117.7168,-29.6604,301.5],[117.7196,-29.6559,301.5],[117.7173,-29.6536,301.5],[117.721,-29.651,305.9991],[117.7172,-29.6468,306.3282],[117.7072,-29.6267,302.0107],[117.6985,-29.6228,307.6413],[117.6957,-29.6264,301.5],[117.6978,-29.6164,305.1135],[117.696,-29.6157,305.9137],[117.6952,-29.6124,304.4538],[117.932,-29.6124,315.4251],[117.932,-29.3819,348.5558],[117.927,-29.3819,345.8571],[117.9273,-29.3286,312.8228],[117.9102,-29.3277,312.0122],[117.9102,-29.3065,316.1304],[117.8777,-29.3065,315.2976],[117.8777,-29.2779,320.9554],[117.7736,-29.2777,330.4873],[117.7738,-29.1106,467.1557],[117.8723,-29.1106,388.7028],[117.8723,-29.101,390.4008],[117.9459,-29.101,361.9294],[117.9458,-29.121,357.071],[118.0915,-29.121,424.5261],[118.0915,-29.1476,445.8968],[118.1547,-29.1476,380.6661],[118.1547,-29.0858,392.4532],[118.2839,-29.0858,398.8115],[118.2839,-28.9516,404.1687],[118.1997,-28.9515,446.7612],[118.1997,-28.9611,444.2778],[118.0765,-28.9611,420.2251],[118.0765,-28.8948,433.6765],[118.0422,-28.8948,449.8506],[118.0422,-28.8059,472.3246],[118.0453,-28.8059,477.9566],[118.0453,-28.7478,481.0365],[118.0864,-28.7478,490.953],[118.0864,-28.6571,472.5453],[118.0041,-28.6571,413.7436],[118.0041,-28.6924,421.382],[117.9592,-28.6924,399.3777],[117.9592,-28.7564,432.6721],[117.7912,-28.7564,375.9486],[117.7912,-28.7855,399.4252],[117.7603,-28.7855,417.0258],[117.7602,-28.6951,354.3643],[117.5562,-28.693,334.5549],[117.5562,-28.4646,360.7519],[117.47,-28.4646,366.2804],[117.4706,-28.407,375.8682],[117.4241,-28.407,406.0729],[117.4241,-28.3158,370.0095],[117.3419,-28.3158,343.9441],[117.341,-28.2479,349.456],[117.2659,-28.2479,361.8166],[117.2659,-28.15,410.3106],[117.2408,-28.15,404.8241],[117.2408,-27.925,446.6522],[117.2502,-27.925,455.5204],[117.25,-27.8342,423.9459],[117.2215,-27.8343,421.2031],[117.2215,-27.8104,424.2834],[117.3691,-27.8104,456.8224],[117.3691,-27.7596,464.6685],[117.2837,-27.7596,441.824],[117.2838,-27.687,492.6613],[117.3409,-27.687,495.2992],[117.3409,-27.6087,456.7236],[117.1666,-27.6087,425.1695],[117.1666,-27.4645,381.8814],[117.1772,-27.4645,384.8215],[117.1772,-27.2938,404.2214],[117.256,-27.2938,413.7225],[117.256,-27.2652,428.6021]]]]}}