{"type": "Feature","bbox": [139.8684,-37.84,140.9739,-37.176],"geometry": {"type": "MultiPolygon","coordinates": [[[[140.3916,-37.8358,0.5066],[140.3917,-37.8374,0.5616],[140.3918,-37.8373,0.5616],[140.3922,-37.8364,0.5616],[140.3916,-37.8358,0.5066]]],
[[[140.3822,-37.7896,0.1594],[140.3818,-37.7895,0.7283],[140.3819,-37.7902,0.1594],[140.3823,-37.7902,0.1594],[140.3822,-37.7896,0.1594]]],
[[[140.382,-37.7894,0.7283],[140.3821,-37.789,0.7283],[140.3817,-37.7889,0.7283],[140.3817,-37.7892,0.7283],[140.382,-37.7894,0.7283]]],
[[[140.1511,-37.6022,0.0],[140.1513,-37.6025,0.0],[140.1517,-37.6022,0.0],[140.1514,-37.602,0.0],[140.1511,-37.6022,0.0]]],
[[[140.1306,-37.5895,0.0],[140.1308,-37.5896,0.0],[140.1313,-37.5894,0.0],[140.1313,-37.5893,0.0],[140.1306,-37.5895,0.0]]],
[[[140.005,-37.4996,0.0],[140.0055,-37.5001,0.0],[140.0064,-37.4999,0.0],[140.0053,-37.4987,0.0],[140.005,-37.4996,0.0]]],
[[[140.0075,-37.4987,0.0],[140.0078,-37.499,0.0],[140.0083,-37.4989,0.0],[140.008,-37.4984,0.0],[140.0075,-37.4987,0.0]]],
[[[140.0131,-37.4987,0.0086],[140.0137,-37.499,0.0086],[140.0148,-37.4997,0.0],[140.0139,-37.4977,0.0],[140.0131,-37.4987,0.0086]]],
[[[140.1348,-37.5909,0.0],[140.1351,-37.5911,0.0],[140.1355,-37.5907,17.6321],[140.1352,-37.5906,0.0],[140.1348,-37.5909,0.0]]],
[[[140.1323,-37.5886,0.0],[140.1322,-37.5889,0.0],[140.1327,-37.5889,0.0],[140.1327,-37.5887,0.0],[140.1323,-37.5886,0.0]]],
[[[140.9385,-37.6113,73.278],[140.9728,-37.6114,82.187],[140.9739,-37.4621,67.655],[140.9715,-37.1785,114.8183],[140.612,-37.176,54.0242],[140.6119,-37.3097,56.6702],[140.61,-37.3218,57.0777],[139.8835,-37.3204,-4.5],[139.8736,-37.321,-1.1036],[139.8684,-37.3399,1.9798],[139.8715,-37.3482,0.0],[139.8819,-37.3603,1.9104],[139.8904,-37.3759,0.0],[139.9101,-37.3889,4.2505],[139.9244,-37.4054,0.0],[139.9293,-37.4136,0.0],[139.9302,-37.4183,0.0],[139.9392,-37.4229,2.1962],[139.9467,-37.4293,5.4903],[139.9512,-37.4376,0.0],[139.9492,-37.4405,0.0],[139.9507,-37.4417,0.0],[139.9492,-37.4418,0.0],[139.9514,-37.4422,0.0],[139.9511,-37.4434,0.0],[139.9549,-37.4417,0.0],[139.9601,-37.4434,0.0],[139.9627,-37.4481,0.0],[139.9701,-37.4551,1.6117],[139.9693,-37.4568,0.0],[139.972,-37.4565,0.9685],[139.9733,-37.4603,0.0],[139.9846,-37.4681,0.0],[139.9853,-37.4709,0.0],[139.9903,-37.471,6.2357],[139.9966,-37.4767,2.9043],[139.9969,-37.483,0.0],[139.9936,-37.483,0.1482],[139.9929,-37.4857,0.0],[139.997,-37.4842,0.0],[140.0,-37.4872,1.6001],[139.9973,-37.4846,0.0],[139.9984,-37.4864,0.0],[139.9963,-37.4883,0.0],[139.998,-37.4873,1.3232],[140.0001,-37.4896,0.0],[140.001,-37.4875,1.6001],[140.0051,-37.4874,3.9799],[140.0114,-37.4931,0.0],[140.0161,-37.4903,0.0],[140.0146,-37.4867,0.3566],[140.016,-37.4805,2.3126],[140.0201,-37.477,2.1423],[140.0251,-37.4754,1.0128],[140.0322,-37.4744,2.2926],[140.0498,-37.4786,4.3038],[140.0601,-37.4844,8.1136],[140.0775,-37.5034,1.0529],[140.0954,-37.5122,4.2753],[140.1188,-37.5286,0.0],[140.1298,-37.5437,4.7166],[140.1317,-37.5506,3.9379],[140.1313,-37.5562,3.6055],[140.1281,-37.5647,2.2367],[140.1208,-37.5694,0.0],[140.1161,-37.5702,12.2649],[140.1115,-37.5656,0.0],[140.1078,-37.5652,0.4636],[140.108,-37.5675,0.0],[140.1123,-37.5714,4.9484],[140.1114,-37.5737,0.8866],[140.1134,-37.5753,14.3308],[140.1127,-37.5784,0.0],[140.1152,-37.5802,0.0],[140.1155,-37.5788,8.532],[140.1209,-37.5796,0.0],[140.1229,-37.5844,0.0],[140.1276,-37.5852,18.9037],[140.128,-37.5876,2.491],[140.1327,-37.5884,0.0],[140.1343,-37.5871,10.3394],[140.1372,-37.5928,4.4633],[140.1449,-37.5945,16.8768],[140.1495,-37.5979,3.8266],[140.1515,-37.6014,0.0],[140.1574,-37.6029,11.6242],[140.1642,-37.6071,1.6543],[140.1681,-37.612,0.0],[140.1705,-37.6119,6.2024],[140.1787,-37.6172,3.693],[140.2033,-37.6398,0.0],[140.2372,-37.6742,1.5458],[140.2585,-37.699,0.0],[140.2797,-37.7269,0.5547],[140.2846,-37.7371,2.9884],[140.2933,-37.7479,0.0],[140.2968,-37.7555,4.3484],[140.3661,-37.7554,1.3644],[140.3709,-37.7671,0.4364],[140.3792,-37.7777,0.9418],[140.3801,-37.7849,-0.5],[140.3886,-37.7969,1.5889],[140.3891,-37.805,1.0908],[140.3871,-37.8116,1.8086],[140.3882,-37.8146,0.7068],[140.3862,-37.8182,-0.2374],[140.3885,-37.8247,-0.5],[140.3928,-37.8297,3.0038],[140.3938,-37.8398,2.2671],[140.4001,-37.84,7.5959],[140.4074,-37.8374,11.1618],[140.4236,-37.837,21.6162],[140.4399,-37.8325,13.2299],[140.4469,-37.8283,18.2372],[140.459,-37.8286,15.6674],[140.4731,-37.819,15.0269],[140.4802,-37.819,15.3957],[140.467,-37.8021,15.4116],[140.4697,-37.8021,15.46],[140.4699,-37.7853,16.6593],[140.4761,-37.7854,17.0786],[140.4765,-37.755,19.6593],[140.6095,-37.7546,44.2818],[140.6097,-37.738,66.5036],[140.6169,-37.7355,72.9275],[140.6799,-37.7353,69.5773],[140.6793,-37.7147,75.9106],[140.6862,-37.7146,69.6608],[140.6854,-37.707,69.286],[140.68,-37.6978,64.6667],[140.6757,-37.6958,74.0664],[140.6757,-37.6646,76.3996],[140.6776,-37.6644,76.2478],[140.6754,-37.6546,70.2936],[140.6673,-37.6421,70.9506],[140.6787,-37.6165,68.4483],[140.6766,-37.6103,70.8141],[140.9385,-37.6113,73.278]]],
[[[140.0135,-37.4971,0.0],[140.0137,-37.4971,0.0],[140.0131,-37.4966,0.0],[140.0131,-37.4969,0.0],[140.0135,-37.4971,0.0]]],
[[[140.0119,-37.4942,0.0],[140.0096,-37.4947,0.0],[140.0101,-37.4961,0.4708],[140.0118,-37.4961,0.4708],[140.0119,-37.4942,0.0]]],
[[[139.9951,-37.4813,0.0],[139.9956,-37.4815,2.6052],[139.9953,-37.4808,0.0],[139.9949,-37.4809,0.0],[139.9951,-37.4813,0.0]]]]}
,"properties": {"GID_2": "AUS.8.66_1","GID_0": "AUS","country": "Australia","GID_1": "AUS.8_1","state": "SouthAustralia","NL_NAME_1": "NA","county": "WattleRange","VARNAME_2": "NA","NL_NAME_2": "NA","TYPE_2": "DistrictCouncil","ENGTYPE_2": "DistrictCouncil","CC_2": "48340","HASC_2": "AU.SA.WR","name": "WattleRange.county","area_km2": 3925.193,"hist_schema_id": "Elevation0-9000","hist_area_km2": {"0": 552.022,"25": 1014.688,"50": 1151.664,"75": 924.098,"100": 184.807,"125": 56.815,"150": 30.485,"175": 8.43,"200": 1.612,"225": 0.504,"250": 0.067}}}