{"type": "Feature","bbox": [117.332,-35.1345,118.9147,-34.2849],"geometry": {"type": "MultiPolygon","coordinates": [[[[117.6073,-35.1287,12.8912],[117.6067,-35.1276,0.0],[117.6063,-35.1275,0.0],[117.6064,-35.1287,0.0],[117.6073,-35.1287,12.8912]]],
[[[117.9236,-35.1221,2.6109],[117.924,-35.1225,2.6109],[117.9243,-35.1221,0.0],[117.9235,-35.1218,2.6109],[117.9236,-35.1221,2.6109]]],
[[[117.8642,-35.1184,5.9518],[117.8662,-35.1168,17.9611],[117.8634,-35.1159,0.0],[117.8623,-35.118,0.0],[117.8642,-35.1184,5.9518]]],
[[[117.8601,-35.1155,0.0],[117.8583,-35.1152,0.0],[117.8589,-35.1173,3.6339],[117.861,-35.116,0.0],[117.8601,-35.1155,0.0]]],
[[[117.9435,-35.1262,1.4228],[117.944,-35.1262,1.4228],[117.9441,-35.1252,1.4228],[117.9438,-35.1256,1.4228],[117.9435,-35.1262,1.4228]]],
[[[118.0174,-35.11,0.0],[118.0175,-35.1102,0.0],[118.0178,-35.1101,0.0],[118.0178,-35.1099,0.0],[118.0174,-35.11,0.0]]],
[[[118.0172,-35.1096,0.0],[118.0172,-35.1098,0.0],[118.0179,-35.1099,0.0],[118.0178,-35.1097,0.0],[118.0172,-35.1096,0.0]]],
[[[117.9748,-35.076,0.0],[117.975,-35.0747,0.0],[117.9731,-35.0758,0.0],[117.9738,-35.0757,0.0],[117.9748,-35.076,0.0]]],
[[[117.6499,-35.0758,0.0],[117.6508,-35.0756,0.0],[117.6502,-35.0743,0.0],[117.6492,-35.0748,0.0],[117.6499,-35.0758,0.0]]],
[[[117.6784,-35.072,1.5211],[117.6764,-35.0724,0.0],[117.6778,-35.0736,0.354],[117.6791,-35.0732,0.354],[117.6784,-35.072,1.5211]]],
[[[117.6492,-35.0727,8.1278],[117.65,-35.0714,8.1278],[117.6483,-35.0705,0.0],[117.6477,-35.0713,5.1992],[117.6492,-35.0727,8.1278]]],
[[[117.7001,-35.0529,1.1152],[117.7001,-35.0532,0.0],[117.7013,-35.0532,0.0],[117.701,-35.0529,1.1152],[117.7001,-35.0529,1.1152]]],
[[[117.9468,-35.0615,0.636],[117.9433,-35.0616,17.9612],[117.9405,-35.0626,0.0],[117.9432,-35.064,10.1258],[117.9468,-35.0615,0.636]]],
[[[117.9399,-35.0621,0.0],[117.9402,-35.0624,0.0],[117.9405,-35.062,0.0],[117.9403,-35.0619,0.0],[117.9399,-35.0621,0.0]]],
[[[117.9395,-35.0611,5.08],[117.9397,-35.0614,0.0],[117.94,-35.0613,0.0],[117.94,-35.0612,5.08],[117.9395,-35.0611,5.08]]],
[[[117.9336,-35.0551,0.0],[117.9332,-35.0549,0.0],[117.9324,-35.0549,0.0],[117.9332,-35.0552,0.0],[117.9336,-35.0551,0.0]]],
[[[117.6976,-35.0524,0.4699],[117.6982,-35.0517,0.0],[117.6968,-35.0507,5.1906],[117.6964,-35.0515,0.4699],[117.6976,-35.0524,0.4699]]],
[[[117.6922,-35.049,3.588],[117.6909,-35.0493,0.0],[117.6922,-35.0521,2.8049],[117.6946,-35.0526,0.0],[117.6948,-35.0512,0.0],[117.6922,-35.049,3.588]]],
[[[118.0405,-35.0411,5.1806],[118.0388,-35.0399,14.0601],[118.037,-35.0417,49.828],[118.0308,-35.042,9.9383],[118.0281,-35.0458,21.7966],[118.0315,-35.0476,33.4775],[118.0379,-35.0448,4.3735],[118.0436,-35.0469,0.0],[118.0501,-35.0459,1.9112],[118.0505,-35.0437,2.5859],[118.0475,-35.0426,0.0],[118.0457,-35.0436,37.4959],[118.044,-35.0416,14.4555],[118.0405,-35.0411,5.1806]]],
[[[117.9789,-34.9396,0.0],[117.979,-34.9397,0.0],[117.9791,-34.9397,0.0],[117.9789,-34.9395,0.4351],[117.9789,-34.9396,0.0]]],
[[[118.0633,-35.0668,0.0],[118.0633,-35.0672,0.0],[118.0637,-35.0673,0.0],[118.0636,-35.0669,0.0],[118.0633,-35.0668,0.0]]],
[[[118.0714,-35.0658,0.0],[118.0715,-35.0662,0.0],[118.0719,-35.0658,0.0],[118.0716,-35.0657,0.0],[118.0714,-35.0658,0.0]]],
[[[118.0435,-35.066,0.0],[118.0437,-35.0658,0.0],[118.0436,-35.0655,0.0],[118.0432,-35.066,0.0],[118.0435,-35.066,0.0]]],
[[[118.0709,-35.0658,0.0],[118.0715,-35.0651,0.0],[118.0714,-35.0648,0.0],[118.0702,-35.0654,29.419],[118.0709,-35.0658,0.0]]],
[[[118.0429,-35.06,39.3203],[118.0397,-35.0601,18.3912],[118.0407,-35.0619,3.3014],[118.0448,-35.0635,2.8528],[118.0441,-35.0664,0.0],[118.0462,-35.0646,1.572],[118.0509,-35.0662,22.389],[118.0554,-35.0649,11.657],[118.0616,-35.0672,3.315],[118.0647,-35.0653,21.5078],[118.0689,-35.0665,0.0],[118.0699,-35.0651,29.419],[118.0654,-35.0623,0.0],[118.0624,-35.0632,37.539],[118.0429,-35.06,39.3203]]],
[[[118.1589,-35.028,11.2264],[118.157,-35.028,9.1487],[118.158,-35.0295,9.1487],[118.1617,-35.0294,0.1866],[118.1611,-35.0286,0.1866],[118.1589,-35.028,11.2264]]],
[[[118.1734,-35.0127,0.0],[118.1718,-35.013,0.0],[118.1738,-35.0164,0.0],[118.1775,-35.0172,0.0],[118.1766,-35.0138,32.6425],[118.1734,-35.0127,0.0]]],
[[[118.1623,-35.0049,1.9522],[118.163,-35.0032,0.0],[118.1617,-35.0017,6.7076],[118.1613,-35.0033,9.3306],[118.1623,-35.0049,1.9522]]],
[[[118.3756,-34.9481,0.0],[118.3763,-34.9485,0.0],[118.3774,-34.9472,0.0],[118.3763,-34.9466,0.0],[118.3756,-34.9481,0.0]]],
[[[118.3741,-34.9435,0.0],[118.3748,-34.9441,0.0],[118.3753,-34.9422,0.0],[118.3743,-34.9426,0.0],[118.3741,-34.9435,0.0]]],
[[[118.4442,-34.9043,2.7058],[118.4414,-34.9042,2.3056],[118.4433,-34.9074,22.0217],[118.4384,-34.9083,0.0],[118.4368,-34.9114,9.7174],[118.441,-34.9155,7.0702],[118.4474,-34.9161,60.9079],[118.4508,-34.9199,13.4074],[118.4512,-34.9236,36.9264],[118.4499,-34.9247,2.0878],[118.4581,-34.9248,42.4865],[118.4599,-34.9297,5.9729],[118.4623,-34.9305,21.2555],[118.4627,-34.9333,0.0],[118.4667,-34.9355,20.6389],[118.4779,-34.9368,0.0],[118.4778,-34.9318,0.0],[118.4793,-34.929,47.3429],[118.4856,-34.9258,11.5078],[118.4864,-34.9212,0.0],[118.4788,-34.9173,24.0833],[118.476,-34.914,0.0],[118.4666,-34.9116,22.692],[118.4568,-34.9049,17.3501],[118.4471,-34.907,12.6196],[118.4442,-34.9043,2.7058]]],
[[[118.3204,-34.9055,0.0],[118.3211,-34.9061,0.0],[118.3216,-34.9057,0.0],[118.321,-34.9049,0.0],[118.3204,-34.9055,0.0]]],
[[[118.2106,-34.9963,8.0233],[118.2091,-34.9964,0.7632],[118.2094,-34.9987,0.0],[118.2147,-35.004,2.6359],[118.2166,-35.0035,0.0],[118.2157,-34.999,0.0],[118.2106,-34.9963,8.0233]]],
[[[117.9781,-34.9393,0.4351],[117.9793,-34.9385,0.4351],[117.9815,-34.94,0.0],[117.9801,-34.9493,3.133],[117.9734,-34.9603,0.0],[117.9758,-34.9654,2.8479],[117.975,-34.9674,0.0],[117.9801,-34.9776,1.5302],[117.9799,-34.9905,4.2274],[117.972,-34.9954,3.8078],[117.9519,-34.9964,12.6568],[117.9488,-35.0019,0.0],[117.9515,-35.0043,17.0204],[117.951,-35.006,17.1764],[117.9617,-35.0131,0.0],[117.9657,-35.0124,20.1549],[117.9712,-35.0154,13.8187],[117.9784,-35.0127,28.0679],[117.9988,-35.01,4.6632999999999996],[118.0046,-35.0134,6.8933],[118.0025,-35.0182,20.0438],[118.004,-35.0208,0.8217],[118.01,-35.017,6.5684],[118.0232,-35.0157,11.4691],[118.0298,-35.0174,15.6585],[118.0307,-35.0203,0.0],[118.0348,-35.0204,5.4234],[118.0371,-35.0197,0.0],[118.0362,-35.0175,0.0],[118.0399,-35.0144,14.4701],[118.0443,-35.0167,0.0],[118.0477,-35.0137,18.9041],[118.0522,-35.0141,15.0087],[118.0532,-35.0128,17.4238],[118.0508,-35.0099,9.6655],[118.0535,-35.0064,31.7],[118.0574,-35.0038,6.1001],[118.0592,-35.0043,6.6282],[118.0602,-35.002,0.0],[118.0626,-35.0031,0.0],[118.0606,-35.0014,0.0],[118.0613,-34.9999,6.5311],[118.0718,-34.9939,4.3339],[118.0904,-34.988,0.0],[118.1088,-34.9859,3.8328],[118.1125,-34.9877,4.721],[118.1316,-34.9889,4.7302],[118.1359,-34.9879,29.7343],[118.1675,-34.9952,65.0687],[118.1704,-35.0002,3.0235],[118.1755,-35.0036,15.9139],[118.1714,-35.0054,20.6441],[118.177,-35.0138,32.6425],[118.1869,-35.015,0.0],[118.1922,-35.0135,11.6251],[118.1902,-35.0202,0.0],[118.1909,-35.0234,11.648],[118.1881,-35.0218,6.7206],[118.1874,-35.0246,0.0],[118.1946,-35.0231,0.0],[118.2,-35.0172,3.2435],[118.2009,-35.0119,14.1268],[118.2035,-35.012,6.1166],[118.2059,-35.0092,13.3351],[118.2031,-35.004,0.0],[118.1999,-35.0035,10.0828],[118.2014,-34.9975,35.7598],[118.2071,-34.9948,0.7895],[118.2094,-34.99,23.6944],[118.2121,-34.9891,39.8111],[118.2085,-34.9828,19.269],[118.2107,-34.9788,7.6521],[118.2029,-34.9738,0.0],[118.1968,-34.9745,0.0],[118.1958,-34.971,0.0],[118.1944,-34.9716,5.0308],[118.1904,-34.9674,0.4639],[118.1882,-34.971,6.5864],[118.1826,-34.9729,0.0],[118.1771,-34.9715,5.2891],[118.1726,-34.9677,1.7351],[118.1698,-34.9615,1.0174],[118.1698,-34.9539,0.0],[118.1753,-34.9401,1.7002],[118.1794,-34.9381,11.1273],[118.1829,-34.941,15.9688],[118.1848,-34.94,11.7774],[118.184,-34.938,25.7368],[118.1873,-34.937,10.7756],[118.1894,-34.9389,4.1406],[118.1961,-34.9394,49.2979],[118.1979,-34.9422,0.2851],[118.2008,-34.9403,8.3145],[118.2031,-34.9415,0.0],[118.209,-34.9409,6.8005],[118.211,-34.944,1.6317],[118.2117,-34.9425,16.6728],[118.2139,-34.9428,2.2175],[118.2096,-34.9408,6.8005],[118.2094,-34.9365,3.119],[118.2068,-34.935,3.7847],[118.2121,-34.9275,4.5287],[118.2237,-34.9199,0.0],[118.2392,-34.9145,12.9558],[118.2416,-34.9149,8.7015],[118.2441,-34.9182,0.0],[118.2508,-34.9157,14.8447],[118.255,-34.918,0.0],[118.2545,-34.9144,23.3798],[118.2599,-34.9085,4.5115],[118.2656,-34.9085,5.5035],[118.2802,-34.9126,24.6112],[118.2911,-34.9107,49.7895],[118.2944,-34.9128,18.7799],[118.2997,-34.9119,0.0],[118.3019,-34.9079,0.0],[118.2982,-34.9063,51.4383],[118.2987,-34.9036,9.8869],[118.3038,-34.9049,0.0],[118.3059,-34.9028,22.8313],[118.3209,-34.9042,10.6146],[118.3215,-34.9012,40.2727],[118.3295,-34.8981,0.0],[118.3299,-34.8948,0.0],[118.3322,-34.8933,2.9614],[118.3347,-34.8936,7.7707],[118.334,-34.8914,11.0562],[118.3354,-34.8937,7.7707],[118.3313,-34.8954,0.0],[118.3313,-34.8981,0.0],[118.3347,-34.8985,20.3918],[118.3392,-34.9027,6.594],[118.3415,-34.9005,19.331],[118.3445,-34.902,0.0],[118.3482,-34.8999,7.6232],[118.3601,-34.905,0.0],[118.3674,-34.9026,32.8295],[118.3706,-34.9046,0.0],[118.3722,-34.9029,38.4423],[118.3786,-34.9028,47.8505],[118.3906,-34.9077,18.1239],[118.3902,-34.9099,3.587],[118.3925,-34.9119,0.7992],[118.3897,-34.915,4.2037],[118.3919,-34.9156,3.9614],[118.3936,-34.9142,28.7789],[118.396,-34.9155,57.0077],[118.3969,-34.9183,0.0],[118.4034,-34.9167,13.2441],[118.4066,-34.9125,0.0],[118.4041,-34.9108,0.0],[118.4046,-34.9082,0.0],[118.4022,-34.9054,25.3225],[118.408,-34.9038,0.0],[118.4109,-34.9008,25.9931],[118.414,-34.9026,1.1682],[118.4197,-34.8997,19.1863],[118.4224,-34.9006,0.0],[118.424,-34.8992,49.7386],[118.4259,-34.9006,2.4287],[118.4278,-34.8987,5.9736],[118.4221,-34.8934,4.0411],[118.4226,-34.891,10.0363],[118.4271,-34.8892,1.6619],[118.4224,-34.8815,0.0],[118.4175,-34.8801,14.64],[118.4126,-34.8809,7.605],[118.4081,-34.8786,3.1126],[118.4065,-34.8813,6.0228],[118.4032,-34.8814,6.9715],[118.3971,-34.8766,1.7399],[118.395,-34.8656,11.4087],[118.3949,-34.8519,8.231],[118.4005,-34.8238,1.3894],[118.4084,-34.8045,8.0539],[118.4165,-34.7897,0.0],[118.4249,-34.7773,1.0296],[118.4401,-34.7608,5.0189],[118.4566,-34.7475,10.7028],[118.4761,-34.7362,0.8529],[118.4969,-34.7272,5.69],[118.5005,-34.728,0.0],[118.5098,-34.7254,17.5219],[118.5121,-34.7262,9.1239],[118.512,-34.7211,5.4647],[118.5198,-34.7175,1.5176],[118.5293,-34.7149,0.9554],[118.5338,-34.716,10.1312],[118.5346,-34.7139,20.9825],[118.541,-34.7138,9.3114],[118.5444,-34.7105,4.9984],[118.5495,-34.7099,0.6841],[118.5519,-34.7115,0.0],[118.5523,-34.7065,0.0],[118.5619,-34.7037,0.0],[118.5731,-34.7028,16.3879],[118.5792,-34.7057,4.2506],[118.58,-34.7016,37.5316],[118.5851,-34.7017,0.0],[118.5863,-34.6972,10.997],[118.5947,-34.6957,3.5525],[118.6013,-34.698,0.0],[118.6073,-34.6905,0.0],[118.6106,-34.6916,0.0],[118.6132,-34.6886,18.2153],[118.6201,-34.6866,0.0],[118.6353,-34.6883,0.0],[118.6452,-34.6912,11.4384],[118.6513,-34.6878,0.0],[118.6498,-34.6852,24.6908],[118.6509,-34.684,0.0],[118.6493,-34.6826,13.0769],[118.6514,-34.6784,0.0],[118.6661,-34.6678,3.4107],[118.6828,-34.6645,38.8922],[118.6845,-34.6618,24.0966],[118.6867,-34.6625,10.9079],[118.692,-34.6584,7.6908],[118.6937,-34.6592,7.6908],[118.6996,-34.6572,2.9608],[118.7014,-34.6548,9.7203],[118.7068,-34.6549,2.9534],[118.7078,-34.6562,2.9534],[118.7135,-34.6551,6.2948],[118.7174,-34.6576,4.5554],[118.7224,-34.6569,2.3943],[118.7222,-34.6532,10.2257],[118.7309,-34.6482,0.0],[118.7316,-34.6441,19.182],[118.7345,-34.6438,12.2042],[118.7363,-34.6405,26.1744],[118.746,-34.6383,6.9721],[118.7444,-34.6352,14.0692],[118.7464,-34.6327,28.6344],[118.7456,-34.6304,10.8012],[118.7515,-34.6256,1.3704],[118.752,-34.6224,2.4421],[118.7688,-34.6179,23.1983],[118.7703,-34.6151,9.0248],[118.7743,-34.6154,0.0],[118.7773,-34.6109,34.7568],[118.7817,-34.609,11.6468],[118.7565,-34.6037,5.5267],[118.7549,-34.5974,4.0746],[118.7481,-34.5966,9.7052],[118.7454,-34.5937,6.9412],[118.7425,-34.5809,2.6137],[118.7393,-34.5781,3.2854],[118.7396,-34.5736,0.0],[118.7449,-34.5591,21.7259],[118.7553,-34.5456,30.1783],[118.7645,-34.5377,3.5256],[118.7804,-34.5281,0.0],[118.7917,-34.5225,2.1788],[118.8065,-34.5182,0.3143],[118.8042,-34.5168,6.1724],[118.8048,-34.5141,9.9941],[118.8084,-34.5112,5.4251],[118.8113,-34.512,0.0],[118.8116,-34.5095,31.7634],[118.8149,-34.5103,0.0],[118.8235,-34.5067,0.0],[118.8334,-34.5069,2.4683],[118.8447,-34.5023,1.6518],[118.8562,-34.5012,22.9649],[118.8842,-34.4996,0.0],[118.9078,-34.5034,17.3409],[118.9142,-34.5032,0.0],[118.9147,-34.501,0.0],[118.9075,-34.4998,21.4689],[118.9058,-34.4969,0.0],[118.9087,-34.4895,12.3646],[118.913,-34.4883,3.2431],[118.908,-34.4866,2.7717],[118.9081,-34.4824,0.0],[118.9062,-34.479,0.0],[118.9015,-34.4788,15.5756],[118.9011,-34.4746,0.0],[118.9042,-34.4688,0.0],[118.8971,-34.4614,0.0],[118.8888,-34.4585,0.0],[118.8769,-34.4575,0.0],[118.8764,-34.4534,0.0],[118.8723,-34.4515,0.0],[118.8638,-34.4522,0.0],[118.8607,-34.459,0.0],[118.8538,-34.4611,0.0],[118.8458,-34.4571,0.0],[118.8386,-34.4571,0.5],[118.8247,-34.4521,3.1396],[118.8225,-34.4474,0.5],[118.8081,-34.4401,0.943],[118.7906,-34.4377,7.8107],[118.7858,-34.4316,7.4433],[118.7756,-34.4328,10.482],[118.7727,-34.4312,20.3384],[118.771,-34.4266,10.4936],[118.7626,-34.428,13.6357],[118.7616,-34.4213,20.0015],[118.7516,-34.4187,15.4671],[118.7389,-34.4053,20.0266],[118.7298,-34.4078,21.4912],[118.7268,-34.403,24.3559],[118.7293,-34.3955,46.8721],[118.7266,-34.3889,30.2555],[118.7236,-34.3882,32.5094],[118.7203,-34.3902,46.0306],[118.7177,-34.3871,36.3856],[118.7107,-34.3848,47.2655],[118.7066,-34.3809,41.782],[118.7103,-34.3707,46.0453],[118.7062,-34.3674,53.9464],[118.7093,-34.3622,50.8663],[118.707,-34.3611,60.837],[118.7021,-34.3619,64.1608],[118.6962,-34.3586,59.3225],[118.6871,-34.3597,75.1426],[118.6862,-34.3565,68.4446],[118.6881,-34.3517,66.9343],[118.6836,-34.3481,65.1727],[118.6789,-34.3366,65.2466],[118.6672,-34.3375,66.8549],[118.6641,-34.3355,67.7188],[118.6452,-34.338,74.4379],[118.6419,-34.3329,70.0511],[118.6376,-34.3305,69.751],[118.6336,-34.3318,70.0781],[118.6331,-34.3352,69.53],[118.6354,-34.3395,71.3018],[118.6354,-34.3444,72.6269],[118.6407,-34.3478,79.2631],[118.6391,-34.3492,72.9828],[118.6356,-34.3493,74.7448],[118.6236,-34.3441,79.6895],[118.6155,-34.3515,75.6796],[118.6057,-34.3571,84.9476],[118.5951,-34.3521,83.6057],[118.5896,-34.3533,83.2701],[118.5852,-34.3518,82.314],[118.5801,-34.355,86.4074],[118.5756,-34.3524,86.5035],[118.5815,-34.3481,89.892],[118.5794,-34.3458,85.8203],[118.5716,-34.3445,87.4317],[118.5607,-34.3398,91.0968],[118.5598,-34.3359,91.5621],[118.5609,-34.3337,88.3017],[118.5584,-34.3316,89.0793],[118.5563,-34.3248,91.2119],[118.548,-34.3284,95.9261],[118.5396,-34.3289,92.4972],[118.535,-34.3265,102.9117],[118.5339,-34.3194,95.2832],[118.5196,-34.3198,98.564],[118.5183,-34.3129,99.4404],[118.5109,-34.3106,101.4611],[118.5095,-34.306,102.8314],[118.4985,-34.3045,114.0629],[118.4868,-34.305,113.9835],[118.485,-34.3039,109.049],[118.4834,-34.2989,115.8054],[118.4786,-34.2979,116.6669],[118.4743,-34.2949,118.7829],[118.4665,-34.2986,120.9107],[118.4646,-34.2946,125.4426],[118.4581,-34.2916,125.6909],[118.4532,-34.2945,126.5151],[118.4492,-34.2946,129.1519],[118.4371,-34.2897,130.7126],[118.4272,-34.2896,135.7628],[118.4117,-34.2849,135.7256],[118.4117,-34.2953,203.7165],[118.4018,-34.2953,190.6389],[118.4018,-34.305,248.6886],[118.3834,-34.305,230.8867],[118.3837,-34.3081,219.8035],[118.3926,-34.318,197.7561],[118.3926,-34.3227,194.8895],[118.3998,-34.3444,177.3325],[118.3928,-34.348,193.2506],[118.3741,-34.3828,190.2036],[118.4112,-34.3904,149.0853],[118.41,-34.4083,130.177],[118.3535,-34.434,152.3064],[118.3535,-34.4485,132.336],[118.3511,-34.4602,136.0351],[118.346,-34.4626,134.7693],[118.346,-34.4684,160.1179],[118.338,-34.4684,149.2883],[118.3234,-34.4863,152.4603],[118.3242,-34.4975,150.6013],[118.3203,-34.4975,150.2815],[118.3203,-34.5299,151.1927],[118.3214,-34.5307,151.3554],[118.3135,-34.5345,151.4441],[118.262,-34.5473,173.0182],[118.2087,-34.5475,165.8084],[118.2088,-34.6638,136.2651],[118.0915,-34.6637,133.2429],[118.0915,-34.6594,141.688],[118.0812,-34.6595,140.0274],[118.0812,-34.6471,145.5213],[118.0746,-34.6471,127.5915],[118.0746,-34.6397,145.2182],[118.0497,-34.6398,104.5986],[118.0477,-34.6458,114.6078],[118.0311,-34.6459,147.1349],[118.0311,-34.6582,146.3966],[118.0268,-34.6582,144.8269],[118.0058,-34.6649,151.1066],[117.9945,-34.6805,170.0012],[117.9894,-34.6934,165.2897],[117.9626,-34.6947,211.9962],[117.9627,-34.696,211.9962],[117.9697,-34.696,217.804],[117.9697,-34.7202,154.2764],[117.9678,-34.7202,154.1149],[117.9678,-34.7375,141.0762],[117.966,-34.7375,141.4773],[117.9662,-34.7623,123.9224],[117.9574,-34.7632,116.3773],[117.9563,-34.7499,149.7188],[117.953,-34.7499,145.2393],[117.9526,-34.7465,149.3445],[117.9346,-34.7465,167.0677],[117.9346,-34.7665,112.3316],[117.909,-34.7665,120.2677],[117.909,-34.8181,80.5488],[117.8551,-34.8183,96.8974],[117.8566,-34.8294,94.9909],[117.8693,-34.8343,85.3536],[117.8699,-34.8512,91.7481],[117.8538,-34.8512,93.6231],[117.8538,-34.8476,77.2668],[117.8233,-34.8476,77.1619],[117.8233,-34.8512,76.5579],[117.8092,-34.8512,97.1317],[117.8092,-34.8454,89.7581],[117.7564,-34.8454,108.5071],[117.7564,-34.8389,116.0365],[117.744,-34.8438,117.5082],[117.7427,-34.8406,112.518],[117.7293,-34.8405,103.5815],[117.7293,-34.8426,99.9645],[117.706,-34.8435,95.0387],[117.706,-34.849,94.5731],[117.6997,-34.849,96.3349],[117.6997,-34.8401,96.387],[117.6895,-34.8401,100.4229],[117.6892,-34.8362,103.9496],[117.6791,-34.8362,99.2655],[117.6791,-34.8397,98.3359],[117.6238,-34.8402,91.1843],[117.6238,-34.8428,79.3454],[117.6183,-34.8428,88.4034],[117.6183,-34.8348,110.1709],[117.6073,-34.8348,103.1186],[117.6073,-34.8392,83.5478],[117.593,-34.8392,91.3432],[117.593,-34.8424,78.8528],[117.5851,-34.8424,42.2604],[117.5851,-34.8374,85.8278],[117.5704,-34.8374,74.9316],[117.5704,-34.8424,45.8923],[117.5678,-34.8424,44.7003],[117.5677,-34.835,56.8757],[117.5646,-34.835,48.8896],[117.5646,-34.8299,54.4927],[117.4882,-34.8306,97.9542],[117.4882,-34.8872,21.6335],[117.4851,-34.8919,19.4691],[117.4864,-34.8948,20.2829],[117.4844,-34.8951,19.9243],[117.4809,-34.8992,19.0081],[117.4815,-34.9009,18.1866],[117.4789,-34.9019,18.4776],[117.4827,-34.9047,18.5308],[117.4795,-34.9056,12.9063],[117.482,-34.9093,15.4447],[117.4758,-34.9122,18.0679],[117.4763,-34.9134,16.5079],[117.4733,-34.9175,9.5129],[117.4742,-34.9199,15.6415],[117.4763,-34.9204,11.752],[117.4748,-34.9246,14.7979],[117.4772,-34.928,15.1903],[117.4725,-34.9348,11.3886],[117.4743,-34.9346,12.4973],[117.4745,-34.9375,11.5726],[117.4762,-34.9377,12.1735],[117.4756,-34.9399,9.4321],[117.4739,-34.9389,11.0241],[117.4736,-34.9416,10.6836],[117.4755,-34.9442,12.446],[117.472,-34.9444,14.4783],[117.4724,-34.9497,8.0611],[117.4697,-34.9492,5.6656],[117.466,-34.9529,8.9954],[117.4676,-34.9597,4.4473],[117.4653,-34.9625,2.5468],[117.4633,-34.9706,1.4672],[117.469,-34.9728,1.7274],[117.4754,-34.9801,0.0],[117.4744,-34.9812,0.0],[117.479,-34.9908,0.0],[117.4798,-34.9975,2.573],[117.4757,-34.9988,0.0],[117.477,-35.0001,1.6136],[117.4735,-35.0007,0.9897],[117.4686,-35.0066,5.8991],[117.4606,-35.0036,0.0],[117.4602,-35.0051,8.0829],[117.4571,-35.0052,2.2519],[117.4583,-35.0063,11.0097],[117.4556,-35.0073,0.2811],[117.455,-35.0101,7.2869],[117.4516,-35.0101,2.9848],[117.454,-35.0139,1.4252],[117.4575,-35.0128,23.1567],[117.465,-35.0143,2.3138],[117.4647,-35.0175,0.0],[117.467,-35.0183,1.3024],[117.4663,-35.0203,3.2912],[117.4598,-35.0199,2.6624],[117.4549,-35.0168,1.7129],[117.4411,-35.022,5.6491],[117.4285,-35.0216,10.0673],[117.4144,-35.0133,4.5761],[117.3997,-35.0089,2.2207],[117.3976,-35.0068,0.0],[117.3957,-34.9981,0.0],[117.395,-34.9995,0.0],[117.3817,-34.9999,10.8039],[117.3569,-35.0052,3.3394],[117.337,-35.0158,0.6994],[117.332,-35.0217,0.3895],[117.3333,-35.0242,0.5591],[117.3427,-35.0212,13.5481],[117.3578,-35.0218,2.1862],[117.3586,-35.0202,2.9669],[117.3628,-35.0196,0.0],[117.3708,-35.0243,46.346],[117.3803,-35.0265,2.5647],[117.3936,-35.0329,60.1024],[117.3975,-35.032,74.8703],[117.3994,-35.035,13.6696],[117.4072,-35.0367,4.6941],[117.4349,-35.0508,64.1779],[117.4388,-35.0544,37.135],[117.4413,-35.0544,74.2721],[117.4791,-35.0736,4.0161],[117.4805,-35.0775,0.0],[117.4856,-35.0796,14.4367],[117.483,-35.0826,0.0],[117.4853,-35.0827,35.6792],[117.4837,-35.0866,0.0],[117.4853,-35.089,15.4999],[117.4886,-35.0882,4.8966],[117.4927,-35.09,0.0],[117.4966,-35.0887,2.1667],[117.4959,-35.0862,42.3092],[117.498,-35.085,15.379],[117.5036,-35.0845,7.7261],[117.5045,-35.083,0.0],[117.5124,-35.0831,0.0],[117.5134,-35.0823,0.0],[117.5112,-35.0789,0.0],[117.5144,-35.0746,0.0],[117.5191,-35.0751,26.8302],[117.5189,-35.0779,0.1895],[117.5251,-35.0742,46.4423],[117.5486,-35.0825,43.4616],[117.5754,-35.0953,6.2974],[117.5842,-35.1012,26.6823],[117.5842,-35.1035,0.0],[117.5871,-35.103,0.0],[117.5958,-35.1077,15.7404],[117.5997,-35.114,13.5107],[117.6056,-35.1153,0.0],[117.6085,-35.1221,5.8693],[117.607,-35.1276,0.0],[117.6093,-35.128,51.0225],[117.6112,-35.1333,0.0],[117.6139,-35.1326,25.4706],[117.6153,-35.1299,63.2627],[117.6215,-35.1314,0.0],[117.624,-35.1342,4.5796],[117.6265,-35.132,0.0],[117.6256,-35.1286,10.1077],[117.6293,-35.1278,65.1083],[117.6345,-35.1304,54.3077],[117.6376,-35.1345,30.9836],[117.6397,-35.1344,42.5235],[117.6391,-35.1302,42.1832],[117.6417,-35.1256,36.1626],[117.6396,-35.1233,8.7356],[117.6344,-35.1241,0.0],[117.6342,-35.1199,0.0],[117.6284,-35.1128,7.9504],[117.6308,-35.1073,36.5764],[117.6347,-35.1067,0.0],[117.6335,-35.104,13.5099],[117.6378,-35.0991,22.7542],[117.636,-35.0935,27.9446],[117.6372,-35.0886,17.9823],[117.6429,-35.085,6.2894],[117.6499,-35.0863,0.0],[117.6514,-35.0838,0.0],[117.6492,-35.0765,12.35],[117.6475,-35.0757,18.7584],[117.6483,-35.0732,27.1487],[117.6436,-35.0686,8.5231],[117.6446,-35.0621,1.031],[117.6514,-35.0564,0.0],[117.6656,-35.0512,17.2679],[117.6757,-35.0443,6.8056],[117.6856,-35.0433,4.6969],[117.6911,-35.0448,0.0],[117.6998,-35.0519,0.0],[117.7037,-35.05,9.8172],[117.7043,-35.0474,17.5062],[117.7081,-35.0477,0.0],[117.7094,-35.0448,18.9517],[117.7267,-35.0466,12.7532],[117.7622,-35.0545,64.3725],[117.783,-35.0619,16.7523],[117.839,-35.0874,36.4558],[117.8515,-35.0949,0.0],[117.8515,-35.0981,0.0],[117.8608,-35.1023,98.634],[117.8659,-35.1093,0.992],[117.8759,-35.1072,21.2009],[117.8855,-35.1101,4.597],[117.8857,-35.1127,1.5066],[117.89,-35.1137,16.5651],[117.8911,-35.116,3.8932],[117.8898,-35.1176,4.7924],[117.8988,-35.1234,2.2097],[117.9008,-35.1234,2.2421],[117.8994,-35.1181,38.6522],[117.9004,-35.1165,2.5611],[117.9044,-35.1147,0.0],[117.9208,-35.1163,0.0],[117.9214,-35.1201,0.0],[117.9245,-35.1218,0.0],[117.9321,-35.1204,4.6869],[117.9338,-35.1185,17.7633],[117.9379,-35.1179,48.4934],[117.9409,-35.1147,42.2544],[117.9408,-35.1192,36.4294],[117.9472,-35.1216,2.3983],[117.9439,-35.1248,1.4228],[117.9444,-35.1252,1.4228],[117.9442,-35.1264,0.1878],[117.9483,-35.1283,0.0],[117.9536,-35.1269,0.0],[117.9537,-35.1223,31.2623],[117.9595,-35.1212,6.5854],[117.9692,-35.1146,0.0],[117.9702,-35.1122,0.0],[117.9667,-35.1094,18.8261],[117.9683,-35.1069,0.0],[117.9672,-35.1041,17.9778],[117.969,-35.1012,44.5846],[117.9754,-35.1024,8.6579],[117.9762,-35.0986,3.7199],[117.9919,-35.0982,0.0],[117.9951,-35.1009,4.7489],[117.9961,-35.0982,20.8426],[118.006,-35.0988,9.136],[118.0091,-35.1009,31.9989],[118.0102,-35.1042,0.0],[118.012,-35.1033,27.9662],[118.0176,-35.1083,0.0],[118.0212,-35.1079,0.0],[118.0154,-35.1025,23.3659],[118.0177,-35.1003,4.7211],[118.0127,-35.0932,0.0],[118.0023,-35.0875,0.0],[117.9959,-35.0881,0.0],[117.9959,-35.0905,9.6319],[117.9935,-35.0919,45.0408],[117.9842,-35.0927,0.0],[117.9791,-35.0964,29.3345],[117.9724,-35.0949,24.082],[117.9689,-35.0963,31.5132],[117.9638,-35.0939,0.0],[117.9579,-35.0954,5.784],[117.9521,-35.0923,4.3889],[117.95,-35.0895,0.0],[117.9482,-35.0925,0.0],[117.9436,-35.0917,10.0101],[117.9419,-35.0887,1.0541],[117.9392,-35.0884,10.6628],[117.9347,-35.0755,0.0],[117.935,-35.0649,0.0],[117.9388,-35.0614,0.0],[117.9389,-35.0593,1.763],[117.9326,-35.0556,0.0],[117.925,-35.0568,9.1878],[117.9234,-35.0537,0.0],[117.919,-35.0511,5.1397],[117.919,-35.0444,17.6891],[117.9222,-35.0425,0.0],[117.9204,-35.0409,0.0],[117.9138,-35.0418,0.0],[117.9167,-35.0443,14.3337],[117.9169,-35.0493,3.0499],[117.9104,-35.0536,0.0],[117.9278,-35.0624,9.0156],[117.9279,-35.0729,0.0],[117.9206,-35.082,1.2271],[117.9093,-35.0844,1.454],[117.9076,-35.0829,0.0],[117.9031,-35.0836,15.1693],[117.9008,-35.0814,14.6335],[117.8879,-35.0775,0.0],[117.8844,-35.0722,0.0],[117.8808,-35.0713,4.1854],[117.8787,-35.0678,8.1987],[117.8792,-35.0653,0.0],[117.8713,-35.0643,0.0],[117.8679,-35.0572,0.0],[117.8614,-35.0587,0.1187],[117.8541,-35.0563,5.4268],[117.8544,-35.052,0.0],[117.8485,-35.0495,0.0],[117.8487,-35.04,0.718],[117.8523,-35.0311,1.4601],[117.8591,-35.0269,1.8319],[117.8646,-35.0265,0.0],[117.8781,-35.03,0.0],[117.8858,-35.0294,3.8716],[117.8862,-35.0311,0.0],[117.8872,-35.03,1.8229],[117.9045,-35.0384,7.6152],[117.9088,-35.0391,1.6412],[117.9127,-35.0358,19.57],[117.9196,-35.0358,14.6266],[117.921,-35.034,9.2082],[117.9203,-35.0316,7.0319],[117.9234,-35.0279,0.0],[117.9214,-35.0255,4.9913],[117.9179,-35.0259,3.0814],[117.9167,-35.0246,3.0814],[117.9164,-35.0216,0.0],[117.9187,-35.0166,0.9716],[117.9311,-35.005,0.0],[117.9486,-34.9983,3.7001],[117.9447,-34.9962,0.0],[117.9411,-34.9909,0.0],[117.9397,-34.9914,0.1935],[117.9408,-34.9886,0.0],[117.9394,-34.9859,1.4762],[117.9407,-34.9816,0.0],[117.9462,-34.98,7.1867],[117.9455,-34.9755,10.9804],[117.9478,-34.9639,13.1466],[117.945,-34.9548,0.0],[117.9479,-34.9482,3.1273],[117.9484,-34.9453,0.1292],[117.9474,-34.9455,0.1292],[117.9489,-34.9436,8.0243],[117.9591,-34.9479,20.5274],[117.9643,-34.9475,1.4516],[117.9669,-34.9482,1.2927],[117.967,-34.9496,0.0],[117.977,-34.952,0.0],[117.9781,-34.9439,0.1723],[117.9797,-34.9427,0.0],[117.9738,-34.9386,8.0608],[117.9781,-34.9393,0.4351]]],
[[[118.6585,-34.7037,2.3006],[118.6559,-34.7045,0.0],[118.6559,-34.7054,0.3652],[118.6577,-34.7055,4.4757],[118.6585,-34.7037,2.3006]]],
[[[118.6644,-34.7021,39.7266],[118.6649,-34.7006,35.8685],[118.6623,-34.6986,2.8301],[118.6593,-34.7027,21.4187],[118.6619,-34.7033,8.2551],[118.6644,-34.7021,39.7266]]],
[[[118.7668,-34.5915,15.2526],[118.7644,-34.5919,11.7888],[118.7647,-34.5943,10.1826],[118.7693,-34.5951,3.2725],[118.7689,-34.5932,8.8085],[118.7668,-34.5915,15.2526]]]]}
,"properties": {"GID_2": "AUS.11.1_1","GID_0": "AUS","country": "Australia","GID_1": "AUS.11_1","state": "WesternAustralia","NL_NAME_1": "NA","county": "Albany","VARNAME_2": "NA","NL_NAME_2": "NA","TYPE_2": "City","ENGTYPE_2": "City","CC_2": "50080","HASC_2": "AU.WA.AL","name": "Albany.county","area_km2": 4313.272,"hist_schema_id": "Elevation0-9000","hist_area_km2": {"0": 218.7,"25": 423.654,"50": 510.604,"75": 652.155,"100": 778.202,"125": 844.891,"150": 703.477,"175": 111.977,"200": 36.834,"225": 19.259,"250": 7.849,"275": 1.932,"300": 0.817,"325": 0.609,"350": 0.417,"375": 0.452,"400": 0.348,"425": 0.278,"450": 0.261,"475": 0.209,"500": 0.209,"525": 0.104,"550": 0.035}}}