{"type":"Feature","properties":{"GID_2":"AUS.11.74_1","GID_0":"AUS","country":"Australia","GID_1":"AUS.11_1","state":"WesternAustralia","NL_NAME_1":"NA","county":"Manjimup","VARNAME_2":"NA","NL_NAME_2":"NA","TYPE_2":"Shire","ENGTYPE_2":"Shire","CC_2":"55180","HASC_2":"AU.WA.MJ","name":"Manjimup.county"},
"geometry":{"type": "MultiPolygon","coordinates": [[[[116.7312,-35.0679,0.0],[116.729,-35.0674,0.0],[116.7284,-35.0682,0.0],[116.7295,-35.0689,0.0],[116.7312,-35.0679,0.0]]],
[[[116.0333,-34.8614,0.0],[116.0343,-34.8613,0.0],[116.0319,-34.8607,0.067],[116.032,-34.861,0.067],[116.0333,-34.8614,0.0]]],
[[[116.0993,-34.8531,0.0],[116.1,-34.853,0.0],[116.0997,-34.852,0.0],[116.0991,-34.8524,0.0],[116.0993,-34.8531,0.0]]],
[[[115.9975,-34.8487,4.3032],[115.9965,-34.8477,0.0],[115.9943,-34.8489,6.0621],[115.9957,-34.8507,1.3413],[115.9975,-34.8487,4.3032]]],
[[[116.7329,-35.0486,8.8497],[116.7303,-35.0485,0.0],[116.7299,-35.0526,4.6109],[116.7342,-35.0516,1.8094],[116.7345,-35.0546,0.0],[116.7367,-35.0542,11.7682],[116.7376,-35.0528,3.3242],[116.7348,-35.051,0.3093],[116.7351,-35.0488,0.0],[116.7329,-35.0486,8.8497]]],
[[[116.4876,-35.0319,0.1169],[116.4866,-35.0317,0.1169],[116.486,-35.0338,0.0],[116.4879,-35.0329,0.0],[116.4876,-35.0319,0.1169]]],
[[[116.4995,-35.0259,0.0],[116.4943,-35.0283,31.4814],[116.494,-35.0314,67.6772],[116.4909,-35.0327,0.0],[116.4916,-35.0346,0.0],[116.494,-35.0341,78.7048],[116.4969,-35.0368,0.0],[116.5013,-35.0349,9.7476],[116.5026,-35.0293,5.5555],[116.5039,-35.0299,0.0],[116.5051,-35.0279,0.0],[116.4995,-35.0259,0.0]]],
[[[116.0345,-34.8667,0.0],[116.0351,-34.8668,0.0],[116.0355,-34.8662,0.0],[116.0347,-34.8662,0.0],[116.0345,-34.8667,0.0]]],
[[[116.0402,-34.8651,1.6567],[116.0356,-34.8632,0.0],[116.0374,-34.8672,2.0775],[116.0431,-34.8692,0.9233],[116.0433,-34.8677,2.1717],[116.0402,-34.8651,1.6567]]],
[[[116.4935,-34.1555,234.9366],[116.4935,-34.1591,238.1807],[116.4848,-34.1591,259.0279],[116.4843,-34.1605,268.6073],[116.4191,-34.1599,264.4606],[116.4191,-34.2018,195.9358],[116.417,-34.2018,217.3553],[116.417,-34.2038,205.6215],[116.3212,-34.2041,268.7004],[116.3215,-34.1914,243.8702],[116.3139,-34.1916,248.2594],[116.3139,-34.177,295.3397],[116.2614,-34.1768,276.3747],[116.2574,-34.1747,281.4055],[116.253,-34.1747,280.1167],[116.253,-34.1638,276.614],[116.2688,-34.1638,312.4098],[116.2688,-34.1493,291.8549],[116.2552,-34.1493,267.1358],[116.2552,-34.1458,277.7896],[116.2504,-34.1458,258.9236],[116.2504,-34.1362,272.4738],[116.2463,-34.1362,263.8604],[116.2463,-34.1316,261.752],[116.2261,-34.1315,265.3844],[116.2261,-34.1288,278.9471],[116.2089,-34.1288,270.0995],[116.208,-34.1312,258.6954],[116.1969,-34.1302,261.4251],[116.1969,-34.1354,263.9922],[116.1872,-34.1356,274.2391],[116.1871,-34.131,265.848],[116.1837,-34.1311,256.868],[116.1837,-34.1341,264.1142],[116.1455,-34.1335,248.2335],[116.1455,-34.1354,254.0935],[116.0418,-34.1353,268.6206],[116.0418,-34.1322,274.7266],[116.0241,-34.1322,267.5286],[116.0241,-34.1358,271.4675],[116.0064,-34.1358,260.416],[116.0064,-34.134,251.7037],[116.0033,-34.134,243.4255],[115.9898,-34.138,220.6588],[115.9811,-34.1306,266.7982],[115.9767,-34.1341,216.7109],[115.9707,-34.129,248.9949],[115.9633,-34.1304,239.2831],[115.9591,-34.1338,229.3856],[115.9511,-34.1269,234.9492],[115.9453,-34.1308,212.1735],[115.943,-34.1308,211.6043],[115.9418,-34.1291,219.0907],[115.9422,-34.1315,230.7139],[115.9409,-34.1321,230.7139],[115.9443,-34.1351,240.0893],[115.9443,-34.162,220.8645],[115.9166,-34.1616,225.8355],[115.9166,-34.1664,240.4029],[115.909,-34.1664,236.7772],[115.9059,-34.1902,222.2038],[115.8974,-34.1901,221.0775],[115.8974,-34.1958,218.369],[115.8904,-34.205,234.59],[115.8903,-34.2132,224.2844],[115.8781,-34.2132,227.9352],[115.8781,-34.2222,230.9258],[115.8762,-34.2222,233.4768],[115.8761,-34.2969,104.1243],[115.8727,-34.2997,126.8754],[115.87,-34.2995,139.6503],[115.8701,-34.3026,99.2801],[115.8671,-34.3045,90.0588],[115.8584,-34.3023,89.2851],[115.856,-34.3035,96.4924],[115.8517,-34.2988,97.9179],[115.8505,-34.3,87.0856],[115.8425,-34.2989,84.3424],[115.8441,-34.3013,102.1118],[115.8418,-34.303,87.6584],[115.8383,-34.3025,77.488],[115.8378,-34.3063,103.9069],[115.8353,-34.3095,118.357],[115.8345,-34.3144,86.3475],[115.8362,-34.3146,78.22],[115.834,-34.3166,81.701],[115.8371,-34.3193,81.092],[115.8307,-34.3216,85.6375],[115.8309,-34.3247,80.2309],[115.8286,-34.3247,75.685],[115.8283,-34.3284,68.4831],[115.824,-34.3276,81.3199],[115.8246,-34.3298,76.8701],[115.8203,-34.3312,66.6391],[115.8221,-34.3363,83.0611],[115.8188,-34.337,69.1131],[115.8111,-34.3336,86.8802],[115.8058,-34.335,75.0725],[115.804,-34.3297,58.0605],[115.8012,-34.3308,56.8867],[115.7983,-34.3295,58.7951],[115.7983,-34.3338,155.3051],[115.7939,-34.3338,163.6152],[115.7941,-34.3426,164.524],[115.7871,-34.3427,119.284],[115.7871,-34.3471,84.6083],[115.7927,-34.347,139.1848],[115.7927,-34.3528,143.6727],[115.781,-34.3534,81.7434],[115.7813,-34.3581,79.0166],[115.7857,-34.363,102.8616],[115.7863,-34.3691,121.2252],[115.7896,-34.3749,122.0867],[115.7995,-34.3808,131.9344],[115.8017,-34.3842,149.1243],[115.8016,-34.3879,134.6425],[115.8087,-34.3987,103.7145],[115.8205,-34.4058,79.0273],[115.8263,-34.4053,82.9023],[115.8302,-34.4074,59.0426],[115.8252,-34.415,43.6748],[115.8122,-34.4144,36.4792],[115.8056,-34.4212,41.8453],[115.8044,-34.4258,38.8867],[115.792,-34.4405,25.0132],[115.7822,-34.4452,17.8519],[115.7751,-34.4424,5.1708],[115.774,-34.4445,6.3796],[115.7763,-34.4493,11.1156],[115.7743,-34.4541,6.4563],[115.7675,-34.4567,4.2851],[115.7661,-34.4588,4.9868],[115.7585,-34.4601,9.1657],[115.7553,-34.4588,3.7134],[115.7529,-34.4597,11.1423],[115.7497,-34.4579,5.6918],[115.7468,-34.4584,4.6372],[115.7449,-34.4607,4.9095],[115.725,-34.4623,7.0462],[115.7215,-34.4657,4.1762],[115.7062,-34.4705,2.9707],[115.6942,-34.4801,4.0003],[115.6896,-34.4802,6.8721],[115.6853,-34.4829,1.106],[115.6782,-34.481,2.011],[115.6745,-34.4854,0.0],[115.7012,-34.5081,0.0],[115.743,-34.5387,5.5961],[115.8186,-34.6022,0.0],[115.95,-34.7236,1.675],[115.9538,-34.7279,2.7866],[115.9554,-34.7354,3.6079],[115.9576,-34.7363,12.9636],[115.9583,-34.7394,5.9682],[115.9624,-34.7439,10.6748],[115.9632,-34.7477,9.9559],[115.9612,-34.751,7.805],[115.9638,-34.7542,5.7715],[115.9618,-34.7622,7.4414],[115.9682,-34.767,2.1699],[115.9864,-34.787,27.0403],[115.9873,-34.7909,6.6207],[115.991,-34.7939,7.4301],[116.0027,-34.8124,26.6623],[116.0046,-34.8178,7.0871],[116.0023,-34.8208,63.9351],[116.0029,-34.8255,72.8642],[115.9967,-34.8309,12.594],[116.002,-34.8357,0.0],[116.0021,-34.8422,0.0],[116.0125,-34.8401,0.0],[116.0149,-34.8377,8.7393],[116.023,-34.8403,1.0952],[116.0297,-34.8368,1.7243],[116.0379,-34.8407,5.4627],[116.0673,-34.842,4.4707],[116.0821,-34.8466,0.0],[116.0903,-34.8465,0.0],[116.0969,-34.8484,0.9298],[116.1081,-34.8454,3.8502],[116.137,-34.8447,0.0],[116.1664,-34.8514,0.0],[116.1958,-34.8631,0.0],[116.2276,-34.8688,1.6046],[116.2507,-34.8761,7.2734],[116.2821,-34.8901,7.2017],[116.2893,-34.8954,0.0],[116.2895,-34.8997,0.0],[116.294,-34.8984,0.0],[116.3003,-34.9023,1.5539],[116.3043,-34.9013,0.0],[116.3097,-34.9076,17.0422],[116.3118,-34.9071,30.9393],[116.3167,-34.9104,0.0],[116.3206,-34.9102,11.319],[116.3315,-34.9152,18.6732],[116.3468,-34.9267,1.4029],[116.3486,-34.9262,35.9879],[116.3498,-34.928,0.0],[116.3543,-34.9265,3.8915],[116.367,-34.934,0.0],[116.3703,-34.9344,5.2627],[116.376,-34.9378,0.0],[116.3776,-34.9406,0.0],[116.3766,-34.9423,0.0],[116.3789,-34.9449,8.7398],[116.3842,-34.9467,10.4958],[116.3831,-34.9486,8.432],[116.3855,-34.9493,20.757],[116.3876,-34.9478,46.5002],[116.3932,-34.95,35.1345],[116.3933,-34.9515,0.0],[116.401,-34.9543,4.5659],[116.4363,-34.974,6.5107],[116.4392,-34.9794,8.6742],[116.4447,-34.9792,49.0736],[116.4786,-35.004,8.0808],[116.4837,-35.0107,70.2143],[116.4809,-35.014,0.0],[116.4817,-35.0162,12.909],[116.4848,-35.0163,0.0],[116.4877,-35.0123,16.5924],[116.4893,-35.017,0.0],[116.4984,-35.0154,3.5241],[116.5011,-35.0136,3.2236],[116.5016,-35.0118,17.5441],[116.5001,-35.011,83.5612],[116.5015,-35.0087,54.3936],[116.5078,-35.0055,9.0573],[116.5152,-35.007,0.3724],[116.5182,-35.0039,5.6094],[116.5179,-35.0022,10.4855],[116.5225,-35.0025,0.0],[116.5233,-35.005,0.0],[116.5328,-35.0044,16.1741],[116.5411,-35.0073,1.9907],[116.5483,-35.0121,7.9632],[116.5665,-35.0184,12.1738],[116.5693,-35.0205,0.0],[116.5694,-35.0223,0.2046],[116.5708,-35.0217,12.8647],[116.5708,-35.0251,1.5679],[116.5749,-35.0244,22.6306],[116.5756,-35.028,24.1736],[116.5708,-35.0315,0.0],[116.573,-35.0319,3.8109],[116.5723,-35.033,0.0],[116.578,-35.0281,27.9234],[116.582,-35.0306,6.3792],[116.5858,-35.0286,17.8373],[116.5913,-35.0337,1.1767],[116.5958,-35.0322,30.6211],[116.601,-35.0334,0.0],[116.6057,-35.0312,41.3294],[116.6103,-35.0333,0.0],[116.6299,-35.0463,38.2803],[116.6253,-35.0529,7.0063],[116.6274,-35.0563,17.4005],[116.6268,-35.0585,7.4185],[116.6297,-35.0607,4.8035],[116.6331,-35.0599,12.8739],[116.6355,-35.0544,65.9783],[116.6426,-35.0536,0.0],[116.6459,-35.0495,18.7628],[116.6455,-35.0472,21.9937],[116.6516,-35.051,13.8786],[116.6581,-35.0514,0.0],[116.6572,-35.0476,21.5107],[116.6671,-35.0481,0.0],[116.6682,-35.0447,55.6345],[116.6713,-35.0453,5.7221],[116.6752,-35.0437,16.0089],[116.6764,-35.0448,0.0],[116.6791,-35.0419,1.6344],[116.679,-35.0396,9.9515999999999991],[116.6812,-35.0382,12.3947],[116.6837,-35.039,3.4365],[116.6838,-35.037,20.3919],[116.6861,-35.0369,0.0],[116.6882,-35.0342,62.0154],[116.7008,-35.0345,20.8714],[116.7072,-35.029,5.3852],[116.7187,-35.0326,6.0254],[116.7216,-35.0357,24.823],[116.7198,-35.0391,0.0],[116.7265,-35.0414,0.0],[116.7328,-35.0401,0.0],[116.7402,-35.0355,2.4574],[116.7426,-35.0352,0.0],[116.7434,-35.0372,3.1652],[116.7454,-35.0374,6.2482],[116.7467,-35.036,4.4207],[116.7444,-35.0343,17.6322],[116.7451,-35.0318,1.8082],[116.7422,-35.0302,3.0247],[116.7349,-35.0296,0.0],[116.7367,-35.0259,0.0],[116.7358,-35.0198,0.0],[116.743,-35.0096,10.6636],[116.7542,-35.0014,0.6643],[116.7643,-35.0009,0.0],[116.7709,-35.0024,2.0949],[116.7785,-35.0007,4.0197],[116.7877,-35.0042,0.5],[116.8051,-35.0025,1.951],[116.8108,-35.0001,0.5],[116.8126,-34.9916,1.6826],[116.8217,-34.9891,13.353],[116.8189,-34.9869,4.3118],[116.8222,-34.986,23.5744],[116.8166,-34.9852,40.0348],[116.8159,-34.9831,19.4507],[116.8227,-34.9806,4.3461],[116.8117,-34.9731,23.1927],[116.8061,-34.9732,46.836],[116.8018,-34.97,26.7254],[116.8055,-34.9668,38.0733],[116.8096,-34.9668,45.7169],[116.8113,-34.9632,31.3999],[116.8141,-34.9655,38.0247],[116.8199,-34.9613,48.8418],[116.8254,-34.9607,59.6679],[116.8233,-34.9583,33.7157],[116.8253,-34.9559,76.9249],[116.8226,-34.9549,51.6676],[116.8269,-34.953,40.1127],[116.8239,-34.9517,44.9896],[116.8216,-34.9475,37.3583],[116.8194,-34.9471,34.4119],[116.8128,-34.9478,70.8548],[116.8122,-34.9498,51.6355],[116.8077,-34.9512,49.5463],[116.801,-34.9471,51.3769],[116.8019,-34.9439,38.8118],[116.7928,-34.9391,39.1787],[116.7953,-34.937,46.9499],[116.7876,-34.9358,38.4618],[116.7827,-34.9298,51.3123],[116.7801,-34.9298,47.0293],[116.7852,-34.925,61.8848],[116.7852,-34.9202,44.0177],[116.7883,-34.9226,46.0763],[116.7892,-34.9204,48.0786],[116.7923,-34.92,46.9097],[116.7897,-34.918,59.3894],[116.7884,-34.9141,43.4795],[116.7895,-34.912,49.3122],[116.7881,-34.9103,47.029],[116.7902,-34.9079,54.8543],[116.7824,-34.9044,64.155],[116.7822,-34.8999,95.6768],[116.774,-34.902,47.3059],[116.7717,-34.8985,77.5345],[116.7697,-34.9018,57.9249],[116.7642,-34.9032,77.659],[116.7585,-34.9009,57.8517],[116.7572,-34.8983,59.6315],[116.753,-34.8983,70.8335],[116.7454,-34.9003,78.3663],[116.7449,-34.9034,61.544],[116.7408,-34.9038,60.2196],[116.7348,-34.8973,87.4422],[116.7315,-34.896,67.1562],[116.7295,-34.8914,71.4058],[116.7249,-34.8906,57.8779],[116.7266,-34.8883,78.0454],[116.7259,-34.8856,66.9437],[116.7294,-34.8851,84.1006],[116.7305,-34.8834,63.4222],[116.7298,-34.8817,68.4721],[116.7279,-34.8821,63.5198],[116.729,-34.8782,54.942],[116.7318,-34.879,54.8501],[116.7389,-34.8769,59.2069],[116.7351,-34.8719,57.8748],[116.7427,-34.8725,59.7797],[116.7465,-34.8788,59.6502],[116.7538,-34.8718,60.8843],[116.7597,-34.8733,71.4705],[116.757,-34.8689,71.3571],[116.7574,-34.8604,79.3728],[116.7591,-34.8582,78.9165],[116.7624,-34.8576,72.3608],[116.7626,-34.8558,84.3518],[116.7656,-34.856,78.5072],[116.7666,-34.853,78.9492],[116.7722,-34.8536,68.3621],[116.7718,-34.8511,77.3266],[116.7751,-34.8471,89.3391],[116.773,-34.8431,119.5677],[116.7755,-34.841,83.1684],[116.7751,-34.8378,98.5642],[116.7894,-34.8417,73.6234],[116.7997,-34.8363,87.8575],[116.8004,-34.835,97.0213],[116.7979,-34.8318,104.3845],[116.8007,-34.8284,114.2383],[116.8106,-34.8251,88.8064],[116.8078,-34.8241,99.0463],[116.8063,-34.8193,100.3202],[116.811,-34.8193,87.0321],[116.8115,-34.8149,94.5118],[116.8087,-34.8148,88.2804],[116.8106,-34.8107,88.8931],[116.8047,-34.8101,96.234],[116.8067,-34.8083,94.1786],[116.8033,-34.8057,87.2848],[116.8045,-34.8026,96.0061],[116.7996,-34.7979,97.3917],[116.7972,-34.798,91.6826],[116.8051,-34.7918,98.2816],[116.8076,-34.792,102.1614],[116.8083,-34.7901,94.4662],[116.8071,-34.7896,94.4662],[116.8099,-34.7885,92.0552],[116.8125,-34.7834,103.9636],[116.8154,-34.7865,96.9602],[116.8172,-34.7855,95.2996],[116.8179,-34.7777,118.2393],[116.8141,-34.7695,121.1293],[116.823,-34.7719,106.2468],[116.8263,-34.7688,109.4666],[116.8347,-34.766,106.3794],[116.8349,-34.764,127.5535],[116.8381,-34.7625,119.7733],[116.8355,-34.7575,148.0054],[116.8413,-34.7551,115.3341],[116.8438,-34.7515,125.0781],[116.8413,-34.7494,126.2229],[116.8443,-34.7467,139.536],[116.8422,-34.742,116.2826],[116.8433,-34.7404,117.8357],[116.841,-34.739,125.3513],[116.8431,-34.7356,123.3951],[116.8388,-34.7366,126.5047],[116.8382,-34.7318,133.4792],[116.8348,-34.7273,138.5143],[116.8365,-34.7207,133.2102],[116.8438,-34.7233,133.3819],[116.8391,-34.7154,126.0322],[116.8398,-34.7107,122.4212],[116.8412,-34.7099,122.4212],[116.8392,-34.7082,129.8719],[116.8394,-34.7041,125.937],[116.8371,-34.6993,128.7242],[116.8407,-34.6998,136.2296],[116.8399,-34.6963,126.3144],[116.8416,-34.6958,125.3927],[116.8416,-34.6929,140.8694],[116.8469,-34.6932,136.1342],[116.849,-34.6908,137.7615],[116.8528,-34.6903,146.5666],[116.8515,-34.6859,146.1888],[116.8542,-34.6848,129.0924],[116.8536,-34.6828,129.9544],[116.8568,-34.6825,130.0149],[116.852,-34.6797,136.7738],[116.851,-34.6756,129.7128],[116.8479,-34.6754,131.008],[116.8451,-34.6703,130.3451],[116.8397,-34.668,130.4424],[116.8349,-34.6728,130.8783],[116.8288,-34.6722,128.8478],[116.8269,-34.6705,130.9131],[116.8205,-34.6733,130.5867],[116.8096,-34.6709,132.2094],[116.8077,-34.6687,133.0281],[116.7994,-34.6682,134.6101],[116.7975,-34.6661,134.956],[116.7926,-34.6682,137.6362],[116.791,-34.66,160.8055],[116.7864,-34.6585,139.7485],[116.7848,-34.6533,140.1104],[116.7885,-34.6527,141.0617],[116.7872,-34.65,146.176],[116.7919,-34.6468,146.3253],[116.7941,-34.6379,158.4791],[116.8028,-34.6417,150.7883],[116.8079,-34.6395,140.4724],[116.8048,-34.6344,158.0002],[116.7998,-34.636,142.7529],[116.7973,-34.6341,141.4419],[116.7977,-34.6318,141.7717],[116.8036,-34.626,151.1408],[116.8099,-34.6229,145.9795],[116.8136,-34.6255,144.3734],[116.8157,-34.6236,146.5187],[116.8136,-34.62,145.7693],[116.8105,-34.619,143.7718],[116.8105,-34.6167,145.5453],[116.8085,-34.6154,145.6368],[116.8072,-34.617,146.1661],[116.8061,-34.6164,157.2154],[116.8053,-34.6111,151.9044],[116.7998,-34.6079,150.6599],[116.8011,-34.6041,161.9593],[116.7956,-34.601,143.306],[116.7949,-34.5993,142.434],[116.7973,-34.5981,146.9621],[116.7934,-34.5958,143.7363],[116.7966,-34.5944,146.3173],[116.7955,-34.5913,144.9159],[116.7971,-34.5902,144.0966],[116.8002,-34.5935,149.3536],[116.8058,-34.5887,144.7072],[116.8089,-34.5888,152.3328],[116.8084,-34.5867,147.7976],[116.8061,-34.5864,148.3823],[116.807,-34.5844,147.0346],[116.8097,-34.5839,151.6862],[116.8086,-34.581,145.1486],[116.8101,-34.5762,150.0059],[116.8074,-34.5717,149.9346],[116.8008,-34.568,154.8282],[116.7955,-34.5623,168.0574],[116.7868,-34.5581,182.2661],[116.7857,-34.5522,202.1791],[116.7857,-34.5221,195.6037],[116.7973,-34.5223,197.5262],[116.7978,-34.4856,184.5521],[116.8045,-34.4856,186.7085],[116.8043,-34.4764,183.0235],[116.7987,-34.4764,184.4648],[116.7987,-34.4687,198.7166],[116.7779,-34.4575,187.9739],[116.7602,-34.4443,196.4115],[116.7462,-34.4404,185.791],[116.7264,-34.4393,178.8536],[116.7263,-34.4367,180.1964],[116.7125,-34.4319,181.7615],[116.6988,-34.4244,181.334],[116.6737,-34.4187,176.7381],[116.6692,-34.419,176.8078],[116.669,-34.3943,183.2205],[116.6778,-34.3944,183.3993],[116.6777,-34.3734,188.5063],[116.6976,-34.3698,199.3075],[116.6991,-34.3087,217.2268],[116.7099,-34.3076,205.816],[116.7077,-34.3033,216.3474],[116.7078,-34.2785,201.5452],[116.6918,-34.2796,213.7644],[116.6914,-34.2686,198.8053],[116.6876,-34.2686,197.3373],[116.6887,-34.2645,197.0513],[116.6919,-34.2645,200.0931],[116.6933,-34.2614,198.7853],[116.6927,-34.2547,220.0189],[116.6828,-34.2576,202.4677],[116.6674,-34.2576,235.488],[116.6674,-34.2247,268.479],[116.6571,-34.2198,277.5742],[116.6524,-34.2194,281.3225],[116.6255,-34.2216,276.6759],[116.6179,-34.2256,273.6151],[116.6113,-34.226,264.4641],[116.5138,-34.2259,224.9752],[116.5128,-34.2197,243.1985],[116.5049,-34.2101,245.4461],[116.5348,-34.1844,219.9439],[116.5233,-34.1848,223.1235],[116.5232,-34.1745,226.4298],[116.5297,-34.1746,248.9285],[116.5298,-34.1716,235.0952],[116.5233,-34.1715,215.3732],[116.5233,-34.1557,232.862],[116.4935,-34.1555,234.9366]],
[[116.7439,-35.0316,12.0443],[116.7439,-35.0314,12.0443],[116.7441,-35.0315,12.0443],[116.7439,-35.0316,12.0443]]]]}}