{"type":"Feature","properties":{"GID_2":"AUS.10.8_1","GID_0":"AUS","country":"Australia","GID_1":"AUS.10_1","state":"Victoria","NL_NAME_1":"NA","county":"Benalla","VARNAME_2":"NA","NL_NAME_2":"NA","TYPE_2":"RuralCity","ENGTYPE_2":"RuralCity","CC_2":"21010","HASC_2":"NA","name":"Benalla.county"},
"geometry":{"type": "MultiPolygon","coordinates": [[[[145.7754,-36.4438,146.532],[145.7761,-36.446,145.6339],[145.7783,-36.4464,145.789],[145.776,-36.4475,146.5164],[145.7776,-36.4485,144.7757],[145.7802,-36.4467,145.2262],[145.782,-36.4483,146.5138],[145.7868,-36.4467,148.4891],[145.7902,-36.4473,146.135],[145.7925,-36.4488,145.9072],[145.7937,-36.453,146.7726],[145.7965,-36.4528,146.1475],[145.7937,-36.4555,146.9749],[145.797,-36.4557,147.6196],[145.7992,-36.4589,148.1573],[145.8015,-36.4565,149.3053],[145.8027,-36.4579,149.9314],[145.8047,-36.4562,148.0822],[145.806,-36.4579,148.9366],[145.8084,-36.4552,147.7429],[145.816,-36.4573,151.7216],[145.8182,-36.4555,149.3742],[145.822,-36.4559,151.0998],[145.8233,-36.454,151.4354],[145.8233,-36.5447,176.7727],[145.8194,-36.5634,176.6899],[145.8554,-36.5683,183.8378],[145.8437,-36.6235,198.5956],[145.8508,-36.6244,197.4389],[145.8452,-36.6513,227.0093],[145.8392,-36.6505,270.9356],[145.8367,-36.6542,291.2164],[145.839,-36.6679,370.8062],[145.8364,-36.6724,417.3408],[145.8243,-36.6814,467.5495],[145.8274,-36.6901,475.0358],[145.8231,-36.6971,535.8129],[145.825,-36.7078,592.3427],[145.8231,-36.7112,565.9255],[145.8189,-36.7127,587.4787],[145.8194,-36.7177,537.9291],[145.813,-36.7301,517.0475],[145.8123,-36.7355,556.1253],[145.8146,-36.7457,592.5228],[145.8199,-36.749,586.2336],[145.8232,-36.754,598.6071],[145.8217,-36.762,596.0081],[145.8248,-36.7721,579.5099],[145.8222,-36.775,571.8088],[145.83,-36.7764,537.2112],[145.83,-36.7863,576.071],[145.8364,-36.7863,571.7157],[145.844,-36.7963,582.5596],[145.8463,-36.7948,605.493],[145.8495,-36.7977,593.299],[145.8534,-36.795,601.9717],[145.8615,-36.8026,595.7809],[145.8654,-36.8,587.4488],[145.8724,-36.7999,546.6458],[145.865,-36.8063,612.6695],[145.8649,-36.8124,659.951],[145.874,-36.8124,543.2083],[145.874,-36.82,604.3845],[145.8636,-36.8201,629.8899],[145.8616,-36.8268,647.2339],[145.8667,-36.8306,687.4816],[145.8649,-36.8351,724.1824],[145.8654,-36.8472,744.8007],[145.8628,-36.8534,768.1465],[145.8636,-36.8635,735.3819],[145.8607,-36.8786,670.7288],[145.8622,-36.8821,689.3947],[145.8682,-36.8799,698.8743],[145.8741,-36.883,729.8199],[145.8789,-36.88,772.9424],[145.8843,-36.8853,793.1433],[145.8924,-36.8883,823.2614],[145.898,-36.8974,835.5437],[145.9002,-36.8972,844.9222],[145.9032,-36.8997,854.5217],[145.9067,-36.9058,899.5734],[145.9066,-36.9089,916.5367],[145.9181,-36.9145,966.0952],[145.9173,-36.9164,983.78],[145.9189,-36.9194,983.3477],[145.917,-36.9255,978.2661],[145.9248,-36.9258,1035.6558],[145.9266,-36.9237,999.3245],[145.9273,-36.907,758.7675],[145.9292,-36.9045,743.1779],[145.9322,-36.9057,707.5673],[145.9382,-36.9023,692.8755],[145.9427,-36.9042,602.895],[145.9538,-36.9048,554.4074],[145.9559,-36.8992,563.9643],[145.9604,-36.8966,453.5995],[145.9602,-36.8828,376.3617],[145.9651,-36.8753,329.799],[145.9671,-36.8742,340.4821],[145.972,-36.876,314.5919],[145.9784,-36.8733,306.955],[145.9931,-36.8624,288.2676],[145.9941,-36.8645,268.3608],[145.9998,-36.8634,263.5],[146.003,-36.8602,263.5],[146.0016,-36.859,276.977],[146.0046,-36.8583,263.5],[146.005,-36.8563,263.5],[146.0064,-36.8567,263.5],[146.0103,-36.8532,250.66],[146.0148,-36.8543,252.7274],[146.0195,-36.8585,262.8167],[146.022,-36.8628,267.9471],[146.0217,-36.868,283.331],[146.0256,-36.8722,296.4331],[146.0283,-36.8724,294.2319],[146.0313,-36.8817,301.2555],[146.0355,-36.8871,308.1273],[146.0415,-36.9003,330.9938],[146.0508,-36.904,350.2618],[146.0529,-36.9065,359.4119],[146.0596,-36.9078,397.318],[146.0683,-36.8621,771.3463],[146.1092,-36.8666,707.549],[146.1089,-36.8688,784.5209],[146.1115,-36.8691,667.1342],[146.1162,-36.8762,764.2588],[146.1243,-36.8797,634.3734],[146.1249,-36.8846,593.7856],[146.129,-36.8814,614.2859],[146.1357,-36.8793,685.3249],[146.138,-36.8813,666.5503],[146.1392,-36.8756,660.9832],[146.1367,-36.8723,627.4326],[146.1506,-36.8741,514.3054],[146.1495,-36.8757,557.6112],[146.1567,-36.8785,552.2949],[146.1546,-36.8844,570.1899],[146.1508,-36.8839,581.1896],[146.1529,-36.8879,595.9452],[146.1552,-36.887,601.2386],[146.162,-36.8886,631.3691],[146.1638,-36.8861,659.8813],[146.1716,-36.8921,654.7885],[146.1759,-36.8911,673.4469],[146.1801,-36.8937,673.263],[146.1849,-36.8926,704.9323],[146.1871,-36.8956,697.7067],[146.1862,-36.8986,700.4592],[146.1934,-36.8991,699.7766],[146.2025,-36.9043,713.7483],[146.2055,-36.9036,707.4186],[146.2113,-36.9091,719.7426],[146.2151,-36.9095,733.4316],[146.2196,-36.9136,714.1831],[146.227,-36.9161,736.1892],[146.2422,-36.9162,796.4396],[146.2535,-36.9127,814.1856],[146.265,-36.9159,815.3683],[146.2675,-36.9187,808.4118],[146.2714,-36.9189,816.3585],[146.2804,-36.9251,835.265],[146.2808,-36.9231,834.9052],[146.2756,-36.9185,849.9154],[146.2727,-36.9103,912.4161],[146.2686,-36.9121,939.903],[146.2611,-36.9068,950.7881],[146.2553,-36.9059,1004.2551],[146.259,-36.8873,941.5667],[146.2533,-36.8832,911.2272],[146.2539,-36.8798,921.7448],[146.2434,-36.8722,816.7456],[146.2435,-36.8604,764.4235],[146.2465,-36.8483,744.5466],[146.2503,-36.8452,729.6659],[146.2512,-36.84,724.8717],[146.2473,-36.816,712.585],[146.2484,-36.8011,650.6611],[146.2449,-36.786,600.7876],[146.2397,-36.7772,543.2586],[146.2445,-36.7658,500.477],[146.2434,-36.7583,468.4696],[146.2509,-36.755,438.6897],[146.2501,-36.7483,417.3722],[146.2549,-36.7428,397.7584],[146.25,-36.7374,388.6266],[146.2496,-36.7264,385.1248],[146.2448,-36.7198,345.808],[146.233,-36.7184,423.8285],[146.2312,-36.7166,424.4793],[146.2308,-36.7092,380.0483],[146.2353,-36.7033,306.795],[146.2356,-36.6976,284.9662],[146.2142,-36.648,318.1601],[146.2181,-36.63,256.0139],[146.2226,-36.6266,228.6815],[146.2194,-36.6259,242.0845],[146.2255,-36.5996,210.5323],[146.2111,-36.5977,279.3008],[146.2129,-36.5895,243.8238],[146.1949,-36.5876,281.4062],[146.195,-36.5636,299.7649],[146.1999,-36.5621,274.3928],[146.1999,-36.542,288.5821],[146.1952,-36.542,250.0153],[146.1953,-36.523,252.3963],[146.2022,-36.5199,297.8351],[146.2022,-36.5091,271.8184],[146.2088,-36.509,241.9892],[146.2097,-36.5027,229.2594],[146.2023,-36.4991,242.3624],[146.1993,-36.4941,222.3626],[146.1847,-36.4861,186.7471],[146.1759,-36.4728,180.2756],[146.1982,-36.4659,201.8042],[146.1951,-36.4616,187.1261],[146.2247,-36.449,328.7326],[146.2179,-36.4387,471.4341],[146.2197,-36.4379,459.6342],[146.2042,-36.4107,318.5726],[146.2103,-36.4093,354.3022],[146.2195,-36.3572,341.2062],[146.213,-36.3594,364.7184],[146.2077,-36.3645,399.1625],[146.2052,-36.3645,399.5852],[146.204,-36.3622,414.0735],[146.2052,-36.3586,400.3051],[146.2046,-36.346,476.6353],[146.197,-36.3341,419.9723],[146.1938,-36.3374,413.4125],[146.1811,-36.3376,353.5736],[146.181,-36.2975,349.9094],[146.1703,-36.2955,325.1091],[146.1639,-36.2989,327.313],[146.1471,-36.2992,222.9596],[146.1315,-36.2832,176.2946],[146.1314,-36.2551,185.9301],[146.0369,-36.2551,223.4627],[146.0312,-36.2654,210.1689],[146.0309,-36.299,142.1736],[145.7984,-36.299,136.3853],[145.7985,-36.3308,140.6221],[145.7754,-36.4438,146.532]]]]}}