{"type":"Feature","properties":{"GID_2":"AUS.11.13_1","GID_0":"AUS","country":"Australia","GID_1":"AUS.11_1","state":"WesternAustralia","NL_NAME_1":"NA","county":"Broome","VARNAME_2":"NA","NL_NAME_2":"NA","TYPE_2":"Shire","ENGTYPE_2":"Shire","CC_2":"50980","HASC_2":"AU.WA.BM","name":"Broome.county"},
"geometry":{"type": "MultiPolygon","coordinates": [[[[121.6474,-18.8116,0.0],[121.6458,-18.8126,0.0],[121.6449,-18.8152,3.5373],[121.6464,-18.8147,3.5373],[121.6474,-18.8116,0.0]]],
[[[121.6497,-18.8114,0.0],[121.6495,-18.8108,0.0],[121.6486,-18.8114,0.0],[121.6491,-18.8117,0.0],[121.6497,-18.8114,0.0]]],
[[[121.6957,-18.7001,0.0],[121.695,-18.6999,0.0],[121.6938,-18.701,0.0],[121.6949,-18.7011,0.0],[121.6957,-18.7001,0.0]]],
[[[121.7341,-18.6951,0.0],[121.7333,-18.6945,0.0],[121.732,-18.6958,0.0],[121.7331,-18.696,0.0],[121.7341,-18.6951,0.0]]],
[[[121.7744,-18.6657,1.2978],[121.7731,-18.6653,0.0],[121.7726,-18.6662,0.0],[121.7731,-18.6666,0.0],[121.7744,-18.6657,1.2978]]],
[[[121.7895,-18.6547,4.2034],[121.7882,-18.659,3.6558],[121.7886,-18.6594,3.8493],[121.7902,-18.6566,4.0132],[121.7895,-18.6547,4.2034]]],
[[[121.7319,-18.5799,0.0],[121.7321,-18.5809,0.0],[121.7348,-18.5811,0.0],[121.7326,-18.5799,0.0],[121.7319,-18.5799,0.0]]],
[[[121.799,-18.5149,0.0],[121.7975,-18.5147,0.9834],[121.797,-18.5152,0.9834],[121.7984,-18.5157,0.9834],[121.799,-18.5149,0.0]]],
[[[122.1712,-18.2666,0.0],[122.1701,-18.2661,0.0],[122.1698,-18.2664,0.0],[122.1703,-18.2672,0.0],[122.1712,-18.2666,0.0]]],
[[[122.1738,-18.2498,0.0],[122.171,-18.2557,0.0],[122.1707,-18.2653,0.0],[122.1723,-18.255,0.0],[122.1787,-18.2475,1.3448],[122.1759,-18.2475,0.0],[122.1738,-18.2498,0.0]]],
[[[122.1992,-18.2465,0.5],[122.1995,-18.2457,2.8857],[122.1988,-18.2456,2.8857],[122.1986,-18.2465,0.5],[122.1992,-18.2465,0.5]]],
[[[122.2031,-18.2418,3.8274],[122.202,-18.2429,1.866],[122.2021,-18.2445,1.2402],[122.2035,-18.2428,3.8274],[122.2031,-18.2418,3.8274]]],
[[[121.805,-18.5094,0.0],[121.807,-18.5086,2.0359],[121.8077,-18.5075,1.2067],[121.806,-18.507,1.2632],[121.805,-18.5094,0.0]]],
[[[121.8119,-18.4979,1.1759],[121.8107,-18.4976,0.0],[121.81,-18.4981,0.0],[121.8105,-18.4986,0.0],[121.8119,-18.4979,1.1759]]],
[[[121.8155,-18.4919,1.2068],[121.8148,-18.4916,0.0],[121.8145,-18.4924,0.0],[121.8151,-18.4927,0.0],[121.8155,-18.4919,1.2068]]],
[[[123.2497,-17.2337,55.066],[123.3793,-17.2341,0.0],[123.3692,-17.2211,7.6639],[123.3618,-17.2069,10.1683],[123.3546,-17.1814,1.7439],[123.3446,-17.1627,0.0],[123.3336,-17.15,8.8089],[123.3286,-17.1497,8.0569],[123.3289,-17.1461,1.0608],[123.3157,-17.1314,0.0],[123.3135,-17.1299,4.9775],[123.3083,-17.1318,5.8258],[123.3123,-17.1277,0.7743],[123.3014,-17.1157,0.5745],[123.2906,-17.1077,2.164],[123.2882,-17.0952,3.9666],[123.2866,-17.0941,0.6644],[123.2807,-17.077,5.6781],[123.2813,-17.0721,8.015],[123.2819,-17.0775,5.6781],[123.2833,-17.0784,0.0],[123.2851,-17.0722,0.0],[123.2782,-17.0355,4.3305],[123.2645,-17.017,3.0667],[123.2634,-17.0118,2.113],[123.2544,-17.0042,0.6726],[123.2415,-16.9871,6.1466],[123.2355,-16.9707,1.4176],[123.1922,-16.9399,0.0],[123.1846,-16.9369,3.0225],[123.1809,-16.9374,8.321],[123.1823,-16.9337,3.5456],[123.1686,-16.9249,6.3436],[123.1563,-16.9224,3.2828],[123.1491,-16.9247,5.6544],[123.1483,-16.9202,8.0092],[123.1528,-16.9126,5.2744],[123.1486,-16.9087,4.5806],[123.1504,-16.8878,5.9326],[123.1535,-16.8784,4.6908],[123.1634,-16.859,4.2865],[123.1661,-16.8588,0.7548],[123.1719,-16.8622,2.5094],[123.1735,-16.859,12.2597],[123.1712,-16.8492,8.6338],[123.1694,-16.8485,8.6338],[123.1675,-16.8507,6.6064],[123.1621,-16.8466,7.0398],[123.1614,-16.8408,0.9537],[123.1645,-16.8403,0.0],[123.1655,-16.8385,0.0],[123.1647,-16.836,5.587],[123.1607,-16.8344,4.926],[123.1595,-16.8318,5.6884],[123.1614,-16.8179,0.0],[123.157,-16.8057,0.0],[123.1529,-16.8016,2.4658],[123.1477,-16.8021,12.1263],[123.1348,-16.7907,0.0],[123.1273,-16.7872,0.0],[123.1199,-16.7873,0.0],[123.1179,-16.7913,7.6963],[123.1123,-16.7946,7.7261],[123.1099,-16.7942,6.2144],[123.106,-16.7897,0.0],[123.1106,-16.7839,3.8943],[123.1107,-16.7791,1.9741],[123.1094,-16.7783,1.4392],[123.105,-16.7839,4.7884],[123.1025,-16.7837,7.3009],[123.1049,-16.7823,8.9717],[123.1078,-16.7726,2.8627],[123.1035,-16.7672,3.1132],[123.1028,-16.763,5.0542],[123.102,-16.7514,2.1706],[123.1041,-16.7489,0.559],[123.1035,-16.7453,3.3147],[123.1187,-16.7316,4.2181],[123.1302,-16.7348,0.0],[123.1326,-16.738,0.0],[123.1357,-16.7323,7.4079],[123.1385,-16.7189,4.9663],[123.1451,-16.7084,0.0],[123.1428,-16.6973,0.0],[123.1388,-16.6885,2.767],[123.1351,-16.6892,2.5939],[123.1331,-16.6914,1.0685],[123.1367,-16.6932,6.6206],[123.1372,-16.6955,5.1469],[123.1354,-16.6978,1.3942],[123.137,-16.7013,7.5067],[123.1266,-16.7111,2.3341],[123.1151,-16.7138,3.6721],[123.1052,-16.7128,1.9541],[123.094,-16.7091,5.0804],[123.0932,-16.7056,0.7076],[123.0849,-16.6983,6.7505],[123.0865,-16.6892,6.3903],[123.0847,-16.6759,6.8085],[123.0853,-16.6662,1.3251],[123.0838,-16.6648,4.1771],[123.0821,-16.6849,3.0443],[123.0787,-16.6932,0.0],[123.0744,-16.6946,7.7659],[123.0708,-16.6914,0.0],[123.0621,-16.6942,3.2304],[123.0506,-16.6908,3.2188],[123.0493,-16.6838,2.365],[123.0458,-16.6807,1.1039],[123.0443,-16.6812,1.1039],[123.0362,-16.6715,0.579],[123.0368,-16.6652,3.934],[123.0397,-16.6627,1.0971],[123.0418,-16.6568,0.0],[123.0348,-16.6526,6.1048],[123.0326,-16.6445,9.0291],[123.0368,-16.639,0.3016],[123.0353,-16.6321,12.424],[123.0387,-16.6214,1.7511],[123.0368,-16.62,3.0749],[123.0301,-16.62,7.9794],[123.0271,-16.617,6.4812],[123.0227,-16.6072,2.475],[123.0241,-16.6066,0.0],[123.0233,-16.6046,1.2182],[123.0188,-16.6076,0.0],[123.0159,-16.6119,0.0],[123.0159,-16.615,0.617],[123.0077,-16.6324,1.2326],[123.004,-16.6351,6.4753],[122.9986,-16.6357,4.41],[122.9957,-16.6408,5.5764],[122.9955,-16.6374,1.6075],[122.9883,-16.6256,0.0],[122.9903,-16.6212,0.0],[122.9959,-16.6181,0.5551],[122.9946,-16.6146,0.2348],[122.9968,-16.6111,0.0],[122.9965,-16.6018,0.0],[122.995,-16.6012,0.0],[122.9866,-16.6071,4.8789],[122.9817,-16.6014,9.4657],[122.9834,-16.5976,0.0],[122.9822,-16.5954,0.0],[122.9847,-16.5931,0.0],[122.9827,-16.5922,0.0],[122.9772,-16.5936,4.9416],[122.9722,-16.5907,1.5059],[122.9646,-16.5917,2.2472],[122.9607,-16.5906,2.4638],[122.9584,-16.5883,1.5026],[122.9583,-16.5835,0.4106],[122.9544,-16.5801,2.8644],[122.9545,-16.5781,5.3045],[122.9557,-16.5807,7.8017],[122.959,-16.5795,3.6757],[122.96,-16.5756,0.0],[122.9636,-16.5726,0.0],[122.9687,-16.5619,0.0],[122.972,-16.5613,0.0],[122.9799,-16.5635,0.0],[122.9799,-16.562,2.5659],[122.985,-16.5587,0.0],[122.9869,-16.5548,0.0],[122.9835,-16.5547,5.1125],[122.9833,-16.5513,1.1727],[122.9811,-16.5525,3.8654],[122.9844,-16.5415,0.0],[122.9898,-16.5325,3.6792],[123.0004,-16.5271,0.0],[123.0053,-16.5299,0.0],[123.008,-16.5284,4.0663],[123.0067,-16.5222,0.9647],[122.9977,-16.524,2.4112],[122.9939,-16.5208,0.0],[122.9877,-16.5221,6.9207],[122.9816,-16.5174,1.4374],[122.9748,-16.518,2.6865],[122.9711,-16.5161,2.3426],[122.9763,-16.5149,0.0],[122.9757,-16.5113,3.9156],[122.977,-16.5099,0.0],[122.9758,-16.5074,5.1889],[122.9802,-16.5071,0.2791],[122.9846,-16.5011,8.8303],[122.9881,-16.5016,1.6057],[122.9874,-16.4992,3.6015],[122.9975,-16.4858,0.2593],[122.9963,-16.484,6.1785],[122.9975,-16.4833,0.0],[122.9972,-16.4793,0.0],[122.9957,-16.4776,0.0],[122.9791,-16.4771,5.1274],[122.9828,-16.4756,0.0],[122.9856,-16.4702,0.6778],[122.9859,-16.4682,0.7838],[122.983,-16.4651,1.3795],[122.9919,-16.4568,2.1441],[122.9958,-16.4596,0.8673],[122.9985,-16.4564,7.4125],[123.0013,-16.456,3.1231],[123.0045,-16.4589,1.4393],[123.0087,-16.4565,2.8305],[123.0109,-16.4524,1.1761],[123.0154,-16.4517,1.2848],[123.0167,-16.4544,0.9274],[123.0221,-16.4532,1.4763],[123.023,-16.4556,0.4818],[123.0212,-16.4604,12.376],[123.0238,-16.4627,4.8286],[123.0254,-16.46,0.0],[123.0344,-16.4593,6.8585],[123.0367,-16.4567,2.7209],[123.0428,-16.459,1.7651],[123.0442,-16.4611,3.9232],[123.0418,-16.4669,5.0689],[123.0418,-16.4718,9.3003],[123.045,-16.4738,0.0],[123.0451,-16.4675,0.0],[123.0472,-16.463,0.7434],[123.0669,-16.4497,0.3968],[123.0767,-16.4403,5.8944],[123.0756,-16.4364,2.4842],[123.07,-16.4395,1.2964],[123.0676,-16.4374,0.0888],[123.0633,-16.4368,1.1806],[123.0561,-16.4436,5.9624],[123.0515,-16.4437,3.8459],[123.0469,-16.44,2.7124],[123.0431,-16.4399,4.4263],[123.0353,-16.4351,4.77],[123.031,-16.4306,1.3761],[123.0307,-16.4268,0.9757],[123.0341,-16.4208,0.9488],[123.024,-16.42,5.6566],[123.0183,-16.4088,0.0],[123.0148,-16.4058,3.4586],[123.0194,-16.4036,0.0],[123.0245,-16.3979,7.1211],[123.0309,-16.3968,2.9327],[123.0349,-16.4002,0.0],[123.0358,-16.3949,0.0],[123.0325,-16.3884,4.337],[123.0341,-16.3856,2.8177],[123.0305,-16.3841,2.16],[123.0293,-16.3806,0.0],[123.027,-16.3828,0.7926],[123.0239,-16.3822,2.164],[123.0203,-16.3782,3.376],[123.0238,-16.3755,1.8181],[123.0232,-16.3718,2.0013],[123.0268,-16.3725,2.3647],[123.0272,-16.3696,1.3903],[123.0312,-16.3717,0.0],[123.0357,-16.3692,0.0],[123.036,-16.3624,0.0],[123.0389,-16.3592,1.4036],[123.0318,-16.3583,1.0011],[123.0221,-16.3649,3.4069],[122.9916,-16.3801,3.7357],[122.9914,-16.3821,1.6028],[122.9946,-16.385,11.7329],[122.9937,-16.3934,2.0192],[122.9867,-16.3959,3.2095],[122.9872,-16.4001,4.6929],[122.9824,-16.4059,2.7995],[122.9801,-16.4051,4.5202],[122.9843,-16.4022,3.0573],[122.9849,-16.3984,0.0],[122.9834,-16.3945,4.8357],[122.992,-16.3875,1.5097],[122.9915,-16.3835,0.7506],[122.9874,-16.3825,1.1096],[122.9877,-16.3809,0.0],[122.9853,-16.3824,0.0],[122.9828,-16.3884,6.4981],[122.974,-16.3953,4.9224],[122.9552,-16.4017,1.6958],[122.9435,-16.4015,2.3247],[122.9354,-16.3932,1.759],[122.9294,-16.3923,2.8039],[122.9259,-16.3891,0.3224],[122.924,-16.4002,5.3682],[122.919,-16.4111,2.3487],[122.9015,-16.435,0.4129],[122.9055,-16.435,1.3755],[122.9093,-16.438,4.4793],[122.9111,-16.4377,4.0158],[122.9087,-16.4412,3.4591],[122.9051,-16.4413,3.6697],[122.903,-16.4397,4.9934],[122.9031,-16.4365,1.9033],[122.9018,-16.4367,1.9033],[122.8981,-16.4472,7.6914],[122.8995,-16.4528,0.0],[122.8958,-16.4682,3.4023],[122.9004,-16.4702,0.6495],[122.9025,-16.4691,7.7894],[122.9057,-16.4736,2.4037],[122.9069,-16.4809,4.1467],[122.9044,-16.4885,4.3826],[122.8968,-16.5001,4.5763],[122.8841,-16.508,4.0612],[122.8672,-16.5094,0.0],[122.8635,-16.5062,1.2152],[122.8647,-16.5036,2.2794],[122.8631,-16.4991,0.0],[122.8539,-16.5127,1.885],[122.8554,-16.5148,0.0],[122.8579,-16.509,3.041],[122.8613,-16.51,2.8241],[122.862,-16.5129,2.8205],[122.8657,-16.5151,3.0064],[122.8656,-16.519,1.5135],[122.8737,-16.5238,4.4056],[122.8746,-16.5264,0.0],[122.8835,-16.5258,6.5787],[122.8842,-16.5303,2.0472],[122.8816,-16.5286,3.5203],[122.8799,-16.5301,5.1985],[122.8753,-16.5302,5.3184],[122.8651,-16.5203,0.2791],[122.8614,-16.5191,1.8127],[122.8621,-16.5227,3.0342],[122.8595,-16.5301,4.1608],[122.8477,-16.5465,4.5201],[122.8304,-16.5549,3.8983],[122.8165,-16.5561,2.1342],[122.8229,-16.5577,3.3042],[122.8309,-16.5572,2.147],[122.8334,-16.5607,3.5639],[122.832,-16.5611,3.5639],[122.8304,-16.5581,2.4935],[122.8116,-16.5583,5.6183],[122.8,-16.5709,2.8518],[122.7948,-16.5717,6.0614],[122.7986,-16.5695,5.9571],[122.7984,-16.5672,6.6071],[122.8029,-16.5588,4.7191],[122.8097,-16.5506,0.0],[122.8116,-16.5453,0.6218],[122.8179,-16.5392,0.0],[122.8101,-16.5453,3.6516],[122.8035,-16.5562,3.2136],[122.78,-16.5788,1.1315],[122.7713,-16.5903,0.0],[122.779,-16.5849,6.1441],[122.779,-16.5928,5.847],[122.7768,-16.5893,0.8134],[122.77589999999999,-16.5902,0.0],[122.7774,-16.6001,0.0],[122.7711,-16.6286,0.7053],[122.7474,-16.6705,1.0205],[122.7418,-16.6834,1.132],[122.7451,-16.686,1.3143],[122.7466,-16.6903,0.0],[122.7439,-16.7001,0.0],[122.7492,-16.7045,0.0],[122.7628,-16.7103,1.3337],[122.7651,-16.7092,0.0],[122.7649,-16.7008,0.4165],[122.7729,-16.697,0.0],[122.7738,-16.694,4.21],[122.7748,-16.6979,1.2943],[122.7779,-16.6967,0.5834],[122.7794,-16.6983,0.0],[122.7818,-16.6959,3.6499],[122.7841,-16.696,4.4639],[122.7812,-16.6987,5.8261],[122.7856,-16.7029,3.3452],[122.7853,-16.7042,2.8126],[122.7794,-16.7017,5.0911],[122.7766,-16.7044,5.7534],[122.7741,-16.7028,0.0],[122.7731,-16.7045,1.2938],[122.7757,-16.7122,2.15],[122.7741,-16.7224,0.8873],[122.7752,-16.7321,3.6782],[122.7738,-16.733,0.7474],[122.7757,-16.7355,0.0],[122.7847,-16.7356,0.0],[122.7908,-16.7337,2.1233],[122.7968,-16.7377,0.0],[122.8009,-16.7448,0.0],[122.8049,-16.7441,4.2066],[122.8009,-16.7426,3.6325],[122.8027,-16.7405,2.4933],[122.8066,-16.7428,2.3788],[122.8041,-16.7455,2.4655],[122.8064,-16.7485,0.0],[122.8068,-16.7466,2.1985],[122.8086,-16.7479,2.6306],[122.8071,-16.7497,0.0],[122.81,-16.7528,3.291],[122.8118,-16.7509,3.1339],[122.8156,-16.7532,3.2935],[122.8213,-16.7508,2.5112],[122.8275,-16.7445,2.5746],[122.8298,-16.7443,2.6531],[122.8271,-16.7458,2.6137],[122.8297,-16.7471,2.9152],[122.8384,-16.7445,2.7561],[122.8346,-16.7481,2.702],[122.8268,-16.7474,3.2415],[122.8264,-16.75,2.4601],[122.8302,-16.7502,2.5514],[122.8215,-16.7531,0.7116],[122.8214,-16.757,0.9934],[122.8232,-16.7601,0.7283],[122.8272,-16.7607,3.2915],[122.8303,-16.7581,2.7081],[122.8301,-16.7567,2.5061],[122.831,-16.7582,2.7081],[122.8295,-16.7607,2.4895],[122.8334,-16.7583,2.4618],[122.8332,-16.76,2.557],[122.8305,-16.7614,2.3649],[122.832,-16.7629,2.529],[122.8284,-16.7637,2.6161],[122.8283,-16.7669,2.5666],[122.8239,-16.7677,2.7296],[122.8249,-16.7697,2.6746],[122.8235,-16.7699,0.7297],[122.8248,-16.7717,2.7543],[122.8334,-16.7724,2.6659],[122.8309,-16.7743,2.3603],[122.8276,-16.7736,2.2808],[122.8288,-16.7755,2.6764],[122.8312,-16.7756,2.6137],[122.8305,-16.7768,2.452],[122.8342,-16.7768,2.7013],[122.8305,-16.7784,2.3291],[122.834,-16.7808,2.5111],[122.8392,-16.7796,2.7638],[122.8342,-16.7845,2.3331],[122.8416,-16.7853,2.6362],[122.8422,-16.789,0.4954],[122.8456,-16.792,2.426],[122.8368,-16.7866,2.6606],[122.8357,-16.7875,2.6024],[122.8315,-16.7857,1.6257],[122.832,-16.7887,2.421],[122.8286,-16.7843,0.5126],[122.8229,-16.7813,2.4282],[122.8235,-16.7782,2.5929],[122.8177,-16.7756,3.1465],[122.8181,-16.7737,2.693],[122.8136,-16.7701,3.7483],[122.8098,-16.7743,3.8009],[122.8117,-16.7702,3.4843],[122.8102,-16.7662,0.7789],[122.8049,-16.7633,2.8847],[122.8006,-16.767,5.3184],[122.803,-16.7621,5.1995],[122.799,-16.7605,1.7661],[122.7915,-16.7524,0.0],[122.7816,-16.7474,0.0],[122.7818,-16.7498,0.0],[122.7921,-16.7606,4.4298],[122.7912,-16.7631,5.0013],[122.7928,-16.7685,3.8352],[122.7912,-16.7677,4.7773],[122.7866,-16.7717,2.9318],[122.7842,-16.7702,2.4098],[122.7892,-16.768,4.2868],[122.7889,-16.7636,2.106],[122.7859,-16.7638,4.4365],[122.7814,-16.7557,0.0],[122.7762,-16.7514,4.3569],[122.7735,-16.7514,2.638],[122.7725,-16.7523,2.638],[122.7776,-16.759,3.468],[122.7772,-16.7609,5.9649],[122.7697,-16.7527,0.0],[122.7693,-16.7545,1.9792],[122.773,-16.757,3.8367],[122.7716,-16.7616,4.6318],[122.771,-16.7597,5.9954],[122.7679,-16.7589,5.7752],[122.7713,-16.758,5.7365],[122.7667,-16.7544,0.0],[122.7596,-16.7615,0.9326],[122.7619,-16.7655,4.6604],[122.7595,-16.7634,6.686],[122.7562,-16.7656,5.3224],[122.7519,-16.7656,3.5127],[122.7498,-16.7703,3.7347],[122.7461,-16.769,4.8904],[122.7427,-16.7722,4.241],[122.7438,-16.7694,6.4722],[122.7484,-16.768,2.4558],[122.7512,-16.7645,3.7355],[122.7562,-16.7619,0.0],[122.7572,-16.7588,2.8276],[122.765,-16.752,1.1654],[122.7654,-16.7479,0.0],[122.7574,-16.7461,0.0],[122.7441,-16.7609,1.2156],[122.7345,-16.7777,0.0],[122.7141,-16.786,0.6211],[122.7066,-16.7875,3.1099],[122.7011,-16.7852,10.1614],[122.6989,-16.7806,0.0],[122.6935,-16.7772,1.3511],[122.6804,-16.7875,0.0],[122.6755,-16.7879,0.0],[122.6651,-16.7942,1.6814],[122.6374,-16.8007,2.2273],[122.6286,-16.7996,8.8809],[122.6201,-16.7947,2.027],[122.6192,-16.7921,2.7629],[122.621,-16.7878,3.7869],[122.617,-16.7813,8.1683],[122.6177,-16.7791,8.9224],[122.613,-16.7757,14.0265],[122.6135,-16.7733,9.1494],[122.6099,-16.7657,5.8018],[122.6012,-16.7674,10.2231],[122.595,-16.7643,2.9674],[122.5825,-16.7642,4.8745],[122.5794,-16.7621,3.1126],[122.577,-16.7665,14.6551],[122.5695,-16.7714,0.7961],[122.5731,-16.7736,6.4702],[122.5736,-16.7763,0.0],[122.5763,-16.7758,1.841],[122.5775,-16.7773,1.0257],[122.5775,-16.7801,2.2063],[122.5741,-16.7858,1.5861],[122.57,-16.7862,0.0],[122.5533,-16.8054,8.8371],[122.5553,-16.8121,0.7447],[122.5594,-16.813,0.0],[122.5621,-16.818,0.0],[122.5644,-16.8175,10.6746],[122.5713,-16.8226,7.0221],[122.5732,-16.8271,2.7805],[122.5705,-16.8286,0.0],[122.5713,-16.831,3.3325],[122.5696,-16.8351,1.2465],[122.5712,-16.8362,3.7095],[122.5696,-16.8367,5.112],[122.5675,-16.8346,5.3831],[122.5678,-16.8291,1.9108],[122.5652,-16.8303,4.4234],[122.567,-16.8314,3.3273],[122.5654,-16.838,3.5742],[122.5641,-16.8356,3.3061],[122.565,-16.8336,3.2099],[122.5629,-16.8325,2.4951],[122.5655,-16.8321,3.4627],[122.5643,-16.8293,0.7865],[122.5627,-16.8303,4.4418],[122.5511,-16.8289,2.6968],[122.5514,-16.8317,0.0],[122.5542,-16.8349,0.827],[122.5583,-16.8339,3.613],[122.5605,-16.8355,4.8592],[122.5532,-16.836,0.0],[122.551,-16.8345,2.1857],[122.5458,-16.8295,3.86],[122.5499,-16.8216,4.2137],[122.5493,-16.8198,3.4731],[122.5338,-16.8369,3.5903],[122.5371,-16.8418,6.2808],[122.5371,-16.8514,1.2868],[122.5425,-16.8561,3.926],[122.5435,-16.8614,0.0],[122.5464,-16.8603,2.334],[122.5501,-16.862,0.0],[122.5515,-16.8645,0.0],[122.55,-16.8803,5.3596],[122.5562,-16.89,4.7505],[122.5565,-16.8964,2.6985],[122.5585,-16.8993,0.0],[122.5644,-16.8961,3.9703],[122.5695,-16.9033,0.0],[122.5698,-16.9108,0.0],[122.5674,-16.92,1.3614],[122.5704,-16.9294,0.0],[122.5779,-16.9366,0.0],[122.5822,-16.9332,5.1218],[122.5797,-16.9388,6.3653],[122.584,-16.9437,2.5541],[122.5856,-16.9481,2.3872],[122.5896,-16.9511,5.8763],[122.5891,-16.9522,0.0],[122.5929,-16.9523,2.1837],[122.5975,-16.9549,6.6767],[122.5957,-16.9561,0.7386],[122.5927,-16.954,0.0],[122.5914,-16.9549,1.224],[122.5956,-16.9643,1.5875],[122.6079,-16.9627,1.7572],[122.6122,-16.9653,1.313],[122.6059,-16.9645,1.4177],[122.6015,-16.9663,4.9473],[122.6007,-16.9684,1.5113],[122.6034,-16.9702,2.6302],[122.6021,-16.9713,3.394],[122.5989,-16.968,2.643],[122.594,-16.9668,2.4024],[122.5876,-16.9572,0.0],[122.5847,-16.9576,0.0],[122.5822,-16.9601,2.9469],[122.5779,-16.9563,2.0328],[122.5723,-16.9557,2.7157],[122.5574,-16.9599,2.7894],[122.5572,-16.9614,3.046],[122.554,-16.9624,4.444],[122.5556,-16.9581,2.8705],[122.5542,-16.9601,4.0147],[122.5517,-16.9601,4.823],[122.5454,-16.9555,4.12],[122.5365,-16.957,5.8963],[122.5276,-16.9477,1.0218],[122.5092,-16.9516,2.7275],[122.508,-16.9544,4.5168],[122.5076,-16.9517,4.3241],[122.5101,-16.9476,0.7983],[122.5082,-16.9449,5.5874],[122.5103,-16.9455,3.4031],[122.5108,-16.9483,0.0],[122.513,-16.9493,0.0],[122.5198,-16.9337,0.0],[122.5164,-16.9321,4.8089],[122.5161,-16.9287,1.7489],[122.5138,-16.9265,1.321],[122.5086,-16.9274,3.0368],[122.5031,-16.9237,0.6439],[122.5033,-16.916,0.0],[122.4892,-16.9153,3.4419],[122.4897,-16.9185,5.186],[122.4874,-16.9152,2.9615],[122.4903,-16.9137,0.0],[122.4858,-16.9098,4.1069],[122.4822,-16.9038,0.0],[122.4835,-16.8943,0.4441],[122.4802,-16.8946,0.5932],[122.4779,-16.897,0.1822],[122.4791,-16.8998,2.3061],[122.4769,-16.9217,0.0],[122.4815,-16.9249,0.8158],[122.4855,-16.9373,3.9539],[122.4849,-16.9419,2.8528],[122.4776,-16.9531,0.0],[122.4769,-16.9572,0.5633],[122.4799,-16.9564,2.2707],[122.4839,-16.9488,2.8458],[122.4856,-16.9516,4.6562],[122.4811,-16.9592,2.0047],[122.4783,-16.9599,4.1124],[122.476,-16.9632,4.0517],[122.475,-16.9681,4.0676],[122.4761,-16.9742,4.9454],[122.4797,-16.9737,4.0718],[122.4782,-16.9778,3.7203],[122.4814,-16.979,3.2752],[122.481,-16.9813,3.1152],[122.4751,-16.977,4.131],[122.4737,-16.9798,2.9043],[122.4766,-16.9809,5.1986],[122.4732,-16.9815,3.8818],[122.4721,-16.977,4.3065],[122.4697,-16.9789,4.6166],[122.4686,-16.9827,2.1602],[122.4734,-16.9879,3.6497],[122.4687,-16.9863,3.1661],[122.4672,-16.9801,1.9325],[122.4646,-16.9821,2.466],[122.4641,-16.979,4.132],[122.4614,-16.9778,4.1836],[122.4672,-16.9771,2.4405],[122.4686,-16.971,0.6095],[122.4676,-16.9688,3.521],[122.4601,-16.9739,4.5819],[122.4574,-16.9743,4.3011],[122.4613,-16.972,5.1655],[122.4608,-16.9707,2.2243],[122.4545,-16.9733,1.0904],[122.4506,-16.978,0.0],[122.4528,-16.982,4.157],[122.4493,-16.9802,4.8192],[122.4435,-16.9864,2.1753],[122.4444,-16.9878,2.1753],[122.4371,-16.9862,2.2587],[122.4347,-16.9833,2.7985],[122.431,-16.9834,3.4064],[122.4356,-16.9805,2.7904],[122.436,-16.9824,2.2809],[122.4378,-16.982,0.0],[122.4389,-16.9836,0.9866],[122.4385,-16.9797,2.2285],[122.4408,-16.9813,2.281],[122.4408,-16.9834,0.9866],[122.4435,-16.9805,2.5607],[122.4443,-16.9744,3.472],[122.4417,-16.9717,4.307],[122.4464,-16.9713,3.5172],[122.4472,-16.9698,0.0],[122.4407,-16.9671,3.676],[122.4501,-16.9659,0.9004],[122.4605,-16.9569,1.925],[122.4624,-16.9527,1.6325],[122.4619,-16.9451,0.0],[122.4697,-16.9363,0.0],[122.4581,-16.9431,0.6991],[122.4485,-16.9536,1.5781],[122.4344,-16.9602,0.0],[122.4282,-16.9592,0.6128],[122.4243,-16.9603,0.0],[122.3979,-16.9794,2.5934],[122.3664,-16.9976,0.0],[122.3635,-17.0009,0.1569],[122.3698,-17.0081,1.9589],[122.3666,-17.0117,0.0],[122.3599,-17.026,0.0],[122.351,-17.0369,2.6355],[122.3381,-17.0478,0.0],[122.3319,-17.0511,0.0],[122.3219,-17.0518,2.2838],[122.3178,-17.0536,7.2692],[122.304,-17.0606,0.0],[122.2955,-17.0672,0.0],[122.2879,-17.0738,0.0],[122.2775,-17.0874,0.0],[122.2687,-17.0947,0.0],[122.2634,-17.1045,0.0],[122.258,-17.1097,5.2656],[122.2532,-17.1198,0.0],[122.2518,-17.1281,0.0],[122.2538,-17.1317,0.0],[122.2672,-17.137,0.7553],[122.2666,-17.1352,1.3555],[122.2734,-17.1317,3.3286],[122.2844,-17.1293,2.6714],[122.2915,-17.1177,0.725],[122.3008,-17.1174,2.5588],[122.3035,-17.1124,2.1926],[122.3016,-17.1209,2.3199],[122.2983,-17.1215,2.5055],[122.296,-17.1189,0.0],[122.2933,-17.1192,0.0],[122.2926,-17.1303,0.9445],[122.2969,-17.1327,1.1699],[122.3032,-17.1301,2.0504],[122.306,-17.1328,1.5385],[122.3081,-17.1307,0.9466],[122.3079,-17.1289,2.0632],[122.312,-17.1271,2.0332],[122.3096,-17.1308,2.2305],[122.3119,-17.1316,0.567],[122.3163,-17.1291,2.0],[122.3179,-17.1297,2.3155],[122.3176,-17.1311,2.3155],[122.3135,-17.1326,0.5477],[122.3145,-17.135,2.5078],[122.3133,-17.1365,0.6406],[122.3194,-17.1353,2.4321],[122.3139,-17.1388,0.7209],[122.3096,-17.1374,0.0],[122.3099,-17.1344,0.0],[122.3073,-17.1377,2.2794],[122.3044,-17.136,0.0],[122.2928,-17.1374,0.8545],[122.2881,-17.1396,0.0],[122.2904,-17.1423,1.7514],[122.2972,-17.1434,2.4333],[122.2986,-17.1453,0.0],[122.3059,-17.1455,2.0708],[122.3046,-17.1474,0.0],[122.3118,-17.1498,2.2239],[122.3079,-17.1507,2.0481],[122.3109,-17.1525,1.0836],[122.3172,-17.1513,6.0927],[122.3184,-17.1536,7.7281],[122.3136,-17.1553,1.0285],[122.319,-17.159,2.1575],[122.3127,-17.1579,2.2841],[122.3116,-17.155,2.0564],[122.308,-17.1529,0.0],[122.3067,-17.1551,2.3014],[122.3053,-17.1508,1.0367],[122.3006,-17.1539,2.2408],[122.3,-17.1496,1.8426],[122.2947,-17.1501,3.4314],[122.282,-17.1451,1.1859],[122.2785,-17.1465,0.565],[122.279,-17.1493,0.0],[122.2813,-17.1505,3.6236],[122.2798,-17.1574,3.8119],[122.277,-17.1568,3.0112],[122.2762,-17.1533,3.4497],[122.2781,-17.1522,2.5914],[122.2746,-17.1504,0.0],[122.2708,-17.1547,2.0737],[122.2652,-17.1552,0.1678],[122.2653,-17.1604,1.5249],[122.2549,-17.1606,1.3167],[122.2575,-17.1638,3.1083],[122.2586,-17.1679,3.4166],[122.2574,-17.169,4.5363],[122.2537,-17.1629,0.9119],[122.2466,-17.1639,1.0882],[122.2588,-17.1557,1.4482],[122.2516,-17.1576,0.0],[122.241,-17.1692,0.0],[122.244,-17.1749,1.5171],[122.2471,-17.1733,3.598],[122.246,-17.1768,3.4793],[122.2429,-17.1773,0.4412],[122.2394,-17.1842,0.6428],[122.2437,-17.192,4.029],[122.2431,-17.196,5.0248],[122.2412,-17.1919,4.6553],[122.2373,-17.1902,1.4032],[122.2361,-17.1868,1.4994],[122.234,-17.1858,0.0],[122.2293,-17.1911,4.1343],[122.2313,-17.1962,4.7962],[122.2293,-17.1982,3.0239],[122.2257,-17.1923,1.523],[122.2285,-17.1904,1.5184],[122.2276,-17.1883,6.0473],[122.2287,-17.1863,4.8755],[122.2344,-17.181,0.0],[122.2292,-17.1832,2.0164],[122.2264,-17.1865,0.1592],[122.2179,-17.2095,0.0],[122.2066,-17.2292,0.0],[122.2047,-17.2404,0.4472],[122.2086,-17.2391,3.4842],[122.2097,-17.232,3.9871],[122.2135,-17.2274,3.1341],[122.2149,-17.2282,4.3823],[122.2142,-17.2326,2.9273],[122.2114,-17.2353,5.1401],[122.2111,-17.2404,1.0284],[122.2017,-17.2459,1.1231],[122.1985,-17.2443,1.1405],[122.1991,-17.2411,0.0],[122.195,-17.2444,2.5996],[122.1936,-17.2427,7.1522],[122.1958,-17.2411,0.0],[122.1951,-17.2399,0.0],[122.1873,-17.2404,1.627],[122.1817,-17.2472,2.9712],[122.179,-17.2562,0.4048],[122.1732,-17.2636,0.0],[122.1742,-17.2654,0.9349],[122.1768,-17.2637,7.2267],[122.1751,-17.2703,2.0552],[122.174,-17.2671,1.6994],[122.173,-17.2674,0.0],[122.1706,-17.2872,1.8095],[122.1667,-17.2992,0.0],[122.1646,-17.3295,0.0],[122.162,-17.3416,3.2369],[122.1588,-17.3478,0.0],[122.15,-17.3554,0.1121],[122.1529,-17.3858,2.5465],[122.1519,-17.3946,4.832],[122.1484,-17.3983,0.0],[122.15,-17.4088,4.3458],[122.15,-17.4471,-0.2129],[122.1523,-17.465699999999998,9.6764],[122.1497,-17.4811,4.1384],[122.1459,-17.485,1.7047],[122.1437,-17.4853,1.0466],[122.1424,-17.4888,0.7561],[122.1436,-17.5009,0.0],[122.1424,-17.5036,0.0],[122.1473,-17.5372,1.0615],[122.1473,-17.5541,0.0],[122.1452,-17.5604,0.0333],[122.1505,-17.5692,0.0],[122.1492,-17.574,0.0408],[122.1537,-17.5799,0.2014],[122.1666,-17.5887,-0.5853],[122.1675,-17.5934,-0.4025],[122.1725,-17.6012,-0.5657],[122.1792,-17.6277,0.0],[122.1841,-17.6677,2.5911],[122.185,-17.668,0.2699],[122.1857,-17.6613,3.4137],[122.1938,-17.6619,1.7908],[122.1924,-17.6639,6.9109],[122.1883,-17.6629,0.0],[122.1868,-17.6643,0.0],[122.191,-17.6663,0.0],[122.1941,-17.6703,1.3307],[122.1996,-17.6848,0.0],[122.2012,-17.7035,0.0],[122.2009,-17.7296,0.0],[122.198,-17.7533,0.0],[122.2033,-17.7641,0.0],[122.1987,-17.7743,0.0],[122.2007,-17.7793,0.0],[122.2001,-17.7841,0.0],[122.2044,-17.8107,1.8767],[122.2088,-17.8291,0.8565],[122.2121,-17.8529,0.0],[122.2129,-17.8737,0.0],[122.2094,-17.9013,0.0],[122.2077,-17.9344,0.0],[122.2049,-17.9453,0.0],[122.1956,-17.9639,0.0],[122.1897,-17.9707,0.0],[122.181,-17.974,0.6863],[122.1771,-17.9728,0.0],[122.17529999999999,-17.974,0.0],[122.1812,-17.9801,0.0],[122.1858,-17.9813,1.3106],[122.191,-17.9861,0.6198],[122.1939,-17.9974,0.0],[122.1999,-18.001,0.0],[122.2071,-18.0089,0.0],[122.2113,-18.0049,0.0],[122.207,-17.9975,10.5437],[122.2108,-17.9892,8.3313],[122.2234,-17.977,13.5643],[122.2376,-17.971,0.0],[122.2387,-17.9664,0.5431],[122.2411,-17.9633,4.4239],[122.242,-17.965,0.0],[122.2429,-17.9642,3.8031],[122.2449,-17.9583,10.6551],[122.2472,-17.9567,0.8365],[122.2473,-17.9529,8.6064],[122.2506,-17.9523,0.0],[122.2554,-17.9582,1.2996],[122.274,-17.9634,0.0],[122.2794,-17.9635,3.2758],[122.282,-17.9663,1.1463],[122.3017,-17.9736,5.4496],[122.3032,-17.9727,11.8126],[122.3109,-17.975,3.0952],[122.3309,-17.9764,4.2047],[122.336,-17.9799,0.0],[122.3519,-17.9752,4.2536],[122.3621,-17.9828,6.1656],[122.3663,-17.9884,0.0],[122.3707,-17.9888,4.3076],[122.3707,-17.991,2.8728],[122.3781,-17.9898,3.9623],[122.3726,-17.9937,0.8087],[122.3762,-18.0154,5.368],[122.3793,-18.0252,6.3611],[122.3798,-18.0456,5.3561],[122.3819,-18.0533,4.306],[122.379,-18.0652,5.0213],[122.381,-18.0707,1.3428],[122.377,-18.0775,0.0],[122.3785,-18.0833,5.9385],[122.3764,-18.0873,3.7791],[122.3772,-18.0942,4.8547],[122.3754,-18.1021,5.8877],[122.3711,-18.1074,5.3932],[122.3703,-18.1164,2.8456],[122.3625,-18.1283,1.8534],[122.3554,-18.1331,1.3133],[122.3445,-18.1465,3.9221],[122.3228,-18.1617,0.0],[122.315,-18.1723,0.0],[122.3054,-18.1708,0.7852],[122.2858,-18.1795,0.0],[122.2615,-18.1845,0.0],[122.2572,-18.1865,0.0],[122.2526,-18.1918,0.0],[122.2422,-18.1994,0.3795],[122.2342,-18.1973,1.7355],[122.2288,-18.2034,3.3026],[122.2283,-18.2017,2.6794],[122.2146,-18.204,1.171],[122.2105,-18.2077,0.9097],[122.2049,-18.2174,0.0],[122.2073,-18.2207,0.0],[122.2117,-18.2227,4.7046],[122.212,-18.2286,3.4163],[122.1998,-18.2497,4.9259],[122.1949,-18.2463,3.4987],[122.1878,-18.2469,4.2057],[122.1863,-18.249,4.0931],[122.185,-18.2479,3.8141],[122.1865,-18.2454,3.8506],[122.1925,-18.2439,4.4799],[122.1971,-18.2446,4.1435],[122.1991,-18.2431,4.6991],[122.2007,-18.2376,3.3922],[122.1906,-18.2412,4.588],[122.1934,-18.2378,3.8908],[122.2016,-18.2353,2.0776],[122.1983,-18.2307,2.53],[122.1879,-18.2351,1.9626],[122.183,-18.2394,0.0],[122.1721,-18.2629,0.0],[122.1726,-18.2673,2.0723],[122.1779,-18.2661,2.8822],[122.1734,-18.269,0.0],[122.1686,-18.2683,0.0],[122.1695,-18.2708,2.0385],[122.1681,-18.2734,1.4958],[122.1662,-18.2666,0.0],[122.1546,-18.2852,0.0],[122.13,-18.3074,0.0],[122.1228,-18.3106,3.9583],[122.0995,-18.3152,1.2467],[122.0834,-18.3276,0.0],[122.0748,-18.3253,4.5781],[122.0635,-18.3258,0.7652],[122.0582,-18.3333,3.4525],[122.046,-18.3573,9.7501],[122.0411,-18.3623,0.0],[122.0364,-18.3644,0.1127],[122.0307,-18.3745,0.0],[122.0263,-18.3778,0.0],[122.0174,-18.3905,7.3053],[122.0072,-18.3954,6.0492],[122.0004,-18.4028,0.0],[121.9826,-18.4048,3.8124],[121.9799,-18.4103,4.3497],[121.9467,-18.4393,0.0],[121.9432,-18.4407,0.0],[121.9396,-18.4395,0.0],[121.929,-18.4485,0.0],[121.9245,-18.4497,7.5087],[121.9036,-18.4641,0.0],[121.872,-18.4717,4.519],[121.8637,-18.4694,-0.0291],[121.8517,-18.4617,3.2207],[121.8497,-18.458,10.1623],[121.8454,-18.4551,3.5223],[121.8442,-18.4498,0.0],[121.84,-18.4437,0.7666],[121.8328,-18.4472,6.2898],[121.8234,-18.4469,0.0],[121.8152,-18.4511,0.0],[121.8131,-18.456,0.0],[121.8006,-18.47,2.679],[121.7923,-18.4825,0.0994],[121.789,-18.4842,0.0],[121.7915,-18.4866,2.769],[121.7924,-18.4947,0.0],[121.7982,-18.4984,0.0],[121.8011,-18.5065,0.0],[121.8032,-18.5081,0.0],[121.8042,-18.5068,0.0],[121.8027,-18.5015,4.5761],[121.8052,-18.5026,1.1894],[121.8124,-18.4924,2.4921],[121.8119,-18.4884,0.0],[121.8087,-18.4849,1.9639],[121.8102,-18.4811,5.5187],[121.8112,-18.4857,5.2194],[121.817,-18.4918,1.2068],[121.8077,-18.5098,3.176],[121.8019,-18.5158,0.8852],[121.7943,-18.5194,0.6136],[121.7956,-18.5232,0.0],[121.7994,-18.5269,4.306],[121.7983,-18.53,3.4352],[121.7881,-18.5377,4.4938],[121.792,-18.5342,3.1811],[121.7954,-18.5278,2.5997],[121.7903,-18.521,3.4942],[121.7907,-18.5179,0.0],[121.7944,-18.5115,0.0],[121.7984,-18.5099,2.3652],[121.7928,-18.5037,3.3735],[121.7909,-18.5038,8.3293],[121.785,-18.5103,2.9812],[121.7815,-18.522,5.5817],[121.7648,-18.5528,9.9469],[121.7566,-18.5612,8.804],[121.7433,-18.5663,0.0],[121.7426,-18.5701,14.746],[121.7306,-18.5714,6.0933],[121.7294,-18.5757,9.6568],[121.7297,-18.5792,1.1338],[121.7347,-18.5799,0.0],[121.7422,-18.5838,0.0],[121.7558,-18.585,0.0],[121.7629,-18.5942,0.0],[121.7721,-18.5961,3.8161],[121.78,-18.6057,1.1965],[121.7822,-18.6064,0.9693],[121.7835,-18.6047,0.674],[121.784,-18.6074,0.0],[121.7819,-18.61,0.0],[121.7857,-18.6083,2.5132],[121.7908,-18.6093,3.7978],[121.7838,-18.6108,2.0145],[121.7871,-18.6196,0.0],[121.7857,-18.625,0.0],[121.7872,-18.6282,4.4956],[121.7862,-18.6383,0.0],[121.7896,-18.6423,0.0],[121.7923,-18.6426,1.0942],[121.7914,-18.6576,4.2479],[121.7926,-18.6524,4.9595],[121.794,-18.652,5.0699],[121.7925,-18.6582,8.0037],[121.7882,-18.6608,3.8848],[121.787,-18.6593,3.6558],[121.7883,-18.6541,4.5728],[121.7869,-18.6539,4.5728],[121.7809,-18.6619,4.702],[121.7669,-18.673,5.3576],[121.7583,-18.6711,3.2151],[121.7519,-18.6748,4.6356],[121.7425,-18.6899,0.0],[121.7409,-18.6968,0.0],[121.7428,-18.6977,1.5426],[121.7444,-18.6964,0.9774],[121.7452,-18.7,4.9395],[121.7412,-18.7008,2.9133],[121.7411,-18.7047,5.6642],[121.7373,-18.7039,2.6413],[121.7395,-18.7017,3.9574],[121.7373,-18.6968,4.7109],[121.7345,-18.6969,5.7896],[121.7278,-18.7018,6.491],[121.7173,-18.7064,6.5832],[121.7147,-18.7048,8.9337],[121.7079,-18.7067,14.0562],[121.7045,-18.7025,3.838],[121.6981,-18.6986,2.2184],[121.6982,-18.7015,5.8617],[121.6946,-18.7056,4.1569],[121.6778,-18.7156,0.0],[121.6814,-18.7147,1.1952],[121.6789,-18.717,0.0],[121.6819,-18.7193,1.3748],[121.6812,-18.7206,3.8973],[121.6748,-18.7179,3.4219],[121.6694,-18.719,4.8382],[121.6667,-18.7165,2.144],[121.665,-18.7203,5.0544],[121.6639,-18.7185,5.0089],[121.6654,-18.7157,3.2004],[121.6647,-18.7128,1.8304],[121.6573,-18.7071,8.4261],[121.6486,-18.7069,5.1322],[121.6394,-18.71,7.4593],[121.6364,-18.7087,2.7284],[121.6355,-18.7042,0.6618],[121.6356,-18.7096,1.5274],[121.6294,-18.7088,1.4222],[121.633,-18.7184,4.8854],[121.6312,-18.7187,0.9075],[121.6308,-18.7219,5.2681],[121.6258,-18.7093,2.9515],[121.6288,-18.7002,1.8496],[121.6181,-18.7063,2.5923],[121.6175,-18.7199,0.0],[121.6198,-18.742,0.0],[121.6263,-18.7436,0.0],[121.63,-18.7419,9.5505],[121.6345,-18.7433,0.0],[121.6416,-18.7509,2.7378],[121.6469,-18.7527,3.2676],[121.6498,-18.7577,12.0558],[121.6517,-18.7666,0.4385],[121.6555,-18.7672,3.2692],[121.6522,-18.773,4.5679],[121.6497,-18.7859,7.7961],[121.6455,-18.7959,0.0],[121.6458,-18.7994,0.0],[121.6535,-18.8083,0.0],[121.6549,-18.8151,0.0],[121.651,-18.8315,2.7983],[121.6532,-18.8359,4.9223],[121.6503,-18.8377,4.7015],[121.6488,-18.8347,3.5593],[121.6521,-18.8233,3.8293],[121.6514,-18.8191,2.1199],[121.6488,-18.8159,4.2896],[121.6461,-18.8185,3.7175],[121.6477,-18.8213,5.437],[121.6464,-18.8228,6.4433],[121.6426,-18.8226,4.947],[121.6427,-18.818,3.9448],[121.6409,-18.8217,4.9058],[121.6352,-18.8256,2.1785],[121.6313,-18.84,2.6863],[121.6345,-18.8448,3.6409],[121.639,-18.8434,3.9055],[121.6377,-18.8477,3.788],[121.6339,-18.847,4.2822],[121.6281,-18.8416,8.5627],[121.6182,-18.8644,8.5961],[121.6108,-18.8703,7.9604],[121.6084,-18.8701,7.6603],[121.6059,-18.8667,5.9357],[121.6027,-18.8692,0.0],[121.6009,-18.8738,1.4979],[121.6032,-18.8784,0.0],[121.6005,-18.8924,0.0],[121.6007,-18.903199999999998,1.7438],[121.576,-18.9474,1.5286],[121.5774,-18.9479,0.0],[121.5808,-18.9434,1.6698],[121.5864,-18.9428,2.3262],[121.5885,-18.9402,3.0659],[121.5951,-18.9422,2.4451],[121.5976,-18.9389,3.8307],[121.6003,-18.9403,3.7338],[121.596,-18.944,3.4275],[121.5882,-18.9434,3.3033],[121.5782,-18.9509,5.1898],[121.5662,-18.9472,8.3715],[121.5616,-18.942,4.6226],[121.557,-18.9405,2.6842],[121.5543,-18.9418,8.6609],[121.5529,-18.9453,1.9665],[121.5611,-18.955,0.0],[121.5646,-18.9671,4.6941],[121.5604,-18.9835,4.8989],[121.5539,-18.9986,3.8707],[121.5366,-19.0276,1.1019],[121.5236,-19.042,2.2224],[121.518,-19.0428,2.1813],[121.5191,-19.0461,6.192],[121.5242,-19.0483,0.3715],[121.5254,-19.0531,4.7621],[121.5171,-19.0801,7.7368],[121.504,-19.1062,1.1534],[121.4981,-19.1123,0.0],[121.4656,-19.1636,8.1975],[121.4189,-19.2278,0.0],[121.413,-19.238,7.8995],[121.3419,-19.3313,3.3321],[121.3087,-19.3678,1.7005],[121.2721,-19.4039,2.5029],[121.2577,-19.4211,4.526],[121.2101,-19.4663,1.8819],[121.1139,-19.5386,3.6559],[121.0924,-19.5503,0.0],[121.0713,-19.5662,1.4922],[121.0551,-19.5748,1.4414],[121.0409,-19.5854,2.2565],[121.0112,-19.6015,0.6042],[120.9819,-19.621,0.0],[120.9615,-19.632,2.0723],[120.9536,-19.6335,0.0],[120.9508,-19.6386,3.5262],[120.9506,-19.6358,0.0],[120.9493,-19.6355,0.0],[120.8719,-19.6678,0.0],[120.8626,-19.6745,0.0],[120.8605,-19.675,3.9657],[120.8653,-19.6708,0.0],[120.8647,-19.6694,0.0],[120.8529,-19.6734,0.0],[120.8422,-19.6795,0.0],[120.8211,-19.6868,0.0],[120.7586,-19.7146,2.6382],[120.7413,-19.7209,0.0],[120.631,-19.77,0.0],[120.605,-19.7783,0.5544],[120.568,-19.7862,0.0],[120.5388,-19.7988,6.816],[120.4821,-19.8168,1.3204],[120.4677,-19.8241,3.2746],[120.4615,-19.8248,5.2006],[120.4449,-19.8309,0.0],[120.4097,-19.8455,0.0],[120.3839,-19.8509,0.0],[120.323,-19.8757,0.0],[120.1959,-19.9139,2.8691],[120.1612,-19.9155,3.046],[120.1332,-19.9124,0.0],[120.0874,-19.922,0.0],[120.0803,-19.9212,0.0],[120.078,-19.9229,0.0],[120.0874,-19.9253,2.3196],[120.0812,-19.9265,4.1513],[120.0815,-19.9251,0.4559],[120.075,-19.9224,0.0],[120.0641,-19.9256,0.0],[120.0641,-20.0625,44.7315],[120.4885,-20.064,67.6873],[120.6136,-20.07,77.6401],[120.6135,-20.0642,76.387],[120.6685,-20.0643,79.2963],[120.6827,-20.0002,81.709],[120.6931,-19.8732,42.5924],[120.7965,-19.8714,40.1266],[120.7966,-19.9067,51.8385],[121.1139,-19.9066,49.5903],[121.1139,-19.7871,24.153],[121.4288,-19.7882,19.5409],[121.4287,-19.8203,36.8453],[121.5074,-19.8195,44.638],[121.5076,-19.8529,68.1214],[121.6969,-19.8529,68.1256],[121.6969,-19.816,52.6994],[123.0013,-19.8167,136.9574],[123.5462,-19.8133,178.2335],[123.5456,-19.4986,180.6214],[123.55029999999999,-18.7542,155.6573],[123.4043,-18.7541,162.098],[123.4043,-18.6633,163.4437],[123.5047,-18.6633,155.0223],[123.5051,-18.4982,104.991],[123.3463,-18.4982,127.119],[123.3486,-18.2722,96.3013],[123.1486,-18.2722,116.9723],[123.1479,-17.8148,53.2306],[122.9961,-17.8149,80.6724],[122.9961,-17.5373,94.8355],[123.1652,-17.5373,55.92],[123.1652,-17.4597,51.1118],[123.1141,-17.4597,57.5204],[123.1141,-17.366,35.8478],[123.029,-17.366,63.6619],[123.029,-17.2331,77.874],[123.2497,-17.2337,55.066]]],
[[[122.2568,-17.1657,1.6649],[122.2563,-17.1666,4.0476],[122.2572,-17.168,4.5363],[122.2574,-17.1663,4.0476],[122.2568,-17.1657,1.6649]]],
[[[122.2783,-17.1538,3.917],[122.2777,-17.1553,4.8229],[122.2796,-17.1563,3.8119],[122.2798,-17.1548,4.6677],[122.2783,-17.1538,3.917]]],
[[[122.197,-16.9003,0.0],[122.1966,-16.9007,0.0],[122.1983,-16.9041,0.4478],[122.1986,-16.9029,0.8347],[122.197,-16.9003,0.0]]],
[[[122.1683,-16.8827,3.3815],[122.1728,-16.8819,0.4156],[122.1691,-16.8796,2.8566],[122.1677,-16.8809,2.8566],[122.1683,-16.8827,3.3815]]],
[[[122.1601,-16.8693,0.3922],[122.1597,-16.8688,0.3922],[122.159,-16.8689,0.3922],[122.1596,-16.8695,0.3922],[122.1601,-16.8693,0.3922]]],
[[[122.1546,-16.8602,1.121],[122.1539,-16.8599,1.121],[122.1536,-16.8603,1.121],[122.1541,-16.8607,1.121],[122.1546,-16.8602,1.121]]],
[[[122.1412,-16.8553,4.777],[122.137,-16.8532,6.3776],[122.1284,-16.8536,2.525],[122.1364,-16.8581,2.4378],[122.1438,-16.8591,4.0613],[122.1412,-16.8553,4.777]]],
[[[122.1103,-16.8548,5.0429],[122.1124,-16.8538,5.2121],[122.121,-16.8548,0.5837],[122.1265,-16.8526,2.7367],[122.0926,-16.8546,0.0],[122.1144,-16.8578,0.7755],[122.108,-16.8553,5.9753],[122.1019,-16.8551,5.8146],[122.1103,-16.8548,5.0429]]],
[[[122.3173,-17.1526,6.0927],[122.3159,-17.1523,6.0927],[122.3153,-17.1531,1.2444],[122.316,-17.1536,4.5134],[122.3173,-17.1526,6.0927]]],
[[[122.3018,-17.1486,0.0],[122.3012,-17.1489,0.0],[122.3014,-17.1514,2.2246],[122.3025,-17.1503,2.6483],[122.3018,-17.1486,0.0]]],
[[[122.3072,-17.1361,1.9388],[122.3066,-17.1351,0.0],[122.306,-17.1355,0.0],[122.3064,-17.1365,1.096],[122.3072,-17.1361,1.9388]]],
[[[122.3128,-17.1348,1.5452],[122.3132,-17.1342,0.5731],[122.3123,-17.1338,0.5731],[122.312,-17.1345,0.5731],[122.3128,-17.1348,1.5452]]],
[[[122.304,-17.1313,0.3008],[122.3031,-17.1307,2.0504],[122.3026,-17.1312,1.0904],[122.3035,-17.1317,0.3008],[122.304,-17.1313,0.3008]]],
[[[122.3015,-17.1193,2.6107],[122.3009,-17.1186,0.0],[122.3,-17.1199,0.0],[122.301,-17.12,2.3199],[122.3015,-17.1193,2.6107]]],
[[[122.5599,-16.9558,0.0],[122.5588,-16.9589,1.2143],[122.5611,-16.9583,2.6979],[122.5614,-16.956,0.0],[122.5599,-16.9558,0.0]]],
[[[122.5615,-16.9535,0.0],[122.5611,-16.954,0.0],[122.563,-16.956,0.0],[122.5628,-16.9541,0.0],[122.5615,-16.9535,0.0]]],
[[[123.3248,-17.0877,0.0],[123.3198,-17.084,0.0],[123.3114,-17.0831,19.8153],[123.32,-17.0898,0.0],[123.325,-17.0902,0.0],[123.3248,-17.0877,0.0]]],
[[[123.1424,-16.7935,0.0],[123.1413,-16.794,0.0],[123.1435,-16.796,0.0],[123.1436,-16.7948,0.0],[123.1424,-16.7935,0.0]]],
[[[123.1114,-16.7917,3.2607],[123.1106,-16.7925,3.2607],[123.1124,-16.7933,2.9419],[123.1114,-16.7917,3.2607]]],
[[[123.1134,-16.7915,2.7004],[123.1118,-16.7912,3.0276],[123.1131,-16.7934,2.9419],[123.1137,-16.7925,2.7004],[123.1134,-16.7915,2.7004]]],
[[[122.5607,-16.9523,0.0],[122.56,-16.9516,0.0],[122.5594,-16.9514,0.0],[122.5608,-16.9534,0.0],[122.5607,-16.9523,0.0]]],
[[[122.82,-16.7633,2.3095],[122.8217,-16.7647,2.2665],[122.8258,-16.764,2.3073],[122.8276,-16.762,2.8485],[122.8252,-16.7611,1.4884],[122.82,-16.7633,2.3095]]],
[[[122.7862,-16.7601,2.0221],[122.7854,-16.7609,2.0221],[122.7861,-16.7622,5.1579],[122.7878,-16.7614,4.7058],[122.7862,-16.7601,2.0221]]],
[[[122.8161,-16.7558,3.6364],[122.8177,-16.7576,0.0],[122.8173,-16.7551,3.6364],[122.8215,-16.7513,2.2688],[122.814,-16.7549,0.5959],[122.813,-16.7529,2.56],[122.8117,-16.754,2.6361],[122.8161,-16.7558,3.6364]]],
[[[122.8219,-16.7658,2.2665],[122.8224,-16.7683,0.3264],[122.8264,-16.765,2.4205],[122.8242,-16.7645,2.3898],[122.8219,-16.7658,2.2665]]],
[[[123.044,-16.6397,0.0],[123.0433,-16.639,0.0],[123.0427,-16.6395,0.0],[123.0435,-16.6405,0.0],[123.044,-16.6397,0.0]]],
[[[122.9998,-16.4849,1.5676],[123.0028,-16.4846,0.0],[123.0032,-16.4837,0.0],[122.9998,-16.4841,0.0],[122.9998,-16.4849,1.5676]]],
[[[122.9059,-16.4377,2.2905],[122.9068,-16.4397,3.0036],[122.9083,-16.4392,4.4793],[122.9069,-16.4368,4.5661],[122.9059,-16.4377,2.2905]]],
[[[122.9903,-16.3924,1.8186],[122.9891,-16.393,3.49],[122.9933,-16.3926,1.1181],[122.9931,-16.3922,1.1181],[122.9903,-16.3924,1.8186]]],
[[[122.9231,-16.3851,6.0458],[122.9246,-16.3855,3.0669],[122.9267,-16.3848,0.2377],[122.9248,-16.3839,2.588],[122.9231,-16.3851,6.0458]]],
[[[122.98779999999999,-16.3785,0.0],[122.9903,-16.3781,0.0],[122.9883,-16.3772,0.0],[122.9871,-16.3797,0.0],[122.98779999999999,-16.3785,0.0]]],
[[[123.0445,-16.3481,11.5437],[123.0421,-16.3554,1.9426],[123.0467,-16.3523,3.3854],[123.0468,-16.348,2.1744],[123.0445,-16.3481,11.5437]]]]}}