{"type":"Feature","properties":{"GID_2":"AUS.9.18_1","GID_0":"AUS","country":"Australia","GID_1":"AUS.9_1","state":"Tasmania","NL_NAME_1":"NA","county":"KingIsland","VARNAME_2":"NA","NL_NAME_2":"NA","TYPE_2":"Municipality","ENGTYPE_2":"Municipality","CC_2":"63410","HASC_2":"AU.TS.KI","name":"KingIsland.county"},
"geometry":{"type": "MultiPolygon","coordinates": [[[[143.9237,-40.1649,0.0],[143.9237,-40.165,0.0],[143.9238,-40.165,0.0],[143.9238,-40.1649,0.0],[143.9237,-40.1649,0.0]]],
[[[143.924,-40.1646,0.0],[143.9241,-40.1643,0.0],[143.9241,-40.1642,0.0],[143.9238,-40.1646,0.0],[143.924,-40.1646,0.0]]],
[[[143.9285,-40.1623,0.1104],[143.9285,-40.1624,0.1104],[143.9286,-40.1623,0.1104],[143.9285,-40.1623,0.1104]]],
[[[143.9282,-40.1621,0.1104],[143.9281,-40.1623,0.1104],[143.9281,-40.1624,0.1104],[143.9283,-40.1623,0.1104],[143.9282,-40.1621,0.1104]]],
[[[143.9242,-40.1611,2.5859],[143.9242,-40.161,2.5859],[143.9242,-40.1608,2.5859],[143.924,-40.1611,2.5859],[143.9242,-40.1611,2.5859]]],
[[[143.9296,-40.1599,1.4749],[143.9294,-40.1599,1.4749],[143.9292,-40.1602,1.4749],[143.9296,-40.1599,1.4749]]],
[[[143.9245,-40.1602,2.5859],[143.9246,-40.1598,2.5859],[143.9245,-40.1597,2.5859],[143.9243,-40.1603,2.5859],[143.9245,-40.1602,2.5859]]],
[[[143.9251,-40.1618,0.1999],[143.9252,-40.1614,0.1999],[143.9248,-40.1621,0.1999],[143.9251,-40.1619,0.1999],[143.9251,-40.1618,0.1999]]],
[[[143.9289,-40.1604,1.4749],[143.9267,-40.1577,0.7232],[143.9244,-40.1615,0.1999],[143.9262,-40.1606,2.4199],[143.9279,-40.1614,0.1104],[143.9289,-40.1604,1.4749]]],
[[[143.8456,-39.8744,1.1864],[143.8456,-39.8743,1.1864],[143.8454,-39.8744,0.0],[143.8455,-39.8745,0.0],[143.8456,-39.8744,1.1864]]],
[[[143.8448,-39.8752,0.0],[143.8449,-39.8752,0.0],[143.8448,-39.875,0.0],[143.8448,-39.8752,0.0]]],
[[[143.8451,-39.8746,0.0],[143.845,-39.8745,0.0],[143.8449,-39.8745,0.0],[143.845,-39.8746,0.0],[143.8451,-39.8746,0.0]]],
[[[143.8532,-39.8515,0.0],[143.8531,-39.8515,0.0],[143.853,-39.8516,0.0],[143.8531,-39.8516,0.0],[143.8532,-39.8515,0.0]]],
[[[143.8548,-39.8509,1.8095],[143.8548,-39.8508,1.8095],[143.8547,-39.8507,1.8095],[143.8547,-39.8509,1.8095],[143.8548,-39.8509,1.8095]]],
[[[143.8554,-39.85,1.8095],[143.8554,-39.8501,1.8095],[143.8555,-39.8501,1.8095],[143.8554,-39.85,1.8095]]],
[[[143.8566,-39.8493,0.0],[143.8566,-39.8492,0.0],[143.8565,-39.8492,0.0],[143.8565,-39.8493,0.0],[143.8566,-39.8493,0.0]]],
[[[143.8436,-39.8893,0.0],[143.8437,-39.8894,0.0],[143.8438,-39.8893,0.0],[143.8436,-39.8893,0.0]]],
[[[143.8416,-39.8868,0.2897],[143.8415,-39.8867,0.2897],[143.8415,-39.8868,0.2897],[143.8416,-39.8869,0.2897],[143.8416,-39.8868,0.2897]]],
[[[143.842,-39.8863,0.2897],[143.8421,-39.8864,0.2897],[143.8421,-39.8862,0.4972],[143.842,-39.8863,0.2897]]],
[[[143.8421,-39.8869,0.2897],[143.8425,-39.887,0.2897],[143.8426,-39.8867,0.2897],[143.8421,-39.8867,0.2897],[143.8421,-39.8869,0.2897]]],
[[[143.8422,-39.8857,0.4972],[143.8421,-39.8856,0.4972],[143.8421,-39.8857,0.4972],[143.8422,-39.8857,0.4972]]],
[[[143.8433,-39.8814,0.0857],[143.8432,-39.8813,0.0857],[143.8429,-39.8813,0.0857],[143.8432,-39.8814,0.0857],[143.8433,-39.8814,0.0857]]],
[[[143.8443,-39.8765,0.0],[143.8442,-39.8766,0.0],[143.8442,-39.8767,0.0],[143.8443,-39.8767,0.0],[143.8443,-39.8765,0.0]]],
[[[143.8442,-39.8756,0.0],[143.8444,-39.8755,0.0],[143.8444,-39.8754,0.0],[143.8441,-39.8755,0.0],[143.8442,-39.8756,0.0]]],
[[[144.1613,-39.8284,33.9404],[144.1604,-39.8274,0.0],[144.158,-39.8328,11.1531],[144.1626,-39.831,0.0],[144.1641,-39.8285,0.4936],[144.1613,-39.8284,33.9404]]],
[[[143.8273,-39.6905,2.2507],[143.8274,-39.6903,2.2507],[143.827,-39.6906,2.2507],[143.8271,-39.6906,2.2507],[143.8273,-39.6905,2.2507]]],
[[[143.827,-39.6818,9.1375],[143.8265,-39.6819,0.0],[143.8264,-39.682,0.0],[143.8268,-39.6821,0.0],[143.827,-39.6818,9.1375]]],
[[[143.8474,-39.733,0.4932],[143.8464,-39.7324,0.5707],[143.8457,-39.7329,0.5707],[143.8467,-39.7337,0.4932],[143.8474,-39.733,0.4932]]],
[[[143.8285,-39.6651,7.971],[143.8204,-39.6692,1.5542],[143.8203,-39.6725,13.6709],[143.819,-39.6732,23.4135],[143.8198,-39.6758,10.6159],[143.8259,-39.6773,1.2063],[143.8264,-39.6762,4.5877],[143.8253,-39.6737,4.5955],[143.8276,-39.6714,0.0],[143.8378,-39.6696,0.0],[143.8365,-39.6673,4.5883],[143.8285,-39.6651,7.971]]],
[[[144.0537,-39.6247,0.0],[144.0533,-39.6248,0.0],[144.0532,-39.6252,0.0],[144.0535,-39.6253,0.0],[144.0537,-39.6247,0.0]]],
[[[144.054,-39.6239,0.0],[144.0538,-39.624,0.0],[144.0539,-39.6242,0.0],[144.054,-39.6242,0.0],[144.054,-39.6239,0.0]]],
[[[143.8307,-39.6825,2.6012],[143.8287,-39.6816,9.1375],[143.8261,-39.6829,0.0],[143.8291,-39.6888,10.2312],[143.8277,-39.6904,2.2507],[143.8302,-39.6914,4.0196],[143.8299,-39.6931,0.124],[143.8337,-39.6931,0.3379],[143.8359,-39.6878,2.0197],[143.8307,-39.6825,2.6012]]],
[[[143.8472,-39.9439,0.1963],[143.8473,-39.9438,0.1963],[143.8471,-39.9438,0.1963],[143.8472,-39.9439,0.1963]]],
[[[143.8485,-39.9435,0.7867],[143.8485,-39.9436,0.7867],[143.8484,-39.9436,0.7867],[143.8486,-39.9437,0.7867],[143.8485,-39.9435,0.7867]]],
[[[143.8428,-39.9419,0.3023],[143.8434,-39.9421,0.3023],[143.8433,-39.9413,0.3023],[143.8428,-39.9415,0.3023],[143.8428,-39.9419,0.3023]]],
[[[143.8425,-39.9396,0.2328],[143.8422,-39.9398,0.2328],[143.8423,-39.9399,0.2328],[143.8426,-39.9398,0.2328],[143.8425,-39.9396,0.2328]]],
[[[143.8386,-39.9351,0.2332],[143.8386,-39.935,0.2332],[143.8385,-39.935,0.2332],[143.8385,-39.9351,0.2332],[143.8386,-39.9351,0.2332]]],
[[[143.8381,-39.9323,0.7833],[143.8379,-39.9323,0.7833],[143.8379,-39.9324,0.7833],[143.8381,-39.9324,0.7833],[143.8381,-39.9323,0.7833]]],
[[[143.8385,-39.9318,0.7833],[143.8387,-39.9318,0.7833],[143.8386,-39.9317,0.7833],[143.8385,-39.9318,0.7833]]],
[[[143.8396,-39.9295,1.1307],[143.8396,-39.9296,6.3368],[143.8397,-39.9295,1.1307],[143.8396,-39.9294,1.1307],[143.8396,-39.9295,1.1307]]],
[[[143.8397,-39.929,1.1307],[143.8396,-39.929,1.1307],[143.8396,-39.9291,1.1307],[143.8397,-39.9291,1.1307],[143.8397,-39.929,1.1307]]],
[[[143.8393,-39.9279,0.1349],[143.8393,-39.9278,0.1349],[143.8392,-39.9278,0.1349],[143.8393,-39.9279,0.1349]]],
[[[143.8393,-39.9272,0.1349],[143.8398,-39.9278,0.0],[143.8399,-39.9274,0.0],[143.8395,-39.9269,0.0],[143.8393,-39.9272,0.1349]]],
[[[143.8397,-39.9281,1.1307],[143.8396,-39.9279,0.0],[143.8396,-39.928,1.1307],[143.8397,-39.9281,1.1307]]],
[[[143.8445,-39.9267,0.0],[143.8445,-39.9266,0.0],[143.8443,-39.9267,0.0],[143.8445,-39.9267,0.0]]],
[[[143.8374,-39.9234,0.0709],[143.8375,-39.9235,0.0709],[143.8373,-39.9232,0.0709],[143.8373,-39.9233,0.0709],[143.8374,-39.9234,0.0709]]],
[[[143.8409,-39.9245,0.3535],[143.8408,-39.9244,0.3535],[143.8407,-39.9245,0.3535],[143.8408,-39.9245,0.3535],[143.8409,-39.9245,0.3535]]],
[[[143.8415,-39.9245,0.0],[143.8415,-39.9243,0.0],[143.8413,-39.9243,0.3535],[143.8413,-39.9245,0.3535],[143.8415,-39.9245,0.0]]],
[[[143.8356,-39.9225,3.6821],[143.8357,-39.9224,3.6821],[143.8354,-39.9224,3.6821],[143.8356,-39.9225,3.6821]]],
[[[143.8343,-39.9224,0.4333],[143.8345,-39.9222,0.4333],[143.8344,-39.9221,0.4333],[143.8343,-39.9223,0.4333],[143.8343,-39.9224,0.4333]]],
[[[143.8319,-39.9217,0.0899],[143.832,-39.9218,0.0899],[143.8322,-39.9216,0.0899],[143.8321,-39.9216,0.0899],[143.8319,-39.9217,0.0899]]],
[[[143.8326,-39.9218,0.0899],[143.8328,-39.9217,0.0899],[143.8328,-39.9215,0.0899],[143.8327,-39.9216,0.0899],[143.8326,-39.9218,0.0899]]],
[[[143.8335,-39.9209,1.6411],[143.8337,-39.9209,1.6411],[143.8337,-39.9208,1.6411],[143.8336,-39.9208,1.6411],[143.8335,-39.9209,1.6411]]],
[[[143.8334,-39.9192,2.2572],[143.8332,-39.9195,2.2572],[143.8333,-39.9197,1.6411],[143.8335,-39.9194,2.2572],[143.8334,-39.9192,2.2572]]],
[[[143.8329,-39.9179,0.0],[143.8328,-39.918,0.0],[143.8329,-39.918,0.0],[143.8329,-39.9179,0.0]]],
[[[143.8329,-39.9177,0.0],[143.8329,-39.9176,0.0],[143.8328,-39.9176,0.0],[143.8328,-39.9177,0.0],[143.8329,-39.9177,0.0]]],
[[[143.8326,-39.9173,0.0],[143.8326,-39.9174,0.0],[143.8327,-39.9173,0.0],[143.8326,-39.9173,0.0]]],
[[[143.8328,-39.9156,0.1961],[143.8328,-39.9154,0.1961],[143.8327,-39.9154,0.1961],[143.8326,-39.9156,0.1961],[143.8328,-39.9156,0.1961]]],
[[[143.8327,-39.9152,0.1961],[143.8325,-39.915,0.1961],[143.8323,-39.9153,0.1961],[143.8327,-39.9153,0.1961],[143.8327,-39.9152,0.1961]]],
[[[143.8371,-39.905,0.0],[143.8372,-39.905,0.0],[143.8373,-39.905,10.5535],[143.8372,-39.9049,0.0],[143.8371,-39.905,0.0]]],
[[[143.836,-39.904,0.4537],[143.8361,-39.904,0.4537],[143.8362,-39.904,0.4537],[143.8361,-39.9039,0.4537],[143.836,-39.904,0.4537]]],
[[[143.8329,-39.903,0.0],[143.833,-39.9031,0.0],[143.8331,-39.9031,0.0],[143.8329,-39.9029,0.0],[143.8329,-39.903,0.0]]],
[[[143.8463,-39.8935,4.3273],[143.8463,-39.8936,4.3273],[143.8464,-39.8936,4.3273],[143.8464,-39.8935,4.3273],[143.8463,-39.8935,4.3273]]],
[[[143.8639,-40.0744,0.0],[143.864,-40.0745,0.0],[143.8641,-40.0744,5.6233],[143.864,-40.0743,0.0],[143.8639,-40.0744,0.0]]],
[[[143.8652,-40.0743,5.6233],[143.8655,-40.0741,5.6233],[143.8655,-40.074,5.6233],[143.8651,-40.0742,5.6233],[143.8652,-40.0743,5.6233]]],
[[[143.8654,-40.0736,5.6233],[143.8647,-40.0735,5.6233],[143.8646,-40.0739,5.6233],[143.8649,-40.0739,5.6233],[143.8654,-40.0736,5.6233]]],
[[[143.8658,-40.0735,5.6233],[143.8657,-40.0735,5.6233],[143.8656,-40.0736,5.6233],[143.8657,-40.0736,5.6233],[143.8658,-40.0735,5.6233]]],
[[[143.863,-40.0722,3.7308],[143.863,-40.0721,3.7308],[143.8629,-40.0719,3.7308],[143.8629,-40.0724,3.7308],[143.863,-40.0722,3.7308]]],
[[[143.8644,-40.0697,26.9983],[143.8644,-40.0696,26.9983],[143.8642,-40.0697,26.9983],[143.8644,-40.0697,26.9983]]],
[[[143.8648,-40.0683,7.0573],[143.8647,-40.0683,7.0573],[143.8647,-40.0684,7.0573],[143.8648,-40.0684,7.0573],[143.8648,-40.0683,7.0573]]],
[[[143.8643,-40.0684,7.0573],[143.8644,-40.0684,7.0573],[143.8644,-40.0683,7.0573],[143.8643,-40.0684,7.0573]]],
[[[143.8619,-40.067,0.2832],[143.8617,-40.0671,0.2832],[143.862,-40.0676,22.0008],[143.8621,-40.0675,22.0008],[143.8619,-40.067,0.2832]]],
[[[143.8616,-40.0666,0.2832],[143.8616,-40.0668,0.2832],[143.8617,-40.0668,0.2832],[143.8617,-40.0666,0.2832],[143.8616,-40.0666,0.2832]]],
[[[143.8612,-40.0665,0.2832],[143.8611,-40.0665,0.2832],[143.8609,-40.0667,0.2832],[143.8612,-40.0667,0.2832],[143.8612,-40.0665,0.2832]]],
[[[143.859,-40.0659,2.547],[143.8589,-40.0659,2.547],[143.859,-40.066,2.547],[143.859,-40.0659,2.547]]],
[[[143.8591,-40.0654,2.547],[143.8592,-40.0654,2.547],[143.8592,-40.0653,2.547],[143.8591,-40.0653,2.547],[143.8591,-40.0654,2.547]]],
[[[143.8575,-40.0646,0.0],[143.8574,-40.0645,0.2711],[143.8572,-40.0644,0.2711],[143.8576,-40.0648,0.0],[143.8575,-40.0646,0.0]]],
[[[143.8579,-40.0637,13.9271],[143.858,-40.0635,13.9271],[143.8579,-40.0633,13.9271],[143.8578,-40.0635,0.2711],[143.8579,-40.0637,13.9271]]],
[[[143.8574,-40.0626,0.0],[143.8575,-40.0627,0.0],[143.8577,-40.0627,0.0],[143.8576,-40.0626,0.0],[143.8574,-40.0626,0.0]]],
[[[143.8594,-40.061,0.0],[143.8591,-40.0609,0.0],[143.8591,-40.061,0.0],[143.8594,-40.0611,0.0],[143.8594,-40.061,0.0]]],
[[[143.8592,-40.0605,0.0],[143.8592,-40.0604,0.0],[143.8591,-40.0605,0.0],[143.8592,-40.0605,0.0]]],
[[[143.8614,-40.0602,1.9128],[143.8615,-40.0604,1.9128],[143.8616,-40.0603,1.9128],[143.8615,-40.0602,1.9128],[143.8614,-40.0602,1.9128]]],
[[[143.8606,-40.0602,1.9128],[143.8605,-40.0602,1.9128],[143.8604,-40.0602,1.9128],[143.8605,-40.0603,1.9128],[143.8606,-40.0602,1.9128]]],
[[[143.864,-40.0602,6.5549],[143.8641,-40.0602,8.3551],[143.8641,-40.0601,8.3551],[143.864,-40.0602,6.5549]]],
[[[144.094,-40.0532,0.2773],[144.0937,-40.053,0.2773],[144.0936,-40.0531,0.2773],[144.0937,-40.0534,0.2773],[144.094,-40.0532,0.2773]]],
[[[143.8871,-40.0474,0.4876],[143.8871,-40.0475,0.4876],[143.8873,-40.0475,0.4876],[143.8872,-40.0474,0.4876],[143.8871,-40.0474,0.4876]]],
[[[144.1008,-40.0477,0.1888],[144.101,-40.0477,0.1888],[144.101,-40.0475,0.1888],[144.1007,-40.0476,0.1888],[144.1008,-40.0477,0.1888]]],
[[[144.1019,-40.047,0.1888],[144.102,-40.047,0.1888],[144.1019,-40.0467,0.1888],[144.1018,-40.0469,0.1888],[144.1019,-40.047,0.1888]]],
[[[144.1025,-40.046,3.8958],[144.1025,-40.0461,3.8958],[144.1027,-40.046,3.8958],[144.1026,-40.0459,3.8958],[144.1025,-40.046,3.8958]]],
[[[144.1012,-40.0473,0.1888],[144.101,-40.0474,0.1888],[144.1011,-40.0475,0.1888],[144.1012,-40.0475,0.1888],[144.1012,-40.0473,0.1888]]],
[[[143.8871,-40.0472,0.4876],[143.8869,-40.0471,0.4876],[143.8869,-40.0472,0.4876],[143.8869,-40.0473,0.4876],[143.8871,-40.0472,0.4876]]],
[[[144.0931,-40.0526,1.9816],[144.0932,-40.0525,1.9816],[144.093,-40.0523,1.9816],[144.0929,-40.0527,1.9816],[144.0931,-40.0526,1.9816]]],
[[[144.0907,-40.0526,0.0],[144.0908,-40.0526,0.0],[144.0909,-40.0524,0.0],[144.0907,-40.0525,0.0],[144.0907,-40.0526,0.0]]],
[[[144.0927,-40.0523,1.9816],[144.0927,-40.0522,1.9816],[144.0925,-40.0524,1.9816],[144.0926,-40.0524,1.9816],[144.0927,-40.0523,1.9816]]],
[[[144.1031,-40.0452,0.0],[144.1032,-40.0452,0.0],[144.1033,-40.0451,0.0],[144.1032,-40.0451,0.0],[144.1031,-40.0452,0.0]]],
[[[143.8855,-40.0446,0.0822],[143.8855,-40.0447,0.0822],[143.8856,-40.0447,0.0822],[143.8855,-40.0446,0.0822]]],
[[[143.8858,-40.0441,0.4126],[143.886,-40.044,0.4126],[143.8858,-40.0439,0.4126],[143.8858,-40.0441,0.4126]]],
[[[143.886,-40.0446,0.0822],[143.8861,-40.0446,0.0822],[143.8861,-40.0445,0.4126],[143.886,-40.0446,0.0822]]],
[[[143.8842,-40.0389,0.0],[143.8842,-40.039,0.0],[143.8842,-40.0391,0.0],[143.8843,-40.0391,0.0],[143.8842,-40.0389,0.0]]],
[[[143.8856,-40.0375,0.5488],[143.8856,-40.0374,0.5488],[143.8855,-40.0374,0.5488],[143.8856,-40.0375,0.5488]]],
[[[143.8841,-40.0326,0.2176],[143.8841,-40.0327,0.2176],[143.8842,-40.0327,0.2176],[143.8841,-40.0326,0.2176]]],
[[[143.8839,-40.0304,0.5288],[143.8837,-40.0303,0.5288],[143.8836,-40.0305,0.5288],[143.8838,-40.0307,0.5288],[143.8839,-40.0304,0.5288]]],
[[[143.8843,-40.0237,0.0889],[143.8843,-40.0238,0.0889],[143.8844,-40.0238,0.0889],[143.8844,-40.0237,0.0889],[143.8843,-40.0237,0.0889]]],
[[[144.114,-40.0195,8.2028],[144.114,-40.0196,0.0],[144.1142,-40.0195,8.2028],[144.114,-40.0194,8.2028],[144.114,-40.0195,8.2028]]],
[[[144.1139,-40.0198,0.0],[144.1138,-40.0197,0.0],[144.1138,-40.0198,0.0],[144.1138,-40.0199,0.0],[144.1139,-40.0198,0.0]]],
[[[144.1137,-40.0196,0.0],[144.1137,-40.0195,8.2028],[144.1136,-40.0196,0.0],[144.1136,-40.0197,0.0],[144.1137,-40.0196,0.0]]],
[[[143.8914,-40.0109,1.4486],[143.8915,-40.011,1.4486],[143.8917,-40.0108,1.4486],[143.8916,-40.0107,1.4486],[143.8914,-40.0109,1.4486]]],
[[[143.892,-40.0106,1.4486],[143.892,-40.0107,1.4486],[143.8922,-40.0106,1.4486],[143.892,-40.0106,1.4486]]],
[[[143.8912,-40.0097,1.4486],[143.8912,-40.0093,1.9622],[143.891,-40.0099,1.4486],[143.8911,-40.0099,1.4486],[143.8912,-40.0097,1.4486]]],
[[[143.892,-40.0076,2.8613],[143.8921,-40.0075,2.8613],[143.8922,-40.0075,2.8613],[143.892,-40.0074,2.8613],[143.892,-40.0076,2.8613]]],
[[[143.8876,-40.0071,0.0],[143.8878,-40.0071,0.0],[143.8877,-40.007,0.0],[143.8877,-40.0069,0.0],[143.8876,-40.0071,0.0]]],
[[[143.8863,-40.0065,0.0],[143.8862,-40.0067,0.0],[143.8865,-40.0065,0.0],[143.8864,-40.0065,0.0],[143.8863,-40.0065,0.0]]],
[[[143.8853,-40.0025,0.466],[143.8853,-40.0026,0.466],[143.8854,-40.0027,0.466],[143.8854,-40.0026,0.466],[143.8853,-40.0025,0.466]]],
[[[143.8841,-40.0001,0.0],[143.884,-40.0002,0.0],[143.8841,-40.0002,0.0],[143.8841,-40.0001,0.0]]],
[[[143.8838,-39.9977,0.0],[143.8839,-39.9977,0.0],[143.8839,-39.9976,0.0],[143.8838,-39.9975,0.0],[143.8838,-39.9977,0.0]]],
[[[143.8842,-39.9973,0.0],[143.8847,-39.9974,0.5764],[143.8851,-39.9969,0.5764],[143.884,-39.997,0.0],[143.8842,-39.9973,0.0]]],
[[[143.8861,-39.9908,0.1431],[143.8862,-39.9907,0.1431],[143.8863,-39.9907,0.1431],[143.886,-39.9906,0.1431],[143.8861,-39.9908,0.1431]]],
[[[143.8854,-39.99,0.1431],[143.8855,-39.9899,0.1431],[143.8854,-39.9898,0.1431],[143.8853,-39.99,0.1431],[143.8854,-39.99,0.1431]]],
[[[143.8863,-39.9866,0.1488],[143.8863,-39.9864,0.1488],[143.8862,-39.9863,0.1488],[143.886,-39.9865,0.1488],[143.8863,-39.9866,0.1488]]],
[[[143.8862,-39.9845,0.6258],[143.8863,-39.9844,0.6258],[143.8861,-39.9843,0.6258],[143.886,-39.9844,0.6258],[143.8862,-39.9845,0.6258]]],
[[[143.8596,-39.9514,0.0],[143.8601,-39.9515,0.0],[143.8603,-39.9513,0.0],[143.8595,-39.9512,0.1622],[143.8596,-39.9514,0.0]]],
[[[143.8561,-39.9481,3.1103],[143.8562,-39.948,3.1103],[143.8559,-39.948,3.1103],[143.856,-39.9481,3.1103],[143.8561,-39.9481,3.1103]]],
[[[143.8515,-39.9474,0.0],[143.8516,-39.9474,0.0],[143.8518,-39.9474,0.0],[143.8517,-39.9473,0.0],[143.8515,-39.9474,0.0]]],
[[[143.8525,-39.9466,0.0],[143.8524,-39.9464,0.0],[143.8523,-39.9465,0.0],[143.8524,-39.9466,0.0],[143.8525,-39.9466,0.0]]],
[[[143.8524,-39.9461,1.7811],[143.8525,-39.9459,1.7811],[143.8524,-39.9458,1.7811],[143.8522,-39.9461,1.7811],[143.8524,-39.9461,1.7811]]],
[[[143.9268,-40.155,1.0769],[143.9268,-40.1551,1.0769],[143.927,-40.1551,1.0769],[143.927,-40.155,1.0769],[143.9268,-40.155,1.0769]]],
[[[143.92,-40.153,1.5979],[143.9202,-40.1529,4.7189],[143.9202,-40.1528,4.7189],[143.9198,-40.153,1.5979],[143.92,-40.153,1.5979]]],
[[[143.9576,-40.1527,0.0],[143.9577,-40.1527,0.0],[143.9577,-40.1526,0.0],[143.9576,-40.1526,0.0],[143.9576,-40.1527,0.0]]],
[[[143.9185,-40.1508,2.379],[143.9184,-40.1509,2.379],[143.9184,-40.151,2.379],[143.9186,-40.1508,2.379],[143.9185,-40.1508,2.379]]],
[[[143.9299,-40.1472,0.2987],[143.9299,-40.1473,0.2987],[143.9301,-40.1472,0.2987],[143.93,-40.1471,0.2987],[143.9299,-40.1472,0.2987]]],
[[[143.9298,-40.1468,8.0923],[143.9298,-40.1467,8.0923],[143.9297,-40.1468,8.0923],[143.9297,-40.1469,8.0923],[143.9298,-40.1468,8.0923]]],
[[[143.9573,-40.1527,0.0],[143.9573,-40.1528,0.0],[143.9574,-40.1527,0.0],[143.9574,-40.1526,0.0],[143.9573,-40.1527,0.0]]],
[[[143.9156,-40.1459,6.4009],[143.9158,-40.1458,6.4009],[143.9158,-40.1457,6.4009],[143.9156,-40.1458,6.4009],[143.9156,-40.1459,6.4009]]],
[[[143.9287,-40.1451,2.5716],[143.9286,-40.1451,2.5716],[143.9285,-40.1452,2.5716],[143.9286,-40.1452,2.5716],[143.9287,-40.1451,2.5716]]],
[[[143.901,-40.1401,0.0],[143.9011,-40.1402,0.0],[143.901,-40.14,0.0],[143.901,-40.1401,0.0]]],
[[[143.8995,-40.1365,2.6268],[143.8997,-40.1365,2.6268],[143.8995,-40.1364,2.6268],[143.8995,-40.1365,2.6268]]],
[[[143.8999,-40.1341,1.8144],[143.8999,-40.1342,1.8144],[143.8999,-40.1343,1.8144],[143.9001,-40.1341,1.8144],[143.8999,-40.1341,1.8144]]],
[[[143.9002,-40.1338,1.8144],[143.9004,-40.1336,1.8144],[143.9004,-40.1335,1.8144],[143.9002,-40.1336,1.8144],[143.9002,-40.1338,1.8144]]],
[[[143.8901,-40.1227,2.4767],[143.8903,-40.1226,2.4767],[143.8903,-40.1225,2.4767],[143.89,-40.1226,2.4767],[143.8901,-40.1227,2.4767]]],
[[[143.8889,-40.1224,2.4767],[143.8889,-40.1225,2.4767],[143.889,-40.1225,2.4767],[143.889,-40.1224,2.4767],[143.8889,-40.1224,2.4767]]],
[[[143.8864,-40.1221,0.3974],[143.8866,-40.122,0.3974],[143.8866,-40.1217,0.3974],[143.8863,-40.122,0.3974],[143.8864,-40.1221,0.3974]]],
[[[143.8846,-40.122,0.0],[143.8847,-40.1218,0.3974],[143.8847,-40.1217,0.3974],[143.8844,-40.1219,0.0],[143.8846,-40.122,0.0]]],
[[[143.885,-40.1219,0.3974],[143.8851,-40.1218,0.3974],[143.885,-40.1217,0.3974],[143.8849,-40.1219,0.3974],[143.885,-40.1219,0.3974]]],
[[[143.8817,-40.1211,3.6683],[143.8815,-40.1212,3.6683],[143.8815,-40.1213,0.0],[143.8817,-40.1212,3.6683],[143.8817,-40.1211,3.6683]]],
[[[143.8827,-40.1214,0.0],[143.8829,-40.1212,8.0388],[143.8828,-40.1212,8.0388],[143.8825,-40.1213,0.0],[143.8827,-40.1214,0.0]]],
[[[143.8788,-40.1206,0.0],[143.8789,-40.1207,0.0],[143.879,-40.1205,0.0],[143.8788,-40.1206,0.0]]],
[[[143.8805,-40.1203,3.6683],[143.8809,-40.1204,3.6683],[143.8812,-40.1202,3.6683],[143.8809,-40.1202,3.6683],[143.8805,-40.1203,3.6683]]],
[[[143.8793,-40.1193,12.1607],[143.8794,-40.1194,12.1607],[143.8794,-40.1193,12.1607],[143.8793,-40.1193,12.1607]]],
[[[143.8772,-40.1193,2.1532],[143.8768,-40.1194,2.1532],[143.8769,-40.1197,0.0],[143.8772,-40.1195,2.1532],[143.8772,-40.1193,2.1532]]],
[[[143.8777,-40.1195,2.1532],[143.878,-40.1196,0.0],[143.8781,-40.1192,2.1532],[143.8777,-40.1191,2.1532],[143.8777,-40.1195,2.1532]]],
[[[143.8788,-40.1198,0.0],[143.8788,-40.1197,0.0],[143.8787,-40.1198,0.0],[143.8788,-40.1199,0.0],[143.8788,-40.1198,0.0]]],
[[[143.9705,-40.1181,0.0],[143.971,-40.1181,0.0],[143.9711,-40.1178,0.2139],[143.9707,-40.1176,1.1814],[143.9705,-40.1181,0.0]]],
[[[143.9715,-40.1169,0.2139],[143.9715,-40.1168,0.2139],[143.9714,-40.1168,0.2139],[143.9714,-40.1169,0.2139],[143.9715,-40.1169,0.2139]]],
[[[143.8751,-40.1166,1.7229],[143.8748,-40.1165,1.7229],[143.8747,-40.1165,1.7229],[143.875,-40.1167,1.7229],[143.8751,-40.1166,1.7229]]],
[[[143.9711,-40.1173,0.2139],[143.971,-40.1172,1.1814],[143.9709,-40.1174,1.1814],[143.971,-40.1174,1.1814],[143.9711,-40.1173,0.2139]]],
[[[143.9693,-40.1174,1.1814],[143.9696,-40.1174,1.1814],[143.9698,-40.1172,1.1814],[143.9693,-40.1172,1.1814],[143.9693,-40.1174,1.1814]]],
[[[143.9704,-40.117,1.1814],[143.9708,-40.1173,1.1814],[143.971,-40.1169,1.1814],[143.9707,-40.1167,1.1814],[143.9704,-40.117,1.1814]]],
[[[143.8759,-40.1184,0.0],[143.8759,-40.1183,0.0],[143.8759,-40.118,0.0],[143.8757,-40.1183,0.0],[143.8759,-40.1184,0.0]]],
[[[143.8766,-40.1182,2.1532],[143.8766,-40.1181,2.1532],[143.8764,-40.1182,2.1532],[143.8765,-40.1183,2.1532],[143.8766,-40.1182,2.1532]]],
[[[143.974,-40.116,2.5482],[143.974,-40.1161,2.5482],[143.9741,-40.116,2.5482],[143.974,-40.116,2.5482]]],
[[[143.8755,-40.1159,5.8814],[143.8755,-40.1158,5.8814],[143.8754,-40.1158,5.8814],[143.8755,-40.1159,5.8814]]],
[[[143.9695,-40.1151,2.4412],[143.9694,-40.1152,2.4412],[143.9696,-40.1152,2.4412],[143.9696,-40.1151,2.4412],[143.9695,-40.1151,2.4412]]],
[[[143.9739,-40.1159,2.5482],[143.9739,-40.1157,2.5482],[143.9737,-40.1159,2.5482],[143.9739,-40.1159,2.5482]]],
[[[143.875,-40.1144,7.6936],[143.8749,-40.1144,7.6936],[143.8749,-40.1145,7.6936],[143.875,-40.1144,7.6936]]],
[[[143.9773,-40.1143,3.7786],[143.9774,-40.1143,3.7786],[143.9774,-40.1141,3.7786],[143.9773,-40.1142,3.7786],[143.9773,-40.1143,3.7786]]],
[[[143.8741,-40.113,0.303],[143.8742,-40.1129,2.0156],[143.8739,-40.113,0.303],[143.8741,-40.1131,0.303],[143.8741,-40.113,0.303]]],
[[[143.8738,-40.1121,2.0156],[143.8739,-40.1123,2.0156],[143.874,-40.1122,2.0156],[143.8739,-40.1122,2.0156],[143.8738,-40.1121,2.0156]]],
[[[143.8752,-40.1115,12.2093],[143.8755,-40.1114,12.2093],[143.8755,-40.1113,12.2093],[143.8752,-40.1113,12.2093],[143.8752,-40.1115,12.2093]]],
[[[143.875,-40.1112,12.9995],[143.8747,-40.1112,12.9995],[143.8747,-40.1113,12.2093],[143.875,-40.1114,12.2093],[143.875,-40.1112,12.9995]]],
[[[143.8742,-40.111,0.3096],[143.8741,-40.111,0.3096],[143.8744,-40.1111,12.9995],[143.8743,-40.111,0.3096],[143.8742,-40.111,0.3096]]],
[[[143.8756,-40.111,12.9995],[143.8754,-40.111,12.9995],[143.8756,-40.1111,12.9995],[143.8756,-40.111,12.9995]]],
[[[143.9786,-40.1105,1.0763],[143.9785,-40.1104,1.0763],[143.9784,-40.1105,1.0763],[143.9785,-40.1106,1.0763],[143.9786,-40.1105,1.0763]]],
[[[143.875,-40.1163,1.7229],[143.8753,-40.1164,1.7229],[143.8755,-40.1161,5.8814],[143.875,-40.1161,5.8814],[143.875,-40.1163,1.7229]]],
[[[143.8784,-40.1212,0.0],[143.8786,-40.1211,0.0],[143.8786,-40.1209,0.0],[143.8785,-40.1209,0.0],[143.8784,-40.1212,0.0]]],
[[[143.8836,-40.1211,8.0388],[143.8837,-40.1211,8.0388],[143.8836,-40.1209,8.0388],[143.8835,-40.121,8.0388],[143.8836,-40.1211,8.0388]]],
[[[143.8828,-40.1209,8.0388],[143.8828,-40.121,8.0388],[143.8829,-40.121,8.0388],[143.8829,-40.1209,8.0388],[143.8828,-40.1209,8.0388]]],
[[[143.9791,-40.1098,1.0763],[143.9792,-40.1098,1.0763],[143.9791,-40.1097,1.0763],[143.9791,-40.1098,1.0763]]],
[[[143.874,-40.1094,2.1593],[143.874,-40.1095,2.1593],[143.8742,-40.1095,2.1593],[143.874,-40.1094,2.1593]]],
[[[144.0309,-40.1082,0.0],[144.0309,-40.1083,0.0],[144.031,-40.1083,0.0],[144.0309,-40.1081,0.0],[144.0309,-40.1082,0.0]]],
[[[144.0308,-40.1073,0.0],[144.0309,-40.1074,0.0],[144.0309,-40.1073,0.0],[144.0308,-40.1073,0.0]]],
[[[143.8741,-40.1066,0.8993],[143.8739,-40.1068,0.8993],[143.8745,-40.1067,16.5466],[143.8743,-40.1066,0.8993],[143.8741,-40.1066,0.8993]]],
[[[143.8742,-40.1074,0.8993],[143.8745,-40.1075,16.5466],[143.8746,-40.1071,16.5466],[143.8741,-40.1071,0.8993],[143.8742,-40.1074,0.8993]]],
[[[144.0306,-40.1067,0.2509],[144.0307,-40.1071,0.2509],[144.031,-40.107,0.0],[144.0309,-40.1066,0.0],[144.0306,-40.1067,0.2509]]],
[[[143.8742,-40.1059,0.6207],[143.8742,-40.1058,0.6207],[143.8741,-40.1059,0.6207],[143.8741,-40.106,0.6207],[143.8742,-40.1059,0.6207]]],
[[[144.0307,-40.1062,0.3974],[144.0309,-40.1062,0.0],[144.0307,-40.1059,0.3974],[144.0307,-40.106,0.3974],[144.0307,-40.1062,0.3974]]],
[[[144.031,-40.1055,0.0],[144.031,-40.1062,0.0],[144.0312,-40.1064,0.0],[144.0315,-40.1057,0.0],[144.031,-40.1055,0.0]]],
[[[144.0317,-40.1055,0.0],[144.0316,-40.1054,0.0],[144.0315,-40.1055,0.0],[144.0317,-40.1055,0.0]]],
[[[143.8729,-40.105,0.6207],[143.873,-40.1051,0.6207],[143.8731,-40.1051,0.6207],[143.8731,-40.105,0.6207],[143.8729,-40.105,0.6207]]],
[[[143.8738,-40.1037,0.8528],[143.8736,-40.1038,0.8528],[143.8734,-40.1044,0.8528],[143.8738,-40.1041,0.8528],[143.8738,-40.1037,0.8528]]],
[[[143.8737,-40.1047,0.6207],[143.8737,-40.105,0.6207],[143.8741,-40.1054,0.6207],[143.874,-40.1043,0.8528],[143.8737,-40.1047,0.6207]]],
[[[144.0108,-40.1017,0.0],[144.0107,-40.1018,0.0],[144.0108,-40.1018,0.0],[144.0108,-40.1017,0.0]]],
[[[144.0306,-40.1016,0.0],[144.0305,-40.1017,0.0],[144.0306,-40.1018,0.0],[144.0307,-40.1018,0.0],[144.0306,-40.1016,0.0]]],
[[[144.0303,-40.1016,0.0],[144.0301,-40.1016,0.0],[144.0299,-40.1017,0.0],[144.0302,-40.1018,0.0],[144.0303,-40.1016,0.0]]],
[[[144.0298,-40.1013,0.0],[144.0298,-40.1014,0.0],[144.0299,-40.1015,0.0],[144.03,-40.1014,0.0],[144.0298,-40.1013,0.0]]],
[[[143.8743,-40.1012,0.2811],[143.87445,-40.10105,14.2969],[143.8743,-40.1011,0.2811],[143.8743,-40.1012,0.2811]]],
[[[143.87445,-40.10105,14.2969],[143.8746,-40.101,14.2969],[143.8745,-40.101,14.2969],[143.87445,-40.10105,14.2969]]],
[[[143.875,-40.1005,14.2969],[143.8751,-40.1005,14.2969],[143.8752,-40.1004,14.2969],[143.8751,-40.1004,14.2969],[143.875,-40.1005,14.2969]]],
[[[143.8721,-40.1001,0.0],[143.8723,-40.1001,0.2811],[143.8723,-40.0999,0.2811],[143.8721,-40.1,0.0],[143.8721,-40.1001,0.0]]],
[[[143.875,-40.0998,14.2969],[143.8752,-40.0997,14.2969],[143.8752,-40.0996,14.2969],[143.8749,-40.0996,14.2969],[143.875,-40.0998,14.2969]]],
[[[144.0084,-40.0992,0.0],[144.0085,-40.099,0.0],[144.0081,-40.0991,0.0],[144.0083,-40.0993,0.0],[144.0084,-40.0992,0.0]]],
[[[143.8745,-40.099,21.401],[143.8744,-40.0991,21.401],[143.8746,-40.0991,21.401],[143.8745,-40.099,21.401]]],
[[[143.8723,-40.0983,0.188],[143.8721,-40.0983,0.0],[143.8718,-40.0983,0.0],[143.872,-40.0984,0.0],[143.8723,-40.0983,0.188]]],
[[[143.8743,-40.1008,0.2811],[143.8745,-40.1007,14.2969],[143.8744,-40.1006,14.2969],[143.8742,-40.1007,0.2811],[143.8743,-40.1008,0.2811]]],
[[[143.8741,-40.1006,0.2811],[143.8742,-40.1006,0.2811],[143.8744,-40.1004,14.2969],[143.8743,-40.1004,0.2811],[143.8741,-40.1006,0.2811]]],
[[[144.0302,-40.102,0.0],[144.0301,-40.1022,0.0],[144.0302,-40.1022,0.0],[144.0302,-40.102,0.0]]],
[[[144.0298,-40.1021,0.0],[144.0299,-40.102,0.0],[144.0298,-40.1017,0.0],[144.0297,-40.102,0.0],[144.0298,-40.1021,0.0]]],
[[[143.8759,-40.0976,11.8398],[143.8759,-40.0975,11.8398],[143.8757,-40.0976,11.8398],[143.8759,-40.0977,11.8398],[143.8759,-40.0976,11.8398]]],
[[[143.8732,-40.0967,3.483],[143.8731,-40.0966,3.483],[143.8731,-40.0967,3.483],[143.8732,-40.0968,3.483],[143.8732,-40.0967,3.483]]],
[[[143.8724,-40.0963,3.483],[143.872,-40.0963,0.0],[143.8719,-40.0963,0.0],[143.8724,-40.0965,3.483],[143.8724,-40.0963,3.483]]],
[[[143.8714,-40.0961,6.114],[143.8716,-40.0961,6.114],[143.8714,-40.096,6.114],[143.8714,-40.0961,6.114]]],
[[[143.871,-40.0959,6.114],[143.8711,-40.0957,6.114],[143.871,-40.0956,6.114],[143.8708,-40.0957,6.114],[143.871,-40.0959,6.114]]],
[[[144.0105,-40.0946,0.0],[144.0105,-40.0947,0.0],[144.0108,-40.0946,0.0],[144.0107,-40.0945,13.9628],[144.0105,-40.0946,0.0]]],
[[[144.0245,-40.0934,0.0],[144.0245,-40.0935,0.0],[144.0247,-40.094,3.4147],[144.0248,-40.0935,3.4147],[144.0245,-40.0934,0.0]]],
[[[144.021,-40.093,0.0],[144.0208,-40.0932,0.0],[144.0208,-40.0936,0.0],[144.0211,-40.0935,0.0],[144.021,-40.093,0.0]]],
[[[143.8681,-40.0926,0.0],[143.8681,-40.0927,0.0],[143.8681,-40.0928,0.0],[143.8682,-40.0925,0.9233],[143.8681,-40.0926,0.0]]],
[[[143.8684,-40.0923,0.9233],[143.8687,-40.0921,0.9233],[143.8687,-40.092,0.9233],[143.8684,-40.0922,0.9233],[143.8684,-40.0923,0.9233]]],
[[[144.0296,-40.09,0.0],[144.0293,-40.09,0.0],[144.0295,-40.0904,0.0],[144.0296,-40.0902,0.0],[144.0296,-40.09,0.0]]],
[[[144.0388,-40.0873,1.0741],[144.039,-40.0872,0.0],[144.0384,-40.0873,1.0741],[144.0385,-40.0874,1.0741],[144.0388,-40.0873,1.0741]]],
[[[144.0384,-40.0867,1.0741],[144.0386,-40.0869,1.0741],[144.0392,-40.0869,0.0],[144.0391,-40.0864,0.0],[144.0384,-40.0867,1.0741]]],
[[[143.8684,-40.0859,0.0],[143.8681,-40.0859,0.0],[143.8682,-40.086,0.0],[143.8684,-40.0859,0.0]]],
[[[144.0371,-40.0859,1.1013],[144.0369,-40.0869,1.0741],[144.0376,-40.0871,1.0741],[144.0381,-40.086,1.1013],[144.0371,-40.0859,1.1013]]],
[[[143.8702,-40.0814,0.0],[143.8698,-40.0813,0.0],[143.8696,-40.0814,0.0],[143.8697,-40.0815,0.0],[143.8702,-40.0814,0.0]]],
[[[143.8705,-40.0809,6.4169],[143.8703,-40.0809,6.4169],[143.8701,-40.0809,0.0],[143.8702,-40.081,0.0],[143.8705,-40.0809,6.4169]]],
[[[143.8703,-40.0803,6.4169],[143.8702,-40.0802,0.0],[143.8699,-40.0804,0.0],[143.8702,-40.0804,0.0],[143.8703,-40.0803,6.4169]]],
[[[143.8691,-40.0799,0.0],[143.8691,-40.0797,0.0],[143.869,-40.0798,0.0],[143.869,-40.0799,0.0],[143.8691,-40.0799,0.0]]],
[[[144.048,-40.0797,0.0],[144.0481,-40.0796,0.0],[144.048,-40.0794,0.0],[144.0479,-40.0794,0.0],[144.048,-40.0797,0.0]]],
[[[143.8669,-40.0792,0.0],[143.8666,-40.079,0.0],[143.8665,-40.0792,0.0],[143.8667,-40.0793,0.0],[143.8669,-40.0792,0.0]]],
[[[143.8687,-40.078,2.1444],[143.8688,-40.0781,2.1444],[143.8689,-40.0779,11.0449],[143.8686,-40.078,2.1444],[143.8687,-40.078,2.1444]]],
[[[143.8688,-40.0776,11.0449],[143.869,-40.0776,11.0449],[143.8689,-40.0774,11.0449],[143.8687,-40.0776,11.0449],[143.8688,-40.0776,11.0449]]],
[[[143.867,-40.077,0.5259],[143.8668,-40.0772,0.5259],[143.8666,-40.0776,0.5259],[143.867,-40.0771,0.5259],[143.867,-40.077,0.5259]]],
[[[143.8673,-40.0764,0.5259],[143.8671,-40.0765,0.5259],[143.8675,-40.0764,0.5259],[143.8673,-40.0764,0.5259]]],
[[[143.8658,-40.075,0.0],[143.8658,-40.0749,0.0],[143.8657,-40.075,0.0],[143.8658,-40.075,0.0]]],
[[[143.8666,-40.0749,3.4996],[143.8667,-40.0746,3.4996],[143.8663,-40.0748,3.4996],[143.8664,-40.0749,3.4996],[143.8666,-40.0749,3.4996]]],
[[[143.8692,-40.0787,2.1444],[143.8691,-40.0786,2.1444],[143.8691,-40.0788,2.1444],[143.8692,-40.0788,2.1444],[143.8692,-40.0787,2.1444]]],
[[[144.0475,-40.0785,0.0],[144.0472,-40.0785,0.0],[144.0473,-40.0788,0.0],[144.0475,-40.0787,0.0],[144.0475,-40.0785,0.0]]],
[[[144.0383,-40.0827,1.1167],[144.0381,-40.0827,1.1167],[144.0378,-40.0832,2.8075],[144.0381,-40.0831,2.8075],[144.0383,-40.0827,1.1167]]],
[[[143.8701,-40.0825,0.0],[143.87,-40.0826,0.0],[143.8701,-40.0827,0.0],[143.8702,-40.0825,0.0],[143.8701,-40.0825,0.0]]],
[[[143.8744,-40.1101,12.9995],[143.8745,-40.1101,12.9995],[143.8745,-40.1099,12.9995],[143.8744,-40.1099,12.9995],[143.8744,-40.1101,12.9995]]],
[[[143.8742,-40.1099,0.3096],[143.8742,-40.1101,0.3096],[143.8744,-40.1098,12.9995],[143.8742,-40.1099,0.3096]]],
[[[143.8738,-40.1099,0.3096],[143.874,-40.1099,0.3096],[143.874,-40.1097,0.3096],[143.8738,-40.1097,0.3096],[143.8738,-40.1099,0.3096]]],
[[[143.8827,-40.1206,8.0388],[143.8936,-40.1226,8.2767],[143.8979,-40.1211,18.5735],[143.9044,-40.1214,0.0],[143.9044,-40.1242,0.1679],[143.9076,-40.1254,17.4339],[143.9084,-40.1281,10.7308],[143.9047,-40.1294,0.0687],[143.9059,-40.1303,2.1265],[143.9026,-40.1303,0.3584],[143.9034,-40.132,6.6403],[143.9004,-40.1339,1.8144],[143.9008,-40.1394,1.7517],[143.9055,-40.1392,3.8747],[143.9051,-40.1406,0.0],[143.9062,-40.1397,0.515],[143.9085,-40.1413,2.4505],[143.9079,-40.1427,2.4505],[143.9097,-40.1422,5.6191],[143.9129,-40.1445,4.286],[143.916,-40.1435,11.6294],[143.9157,-40.1481,2.5221],[143.9196,-40.1509,8.6066],[143.9233,-40.1573,0.0],[143.9268,-40.1575,0.7232],[143.9265,-40.1551,1.0769],[143.93,-40.1516,0.4442],[143.9281,-40.1494,0.8599],[143.9298,-40.1462,2.5716],[143.9281,-40.1455,2.5716],[143.9287,-40.1434,2.2149],[143.9211,-40.1392,5.515],[143.9211,-40.1341,7.0049],[143.9286,-40.1277,7.2604],[143.941,-40.1234,2.9494],[143.9431,-40.1179,3.3593],[143.9497,-40.1129,14.7476],[143.9582,-40.1094,11.7626],[143.9626,-40.1091,5.0264],[143.968,-40.1137,1.5912],[143.9692,-40.1132,5.4114],[143.9702,-40.1142,5.4114],[143.9695,-40.1167,1.1814],[143.9706,-40.1165,1.1814],[143.9712,-40.1167,0.2139],[143.9751,-40.1142,12.2252],[143.9788,-40.114,3.7786],[143.9777,-40.1108,1.0763],[143.9791,-40.109,1.3997],[143.9771,-40.1081,14.8883],[143.9773,-40.1061,0.0],[143.989,-40.0985,3.5178],[143.996,-40.0972,7.3684],[144.0038,-40.0997,0.0],[144.0078,-40.0984,3.9604],[144.0073,-40.0965,8.3536],[144.0118,-40.0934,13.9628],[144.0233,-40.092,3.7504],[144.0269,-40.0949,0.0],[144.0261,-40.0907,17.0376],[144.0289,-40.0904,0.0],[144.0305,-40.0884,4.0912],[144.0334,-40.0864,0.0],[144.0367,-40.0862,9.3494],[144.0371,-40.08,2.5463],[144.0509,-40.0741,1.8211],[144.0474,-40.0708,0.0],[144.0493,-40.0677,3.2841],[144.0567,-40.0651,0.0],[144.0609,-40.0665,0.0],[144.0603,-40.0638,3.0838],[144.063,-40.063,0.0],[144.0642,-40.0653,0.6722],[144.0603,-40.0696,0.2258],[144.0627,-40.0692,1.9946],[144.0657,-40.065,0.0],[144.0628,-40.0622,6.2547],[144.063,-40.0597,10.8422],[144.0681,-40.0578,0.0],[144.0704,-40.0514,0.3142],[144.0874,-40.0484,1.6277],[144.0939,-40.0523,1.9816],[144.0965,-40.0468,17.7194],[144.1006,-40.047,0.3894],[144.1035,-40.0434,0.8802],[144.1055,-40.0444,3.7597],[144.106,-40.0426,1.2187],[144.1016,-40.0389,2.2135],[144.1023,-40.0345,0.0],[144.1009,-40.0334,0.0],[144.1024,-40.032,4.6991],[144.1008,-40.0288,0.0],[144.1081,-40.0217,7.7345],[144.1162,-40.0181,1.234],[144.1169,-40.0119,5.7207],[144.115,-40.0113,7.9361],[144.1136,-40.008,1.8487],[144.1158,-40.0078,7.005],[144.1163,-40.0058,10.6329],[144.1209,-40.0026,13.971],[144.1214,-39.9985,2.1358],[144.1241,-39.9978,3.4916],[144.128,-39.9932,0.0],[144.1254,-39.9881,0.0],[144.1277,-39.9843,11.6966],[144.1311,-39.9828,12.804],[144.133,-39.9774,14.1034],[144.1313,-39.9633,19.7754],[144.1337,-39.96,0.0],[144.133,-39.9574,19.3431],[144.1343,-39.9565,0.0],[144.1349,-39.9507,0.0],[144.1339,-39.9492,0.1909],[144.1364,-39.9451,0.0],[144.1357,-39.9427,0.1934],[144.1377,-39.9383,4.7032],[144.137,-39.9278,0.8826],[144.1357,-39.9244,0.0],[144.1114,-39.9138,1.8055],[144.1082,-39.9066,15.4683],[144.105,-39.8913,0.68],[144.1045,-39.8782,7.9756],[144.1066,-39.8662,10.908],[144.1109,-39.8574,3.4719],[144.1182,-39.8503,0.0],[144.1248,-39.8362,13.5196],[144.1279,-39.8221,0.0],[144.1116,-39.7996,0.0],[144.1047,-39.7793,6.9366],[144.1017,-39.7634,0.5285],[144.1008,-39.7371,0.0],[144.1099,-39.6777,0.0],[144.1098,-39.6702,0.0],[144.0689,-39.644,2.1298],[144.0564,-39.6334,0.0],[144.0515,-39.6255,0.0],[144.0359,-39.6203,7.7895],[144.0126,-39.6088,0.0],[144.0058,-39.6022,7.2501],[144.0042,-39.5985,0.0],[144.0054,-39.5966,0.0],[144.002,-39.5972,1.9932],[144.0017,-39.5999,4.8475],[143.9964,-39.6015,12.5183],[143.9844,-39.601,1.943],[143.976,-39.5921,1.8716],[143.972,-39.5915,9.8329],[143.9695,-39.5888,0.3865],[143.9564,-39.5854,23.0652],[143.9497,-39.5792,0.5084],[143.9406,-39.5845,0.438],[143.9354,-39.5948,11.6192],[143.927,-39.5922,2.9345],[143.9242,-39.5953,9.9588],[143.9263,-39.5976,15.5816],[143.9252,-39.6008,2.6854],[143.9276,-39.6031,2.4555],[143.9269,-39.6093,6.135],[143.9254,-39.6098,3.3468],[143.925,-39.6122,4.6776],[143.9317,-39.6204,0.1053],[143.9307,-39.6228,0.0],[143.9333,-39.6254,8.2694],[143.9313,-39.6295,0.0],[143.9342,-39.6338,15.8366],[143.9346,-39.6382,10.9015],[143.9325,-39.6497,27.8729],[143.9223,-39.6695,0.0],[143.9133,-39.6801,0.0],[143.8913,-39.6983,7.2373],[143.8898,-39.6971,0.825],[143.8752,-39.7004,5.1532],[143.866,-39.7096,6.8696],[143.8493,-39.7108,0.3629],[143.8442,-39.7156,0.6555],[143.847,-39.7178,9.5681],[143.845,-39.7231,0.0],[143.8473,-39.7237,3.4836],[143.8458,-39.7252,4.5789],[143.8468,-39.7292,2.8689],[143.8496,-39.73,0.2707],[143.8479,-39.7326,1.8868],[143.851,-39.7329,8.2597],[143.8523,-39.7346,2.1629],[143.8514,-39.7353,0.0],[143.8547,-39.7375,15.2861],[143.8527,-39.7397,0.0],[143.8534,-39.7453,0.1835],[143.8515,-39.7466,0.1627],[143.8542,-39.7507,12.9916],[143.8487,-39.7544,1.8362],[143.8515,-39.7573,0.295],[143.8512,-39.7607,1.1306],[143.8497,-39.7616,3.234],[143.8522,-39.7632,5.0825],[143.8513,-39.7648,0.0],[143.8528,-39.7662,3.8101],[143.8502,-39.7702,1.853],[143.8558,-39.7732,13.0926],[143.8567,-39.7783,2.7258],[143.863,-39.7896,7.4524],[143.8628,-39.7932,13.4427],[143.8598,-39.7944,0.0],[143.8659,-39.8009,3.2546],[143.8604,-39.8071,1.7467],[143.8632,-39.8099,9.3217],[143.8595,-39.8121,0.1309],[143.8607,-39.814,1.9012],[143.8591,-39.8162,0.3042],[143.8639,-39.8199,1.78],[143.8635,-39.8218,8.739],[143.8601,-39.8235,0.7414],[143.8645,-39.8246,15.9828],[143.8672,-39.8335,2.0548],[143.8661,-39.8407,9.3876],[143.8639,-39.8444,1.2946],[143.8588,-39.8497,7.8043],[143.8541,-39.8513,2.542],[143.8593,-39.8535,0.0],[143.8604,-39.8566,5.2911],[143.8539,-39.8617,6.5478],[143.8563,-39.864,9.745],[143.8535,-39.8676,0.1165],[143.8512,-39.8698,8.4332],[143.8469,-39.8704,1.2182],[143.8479,-39.8734,13.1808],[143.8442,-39.8769,0.0],[143.8455,-39.8787,0.0],[143.8421,-39.8835,0.2554],[143.844,-39.8844,2.6314],[143.8419,-39.885,0.4972],[143.8466,-39.8875,4.1547],[143.8456,-39.8898,14.9793],[143.8439,-39.8896,0.2307],[143.8471,-39.8945,4.3273],[143.8419,-39.8959,0.7987],[143.8353,-39.9023,1.7177],[143.8377,-39.9044,9.4243],[143.8367,-39.9071,0.0],[143.8396,-39.9105,8.2054],[143.8333,-39.9155,1.651],[143.8344,-39.9165,2.8094],[143.8338,-39.9214,0.4333],[143.836,-39.922,3.6821],[143.8358,-39.9235,0.523],[143.8397,-39.9224,7.4583],[143.8443,-39.9232,1.3403],[143.845,-39.9275,0.0],[143.8432,-39.9275,0.0],[143.845,-39.9283,1.7701],[143.8398,-39.9291,1.1307],[143.8393,-39.9325,0.7833],[143.8377,-39.9333,1.7574],[143.8409,-39.9351,1.8801],[143.8386,-39.9362,0.2332],[143.8436,-39.9379,6.4503],[143.8445,-39.9413,0.8479],[143.8485,-39.9422,3.8155],[143.8526,-39.9457,1.7811],[143.8556,-39.9453,5.5738],[143.8564,-39.9484,3.1103],[143.8604,-39.949,9.9342],[143.8594,-39.951,0.1622],[143.8637,-39.9519,3.0962],[143.869,-39.9581,0.7609],[143.8696,-39.9609,0.0],[143.8682,-39.9635,1.5927],[143.8748,-39.967,1.7645],[143.879,-39.9672,4.4776],[143.8796,-39.9701,0.0],[143.8843,-39.9756,1.6959],[143.8858,-39.9835,0.6258],[143.889,-39.9856,23.7297],[143.886,-39.9884,0.1912],[143.8871,-39.9915,1.524],[143.8916,-39.9935,10.9658],[143.885,-39.999,1.4229],[143.8879,-40.0057,0.2051],[143.8925,-40.0069,2.8613],[143.893,-40.0109,19.6707],[143.8917,-40.013,28.2481],[143.889,-40.0133,14.4478],[143.8892,-40.0184,21.3232],[143.8854,-40.0235,1.8328],[143.8858,-40.0276,2.4906],[143.884,-40.0282,0.615],[143.8862,-40.037,0.5488],[143.8854,-40.0427,1.024],[143.8893,-40.0491,19.7556],[143.8883,-40.0493,0.0],[143.89,-40.054,10.1656],[143.8863,-40.0589,0.0],[143.8799,-40.0627,1.2245],[143.8737,-40.0626,0.507],[143.8716,-40.064,15.962],[143.8706,-40.0619,1.0455],[143.8688,-40.0632,22.0668],[143.8663,-40.0605,1.6803],[143.8622,-40.0601,6.5549],[143.8584,-40.0621,4.3949],[143.858,-40.0643,13.9271],[143.8655,-40.0683,7.0573],[143.8635,-40.0727,3.7308],[143.8644,-40.0721,25.1854],[143.8676,-40.0748,3.4996],[143.8672,-40.0762,3.4996],[143.8688,-40.076,24.2448],[143.8671,-40.0774,0.5259],[143.8684,-40.0766,11.0449],[143.8695,-40.078,2.1444],[143.8693,-40.0798,0.0],[143.8709,-40.08,6.4169],[143.8701,-40.0819,0.0],[143.872,-40.0839,10.4811],[143.869,-40.0852,0.0],[143.8704,-40.0871,30.0561],[143.8684,-40.0874,7.6372],[143.8681,-40.0895,0.0],[143.87,-40.0913,0.9233],[143.8691,-40.0936,0.0],[143.8709,-40.0932,17.2933],[143.8694,-40.0949,0.0],[143.8761,-40.0973,11.8398],[143.8759,-40.0978,11.8398],[143.8747,-40.0988,21.401],[143.875,-40.099,21.401],[143.8744,-40.0995,21.401],[143.8753,-40.0994,21.401],[143.8758,-40.0998,14.2969],[143.8757,-40.1024,9.371],[143.8741,-40.1042,0.8528],[143.8764,-40.1063,44.2092],[143.8735,-40.1085,2.1593],[143.8745,-40.1081,35.7023],[143.8765,-40.1117,26.7466],[143.874,-40.1127,2.0156],[143.8758,-40.1135,7.6936],[143.8762,-40.1177,1.7229],[143.8827,-40.1206,8.0388]],
[[143.9669,-40.1123,0.0],[143.9669,-40.1124,0.0],[143.9668,-40.1125,0.0],[143.9668,-40.1124,0.0],[143.9669,-40.1123,0.0]],
[[143.8858,-40.0418,1.024],[143.8858,-40.0416,1.024],[143.886,-40.0417,1.024],[143.8858,-40.0418,1.024]],
[[143.8862,-40.0434,0.4126],[143.8863,-40.0435,0.4126],[143.8861,-40.0435,0.4126],[143.8862,-40.0434,0.4126]]]]}}