{"type": "Feature","bbox": [138.4758,-34.9514,138.5879,-34.85],"geometry": {"type": "MultiPolygon","coordinates": [[[[138.5879,-34.8992,35.4541],[138.5842,-34.897,21.6652],[138.5836,-34.889,13.5865],[138.5762,-34.8895,12.7055],[138.5759,-34.886,14.084],[138.5669,-34.8865,13.5162],[138.5576,-34.8808,11.1349],[138.5572,-34.872,8.6192],[138.5482,-34.8724,9.2375],[138.5467,-34.8506,6.5805],[138.5289,-34.8514,3.3708],[138.5291,-34.8555,3.8896],[138.5238,-34.8557,3.2113],[138.5234,-34.86,6.0033],[138.5202,-34.8628,5.0278],[138.5217,-34.8646,4.9952],[138.5168,-34.8664,4.8472],[138.5189,-34.8698,5.0715],[138.5029,-34.8592,3.0927],[138.5022,-34.8525,3.1039],[138.4758,-34.85,0.0],[138.4783,-34.8669,0.0],[138.4979,-34.9379,6.6347],[138.503,-34.9514,0.0],[138.5084,-34.951,2.8107],[138.5076,-34.9369,3.9403],[138.5094,-34.9356,4.5552],[138.5081,-34.935,4.5552],[138.5063,-34.9221,4.7765],[138.5112,-34.9218,6.1649],[138.517,-34.9251,7.6037],[138.5254,-34.9176,9.4333],[138.535,-34.9186,11.1047],[138.5367,-34.9177,14.979],[138.5362,-34.9163,12.237],[138.5409,-34.9151,13.2646],[138.5427,-34.9177,12.8083],[138.5477,-34.9137,13.3944],[138.5542,-34.9139,15.2234],[138.5556,-34.911,14.0332],[138.5616,-34.9124,19.1905],[138.5697,-34.9116,19.6335],[138.577,-34.9092,20.0388],[138.5879,-34.8992,35.4541]]]]}
,"properties": {"GID_2": "AUS.8.11_1","GID_0": "AUS","country": "Australia","GID_1": "AUS.8_1","state": "SouthAustralia","NL_NAME_1": "NA","county": "CharlesSturt","VARNAME_2": "NA","NL_NAME_2": "NA","TYPE_2": "City","ENGTYPE_2": "City","CC_2": "41060","HASC_2": "AU.SA.CS","name": "CharlesSturt.county","area_km2": 55.11222,"hist_schema_id": "Elevation0-9000","hist_area_km2": {"0": 45.56549,"25": 9.54673}}}