{"type":"Feature","properties":{"GID_2":"AUS.10.72_1","GID_0":"AUS","country":"Australia","GID_1":"AUS.10_1","state":"Victoria","NL_NAME_1":"NA","county":"Wellington","VARNAME_2":"NA","NL_NAME_2":"NA","TYPE_2":"Shire","ENGTYPE_2":"Shire","CC_2":"26810","HASC_2":"AU.VI.WE","name":"Wellington.county"},
"geometry":{"type": "MultiPolygon","coordinates": [[[[146.68,-38.9529,0.0],[146.6794,-38.9545,12.6298],[146.6807,-38.9553,12.299],[146.6843,-38.9538,1.7926],[146.6828,-38.9529,0.0],[146.68,-38.9529,0.0]]],
[[[146.7046,-38.949,0.0],[146.7037,-38.9507,0.0],[146.7073,-38.9512,1.7059],[146.707,-38.9496,1.7059],[146.7046,-38.949,0.0]]],
[[[146.6747,-38.9373,0.0],[146.6734,-38.9389,3.1789],[146.6781,-38.9432,0.0],[146.679,-38.9408,0.0],[146.6747,-38.9373,0.0]]],
[[[146.6591,-38.922,0.0],[146.6606,-38.9269,4.6707],[146.6653,-38.926,0.0],[146.6646,-38.9235,3.4594],[146.6591,-38.922,0.0]]],
[[[146.5417,-38.7472,0.8248],[146.5414,-38.7459,0.6449],[146.5392,-38.7477,0.7964],[146.5395,-38.7479,0.7964],[146.5417,-38.7472,0.8248]]],
[[[146.5343,-38.7158,0.8433],[146.5288,-38.7127,0.0],[146.5316,-38.7158,0.5986],[146.5365,-38.7164,0.0],[146.5343,-38.7158,0.8433]]],
[[[146.6425,-38.7471,0.0],[146.6405,-38.7442,0.0],[146.631,-38.7478,0.0],[146.6235,-38.7479,0.0],[146.6218,-38.75,1.3484],[146.628,-38.7483,0.1912],[146.635,-38.7493,4.1276],[146.6425,-38.7471,0.0]]],
[[[146.5403,-38.7457,0.7801],[146.5401,-38.7463,0.7964],[146.5413,-38.7451,0.6449],[146.5409,-38.7451,0.7801],[146.5403,-38.7457,0.7801]]],
[[[146.5488,-38.7401,0.7488],[146.5452,-38.7402,0.1633],[146.5445,-38.7448,0.3655],[146.548,-38.7455,0.7929],[146.5529,-38.7433,0.7853],[146.5533,-38.741,0.3747],[146.5461,-38.7426,0.8378],[146.5488,-38.7401,0.7488]]],
[[[146.5266,-38.7418,0.6915],[146.5278,-38.7419,1.8227],[146.5284,-38.7408,2.1533],[146.527,-38.7401,2.1533],[146.5266,-38.7418,0.6915]]],
[[[146.4651,-38.7358,0.2821],[146.464,-38.7354,0.0],[146.4641,-38.7378,0.0],[146.466,-38.7368,0.3534],[146.4651,-38.7358,0.2821]]],
[[[146.5152,-38.7221,0.326],[146.5168,-38.721,0.0],[146.5093,-38.7224,0.5619],[146.5107,-38.7247,0.6053],[146.5152,-38.7221,0.326]]],
[[[146.455,-38.7108,0.0],[146.4511,-38.7105,0.0],[146.4455,-38.7127,0.0],[146.4406,-38.721,3.2457],[146.4388,-38.7279,0.1703],[146.4483,-38.7286,0.8116],[146.4609,-38.7238,3.0463],[146.4684,-38.7173,3.0674],[146.4765,-38.7195,1.7745],[146.4783,-38.7178,1.2774],[146.4838,-38.7178,1.777],[146.4933,-38.7252,0.0],[146.5019,-38.7163,1.8498],[146.5003,-38.7153,0.6322],[146.4963,-38.7176,0.9531],[146.491,-38.7136,0.8043],[146.4784,-38.7119,2.2727],[146.4703,-38.7137,1.1831],[146.47,-38.7126,0.0],[146.4625,-38.7126,0.0],[146.4621,-38.7143,0.536],[146.4555,-38.7128,1.1032],[146.4571,-38.7117,0.0],[146.455,-38.7108,0.0]]],
[[[146.5766,-38.707,0.0],[146.5764,-38.7073,0.0],[146.5766,-38.7074,0.0],[146.5769,-38.7071,0.0],[146.5766,-38.707,0.0]]],
[[[146.5096,-38.7193,0.8321],[146.5058,-38.7195,0.0],[146.4976,-38.7281,1.2402],[146.4947,-38.7292,0.2351],[146.482,-38.7297,1.2928],[146.4803,-38.7284,0.0],[146.4821,-38.7266,0.473],[146.4776,-38.7296,1.3964],[146.4712,-38.7284,1.047],[146.4702,-38.7323,0.6889],[146.4719,-38.7355,1.5284],[146.4681,-38.7382,1.7705],[146.4651,-38.7383,0.574],[146.4648,-38.7399,0.0],[146.4714,-38.7499,0.8437],[146.4948,-38.7748,0.0],[146.5269,-38.7829,9.8297],[146.5403,-38.7903,2.17],[146.5484,-38.7905,2.5296],[146.5568,-38.7875,4.5008],[146.5647,-38.7827,2.7325],[146.5811,-38.7687,1.0795],[146.5976,-38.7595,6.8948],[146.611,-38.7562,4.4879],[146.6259,-38.7593,0.0],[146.656,-38.7554,0.0],[146.6677,-38.7478,0.0],[146.6663,-38.745,0.0],[146.6632,-38.7444,0.0],[146.6667,-38.7465,0.0],[146.6648,-38.7494,0.0],[146.6555,-38.7531,0.0],[146.6546,-38.755,0.0],[146.6212,-38.7581,0.0],[146.6154,-38.7555,3.4799],[146.6216,-38.7536,1.4959],[146.6087,-38.7512,0.638],[146.6071,-38.7495,0.0],[146.6045,-38.7521,0.891],[146.6013,-38.7521,0.0],[146.5995,-38.7477,1.1785],[146.6027,-38.746,4.4322],[146.6029,-38.7442,0.0],[146.5935,-38.743,1.4188],[146.5888,-38.747,0.1587],[146.5843,-38.7479,3.167],[146.5919,-38.7424,0.0],[146.5877,-38.7402,0.3532],[146.5859,-38.7429,0.3037],[146.5833,-38.743,1.5392],[146.5843,-38.7387,2.2589],[146.5805,-38.735,0.0],[146.5769,-38.735,2.0541],[146.5718,-38.736,0.0],[146.5717,-38.7384,0.6468],[146.5687,-38.7398,1.0961],[146.5678,-38.7423,0.5686],[146.5517,-38.7491,0.2224],[146.5515,-38.7508,0.6391],[146.5417,-38.7561,0.6128],[146.5479,-38.7571,1.4715],[146.5421,-38.7583,0.7074],[146.5387,-38.7567,0.8279],[146.5233,-38.7605,0.5926],[146.5188,-38.7601,0.6662],[146.5125,-38.7626,0.9759],[146.50060543881335,-38.76289011124846,0.8325],[146.5017,-38.7609,0.816],[146.4981,-38.7587,3.2922],[146.504,-38.7602,0.1329],[146.5087,-38.7594,0.9902],[146.5239,-38.7527,0.1746],[146.5204,-38.7501,0.3187],[146.5193,-38.7531,0.618],[146.5156,-38.7528,0.5581],[146.5135,-38.7542,1.5221],[146.5082,-38.7529,4.1499],[146.5129,-38.7463,0.8301],[146.5229,-38.7428,0.9068],[146.5254,-38.7391,3.1134],[146.5288,-38.7377,4.1693],[146.5333,-38.7389,0.0],[146.5419,-38.7284,0.0],[146.5308,-38.7294,0.0],[146.5248,-38.7282,0.943],[146.5238,-38.7287,0.1822],[146.5267,-38.7305,2.0052],[146.5235,-38.7298,1.8913],[146.519,-38.7327,0.0],[146.5211,-38.7348,2.4559],[146.5178,-38.7346,0.7448],[146.5135,-38.7375,0.4676],[146.5082,-38.7372,0.9085],[146.5059,-38.7337,4.907],[146.512,-38.7333,1.0502],[146.5156,-38.7307,1.6981],[146.5123,-38.7254,0.6053],[146.5031,-38.7268,0.9368],[146.506,-38.7252,1.0305],[146.5071,-38.7212,2.6767],[146.5096,-38.7193,0.8321]],
[[146.50060543881335,-38.76289011124846,0.8325],[146.5006,-38.7629,0.8325],[146.50058834244081,-38.76289052823315,0.8325],[146.50060543881335,-38.76289011124846,0.8325]],
[[146.50058834244081,-38.76289052823315,0.8325],[146.5002,-38.7629,0.8325],[146.499,-38.7616,0.8961],[146.50058834244081,-38.76289052823315,0.8325]]],
[[[146.5672,-38.7133,1.0857],[146.5649,-38.7139,0.0],[146.5676,-38.7159,0.0],[146.5724,-38.715,0.1409],[146.5719,-38.7147,1.0283],[146.5672,-38.7133,1.0857]]],
[[[146.6688,-38.7192,0.0],[146.6631,-38.7211,0.0],[146.6604,-38.7193,0.0],[146.6541,-38.7223,0.7687],[146.6464,-38.7233,1.8669],[146.6386,-38.7219,0.6806],[146.6351,-38.7238,0.8257],[146.6301,-38.7233,0.5209],[146.6297,-38.7246,0.1183],[146.6526,-38.7272,0.0],[146.668,-38.7208,1.2585],[146.6688,-38.7192,0.0]]],
[[[146.6883,-38.7097,1.014],[146.6888,-38.7089,0.0],[146.6871,-38.7098,0.0],[146.6869,-38.711,0.0],[146.6892,-38.712,0.1554],[146.6891,-38.71,1.014],[146.6873,-38.7103,1.014],[146.6883,-38.7097,1.014]]],
[[[146.6967,-38.7081,3.4039],[146.6927,-38.7074,0.0],[146.696,-38.7089,3.4039],[146.6931,-38.71,0.5786],[146.6923,-38.7087,0.6792],[146.6919,-38.7099,0.5786],[146.6948,-38.7105,0.7956],[146.7,-38.7096,0.0],[146.6967,-38.7081,3.4039]]],
[[[146.8808,-38.6101,0.0],[146.8789,-38.6103,0.7951],[146.8803,-38.6109,0.7951],[146.8816,-38.6106,0.0],[146.8808,-38.6101,0.0]]],
[[[146.8528,-38.6359,0.0],[146.8529,-38.6363,0.0],[146.8533,-38.6356,0.0],[146.8531,-38.6357,0.0],[146.8528,-38.6359,0.0]]],
[[[146.8755,-38.6327,0.9726],[146.8787,-38.6283,0.0],[146.8757,-38.6323,0.9726],[146.874,-38.6321,0.8295],[146.8759,-38.63,0.7572],[146.8722,-38.6317,0.2209],[146.873,-38.6328,0.8295],[146.8755,-38.6327,0.9726]]],
[[[146.8767,-38.6406,0.0],[146.879,-38.6381,0.0],[146.8723,-38.6408,0.705],[146.8639,-38.6385,0.2364],[146.8548,-38.6469,0.8582],[146.8483,-38.6492,0.0],[146.8471,-38.6515,1.6596],[146.8466,-38.6503,0.3742],[146.8421,-38.6535,0.7698],[146.8393,-38.6533,0.6884],[146.8407,-38.6525,0.1758],[146.8356,-38.6541,0.3561],[146.8366,-38.6558,0.5085],[146.8513,-38.656,4.6707],[146.8536,-38.6534,10.0809],[146.8563,-38.652,3.4407],[146.8581,-38.6527,1.7949],[146.8538,-38.6534,10.0809],[146.8534,-38.6547,1.8427],[146.8515,-38.6562,4.6707],[146.8528,-38.6559,1.8427],[146.8495,-38.6571,0.5298],[146.8447,-38.6622,2.6366],[146.8382,-38.6651,2.4332],[146.8337,-38.677,0.0],[146.8284,-38.6795,0.0],[146.8331,-38.6795,0.0],[146.8683,-38.6461,9.2751],[146.8767,-38.6406,0.0]]],
[[[146.8285,-38.6609,0.0],[146.8275,-38.6606,0.0],[146.8202,-38.6648,0.5318],[146.8244,-38.6635,1.0011],[146.8285,-38.6609,0.0]]],
[[[146.8125,-38.6674,0.564],[146.8129,-38.6677,0.5149],[146.8132,-38.6676,0.5149],[146.8129,-38.6673,0.5149],[146.8125,-38.6674,0.564]]],
[[[146.8109,-38.667,0.564],[146.8114,-38.6673,0.564],[146.8106,-38.6664,0.1727],[146.8106,-38.6667,0.1727],[146.8109,-38.667,0.564]]],
[[[146.7945,-38.6662,0.7691],[146.7935,-38.6662,0.7332],[146.7933,-38.6664,0.3682],[146.7949,-38.6671,0.1058],[146.7945,-38.6662,0.7691]]],
[[[146.7429,-38.667,0.4106],[146.738,-38.6688,0.0],[146.7434,-38.6702,0.5684],[146.7481,-38.669,0.0],[146.7469,-38.6679,0.4143],[146.7429,-38.667,0.4106]]],
[[[146.6578,-38.6587,0.3997],[146.6553,-38.6588,0.4108],[146.6534,-38.6615,1.0399],[146.6564,-38.6605,0.96],[146.6578,-38.6587,0.3997]]],
[[[146.7313,-38.6621,0.4238],[146.7289,-38.6618,0.8562],[146.7318,-38.6675,0.8089],[146.7363,-38.6689,0.3935],[146.7372,-38.6669,0.3481],[146.7313,-38.6621,0.4238]]],
[[[146.8208,-38.6612,1.3469],[146.8213,-38.6596,1.2165],[146.8116,-38.6648,0.8238],[146.8032,-38.6661,0.4679],[146.8093,-38.6661,0.9149],[146.8208,-38.6612,1.3469]]],
[[[146.7995,-38.666,0.7296],[146.7978,-38.6659,0.7738],[146.7957,-38.6668,0.1058],[146.7998,-38.6663,0.0],[146.7995,-38.666,0.7296]]],
[[[146.748,-38.6635,0.8728],[146.7468,-38.664,0.4455],[146.7498,-38.6642,0.0],[146.7495,-38.6638,0.0],[146.748,-38.6635,0.8728]]],
[[[146.8039,-38.655,0.4262],[146.7939,-38.6569,0.2768],[146.7861,-38.6692,0.5049],[146.7932,-38.6676,0.3682],[146.7913,-38.6669,0.958],[146.7908,-38.6648,0.9098],[146.7976,-38.6625,1.0575],[146.7974,-38.6609,1.3776],[146.8015,-38.6626,2.2498],[146.8057,-38.6611,1.0126],[146.8063,-38.6593,1.3052],[146.8154,-38.6594,0.2516],[146.8147,-38.6585,0.3918],[146.8109,-38.6581,0.3798],[146.8012,-38.6585,1.3278],[146.7984,-38.6573,0.7036],[146.8041,-38.6556,0.4262],[146.8089,-38.6562,0.0],[146.8039,-38.655,0.4262]]],
[[[146.7765,-38.6566,0.724],[146.7729,-38.6581,0.8374],[146.7773,-38.6573,0.724],[146.7791,-38.6601,0.2801],[146.783,-38.6582,0.0],[146.7779,-38.6572,0.7825],[146.7765,-38.6566,0.724]]],
[[[146.7608,-38.6533,1.6534],[146.7565,-38.654,0.7119],[146.7568,-38.6584,0.2703],[146.7702,-38.6613,0.0],[146.7742,-38.6603,0.5433],[146.7713,-38.6585,0.8868],[146.7719,-38.6564,0.7137],[146.7608,-38.6533,1.6534]]],
[[[146.8238,-38.6138,0.7553],[146.8244,-38.6123,0.1392],[146.8191,-38.6132,1.0027],[146.8161,-38.616,0.0],[146.8104,-38.6163,0.7688],[146.8085,-38.6186,0.0],[146.8033,-38.6203,0.4299],[146.8014,-38.6242,1.0564],[146.8021,-38.6296,1.3372],[146.8008,-38.6331,3.5498],[146.7981,-38.6334,2.1572],[146.7955,-38.6304,0.5805],[146.7913,-38.6324,0.0],[146.7948,-38.641,2.3813],[146.7941,-38.6455,0.1749],[146.8092,-38.6488,0.59],[146.8083,-38.6475,2.6305],[146.8137,-38.6481,0.8079],[146.8113,-38.649,0.7683],[146.8125,-38.6497,0.0],[146.8198,-38.6506,0.4318],[146.8229,-38.6503,0.4691],[146.8232,-38.6494,0.4504],[146.8206,-38.6503,0.4318],[146.8199,-38.6486,0.7139],[146.8147,-38.6491,0.8079],[146.8315,-38.6415,0.7969],[146.8536,-38.6344,1.6515],[146.8595,-38.6306,1.8587],[146.8694,-38.6295,1.7111],[146.8782,-38.6265,0.3539],[146.8806,-38.617,0.4505],[146.8794,-38.615,0.0],[146.8659,-38.6164,2.1543],[146.8514,-38.6124,0.2505],[146.845,-38.6141,0.5998],[146.8436,-38.6175,0.0],[146.8281,-38.616,0.3926],[146.827,-38.6178,0.3733],[146.8315,-38.6193,0.9599],[146.8253,-38.6207,0.7496],[146.8238,-38.6138,0.7553]]],
[[[146.6813,-38.6728,0.3721],[146.6805,-38.673,0.5975],[146.6845,-38.6749,0.5192],[146.6834,-38.6738,0.6366],[146.6813,-38.6728,0.3721]]],
[[[146.655,-38.673,0.4004],[146.6547,-38.6694,0.0],[146.6512,-38.6723,0.0],[146.6516,-38.6734,0.0],[146.655,-38.673,0.4004]]],
[[[146.7455,-38.6728,0.0],[146.7458,-38.6732,0.0],[146.7471,-38.6716,0.0],[146.746,-38.6717,0.0],[146.7455,-38.6728,0.0]]],
[[[146.7604,-38.67,0.6969],[146.7589,-38.6701,0.3248],[146.757,-38.6726,0.3007],[146.7579,-38.6729,0.7726],[146.7604,-38.67,0.6969]]],
[[[146.5559,-38.7036,0.6969],[146.5537,-38.7024,0.7169],[146.5516,-38.7037,0.877],[146.5617,-38.7051,0.7733],[146.5603,-38.7032,0.782],[146.5559,-38.7036,0.6969]]],
[[[146.5739,-38.7043,0.0],[146.5733,-38.7007,0.0],[146.5724,-38.7002,0.0],[146.573,-38.7017,0.0],[146.5712,-38.7047,0.0],[146.5739,-38.7043,0.0]]],
[[[146.5804,-38.7021,0.0],[146.5798,-38.7024,0.0],[146.579,-38.702,0.0],[146.5798,-38.7027,0.0],[146.5804,-38.7021,0.0]]],
[[[146.7028,-38.7026,0.0],[146.704,-38.7024,0.0],[146.7044,-38.7022,0.0],[146.7013,-38.7026,0.0],[146.7028,-38.7026,0.0]]],
[[[146.6894,-38.7006,0.5769],[146.6872,-38.6994,0.0],[146.6875,-38.7003,0.5729],[146.6888,-38.7008,0.5729],[146.6899,-38.7007,0.5769],[146.6894,-38.7006,0.5769]]],
[[[146.5697,-38.6909,0.0],[146.5709,-38.6909,0.1767],[146.5709,-38.6898,0.1767],[146.5706,-38.6898,0.1767],[146.5697,-38.6909,0.0]]],
[[[146.5934,-38.6899,0.0],[146.5938,-38.688,0.157],[146.5877,-38.6906,0.0],[146.589,-38.692,0.357],[146.5934,-38.6899,0.0]]],
[[[146.8035,-38.6769,2.868],[146.7992,-38.6758,0.0],[146.7945,-38.6767,4.3136],[146.767,-38.6866,0.0],[146.7529,-38.6897,0.0],[146.7593,-38.6913,0.0],[146.7773,-38.6833,0.0],[146.7885,-38.6806,0.0],[146.8101,-38.6813,0.0],[146.825,-38.6843,0.0],[146.8186,-38.6847,0.0],[146.821,-38.6852,0.0],[146.8253,-38.6851,0.0],[146.8263,-38.6841,0.0],[146.8234,-38.6813,0.0],[146.8236,-38.6826,0.0],[146.8204,-38.6826,0.0],[146.8063,-38.6798,0.0],[146.8197,-38.6793,0.0],[146.822,-38.6778,0.0],[146.81,-38.6775,1.7178],[146.8136,-38.6767,0.0],[146.8125,-38.6761,0.0],[146.8035,-38.6769,2.868]]],
[[[146.7296,-38.6849,0.2024],[146.7279,-38.6842,0.0],[146.7293,-38.686,0.2024],[146.7328,-38.6852,0.0],[146.7322,-38.6846,0.0],[146.7296,-38.6849,0.2024]]],
[[[146.7241,-38.6855,0.4174],[146.724,-38.6836,0.6191],[146.719,-38.6851,0.0],[146.7219,-38.6862,0.4207],[146.7241,-38.6855,0.4174]]],
[[[146.7099,-38.677,0.6675],[146.7075,-38.6768,0.2062],[146.6968,-38.6845,0.1571],[146.6962,-38.6908,0.3447],[146.698,-38.693,0.0],[146.7156,-38.6874,0.2424],[146.7149,-38.6859,0.1537],[146.7118,-38.687,1.2407],[146.7085,-38.6857,1.6554],[146.713,-38.6846,0.8384],[146.71,-38.6834,1.7823],[146.7098,-38.6819,1.0363],[146.7118,-38.6817,0.8347],[146.7099,-38.677,0.6675]]],
[[[146.733,-38.682,0.0],[146.7327,-38.6822,0.0],[146.7338,-38.6817,0.0],[146.7337,-38.6817,0.0],[146.733,-38.682,0.0]]],
[[[146.6883,-38.6812,0.4314],[146.6885,-38.6815,0.4298],[146.6917,-38.6808,0.1842],[146.6911,-38.6807,0.8087],[146.6883,-38.6812,0.4314]]],
[[[146.6886,-38.6865,0.0],[146.6895,-38.6865,0.0],[146.6899,-38.6852,0.0],[146.689,-38.6852,0.3456],[146.6886,-38.6865,0.0]]],
[[[146.6503,-38.6832,0.4863],[146.6461,-38.6835,0.3873],[146.6434,-38.6845,0.0],[146.6422,-38.6862,0.5346],[146.6428,-38.6874,0.5915],[146.6449,-38.6878,0.0],[146.6428,-38.6868,0.5915],[146.6436,-38.6848,0.5346],[146.648,-38.6834,0.3873],[146.6504,-38.6846,0.8292],[146.6503,-38.6832,0.4863]]],
[[[146.6535,-38.6855,0.7954],[146.651,-38.6862,0.8292],[146.6575,-38.6859,0.4348],[146.6563,-38.6854,0.7023],[146.6535,-38.6855,0.7954]]],
[[[146.6855,-38.6859,0.3801],[146.6859,-38.6862,0.3801],[146.686,-38.6851,0.3801],[146.6857,-38.6853,0.3801],[146.6855,-38.6859,0.3801]]],
[[[146.6081,-38.684,0.5314],[146.6013,-38.6841,1.2131],[146.5985,-38.6857,0.0],[146.6077,-38.6863,0.0],[146.6081,-38.684,0.5314]]],
[[[146.6809,-38.6769,0.9272],[146.675,-38.6771,0.4803],[146.6695,-38.6808,1.5613],[146.6689,-38.6842,2.9832],[146.679,-38.6897,0.0],[146.6836,-38.6896,0.0],[146.6819,-38.6853,0.6152],[146.6766,-38.6844,1.0041],[146.6786,-38.6819,0.8302],[146.6782,-38.6791,0.8406],[146.6854,-38.6779,0.1914],[146.6809,-38.6769,0.9272]]],
[[[146.5772,-38.7008,0.0],[146.5783,-38.6998,0.6019],[146.5773,-38.6982,0.0],[146.5768,-38.6997,0.0],[146.5772,-38.7008,0.0]]],
[[[146.69,-38.697,0.7141],[146.6881,-38.6966,0.3655],[146.6868,-38.6981,0.0],[146.6868,-38.6987,0.0],[146.6874,-38.6977,0.3655],[146.69,-38.697,0.7141]]],
[[[146.5709,-38.6979,2.1886],[146.5703,-38.6962,0.0],[146.5631,-38.6972,0.0],[146.5673,-38.6989,1.8394],[146.5709,-38.6979,2.1886]]],
[[[146.6268,-38.6907,0.0],[146.6254,-38.6906,0.0],[146.6218,-38.6949,0.3159],[146.6302,-38.6978,0.853],[146.634,-38.6972,0.1609],[146.6281,-38.6948,0.7968],[146.6261,-38.6924,0.4165],[146.6268,-38.6907,0.0]]],
[[[146.6187,-38.6982,0.9881],[146.606,-38.6992,0.0],[146.5999,-38.7019,0.2918],[146.5883,-38.7102,0.0],[146.5891,-38.7122,0.3976],[146.5858,-38.7131,0.0],[146.5854,-38.716,0.0],[146.6028,-38.7269,0.0],[146.6049,-38.7241,0.1089],[146.6005,-38.7245,0.101],[146.5956,-38.7201,0.6742],[146.6014,-38.7181,0.5979],[146.601,-38.7165,0.3678],[146.6064,-38.7181,1.3324],[146.5992,-38.7195,0.0],[146.6018,-38.7224,0.2846],[146.6081,-38.7239,0.0],[146.615,-38.7211,2.4567],[146.6126,-38.7226,0.5046],[146.6176,-38.7238,0.0],[146.6217,-38.7215,0.6258],[146.6221,-38.7234,0.2811],[146.6183,-38.7241,0.0],[146.6263,-38.7246,0.0],[146.6288,-38.7241,0.1736],[146.6264,-38.724,0.3694],[146.6307,-38.7214,0.7704],[146.6336,-38.721,1.9473],[146.6322,-38.7226,0.7792],[146.6332,-38.7229,0.7792],[146.6389,-38.72,0.31],[146.6529,-38.7189,0.0],[146.6599,-38.715,3.1717],[146.673,-38.715,0.0],[146.6776,-38.7083,0.0],[146.6745,-38.7096,0.9763],[146.6759,-38.7069,0.8008],[146.6687,-38.7063,0.7322],[146.6669,-38.7081,0.8645],[146.6628,-38.7084,0.8531],[146.6622,-38.7075,5.9231],[146.6728,-38.7031,0.0],[146.6643,-38.7016,0.6402],[146.6564,-38.7022,0.0],[146.6483,-38.7058,0.7717],[146.6483,-38.7043,2.4912],[146.6533,-38.7011,0.0],[146.6429,-38.6996,2.0849],[146.6383,-38.7019,1.9617],[146.6373,-38.7064,3.1475],[146.6303,-38.7058,0.7785],[146.6274,-38.7051,0.963],[146.6277,-38.7034,0.8681],[146.6358,-38.7017,0.6498],[146.6368,-38.6988,0.8295],[146.6284,-38.702,0.5886],[146.6144,-38.7011,0.9313],[146.6151,-38.699,0.4259],[146.6187,-38.6982,0.9881]]],
[[[146.732,-38.6962,0.0],[146.7258,-38.6962,0.0],[146.721,-38.6985,0.0],[146.7213,-38.7008,0.0],[146.708,-38.7099,0.0],[146.7022,-38.711,0.0],[146.7006,-38.7122,0.0],[146.7017,-38.713,3.1762],[146.6979,-38.7142,1.503],[146.6867,-38.7267,0.5015],[146.6815,-38.7279,0.0],[146.6797,-38.7257,0.0],[146.6794,-38.7271,0.0],[146.6826,-38.7286,0.0],[146.6853,-38.728,1.859],[146.7124,-38.7074,0.0],[146.7312,-38.6978,0.0],[146.732,-38.6962,0.0]]],
[[[146.6072,-38.6817,0.6183],[146.608,-38.6815,0.6183],[146.6075,-38.6801,0.6651],[146.6059,-38.681,0.8235],[146.6072,-38.6817,0.6183]]],
[[[146.6297,-38.68,0.0],[146.631,-38.6788,0.0],[146.6266,-38.6798,0.0],[146.6279,-38.6803,0.0],[146.6297,-38.68,0.0]]],
[[[146.8236,-38.6795,0.0],[146.8239,-38.6801,0.0],[146.8228,-38.6775,0.0],[146.8228,-38.6777,0.0],[146.8236,-38.6795,0.0]]],
[[[146.8037,-38.6764,2.868],[146.8043,-38.6768,2.868],[146.8042,-38.6764,2.868],[146.8025,-38.6759,0.0],[146.8027,-38.6762,0.0],[146.8037,-38.6764,2.868]]],
[[[146.7083,-38.6763,0.4801],[146.7077,-38.6763,0.2062],[146.7078,-38.6764,0.2062],[146.7083,-38.6763,0.4801]]],
[[[146.7583,-38.6749,0.2466],[146.7561,-38.6726,0.3007],[146.7536,-38.6755,0.6929],[146.7553,-38.6765,0.1623],[146.7625,-38.6731,0.1479],[146.7583,-38.6749,0.2466]]],
[[[146.7094,-38.676,0.0],[146.7089,-38.6762,0.0],[146.7104,-38.6758,0.0],[146.7102,-38.6758,0.0],[146.7094,-38.676,0.0]]],
[[[146.7486,-38.6767,0.3851],[146.7508,-38.6762,0.797],[146.7512,-38.6742,0.0],[146.7484,-38.6763,0.3851],[146.7486,-38.6767,0.3851]]],
[[[146.7343,-38.6782,0.4277],[146.7334,-38.6784,0.4277],[146.7349,-38.6781,0.2252],[146.7343,-38.6782,0.4277]]],
[[[146.7285,-38.6788,0.8558],[146.73,-38.6785,0.8558],[146.7294,-38.6768,0.8095],[146.7274,-38.6786,0.8306],[146.7285,-38.6788,0.8558]]],
[[[146.7445,-38.6781,0.7419],[146.7456,-38.6779,0.3599],[146.7439,-38.6762,0.4223],[146.7452,-38.6746,0.3145],[146.7397,-38.6791,0.2106],[146.7439,-38.6795,0.7419],[146.7445,-38.6781,0.7419]]],
[[[146.7301,-38.6649,0.9445],[146.7278,-38.6612,0.0],[146.7252,-38.6658,0.2125],[146.7207,-38.6668,0.0],[146.7221,-38.6733,0.0],[146.7198,-38.6769,0.0],[146.7099,-38.6765,0.6675],[146.7129,-38.6784,1.1458],[146.7149,-38.6838,0.5002],[146.7252,-38.677,0.6312],[146.7266,-38.6723,0.928],[146.729,-38.6729,1.1423],[146.7291,-38.675,1.0758],[146.7315,-38.6768,0.8316],[146.7394,-38.673,0.0],[146.7303,-38.6696,0.968],[146.7275,-38.6665,0.864],[146.7278,-38.6646,0.928],[146.7301,-38.6649,0.9445]]],
[[[146.6531,-37.1208,1420.2876],[146.6516,-37.12,1526.4429],[146.6493,-37.1236,1565.9463],[146.6383,-37.1281,1551.2014],[146.6383,-37.1324,1495.9404],[146.6415,-37.1365,1399.8611],[146.6406,-37.1419,1589.5959],[146.6454,-37.1499,1550.3533],[146.6441,-37.1559,1612.2028],[146.6474,-37.1626,1645.0405],[146.5471,-37.3688,575.2047],[146.4358,-37.6182,1377.5846],[146.4439,-37.6121,1351.4044],[146.4467,-37.6146,1322.2246],[146.453,-37.6153,1270.6766],[146.4597,-37.6235,1219.0118],[146.459,-37.6254,1220.2614],[146.4607,-37.6282,1285.2539],[146.4642,-37.6305,1245.045],[146.467,-37.6351,1290.5983],[146.4688,-37.6347,1243.8948],[146.4744,-37.6408,1250.8358],[146.4774,-37.6397,1230.2516],[146.4882,-37.6421,1290.7517],[146.4955,-37.649,1274.5261],[146.4968,-37.6545,1286.5562],[146.5015,-37.6621,1268.1248],[146.5056,-37.6649,1238.6558],[146.5071,-37.6702,1219.9181],[146.5131,-37.6715,1274.4254],[146.5162,-37.6784,1269.0332],[146.5144,-37.6811,1266.2812],[146.5122,-37.681399999999996,1244.3234],[146.5133,-37.6849,1247.9036],[146.5073,-37.6889,1321.1987],[146.5032,-37.6892,1342.1318],[146.5024,-37.6908,1369.7207],[146.5047,-37.6951,1422.4155],[146.4733,-37.9946,178.6006],[146.482,-37.9919,187.1212],[146.4827,-37.9879,230.9266],[146.4905,-37.9863,198.0046],[146.4912,-37.9837,206.1172],[146.493,-37.9844,168.8917],[146.4937,-37.9884,255.4735],[146.4976,-37.9889,173.8999],[146.4995,-37.9867,185.9734],[146.502,-37.9885,198.9588],[146.5038,-37.9858,201.1808],[146.5144,-37.9837,172.8175],[146.5131,-37.9796,165.7427],[146.5166,-37.9787,177.9696],[146.5172,-37.9764,173.2262],[146.5193,-37.9755,170.8946],[146.524,-37.9637,169.4697],[146.5322,-37.9638,164.8789],[146.534,-37.9657,155.5575],[146.533,-37.9675,159.8773],[146.5354,-37.9695,159.2799],[146.5382,-37.965,168.1031],[146.5438,-37.9678,166.4805],[146.5471,-37.9676,168.0659],[146.5455,-37.9726,203.4758],[146.5466,-37.9743,156.0443],[146.545,-37.9753,212.5637],[146.5524,-37.9766,157.0845],[146.5511,-37.9713,194.4932],[146.5539,-37.9712,171.2863],[146.5572,-37.9755,151.6645],[146.5627,-37.9785,146.2838],[146.5641,-37.9839,136.4253],[146.5677,-37.9824,149.0369],[146.5712,-37.9838,131.9316],[146.5714,-37.9825,187.3242],[146.5793,-37.9794,153.6947],[146.5819,-37.976,146.2252],[146.5884,-37.9779,176.6848],[146.5908,-37.9745,172.429],[146.5956,-37.9754,129.7402],[146.5968,-37.9799,133.4857],[146.5986,-37.9802,133.4857],[146.5998,-37.9778,169.6708],[146.5986,-37.9739,206.8077],[146.6057,-37.9748,147.9383],[146.607,-37.9715,119.6798],[146.6134,-37.9737,133.7239],[146.6099,-37.9766,132.1059],[146.6099,-37.9789,121.3245],[146.6117,-37.9797,140.0723],[146.615,-37.9773,166.8678],[146.6178,-37.9716,115.7355],[146.622,-37.9728,130.0212],[146.6266,-37.9712,144.4163],[146.6283,-37.9738,108.5288],[146.6244,-37.9754,110.6866],[146.6377,-37.9951,117.2044],[146.6446,-37.9982,75.9806],[146.6556,-37.9968,65.1586],[146.6528,-38.0108,75.5518],[146.6265,-38.035,101.3114],[146.6243,-38.0492,82.4073],[146.6631,-38.0542,56.8389],[146.6624,-38.0575,57.8563],[146.6535,-38.0612,60.071],[146.651,-38.0734,55.3055],[146.6162,-38.0687,70.3565],[146.5936,-38.1021,54.2103],[146.5914,-38.1073,53.4921],[146.5932,-38.1092,52.0548],[146.5906,-38.1147,48.6676],[146.5837,-38.1165,45.3771],[146.5829,-38.1187,44.9764],[146.5847,-38.1203,44.7646],[146.5813,-38.1231,42.7362],[146.5797,-38.1227,44.491],[146.5788,-38.1246,40.6537],[146.5799,-38.1261,40.6537],[146.5779,-38.1264,40.0641],[146.5795,-38.1282,38.5914],[146.5784,-38.1296,37.8371],[146.5811,-38.1296,38.9871],[146.5798,-38.1312,37.8371],[146.5814,-38.132,37.2059],[146.5808,-38.1335,36.7454],[146.579,-38.134,35.943],[146.5814,-38.1382,33.1518],[146.5801,-38.1387,33.2069],[146.5838,-38.1388,33.2184],[146.5844,-38.144,31.3344],[146.5768,-38.1433,28.3559],[146.5773,-38.1454,28.0091],[146.5719,-38.1467,29.0755],[146.5737,-38.1492,26.3074],[146.5712,-38.1534,25.7937],[146.5794,-38.1558,23.7432],[146.582,-38.1543,27.7103],[146.5896,-38.1541,25.2813],[146.5898,-38.1557,24.6102],[146.5923,-38.1558,25.9912],[146.5934,-38.1577,23.6754],[146.5965,-38.1558,23.3084],[146.5963,-38.1579,22.6043],[146.6003,-38.1619,23.4211],[146.6024,-38.1592,22.3854],[146.603,-38.1608,23.3944],[146.6051,-38.1585,22.6531],[146.6046,-38.1612,23.3944],[146.6065,-38.1615,22.8222],[146.6053,-38.1633,22.0492],[146.6137,-38.1592,21.4918],[146.6243,-38.1578,20.9537],[146.6262,-38.1545,21.3055],[146.625,-38.1531,21.3822],[146.6289,-38.1533,20.2415],[146.6308,-38.1516,20.9278],[146.6327,-38.1529,20.381],[146.634,-38.1504,20.6561],[146.6381,-38.1493,20.4044],[146.6372,-38.1458,21.9112],[146.6473,-38.1474,21.5958],[146.6473,-38.1486,20.5566],[146.6447,-38.1482,19.7779],[146.645,-38.1503,19.6312],[146.6471,-38.1519,19.9474],[146.6503,-38.1513,19.6781],[146.6514,-38.1529,19.6781],[146.6575,-38.151,21.3002],[146.6626,-38.1528,19.4379],[146.6625,-38.1513,19.7289],[146.6651,-38.1509,19.4156],[146.6655,-38.1521,19.6499],[146.6631,-38.153,18.9747],[146.6654,-38.1538,18.9583],[146.667,-38.1525,19.3603],[146.6673,-38.155,19.2281],[146.6686,-38.1547,19.2281],[146.6682,-38.1521,19.3603],[146.6727,-38.1517,18.7841],[146.6753,-38.1538,20.0004],[146.6826,-38.1527,23.0927],[146.6874,-38.1497,18.4561],[146.6871,-38.1514,18.2825],[146.6894,-38.1507,17.3599],[146.6936,-38.1542,20.0448],[146.6933,-38.1558,25.597],[146.6972,-38.1566,19.6],[146.7009,-38.1542,23.9223],[146.7005,-38.1505,17.8615],[146.7023,-38.1491,17.7913],[146.7048,-38.1512,20.6359],[146.7046,-38.1531,21.003],[146.7079,-38.1529,17.7803],[146.712,-38.1552,22.8254],[146.7092,-38.162,30.3994],[146.7106,-38.1654,26.129],[146.7048,-38.1776,33.2525],[146.6969,-38.182,35.3303],[146.6944,-38.1856,38.5144],[146.6953,-38.1876,40.5876],[146.6893,-38.1918,44.3808],[146.6842,-38.2009,50.2251],[146.68,-38.2024,52.9497],[146.6787,-38.2068,53.7605],[146.6823,-38.21,56.1116],[146.6807,-38.2126,56.4963],[146.6758,-38.2173,59.287],[146.6683,-38.2174,70.3072],[146.6647,-38.2223,65.6234],[146.6609,-38.2213,64.4594],[146.6562,-38.2238,70.0817],[146.6551,-38.2254,67.6388],[146.6565,-38.2269,71.7198],[146.6543,-38.2298,72.8312],[146.6572,-38.2329,73.1572],[146.6556,-38.2344,72.7381],[146.6569,-38.2403,77.5694],[146.6496,-38.2425,78.3688],[146.6466,-38.2482,84.3808],[146.6427,-38.2482,83.3834],[146.6343,-38.2551,88.6028],[146.6321,-38.2584,92.1442],[146.6334,-38.2597,93.3285],[146.6318,-38.2647,97.2532],[146.6291,-38.2657,110.8128],[146.6278,-38.2691,98.272],[146.6294,-38.2693,98.272],[146.6293,-38.2738,100.7339],[146.6238,-38.2814,111.709],[146.6251,-38.2881,113.3088],[146.6226,-38.2924,118.2141],[146.6182,-38.2947,123.4761],[146.6144,-38.3001,130.4912],[146.6086,-38.3009,159.9745],[146.6007,-38.3097,147.8621],[146.5976,-38.3104,166.0749],[146.5967,-38.3155,174.4044],[146.5998,-38.3207,181.7184],[146.599,-38.3215,178.528],[146.602,-38.3242,185.5808],[146.6005,-38.3309,194.4847],[146.6022,-38.335,196.4626],[146.5995,-38.337,199.5867],[146.6008,-38.3392,207.0135],[146.5988,-38.3396,231.4504],[146.598,-38.3423,217.6992],[146.5934,-38.3443,247.0845],[146.5957,-38.3463,250.416],[146.5943,-38.3504,243.8961],[146.5905,-38.3545,331.4626],[146.5918,-38.3546,247.2695],[146.5862,-38.3742,359.4719],[146.579,-38.4144,563.0267],[146.5657,-38.4126,678.0549],[146.567,-38.4162,673.067],[146.5663,-38.4205,730.6],[146.563,-38.4224,667.8722],[146.5686,-38.4248,644.6246],[146.5652,-38.4293,643.3763],[146.547,-38.431399999999996,599.7372],[146.5323,-38.4298,579.0589],[146.5261,-38.4321,555.1702],[146.5279,-38.4349,541.7409],[146.5273,-38.4385,572.1949],[146.5223,-38.4377,527.1737],[146.5088,-38.4424,607.9586],[146.4998,-38.442,544.8387],[146.4979,-38.446,566.2162],[146.4948,-38.4454,566.8176],[146.4915,-38.4471,583.9874],[146.4894,-38.4443,582.2573],[146.492,-38.4413,537.9909],[146.4892,-38.4393,462.6613],[146.4864,-38.4422,527.1555],[146.4811,-38.4441,508.2879],[146.4847,-38.4491,544.0905],[146.4807,-38.45,537.3853],[146.4854,-38.4525,549.4568],[146.4828,-38.4559,582.9042],[146.4759,-38.4563,615.0071],[146.4726,-38.4592,570.3848],[146.4592,-38.4592,547.049],[146.4573,-38.4602,527.6194],[146.4567,-38.4655,521.7424],[146.4482,-38.4632,479.6869],[146.4448,-38.466,480.4522],[146.4312,-38.4694,440.1922],[146.4241,-38.473,448.1626],[146.4276,-38.4745,464.6026],[146.4245,-38.4776,448.9396],[146.4262,-38.4798,411.1374],[146.4239,-38.4825,425.8888],[146.4122,-38.4868,390.4849],[146.4082,-38.487,396.7928],[146.4069,-38.4846,408.0793],[146.4036,-38.4853,401.6663],[146.3991,-38.4915,396.6009],[146.3952,-38.4925,396.0325],[146.3933,-38.4949,376.299],[146.3896,-38.4943,382.0307],[146.3869,-38.4963,389.2671],[146.3803,-38.4975,414.3533],[146.384,-38.504,359.0189],[146.3806,-38.5045,346.4922],[146.3786,-38.5077,403.477],[146.3733,-38.5076,375.0756],[146.3718,-38.5113,402.5955],[146.3669,-38.5135,434.5847],[146.3689,-38.5157,447.124],[146.3676,-38.5204,450.2716],[146.3701,-38.5245,436.2823],[146.3748,-38.5269,491.2434],[146.3732,-38.529,484.5916],[146.3698,-38.5295,428.4808],[146.3705,-38.5319,517.1376],[146.3543,-38.5365,501.5041],[146.3495,-38.5353,505.3765],[146.3444,-38.5363,490.173],[146.3403,-38.5341,486.7505],[146.331,-38.5325,513.5485],[146.326,-38.5292,459.257],[146.3273,-38.5308,499.8437],[146.326,-38.532,517.3477],[146.3268,-38.5338,512.2281],[146.3211,-38.5352,524.3115],[146.32,-38.5379,492.4608],[146.3216,-38.5387,451.5656],[146.3194,-38.5393,474.7166],[146.3176,-38.5428,483.9234],[146.3124,-38.5439,487.9065],[146.3143,-38.5487,463.0406],[146.3113,-38.5509,461.222],[146.3159,-38.5541,436.3219],[146.3149,-38.5553,458.5551],[146.3168,-38.5569,475.5847],[146.3167,-38.56,510.6931],[146.3148,-38.5598,515.4281],[146.3127,-38.5619,498.2802],[146.3172,-38.562,501.926],[146.3221,-38.5648,503.4411],[146.3301,-38.564,471.8135],[146.3293,-38.566,458.4681],[146.336,-38.567,391.9804],[146.3348,-38.5684,468.7095],[146.3374,-38.5703,417.9331],[146.3456,-38.5702,423.0735],[146.3479,-38.5745,358.2261],[146.3518,-38.5722,343.6602],[146.3529,-38.5738,358.0298],[146.3609,-38.574,351.4402],[146.3619,-38.5759,354.1192],[146.3677,-38.5767,332.8301],[146.3643,-38.5795,305.0769],[146.3658,-38.5815,295.5759],[146.3702,-38.5821,279.1809],[146.3706,-38.5851,217.9666],[146.368,-38.5866,232.1176],[146.3688,-38.588,197.0813],[146.3673,-38.5893,212.9161],[146.3688,-38.5919,188.5781],[146.371,-38.5908,192.3547],[146.3761,-38.5925,237.1488],[146.3784,-38.5898,247.7021],[146.3854,-38.592,228.9108],[146.3866,-38.5951,218.4921],[146.3938,-38.5984,207.5037],[146.405,-38.597,190.3838],[146.4072,-38.5989,194.4297],[146.4101,-38.5985,163.8241],[146.4092,-38.6026,169.3114],[146.4277,-38.605,142.8736],[146.4281,-38.6026,113.1968],[146.4398,-38.604,127.0785],[146.4403,-38.6011,126.6686],[146.4487,-38.6021,128.868],[146.4497,-38.5968,111.2849],[146.4631,-38.5985,110.3818],[146.4615,-38.6074,202.0432],[146.4762,-38.6093,211.4289],[146.4755,-38.6113,260.2993],[146.4786,-38.6114,244.1097],[146.4781,-38.614,233.1987],[146.4927,-38.6159,231.2469],[146.4933,-38.6134,269.6706],[146.5256,-38.6193,141.2185],[146.525,-38.6226,53.3816],[146.5284,-38.6231,34.2809],[146.5204,-38.6635,4.2171],[146.5259,-38.6642,3.8679],[146.5215,-38.689,1.1599],[146.5228,-38.6901,0.7037],[146.5232,-38.689,1.2852],[146.5306,-38.6889,1.0929],[146.5332,-38.6865,0.9639],[146.5346,-38.6892,0.8167],[146.5372,-38.6894,0.8029],[146.5412,-38.6854,0.8817],[146.5415,-38.6877,0.7192],[146.5391,-38.689,0.8812],[146.5403,-38.6903,0.9788],[146.539,-38.6917,0.8683],[146.5392,-38.6983,1.0673],[146.5512,-38.7038,0.5968],[146.5513,-38.7029,1.2998],[146.553,-38.7024,1.1798],[146.5508,-38.6978,0.559],[146.5511,-38.6915,0.7605],[146.5528,-38.6893,0.8946],[146.5554,-38.6887,0.742],[146.5559,-38.6944,1.5516],[146.5605,-38.6947,0.1935],[146.5625,-38.6981,0.0],[146.5624,-38.6946,0.7772],[146.566,-38.6943,0.0],[146.5667,-38.6911,0.6549],[146.5652,-38.688,1.6679],[146.561,-38.686,0.901],[146.5631,-38.6832,0.5391],[146.5546,-38.6867,0.7371],[146.5508,-38.6856,0.6578],[146.5467,-38.6866,0.7557],[146.5465,-38.6845,1.1185],[146.5546,-38.6836,0.9671],[146.5613,-38.6806,0.4486],[146.5621,-38.6798,0.1717],[146.5597,-38.6794,0.9847],[146.5625,-38.6782,0.9716],[146.5692,-38.6798,0.0],[146.5721,-38.6833,0.1785],[146.5714,-38.6775,0.874],[146.5752,-38.6791,1.0449],[146.5768,-38.6921,0.5467],[146.5771,-38.6824,0.7566],[146.5804,-38.6795,0.9579],[146.58,-38.6814,0.6584],[146.5838,-38.6814,0.7264],[146.5812,-38.683,1.4947],[146.5816,-38.6853,0.5609],[146.5848,-38.6867,0.7483],[146.5814,-38.688,2.2197],[146.5814,-38.694,1.3933],[146.5798,-38.6962,0.0],[146.5827,-38.6985,0.0],[146.5873,-38.6932,0.402],[146.5821,-38.6917,0.9465],[146.5893,-38.6853,0.9863],[146.5937,-38.6848,0.132],[146.5905,-38.6838,1.0229],[146.5929,-38.6826,0.1587],[146.5861,-38.6832,1.54],[146.5853,-38.6815,0.5621],[146.587,-38.6811,0.6379],[146.5875,-38.6773,1.458],[146.5844,-38.6771,1.7363],[146.6024,-38.6766,1.0688],[146.5968,-38.678,1.2081],[146.6007,-38.6796,0.843],[146.6098,-38.6778,0.7058],[146.6076,-38.6753,0.9036],[146.6411,-38.6689,2.087],[146.6492,-38.6641,5.8797],[146.6528,-38.6588,0.4326],[146.6519,-38.6547,2.3894],[146.6473,-38.6545,1.7753],[146.6459,-38.6507,2.8795],[146.6473,-38.6467,1.6684],[146.6531,-38.643,0.5692],[146.6564,-38.6471,0.4689],[146.6597,-38.6467,0.6485],[146.6663,-38.6532,0.0],[146.6707,-38.663,1.6935],[146.6701,-38.6654,1.943],[146.6663,-38.6669,0.0],[146.6654,-38.6702,0.4829],[146.6575,-38.6714,0.8468],[146.6616,-38.6719,0.9079],[146.6673,-38.6701,0.8625],[146.6786,-38.6704,0.8226],[146.6929,-38.6757,0.6852],[146.6977,-38.6753,0.0],[146.6944,-38.6729,2.1128],[146.6961,-38.67,0.0],[146.6993,-38.6692,1.1524],[146.7042,-38.6648,0.0],[146.7075,-38.6647,0.0],[146.7113,-38.667,0.5205],[146.7121,-38.6632,0.0],[146.7164,-38.661,0.0],[146.7125,-38.6536,0.4796],[146.7129,-38.6478,0.8374],[146.7223,-38.6483,2.2769],[146.7233,-38.6489,2.2769],[146.7211,-38.6534,0.0],[146.7241,-38.6532,0.0],[146.7313,-38.6604,0.8453],[146.7422,-38.6649,0.0],[146.7392,-38.6621,0.8949],[146.7429,-38.6606,0.9816],[146.7463,-38.6627,0.8536],[146.7493,-38.6611,0.4882],[146.7511,-38.655,0.8153],[146.7537,-38.6525,0.8623],[146.758,-38.651,0.8782],[146.767,-38.6542,0.8073],[146.7766,-38.6542,0.7906],[146.7769,-38.654,0.7906],[146.7746,-38.6535,0.7059],[146.768,-38.6533,0.694],[146.7698,-38.6498,0.7287],[146.7665,-38.6501,0.9327],[146.7777,-38.6449,1.3958],[146.7796,-38.6463,0.4006],[146.7859,-38.6462,1.6624],[146.7871,-38.6442,0.6847],[146.786,-38.6435,0.8471],[146.7901,-38.6406,1.343],[146.787,-38.6364,0.7646],[146.7865,-38.6326,0.5029],[146.7949,-38.6253,0.2012],[146.7902,-38.6257,0.9155],[146.7847,-38.6228,1.0864],[146.789,-38.6228,1.1729],[146.7914,-38.6244,0.8506],[146.7958,-38.623,0.5894],[146.7976,-38.6264,0.2391],[146.7964,-38.6275,0.2391],[146.7993,-38.6287,0.2381],[146.7985,-38.6248,0.4247],[146.8,-38.6215,0.6705],[146.7981,-38.6202,0.7631],[146.8,-38.6207,0.5726],[146.8073,-38.6174,0.4584],[146.8087,-38.615,0.0],[146.8145,-38.6138,0.4173],[146.8156,-38.6118,0.4965],[146.8253,-38.6097,0.0],[146.8277,-38.6102,1.1039],[146.8284,-38.6131,0.0],[146.8312,-38.6125,0.7956],[146.8335,-38.6145,0.8124],[146.842,-38.6164,0.0],[146.844,-38.6091,0.7447],[146.8474,-38.6087,0.3459],[146.844,-38.6048,0.3671],[146.8479,-38.6065,0.0],[146.8709,-38.6071,1.2022],[146.8726,-38.6089,0.4175],[146.8826,-38.6046,0.0],[146.8874,-38.6065,0.0],[146.8842,-38.6114,0.153],[146.8864,-38.6144,0.3921],[146.8874,-38.6132,0.8543],[146.8849,-38.6117,0.7997],[146.8876,-38.61,0.9145],[146.8896,-38.6117,0.4742],[146.8988,-38.6122,0.5417],[146.9005,-38.6112,0.7235],[146.8997,-38.6079,0.664],[146.9017,-38.6061,0.7534],[146.9063,-38.606,0.0],[146.9172,-38.5996,0.1379],[146.921,-38.5953,1.2592],[146.9255,-38.5942,0.9001],[146.9184,-38.6019,4.9213],[146.9131,-38.6053,0.2419],[146.9074,-38.6083,1.6689],[146.902,-38.608,0.4997],[146.9032,-38.6138,0.0],[146.8999,-38.6172,3.5338],[146.8906,-38.6182,0.5419],[146.8871,-38.6202,0.2501],[146.8849,-38.6272,1.8117],[146.882,-38.6299,0.0],[146.8819,-38.6345,0.0],[146.8835,-38.6344,0.0],[146.932,-38.596,8.8629],[146.9901,-38.541,3.4411],[147.0672,-38.4751,0.828],[147.1261,-38.4302,0.0],[147.1755,-38.3894,1.6225],[147.24,-38.3404,0.0],[147.4763,-38.1517,0.0],[147.5827,-38.076,5.9963],[147.6421,-38.0369,0.0],[147.7047,-37.9992,2.1021],[147.7058,-37.9964,9.132],[147.6997,-37.9948,1.0806],[147.6972,-37.9916,0.9602],[147.7006,-37.9846,0.0],[147.6996,-37.9812,12.2226],[147.7166,-37.9746,0.0],[147.7218,-37.9717,0.0],[147.7227,-37.9696,0.0],[147.7202,-37.9628,9.8279],[147.7119,-37.9542,0.0],[147.6922,-37.9658,0.0],[147.6841,-37.967,0.9598],[147.682,-37.9693,0.9049],[147.6604,-37.9765,0.0],[147.652,-37.983,0.968],[147.6516,-37.9948,4.3837],[147.6376,-38.0013,2.959],[147.6231,-38.0118,3.7845],[147.6158,-38.0101,1.3031],[147.6132,-38.0115,0.7838],[147.6113,-38.0144,3.1623],[147.6114,-38.0254,4.1445],[147.5989,-38.0328,10.0424],[147.5896,-38.0363,1.4325],[147.5799,-38.0472,0.0],[147.57,-38.0541,0.0],[147.5522,-38.053,2.7634],[147.5433,-38.057,3.5248],[147.5334,-38.058,4.5875],[147.5254,-38.0527,0.0],[147.5144,-38.0572,0.0],[147.5098,-38.0607,0.0],[147.5004,-38.0731,6.2402],[147.4903,-38.0729,0.0],[147.4861,-38.0686,0.6728],[147.4773,-38.0727,0.0],[147.4693,-38.0724,0.5049],[147.4549,-38.0788,0.2368],[147.4506,-38.0773,0.3422],[147.4488,-38.0741,0.0815],[147.4608,-38.0717,0.0],[147.4607,-38.0697,0.1225],[147.4584,-38.0705,0.0],[147.4607,-38.0691,0.1554],[147.4572,-38.0648,0.4104],[147.4597,-38.0586,0.1304],[147.4633,-38.0557,0.2955],[147.4702,-38.0536,0.0],[147.4644,-38.0499,0.1405],[147.4648,-38.0474,3.3276],[147.4695,-38.0452,0.0],[147.4675,-38.0355,0.0],[147.4619,-38.0325,0.3885],[147.4634,-38.0273,0.2677],[147.4682,-38.0244,0.3926],[147.4639,-38.0132,0.3379],[147.457,-38.0075,0.7912],[147.4371,-38.0092,0.4412],[147.4236,-38.0039,1.2066],[147.409,-38.0034,0.7055],[147.4061,-38.001,1.6191],[147.4089,-37.9915,2.5764],[147.4068,-37.9879,4.6019],[147.4107,-37.9858,12.666],[147.4088,-37.9814,11.4051],[147.4026,-37.9787,10.4574],[147.3981,-37.9789,8.0777],[147.3964,-37.9796,7.8357],[147.3961,-37.982,8.4798],[147.3933,-37.9821,8.3823],[147.3928,-37.9808,8.003],[147.3886,-37.9834,7.609],[147.3864,-37.9809,8.3759],[147.3812,-37.9802,8.778],[147.3807,-37.9773,9.5955],[147.3823,-37.9751,13.4534],[147.3778,-37.9689,13.1412],[147.373,-37.9699,12.1694],[147.3754,-37.9673,13.1745],[147.3713,-37.9621,14.9481],[147.3746,-37.9584,15.8148],[147.3714,-37.9572,15.8986],[147.3761,-37.9542,18.2385],[147.3748,-37.9508,17.6094],[147.377,-37.9483,17.3819],[147.374,-37.947,19.3811],[147.3743,-37.9406,19.765],[147.3721,-37.9395,22.0469],[147.3714,-37.9353,22.4547],[147.3648,-37.9317,23.0794],[147.3661,-37.9278,21.9707],[147.3648,-37.9266,21.9707],[147.3668,-37.9255,28.6488],[147.3656,-37.9233,22.6606],[147.3625,-37.9232,23.0547],[147.3635,-37.9206,27.2322],[147.3606,-37.9202,25.2633],[147.3616,-37.9178,26.0675],[147.3128,-37.9113,60.2176],[147.2787,-37.9213,47.886],[147.2749,-37.9211,37.4302],[147.2724,-37.9168,39.8802],[147.2785,-37.9136,42.342],[147.2793,-37.9095,49.6995],[147.286,-37.9079,39.1123],[147.2862,-37.9065,49.4473],[147.2833,-37.9046,41.8536],[147.2824,-37.9064,40.5361],[147.2784,-37.9055,47.0612],[147.2798,-37.9031,49.7193],[147.2833,-37.9026,41.6991],[147.2848,-37.9043,41.8862],[147.2874,-37.9021,43.4489],[147.286,-37.9014,40.8955],[147.2858,-37.897,43.2937],[147.2834,-37.8997,43.4688],[147.2769,-37.8989,48.4232],[147.2782,-37.8948,45.2078],[147.2837,-37.8951,55.1396],[147.2859,-37.893,52.8985],[147.2857,-37.8914,47.7805],[147.2826,-37.8914,46.873],[147.2799,-37.8881,48.3803],[147.2836,-37.8847,57.1289],[147.2833,-37.8806,50.7846],[147.2867,-37.8769,68.5681],[147.2846,-37.8766,49.819],[147.2859,-37.876,55.2402],[147.2849,-37.8751,55.2402],[147.2805,-37.8781,57.3179],[147.2775,-37.8766,51.0243],[147.2745,-37.8797,60.8472],[147.2737,-37.8778,54.8985],[147.2762,-37.8733,70.5525],[147.2702,-37.8729,53.1265],[147.2678,-37.8683,52.7318],[147.2698,-37.8676,63.0865],[147.269,-37.8661,57.5582],[147.2702,-37.8648,62.5191],[147.2647,-37.8614,63.5956],[147.2704,-37.8564,68.0202],[147.2685,-37.8528,63.7301],[147.2662,-37.8526,59.8249],[147.2703,-37.8482,61.7188],[147.27,-37.8452,62.0633],[147.273,-37.8421,63.6937],[147.2687,-37.8367,64.7488],[147.2699,-37.8337,64.0632],[147.2753,-37.8331,65.4988],[147.2752,-37.829,74.3765],[147.2708,-37.8282,74.4571],[147.2813,-37.7746,125.9539],[147.2336,-37.7694,156.839],[147.2364,-37.7674,164.1286],[147.2417,-37.7674,158.3509],[147.2567,-37.7565,180.3548],[147.2617,-37.756,137.3628],[147.2632,-37.7547,137.3628],[147.2614,-37.7537,139.9318],[147.262,-37.752,141.8729],[147.257,-37.7531,173.9266],[147.2491,-37.7457,176.5625],[147.2441,-37.7484,184.0157],[147.2403,-37.7464,180.28],[147.2362,-37.7473,191.9498],[147.2348,-37.7458,193.6155],[147.231,-37.7485,202.8623],[147.2288,-37.7481,209.815],[147.2273,-37.7445,230.9298],[147.224,-37.7462,209.0621],[147.2228,-37.744,226.8619],[147.2188,-37.7446,228.6538],[147.218,-37.7461,227.2143],[147.2117,-37.7455,243.5291],[147.2091,-37.7435,251.2406],[147.2152,-37.7434,274.6898],[147.2183,-37.7412,277.707],[147.2149,-37.739,272.1621],[147.214,-37.7317,267.4774],[147.1984,-37.7261,363.7024],[147.1981,-37.7239,365.9139],[147.2005,-37.7226,351.5218],[147.1991,-37.7209,362.7228],[147.2019,-37.7168,380.3954],[147.2034,-37.7175,380.3954],[147.2221,-37.6328,350.5458],[147.2127,-37.625,361.5303],[147.2035,-37.6276,364.7357],[147.1966,-37.6262,377.9745],[147.1893,-37.6152,464.5094],[147.1911,-37.6102,489.114],[147.1898,-37.6095,512.1865],[147.1907,-37.6071,506.3259],[147.1893,-37.6052,478.1524],[147.1933,-37.6037,495.7347],[147.1921,-37.6025,499.4072],[147.194,-37.5966,525.5788],[147.1932,-37.5947,523.2053],[147.1995,-37.5943,644.6035],[147.1994,-37.5908,554.7021],[147.209,-37.5908,486.0394],[147.2081,-37.5805,324.1862],[147.2162,-37.5788,371.2798],[147.2151,-37.5781,322.3767],[147.2179,-37.5767,321.4632],[147.2176,-37.5756,316.9933],[147.219,-37.576,295.9962],[147.2187,-37.5749,295.9962],[147.2232,-37.5743,317.5673],[147.2238,-37.5762,279.1274],[147.2263,-37.5758,279.5381],[147.2269,-37.5781,296.4825],[147.2326,-37.5781,247.6834],[147.2346,-37.58,266.3539],[147.2409,-37.5813,243.2592],[147.2414,-37.5792,236.9389],[147.2456,-37.5798,224.7313],[147.2459,-37.5772,224.5682],[147.2492,-37.5759,215.8393],[147.2527,-37.576,201.9159],[147.2525,-37.5773,197.6871],[147.2575,-37.5747,188.7334],[147.2619,-37.5758,181.7582],[147.263,-37.5746,181.7582],[147.2615,-37.5731,177.4246],[147.2662,-37.5701,183.2598],[147.2655,-37.5681,180.301],[147.2751,-37.5621,157.697],[147.2795,-37.5605,156.4268],[147.2827,-37.5639,142.3809],[147.2853,-37.564,140.8424],[147.2869,-37.5611,151.7786],[147.2844,-37.5586,140.9861],[147.2849,-37.5563,138.8644],[147.2873,-37.5575,137.9057],[147.2954,-37.5572,147.4607],[147.2994,-37.5628,134.432],[147.3044,-37.5592,132.5252],[147.3038,-37.5565,132.0057],[147.3052,-37.5557,135.8543],[147.309,-37.5595,141.9479],[147.3178,-37.5609,136.1408],[147.3189,-37.5576,149.2006],[147.3219,-37.5568,131.8691],[147.3263,-37.5614,193.3121],[147.3293,-37.5617,160.1118],[147.3383,-37.5536,131.96],[147.3475,-37.5523,132.6813],[147.3502,-37.5373,246.0102],[147.3996,-37.5432,160.3561],[147.402,-37.5412,161.9867],[147.3982,-37.5387,146.8641],[147.4035,-37.5373,162.2025],[147.4024,-37.5322,156.4593],[147.4003,-37.53,154.9613],[147.4048,-37.531,157.0309],[147.4059,-37.5246,192.3724],[147.4031,-37.5233,185.3466],[147.4055,-37.521,244.513],[147.4009,-37.5217,184.9934],[147.4008,-37.5151,167.1696],[147.3985,-37.5146,185.1711],[147.4006,-37.5111,176.6736],[147.3965,-37.5076,219.0222],[147.3984,-37.5066,181.2234],[147.3968,-37.5016,177.5175],[147.3926,-37.505,198.1924],[147.3916,-37.5026,184.9532],[147.3936,-37.4999,191.54],[147.3893,-37.4976,181.2136],[147.3937,-37.4956,179.1814],[147.3927,-37.4868,193.1255],[147.3906,-37.4862,205.0206],[147.3927,-37.4842,192.4703],[147.3893,-37.4818,189.6712],[147.3934,-37.4822,203.9498],[147.3939,-37.4781,197.8247],[147.3993,-37.4769,233.5115],[147.3937,-37.4717,207.6],[147.3942,-37.4653,208.2164],[147.39,-37.4642,209.5943],[147.3895,-37.4626,224.2526],[147.395,-37.4636,219.523],[147.3947,-37.4603,217.766],[147.3914,-37.459,213.5588],[147.3988,-37.4582,244.2726],[147.397,-37.4553,262.7952],[147.4059,-37.4551,284.1273],[147.3993,-37.4526,234.4721],[147.3983,-37.4495,237.8774],[147.4007,-37.4479,275.8483],[147.4014,-37.4491,229.9803],[147.4042,-37.4487,236.213],[147.4028,-37.4456,277.3445],[147.4049,-37.4458,232.8845],[147.4021,-37.4422,240.9285],[147.4034,-37.4409,258.0922],[147.399,-37.4397,281.3141],[147.3994,-37.4376,248.0371],[147.4022,-37.4352,253.8937],[147.4021,-37.4318,246.3695],[147.405,-37.4305,252.1384],[147.4086,-37.4325,254.3558],[147.4077,-37.4301,251.6022],[147.4106,-37.43,267.127],[147.4095,-37.4263,272.2376],[147.4117,-37.4236,257.6219],[147.4172,-37.4249,292.1121],[147.4126,-37.4197,270.9481],[147.4077,-37.4197,279.0225],[147.4091,-37.4189,269.2121],[147.4077,-37.415,287.6218],[147.4048,-37.4137,336.6395],[147.4071,-37.4121,283.6111],[147.4062,-37.4102,277.3341],[147.4098,-37.4094,279.1851],[147.4106,-37.4071,284.246],[147.4125,-37.407,282.3836],[147.4112,-37.4053,295.7008],[147.4127,-37.4034,290.3997],[147.4158,-37.4027,293.8494],[147.4177,-37.3948,289.5808],[147.4378,-37.3981,431.5638],[147.4574,-37.2862,1004.5034],[147.4538,-37.2837,981.3292],[147.4603,-37.2762,944.1443],[147.4582,-37.2697,920.0265],[147.4503,-37.2668,986.959],[147.4401,-37.2738,1137.4767],[147.4344,-37.2722,1146.8374],[147.4323,-37.2687,1153.4124],[147.4283,-37.2672,1226.0054],[147.4303,-37.2651,1232.9791],[147.4285,-37.2636,1242.9794],[147.4301,-37.2588,1264.2792],[147.4294,-37.255,1265.7458],[147.4256,-37.2533,1302.1985],[147.4256,-37.2486,1289.7588],[147.4204,-37.2412,1248.1416],[147.4202,-37.237,1266.1479],[147.4176,-37.2353,1266.4398],[147.4238,-37.2277,1377.3931],[147.4223,-37.221,1369.6179],[147.4263,-37.2198,1305.8081],[147.4111,-37.2192,1451.7305],[147.4024,-37.2131,1417.4534],[147.3866,-37.2103,1378.3943],[147.337,-37.2755,1270.2249],[146.8296,-37.203,487.433],[146.826,-37.2037,490.0508],[146.8247,-37.1998,485.4346],[146.8261,-37.1984,496.4033],[146.8233,-37.1918,513.5121],[146.8154,-37.1888,510.1116],[146.814,-37.1863,510.1143],[146.8036,-37.1857,523.6127],[146.8042,-37.1843,528.7839],[146.7978,-37.1801,537.2119],[146.7879,-37.1777,544.9216],[146.7823,-37.1713,576.3461],[146.7823,-37.1678,600.7468],[146.7805,-37.1651,570.4135],[146.7774,-37.164,559.5],[146.7762,-37.1584,612.4105],[146.7726,-37.1551,574.8421],[146.7708,-37.1505,589.3052],[146.763,-37.1478,593.0588],[146.7633,-37.1459,585.7775],[146.7578,-37.1471,598.4819],[146.7551,-37.1501,620.1611],[146.7513,-37.1474,630.8621],[146.7466,-37.1504,618.8005],[146.7454,-37.1497,618.8005],[146.7441,-37.1564,657.5355],[146.7417,-37.1553,651.7357],[146.7271,-37.156,697.3822],[146.7244,-37.1583,726.9348],[146.7177,-37.1588,694.9728],[146.7047,-37.1529,792.271],[146.6936,-37.1501,753.9396],[146.689,-37.1454,768.4805],[146.6845,-37.145,796.4284],[146.6811,-37.1427,810.5435],[146.6821,-37.1389,839.4354],[146.678,-37.1341,904.5003],[146.6689,-37.1301,998.3627],[146.6641,-37.1234,1080.7574],[146.6552,-37.1224,1287.0635],[146.6531,-37.1208,1420.2876]]]]}}