{"type": "Feature","bbox": [147.0917,-43.5295,147.4332,-42.898],"geometry": {"type": "MultiPolygon","coordinates": [[[[147.2977,-43.5289,0.9864],[147.2985,-43.5284,0.4175],[147.2964,-43.5293,0.9864],[147.2976,-43.5295,0.9864],[147.2977,-43.5289,0.9864]]],
[[[147.2952,-43.5266,0.8539],[147.2938,-43.5238,6.8142],[147.2915,-43.5242,0.0],[147.2925,-43.5282,0.1676],[147.2952,-43.5266,0.8539]]],
[[[147.3016,-43.5172,0.0],[147.3023,-43.5172,0.0],[147.302,-43.5164,0.0],[147.3008,-43.5173,0.0],[147.3016,-43.5172,0.0]]],
[[[147.2978,-43.5279,1.1586],[147.2977,-43.5278,1.1586],[147.2973,-43.528,0.9864],[147.2975,-43.5281,0.9864],[147.2978,-43.5279,1.1586]]],
[[[147.2977,-43.5274,1.1586],[147.2982,-43.5275,1.1586],[147.2991,-43.5271,0.0],[147.2988,-43.5269,0.0],[147.2977,-43.5274,1.1586]]],
[[[147.2985,-43.5256,0.1346],[147.2964,-43.5261,0.4198],[147.2957,-43.5275,0.8539],[147.298,-43.5267,1.1586],[147.2985,-43.5256,0.1346]]],
[[[147.1808,-43.2875,0.0],[147.1803,-43.2872,0.0],[147.1797,-43.2875,0.0],[147.1803,-43.2878,0.0],[147.1808,-43.2875,0.0]]],
[[[147.4257,-43.2538,5.3994],[147.4255,-43.2539,5.3994],[147.4254,-43.254,5.3994],[147.4259,-43.2538,5.3994],[147.4257,-43.2538,5.3994]]],
[[[147.3733,-43.3504,4.0144],[147.3719,-43.3491,4.1742],[147.3679,-43.3496,4.296],[147.3683,-43.35,4.296],[147.3733,-43.3504,4.0144]]],
[[[147.2253,-43.318,12.6676],[147.2219,-43.3157,0.0],[147.217,-43.3165,16.794],[147.2157,-43.3184,1.0793],[147.2273,-43.3221,2.9546],[147.2253,-43.318,12.6676]]],
[[[147.3069,-43.2965,0.4979],[147.3067,-43.2955,0.1177],[147.3056,-43.2958,3.5778],[147.3069,-43.2967,0.4979],[147.3069,-43.2965,0.4979]]],
[[[147.3071,-43.2959,0.1177],[147.3071,-43.2965,0.4979],[147.3073,-43.2958,0.1177],[147.3069,-43.2952,0.1177],[147.3068,-43.2953,0.1177],[147.3071,-43.2959,0.1177]]],
[[[147.2085,-43.4199,0.0],[147.2092,-43.4193,1.985],[147.2078,-43.4193,0.0],[147.2079,-43.4196,0.0],[147.2085,-43.4199,0.0]]],
[[[147.2093,-43.4182,1.985],[147.2089,-43.4175,8.3739],[147.2071,-43.4172,6.7268],[147.2077,-43.4191,0.0],[147.2093,-43.4182,1.985]]],
[[[147.3599,-43.4046,0.0],[147.3595,-43.4034,2.3883],[147.3582,-43.4041,2.3883],[147.3586,-43.4047,0.0],[147.3599,-43.4046,0.0]]],
[[[147.1057,-43.3963,2.7703],[147.0994,-43.3892,0.0],[147.0982,-43.3911,0.0],[147.1001,-43.3941,15.1091],[147.0966,-43.3949,0.0],[147.0973,-43.3966,10.403],[147.0941,-43.3986,0.0],[147.1004,-43.4095,8.2907],[147.1028,-43.4068,10.1583],[147.1028,-43.4009,27.0019],[147.1057,-43.3963,2.7703]]],
[[[147.3635,-43.3997,0.0292],[147.3641,-43.4,0.0292],[147.364,-43.3986,0.0436],[147.3637,-43.3987,0.0436],[147.3635,-43.3997,0.0292]]],
[[[147.3665,-43.3921,0.7633],[147.3662,-43.3922,1.9376],[147.3663,-43.3924,1.9376],[147.3666,-43.3923,0.7633],[147.3665,-43.3921,0.7633]]],
[[[147.3822,-43.3721,8.5271],[147.3821,-43.3727,8.5271],[147.3824,-43.3727,8.5271],[147.3824,-43.3718,8.5271],[147.3822,-43.3721,8.5271]]],
[[[147.3401,-43.3671,0.0],[147.3402,-43.3673,0.0],[147.3409,-43.3673,0.0],[147.3403,-43.3669,0.0],[147.3401,-43.3671,0.0]]],
[[[147.3407,-43.0432,22.1308],[147.3407,-43.0433,22.1308],[147.3409,-43.0432,22.1308],[147.3408,-43.0431,22.1308],[147.3407,-43.0432,22.1308]]],
[[[147.271,-43.0249,0.0],[147.2712,-43.025,0.0],[147.2715,-43.025,0.0],[147.2715,-43.0249,0.0],[147.271,-43.0249,0.0]]],
[[[147.2702,-43.025,0.0],[147.2704,-43.0251,0.0],[147.271,-43.0251,0.0],[147.2704,-43.0246,0.0],[147.2702,-43.025,0.0]]],
[[[147.2727,-43.0243,0.0],[147.2716,-43.0241,1.3055],[147.271,-43.0245,1.3055],[147.272,-43.0246,1.9142],[147.2727,-43.0243,0.0]]],
[[[147.2734,-43.0201,0.0],[147.2739,-43.021,0.0],[147.2748,-43.0207,0.0],[147.2738,-43.0197,0.0],[147.2734,-43.0201,0.0]]],
[[[147.2717,-43.0217,0.0],[147.2716,-43.0218,0.8893],[147.272,-43.0222,0.0],[147.272,-43.0219,0.0],[147.2717,-43.0217,0.0]]],
[[[147.2712,-43.0218,0.8893],[147.2711,-43.0219,0.8893],[147.2711,-43.0221,0.8893],[147.2712,-43.0221,0.8893],[147.2712,-43.0218,0.8893]]],
[[[147.3292,-43.0159,20.5744],[147.3291,-43.0159,20.5744],[147.3292,-43.016,20.5744],[147.3292,-43.0159,20.5744]]],
[[[147.4127,-43.1948,25.8018],[147.4129,-43.1953,25.8018],[147.4133,-43.1952,25.8018],[147.4132,-43.1948,25.8018],[147.4127,-43.1948,25.8018]]],
[[[147.2616,-43.2237,0.0],[147.2614,-43.2238,0.0],[147.2615,-43.224,0.0],[147.2616,-43.224,0.0],[147.2616,-43.2237,0.0]]],
[[[147.2904,-43.1982,0.5968],[147.2901,-43.1992,0.0],[147.2917,-43.1966,5.8303],[147.2902,-43.1957,0.4484],[147.2896,-43.1976,0.0],[147.2904,-43.1982,0.5968]]],
[[[147.294,-43.1731,1.7157],[147.2924,-43.1723,0.7232],[147.2917,-43.1743,0.0],[147.2926,-43.1748,0.0],[147.294,-43.1731,1.7157]]],
[[[147.2349,-42.898,1232.6044],[147.2308,-42.905,1243.6897],[147.1969,-42.9058,1195.1475],[147.1504,-42.9133,314.2595],[147.1556,-42.9141,431.8053],[147.1541,-42.9192,407.1422],[147.1573,-42.9197,485.7515],[147.1532,-42.9332,305.5349],[147.1555,-42.9336,342.6073],[147.1548,-42.9364,318.7228],[147.1524,-42.9361,283.2942],[147.1515,-42.9391,271.7722],[147.1571,-42.9399,359.816],[147.1561,-42.9438,296.9915],[147.1577,-42.944,317.8575],[147.156,-42.9512,433.9912],[147.1532,-42.9509,406.8366],[147.1518,-42.956,429.7935],[147.1502,-42.9558,359.3112],[147.1442,-42.9811,249.4398],[147.14,-42.9823,233.3308],[147.1381,-42.9895,351.8857],[147.1442,-42.9904,458.1244],[147.1433,-42.9933,359.3152],[147.1413,-42.9988,408.8291],[147.1357,-42.9979,350.4676],[147.1363,-42.996,288.1842],[147.1342,-42.9957,306.7704],[147.1327,-43.0007,499.3008],[147.1256,-42.9995,393.7972],[147.1251,-43.0009,375.8853],[147.1225,-43.0005,428.7467],[147.1186,-43.0121,433.5367],[147.1265,-43.0161,465.265],[147.1242,-43.0243,319.802],[147.1429,-43.0271,389.1569],[147.1421,-43.0299,283.78],[147.1485,-43.0307,291.679],[147.1477,-43.0341,248.3093],[147.1732,-43.036,565.2742],[147.1738,-43.033,552.6257],[147.1758,-43.0332,573.8397],[147.1747,-43.0384,605.1246],[147.197,-43.0415,391.9891],[147.2046,-43.0435,250.8673],[147.2049,-43.0453,271.6761],[147.2013,-43.0458,343.5497],[147.2016,-43.0474,358.6185],[147.1869,-43.0495,645.2358],[147.1878,-43.053,620.6401],[147.1813,-43.0539,620.0485],[147.1821,-43.057,609.3688],[147.1749,-43.0557,551.1392],[147.173,-43.0624,667.6082],[147.1804,-43.1131,359.512],[147.1792,-43.1134,359.512],[147.1818,-43.1213,289.4328],[147.1849,-43.1208,285.9381],[147.1831,-43.1254,262.8812],[147.1853,-43.1351,439.7061],[147.1798,-43.1359,343.765],[147.1809,-43.1397,370.0917],[147.1864,-43.1391,497.349],[147.1879,-43.1461,557.934],[147.1828,-43.1467,383.3295],[147.1851,-43.1538,382.0483],[147.1878,-43.1535,519.8107],[147.1911,-43.1688,394.5046],[147.1894,-43.1688,394.5046],[147.188,-43.175,356.7245],[147.19,-43.1753,333.319],[147.1881,-43.1826,342.6739],[147.1937,-43.1835,291.7129],[147.1943,-43.1857,268.1401],[147.1927,-43.1877,261.8808],[147.1949,-43.1922,263.596],[147.193,-43.1972,216.4],[147.1901,-43.1993,171.9321],[147.1883,-43.1989,162.7051],[147.1864,-43.2082,118.6813],[147.1785,-43.2115,81.6765],[147.1842,-43.2123,183.4226],[147.1836,-43.2146,128.3297],[147.1949,-43.216,279.6302],[147.2032,-43.2219,276.5766],[147.2139,-43.2234,330.3167],[147.2116,-43.2365,375.2593],[147.2101,-43.2363,375.2593],[147.2083,-43.2418,348.8894],[147.216,-43.2429,284.7458],[147.2151,-43.2468,230.7056],[147.2019,-43.2448,315.3189],[147.2006,-43.2504,407.4543],[147.1738,-43.2478,136.9048],[147.1714,-43.2566,142.9113],[147.1767,-43.2574,155.8101],[147.1754,-43.2609,119.0876],[147.1722,-43.2605,100.5617],[147.1677,-43.2834,0.0],[147.1735,-43.2818,1.6865],[147.1768,-43.2784,16.5639],[147.1818,-43.2767,4.1987],[147.1962,-43.2768,6.8493],[147.2144,-43.2814,0.0],[147.2231,-43.2802,0.0],[147.2319,-43.2761,7.0654],[147.2347,-43.272,2.2667],[147.2394,-43.2711,3.1218],[147.2425,-43.2681,0.6451],[147.2401,-43.2654,0.9808],[147.2426,-43.2617,1.6475],[147.2405,-43.2597,4.4023],[147.2404,-43.2566,5.4636],[147.2504,-43.2418,3.0589],[147.2556,-43.2382,2.3319],[147.2601,-43.2287,0.0],[147.2595,-43.2249,0.0],[147.261,-43.2234,5.7407],[147.259,-43.2215,12.7005],[147.2587,-43.2176,8.3117],[147.2604,-43.2145,0.0],[147.2561,-43.2046,27.942],[147.2572,-43.2001,39.5937],[147.2518,-43.1917,6.9736],[147.2529,-43.1893,13.4011],[147.2554,-43.1884,3.1472],[147.2469,-43.1856,17.7738],[147.2414,-43.1818,4.6578],[147.244,-43.1794,0.0],[147.2395,-43.1773,0.0],[147.2395,-43.1734,0.0],[147.2484,-43.1662,0.0],[147.2395,-43.1633,3.9601],[147.2392,-43.1628,0.0],[147.2392,-43.1613,0.0],[147.2418,-43.1596,0.0],[147.2393,-43.1572,0.0],[147.2389,-43.1544,2.6675],[147.2479,-43.1518,0.0],[147.2469,-43.1499,18.816],[147.2417,-43.1487,8.2927],[147.2451,-43.1448,0.0],[147.2493,-43.144,0.0],[147.2472,-43.1423,0.0],[147.2479,-43.1406,1.9285],[147.2562,-43.1386,9.2992],[147.2517,-43.1351,2.5226],[147.2528,-43.1323,14.7563],[147.2628,-43.1308,11.6626],[147.2623,-43.1292,0.0],[147.257,-43.1271,2.432],[147.2498,-43.1282,14.9332],[147.2497,-43.1245,0.0],[147.2464,-43.1223,13.3304],[147.2535,-43.1216,3.8347],[147.2583,-43.1234,4.629],[147.2694,-43.1219,11.872],[147.2719,-43.1193,2.1372],[147.2715,-43.1148,21.4083],[147.263,-43.112,18.9164],[147.2598,-43.1071,0.0],[147.2577,-43.1065,7.2825],[147.2619,-43.1057,18.4932],[147.2678,-43.1076,9.2705],[147.2743,-43.1044,40.0138],[147.2853,-43.111,7.998],[147.2859,-43.1035,22.84],[147.2967,-43.0966,0.0],[147.3002,-43.0923,33.5413],[147.3012,-43.0879,0.0],[147.3005,-43.0848,0.0],[147.2917,-43.0799,35.7719],[147.2832,-43.0788,7.3114],[147.279,-43.0749,12.5915],[147.2712,-43.0746,20.1132],[147.2666,-43.0725,0.0],[147.2556,-43.0732,9.6479],[147.2581,-43.0694,11.2991],[147.2645,-43.0661,4.6125],[147.2624,-43.0612,7.5711],[147.2587,-43.061,5.8819],[147.2563,-43.0635,5.342],[147.2578,-43.0619,2.3389],[147.2563,-43.0621,12.0065],[147.26,-43.06,5.8938],[147.2633,-43.0615,0.8827],[147.2664,-43.0584,0.0],[147.2654,-43.056,12.1732],[147.2686,-43.0544,1.7241],[147.2654,-43.0506,12.2085],[147.2677,-43.0501,0.0],[147.268,-43.048,0.0],[147.2663,-43.048,2.7162],[147.2673,-43.0441,4.7047],[147.2735,-43.0424,6.6205],[147.272,-43.0397,3.0301],[147.2764,-43.0374,0.0],[147.2762,-43.0298,1.1231],[147.2799,-43.0267,0.0],[147.2759,-43.0233,2.412],[147.2692,-43.027,8.1386],[147.2651,-43.0263,22.9217],[147.2661,-43.0244,1.2527],[147.2695,-43.0235,2.8866],[147.2698,-43.0252,0.0],[147.2697,-43.0239,1.3055],[147.2711,-43.0241,1.3055],[147.2691,-43.0222,5.2406],[147.2723,-43.0159,17.1146],[147.2777,-43.0111,10.6144],[147.2854,-43.0097,1.1062],[147.2849,-43.0083,10.9525],[147.2858,-43.0096,1.1062],[147.2852,-43.0128,2.2728],[147.2876,-43.02,0.0],[147.2895,-43.0181,6.4696],[147.2899,-43.0208,0.0],[147.2924,-43.0216,15.7283],[147.2901,-43.0252,0.0],[147.291,-43.0271,0.0],[147.2937,-43.0277,13.4596],[147.2933,-43.0293,5.9266],[147.297,-43.0333,4.8218],[147.2968,-43.0359,3.8421],[147.3007,-43.039,17.8306],[147.3019,-43.0448,0.0],[147.3039,-43.0452,8.0426],[147.3076,-43.0524,0.0],[147.3153,-43.0601,2.647],[147.3221,-43.0608,8.6287],[147.3293,-43.0576,11.3268],[147.3335,-43.0586,1.5941],[147.3378,-43.0564,0.0],[147.338,-43.0545,38.8435],[147.343,-43.0528,54.5661],[147.3452,-43.0491,0.0],[147.3411,-43.0436,22.1308],[147.3377,-43.0419,3.0304],[147.3386,-43.036,0.0],[147.337,-43.031,3.9912],[147.3348,-43.0292,55.3017],[147.3355,-43.0274,0.0],[147.3332,-43.0242,44.4207],[147.3342,-43.0226,4.0109],[147.3288,-43.0168,13.7865],[147.3304,-43.0107,3.0295],[147.3278,-43.0093,0.0],[147.3293,-43.0078,0.0],[147.3255,-43.0077,0.0],[147.3242,-43.0062,8.366],[147.3256,-43.002,1.1695],[147.3293,-42.9983,0.0],[147.3289,-42.9924,17.3418],[147.3304,-42.9892,3.854],[147.3241,-42.983,6.4226],[147.3296,-42.9779,3.819],[147.3279,-42.9777,7.9338],[147.3247,-42.9756,0.6823],[147.3246,-42.9777,0.632],[147.3226,-42.9795,1.8819],[147.3207,-42.9796,5.4896],[147.317,-42.9774,6.4404],[147.3149,-42.9742,4.285],[147.3163,-42.9737,4.285],[147.316,-42.9744,4.285],[147.3154,-42.9748,3.2639],[147.317,-42.9765,6.4404],[147.3172,-42.9774,6.4404],[147.3216,-42.9795,1.8819],[147.3242,-42.9744,30.1153],[147.3284,-42.9774,7.9338],[147.3386,-42.9744,7.1776],[147.3388,-42.9697,21.7341],[147.3404,-42.9696,0.0],[147.3398,-42.9677,32.5643],[147.3414,-42.967,32.5643],[147.3408,-42.9619,43.2306],[147.3445,-42.9548,0.0],[147.3558,-42.9512,7.9461],[147.3552,-42.9474,4.4387],[147.3577,-42.9431,2.6677],[147.356,-42.9413,16.2681],[147.3605,-42.9316,6.551],[147.3495,-42.9298,114.2799],[147.3486,-42.9328,131.2926],[147.313,-42.9278,167.3358],[147.3094,-42.9399,104.1702],[147.3061,-42.9394,214.0036],[147.3069,-42.9369,177.2884],[147.2966,-42.9343,338.8956],[147.2904,-42.934,323.6545],[147.2896,-42.9378,205.3309],[147.2859,-42.9364,230.9075],[147.2781,-42.9292,271.7043],[147.277,-42.9327,304.0587],[147.2726,-42.9295,400.3854],[147.2639,-42.9346,233.0806],[147.2624,-42.9411,269.4471],[147.2649,-42.9415,228.902],[147.2644,-42.9431,218.3337],[147.2543,-42.9412,299.2761],[147.2464,-42.9356,421.5961],[147.2367,-42.9317,572.7045],[147.2379,-42.9271,713.5806],[147.2369,-42.8985,1200.2827],[147.2349,-42.898,1232.6044]],
[[147.2497,-43.1261,0.0],[147.2496,-43.1261,0.0],[147.2495,-43.1261,0.0],[147.2497,-43.126,0.0],[147.2497,-43.1261,0.0]]],
[[[147.2917,-43.5113,0.0],[147.2917,-43.5119,0.0],[147.2922,-43.5122,0.0],[147.2921,-43.5113,0.0],[147.2917,-43.5113,0.0]]],
[[[147.1305,-43.4981,0.4425],[147.13,-43.4986,0.4425],[147.1296,-43.4994,0.0],[147.1302,-43.4991,0.4425],[147.1305,-43.4981,0.4425]]],
[[[147.1371,-43.4975,3.1306],[147.137,-43.4973,3.1306],[147.1367,-43.4973,3.1306],[147.1369,-43.4977,3.1306],[147.1371,-43.4975,3.1306]]],
[[[147.249,-43.4944,2.5942],[147.2492,-43.4949,0.0],[147.2491,-43.4937,0.2598],[147.2489,-43.4938,2.5942],[147.249,-43.4944,2.5942]]],
[[[147.2478,-43.4946,0.0],[147.2485,-43.4943,2.5942],[147.2483,-43.4936,2.5942],[147.2477,-43.4937,2.5942],[147.2478,-43.4946,0.0]]],
[[[147.2473,-43.4941,2.5942],[147.2472,-43.4937,2.5942],[147.2469,-43.4937,0.0],[147.2471,-43.4942,2.5942],[147.2473,-43.4941,2.5942]]],
[[[147.1354,-43.4984,1.1915],[147.1352,-43.4984,1.1915],[147.1351,-43.4989,1.1915],[147.1352,-43.4989,1.1915],[147.1354,-43.4984,1.1915]]],
[[[147.1335,-43.4982,0.0],[147.1329,-43.4983,0.0],[147.1326,-43.4984,0.0],[147.1333,-43.4984,0.0],[147.1335,-43.4982,0.0]]],
[[[147.135,-43.4984,1.1915],[147.1372,-43.493899999999996,2.895],[147.1327,-43.4938,2.2468],[147.132,-43.4961,13.6471],[147.1338,-43.497,32.5489],[147.1339,-43.4993,1.1915],[147.135,-43.4984,1.1915]]],
[[[147.1773,-43.4927,3.6776],[147.1774,-43.4931,0.0],[147.1778,-43.4934,0.0],[147.1781,-43.4928,3.6776],[147.1773,-43.4927,3.6776]]],
[[[147.15,-43.4928,40.7889],[147.1499,-43.4933,5.2639],[147.1499,-43.4934,5.2639],[147.1501,-43.4925,40.7889],[147.15,-43.4928,40.7889]]],
[[[147.1522,-43.4909,0.6575],[147.1523,-43.4911,0.6575],[147.1526,-43.4914,0.0],[147.1525,-43.4906,0.0],[147.1522,-43.4909,0.6575]]],
[[[147.1778,-43.492,3.6776],[147.1774,-43.4922,3.6776],[147.1773,-43.4924,3.6776],[147.1779,-43.4925,3.6776],[147.1778,-43.492,3.6776]]],
[[[147.1682,-43.4894,0.0],[147.1681,-43.4899,0.0],[147.1684,-43.4904,0.0],[147.1686,-43.49,0.0],[147.1682,-43.4894,0.0]]],
[[[147.1868,-43.4797,0.9581],[147.1864,-43.4799,0.9581],[147.1857,-43.4785,0.0],[147.179,-43.4745,15.2507],[147.1796,-43.4713,0.0],[147.1858,-43.466,46.7503],[147.189,-43.4675,5.3578],[147.193,-43.4666,0.0],[147.1976,-43.4554,6.422],[147.2004,-43.4534,12.1814],[147.2026,-43.4547,0.0],[147.2035,-43.4532,19.3254],[147.203,-43.4486,10.0118],[147.1992,-43.4466,21.386],[147.2016,-43.4416,23.4709],[147.1991,-43.436,13.6234],[147.2022,-43.4273,6.8431],[147.2017,-43.4201,0.0],[147.2041,-43.4175,6.44],[147.2273,-43.4126,22.2166],[147.2354,-43.4141,1.3203],[147.2343,-43.4166,0.0],[147.2362,-43.4195,3.9547],[147.2417,-43.4139,2.2072],[147.2408,-43.4162,3.5061],[147.2436,-43.4224,0.312],[147.2404,-43.4267,12.4772],[147.2377,-43.4269,2.6883],[147.2259,-43.4339,0.1376],[147.2097,-43.4338,0.7755],[147.2079,-43.432,0.0],[147.2081,-43.4293,0.0],[147.2046,-43.4298,11.3602],[147.2015,-43.437,1.6967],[147.2279,-43.4377,8.3276],[147.2325,-43.4385,1.7165],[147.2335,-43.4415,0.3289],[147.2359,-43.4387,10.2196],[147.2401,-43.4407,4.9028],[147.2459,-43.4404,4.1881],[147.2516,-43.4476,10.0769],[147.2558,-43.4577,1.2994],[147.2549,-43.4617,0.0],[147.2508,-43.4657,0.0],[147.2442,-43.465,11.1897],[147.243,-43.4631,0.0],[147.2404,-43.4659,2.5901],[147.243,-43.4687,16.3119],[147.2403,-43.4735,0.5711],[147.2433,-43.4721,35.3745],[147.2469,-43.4729,28.2313],[147.2468,-43.4756,6.8859],[147.245,-43.4758,6.8859],[147.2449,-43.478,21.2441],[147.2427,-43.4786,1.6905],[147.2446,-43.4795,21.2441],[147.2415,-43.4798,24.8116],[147.2426,-43.4824,2.1944],[147.2459,-43.4811,50.5666],[147.2468,-43.4848,4.5882],[147.2445,-43.4885,0.0],[147.246,-43.4891,33.5923],[147.2464,-43.4925,0.0],[147.2498,-43.4934,0.2598],[147.2557,-43.4905,4.1284],[147.2563,-43.4888,81.9115],[147.2632,-43.4879,80.7589],[147.2642,-43.4911,4.598],[147.2659,-43.4904,72.4528],[147.2679,-43.4915,57.7603],[147.2675,-43.4927,7.9609],[147.2696,-43.4927,85.3735],[147.2683,-43.4934,0.9149],[147.2707,-43.4933,24.2787],[147.2691,-43.4965,0.0],[147.2716,-43.4957,15.113],[147.2718,-43.5006,9.093],[147.2772,-43.5,10.5687],[147.2794,-43.5043,3.3862],[147.282,-43.5046,81.6605],[147.2823,-43.5061,81.6605],[147.2858,-43.5063,0.0],[147.2884,-43.5039,23.8981],[147.2895,-43.5055,0.0],[147.291,-43.505,25.5746],[147.2898,-43.5061,0.0],[147.2922,-43.5091,0.0],[147.2926,-43.5124,3.6876],[147.2935,-43.5109,63.9283],[147.2964,-43.5119,100.7265],[147.2962,-43.5138,15.4486],[147.294,-43.5143,0.0],[147.2955,-43.5161,17.4567],[147.2999,-43.515,6.7648],[147.2999,-43.5135,45.5772],[147.302,-43.5145,3.3082],[147.3016,-43.5122,3.897],[147.303,-43.5125,0.0],[147.3016,-43.5104,9.3238],[147.308,-43.5077,48.9842],[147.3163,-43.5012,97.7851],[147.3189,-43.5007,26.4907],[147.322,-43.5016,4.5669],[147.3221,-43.5031,0.0],[147.3224,-43.5017,4.5669],[147.3238,-43.5027,1.559],[147.3234,-43.5013,1.559],[147.3272,-43.4971,86.6859],[147.3274,-43.4945,0.0],[147.3243,-43.4887,50.5923],[147.3245,-43.4845,52.0098],[147.3205,-43.4757,20.8699],[147.3208,-43.4696,18.8529],[147.325,-43.4615,50.5341],[147.327,-43.4497,47.899],[147.3313,-43.4416,34.5566],[147.3345,-43.4391,53.3185],[147.3445,-43.4376,0.0],[147.3426,-43.4355,63.133],[147.3429,-43.432,77.0528],[147.3463,-43.4291,0.0],[147.3405,-43.4278,4.378],[147.3378,-43.4235,0.7348],[147.3414,-43.4179,134.2331],[147.347,-43.4161,22.6528],[147.349,-43.4104,13.9933],[147.3478,-43.4086,3.9288],[147.3486,-43.4052,15.4384],[147.3512,-43.4053,3.9679],[147.352,-43.4024,48.1194],[147.3555,-43.4043,9.1844],[147.36,-43.402,20.0573],[147.361,-43.4003,10.323],[147.3593,-43.3983,54.7073],[147.3653,-43.3916,1.9376],[147.3688,-43.3915,5.6433],[147.3693,-43.3935,0.0],[147.371,-43.3926,0.0],[147.3703,-43.389,111.5757],[147.3727,-43.3901,0.0],[147.3742,-43.3889,27.1809],[147.3769,-43.3909,2.8637],[147.3791,-43.3901,0.0],[147.3777,-43.3831,193.7853],[147.3795,-43.3833,0.0],[147.3784,-43.3815,180.4208],[147.3815,-43.3783,0.0],[147.3816,-43.3657,0.0],[147.3766,-43.3578,0.7134],[147.3692,-43.3536,86.5834],[147.3699,-43.3515,48.6577],[147.3666,-43.3505,4.296],[147.3633,-43.3557,14.4966],[147.3585,-43.3587,11.7431],[147.3579,-43.3626,0.0],[147.3515,-43.3641,0.0],[147.3505,-43.3678,5.2031],[147.348,-43.3687,1.4333],[147.3359,-43.3668,4.462],[147.3344,-43.3677,5.7509],[147.335,-43.3661,6.0204],[147.34,-43.367,0.0],[147.3323,-43.3635,6.3661],[147.327,-43.3586,6.3309],[147.3273,-43.3561,2.4675],[147.329,-43.3557,2.4675],[147.326,-43.3542,14.433],[147.3215,-43.3454,1.7457],[147.3217,-43.3418,5.978],[147.3238,-43.3396,4.3394],[147.3222,-43.3354,10.7419],[147.3253,-43.3323,0.0],[147.3232,-43.3306,5.29],[147.3239,-43.3274,11.3983],[147.3224,-43.3255,24.7408],[147.3247,-43.3202,34.0511],[147.3228,-43.3181,59.593],[147.3239,-43.3179,6.6917],[147.3215,-43.3142,0.0],[147.3206,-43.3087,4.8791],[147.3282,-43.2934,0.6593],[147.3378,-43.2812,0.9512],[147.3522,-43.2679,2.8152],[147.3698,-43.2559,12.4444],[147.3924,-43.2455,5.5499],[147.4097,-43.2408,21.9014],[147.4183,-43.2417,9.8696],[147.4215,-43.2528,1.4558],[147.4255,-43.2536,5.3994],[147.4268,-43.2514,32.9459],[147.4302,-43.2521,11.2925],[147.4309,-43.25,30.6006],[147.4291,-43.2487,71.4711],[147.4329,-43.2395,0.0],[147.4311,-43.2369,83.8112],[147.4332,-43.2284,0.0],[147.4315,-43.2203,57.5074],[147.4282,-43.2145,22.2748],[147.4279,-43.2091,37.3162],[147.425,-43.207,33.1196],[147.4267,-43.2063,0.0],[147.4221,-43.2047,31.0259],[147.4163,-43.2058,6.8858],[147.4108,-43.2005,38.3854],[147.4115,-43.195,99.9196],[147.4134,-43.1941,33.7443],[147.4091,-43.1927,53.3424],[147.4085,-43.189,44.8681],[147.4115,-43.1864,14.0099],[147.4103,-43.1851,35.8368],[147.4131,-43.1843,35.6264],[147.4124,-43.1826,62.9127],[147.4137,-43.1813,0.0],[147.4114,-43.1771,16.9041],[147.409,-43.1764,40.8171],[147.4094,-43.1726,5.8863],[147.4054,-43.1699,66.5964],[147.4091,-43.1689,5.7502],[147.4064,-43.1668,13.7183],[147.3939,-43.1646,2.8655],[147.3925,-43.1626,8.4549],[147.3945,-43.1604,1.6186],[147.3931,-43.1598,1.6186],[147.394,-43.1574,2.8001],[147.3911,-43.1552,4.566],[147.3919,-43.1524,33.6752],[147.3949,-43.1503,34.6907],[147.393,-43.1446,51.8954],[147.3969,-43.1431,27.029],[147.3946,-43.1409,71.238],[147.3942,-43.1374,50.0845],[147.3972,-43.1371,0.0],[147.3995,-43.1349,0.0],[147.4003,-43.1318,6.3749],[147.3983,-43.1315,41.4879],[147.398,-43.1295,46.8079],[147.4002,-43.1292,10.497],[147.4007,-43.1271,5.8433],[147.3961,-43.1226,4.8181],[147.3914,-43.1227,0.0],[147.3896,-43.1211,0.0],[147.3891,-43.1164,0.432],[147.3914,-43.1151,0.0],[147.3888,-43.115,96.1476],[147.3866,-43.1098,56.306399999999996],[147.3838,-43.1087,54.6167],[147.385,-43.1049,8.5044],[147.388,-43.1027,0.691],[147.3849,-43.104,4.5809],[147.3829,-43.1032,11.4489],[147.3828,-43.1015,0.0],[147.3778,-43.1017,21.5075],[147.3752,-43.0984,8.2619],[147.3766,-43.0946,0.0],[147.3744,-43.0893,6.8166],[147.3714,-43.0887,8.9607],[147.3673,-43.0905,7.9143],[147.3626,-43.0868,0.0],[147.3628,-43.0805,2.7829],[147.3657,-43.0787,7.1666],[147.3676,-43.0718,20.2776],[147.3573,-43.0637,4.0474],[147.351,-43.0641,0.0],[147.3519,-43.0659,0.0],[147.3462,-43.0749,20.555],[147.3365,-43.0832,17.2668],[147.3291,-43.0853,16.5078],[147.3225,-43.0844,0.0],[147.3261,-43.0866,0.0],[147.3268,-43.0889,0.0],[147.325,-43.0915,12.2968],[147.3226,-43.0917,0.0],[147.3232,-43.0975,12.2742],[147.3179,-43.1048,18.5509],[147.3171,-43.1094,21.1018],[147.3066,-43.1134,0.0],[147.3114,-43.1149,10.4987],[147.3111,-43.1183,1.4245],[147.3147,-43.118899999999996,3.3908],[147.3301,-43.1149,4.2377],[147.3301,-43.1178,3.8746],[147.3255,-43.1209,0.0],[147.3226,-43.1265,0.0],[147.3284,-43.131,20.2906],[147.3328,-43.129,18.3263],[147.3331,-43.1256,48.4028],[147.3384,-43.1194,7.8646],[147.3461,-43.1218,12.2567],[147.3464,-43.1286,2.7501],[147.3532,-43.1281,0.0],[147.3552,-43.1257,4.4862],[147.3569,-43.1181,2.245],[147.3612,-43.1136,22.8962],[147.3606,-43.1164,4.4746],[147.3618,-43.1174,4.4746],[147.3598,-43.1171,2.8159],[147.358,-43.1198,0.0],[147.3601,-43.1204,2.8916],[147.3581,-43.123,0.0],[147.3618,-43.1237,0.0],[147.3613,-43.1306,2.587],[147.3581,-43.1327,2.3837],[147.3593,-43.1343,6.2619],[147.3559,-43.1408,2.3084],[147.3524,-43.1391,0.0],[147.3558,-43.1346,2.7892],[147.3529,-43.1312,0.0],[147.3372,-43.1366,6.7163],[147.3338,-43.1419,5.3114],[147.3298,-43.1415,3.227],[147.3319,-43.1513,14.0469],[147.3292,-43.1523,5.9409],[147.3174,-43.1435,2.3782],[147.3168,-43.1399,15.5739],[147.3096,-43.1399,9.6659],[147.3102,-43.1359,3.0598],[147.3122,-43.1345,0.0],[147.3102,-43.1343,0.0],[147.2903,-43.1429,0.0],[147.2821,-43.1443,6.1818],[147.2807,-43.1464,0.0],[147.2905,-43.1457,5.8167],[147.2944,-43.1488,21.6657],[147.2949,-43.152,10.206],[147.2925,-43.155,5.697],[147.2959,-43.1561,10.1447],[147.2959,-43.1576,0.0],[147.2831,-43.1585,10.4435],[147.276,-43.166,14.4589],[147.2812,-43.1678,17.6641],[147.2797,-43.1708,0.0],[147.2818,-43.1678,17.6641],[147.2841,-43.1672,19.9565],[147.2849,-43.1715,0.0],[147.2917,-43.1698,5.2298],[147.297,-43.1705,3.5766],[147.2986,-43.1684,4.9316],[147.3009,-43.1685,15.4373],[147.3006,-43.1757,31.9028],[147.2986,-43.1793,4.8658],[147.2995,-43.1809,2.2076],[147.3176,-43.177,0.0],[147.3288,-43.1698,0.0],[147.3346,-43.1708,9.458],[147.3365,-43.1694,5.4982],[147.3401,-43.1717,0.0],[147.3423,-43.17,4.0526],[147.3416,-43.172,0.0],[147.344,-43.172,3.3371],[147.3429,-43.1746,5.2602],[147.3391,-43.1752,1.1679],[147.3376,-43.1783,13.4201],[147.3335,-43.1799,1.8574],[147.333,-43.1816,1.2526],[147.3294,-43.182,0.0],[147.332,-43.1829,1.2526],[147.3308,-43.1847,0.0],[147.3318,-43.1853,1.7069],[147.3426,-43.1828,13.4085],[147.3468,-43.1861,8.1591],[147.3547,-43.1867,0.0],[147.3591,-43.1844,15.8764],[147.3617,-43.1763,22.1013],[147.3704,-43.1774,2.3106],[147.379,-43.176,2.4276],[147.3779,-43.1767,0.2926],[147.384,-43.1824,1.0656],[147.3863,-43.1879,0.0],[147.3852,-43.1904,3.0752],[147.3865,-43.1965,0.0],[147.3833,-43.1985,0.0],[147.385,-43.1991,2.7949],[147.3851,-43.2011,3.6206],[147.3829,-43.203,4.8947],[147.3838,-43.2048,1.9505],[147.382,-43.209,2.7772],[147.3767,-43.2092,0.0],[147.3771,-43.2135,6.366],[147.3724,-43.2156,1.6565],[147.3695,-43.2151,13.1365],[147.3651,-43.2086,6.0108],[147.3587,-43.2125,4.3079],[147.353,-43.2133,17.0684],[147.3494,-43.2122,0.0],[147.3537,-43.2166,4.4794],[147.3523,-43.2189,4.9486],[147.343,-43.2176,0.0],[147.3412,-43.2191,0.0],[147.3463,-43.2212,20.6356],[147.3475,-43.2263,0.0],[147.3518,-43.2286,0.0],[147.3542,-43.2277,13.7557],[147.3561,-43.23,7.8906],[147.3537,-43.2377,1.1344],[147.3484,-43.2371,0.0],[147.3503,-43.2395,7.9734],[147.3494,-43.2426,0.0],[147.3545,-43.242,4.0983],[147.3584,-43.2467,1.1815],[147.3587,-43.2524,0.6822],[147.3549,-43.2614,3.9437],[147.3288,-43.2884,5.4599],[147.3176,-43.2948,6.8021],[147.3084,-43.295,0.1177],[147.3089,-43.2964,5.0913],[147.3058,-43.297,1.9374],[147.3054,-43.2958,3.5778],[147.3055,-43.2947,3.5778],[147.3068,-43.2905,0.0],[147.3029,-43.2871,2.5537],[147.3015,-43.2792,0.0],[147.298,-43.2731,20.9612],[147.2979,-43.269,18.8143],[147.3022,-43.2643,1.6799],[147.2949,-43.2554,2.385],[147.2931,-43.241,0.0],[147.2918,-43.241,0.0],[147.2887,-43.2456,2.6452],[147.2894,-43.2484,2.1255],[147.2879,-43.2522,0.0],[147.2898,-43.2559,0.0],[147.2877,-43.2574,0.0],[147.2861,-43.2659,49.4574],[147.2833,-43.2692,12.305],[147.2753,-43.2719,6.6052],[147.2716,-43.276,0.0],[147.2712,-43.2834,0.0],[147.2736,-43.2868,0.0],[147.2715,-43.2886,0.0],[147.2711,-43.2955,1.8412],[147.2634,-43.299,0.0],[147.2532,-43.2994,0.0],[147.2507,-43.3034,7.5996],[147.2468,-43.3043,0.0],[147.2431,-43.3082,16.5967],[147.2415,-43.3126,3.3448],[147.2422,-43.3205,1.2377],[147.2401,-43.3235,0.9888],[147.2415,-43.3275,7.1916],[147.2404,-43.3292,2.5599],[147.2274,-43.3342,1.1135],[147.2223,-43.3398,13.2911],[147.2226,-43.3432,4.292],[147.2257,-43.3467,2.8134],[147.2231,-43.352,3.3604],[147.225,-43.3519,9.8472],[147.2273,-43.3554,3.5965],[147.2316,-43.3562,22.4955],[147.2345,-43.3619,0.0],[147.2343,-43.3645,0.0],[147.2229,-43.3644,1.1179],[147.218,-43.3623,0.0],[147.2216,-43.3706,2.5498],[147.2192,-43.3764,11.3209],[147.2154,-43.3785,4.0766],[147.2128,-43.3824,5.7105],[147.2052,-43.3827,0.0],[147.1985,-43.3791,3.7806],[147.198,-43.3756,3.2936],[147.2005,-43.3694,0.0],[147.1953,-43.3649,17.9673],[147.1956,-43.3613,0.0],[147.187,-43.3594,0.0],[147.1852,-43.3577,25.0094],[147.1849,-43.3558,16.1207],[147.19,-43.3526,0.4588],[147.1886,-43.3491,0.0],[147.1834,-43.353,11.1286],[147.1791,-43.3526,0.0],[147.1785,-43.3559,7.6778],[147.1804,-43.3577,13.9501],[147.1794,-43.3593,14.1245],[147.181,-43.3606,2.0439],[147.182,-43.3684,8.3889],[147.1798,-43.3733,4.5398],[147.1836,-43.3801,10.4945],[147.1831,-43.3821,0.0],[147.1859,-43.3847,17.2275],[147.1859,-43.3877,14.0508],[147.1807,-43.3936,4.1169],[147.1754,-43.394,2.5703],[147.1741,-43.4034,3.2692],[147.1708,-43.406,0.0],[147.1686,-43.4047,0.0],[147.1679,-43.4087,0.0],[147.1691,-43.4102,0.0],[147.1705,-43.4082,3.5288],[147.1741,-43.4091,6.6665],[147.1755,-43.4169,6.362],[147.1717,-43.4182,8.289],[147.1743,-43.4235,1.9591],[147.1783,-43.4245,2.3035],[147.1782,-43.4222,6.1785],[147.1849,-43.4181,0.0],[147.1874,-43.4191,17.5394],[147.1896,-43.4272,7.2173],[147.1924,-43.4288,2.3979],[147.1908,-43.4319,6.3345],[147.1846,-43.4316,3.5006],[147.1743,-43.4378,0.0],[147.1799,-43.4402,5.1289],[147.1804,-43.4433,11.9668],[147.1753,-43.449,11.5843],[147.1718,-43.4498,12.5269],[147.1714,-43.4517,0.0],[147.1801,-43.4548,2.7228],[147.1797,-43.4584,15.0488],[147.177,-43.4583,10.2169],[147.1729,-43.462,23.2332],[147.1638,-43.465,7.083],[147.1594,-43.4638,3.0494],[147.1619,-43.4586,3.8535],[147.1525,-43.4583,3.7426],[147.1534,-43.4564,0.0],[147.151,-43.4516,0.0],[147.1438,-43.4488,9.4071],[147.1422,-43.4444,0.0],[147.1313,-43.4326,21.6346],[147.1256,-43.4201,0.0],[147.1159,-43.4114,0.0],[147.1122,-43.413,15.7739],[147.0999,-43.4114,3.1164],[147.0972,-43.4124,0.0],[147.099,-43.4134,4.5608],[147.0989,-43.4171,13.244],[147.0938,-43.4175,0.0],[147.0917,-43.4197,5.2028],[147.0943,-43.4209,22.9937],[147.0933,-43.422,8.5434],[147.0948,-43.427,31.4733],[147.0939,-43.4284,0.0],[147.0957,-43.4282,0.0],[147.0979,-43.433,0.0],[147.1018,-43.4335,41.9763],[147.1034,-43.4351,27.8601],[147.1024,-43.436,2.2121],[147.1066,-43.4349,19.3614],[147.1073,-43.4367,0.0],[147.1104,-43.4357,18.9612],[147.1146,-43.4373,4.2228],[147.1181,-43.4463,3.5067],[147.12,-43.4476,12.1691],[147.1228,-43.4467,4.071],[147.1244,-43.4515,0.0],[147.1263,-43.4512,53.7545],[147.125,-43.4535,0.0],[147.1266,-43.4524,34.2195],[147.1299,-43.4551,0.0],[147.1323,-43.454,16.2913],[147.1325,-43.4562,0.0],[147.1357,-43.4581,1.4775],[147.1351,-43.4607,8.7902],[147.1366,-43.462,48.7768],[147.1351,-43.4632,6.5214],[147.1368,-43.4654,36.8227],[147.1335,-43.4691,0.0],[147.1354,-43.4706,24.4803],[147.1358,-43.4748,24.4338],[147.1325,-43.4802,0.0],[147.1339,-43.4808,99.3599],[147.1323,-43.4822,1.4065],[147.1347,-43.4839,54.6923],[147.1335,-43.4869,0.0],[147.1346,-43.4852,9.6522],[147.1392,-43.4844,55.3666],[147.1413,-43.4879,0.0],[147.1374,-43.4933,2.895],[147.1433,-43.4922,21.7834],[147.1464,-43.4968,0.0],[147.1508,-43.4904,0.6575],[147.1493,-43.4883,15.3268],[147.15,-43.4866,21.0477],[147.1555,-43.4838,5.533],[147.1636,-43.4841,22.1868],[147.1691,-43.4896,0.0],[147.1708,-43.4867,44.8109],[147.1728,-43.4867,0.0],[147.1778,-43.4889,72.6033],[147.1784,-43.4923,3.6776],[147.179,-43.4898,12.761],[147.1829,-43.4888,0.0],[147.182,-43.4868,31.1365],[147.1841,-43.4846,3.0271],[147.1841,-43.4816,26.8864],[147.1871,-43.4813,0.9461],[147.1864,-43.4799,0.9581],[147.1869,-43.4805,0.9581],[147.1871,-43.4802,0.9581],[147.1868,-43.4797,0.9581]]],
[[[147.2436,-43.4772,1.262],[147.2434,-43.4777,1.262],[147.2443,-43.4777,1.262],[147.2439,-43.4772,1.262],[147.2436,-43.4772,1.262]]],
[[[147.1929,-43.4669,0.0],[147.1926,-43.4675,0.0],[147.1927,-43.4676,0.0],[147.1933,-43.4667,0.0],[147.1929,-43.4669,0.0]]],
[[[147.3406,-43.4399,1.6628],[147.3391,-43.439,3.4234],[147.3415,-43.442,0.0],[147.3412,-43.4402,1.6628],[147.3406,-43.4399,1.6628]]],
[[[147.108,-43.4406,0.0],[147.1082,-43.4404,0.0],[147.1083,-43.4403,0.0],[147.1079,-43.4403,0.0],[147.108,-43.4406,0.0]]],
[[[147.10790909090909,-43.441377272727273,0.0],[147.1079,-43.4414,0.0],[147.1081,-43.4416,0.0],[147.10790909090909,-43.441377272727273,0.0]]],
[[[147.10790909090909,-43.441377272727273,0.0],[147.1081,-43.4409,0.0],[147.1075,-43.4409,0.0],[147.10790909090909,-43.441377272727273,0.0]]],
[[[147.107,-43.4361,19.3614],[147.1068,-43.436,19.3614],[147.1065,-43.4365,0.0],[147.1068,-43.4364,0.0],[147.107,-43.4361,19.3614]]],
[[[147.174,-43.4265,0.1967],[147.1736,-43.4269,0.1967],[147.1736,-43.4273,0.1967],[147.1745,-43.4264,0.1967],[147.174,-43.4265,0.1967]]],
[[[147.2066,-43.4226,0.0],[147.2064,-43.4233,0.0],[147.2068,-43.4234,0.0],[147.207,-43.4221,0.0],[147.2066,-43.4226,0.0]]]]}
,"properties": {"GID_2": "AUS.9.19_1","GID_0": "AUS","country": "Australia","GID_1": "AUS.9_1","state": "Tasmania","NL_NAME_1": "NA","county": "Kingborough","VARNAME_2": "NA","NL_NAME_2": "NA","TYPE_2": "Municipality","ENGTYPE_2": "Municipality","CC_2": "63610","HASC_2": "AU.TS.KB","name": "Kingborough.county","area_km2": 719.6952,"hist_schema_id": "Elevation0-9000","hist_area_km2": {"0": 42.8312,"25": 87.0411,"50": 75.7805,"75": 65.0191,"100": 54.9877,"125": 43.5245,"150": 36.2843,"175": 33.0736,"200": 28.8632,"225": 24.9071,"250": 25.9174,"275": 23.3627,"300": 19.5605,"325": 19.0586,"350": 18.4211,"375": 18.6495,"400": 15.7091,"425": 13.144,"450": 10.9376,"475": 8.4491,"500": 7.4293,"525": 5.5885,"550": 5.4366,"575": 4.0917,"600": 3.3957,"625": 3.6437,"650": 2.8848,"675": 2.7461,"700": 1.9089,"725": 1.4125,"750": 1.1022,"775": 1.1178,"800": 0.6986,"825": 1.0557,"850": 0.7608,"875": 1.1179,"900": 1.211,"925": 0.9005,"950": 0.8229,"975": 0.559,"1000": 0.6521,"1025": 0.5901,"1050": 0.6522,"1075": 0.7919,"1100": 0.6056,"1125": 0.5746,"1150": 0.6988,"1175": 0.4814,"1200": 0.823,"1225": 0.2019,"1250": 0.2174}}}