{"type":"Feature","properties":{"GID_2":"AUS.5.14_1","GID_0":"AUS","country":"Australia","GID_1":"AUS.5_1","state":"NewSouthWales","NL_NAME_1":"NA","county":"Blayney","VARNAME_2":"NA","NL_NAME_2":"NA","TYPE_2":"Area","ENGTYPE_2":"Area","CC_2":"10850","HASC_2":"AU.NS.BL","name":"Blayney.county"},
"geometry":{"type": "MultiPolygon","coordinates": [[[[149.3634,-33.4529,1026.2736],[149.3472,-33.4615,975.9414],[149.3443,-33.4611,978.032],[149.3452,-33.4568,982.0281],[149.341,-33.4562,965.0751],[149.3415,-33.4533,975.5522],[149.3244,-33.4508,979.4425],[149.3238,-33.4535,965.6257],[149.2384,-33.4413,961.4128],[149.2403,-33.4318,953.1475],[149.2269,-33.4241,948.7928],[149.2172,-33.423,944.212],[149.218,-33.4267,952.3546],[149.216,-33.437,951.4888],[149.2068,-33.4393,960.7034],[149.2073,-33.437,958.4388],[149.2014,-33.4361,969.3203],[149.2025,-33.4315,959.3157],[149.1868,-33.4293,953.9551],[149.1849,-33.4386,961.4949],[149.1821,-33.4381,959.6354],[149.1831,-33.4334,953.48],[149.1639,-33.4319,943.4249],[149.1571,-33.4306,947.7108],[149.1576,-33.4283,947.4047],[149.1546,-33.4279,941.3762],[149.1544,-33.4293,942.4241],[149.1442,-33.4269,939.5851],[149.1431,-33.4306,929.8761],[149.1433,-33.4296,929.8761],[149.1301,-33.4276,943.3363],[149.1208,-33.428,943.3566],[149.0805,-33.4216,960.4097],[149.0803,-33.4227,956.2585],[149.0661,-33.4207,913.042],[149.0633,-33.4245,876.6581],[149.0575,-33.4253,863.2477],[149.0598,-33.4434,848.5045],[149.0572,-33.455,841.0806],[149.0529,-33.4584,839.6876],[149.0505,-33.4639,831.3984],[148.9922,-33.4561,462.6786],[148.9928,-33.4507,733.9133],[148.9337,-33.444,680.2788],[148.9279,-33.4498,660.1116],[148.9218,-33.4471,642.2256],[148.9175,-33.4486,639.1655],[148.9081,-33.4589,625.8631],[148.9055,-33.4629,616.6669],[148.904,-33.4728,603.1906],[148.8984,-33.4815,569.2906],[148.8945,-33.4813,569.7275],[148.8954,-33.4852,558.4298],[148.8918,-33.49,550.0491],[148.8937,-33.4925,544.1554],[148.8899,-33.4964,538.9661],[148.8905,-33.4995,537.2111],[148.8871,-33.5029,530.6166],[148.8868,-33.5101,520.245],[148.8838,-33.512,519.1206],[148.8827,-33.5172,507.4147],[148.879,-33.5193,511.4178],[148.8784,-33.5227,506.1083],[148.8753,-33.5255,500.7072],[148.8766,-33.5277,499.659],[148.8743,-33.5296,498.5849],[148.8743,-33.5322,488.652],[148.8721,-33.5348,489.5158],[148.8699,-33.5344,535.4967],[148.8705,-33.537,506.6627],[148.8686,-33.5393,482.1204],[148.8578,-33.5407,471.7666],[148.8604,-33.543,477.8399],[148.8547,-33.5442,468.1924],[148.8572,-33.5471,453.0739],[148.8557,-33.5485,452.5386],[148.858,-33.556,462.6228],[148.8579,-33.5578,460.6495],[148.8552,-33.5584,438.7158],[148.8557,-33.5604,431.0638],[148.8417,-33.5632,396.3044],[148.8417,-33.5665,372.0315],[148.8389,-33.5686,371.4969],[148.8471,-33.5704,371.5809],[148.8456,-33.577,373.2057],[148.8487,-33.5798,384.5579],[148.8504,-33.5796,390.562],[148.8508,-33.5767,388.7057],[148.8526,-33.5761,398.6795],[148.8606,-33.5797,395.896],[148.8649,-33.5797,402.3506],[148.8692,-33.5736,387.2145],[148.8722,-33.5736,389.6005],[148.8742,-33.5783,391.4111],[148.8723,-33.5815,391.1243],[148.8738,-33.5836,391.4944],[148.8719,-33.5907,393.5024],[148.874,-33.5946,432.0216],[148.8812,-33.5883,402.2641],[148.881,-33.5849,399.1852],[148.8831,-33.5824,402.1538],[148.8888,-33.5828,402.3925],[148.8984,-33.5791,406.70119999999997],[148.9039,-33.5849,427.3125],[148.9079,-33.584,415.9587],[148.9082,-33.5825,408.8423],[148.9097,-33.5834,415.1673],[148.9108,-33.5853,409.7606],[148.91,-33.5878,411.266],[148.9115,-33.5883,412.8291],[148.911,-33.5944,428.5774],[148.9151,-33.5957,427.4023],[148.9178,-33.5933,424.1456],[148.9225,-33.5987,437.7893],[148.9203,-33.6016,432.3982],[148.9175,-33.6015,433.0816],[148.9193,-33.6043,434.6207],[148.9192,-33.6137,442.3743],[148.9148,-33.6164,452.3426],[148.9136,-33.6194,462.0781],[148.9144,-33.6223,453.4162],[148.9123,-33.6253,455.5532],[148.9145,-33.6312,465.6946],[148.9112,-33.6332,472.6412],[148.9117,-33.6479,493.8084],[148.9098,-33.6489,493.0745],[148.9111,-33.652,501.921],[148.9075,-33.6604,511.9261],[148.9089,-33.6619,507.0968],[148.9091,-33.6687,511.4561],[148.9072,-33.6738,516.3754],[148.9094,-33.6752,522.5869],[148.9087,-33.677,520.9308],[148.9107,-33.6793,524.8737],[148.911,-33.6839,530.4451],[148.9141,-33.6853,533.063],[148.917,-33.6841,539.0364],[148.9244,-33.6856,544.403],[148.9304,-33.688,559.4045],[148.9371,-33.6827,576.0129],[148.9451,-33.688,581.8771],[148.947,-33.6871,572.2456],[148.952,-33.6894,583.8511],[148.9578,-33.6882,591.6189],[148.9613,-33.6958,599.4225],[148.9588,-33.6993,604.6984],[148.9585,-33.703,604.9433],[148.9624,-33.7076,613.123],[148.9656,-33.7094,618.559],[148.9691,-33.7084,623.0709],[148.9685,-33.7111,632.5591],[148.9853,-33.7139,649.636],[148.9853,-33.716,650.9485],[148.9944,-33.722,671.3164],[148.993,-33.7268,679.2599],[148.9871,-33.7292,685.8779],[148.9784,-33.7376,699.9572],[148.976,-33.7499,738.6347],[148.9875,-33.7488,744.3977],[148.9929,-33.754,729.2296],[148.9756,-33.7517,732.1877],[148.9746,-33.7565,701.2737],[148.9848,-33.758,702.1042],[148.9819,-33.7723,734.4713],[148.9905,-33.7736,696.6378],[148.9889,-33.7811,667.3483],[149.0099,-33.784,769.5907],[149.0077,-33.7949,784.2866],[149.0186,-33.7964,776.74],[149.0196,-33.7918,798.7045],[149.0289,-33.7931,822.364],[149.0311,-33.798,843.2357],[149.026,-33.8033,779.8749],[149.042,-33.8056,816.2048],[149.0413,-33.8093,823.0552],[149.0646,-33.8124,839.9048],[149.0681,-33.7944,808.8526],[149.0663,-33.7942,807.7665],[149.0672,-33.7901,793.6406],[149.0916,-33.7937,815.5558],[149.094,-33.782,783.1332],[149.0883,-33.7812,822.9424],[149.0914,-33.7654,857.0172],[149.0988,-33.7655,882.6818],[149.1056,-33.7686,894.3062],[149.1069,-33.7684,894.3062],[149.1082,-33.7611,868.5713],[149.1302,-33.7643,887.2849],[149.1312,-33.7589,853.9548],[149.1387,-33.7599,882.1295],[149.1371,-33.7569,871.3041],[149.1341,-33.7565,868.1822],[149.135,-33.7514,884.4905],[149.1334,-33.7482,886.9156],[149.141,-33.7407,905.6622],[149.1411,-33.7385,893.7529],[149.146,-33.732,905.2612],[149.1495,-33.7303,881.7587],[149.1578,-33.73,939.3239],[149.1691,-33.7212,966.4623],[149.173,-33.7218,952.8796],[149.1721,-33.7263,909.7443],[149.2056,-33.7306,964.2401],[149.2064,-33.7291,972.3676],[149.2148,-33.7326,949.9381],[149.2173,-33.7287,943.8926],[149.2222,-33.7303,930.6188],[149.2251,-33.7263,937.8732],[149.2347,-33.7322,966.6466],[149.2376,-33.7398,972.1675],[149.2413,-33.7385,967.9407],[149.2578,-33.7407,929.2341],[149.263,-33.7385,952.0878],[149.2744,-33.7395,988.2206],[149.279,-33.7375,1004.6415],[149.2841,-33.7391,1019.8376],[149.2864,-33.7377,1024.3748],[149.2876,-33.7402,1043.6964],[149.2899,-33.7398,1049.4003],[149.2949,-33.7369,1052.6875],[149.2982,-33.7371,1053.9678],[149.3164,-33.724,1056.7953],[149.3207,-33.7245,1028.2983],[149.3172,-33.7425,1018.7956],[149.3348,-33.7449,980.2756],[149.3374,-33.7313,1038.0413],[149.3423,-33.7307,1034.7468],[149.3435,-33.7269,1029.5525],[149.3462,-33.7266,1032.5438],[149.347,-33.724,1037.6581],[149.3531,-33.7183,1040.2607],[149.356,-33.7108,1049.917],[149.3685,-33.7015,1051.4827],[149.3713,-33.6971,1048.7578],[149.384,-33.6949,1041.4843],[149.3851,-33.6958,1039.0276],[149.3943,-33.6932,1034.4666],[149.4005,-33.6835,971.6358],[149.4033,-33.6738,949.5444],[149.4094,-33.639,939.6921],[149.4111,-33.6393,928.0082],[149.4153,-33.6191,943.5081],[149.4191,-33.6196,929.2261],[149.4176,-33.6172,934.1831],[149.4116,-33.6164,939.7754],[149.413,-33.6083,930.6166],[149.406,-33.606,956.3884],[149.4078,-33.5974,929.0569],[149.4108,-33.5977,920.5775],[149.4136,-33.5826,846.0247],[149.415,-33.5827,821.1743],[149.4221,-33.5435,847.4067],[149.4097,-33.5419,822.0307],[149.411,-33.5342,815.3339],[149.4067,-33.5337,804.2587],[149.4061,-33.5373,810.0406],[149.372,-33.533,905.032],[149.3718,-33.534,905.032],[149.3637,-33.5329,903.8663],[149.364,-33.5314,903.8663],[149.3581,-33.5305,916.9604],[149.3587,-33.5272,930.8163],[149.3536,-33.5266,917.1344],[149.3546,-33.5204,948.5637],[149.358,-33.5209,953.3076],[149.3622,-33.4993,973.0002],[149.3578,-33.4987,989.4409],[149.357,-33.5034,1000.5111],[149.3555,-33.5032,1005.8438],[149.3589,-33.484,973.7784],[149.3675,-33.4852,950.709],[149.3697,-33.4729,977.7209],[149.3624,-33.4715,998.4601],[149.3615,-33.4628,1028.1361],[149.363,-33.4606,1018.2351],[149.3634,-33.4529,1026.2736]]]]}}