{"type":"Feature","properties":{"GID_2":"AUS.5.20_1","GID_0":"AUS","country":"Australia","GID_1":"AUS.5_1","state":"NewSouthWales","NL_NAME_1":"NA","county":"Bourke","VARNAME_2":"NA","NL_NAME_2":"NA","TYPE_2":"Area","ENGTYPE_2":"Area","CC_2":"11150","HASC_2":"AU.NS.BQ","name":"Bourke.county"},
"geometry":{"type": "MultiPolygon","coordinates": [[[[146.4312,-30.6928,155.535],[146.4611,-30.6872,168.8176],[146.4498,-30.6455,160.8123],[146.4482,-30.6458,160.2616],[146.4373,-30.6027,169.1025],[146.4238,-30.6053,161.8222],[146.3778,-30.4156,147.8719],[146.4046,-30.4187,152.1162],[146.4169,-30.3562,176.9234],[146.3547,-30.3496,152.6692],[146.3571,-30.3347,157.4867],[146.3714,-30.3361,159.6861],[146.3815,-30.279,140.1244],[146.3742,-30.2729,139.6168],[146.3864,-30.2521,128.8896],[146.3973,-30.2531,128.3293],[146.3976,-30.2496,126.7475],[146.3888,-30.2479,125.4697],[146.427,-30.1809,115.97],[146.4105,-30.1753,116.4509],[146.4182,-30.1625,114.6733],[146.3665,-30.1387,112.9457],[146.4441,-30.0063,110.7742],[146.4568,-30.0075,110.7793],[146.4647,-29.9532,111.4267],[146.4697,-29.9537,111.4349],[146.4713,-29.9403,107.4825],[146.47,-29.9429,105.6571],[146.4643,-29.9453,108.1763],[146.459,-29.9411,113.5008],[146.4588,-29.9391,110.5251],[146.4623,-29.9388,107.0324],[146.463,-29.9357,107.8487],[146.4664,-29.9331,111.0317],[146.4636,-29.9241,109.8277],[146.461,-29.9235,108.8013],[146.458,-29.9286,109.9668],[146.4521,-29.9265,110.2504],[146.4554,-29.9201,109.4673],[146.458,-29.9042,110.9363],[146.4508,-29.8422,110.8584],[146.4525,-29.841,111.3835],[146.4502,-29.8399,108.79],[146.4547,-29.8379,110.4648],[146.4523,-29.8345,109.523],[146.4541,-29.8328,110.2167],[146.4551,-29.834,111.5621],[146.4618,-29.8324,111.4174],[146.467,-29.8283,110.4608],[146.4682,-29.8236,111.8869],[146.4659,-29.8217,110.799],[146.4664,-29.8195,109.6111],[146.4714,-29.8172,110.5821],[146.4732,-29.8191,112.1982],[146.4755,-29.8178,110.9773],[146.4746,-29.8154,111.0012],[146.4764,-29.8158,111.1341],[146.4774,-29.8139,110.7719],[146.4849,-29.8133,110.7836],[146.4865,-29.8105,111.2123],[146.4842,-29.8105,111.2238],[146.4841,-29.8074,111.6152],[146.4811,-29.8052,111.7248],[146.4862,-29.8033,111.2328],[146.4866,-29.8008,110.9177],[146.4836,-29.7983,110.354],[146.4865,-29.798,112.4592],[146.4869,-29.7945,110.2341],[146.489,-29.7956,112.3873],[146.4917,-29.7947,112.3044],[146.4929,-29.792,110.4617],[146.4979,-29.7918,110.7102],[146.4994,-29.7881,110.9003],[146.505,-29.7907,112.544],[146.5053,-29.7863,112.4594],[146.5079,-29.7848,113.3792],[146.505,-29.7839,111.7738],[146.505,-29.7821,111.3401],[146.5079,-29.7836,114.5272],[146.5089,-29.7802,112.6861],[146.5158,-29.7756,112.4135],[146.5158,-29.7729,112.4126],[146.5224,-29.7729,111.5974],[146.5259,-29.7703,111.6696],[146.5268,-29.7666,111.7797],[146.5277,-29.7686,112.3386],[146.5315,-29.767,112.1277],[146.5319,-29.7692,112.7586],[146.5336,-29.7695,113.0818],[146.5362,-29.7681,112.4872],[146.537,-29.7636,111.7804],[146.5479,-29.7615,112.1359],[146.5502,-29.7585,113.7775],[146.5527,-29.7598,112.6598],[146.5533,-29.757,112.7184],[146.5592,-29.7537,113.4218],[146.5629,-29.7535,112.5205],[146.5655,-29.7551,113.7824],[146.5685,-29.7541,112.7485],[146.5718,-29.7556,113.4599],[146.5755,-29.7538,113.0251],[146.5785,-29.7485,114.3453],[146.574,-29.7451,113.1373],[146.5759,-29.7438,112.6299],[146.5791,-29.7466,114.5611],[146.5791,-29.7446,114.2757],[146.584,-29.7406,114.0036],[146.582,-29.7408,113.6151],[146.5828,-29.7368,113.6666],[146.5892,-29.7328,112.118],[146.5964,-29.7323,115.0714],[146.5937,-29.7307,112.7664],[146.5956,-29.7285,113.9391],[146.5963,-29.7305,114.5633],[146.6,-29.7294,115.1767],[146.6023,-29.7254,114.9761],[146.6114,-29.7193,114.3025],[146.6133,-29.7093,113.9707],[146.6173,-29.7077,114.3978],[146.6189,-29.7086,115.1754],[146.6197,-29.7064,115.0047],[146.6242,-29.7051,114.9703],[146.6267,-29.7006,114.7785],[146.6358,-29.6962,114.6467],[146.6373,-29.6918,115.5301],[146.6395,-29.6941,114.8193],[146.6433,-29.6917,114.7464],[146.6478,-29.6914,115.0662],[146.6465,-29.6896,115.8426],[146.6497,-29.6891,114.7449],[146.6499,-29.6874,115.7841],[146.6548,-29.6842,114.4669],[146.658,-29.6785,116.923],[146.6553,-29.6718,116.286],[146.651,-29.6666,116.3331],[146.6461,-29.6543,116.6063],[146.6479,-29.6529,115.7869],[146.6461,-29.6484,115.8695],[146.6471,-29.6462,115.8732],[146.6391,-29.6329,116.7358],[146.6303,-29.6296,118.0916],[146.6295,-29.6284,116.061],[146.6309,-29.6269,118.1672],[146.6279,-29.6234,117.517],[146.6082,-29.6321,116.6218],[146.6108,-29.6368,117.1751],[146.5825,-29.6488,116.4708],[146.4638,-29.5354,116.7788],[146.4854,-29.4932,120.2766],[146.5231,-29.3812,123.0367],[146.4205,-29.3815,120.4156],[146.4201,-29.2363,144.3611],[146.4036,-29.2366,139.3123],[146.3799,-29.2335,140.0115],[146.3502,-29.2352,140.9939],[146.3497,-29.0904,137.8624],[146.375,-29.0904,136.7809],[146.3754,-28.9988,140.6969],[144.3921,-28.999,127.7299],[144.3881,-29.0064,127.1668],[144.3807,-29.0113,127.4675],[144.3737,-29.0254,127.0648],[144.3698,-29.0274,127.0641],[144.3643,-29.0432,126.3559],[144.3653,-29.0485,126.3948],[144.3633,-29.0547,126.0294],[144.3597,-29.0619,125.9214],[144.3567,-29.0641,125.5064],[144.356,-29.0826,126.4979],[144.3608,-29.0911,125.7689],[144.3702,-29.104,125.3458],[144.379,-29.1089,124.8033],[144.3933,-29.1122,124.6439],[144.4137,-29.1078,123.642],[144.4233,-29.1089,123.9708],[144.434,-29.1028,123.1716],[144.4407,-29.1043,123.1073],[144.4432,-29.1075,123.0431],[144.4429,-29.111,122.6965],[144.4463,-29.1145,122.2952],[144.4466,-29.1223,122.089],[144.4557,-29.127,122.647],[144.46,-29.1333,121.6141],[144.4646,-29.1348,120.8247],[144.4677,-29.1381,122.0946],[144.4724,-29.1497,120.4851],[144.4757,-29.1526,120.9309],[144.4748,-29.1595,120.9122],[144.4807,-29.1686,120.8176],[144.4788,-29.1733,120.6963],[144.4792,-29.1793,120.5639],[144.4722,-29.1852,120.5169],[144.4711,-29.1913,120.9407],[144.4742,-29.1996,120.2417],[144.4656,-29.207,119.5275],[144.4612,-29.2168,119.5469],[144.4636,-29.2248,119.6172],[144.4683,-29.2292,119.8275],[144.4683,-29.231,120.214],[144.4645,-29.2358,119.5154],[144.4545,-29.2391,118.4611],[144.4517,-29.2419,118.2964],[144.45,-29.2491,118.9195],[144.4509,-29.2536,118.2038],[144.4546,-29.2558,118.4148],[144.4541,-29.259,118.1937],[144.4493,-29.2665,118.4956],[144.4312,-29.2743,118.0502],[144.4273,-29.2834,117.6038],[144.4183,-29.2867,117.8735],[144.4167,-29.2941,117.4183],[144.4105,-29.2988,116.7525],[144.4032,-29.3158,115.6521],[144.4035,-29.322,116.8006],[144.4091,-29.3273,116.5481],[144.41,-29.3325,116.262],[144.4144,-29.337,115.244],[144.4138,-29.3512,116.1149],[144.4158,-29.3528,116.3225],[144.4168,-29.358,117.5384],[144.4211,-29.3585,116.8675],[144.4215,-29.3624,116.2695],[144.4245,-29.3673,116.0918],[144.4235,-29.374,115.7922],[144.4198,-29.3802,116.1843],[144.4208,-29.3843,116.1929],[144.4169,-29.3884,116.7503],[144.4202,-29.4026,115.3859],[144.4175,-29.4104,114.7184],[144.4127,-29.4167,113.5833],[144.4119,-29.4269,114.6787],[144.4136,-29.4286,113.8086],[144.4021,-29.4491,114.2475],[144.3986,-29.4491,114.0444],[144.3967,-29.4511,113.7868],[144.3943,-29.461,113.3253],[144.3859,-29.4652,112.8613],[144.3763,-29.4769,112.1694],[144.374,-29.4838,111.8153],[144.3621,-29.4903,112.3007],[144.3516,-29.5023,111.7048],[144.3393,-29.5126,112.5542],[144.337,-29.5134,110.606],[144.3367,-29.5088,112.2822],[144.3344,-29.5094,109.9756],[144.321,-29.5237,110.2874],[144.3212,-29.5269,110.7714],[144.3178,-29.5281,111.4714],[144.3144,-29.5358,111.3291],[144.3029,-29.5428,110.5651],[144.302,-29.5457,110.3218],[144.2985,-29.5484,110.4007],[144.2962,-29.5552,109.5423],[144.2907,-29.5589,109.9301],[144.2819,-29.5711,109.6355],[144.273,-29.5732,108.1071],[144.2605,-29.5841,108.8302],[144.2476,-29.5869,108.7476],[144.2435,-29.5895,108.1065],[144.2366,-29.6037,108.4081],[144.2321,-29.6057,108.6182],[144.2317,-29.6116,107.653],[144.2283,-29.614,107.8479],[144.2298,-29.6207,107.9357],[144.226,-29.6268,107.7391],[144.2173,-29.6316,107.6543],[144.2123,-29.6312,107.8207],[144.2044,-29.6354,107.561],[144.2058,-29.6367,108.2593],[144.2035,-29.6411,107.6744],[144.1999,-29.6427,107.552],[144.1937,-29.6495,106.8733],[144.195,-29.6599,106.4412],[144.1891,-29.6637,106.2125],[144.1757,-29.6789,106.2708],[144.1686,-29.6831,107.1252],[144.1653,-29.6912,106.0441],[144.1375,-29.6876,106.9969],[144.1371,-29.6904,106.7551],[144.1459,-29.6977,105.3642],[144.1353,-29.7071,106.8645],[144.1457,-29.7157,105.1569],[144.1393,-29.7186,105.0572],[144.1348,-29.7237,105.4609],[144.1352,-29.7272,105.2277],[144.1328,-29.7283,104.9684],[144.1293,-29.7368,105.0443],[144.1309,-29.7421,105.2035],[144.1402,-29.7567,104.1017],[144.142,-29.7679,103.5381],[144.1385,-29.7741,103.2264],[144.1271,-29.7821,103.1976],[144.1274,-29.7872,101.1737],[144.1183,-29.7907,101.0811],[144.113,-29.8018,103.0963],[144.1202,-29.8085,102.3422],[144.1208,-29.8108,102.2559],[144.1132,-29.8136,102.9226],[144.1111,-29.8168,104.0823],[144.1158,-29.8242,102.3495],[144.1256,-29.8292,103.7852],[144.1244,-29.8351,101.2032],[144.137,-29.8412,103.475],[144.1372,-29.8423,103.2815],[144.1265,-29.8414,103.5319],[144.1256,-29.8486,103.6162],[144.1355,-29.8495,103.0217],[144.1395,-29.8662,104.9492],[144.144,-29.8722,103.5464],[144.1449,-29.88,103.3594],[144.1487,-29.8802,102.979],[144.1501,-29.883,102.1593],[144.1485,-29.8913,101.9715],[144.1461,-29.8925,102.9176],[144.1516,-29.898,102.8321],[144.1472,-29.9022,102.4069],[144.1416,-29.904,102.0181],[144.1382,-29.9086,101.8816],[144.141,-29.9169,101.9773],[144.1389,-29.9166,101.6637],[144.1351,-29.9228,101.2605],[144.1402,-29.9371,100.7686],[144.1384,-29.9382,100.9267],[144.1323,-29.9369,101.3253],[144.1285,-29.9395,100.9597],[144.1306,-29.9428,100.9319],[144.1293,-29.9472,100.9217],[144.132,-29.9558,100.438],[144.1298,-29.9595,100.3823],[144.1293,-29.9666,100.1059],[144.1322,-29.9712,100.6129],[144.1336,-29.9807,100.4464],[144.1323,-29.9821,99.8802],[144.133,-29.9857,100.7203],[144.129,-29.9873,99.482],[144.1301,-29.9939,100.0137],[144.1279,-29.9997,99.6634],[144.1242,-30.0029,99.4919],[144.124,-30.0061,98.9371],[144.118,-30.0144,99.0357],[144.1109,-30.0158,99.3815],[144.1065,-30.0203,99.3166],[144.1011,-30.0227,98.767],[144.0963,-30.0331,98.5239],[144.0963,-30.041,98.7273],[144.0951,-30.0427,98.5932],[144.0847,-30.0436,98.8729],[144.0808,-30.0469,98.9999],[144.0731,-30.0457,98.285],[144.0684,-30.0478,98.0894],[144.0652,-30.0561,96.9947],[144.0664,-30.0604,96.678],[144.0654,-30.0633,96.1918],[144.2344,-30.0799,100.3264],[144.2098,-30.2398,93.4966],[144.3444,-30.254,108.1421],[144.1876,-30.3607,94.5204],[144.5954,-30.8131,89.2051],[144.5897,-30.8154,88.0726],[144.6614,-30.8949,89.0038],[144.6848,-30.8931,85.3856],[144.6898,-30.8912,85.7535],[144.6939,-30.8868,85.095],[144.693,-30.8845,88.9001],[144.6949,-30.8811,90.8874],[144.6995,-30.8784,90.0019],[144.6982,-30.8693,86.6573],[144.6994,-30.868,86.6573],[144.8143,-30.9931,102.5428],[144.9121,-30.925,108.659],[144.9136,-30.9248,108.8015],[144.9264,-30.9389,107.6119],[144.9827,-30.897,115.1492],[145.0092,-30.9257,119.3885],[145.0629,-30.8894,149.3524],[145.0655,-30.8896,147.2455],[145.0874,-30.9142,142.5248],[145.1259,-30.8912,191.4664],[145.0633,-30.7986,201.3587],[145.2278,-30.7319,115.1655],[145.2453,-30.765,118.5712],[145.3842,-30.6969,126.0162],[145.4682,-30.8224,161.9276],[145.4637,-30.8247,159.3335],[145.5646,-30.9799,200.1801],[145.6086,-30.9584,201.878],[145.5759,-30.9107,196.3011],[145.6633,-30.8641,185.5525],[145.654,-30.8512,184.5547],[145.6643,-30.8501,179.946],[145.6648,-30.8465,180.3515],[145.669,-30.8441,178.5731],[145.6607,-30.8313,186.7578],[145.7344,-30.7955,169.3461],[145.7791,-30.8624,159.1702],[145.8494,-30.8285,159.2593],[145.8473,-30.8251,157.8345],[145.9126,-30.7933,181.9723],[145.9209,-30.7941,178.3222],[145.9224,-30.7843,172.6378],[145.9181,-30.7839,174.4686],[145.9022,-30.7614,159.94],[145.8941,-30.757,160.638],[145.8864,-30.7465,160.4481],[145.888,-30.7418,154.9405],[145.9098,-30.7405,154.3759],[145.9685,-30.712,149.0994],[145.9923,-30.7479,182.1679],[146.0705,-30.7094,151.9405],[146.0578,-30.6891,136.807],[146.1249,-30.6563,134.4848],[146.1793,-30.7396,144.5269],[146.2323,-30.8273,169.1243],[146.302,-30.7909,166.6699],[146.3455,-30.8531,161.793],[146.3603,-30.8247,159.0908],[146.4049,-30.802,156.8446],[146.3196,-30.7136,149.8948],[146.4312,-30.6928,155.535]]]]}}