{"type": "Feature","bbox": [141.7273,-12.3913,142.2213,-11.9524],"geometry": {"type": "MultiPolygon","coordinates": [[[[142.2213,-12.2791,59.6912],[142.0782,-12.2822,5.2601],[142.0814,-12.2896,9.4262],[142.0835,-12.2909,8.4896],[142.1001,-12.2928,8.2058],[142.1059,-12.2957,6.0674],[142.1097,-12.3007,5.912],[142.1127,-12.3149,9.5407],[142.1073,-12.3206,11.3352],[142.1071,-12.3232,8.8511],[142.1114,-12.3294,8.8303],[142.1122,-12.3351,6.8878],[142.1034,-12.3402,6.8259],[142.1023,-12.3447,8.9401],[142.123,-12.3702,7.7372],[142.1218,-12.3724,11.0943],[142.1186,-12.3732,11.8954],[142.1212,-12.3811,5.6749],[142.1188,-12.3913,8.0479],[142.1322,-12.3897,10.4518],[142.2213,-12.2791,59.6912]]],
[[[141.8139,-12.2468,11.0899],[141.8134,-12.2488,12.8847],[141.8492,-12.2498,15.2497],[141.8487,-12.1939,16.0951],[141.8701,-12.1868,18.47],[141.9105,-12.1635,9.2083],[141.9153,-12.1651,3.3902],[141.9251,-12.1638,0.5],[141.9298,-12.1615,0.5],[141.9376,-12.1538,3.3769],[141.9411,-12.1528,0.0],[141.9444,-12.1487,0.0],[141.9427,-12.1451,16.312],[141.9314,-12.1342,8.2249],[141.9225,-12.1076,8.4062],[141.9221,-12.0948,0.0],[141.9184,-12.086,1.8432],[141.9159,-12.0626,0.0],[141.9156,-12.0572,0.0],[141.9183,-12.0486,0.0],[141.9142,-12.0323,9.095],[141.9084,-12.0233,3.9389],[141.9083,-12.0179,0.0],[141.9029,-12.0176,7.7751],[141.8954,-12.0066,7.2511],[141.8914,-11.999,1.1011],[141.8912,-11.9915,0.0],[141.8865,-11.985,9.2159],[141.8902,-11.9724,5.776],[141.8958,-11.9643,9.1821],[141.904,-11.9574,8.116],[141.9088,-11.9564,1.4176],[141.9064,-11.9534,4.1096],[141.8948,-11.954,0.0],[141.8847,-11.9524,0.0],[141.88,-11.9544,0.0],[141.8504,-11.9845,0.0],[141.8353,-12.0154,1.1142],[141.8283,-12.0238,0.0],[141.8257,-12.0246,0.0],[141.8238,-12.0305,0.0],[141.8206,-12.0314,0.0],[141.8143,-12.0409,0.0],[141.7535,-12.18,1.9456],[141.7354,-12.2182,2.177],[141.7273,-12.2277,0.0],[141.7394,-12.2286,0.0],[141.746,-12.2264,0.0],[141.7632,-12.2326,0.0],[141.774,-12.2284,0.0],[141.7847,-12.2308,5.5254],[141.7853,-12.2354,0.0],[141.7951,-12.2378,0.5],[141.8011,-12.2423,0.5],[141.811,-12.2441,4.0105],[141.8139,-12.2468,11.0899]]],
[[[141.9935,-12.0623,11.5353],[141.9942,-12.0597,7.9351],[141.9931,-12.0585,5.4572],[141.9831,-12.055,10.4283],[141.9699,-12.044,1.1393],[141.9658,-12.0421,1.4419],[141.958,-12.0423,0.0],[141.9464,-12.0567,11.5641],[141.9323,-12.0709,0.0],[141.9285,-12.0923,0.0],[141.9289,-12.104,0.0],[141.9356,-12.1289,7.7492],[141.9461,-12.1418,0.0],[141.948,-12.1512,0.0],[141.9453,-12.156,9.8323],[141.9296,-12.1673,6.5267],[141.925,-12.1684,3.8152],[141.9611,-12.1805,14.3988],[141.9676,-12.1527,11.8811],[141.9493,-12.0859,7.6304],[141.9683,-12.066,5.2602],[141.9864,-12.0594,3.5544],[142.0042,-12.1282,17.1493],[142.0114,-12.1219,12.5941],[142.006,-12.0932,9.5023],[142.0221,-12.0808,5.8402],[142.0465,-12.1127,6.5152],[142.0427,-12.0636,3.9015],[142.071,-12.0403,10.2469],[142.0651,-12.0075,4.781],[142.0876,-11.9969,13.6249],[142.1021,-11.985,13.3797],[142.0965,-11.9834,15.5364],[142.0799,-11.9836,0.5],[142.0645,-11.9797,0.5],[142.0496,-11.9835,0.5],[142.039,-11.9978,0.5],[142.0387,-12.0219,0.5],[142.0356,-12.038,0.375],[142.0262,-12.0628,0.0],[142.0209,-12.0721,10.5893],[142.0201,-12.0784,2.6107],[142.0158,-12.0769,3.8498],[142.0107,-12.0792,2.3206],[142.0048,-12.0781,5.0927],[141.9944,-12.0681,9.9509],[141.9935,-12.0623,11.5353]]]]}
,"properties": {"GID_2": "AUS.7.41_1","GID_0": "AUS","country": "Australia","GID_1": "AUS.7_1","state": "Queensland","NL_NAME_1": "NA","county": "Mapoon","VARNAME_2": "NA","NL_NAME_2": "NA","TYPE_2": "Shire","ENGTYPE_2": "Shire","CC_2": "34830","HASC_2": "NA","name": "Mapoon.county","area_km2": 549.0773,"hist_schema_id": "Elevation0-9000","hist_area_km2": {"0": 325.7267,"25": 202.9248,"50": 20.4051,"75": 0.0207}}}