{"type": "Feature","bbox": [145.2817,-37.9747,146.1925,-37.5251],"geometry": {"type": "MultiPolygon","coordinates": [[[[146.1921,-37.5877,1221.2839],[146.1896,-37.5853,1234.5925],[146.1925,-37.5811,1323.8193],[146.1902,-37.5769,1348.4019],[146.1907,-37.5718,1338.9204],[146.1845,-37.561,1231.9946],[146.1864,-37.5546,1227.9917],[146.1852,-37.5507,1220.2825],[146.1828,-37.549,1227.3613],[146.187,-37.5435,1210.1724],[146.1874,-37.5363,1278.5648],[146.186,-37.5348,1270.561],[145.8897,-37.5323,1305.6055],[145.8806,-37.5251,1367.0723],[145.8708,-37.5303,1215.5684],[145.8638,-37.5322,1270.647],[145.8576,-37.5321,1254.3434],[145.8472,-37.528,1071.8949],[145.8406,-37.5321,1037.9103],[145.8344,-37.5318,978.4728],[145.8263,-37.5281,1018.5062],[145.8236,-37.5308,987.664],[145.8242,-37.5332,1045.5161],[145.8199,-37.5346,1057.5575],[145.8221,-37.54,1015.1747],[145.8188,-37.5442,1030.9037],[145.8162,-37.5564,920.3804],[145.809,-37.5601,909.6145],[145.8092,-37.5644,908.9141],[145.7955,-37.5639,958.4224],[145.7908,-37.562,990.8488],[145.7885,-37.565,983.4248],[145.7698,-37.5703,948.1837],[145.7661,-37.5736,910.6311],[145.7554,-37.5748,944.7488],[145.7528,-37.5729,928.0098],[145.7451,-37.5719,954.101],[145.7406,-37.5667,1019.5119],[145.7387,-37.5664,1019.5119],[145.7337,-37.5731,1006.9808],[145.7306,-37.5821,941.5173],[145.7311,-37.5858,949.4897],[145.7331,-37.586,939.842],[145.736,-37.5896,888.9671],[145.7373,-37.594,893.5687],[145.6759,-37.6242,885.1355],[145.6734,-37.6223,845.2532],[145.6673,-37.6222,749.9308],[145.6625,-37.6183,585.2864],[145.6593,-37.6178,573.3173],[145.6581,-37.6121,608.2555],[145.6545,-37.6086,654.6893],[145.6541,-37.6022,635.4901],[145.6469,-37.594,595.4562],[145.6407,-37.5892,598.4695],[145.6326,-37.5876,617.8803],[145.6273,-37.5808,663.8302],[145.6208,-37.5771,724.426],[145.618,-37.5723,778.9556],[145.6149,-37.571,782.8572],[145.6124,-37.5741,842.3314],[145.6025,-37.5761,911.6322],[145.6025,-37.5687,948.7043],[145.6009,-37.5665,958.1246],[145.5948,-37.5658,888.1742],[145.5923,-37.5677,919.9563],[145.5861,-37.5673,870.1807],[145.5816,-37.5713,783.2925],[145.578,-37.5721,852.6854],[145.5733,-37.5799,913.4808],[145.5732,-37.5863,928.4546],[145.5665,-37.5889,930.819],[145.5626,-37.5932,931.6016],[145.5582,-37.5903,902.6867],[145.5476,-37.5746,874.6213],[145.5402,-37.5717,875.0962],[145.5373,-37.5657,960.2338],[145.5375,-37.5626,976.9612],[145.5315,-37.5569,953.1866],[145.528,-37.5567,954.9723],[145.5253,-37.5637,966.1996],[145.5232,-37.5614,922.7412],[145.5187,-37.5612,740.8201],[145.508,-37.5559,540.629],[145.5025,-37.5559,522.5201],[145.5087,-37.5636,594.0065],[145.4968,-37.5636,510.8915],[145.4968,-37.5602,496.1643],[145.482,-37.5601,424.558],[145.482,-37.5547,471.1914],[145.4742,-37.5547,361.0941],[145.4734,-37.5581,356.7496],[145.4699,-37.5577,317.2956],[145.4678,-37.5498,365.515],[145.4378,-37.5459,266.5493],[145.4405,-37.5334,408.1876],[145.4327,-37.5308,380.7308],[145.426,-37.535,403.5134],[145.4185,-37.5315,401.7613],[145.4187,-37.5266,380.7787],[145.4035,-37.5271,426.9527],[145.4012,-37.5375,455.5868],[145.3939,-37.5409,461.3865],[145.3895,-37.5397,441.9658],[145.3866,-37.5434,374.4751],[145.3835,-37.542,422.1005],[145.3799,-37.5429,459.7311],[145.3758,-37.5405,465.9137],[145.3684,-37.5453,486.2234],[145.3664,-37.5451,514.0305],[145.3644,-37.5628,252.9479],[145.355,-37.6007,323.5161],[145.3566,-37.6055,300.9259],[145.3553,-37.6119,287.0934],[145.3563,-37.6139,288.7233],[145.3526,-37.6154,297.1887],[145.3578,-37.6187,285.1693],[145.3561,-37.6226,244.4052],[145.3584,-37.6275,278.8365],[145.3556,-37.6308,306.5597],[145.3532,-37.6399,287.8165],[145.3539,-37.6439,263.3024],[145.3478,-37.6487,298.1903],[145.3458,-37.6557,269.6565],[145.3355,-37.6624,291.7963],[145.3326,-37.6706,237.6034],[145.3304,-37.6719,224.9924],[145.3324,-37.68,149.4917],[145.3356,-37.6821,64.9345],[145.3314,-37.6875,63.9206],[145.331,-37.6922,63.603],[145.3266,-37.689,92.4202],[145.317,-37.692,73.6524],[145.3193,-37.6935,101.5973],[145.319,-37.6967,113.4218],[145.3149,-37.6996,67.428],[145.3221,-37.7075,60.4836],[145.3142,-37.7066,60.5042],[145.3141,-37.7081,59.9825],[145.3124,-37.7084,59.7335],[145.3142,-37.7088,59.9825],[145.3139,-37.71,61.7197],[145.3113,-37.7091,59.7335],[145.3112,-37.712,59.5241],[145.3124,-37.7124,59.5241],[145.3113,-37.7131,60.6244],[145.3127,-37.7144,70.9536],[145.3112,-37.7161,60.476],[145.3023,-37.7166,63.1047],[145.3025,-37.7149,60.8144],[145.2995,-37.7128,65.0116],[145.296,-37.7139,60.5455],[145.2936,-37.7122,68.0156],[145.2924,-37.7192,61.4166],[145.2939,-37.7229,69.5649],[145.2925,-37.7273,62.5041],[145.2831,-37.7333,88.3279],[145.2817,-37.7426,86.4091],[145.2838,-37.7472,91.2136],[145.2897,-37.7527,85.7635],[145.2908,-37.7555,72.025],[145.2896,-37.7628,81.5552],[145.2964,-37.7635,75.5493],[145.2959,-37.7664,76.3021],[145.3003,-37.7674,79.1489],[145.2973,-37.7704,77.5845],[145.3035,-37.7757,80.2125],[145.3079,-37.7775,81.799],[145.306,-37.7799,86.1696],[145.3074,-37.7837,88.8337],[145.3055,-37.7831,95.8029],[145.3053,-37.7844,95.8029],[145.3057,-37.7892,109.8837],[145.3086,-37.7896,93.4385],[145.307,-37.7924,113.7464],[145.3091,-37.7954,105.8969],[145.3043,-37.8215,114.4087],[145.3168,-37.8182,126.4677],[145.3187,-37.8317,142.066],[145.3178,-37.845,140.1371],[145.3328,-37.8474,222.9821],[145.3321,-37.851,229.5971],[145.3362,-37.851,308.515],[145.3385,-37.8524,339.4789],[145.3378,-37.8532,278.4161],[145.3412,-37.8538,303.0847],[145.3476,-37.8594,368.3555],[145.3458,-37.8592,368.3555],[145.3435,-37.8623,412.8865],[145.3395,-37.8586,332.3009],[145.3404,-37.8572,293.7906],[145.3366,-37.8562,246.8281],[145.3342,-37.858,268.6953],[145.336,-37.8631,368.9596],[145.3332,-37.8616,294.2185],[145.3242,-37.8671,291.5803],[145.3244,-37.8658,252.7479],[145.3168,-37.8649,313.061],[145.3165,-37.8627,280.2994],[145.3135,-37.8633,304.1581],[145.3136,-37.8645,304.1581],[145.3039,-37.8629,188.7062],[145.3021,-37.8642,227.5425],[145.3085,-37.8711,258.5371],[145.3079,-37.8762,217.1491],[145.3062,-37.876,197.468],[145.3053,-37.8791,235.5418],[145.3062,-37.8812,269.6745],[145.3041,-37.8816,197.074],[145.3045,-37.888,192.3893],[145.3099,-37.8896,222.8134],[145.3117,-37.8928,165.8772],[145.3161,-37.8925,163.7914],[145.3162,-37.8949,144.5736],[145.3242,-37.8995,212.1902],[145.3206,-37.8992,154.919],[145.3214,-37.9002,170.9554],[145.3139,-37.9016,218.0978],[145.3095,-37.8995,158.672],[145.3092,-37.904,152.0539],[145.305,-37.9057,155.7729],[145.2945,-37.9003,121.0652],[145.2956,-37.9051,91.2864],[145.2927,-37.9072,90.2541],[145.2987,-37.9117,104.7902],[145.298,-37.9135,125.4007],[145.3006,-37.9173,110.0589],[145.3004,-37.9204,115.737],[145.3028,-37.9232,122.9522],[145.3039,-37.9334,143.2813],[145.2999,-37.9315,122.7249],[145.2932,-37.9649,73.189],[145.3166,-37.9678,68.708],[145.3169,-37.966,70.467],[145.3834,-37.9747,112.4002],[145.3841,-37.9707,107.1943],[145.388,-37.971,98.4285],[145.3881,-37.9573,161.7996],[145.3823,-37.9559,150.5587],[145.3851,-37.9529,155.1411],[145.3822,-37.9412,160.0384],[145.3857,-37.9361,174.357],[145.3841,-37.9296,186.057],[145.3855,-37.9277,194.1687],[145.3898,-37.9243,205.7346],[145.3985,-37.9213,256.9633],[145.4008,-37.9236,275.0513],[145.4008,-37.9263,237.1599],[145.4093,-37.9274,221.8676],[145.4116,-37.9262,257.9425],[145.4113,-37.9277,214.1033],[145.416,-37.9283,252.4875],[145.417,-37.9229,307.0804],[145.4196,-37.9263,274.1854],[145.4229,-37.9192,286.7057],[145.4255,-37.9199,265.0653],[145.4285,-37.9135,294.5786],[145.4387,-37.9146,215.6595],[145.4397,-37.91,211.8214],[145.442,-37.9097,229.6786],[145.4427,-37.907,233.1856],[145.4446,-37.9063,240.8599],[145.4565,-37.9072,214.5353],[145.4594,-37.9054,222.1248],[145.4667,-37.912,260.8498],[145.4691,-37.9102,249.8357],[145.4705,-37.9011,256.3297],[145.4738,-37.9,267.5183],[145.4797,-37.9007,222.821],[145.4816,-37.8984,206.8889],[145.4897,-37.8994,177.7098],[145.4899,-37.8983,177.7098],[145.4978,-37.9004,221.1913],[145.5077,-37.8998,148.8609],[145.521,-37.8898,137.3411],[145.5224,-37.8871,154.542],[145.5255,-37.8874,140.5893],[145.5269,-37.8853,141.7364],[145.5256,-37.8827,136.5895],[145.5289,-37.8754,139.0038],[145.5283,-37.8709,126.4039],[145.5263,-37.8685,130.7808],[145.5268,-37.8636,127.6321],[145.5246,-37.86,133.2571],[145.5191,-37.8578,129.1493],[145.5226,-37.8579,119.5184],[145.5282,-37.8616,120.0834],[145.5307,-37.8644,122.7216],[145.5306,-37.8664,123.9863],[145.5371,-37.867,140.2706],[145.5411,-37.8716,134.6646],[145.5512,-37.8721,149.028],[145.5533,-37.8736,141.0703],[145.5542,-37.8777,145.952],[145.5623,-37.8819,171.7211],[145.5625,-37.8854,177.8746],[145.5688,-37.8933,186.9951],[145.5676,-37.897,193.8268],[145.5691,-37.898,202.9361],[145.5705,-37.8959,200.463],[145.5752,-37.8993,220.1058],[145.5763,-37.8976,248.1146],[145.5882,-37.8976,243.7722],[145.5899,-37.8963,245.5946],[145.6043,-37.898,241.6339],[145.6037,-37.9011,244.4475],[145.6279,-37.904,282.1629],[145.6259,-37.9176,443.5976],[145.6421,-37.9184,435.391],[145.6526,-37.9164,531.7155],[145.6506,-37.9127,586.8602],[145.658,-37.908,596.1555],[145.6622,-37.9088,605.5173],[145.6707,-37.9071,545.7742],[145.6711,-37.9034,612.2808],[145.6691,-37.8995,536.4829],[145.6705,-37.8943,530.3829],[145.6797,-37.8936,522.3338],[145.6863,-37.8888,572.1746],[145.685,-37.8831,626.5562],[145.6869,-37.8808,671.061],[145.6939,-37.886,663.621],[145.6995,-37.8851,634.7569],[145.7071,-37.8872,585.5583],[145.713,-37.8861,639.0727],[145.7161,-37.8838,690.3674],[145.7215,-37.8852,713.5498],[145.7242,-37.8936,706.1527],[145.7281,-37.8969,724.7537],[145.7272,-37.8998,683.8788],[145.7292,-37.9029,696.502],[145.7379,-37.902,756.1131],[145.7483,-37.9075,768.3856],[145.7598,-37.8993,746.0427],[145.7605,-37.8908,651.6903],[145.7638,-37.8869,665.42],[145.7588,-37.8844,600.6251],[145.7587,-37.882,574.3295],[145.7636,-37.8826,531.1833],[145.7678,-37.8797,502.4663],[145.7762,-37.8783,437.3311],[145.7923,-37.8777,469.3566],[145.7954,-37.8748,455.4832],[145.8053,-37.8705,384.0547],[145.8018,-37.8636,434.9201],[145.8032,-37.8607,442.1663],[145.808,-37.8617,463.3904],[145.8108,-37.8645,478.1178],[145.8115,-37.8612,538.2032],[145.8176,-37.8578,590.3111],[145.8159,-37.8543,575.554],[145.8112,-37.8556,611.5341],[145.8049,-37.852,636.63],[145.804,-37.8499,664.7782],[145.8113,-37.8395,755.7356],[145.8107,-37.836,785.3742],[145.8089,-37.8357,774.2902],[145.8083,-37.8296,807.7308],[145.8043,-37.8295,840.9454],[145.805,-37.8271,812.9678],[145.8029,-37.826,801.5096],[145.7937,-37.8261,862.296],[145.7963,-37.8192,820.563],[145.7949,-37.8152,818.9325],[145.8046,-37.8139,784.0153],[145.8092,-37.8076,823.4653],[145.8151,-37.8072,820.4751],[145.8202,-37.8102,839.6592],[145.8288,-37.8123,831.1085],[145.8314,-37.8085,837.0135],[145.8385,-37.8042,837.8055],[145.8392,-37.7986,839.3394],[145.8449,-37.7977,811.317],[145.8571,-37.8008,775.8253],[145.8627,-37.8061,758.0853],[145.8658,-37.8076,767.8296],[145.8667,-37.8066,783.6122],[145.8689,-37.8108,821.9954],[145.871,-37.811,801.3596],[145.8783,-37.8183,813.1104],[145.8819,-37.8186,813.3562],[145.8924,-37.8254,931.0533],[145.8958,-37.8255,935.785],[145.8981,-37.8235,957.3024],[145.8979,-37.821,920.264],[145.9001,-37.821,916.3524],[145.9022,-37.8181,913.5649],[145.9064,-37.8164,908.0027],[145.9155,-37.8256,943.4401],[145.9213,-37.828,911.9542],[145.9226,-37.8267,917.8398],[145.9255,-37.8276,889.7591],[145.9271,-37.8244,909.9221],[145.9262,-37.8217,924.0825],[145.9304,-37.8207,938.062],[145.9276,-37.8181,896.0107],[145.9279,-37.8153,883.5026],[145.9258,-37.8131,883.7323],[145.9216,-37.8137,848.1064],[145.9208,-37.8109,853.8561],[145.9221,-37.8096,874.6395],[145.9193,-37.8039,843.0896],[145.9209,-37.8021,828.5615],[145.9244,-37.8025,833.0072],[145.9249,-37.8006,792.6818],[145.9288,-37.7983,779.5158],[145.9206,-37.7933,787.4473],[145.92,-37.7912,801.9026],[145.9181,-37.7912,781.3242],[145.9201,-37.7871,745.1696],[145.9187,-37.7854,748.5859],[145.9197,-37.7807,735.5793],[145.9152,-37.7733,717.0469],[145.9214,-37.7701,819.8806],[145.9361,-37.7705,786.5483],[145.9377,-37.7694,733.1509],[145.9374,-37.7652,728.8461],[145.9409,-37.761,776.4906],[145.9421,-37.7563,787.3772],[145.9447,-37.7591,786.0143],[145.96,-37.7637,778.24],[145.9618,-37.7655,785.2708],[145.9645,-37.7659,775.363],[145.9704,-37.7633,795.6395],[145.9747,-37.7666,776.3919],[145.9816,-37.7687,783.0837],[145.9907,-37.7687,830.1604],[145.9986,-37.7656,885.4581],[146.0046,-37.7688,866.3579],[146.0098,-37.7679,893.6094],[146.0191,-37.7714,891.8049],[146.0219,-37.7751,899.5264],[146.0316,-37.7724,1019.553],[146.0387,-37.7743,1116.1292],[146.0447,-37.7737,1133.9576],[146.0526,-37.7708,1106.7535],[146.0676,-37.7691,1049.1818],[146.0682,-37.7669,1031.9696],[146.0722,-37.7658,937.882],[146.0735,-37.7634,944.7344],[146.0773,-37.7622,952.9731],[146.0817,-37.7631,921.208],[146.0891,-37.7534,998.7476],[146.0962,-37.7566,968.2903],[146.1004,-37.7623,1044.0123],[146.1039,-37.7635,1117.283],[146.1033,-37.7682,1095.4958],[146.1086,-37.7742,1011.221],[146.1171,-37.7777,1028.0964],[146.1167,-37.7822,1025.0814],[146.1221,-37.7879,1041.7432],[146.1259,-37.79,1031.709],[146.1266,-37.7878,1029.5334],[146.1298,-37.7893,1043.9216],[146.1348,-37.7884,1077.366],[146.1352,-37.7851,1092.1016],[146.1383,-37.783,1086.6411],[146.139,-37.7785,1089.9679],[146.1418,-37.7779,1089.459],[146.1424,-37.7718,1052.4486],[146.1475,-37.7689,1085.6853],[146.1519,-37.7691,1095.5239],[146.1573,-37.7649,1059.0665],[146.1631,-37.7473,1078.1919],[146.1623,-37.7406,1090.9456],[146.1599,-37.7389,1099.005],[146.159,-37.7305,1099.2775],[146.1536,-37.7247,1069.9253],[146.1518,-37.7199,1090.9199],[146.1531,-37.7181,1066.8112],[146.1504,-37.7151,1089.981],[146.1474,-37.7145,1097.561],[146.1438,-37.7098,1105.4426],[146.1383,-37.7099,1097.5028],[146.1395,-37.7062,1090.7119],[146.1356,-37.7021,1081.2307],[146.1364,-37.6977,1072.7709],[146.1425,-37.6915,1075.796],[146.1403,-37.6821,1139.6578],[146.1373,-37.6792,1144.7772],[146.1339,-37.6792,1141.4563],[146.1322,-37.6769,1140.9381],[146.1321,-37.6684,1156.5013],[146.1339,-37.6645,1128.0262],[146.1325,-37.6537,1176.1471],[146.1297,-37.6482,1170.8425],[146.1306,-37.6442,1174.2241],[146.1402,-37.6389,1167.1309],[146.1413,-37.6352,1177.4635],[146.1397,-37.6325,1171.5962],[146.1498,-37.624,1195.7312],[146.1563,-37.6252,1217.3188],[146.1602,-37.622,1182.7468],[146.1646,-37.6229,1222.4181],[146.1653,-37.6169,1187.7596],[146.1617,-37.61,1191.3564],[146.1646,-37.6098,1195.4177],[146.1592,-37.6019,1175.4624],[146.1596,-37.5999,1169.092],[146.1619,-37.5996,1114.9559],[146.162,-37.5957,1100.9749],[146.1693,-37.5996,1049.5383],[146.1731,-37.5993,1093.3723],[146.1727,-37.596,1116.6016],[146.1704,-37.5935,1163.4896],[146.1727,-37.5936,1133.63],[146.1736,-37.588,1160.1506],[146.1764,-37.5844,1185.8339],[146.1835,-37.5826,1202.6694],[146.1872,-37.5799,1247.6462],[146.1892,-37.5816,1209.7529],[146.1877,-37.5858,1237.6931],[146.1921,-37.5877,1221.2839]]]]}
,"properties": {"GID_2": "AUS.10.79_1","GID_0": "AUS","country": "Australia","GID_1": "AUS.10_1","state": "Victoria","NL_NAME_1": "NA","county": "YarraRanges","VARNAME_2": "NA","NL_NAME_2": "NA","TYPE_2": "Shire","ENGTYPE_2": "Shire","CC_2": "27450","HASC_2": "AU.VI.YR","name": "YarraRanges.county","area_km2": 2464.376,"hist_schema_id": "Elevation0-9000","hist_area_km2": {"25": 0.034,"50": 2.902,"75": 108.068,"100": 118.408,"125": 132.18,"150": 130.68,"175": 119.02,"200": 95.471,"225": 85.684,"250": 78.161,"275": 61.864,"300": 51.965,"325": 48.78,"350": 53.886,"375": 49.437,"400": 49.375,"425": 48.336,"450": 47.784,"475": 46.966,"500": 47.922,"525": 45.345,"550": 46.565,"575": 47.64,"600": 46.994,"625": 49.212,"650": 47.722,"675": 48.897,"700": 50.612,"725": 52.443,"750": 51.508,"775": 50.62,"800": 47.856,"825": 45.291,"850": 43.952,"875": 41.925,"900": 43.792,"925": 39.914,"950": 35.361,"975": 35.224,"1000": 32.953,"1025": 31.672,"1050": 30.293,"1075": 31.484,"1100": 27.526,"1125": 19.423,"1150": 14.843,"1175": 11.873,"1200": 8.162,"1225": 4.031,"1250": 2.151,"1275": 0.975,"1300": 0.403,"1325": 0.403,"1350": 0.319,"1375": 0.067}}}