{"type": "Feature","bbox": [130.6536,-12.5673,130.7128,-12.5091],"geometry": {"type": "MultiPolygon","coordinates": [[[[130.6536,-12.5091,10.6353],[130.6536,-12.5672,32.3445],[130.7128,-12.5673,23.2812],[130.7128,-12.5091,17.5675],[130.6536,-12.5091,10.6353]]]]}
,"properties": {"GID_2": "AUS.6.3_1","GID_0": "AUS","country": "Australia","GID_1": "AUS.6_1","state": "NorthernTerritory","NL_NAME_1": "NA","county": "Belyuen","VARNAME_2": "NA","NL_NAME_2": "NA","TYPE_2": "Shire","ENGTYPE_2": "Shire","CC_2": "70540","HASC_2": "AU.NT.BE","name": "Belyuen.county","area_km2": 42.01407,"hist_schema_id": "Elevation0-9000","hist_area_km2": {"0": 0.72441,"25": 40.81368,"50": 0.47598}}}