{"type":"Feature","properties":{"GID_2":"AUS.7.9_1","GID_0":"AUS","country":"Australia","GID_1":"AUS.7_1","state":"Queensland","NL_NAME_1":"NA","county":"Bulloo","VARNAME_2":"NA","NL_NAME_2":"NA","TYPE_2":"Shire","ENGTYPE_2":"Shire","CC_2":"31750","HASC_2":"AU.QL.BU","name":"Bulloo.county"},
"geometry":{"type": "MultiPolygon","coordinates": [[[[144.4804,-28.999,143.7203],[144.463,-28.948,129.9169],[144.4716,-28.9414,129.6054],[144.4944,-28.9306,131.1404],[144.5042,-28.9295,131.8774],[144.5199,-28.925,132.6929],[144.5297,-28.9193,132.3949],[144.546,-28.9148,133.7262],[144.5558,-28.9131,134.6084],[144.5733,-28.9138,134.638],[144.5812,-28.9098,133.1904],[144.5825,-28.9075,134.8313],[144.5819,-28.8926,136.1008],[144.5852,-28.8817,135.2206],[144.5841,-28.8739,135.2795],[144.5868,-28.8624,134.9606],[144.5933,-28.8579,135.1575],[144.5966,-28.851,136.4287],[144.6025,-28.8476,135.9982],[144.6031,-28.8441,136.0827],[144.6084,-28.8367,136.4259],[144.6162,-28.8322,137.3346],[144.6228,-28.8207,136.5832],[144.6313,-28.8133,136.7869],[144.64,-28.8087,137.446],[144.6411,-28.7231,138.1884],[144.6686,-28.5807,142.6653],[144.5958,-28.5675,150.2692],[144.6279,-28.425,217.2451],[144.636,-28.4209,208.9828],[144.6442,-28.3554,182.7281],[144.563,-28.3466,203.4706],[144.5735,-28.2695,217.8601],[144.5864,-28.2708,270.7072],[144.5874,-28.2637,278.0815],[144.7262,-28.2786,178.563],[144.728,-28.2806,176.7295],[144.8188,-28.2903,171.0117],[144.8299,-28.2169,158.1159],[144.775,-28.2113,173.3459],[144.7798,-28.1737,170.51],[144.6351,-28.1598,204.3386],[144.6493,-28.0559,198.8561],[144.5918,-28.0499,217.0264],[144.6012,-27.9741,222.214],[144.4205,-27.9557,164.2026],[144.4225,-27.9397,165.9079],[144.2923,-27.9261,141.6982],[144.297,-27.92,140.7602],[144.2961,-27.9156,140.4395],[144.2979,-27.9088,140.9602],[144.3015,-27.9047,141.5874],[144.2999,-27.9033,141.0142],[144.303,-27.903199999999998,140.98],[144.3066,-27.8989,142.3551],[144.3067,-27.8969,142.1231],[144.3048,-27.896,141.7957],[144.308,-27.8866,142.8947],[144.306,-27.8813,143.1718],[144.3098,-27.8759,145.235],[144.3162,-27.8744,143.5921],[144.3173,-27.8672,144.9456],[144.3121,-27.8645,145.1919],[144.3138,-27.8534,145.3257],[144.3166,-27.8461,146.0395],[144.2958,-27.8439,145.8779],[144.3219,-27.6517,180.0592],[144.1203,-27.641,143.8969],[143.9683,-27.6267,153.0757],[143.8374,-27.4587,155.769],[143.7195,-27.3676,166.8629],[143.7183,-27.3946,164.9482],[143.5795,-27.3819,214.4692],[143.5865,-27.3213,219.5884],[143.5137,-27.3147,217.5684],[143.5159,-27.2924,231.0079],[143.3955,-27.2822,193.9414],[143.3881,-27.2961,189.0433],[143.3207,-27.2894,176.2784],[143.3222,-27.2758,168.8684],[142.866,-27.2338,149.9997],[142.8827,-27.1603,170.9565],[142.8878,-27.1181,175.9962],[142.8551,-27.1151,172.9945],[142.7747,-27.0539,174.1116],[142.7736,-27.0552,174.3654],[142.6947,-26.9952,177.3334],[142.6912,-26.9907,179.0655],[142.4207,-26.7889,115.3873],[142.3568,-26.783,109.5502],[142.2549,-26.791,95.8206],[142.2475,-26.785,105.5723],[142.049,-26.7647,85.19],[141.9924,-26.7659,85.2177],[141.7729,-26.7417,118.0837],[141.7564,-26.7372,141.0435],[141.7258,-26.734,171.3226],[141.703,-26.7363,163.0454],[141.6971,-26.7334,170.7014],[141.692,-26.7343,170.7575],[141.6725,-26.7307,152.0173],[141.6627,-26.7261,153.5217],[141.6547,-26.729,165.4681],[141.5839,-26.7219,141.2703],[141.5434,-26.6766,129.3968],[141.3961,-26.6625,134.1488],[141.2189,-26.6632,104.9503],[141.2144,-26.7038,106.5316],[141.1337,-26.6964,112.5112],[141.1229,-26.7751,113.7399],[140.9979,-26.7616,79.1524],[140.9957,-28.0692,89.2489],[140.9991,-28.5386,97.3163],[140.9995,-28.9991,118.5077],[142.2006,-28.999,97.5161],[142.3639,-28.9978,78.0],[142.6026,-28.999,80.7467],[144.4804,-28.999,143.7203]]]]}}