{"type":"Feature","properties":{"GID_2":"AUS.9.13_1","GID_0":"AUS","country":"Australia","GID_1":"AUS.9_1","state":"Tasmania","NL_NAME_1":"NA","county":"Glamorgan/SpringBay","VARNAME_2":"NA","NL_NAME_2":"NA","TYPE_2":"Municipality","ENGTYPE_2":"Municipality","CC_2":"62410","HASC_2":"NA","name":"Glamorgan_SpringBay.county"},
"geometry":{"type": "MultiPolygon","coordinates": [[[[148.3084,-42.2706,12.7789],[148.3092,-42.271,0.0],[148.3095,-42.2708,0.0],[148.3089,-42.2704,0.0],[148.3084,-42.2706,12.7789]]],
[[[148.0262,-42.2547,0.0],[148.0264,-42.2547,0.0],[148.0266,-42.2545,1.1684],[148.0263,-42.2546,0.0],[148.0262,-42.2547,0.0]]],
[[[147.9836,-42.3228,0.0],[147.9833,-42.3222,0.0],[147.9826,-42.3225,0.0],[147.9832,-42.3234,0.0],[147.9836,-42.3228,0.0]]],
[[[147.9881,-42.3218,3.1332],[147.9879,-42.3215,3.1332],[147.9879,-42.3216,3.1332],[147.9878,-42.3218,3.1332],[147.9881,-42.3218,3.1332]]],
[[[147.9769,-42.3227,5.1726],[147.9833,-42.3187,4.7584],[147.9823,-42.3156,1.3111],[147.9787,-42.316,0.5416],[147.9768,-42.3182,4.0411],[147.9769,-42.3227,5.1726]]],
[[[148.0267,-42.2543,1.1684],[148.0267,-42.2542,1.1684],[148.0264,-42.2544,1.1684],[148.0266,-42.2544,1.1684],[148.0267,-42.2543,1.1684]]],
[[[148.027,-42.2531,0.9637],[148.0262,-42.2524,0.0],[148.0248,-42.2533,1.1684],[148.0265,-42.2541,1.1684],[148.027,-42.2531,0.9637]]],
[[[148.3288,-42.232,0.0],[148.3289,-42.2322,0.0],[148.3292,-42.2323,0.0],[148.3292,-42.232,0.0],[148.3288,-42.232,0.0]]],
[[[148.3361,-42.2316,0.0],[148.336,-42.2316,0.0],[148.3359,-42.2316,0.0],[148.3361,-42.2318,0.0],[148.3361,-42.2316,0.0]]],
[[[148.3357,-42.2294,0.0],[148.3353,-42.2293,6.8304],[148.3351,-42.2295,6.8304],[148.3354,-42.2298,0.0],[148.3357,-42.2294,0.0]]],
[[[148.3326,-42.2292,3.0685],[148.3325,-42.2293,3.0685],[148.3327,-42.2297,0.0],[148.333,-42.2294,3.0685],[148.3326,-42.2292,3.0685]]],
[[[148.3511,-42.208,0.0],[148.3508,-42.2078,0.0],[148.3508,-42.2079,0.0],[148.351,-42.2082,0.0],[148.3511,-42.208,0.0]]],
[[[148.3541,-42.2037,0.0],[148.3545,-42.2033,0.0],[148.3541,-42.2022,0.0],[148.3533,-42.2029,0.0],[148.3541,-42.2037,0.0]]],
[[[148.0101,-42.4567,3.8161],[148.0099,-42.4566,3.8161],[148.0097,-42.4569,3.8161],[148.0101,-42.4569,3.8161],[148.0101,-42.4567,3.8161]]],
[[[148.3134,-42.3639,0.0],[148.3135,-42.3641,0.0],[148.3139,-42.3642,0.0],[148.3138,-42.3638,0.0],[148.3134,-42.3639,0.0]]],
[[[148.315,-42.3627,4.4515],[148.3151,-42.3631,0.0],[148.3157,-42.3629,4.4515],[148.3155,-42.3626,4.4515],[148.315,-42.3627,4.4515]]],
[[[148.3163,-42.3608,40.6606],[148.3134,-42.3578,0.0],[148.3114,-42.3594,12.6989],[148.3149,-42.3623,0.0],[148.3163,-42.3608,40.6606]]],
[[[148.3117,-42.3556,0.0],[148.3128,-42.3564,0.0],[148.3136,-42.3561,0.0],[148.3117,-42.3551,0.0],[148.3117,-42.3556,0.0]]],
[[[148.313,-42.3555,0.0],[148.3138,-42.3553,0.0],[148.3121,-42.355,0.0],[148.3122,-42.3552,0.0],[148.313,-42.3555,0.0]]],
[[[148.3396,-42.3466,0.0],[148.34,-42.3469,0.0],[148.3404,-42.3467,0.0],[148.3402,-42.3465,0.0],[148.3396,-42.3466,0.0]]],
[[[147.9461,-42.3463,0.3531],[147.9463,-42.3462,0.5582],[147.9457,-42.3463,0.3531],[147.9459,-42.3463,0.3531],[147.9461,-42.3463,0.3531]]],
[[[147.9505,-42.3425,0.2168],[147.9481,-42.3416,0.6949],[147.9442,-42.343,0.0],[147.9463,-42.3431,0.1062],[147.9505,-42.3425,0.2168]]],
[[[148.286,-42.3362,0.0],[148.2864,-42.3364,0.0],[148.2867,-42.3364,0.0],[148.2864,-42.336,0.0],[148.286,-42.3362,0.0]]],
[[[147.9859,-42.3238,0.0],[147.9856,-42.3237,0.4969],[147.9858,-42.3239,0.0],[147.9859,-42.3238,0.0]]],
[[[147.9549,-42.3413,0.9622],[147.9539,-42.3408,0.7949],[147.9567,-42.3399,0.4498],[147.9555,-42.34,0.4498],[147.9544,-42.3404,0.7949],[147.9527,-42.3417,0.0957],[147.9563,-42.3429,0.9622],[147.953,-42.3416,0.5002],[147.9549,-42.3413,0.9622]]],
[[[147.9514,-42.3409,0.9999],[147.9507,-42.341,0.7789],[147.9522,-42.3411,0.9999],[147.9534,-42.3407,0.7949],[147.9519,-42.341,0.9999],[147.9514,-42.3409,0.9999]]],
[[[147.9499,-42.3408,0.7789],[147.9533,-42.3401,0.7949],[147.9511,-42.3405,0.9999],[147.9501,-42.339,0.6442],[147.9512,-42.3381,0.9598],[147.9492,-42.3393,0.6442],[147.9499,-42.3408,0.7789]]],
[[[148.2968,-42.2932,27.3352],[148.2944,-42.2919,8.4722],[148.2886,-42.2937,3.8473],[148.2877,-42.2982,9.9827],[148.2853,-42.3001,8.2202],[148.2826,-42.2984,3.5292],[148.2793,-42.3021,15.7401],[148.2794,-42.3015,15.7401],[148.2801,-42.3002,4.9534],[148.2749,-42.2971,3.7082],[148.2681,-42.2971,13.1643],[148.2601,-42.2936,6.2619],[148.2537,-42.2936,2.0197],[148.2494,-42.2975,9.8032],[148.2383,-42.3031,0.0],[148.2356,-42.3099,0.0],[148.2372,-42.3121,16.9632],[148.2366,-42.3177,0.0],[148.2422,-42.3232,0.0],[148.2523,-42.3286,3.9292],[148.2596,-42.3281,2.3547],[148.2628,-42.3296,0.0],[148.2731,-42.3274,14.6125],[148.2771,-42.3246,0.7881],[148.2866,-42.3332,0.0],[148.2948,-42.3318,18.6145],[148.2923,-42.336,33.4543],[148.2996,-42.3375,31.1211],[148.2971,-42.3396,0.0],[148.2989,-42.3412,13.8817],[148.3015,-42.3398,0.0],[148.3007,-42.3369,30.9743],[148.306,-42.3412,26.1259],[148.3046,-42.3438,0.0],[148.3086,-42.3427,31.818],[148.3141,-42.345,0.0],[148.314,-42.3434,20.6331],[148.3203,-42.3438,0.0],[148.3215,-42.3417,20.2034],[148.3262,-42.3431,0.0],[148.3279,-42.3416,4.6134],[148.3316,-42.342,1.8722],[148.3324,-42.3405,13.8953],[148.3389,-42.3444,6.1277],[148.3385,-42.3429,45.4538],[148.3401,-42.344,6.6929],[148.3434,-42.343,0.0],[148.3428,-42.341,64.3999],[148.3458,-42.3418,0.0],[148.345,-42.3401,0.0095],[148.341,-42.3388,16.219],[148.3349,-42.34,16.4742],[148.3306,-42.3366,49.0907],[148.3296,-42.3339,0.0],[148.3263,-42.3337,81.4625],[148.3251,-42.3263,87.5965],[148.3302,-42.325,0.0],[148.3317,-42.3226,0.0],[148.3227,-42.3193,0.0],[148.3204,-42.3203,2.7994],[148.3194,-42.3237,40.1003],[148.3176,-42.3233,16.3482],[148.3144,-42.3153,48.5253],[148.3156,-42.3099,32.069],[148.3193,-42.3059,0.0],[148.3168,-42.305,173.5252],[148.3172,-42.3038,0.0],[148.3129,-42.3003,0.0],[148.3037,-42.2962,3.1933],[148.303,-42.2943,0.0],[148.3006,-42.2949,27.6273],[148.2985,-42.2925,0.0],[148.2968,-42.2932,27.3352]]],
[[[148.068,-42.7261,0.0],[148.0679,-42.7256,8.2966],[148.0676,-42.7257,8.2966],[148.0676,-42.7264,0.0],[148.068,-42.7261,0.0]]],
[[[148.1518,-42.6566,0.0],[148.1517,-42.6565,0.0],[148.1517,-42.6566,0.0],[148.1518,-42.6566,0.0]]],
[[[147.9373,-42.6483,0.0],[147.9369,-42.6483,0.0],[147.9382,-42.6491,0.0],[147.9381,-42.6485,0.0],[147.9373,-42.6483,0.0]]],
[[[147.9392,-42.6492,0.0],[147.9385,-42.6488,0.0],[147.9384,-42.6488,0.0],[147.9385,-42.6491,0.0],[147.9392,-42.6492,0.0]]],
[[[148.1509,-42.6566,0.0],[148.153,-42.6535,4.4748],[148.1577,-42.6525,0.0],[148.1587,-42.6502,11.2591],[148.1671,-42.6504,4.5813],[148.169,-42.6482,0.0],[148.1622,-42.6459,11.7521],[148.16,-42.6429,0.0],[148.1513,-42.6412,0.0],[148.1407,-42.6311,111.4996],[148.1421,-42.6267,0.0],[148.1363,-42.6238,6.0068],[148.1358,-42.6183,72.2015],[148.13627894736842,-42.618226315789471,0.0],[148.1362,-42.6182,0.0],[148.1364,-42.6182,0.0],[148.13640666666666,-42.618206666666666,0.0],[148.1384,-42.6179,0.0],[148.1379,-42.6175,0.0057],[148.1358,-42.617,77.0391],[148.137,-42.6146,3.1818],[148.134,-42.6136,1.9246],[148.1378,-42.6111,28.3513],[148.1369,-42.6093,47.8013],[148.1386,-42.6084,0.0],[148.1348,-42.6076,7.9184],[148.1323,-42.6056,105.1032],[148.1336,-42.6041,32.0497],[148.1291,-42.6028,66.8392],[148.1295,-42.5984,28.1519],[148.1273,-42.5979,109.68],[148.1289,-42.5971,5.7331],[148.1234,-42.5927,131.0623],[148.1238,-42.5896,0.0],[148.1219,-42.5891,33.6534],[148.1201,-42.585,6.5466],[148.1099,-42.5829,0.0],[148.1017,-42.5834,25.7561],[148.0978,-42.5853,40.667],[148.0898,-42.585,113.5285],[148.0831,-42.5801,8.7306],[148.0791,-42.5723,4.6904],[148.0729,-42.5693,0.0],[148.0674,-42.5707,1.4219],[148.0654,-42.5751,8.0405],[148.0628,-42.5769,0.0],[148.0647,-42.5784,5.4407],[148.0637,-42.5806,0.0],[148.0556,-42.5825,1.5835],[148.0528,-42.5851,0.0],[148.0554,-42.5892,0.9264],[148.0473,-42.5966,0.0],[148.05,-42.6011,27.285],[148.0481,-42.6031,17.6561],[148.0477,-42.6079,14.5014],[148.0374,-42.6148,24.7661],[148.0371,-42.6194,0.0],[148.0306,-42.6212,0.0],[148.0283,-42.6247,0.0],[148.0282,-42.6283,3.2374],[148.0247,-42.6293,0.0],[148.0266,-42.6301,0.0],[148.026,-42.6313,0.0],[148.0312,-42.6316,1.7744],[148.0343,-42.6349,0.0],[148.035,-42.6373,0.0],[148.0334,-42.6383,0.4306],[148.0365,-42.639,1.2413],[148.0388,-42.643,0.0],[148.0379,-42.6492,3.7209],[148.026,-42.6578,0.0],[148.0198,-42.6598,7.7045],[148.0151,-42.659,0.0],[148.0093,-42.6612,0.0],[148.0217,-42.6655,3.1771],[148.0248,-42.6683,0.0],[148.0323,-42.6649,0.7484],[148.0371,-42.6661,3.736],[148.0379,-42.6621,1.1408],[148.0411,-42.6608,8.9631],[148.0407,-42.6564,3.4588],[148.0433,-42.655,1.2333],[148.0497,-42.6557,2.9206],[148.0569,-42.6589,3.3711],[148.0632,-42.6646,0.0],[148.0657,-42.6692,1.252],[148.0663,-42.677,5.483],[148.0633,-42.6829,0.0],[148.0573,-42.6856,1.3904],[148.0511,-42.6854,9.9125],[148.049,-42.683,14.1252],[148.0454,-42.6821,1.7482],[148.0387,-42.6841,1.6146],[148.0394,-42.6871,19.6963],[148.0354,-42.6913,7.749],[148.0343,-42.6989,1.3126],[148.028,-42.7049,0.0],[148.0286,-42.7085,0.0],[148.0255,-42.7129,0.0],[148.0217,-42.7147,21.488],[148.0196,-42.7176,12.7724],[148.0127,-42.7203,20.3851],[148.0153,-42.7229,23.405],[148.0117,-42.7301,8.1541],[148.0131,-42.737,5.8968],[148.0145,-42.7374,39.4222],[148.0135,-42.7417,3.414],[148.024,-42.741,21.1938],[148.0248,-42.7388,5.448],[148.0293,-42.7373,0.0],[148.03,-42.7351,10.5995],[148.0337,-42.7334,0.0],[148.0419,-42.7252,7.1428],[148.048,-42.7227,27.3007],[148.0521,-42.7219,19.21],[148.0536,-42.7249,0.0],[148.0584,-42.7254,2.09],[148.0585,-42.7234,19.6768],[148.0617,-42.7257,0.0],[148.0626,-42.7247,10.9896],[148.0641,-42.7262,27.8282],[148.0647,-42.7251,27.8282],[148.0674,-42.7258,8.2966],[148.0672,-42.7234,15.2379],[148.0629,-42.7193,36.7577],[148.0651,-42.7189,4.1272],[148.0653,-42.7173,25.6169],[148.0794,-42.7244,43.5043],[148.0854,-42.7238,12.6437],[148.0865,-42.7202,20.2356],[148.0897,-42.7217,0.0],[148.093,-42.7209,0.0],[148.0927,-42.7156,20.989],[148.0962,-42.7161,11.1456],[148.0952,-42.7133,7.1079],[148.0927,-42.7128,13.9022],[148.0963,-42.7112,2.4148],[148.0934,-42.7088,8.2986],[148.0944,-42.7045,12.2793],[148.087,-42.698,38.1924],[148.0872,-42.6933,25.1928],[148.0889,-42.6934,0.0],[148.0871,-42.6895,2.9698],[148.0812,-42.6847,8.784],[148.073,-42.6866,5.8807],[148.0682,-42.6812,0.0],[148.071,-42.671,5.3868],[148.08,-42.6625,5.7017],[148.0835,-42.6608,7.2397],[148.094,-42.661,15.7712],[148.0958,-42.6629,6.3506],[148.1029,-42.6603,26.2613],[148.1099,-42.6612,23.3375],[148.1121,-42.6597,4.6055],[148.1155,-42.6633,2.5491],[148.121,-42.6636,14.2221],[148.1159,-42.6673,24.2709],[148.1196,-42.6687,2.587],[148.1215,-42.6663,3.6683],[148.1252,-42.6677,5.0053],[148.1248,-42.6661,25.361],[148.1279,-42.6654,0.0],[148.1273,-42.6644,32.5724],[148.1303,-42.661,39.7745],[148.1333,-42.6601,18.4898],[148.14,-42.6664,0.0],[148.1445,-42.6674,6.5988],[148.1463,-42.6668,0.0],[148.1469,-42.6592,39.1256],[148.1487,-42.6593,3.3351],[148.1509,-42.6566,0.0]]],
[[[148.13640666666666,-42.618206666666666,0.0],[148.13627894736842,-42.618226315789471,0.0],[148.1365,-42.6183,0.0],[148.13640666666666,-42.618206666666666,0.0]]],
[[[147.941,-42.6491,0.0725],[147.9418,-42.6489,0.0725],[147.9397,-42.6487,0.0],[147.9402,-42.649,0.0],[147.941,-42.6491,0.0725]]],
[[[147.9781,-42.6433,1.1635],[147.9798,-42.643,0.0],[147.9766,-42.6421,2.25],[147.9769,-42.6438,1.3082],[147.9781,-42.6433,1.1635]]],
[[[148.0707,-42.5617,11.4587],[148.0688,-42.5612,0.0],[148.0679,-42.563,0.0],[148.0716,-42.5644,5.1587],[148.0723,-42.5627,0.0],[148.0707,-42.5617,11.4587]]],
[[[147.9098,-42.5149,0.0],[147.9097,-42.515,0.0],[147.9099,-42.5153,0.0],[147.91,-42.515,0.0],[147.9098,-42.5149,0.0]]],
[[[147.9121,-42.5114,0.3568],[147.9117,-42.5112,1.8267],[147.911,-42.5113,0.0],[147.9118,-42.5117,0.3568],[147.9121,-42.5114,0.3568]]],
[[[147.9091,-42.5104,1.2618],[147.9092,-42.5108,1.2618],[147.9095,-42.5109,1.2618],[147.9095,-42.5107,1.2618],[147.9091,-42.5104,1.2618]]],
[[[147.9093,-42.51,1.2618],[147.9096,-42.5099,0.2032],[147.9095,-42.5098,1.2618],[147.9091,-42.5097,1.2618],[147.9093,-42.51,1.2618]]],
[[[147.9112,-42.5125,0.0],[147.9115,-42.5124,0.0],[147.9116,-42.5123,0.0],[147.9113,-42.5124,0.0],[147.9112,-42.5125,0.0]]],
[[[147.9108,-42.5122,0.0],[147.9107,-42.5124,0.0],[147.911,-42.5125,0.0],[147.9109,-42.512,0.0],[147.9108,-42.5122,0.0]]],
[[[147.9098,-42.5096,0.2032],[147.9097,-42.5097,0.2032],[147.9099,-42.5098,0.2032],[147.91,-42.5097,0.2032],[147.9098,-42.5096,0.2032]]],
[[[148.1445,-41.8553,233.3448],[148.1481,-41.8462,256.8208],[148.1486,-41.8387,261.1349],[148.1462,-41.8248,254.7838],[148.0944,-41.8248,304.0115],[148.0924,-41.833,282.2626],[148.0399,-41.8439,516.8314],[148.022,-41.8738,337.5849],[148.0141,-41.8728,301.864],[147.9672,-41.8571,684.9044],[147.8846,-41.8765,737.4957],[147.8459,-42.0104,720.813],[147.8475,-42.0106,720.813],[147.8439,-42.0236,628.9544],[147.8491,-42.0253,652.4587],[147.8465,-42.0348,684.4443],[147.8428,-42.0342,722.3671],[147.8396,-42.0478,707.649],[147.8659,-42.0886,560.7626],[147.8892,-42.1432,695.913],[147.8822,-42.2135,700.7302],[147.8663,-42.2413,726.0134],[147.8306,-42.2788,552.9127],[147.7975,-42.2825,497.7939],[147.7973,-42.281,468.4497],[147.7892,-42.2817,443.5262],[147.7913,-42.2964,399.0267],[147.8099,-42.2988,455.1885],[147.8065,-42.3134,99.3219],[147.8096,-42.3141,116.3315],[147.8121,-42.32,104.3685],[147.8152,-42.3204,92.7632],[147.815,-42.3254,83.4649],[147.819,-42.3256,80.6287],[147.8261,-42.3222,78.3033],[147.8259,-42.3257,83.535],[147.8299,-42.335,95.3084],[147.835,-42.3251,75.8082],[147.841,-42.3285,76.2079],[147.8475,-42.3293,65.4862],[147.8536,-42.3264,55.2565],[147.8565,-42.3287,75.2012],[147.8523,-42.3341,45.4424],[147.8461,-42.3355,55.4683],[147.8437,-42.3412,100.9599],[147.8407,-42.3426,106.0969],[147.8381,-42.3397,82.5983],[147.8374,-42.3417,92.3466],[147.8343,-42.3413,75.0538],[147.8268,-42.3486,146.8177],[147.8126,-42.3508,186.4136],[147.8084,-42.3481,178.3745],[147.8049,-42.3499,161.579],[147.7913,-42.3431,196.7238],[147.7805,-42.3465,227.0205],[147.779,-42.3529,242.3512],[147.7687,-42.3557,291.899],[147.7671,-42.3542,276.1957],[147.7584,-42.3587,270.7699],[147.7786,-42.3798,364.8022],[147.7645,-42.3872,385.4943],[147.7625,-42.3852,368.9108],[147.7487,-42.3921,356.3223],[147.7399,-42.4248,429.7648],[147.7468,-42.427,406.3975],[147.7421,-42.4352,468.9843],[147.7389,-42.4342,417.9515],[147.7296,-42.4502,326.4695],[147.7269,-42.4504,317.8541],[147.7242,-42.448,300.7478],[147.7199,-42.4501,322.876],[147.7191,-42.4541,308.159],[147.7107,-42.4554,304.0926],[147.7092,-42.4544,316.7693],[147.7026,-42.4565,295.6263],[147.699,-42.4542,275.8071],[147.696,-42.4551,283.0518],[147.6975,-42.4567,292.5857],[147.6933,-42.4591,312.4789],[147.6947,-42.4601,296.1808],[147.691,-42.4679,287.298],[147.6879,-42.4701,297.3684],[147.6841,-42.4698,269.3144],[147.6821,-42.4755,269.2642],[147.6787,-42.4749,264.0562],[147.6717,-42.4787,256.0537],[147.67,-42.4836,279.8604],[147.6668,-42.4847,271.2142],[147.6705,-42.4857,261.3561],[147.6673,-42.4894,257.7394],[147.671,-42.4934,265.0148],[147.6713,-42.4961,250.1822],[147.6664,-42.4998,282.3654],[147.6687,-42.5019,266.7054],[147.6678,-42.5035,263.9749],[147.6319,-42.5089,380.0842],[147.6284,-42.5084,393.5258],[147.6305,-42.4997,341.9213],[147.6192,-42.4981,430.5078],[147.6169,-42.5068,380.4009],[147.6194,-42.5072,395.0982],[147.6168,-42.5231,352.3167],[147.6032,-42.5215,435.4487],[147.6026,-42.5242,409.4905],[147.6055,-42.5246,401.9242],[147.6043,-42.5268,374.8636],[147.6093,-42.5312,336.1214],[147.6069,-42.5324,367.6618],[147.6072,-42.5308,342.749],[147.602,-42.5301,396.2187],[147.6016,-42.5322,378.7772],[147.5994,-42.532,382.1801],[147.5991,-42.5332,359.7669],[147.5908,-42.532,426.0375],[147.5901,-42.5359,400.1434],[147.5982,-42.5354,378.9817],[147.5962,-42.5422,353.4084],[147.5889,-42.5414,364.8572],[147.5869,-42.5506,392.1577],[147.5834,-42.5502,338.9055],[147.5815,-42.5562,316.5472],[147.5754,-42.5568,337.9926],[147.5742,-42.5612,283.4763],[147.5779,-42.5651,279.7065],[147.5818,-42.5635,272.4858],[147.5902,-42.5653,267.8077],[147.5948,-42.5643,265.2611],[147.591,-42.5798,363.123],[147.5935,-42.5823,361.9651],[147.5927,-42.5857,385.2504],[147.5903,-42.5854,382.9424],[147.5879,-42.5977,313.7812],[147.5898,-42.5979,341.158],[147.5859,-42.6138,251.3322],[147.6205,-42.6182,385.1159],[147.6197,-42.6211,396.1776],[147.6249,-42.6218,362.3163],[147.6229,-42.6324,339.2263],[147.6094,-42.6329,220.7709],[147.5932,-42.6369,221.2397],[147.5916,-42.6448,222.923],[147.5964,-42.6454,225.0783],[147.5923,-42.6629,470.7438],[147.5868,-42.6622,439.5298],[147.5868,-42.6669,485.1261],[147.5913,-42.6669,464.1697],[147.5912,-42.6688,427.2454],[147.5961,-42.6687,399.5123],[147.5966,-42.6667,439.475],[147.6043,-42.6676,309.5419],[147.603,-42.6733,317.2091],[147.6261,-42.6717,332.0767],[147.6362,-42.6731,215.0159],[147.6262,-42.677,225.5609],[147.621,-42.6746,242.0112],[147.6172,-42.6749,246.5423],[147.6286,-42.6866,306.1279],[147.6337,-42.6872,266.5023],[147.6271,-42.6812,238.984],[147.6263,-42.6781,242.3848],[147.6566,-42.6823,335.4564],[147.6599,-42.6698,177.7601],[147.6652,-42.6698,181.0363],[147.6652,-42.6719,185.8657],[147.6707,-42.6715,188.1048],[147.6702,-42.6735,190.0759],[147.6758,-42.6741,205.6252],[147.6757,-42.6759,202.5097],[147.6787,-42.677,209.1298],[147.6785,-42.6819,213.2352],[147.687,-42.6832,216.2348],[147.689,-42.6885,224.5983],[147.6973,-42.6942,235.7685],[147.7075,-42.6934,239.9004],[147.7109,-42.6959,235.6252],[147.7125,-42.69,339.4741],[147.7422,-42.6941,318.7218],[147.741,-42.6987,329.3171],[147.7488,-42.6994,362.9612],[147.7479,-42.703,368.5335],[147.7514,-42.7035,393.6983],[147.7509,-42.7056,356.5003],[147.7533,-42.7059,401.8629],[147.7538,-42.7037,410.2973],[147.763,-42.7051,396.3777],[147.7636,-42.7029,386.3984],[147.7687,-42.7037,337.1852],[147.7679,-42.7067,387.0822],[147.7733,-42.7077,370.4747],[147.7728,-42.7096,377.2821],[147.7751,-42.7107,364.2556],[147.9176,-42.7188,108.4921],[147.9139,-42.7314,73.6557],[147.9369,-42.735,16.6365],[147.9428,-42.7283,16.07],[147.9465,-42.728,1.8103],[147.9448,-42.7269,18.6834],[147.9462,-42.7261,29.747],[147.9434,-42.722,16.2692],[147.9441,-42.7167,14.9551],[147.9419,-42.7137,18.3538],[147.946,-42.7122,41.2782],[147.9473,-42.7091,9.8989],[147.9401,-42.7056,5.9384],[147.9388,-42.7007,6.0529],[147.941,-42.6973,1.882],[147.9455,-42.6948,0.0],[147.944,-42.6939,11.1632],[147.9449,-42.6904,1.4157],[147.9497,-42.6907,0.0],[147.9489,-42.6883,0.0],[147.9575,-42.685,1.1974],[147.9579,-42.681399999999996,9.6027],[147.9622,-42.6795,1.3062],[147.9593,-42.6761,0.0],[147.963,-42.6695,4.7783],[147.9535,-42.6611,0.0],[147.9571,-42.6532,0.0],[147.9543,-42.6571,0.4403],[147.9516,-42.6544,0.0],[147.9438,-42.6547,2.2565],[147.9297,-42.6449,1.5121],[147.9351,-42.6476,0.1206],[147.9321,-42.6434,0.6497],[147.9366,-42.6475,0.3243],[147.9365,-42.6458,0.5019],[147.9388,-42.648,0.0],[147.9378,-42.6455,0.5019],[147.9385,-42.6457,0.6308],[147.9393,-42.648,0.0],[147.9529,-42.6517,1.8646],[147.954,-42.6536,0.0],[147.9557,-42.6529,0.0],[147.955,-42.6511,5.8135],[147.9577,-42.6525,0.0],[147.9577,-42.648,3.4765],[147.9555,-42.6449,1.5094],[147.9364,-42.6363,2.1617],[147.9316,-42.6316,2.4593],[147.9355,-42.6265,0.9866],[147.9386,-42.6257,1.8422],[147.9376,-42.6207,4.293],[147.9407,-42.6166,0.0],[147.9386,-42.6146,4.4021],[147.9457,-42.6101,7.322],[147.9456,-42.6064,18.4933],[147.9362,-42.6037,20.1122],[147.9362,-42.6019,4.4838],[147.9324,-42.6002,0.7165],[147.9317,-42.5935,5.4364],[147.928,-42.5954,35.5588],[147.9233,-42.5919,13.5389],[147.9172,-42.59,12.3109],[147.9146,-42.5828,0.0],[147.9106,-42.5813,7.6299],[147.9078,-42.5696,0.0],[147.9025,-42.5659,1.9328],[147.8991,-42.5653,1.6712],[147.8986,-42.5679,4.4162],[147.8962,-42.569,2.2599],[147.8869,-42.5665,6.0619],[147.8818,-42.5669,4.748],[147.8779,-42.5605,4.1356],[147.879,-42.5542,0.0],[147.8745,-42.5583,2.4964],[147.8714,-42.559,1.8424],[147.8586,-42.559,4.431],[147.8527,-42.561,6.3987],[147.8508,-42.5586,7.957],[147.8528,-42.5605,6.3987],[147.8575,-42.5582,2.0442],[147.8714,-42.5573,1.7482],[147.8784,-42.5522,8.5847],[147.8819,-42.551,4.6329],[147.8818,-42.5527,0.0],[147.8884,-42.5453,8.9822],[147.8966,-42.5462,22.6104],[147.8998,-42.5481,0.0],[147.9049,-42.5466,0.0],[147.9134,-42.5485,2.8647],[147.9165,-42.5449,0.0],[147.9137,-42.5416,0.0],[147.9156,-42.5382,2.5448],[147.9133,-42.5307,0.0],[147.9102,-42.5312,0.0],[147.9007,-42.5244,0.0],[147.8976,-42.5238,2.5566],[147.9017,-42.5177,2.4323],[147.9054,-42.5149,3.0194],[147.9094,-42.5146,0.7324],[147.9076,-42.5107,1.2618],[147.909,-42.5104,1.2618],[147.9062,-42.5094,3.9877],[147.9053,-42.506,6.0977],[147.9064,-42.5083,3.9877],[147.9064,-42.5093,3.9877],[147.9087,-42.51,1.2618],[147.9087,-42.5089,2.8581],[147.9139,-42.5109,0.3322],[147.9186,-42.5083,0.0],[147.9187,-42.5035,3.4442],[147.9209,-42.4994,7.7695],[147.9239,-42.4989,4.216],[147.9237,-42.4968,5.7673],[147.9243,-42.4987,9.4287],[147.9224,-42.5012,5.8115],[147.9239,-42.5048,4.1408],[147.9216,-42.5052,0.1088],[147.9206,-42.5087,2.1066],[147.915,-42.5128,0.3614],[147.9142,-42.5162,14.4574],[147.9304,-42.5308,4.9148],[147.9255,-42.534,0.5593],[147.9266,-42.5356,6.6391],[147.9252,-42.5382,0.5285],[147.931,-42.5402,0.0],[147.9303,-42.5425,6.5675],[147.9322,-42.5458,30.2636],[147.9307,-42.5467,0.0],[147.9323,-42.5501,0.0],[147.9408,-42.5469,1.4867],[147.9491,-42.5532,0.0],[147.955,-42.5514,0.0],[147.9562,-42.5497,0.9675],[147.9549,-42.549,3.6457],[147.9563,-42.5476,17.6087],[147.955,-42.545,10.3491],[147.9582,-42.5417,30.5514],[147.9551,-42.5381,6.3543],[147.9595,-42.5354,0.0],[147.9578,-42.5346,19.9201],[147.9582,-42.5319,48.7244],[147.9682,-42.5291,2.5952],[147.9696,-42.5253,0.0],[147.9669,-42.5231,9.2617],[147.9687,-42.5204,1.6819],[147.9716,-42.5197,0.0],[147.9753,-42.5162,27.7744],[147.9832,-42.516,1.6893],[147.9855,-42.5214,0.0],[147.9888,-42.5245,37.079],[147.9949,-42.5265,0.0],[147.9984,-42.5212,0.0],[147.9959,-42.5177,65.0753],[148.0027,-42.5168,0.0],[148.011,-42.5095,0.0],[148.0057,-42.5069,10.0522],[148.003,-42.5072,10.0521],[148.0016,-42.5029,3.6287],[147.9971,-42.5016,15.9672],[147.9944,-42.49,0.0],[147.9921,-42.4905,1.0015],[147.9928,-42.4956,0.5],[147.9914,-42.5,1.5158],[147.9899,-42.5005,1.5158],[147.9885,-42.4983,1.2034],[147.9918,-42.4902,4.0118],[147.9888,-42.4888,4.3251],[147.9946,-42.4889,0.0],[147.9967,-42.4762,3.9982],[147.9989,-42.4746,0.0],[148.0005,-42.4677,23.9343],[148.0037,-42.4658,2.5087],[148.0041,-42.4636,6.3357],[148.0103,-42.4623,11.4048],[148.0075,-42.4582,51.3235],[148.0091,-42.4526,15.5149],[148.0121,-42.4507,1.2263],[148.0087,-42.4472,3.0001],[148.0099,-42.4404,16.9813],[148.0,-42.4404,0.0],[147.9926,-42.4375,0.7436],[147.9882,-42.4407,1.6082],[147.9846,-42.441,0.0],[147.9828,-42.4389,0.6343],[147.9803,-42.4414,4.5038],[147.977,-42.441,3.4787],[147.978,-42.4406,3.43],[147.9803,-42.4411,1.6659],[147.9816,-42.4377,3.7578],[147.9862,-42.4392,3.7072],[147.9929,-42.4369,0.7436],[147.9975,-42.4385,0.77],[147.9957,-42.435,4.0757],[147.9989,-42.433,0.0],[147.9941,-42.4275,0.0],[147.995,-42.4219,1.8781],[147.9933,-42.4182,31.084],[147.9854,-42.4152,18.2597],[147.9855,-42.4114,6.0257],[147.9805,-42.4053,2.7688],[147.9833,-42.4021,5.1704],[147.9878,-42.389,2.0993],[147.9974,-42.3789,4.0265],[148.0086,-42.3737,1.3759],[148.0082,-42.367,3.7631],[148.0098,-42.3632,2.858],[148.0143,-42.3581,0.0],[148.0165,-42.3577,8.0585],[148.0183,-42.3539,9.4719],[148.0269,-42.3496,0.2391],[148.0218,-42.348,5.052],[148.0246,-42.3424,4.0332],[148.0191,-42.3381,3.1893],[148.0179,-42.3309,12.1754],[148.0155,-42.3278,10.6802],[148.0163,-42.3242,8.2259],[148.0145,-42.3205,0.6414],[148.0188,-42.3177,0.0],[148.0185,-42.315,11.0908],[148.0153,-42.3141,0.0],[148.0114,-42.3168,2.8421],[148.0,-42.3151,1.9209],[147.9961,-42.3115,0.1034],[147.9903,-42.315,2.0501],[147.9922,-42.3185,4.4258],[147.9883,-42.3221,3.1332],[147.9858,-42.3214,0.4134],[147.9881,-42.3248,8.7552],[147.9783,-42.3254,2.8031],[147.979,-42.3274,1.2971],[147.9812,-42.3275,3.6106],[147.9814,-42.3298,11.6719],[147.9758,-42.3338,16.7578],[147.9823,-42.3349,0.5936],[147.9859,-42.3372,4.7868],[147.9792,-42.3375,1.632],[147.9759,-42.3363,4.3143],[147.9693,-42.3416,5.4854],[147.9654,-42.3377,0.0],[147.9603,-42.3413,4.2259],[147.9615,-42.3454,4.6001],[147.9593,-42.3516,16.6503],[147.963,-42.3548,0.753],[147.9621,-42.3573,2.0909],[147.9603,-42.3547,5.6896],[147.9572,-42.3537,6.3554],[147.9544,-42.3474,10.0073],[147.9566,-42.3463,1.5485],[147.9549,-42.3439,0.6051],[147.9512,-42.3439,4.4318],[147.947,-42.348,6.1966],[147.9455,-42.3464,0.3531],[147.9458,-42.3485,1.6084],[147.9439,-42.3496,11.6721],[147.9451,-42.3471,0.3531],[147.9418,-42.3485,1.9116],[147.9444,-42.3459,0.0],[147.9349,-42.3486,2.2557],[147.9314,-42.3473,5.5447],[147.9311,-42.3435,2.5803],[147.9358,-42.3367,1.2822],[147.9363,-42.3406,0.532],[147.9435,-42.3432,0.0],[147.9381,-42.3373,2.0049],[147.939,-42.3328,1.9295],[147.9386,-42.3374,1.8791],[147.9397,-42.3383,1.5851],[147.94,-42.3371,1.8791],[147.9441,-42.3424,0.3675],[147.9484,-42.3403,0.822],[147.9497,-42.3378,0.0],[147.9452,-42.3388,0.6893],[147.9437,-42.3373,2.2193],[147.9447,-42.3361,15.7436],[147.9529,-42.3367,0.0],[147.959,-42.335,0.0],[147.9537,-42.3325,20.3697],[147.9548,-42.3327,20.3697],[147.9602,-42.335,0.0],[147.9704,-42.333,0.0],[147.9748,-42.3284,2.2052],[147.9704,-42.3259,1.9084],[147.9725,-42.3233,2.4584],[147.9706,-42.3206,14.2409],[147.9745,-42.3195,4.4149],[147.9774,-42.3141,8.3202],[147.9799,-42.3139,0.0],[147.9795,-42.3127,12.8376],[147.9812,-42.312,2.3316],[147.9776,-42.3075,15.6504],[147.9782,-42.3076,15.6504],[147.979,-42.308,5.9919],[147.9791,-42.3086,5.9919],[147.9803,-42.309,13.3539],[147.9812,-42.3106,2.8608],[147.9879,-42.3101,0.0],[147.9883,-42.3073,19.3258],[147.9898,-42.31,0.0],[147.9958,-42.3084,4.6494],[147.9951,-42.3105,0.6469],[148.0004,-42.3099,1.0],[148.0002,-42.3041,0.6653],[148.0024,-42.2987,0.9387],[148.0042,-42.2983,0.9387],[148.0037,-42.2964,1.1678],[148.008,-42.2926,3.8601],[148.0117,-42.2923,0.0737],[148.0099,-42.2909,0.0],[148.0105,-42.2887,0.0],[148.0156,-42.2855,2.5789],[148.0157,-42.2814,2.6991],[148.0124,-42.2797,14.2933],[148.0121,-42.2777,7.6235],[148.0135,-42.2752,3.035],[148.0158,-42.2746,0.0],[148.0154,-42.2722,2.8133],[148.0191,-42.2707,0.0],[148.0153,-42.2706,5.3997],[148.0148,-42.2682,0.0],[148.0171,-42.2681,0.0],[148.0174,-42.2661,9.22],[148.0236,-42.2614,0.0],[148.026,-42.2626,2.1778],[148.0281,-42.2607,8.7047],[148.0244,-42.2544,0.0],[148.0203,-42.2538,1.8405],[148.0181,-42.2504,6.7781],[148.0132,-42.2494,0.0],[148.0118,-42.2449,2.2532],[148.0136,-42.2393,10.4394],[148.0254,-42.2268,4.6879],[148.0295,-42.225,0.0],[148.0317,-42.2176,7.5814],[148.0366,-42.2136,14.561],[148.0407,-42.2126,10.6384],[148.0427,-42.2096,7.7039],[148.0458,-42.2092,0.0],[148.0455,-42.2069,0.0],[148.0433,-42.2061,5.3531],[148.0439,-42.203,0.957],[148.0499,-42.1989,2.0961],[148.0659,-42.1926,14.3645],[148.0687,-42.1883,2.0558],[148.0689,-42.1811,13.1009],[148.0719,-42.1778,18.1508],[148.0721,-42.175,17.8047],[148.0764,-42.1706,1.2199],[148.0839,-42.1679,5.2241],[148.084,-42.1664,5.2241],[148.0811,-42.1658,0.0],[148.0789,-42.163,7.2743],[148.08,-42.1563,12.4547],[148.0767,-42.1556,1.8308],[148.0762,-42.1529,3.4998],[148.0713,-42.1542,12.4882],[148.0716,-42.1534,12.4882],[148.0723,-42.1528,7.3338],[148.0765,-42.1524,0.0],[148.0768,-42.1482,0.0],[148.0812,-42.144,0.0],[148.0809,-42.1419,0.0],[148.0777,-42.1405,4.2951],[148.0766,-42.1326,0.9909],[148.0851,-42.1255,0.0],[148.0759,-42.1232,10.4337],[148.0723,-42.1154,0.0],[148.0728,-42.1126,0.0],[148.0698,-42.1121,1.444],[148.0651,-42.1141,2.8541],[148.062,-42.1133,6.2986],[148.0616,-42.1157,8.2223],[148.0595,-42.1164,8.213],[148.0578,-42.1165,8.213],[148.0559,-42.1161,9.1546],[148.0551,-42.1149,10.6517],[148.0525,-42.1188,12.1992],[148.0484,-42.118899999999996,13.7229],[148.0523,-42.1187,12.1992],[148.0548,-42.1148,10.6517],[148.0552,-42.1148,10.6517],[148.0557,-42.1151,9.1546],[148.056,-42.1161,9.1546],[148.0587,-42.1164,8.213],[148.0614,-42.1156,8.2223],[148.061,-42.1144,7.6277],[148.0615,-42.1133,7.6277],[148.0619,-42.1131,6.2986],[148.0657,-42.1137,2.8541],[148.0692,-42.1119,1.444],[148.0722,-42.1112,6.0306],[148.073,-42.1124,0.0],[148.0811,-42.1053,0.0],[148.0922,-42.0992,3.2689],[148.121,-42.0927,3.9305],[148.1655,-42.0914,0.0],[148.1999,-42.0942,2.5273],[148.231,-42.0995,1.8627],[148.2351,-42.0981,0.0],[148.2335,-42.0926,0.0],[148.2114,-42.0849,4.4516],[148.1838,-42.0819,0.8673],[148.1761,-42.0846,5.7811],[148.1675,-42.085,7.4375],[148.1568,-42.079,0.1379],[148.1544,-42.0754,0.1688],[148.1507,-42.0745,0.0],[148.1296,-42.0802,0.243],[148.1238,-42.0797,0.377],[148.1291,-42.0775,0.0694],[148.1187,-42.0764,0.6867],[148.1033,-42.0829,0.1567],[148.0953,-42.0825,0.0],[148.0895,-42.0798,1.7112],[148.0816,-42.0724,0.0],[148.0758,-42.0727,0.7183],[148.0752,-42.0661,0.7644],[148.0694,-42.0657,3.9031],[148.0733,-42.0651,2.4552],[148.0752,-42.0659,0.7644],[148.0796,-42.0609,1.8525],[148.0768,-42.0562,2.7587],[148.0762,-42.0539,4.6629],[148.0767,-42.0541,2.8978],[148.0772,-42.0561,2.7587],[148.0774,-42.0543,2.8978],[148.0798,-42.0609,1.8525],[148.0757,-42.0654,0.7644],[148.0758,-42.0722,0.7183],[148.0823,-42.0713,0.0],[148.0931,-42.0808,8.738],[148.1033,-42.0818,0.1567],[148.1195,-42.0747,0.0],[148.1272,-42.0737,0.1737],[148.1274,-42.0712,0.3305],[148.1241,-42.0716,0.6447],[148.123,-42.0704,0.0883],[148.1147,-42.0736,0.7564],[148.1183,-42.0702,0.0895],[148.1241,-42.0665,0.0],[148.1295,-42.0611,2.3221],[148.1353,-42.063,0.0],[148.1379,-42.0607,0.4651],[148.1396,-42.0634,0.0],[148.1528,-42.0621,0.0],[148.165,-42.0518,0.0],[148.1573,-42.0489,0.1935],[148.1608,-42.047,0.0],[148.1629,-42.0397,0.0],[148.1559,-42.0354,0.1065],[148.1474,-42.034,0.1296],[148.1453,-42.0372,0.1401],[148.151,-42.0405,0.1743],[148.1502,-42.0464,0.0],[148.1429,-42.0516,0.3544],[148.1402,-42.0507,0.098],[148.142,-42.0465,-0.0149],[148.1392,-42.046,1.1417],[148.1422,-42.0454,0.0],[148.141,-42.0423,0.6593],[148.1462,-42.041,0.0],[148.1446,-42.0371,0.1401],[148.1452,-42.0327,0.0],[148.1435,-42.0298,0.0785],[148.1459,-42.0269,-0.0557],[148.1434,-42.0205,0.3556],[148.1454,-42.0154,1.536],[148.1537,-42.0102,0.2967],[148.1535,-42.0052,0.5782],[148.1659,-41.9963,0.0],[148.1721,-41.9979,0.4417],[148.1722,-42.001,0.2268],[148.1692,-42.0029,1.2623],[148.1721,-42.0038,1.695],[148.1727,-42.0055,0.2253],[148.1714,-42.0061,0.2253],[148.1733,-42.0068,3.3684],[148.1736,-42.0091,2.2379],[148.1837,-42.0107,0.2315],[148.187,-42.0147,1.0917],[148.187,-42.0185,0.6599],[148.1974,-42.0208,0.3259],[148.1993,-42.0202,0.1688],[148.2003,-42.0173,3.0394],[148.2052,-42.0163,0.0],[148.2109,-42.0104,3.3008],[148.2131,-42.0048,0.0],[148.21476666666666,-42.004133333333336,0.1214],[148.2148,-42.0041,0.1214],[148.21481666666668,-42.004113333333336,0.1214],[148.2176,-42.003,0.3512],[148.2178,-42.0017,3.5682],[148.2123,-41.9963,0.249],[148.212,-41.9948,8.2667],[148.2146,-41.9926,0.2933],[148.2107,-41.9906,1.2092],[148.2121,-41.9904,1.0336],[148.2149,-41.9917,0.2933],[148.2158,-41.988,0.8368],[148.2136,-41.9872,1.7354],[148.2171,-41.9883,0.1001],[148.2143,-41.986,1.6485],[148.2157,-41.9865,1.1709],[148.2152,-41.9854,1.6485],[148.2173,-41.9876,0.7061],[148.2177,-41.9885,0.1001],[148.2219,-41.9903,0.1506],[148.2317,-41.9839,0.1967],[148.2393,-41.9856,2.8032],[148.2442,-41.9894,1.6596],[148.2453,-41.9921,0.0928],[148.2457,-41.9955,0.0345],[148.2425,-42.0033,0.1498],[148.2333,-42.0093,1.1138],[148.2297,-42.0136,0.0],[148.2265,-42.0222,0.3188],[148.2245,-42.023,0.3677],[148.2244,-42.0203,0.0],[148.2221,-42.0209,0.0465],[148.2212,-42.0243,0.7276],[148.2179,-42.0279,0.0],[148.2182,-42.0313,0.234],[148.2156,-42.0326,0.0],[148.2143,-42.0357,3.2572],[148.2067,-42.0394,0.1116],[148.1929,-42.0361,0.0],[148.1799,-42.043,12.2913],[148.1727,-42.0434,1.4451],[148.1709,-42.046,8.3654],[148.1706,-42.0513,0.0],[148.1741,-42.0524,8.5881],[148.1746,-42.0543,0.0],[148.1732,-42.0558,0.4637],[148.1634,-42.0574,6.1604],[148.1594,-42.0601,0.0],[148.1568,-42.0652,0.4033],[148.1572,-42.0742,3.3819],[148.1622,-42.0779,7.7544],[148.187,-42.0778,2.014],[148.1913,-42.0749,0.1382],[148.1942,-42.0689,1.005],[148.1977,-42.0672,2.1177],[148.2211,-42.0688,3.1881],[148.2247,-42.0716,5.8862],[148.2233,-42.0758,0.1399],[148.2246,-42.0769,0.3427],[148.2176,-42.0749,2.4199],[148.2132,-42.0714,0.2544],[148.2081,-42.0761,0.659],[148.2084,-42.0774,1.2381],[148.2417,-42.091,1.4087],[148.2409,-42.0944,2.7005],[148.2365,-42.0968,0.0],[148.2368,-42.1011,0.0],[148.2436,-42.1051,9.2649],[148.2442,-42.1108,0.5734],[148.2474,-42.1133,14.6494],[148.2475,-42.1168,0.7453],[148.2511,-42.1145,15.7211],[148.2566,-42.1146,0.0],[148.2585,-42.1128,9.9242],[148.2661,-42.1137,0.0],[148.2684,-42.1101,2.512],[148.2709,-42.1113,4.7657],[148.2679,-42.1111,2.512],[148.2676,-42.1123,4.1581],[148.2828,-42.1209,7.8775],[148.282,-42.1245,0.0],[148.2834,-42.1281,0.0],[148.2867,-42.1274,10.7651],[148.2888,-42.1288,0.0],[148.2944,-42.1246,0.0],[148.2978,-42.1265,0.0],[148.2984,-42.1256,5.989],[148.3024,-42.1341,2.9676],[148.2979,-42.1364,0.0],[148.2976,-42.1402,11.3846],[148.2918,-42.1413,22.6427],[148.2891,-42.1436,14.0397],[148.2876,-42.1429,0.0],[148.2853,-42.1454,5.2234],[148.2835,-42.1448,9.1094],[148.2726,-42.1485,4.4498],[148.2651,-42.1557,0.0],[148.2634,-42.1603,5.0441],[148.261,-42.1614,0.0],[148.2608,-42.1649,12.9599],[148.2594,-42.1655,12.9599],[148.264,-42.1692,13.1638],[148.2714,-42.1685,2.1474],[148.2779,-42.1731,3.9562],[148.2877,-42.1844,1.6169],[148.2919,-42.1917,6.1355],[148.2897,-42.1962,0.0],[148.2901,-42.1992,0.0],[148.2767,-42.2077,2.1367],[148.2783,-42.2098,19.8484],[148.2716,-42.2168,0.0],[148.2732,-42.2205,0.0],[148.2697,-42.2267,2.4553],[148.2696,-42.2256,0.0],[148.2623,-42.229,3.8687],[148.259,-42.2275,0.0],[148.2569,-42.2299,13.1939],[148.254,-42.2284,5.4983],[148.2514,-42.2303,17.5244],[148.2507,-42.2317,0.0],[148.2528,-42.2341,2.895],[148.2515,-42.2423,7.626],[148.2542,-42.248,0.0],[148.2613,-42.2543,8.0896],[148.269,-42.2541,11.3747],[148.2704,-42.2562,7.7872],[148.2743,-42.257,0.0],[148.2758,-42.2543,19.5617],[148.2785,-42.2542,1.0331],[148.288,-42.2596,0.0],[148.2912,-42.2642,11.2217],[148.2916,-42.2705,15.0569],[148.2936,-42.273,2.9146],[148.291,-42.2788,17.0432],[148.293,-42.2818,6.2265],[148.2957,-42.283,0.0],[148.3028,-42.2822,0.0],[148.3023,-42.2814,5.2845],[148.306,-42.2794,65.2799],[148.3091,-42.2793,0.0],[148.3083,-42.2768,54.6513],[148.312,-42.2777,17.7846],[148.3146,-42.276,8.8992],[148.3069,-42.2705,12.7789],[148.308,-42.2667,53.3934],[148.311,-42.2662,16.8422],[148.3105,-42.2652,17.6893],[148.3141,-42.2653,10.5359],[148.3147,-42.2666,0.0],[148.3155,-42.2649,4.5931],[148.3206,-42.264,0.8177],[148.318,-42.2631,36.5511],[148.321,-42.2607,7.8652],[148.3176,-42.2596,50.8988],[148.3191,-42.2561,56.8594],[148.3208,-42.2566,0.0],[148.3212,-42.2546,0.0],[148.3241,-42.2535,2.916],[148.323,-42.2469,57.7987],[148.3209,-42.2451,115.9224],[148.3232,-42.2433,0.0],[148.3223,-42.2412,58.7848],[148.3242,-42.2371,79.5411],[148.328,-42.2331,0.0],[148.3279,-42.2299,3.1643],[148.33,-42.2308,3.7371],[148.3321,-42.228,3.0685],[148.3386,-42.2282,0.0],[148.3462,-42.2238,0.0],[148.347,-42.2206,0.0],[148.343,-42.2199,88.2042],[148.3443,-42.2149,0.0],[148.3429,-42.2112,63.4387],[148.3487,-42.207,0.0],[148.3529,-42.2009,0.0],[148.3557,-42.1931,0.0],[148.3509,-42.1849,38.8308],[148.3528,-42.1842,0.0],[148.3524,-42.1821,0.0],[148.3571,-42.1805,0.0],[148.3561,-42.1789,0.0],[148.355,-42.1801,2.4041],[148.35,-42.1798,43.9264],[148.3454,-42.1836,10.5698],[148.3435,-42.181399999999996,55.3256],[148.3388,-42.1811,16.1896],[148.3348,-42.1767,4.254],[148.3339,-42.1776,4.254],[148.3326,-42.1756,8.7041],[148.3252,-42.1738,25.1074],[148.3233,-42.1718,2.6604],[148.3205,-42.172,22.2934],[148.3156,-42.1692,0.0],[148.314,-42.1717,30.4346],[148.3099,-42.1736,4.3292],[148.3111,-42.1739,21.5088],[148.31,-42.1756,2.8501],[148.3067,-42.1756,0.8527],[148.3013,-42.1727,0.0],[148.2977,-42.1664,4.9864],[148.2992,-42.1617,15.156],[148.3135,-42.1602,3.0475],[148.3159,-42.156,48.8726],[148.3196,-42.1555,0.0],[148.3188,-42.154,17.6632],[148.3202,-42.1538,0.0],[148.3208,-42.1501,0.0],[148.3242,-42.1493,0.0],[148.3204,-42.1374,2.9826],[148.318,-42.1367,14.3791],[148.3196,-42.1325,10.8181],[148.3247,-42.1326,20.2342],[148.326,-42.1307,43.5468],[148.3381,-42.133,0.0],[148.3344,-42.1274,48.1402],[148.3437,-42.1234,37.5166],[148.3454,-42.1186,3.6972],[148.3402,-42.1113,22.9546],[148.3429,-42.1087,11.8979],[148.3405,-42.1027,0.735],[148.3358,-42.1034,25.8699],[148.3357,-42.1052,46.3635],[148.3331,-42.1055,18.1981],[148.3256,-42.0962,27.0153],[148.3259,-42.0933,6.2795],[148.3236,-42.0919,16.1402],[148.3255,-42.0856,0.0],[148.3246,-42.083,67.0319],[148.3171,-42.0775,0.0],[148.3178,-42.0726,0.0],[148.3128,-42.0692,41.1804],[148.3129,-42.0637,0.0],[148.3104,-42.0623,22.5833],[148.3114,-42.0607,0.0],[148.3096,-42.057,0.0],[148.3062,-42.058,54.3287],[148.3029,-42.0565,17.3813],[148.3004,-42.0578,0.0],[148.2972,-42.0565,4.6507],[148.2877,-42.0463,6.1827],[148.2835,-42.0342,0.0],[148.2839,-42.0018,0.0],[148.2861,-41.9928,9.9364],[148.2907,-41.9875,0.0],[148.2891,-41.9856,1.9984],[148.2907,-41.9785,0.0],[148.2935,-41.9715,0.0],[148.2979,-41.9659,10.1199],[148.3024,-41.9633,0.3823],[148.3058,-41.9641,2.2417],[148.3098,-41.9614,0.0],[148.3069,-41.9541,0.6814],[148.3025,-41.9498,7.1325],[148.3025,-41.9369,7.4269],[148.3065,-41.9313,1.1344],[148.3145,-41.929,6.5287],[148.317,-41.9254,0.6061],[148.3197,-41.9251,0.0],[148.3236,-41.9172,0.0],[148.3208,-41.912,2.8422],[148.3178,-41.91,1.5283],[148.3193,-41.9031,0.0],[148.3143,-41.9039,6.9213],[148.3113,-41.8991,0.0],[148.3086,-41.8976,14.0185],[148.3091,-41.8946,0.0],[148.3058,-41.8944,2.9037],[148.3041,-41.8914,6.3254],[148.3074,-41.8883,0.0],[148.3039,-41.8827,9.5599],[148.309,-41.8804,0.0],[148.3082,-41.8772,31.2837],[148.3112,-41.8768,0.0],[148.3109,-41.8733,1.1552],[148.305,-41.8683,1.4783],[148.3029,-41.8721,7.8322],[148.297,-41.8715,11.478],[148.2962,-41.8692,1.9134],[148.2913,-41.8678,0.2968],[148.291,-41.8657,0.0],[148.2874,-41.8657,1.6717],[148.2864,-41.8608,0.0],[148.2772,-41.8557,2.9798],[148.2774,-41.8537,1.68],[148.2757483870968,-41.852616129032263,1.5295],[148.2757,-41.8526,1.5295],[148.27572380952381,-41.8526,1.5295],[148.2742,-41.8516,1.5295],[148.2695,-41.842,3.459],[148.2658,-41.8172,0.0],[148.2624,-41.814,2.0974],[148.2527,-41.8167,24.114],[148.2464,-41.823,30.9748],[148.2404,-41.8244,47.1923],[148.2352,-41.8435,168.7777],[148.219,-41.8428,177.4354],[148.2178,-41.848,146.0907],[148.2072,-41.8467,243.4001],[148.2048,-41.8552,110.5039],[148.1885,-41.853,125.2684],[148.1858,-41.8627,73.3473],[148.1891,-41.8599,69.0497],[148.1862,-41.8644,103.2043],[148.181,-41.8822,244.9751],[148.1803,-41.8793,222.1806],[148.1771,-41.8768,199.5543],[148.1731,-41.8772,207.0015],[148.1675,-41.8713,272.5919],[148.158,-41.868,226.2916],[148.1525,-41.8612,226.9509],[148.1455,-41.8602,241.1297],[148.1455,-41.8579,241.8005],[148.1433,-41.8577,252.0985],[148.1445,-41.8553,233.3448]]],
[[[148.27572380952381,-41.8526,1.5295],[148.2757483870968,-41.852616129032263,1.5295],[148.276,-41.8527,0.0],[148.276,-41.8526,0.0],[148.27572380952381,-41.8526,1.5295]]],
[[[148.21481666666668,-42.004113333333336,0.1214],[148.21476666666666,-42.004133333333336,0.1214],[148.2141,-42.0048,0.0],[148.2149,-42.005,0.0],[148.2153,-42.0045,0.1214],[148.21481666666668,-42.004113333333336,0.1214]]],
[[[148.2635,-42.177,0.0],[148.2615,-42.1767,7.8192],[148.2603,-42.1782,1.1453],[148.2618,-42.1792,4.7804],[148.2635,-42.177,0.0]]],
[[[148.2676,-42.1766,0.0],[148.2673,-42.1766,0.0],[148.2672,-42.1768,0.0],[148.2676,-42.1769,0.0],[148.2676,-42.1766,0.0]]],
[[[148.3184,-42.17,0.0],[148.3183,-42.1702,0.0],[148.3187,-42.1704,0.0],[148.3187,-42.17,0.0],[148.3184,-42.17,0.0]]],
[[[148.3202,-42.1343,0.0],[148.32,-42.1346,0.0],[148.3202,-42.1347,0.0],[148.3203,-42.1345,0.0],[148.3202,-42.1343,0.0]]],
[[[148.3396,-42.1337,0.0],[148.3401,-42.1342,0.0],[148.3403,-42.134,0.0],[148.3399,-42.1338,0.0],[148.3396,-42.1337,0.0]]],
[[[148.3386,-42.1334,0.0],[148.3395,-42.1337,0.0],[148.3384,-42.1325,0.0],[148.3384,-42.1328,0.0],[148.3386,-42.1334,0.0]]],
[[[148.2686,-42.1245,0.0],[148.2696,-42.125,0.0],[148.2703,-42.124,0.0],[148.2691,-42.1242,0.0],[148.2686,-42.1245,0.0]]],
[[[148.3571,-42.1191,0.0],[148.3566,-42.1182,0.0],[148.3553,-42.1184,0.0],[148.356,-42.1194,0.0],[148.3571,-42.1191,0.0]]],
[[[148.3583,-42.1171,0.0],[148.3592,-42.1172,0.0],[148.3592,-42.116,0.0],[148.3585,-42.1163,0.0],[148.3583,-42.1171,0.0]]],
[[[148.3482,-42.1175,46.0096],[148.3503,-42.1174,0.0],[148.3469,-42.1156,17.6072],[148.3468,-42.1169,31.2883],[148.3482,-42.1175,46.0096]]],
[[[148.357,-42.1173,0.0],[148.3577,-42.1178,0.0],[148.3578,-42.1168,0.0],[148.3572,-42.1166,0.0],[148.357,-42.1173,0.0]]],
[[[148.3249,-42.0828,11.5826],[148.3255,-42.0833,0.0],[148.3257,-42.0825,0.0],[148.3251,-42.0821,11.5826],[148.3249,-42.0828,11.5826]]],
[[[148.1974,-42.0762,0.0],[148.1994,-42.0766,0.0818],[148.2005,-42.0743,0.0742],[148.1989,-42.0738,0.0825],[148.1974,-42.0762,0.0]]],
[[[148.127,-42.0707,0.3305],[148.1287,-42.0706,0.0978],[148.1292,-42.0697,0.0978],[148.1278,-42.0697,0.0978],[148.127,-42.0707,0.3305]]],
[[[148.1467,-42.0694,1.3568],[148.1513,-42.0664,0.0],[148.1432,-42.0678,0.1614],[148.1433,-42.069,0.3597],[148.1467,-42.0694,1.3568]]],
[[[148.1446,-42.0659,0.2422],[148.1453,-42.0662,0.2422],[148.1465,-42.0658,0.0],[148.1458,-42.0652,0.2422],[148.1446,-42.0659,0.2422]]],
[[[148.1526,-42.0637,0.0],[148.1537,-42.0629,0.0],[148.1537,-42.0627,0.0],[148.1513,-42.0631,0.2527],[148.1526,-42.0637,0.0]]],
[[[148.1861,-42.0372,0.065],[148.1859,-42.0383,1.0938],[148.1873,-42.0365,0.065],[148.1862,-42.0366,0.065],[148.1861,-42.0372,0.065]]],
[[[148.1893,-42.0358,0.0],[148.1892,-42.0365,0.415],[148.1904,-42.0361,0.0],[148.1902,-42.0359,0.0],[148.1893,-42.0358,0.0]]],
[[[148.187,-42.0353,0.0514],[148.1867,-42.0355,0.0514],[148.1874,-42.0355,0.0],[148.1874,-42.0354,0.0],[148.187,-42.0353,0.0514]]],
[[[148.1876,-42.0362,0.0],[148.1878,-42.0357,0.0],[148.1861,-42.0363,0.065],[148.1873,-42.0363,0.065],[148.1876,-42.0362,0.0]]],
[[[148.218,-42.0259,0.0],[148.2184,-42.0265,0.0145],[148.2198,-42.0255,0.0718],[148.2186,-42.0254,0.0718],[148.218,-42.0259,0.0]]],
[[[148.2208,-42.0243,0.7276],[148.2206,-42.0243,0.7276],[148.2205,-42.0246,1.0689],[148.221,-42.0244,0.7276],[148.2208,-42.0243,0.7276]]],
[[[148.1773,-42.0139,0.0],[148.1778,-42.0135,0.0],[148.1778,-42.0126,0.0],[148.1768,-42.014,0.0],[148.1773,-42.0139,0.0]]],
[[[148.2103,-42.013,0.0],[148.2099,-42.013,0.0],[148.2099,-42.0132,0.0],[148.2101,-42.0132,0.0],[148.2103,-42.013,0.0]]],
[[[148.2114,-42.0106,3.3008],[148.2113,-42.0109,3.3008],[148.2114,-42.0111,3.3008],[148.2116,-42.0107,3.3008],[148.2114,-42.0106,3.3008]]],
[[[148.245,-41.9947,0.0345],[148.2448,-41.9923,0.0],[148.2442,-41.9941,0.0],[148.2446,-41.9965,0.0],[148.2451,-41.9954,0.0345],[148.245,-41.9947,0.0345]]],
[[[148.3094,-41.8884,0.0],[148.3098,-41.8888,0.0],[148.3101,-41.8886,0.0],[148.3096,-41.8882,0.0],[148.3094,-41.8884,0.0]]],
[[[148.2444,-41.9908,0.0],[148.2449,-41.9921,0.0],[148.2448,-41.9911,0.0],[148.244,-41.99,0.0],[148.244,-41.9903,0.0],[148.2444,-41.9908,0.0]]],
[[[148.2434,-41.9905,0.0],[148.2435,-41.9909,0.0],[148.244,-41.9907,0.0],[148.2433,-41.99,0.0],[148.2434,-41.9905,0.0]]],
[[[148.3091,-41.8793,0.0],[148.3091,-41.8791,0.0],[148.309,-41.879,0.0],[148.3091,-41.8793,0.0]]],
[[[148.316,-41.8769,0.0],[148.3161,-41.8765,0.0],[148.3155,-41.8768,0.0],[148.3156,-41.8768,0.0],[148.316,-41.8769,0.0]]],
[[[148.3129,-41.8755,0.0],[148.3131,-41.8753,0.0],[148.3127,-41.8752,0.0],[148.3127,-41.8753,0.0],[148.3129,-41.8755,0.0]]],
[[[148.3136,-41.871,0.0],[148.3125,-41.8705,0.7396],[148.3118,-41.8717,0.0],[148.3132,-41.8721,0.0],[148.3136,-41.871,0.0]]],
[[[148.2959,-41.8684,1.9134],[148.2958,-41.8683,1.9134],[148.2954,-41.8687,1.9134],[148.2958,-41.8687,1.9134],[148.2959,-41.8684,1.9134]]],
[[[148.2901,-41.8602,0.0],[148.2901,-41.8601,0.0],[148.29,-41.8601,0.0],[148.2901,-41.8602,0.0]]],
[[[148.2898,-41.8599,0.0],[148.2916,-41.8587,0.0],[148.2902,-41.8562,0.0],[148.2888,-41.8578,0.0],[148.2898,-41.8599,0.0]]],
[[[148.2824,-41.8577,0.0],[148.2826,-41.8578,0.0],[148.2827,-41.8577,0.0],[148.2825,-41.8575,0.0],[148.2824,-41.8577,0.0]]],
[[[148.3132,-41.8741,0.0],[148.3133,-41.8741,0.0],[148.3132,-41.8739,0.0],[148.3132,-41.874,0.0],[148.3132,-41.8741,0.0]]],
[[[148.313,-41.8729,0.0],[148.3116,-41.8726,0.0],[148.3127,-41.8746,0.0],[148.3131,-41.8743,0.0],[148.313,-41.8729,0.0]]],
[[[148.1484,-42.0719,0.1877],[148.1499,-42.0706,0.2371],[148.1423,-42.0725,0.5276],[148.1434,-42.0735,0.0656],[148.1484,-42.0719,0.1877]]],
[[[148.152,-42.0707,0.1359],[148.1509,-42.0704,0.1359],[148.1508,-42.0706,0.1359],[148.1515,-42.0713,0.0],[148.152,-42.0707,0.1359]]]]}}