{"type": "Feature","bbox": [125.9028,-21.232,129.0005,-16.7693],"geometry": {"type": "MultiPolygon","coordinates": [[[[129.0005,-18.6826,421.0502],[129.0005,-16.9793,208.5233],[128.7125,-16.9795,106.8291],[128.7115,-16.9717,118.1699],[128.7072,-16.9639,103.316],[128.6981,-16.9312,117.9326],[128.6977,-16.9235,114.98],[128.479,-16.9235,179.9526],[128.479,-16.9962,391.2801],[128.2429,-16.9962,198.1598],[128.2429,-16.9235,209.9957],[128.2025,-16.9235,255.4733],[128.2025,-17.0486,208.2322],[128.1354,-17.0486,336.6481],[128.1354,-17.0539,338.8643],[127.8592,-17.0539,472.1222],[127.8592,-17.1702,531.926],[127.8214,-17.1702,537.9555],[127.8214,-17.2319,465.7718],[127.7129,-17.2319,509.709],[127.7129,-17.2847,449.2244],[127.815,-17.2847,415.7279],[127.8146,-17.3363,374.0086],[127.6519,-17.3363,566.7501],[127.6519,-17.2319,610.6484],[127.6307,-17.2319,645.1119],[127.6307,-17.1494,548.7427],[127.6214,-17.1494,556.0651],[127.6214,-17.0762,497.8976],[127.7153,-17.0762,516.3595],[127.7153,-16.7693,591.8694],[127.5642,-16.7694,418.3387],[127.5642,-16.9981,466.8997],[127.4129,-16.9981,440.239],[127.4129,-17.2163,776.5377],[127.3268,-17.2163,501.7472],[127.3268,-17.2327,455.1473],[127.2472,-17.2327,542.3414],[127.2472,-17.3873,647.0331],[127.0471,-17.3873,612.7755],[127.0471,-17.5486,457.9402],[126.8913,-17.5486,486.8777],[126.8913,-17.4754,371.6588],[126.881,-17.4754,366.7267],[126.8733,-17.4819,372.1025],[126.8689,-17.4825,363.3016],[126.8479,-17.4729,357.6425],[126.8356,-17.4794,353.8684],[126.8124,-17.4822,348.2945],[126.7928,-17.4822,344.5613],[126.7831,-17.4879,344.1722],[126.7779,-17.4811,349.3516],[126.7765,-17.4813,337.7788],[126.7705,-17.4895,347.8156],[126.7484,-17.4911,337.7547],[126.7464,-17.4919,352.6153],[126.7461,-17.4957,347.0884],[126.7409,-17.4997,342.3405],[126.7256,-17.4948,326.2011],[126.7167,-17.5013,332.1526],[126.7108,-17.503,343.6266],[126.6828,-17.4992,321.7489],[126.6665,-17.4942,413.9893],[126.6489,-17.4952,330.8279],[126.6489,-17.5431,466.0296],[126.5394,-17.5431,381.3917],[126.5394,-17.434,383.9691],[126.4277,-17.434,327.6405],[126.4277,-17.4867,517.1614],[126.2971,-17.4867,365.9341],[126.2971,-17.436,247.9693],[126.2882,-17.4458,283.247],[126.29,-17.4544,249.2608],[126.2849,-17.4591,249.5891],[126.2805,-17.4604,249.3311],[126.2735,-17.4582,240.6352],[126.2579,-17.4596,239.4436],[126.2534,-17.4617,257.0089],[126.2519,-17.4655,231.9545],[126.2444,-17.4707,229.8724],[126.2424,-17.4776,237.3079],[126.2302,-17.4882,209.5],[126.2316,-17.4908,237.409],[126.2377,-17.4947,246.6069],[126.2373,-17.5001,211.0421],[126.2344,-17.5026,223.3],[126.2254,-17.5032,210.1968],[126.2231,-17.5052,209.8856],[126.2289,-17.5176,216.6187],[126.2283,-17.5232,241.7456],[126.2244,-17.5276,211.7033],[126.215,-17.5296,197.982],[126.2034,-17.537,187.9217],[126.1981,-17.5541,186.7115],[126.1855,-17.56,181.0452],[126.1722,-17.5604,181.5134],[126.1656,-17.5571,180.1509],[126.1586,-17.5595,179.8772],[126.1543,-17.5588,177.1112],[126.1495,-17.5542,178.9042],[126.1433,-17.5542,177.0887],[126.1408,-17.5576,176.0865],[126.1393,-17.5686,179.2465],[126.1332,-17.576,175.4946],[126.1337,-17.581,172.4076],[126.3084,-17.5803,525.8843],[126.3084,-17.633,443.7281],[126.392,-17.633,496.1696],[126.392,-17.7789,377.445],[126.6225,-17.7789,290.1417],[126.6225,-18.0965,354.4725],[126.2827,-18.0965,195.7566],[126.2827,-18.1739,165.9387],[126.3246,-18.1739,326.8782],[126.3254,-18.2533,155.7395],[126.3188,-18.2531,158.3053],[126.3155,-18.2562,209.9899],[126.3155,-18.3963,310.5154],[126.2547,-18.3963,254.4153],[126.1831,-18.3229,140.3576],[126.1585,-18.3282,150.8416],[126.1233,-18.3443,148.2164],[126.0975,-18.3494,144.4609],[126.0874,-18.347,146.666],[126.0802,-18.343,145.6017],[126.0622,-18.3252,141.3017],[126.0483,-18.3201,145.6902],[126.0433,-18.3361,141.8977],[126.0358,-18.3361,141.4211],[126.0358,-18.3506,139.2395],[126.0376,-18.3506,139.2395],[126.0361,-18.3545,139.4487],[126.0336,-18.4286,172.687],[126.0333,-18.4914,169.1712],[125.9908,-18.5232,163.8795],[125.9028,-18.6137,175.183],[125.9298,-18.6202,208.7944],[125.9567,-18.6745,226.8267],[126.011,-18.7087,252.9772],[126.0079,-18.7241,241.2487],[126.0261,-18.731,227.5301],[126.0261,-18.7555,188.764],[126.0317,-18.7555,192.295],[126.0502,-18.7648,199.8147],[126.0567,-18.7639,202.8871],[126.0806,-18.7525,233.3685],[126.1213,-18.8043,233.4321],[126.1207,-18.9965,198.0793],[126.1853,-19.0046,202.2666],[126.582,-19.0106,314.8178],[126.582,-19.2456,294.0378],[126.5049,-19.2456,271.9639],[126.5049,-19.4234,294.1392],[126.0018,-19.4234,237.5923],[126.0013,-21.232,332.3575],[129.0005,-21.232,365.1863],[129.0005,-18.6826,421.0502]]]]}
,"properties": {"GID_2": "AUS.11.55_1","GID_0": "AUS","country": "Australia","GID_1": "AUS.11_1","state": "WesternAustralia","NL_NAME_1": "NA","county": "HallsCreek","VARNAME_2": "NA","NL_NAME_2": "NA","TYPE_2": "Shire","ENGTYPE_2": "Shire","CC_2": "53920","HASC_2": "AU.WA.HC","name": "HallsCreek.county","area_km2": 133378.58,"hist_schema_id": "Elevation0-9000","hist_area_km2": {"100": 3.97,"125": 103.68,"150": 718.72,"175": 1390.07,"200": 2098.93,"225": 3517.68,"250": 5388.14,"275": 11582.98,"300": 12184.83,"325": 17116.44,"350": 21104.0,"375": 19877.03,"400": 15822.43,"425": 9550.31,"450": 4724.3,"475": 2639.19,"500": 1829.74,"525": 1410.57,"550": 999.6,"575": 538.36,"600": 288.26,"625": 166.95,"650": 107.92,"675": 67.56,"700": 39.0,"725": 24.59,"750": 20.08,"775": 16.05,"800": 13.98,"825": 11.57,"850": 9.91,"875": 5.44,"900": 3.46,"925": 1.5,"950": 1.07}}}