{"type":"Feature","properties":{"GID_2":"AUS.5.10_1","GID_0":"AUS","country":"Australia","GID_1":"AUS.5_1","state":"NewSouthWales","NL_NAME_1":"NA","county":"Bellingen","VARNAME_2":"NA","NL_NAME_2":"NA","TYPE_2":"Area","ENGTYPE_2":"Area","CC_2":"10600","HASC_2":"AU.NS.BE","name":"Bellingen.county"},
"geometry":{"type": "MultiPolygon","coordinates": [[[[152.4083,-30.4887,1555.5963],[152.4981,-30.5191,482.6841],[152.6303,-30.5396,247.5145],[152.6548,-30.5384,412.5478],[152.6622,-30.5394,404.6411],[152.6627,-30.5361,388.3097],[152.671,-30.5371,364.2134],[152.6719,-30.532,274.6212],[152.6773,-30.5328,245.5626],[152.723,-30.5257,347.886],[152.7312,-30.5269,147.1482],[152.732,-30.5226,267.4634],[152.7373,-30.5233,109.2258],[152.7365,-30.5275,156.6438],[152.793,-30.5349,472.9398],[152.7946,-30.5338,454.1946],[152.794,-30.537,386.9131],[152.8163,-30.5396,105.0539],[152.8178,-30.5296,118.3849],[152.8414,-30.5325,128.1738],[152.8398,-30.5425,209.0415],[152.8574,-30.5463,90.1604],[152.8578,-30.538,45.148],[152.8603,-30.5384,35.2834],[152.861,-30.5348,36.9328],[152.8651,-30.5354,63.6963],[152.8634,-30.5446,80.8955],[152.8701,-30.5456,149.8019],[152.8704,-30.5479,132.3164],[152.8741,-30.5497,118.2782],[152.8886,-30.5514,148.1566],[152.8876,-30.5566,110.2253],[152.8998,-30.5582,126.6369],[152.9006,-30.5528,235.0628],[153.0041,-30.5671,24.5126],[153.0059,-30.5643,32.609],[153.0169,-30.5652,0.0],[153.0226,-30.5535,4.4112],[153.0296,-30.547,0.0],[153.0261,-30.5429,7.3247],[153.025,-30.5336,10.1865],[153.0287,-30.5216,0.0],[153.0335,-30.4925,1.117],[153.0437,-30.4706,0.0],[153.0602,-30.4488,1.4846],[153.0395,-30.4319,38.4337],[152.9942,-30.4052,28.0711],[152.9945,-30.4029,52.6359],[152.9849,-30.4031,26.6629],[152.9808,-30.3969,37.5369],[152.9782,-30.3979,32.8514],[152.9732,-30.394,26.4285],[152.9677,-30.3932,23.4405],[152.9666,-30.3904,35.3581],[152.9576,-30.3888,24.456],[152.9655,-30.3485,555.8706],[152.9518,-30.3516,564.6487],[152.9507,-30.3489,709.7348],[152.9421,-30.3441,883.4703],[152.9396,-30.34,850.0999],[152.9223,-30.3319,780.6598],[152.9073,-30.3274,709.1427],[152.9018,-30.3299,725.722],[152.8957,-30.3268,756.6498],[152.8906,-30.3295,667.2605],[152.8845,-30.3253,740.3795],[152.8784,-30.3274,859.0134],[152.8644,-30.323,874.9005],[152.8636,-30.3202,952.3959],[152.857,-30.3158,964.8834],[152.8551,-30.312,899.2418],[152.8485,-30.3114,933.6265],[152.8467,-30.3097,967.0966],[152.8432,-30.3131,970.863],[152.8389,-30.3138,967.2082],[152.837,-30.3109,989.2711],[152.8341,-30.3116,944.9946],[152.8199,-30.3005,718.131],[152.8165,-30.2939,704.2563],[152.8237,-30.2868,613.0799],[152.8176,-30.28,594.4286],[152.8196,-30.277,585.3135],[152.8229,-30.2755,581.3744],[152.8189,-30.2726,585.4733],[152.8206,-30.2694,572.4162],[152.8201,-30.2658,551.2998],[152.8228,-30.2645,574.679],[152.8242,-30.2691,557.8842],[152.8259,-30.2678,589.5477],[152.8273,-30.2715,595.1898],[152.8331,-30.2734,542.9517],[152.832,-30.2695,556.084],[152.8375,-30.2698,529.4635],[152.8416,-30.2604,532.0852],[152.8468,-30.2602,513.4039],[152.848,-30.2569,525.8137],[152.8512,-30.2587,519.2019],[152.8553,-30.253,511.2288],[152.8487,-30.252,512.8007],[152.8489,-30.2456,502.3845],[152.8437,-30.2408,490.45],[152.8469,-30.2388,509.1495],[152.8451,-30.2387,500.3575],[152.8449,-30.2359,512.176],[152.8345,-30.2299,496.9722],[152.8343,-30.2234,520.6889],[152.8295,-30.2221,495.1828],[152.8336,-30.2192,507.1957],[152.8329,-30.217,509.7789],[152.8269,-30.2135,492.4496],[152.8174,-30.2134,499.6474],[152.8177,-30.2071,517.4965],[152.8139,-30.2047,500.9504],[152.8135,-30.2022,477.0849],[152.8093,-30.2006,486.4867],[152.8075,-30.1968,496.4022],[152.8087,-30.1952,471.3347],[152.8071,-30.1932,492.1554],[152.8013,-30.1921,453.3496],[152.8035,-30.1896,465.0679],[152.7675,-30.1847,639.3541],[152.7679,-30.1824,608.2017],[152.7552,-30.1808,614.718],[152.7541,-30.1847,628.5837],[152.7552,-30.1865,623.6239],[152.75,-30.189,626.6288],[152.7508,-30.1966,632.7463],[152.693,-30.189,419.2127],[152.6965,-30.1981,444.3185],[152.7075,-30.2042,437.0205],[152.7054,-30.2074,461.7954],[152.694,-30.2111,474.226],[152.6932,-30.2183,529.5558],[152.6976,-30.2238,488.7443],[152.682,-30.2311,525.7487],[152.674,-30.2382,530.8553],[152.6708,-30.2392,531.7889],[152.6691,-30.2455,543.8857],[152.6634,-30.2472,537.2],[152.6635,-30.2517,540.6733],[152.6581,-30.2523,558.2689],[152.6545,-30.2556,550.6085],[152.649,-30.2524,565.146],[152.6469,-30.2542,559.3825],[152.6483,-30.2564,564.1197],[152.6467,-30.2582,574.7532],[152.6436,-30.2569,571.3082],[152.6447,-30.2565,563.757],[152.6438,-30.2548,573.8164],[152.639,-30.2554,577.6449],[152.6417,-30.2525,572.0742],[152.6386,-30.2513,579.3323],[152.6331,-30.2537,598.5599],[152.6348,-30.2568,602.5892],[152.6306,-30.256,607.3743],[152.626,-30.2582,602.4043],[152.6269,-30.26,617.1252],[152.616,-30.2581,613.7822],[152.6131,-30.2551,625.8748],[152.6112,-30.2493,635.9312],[152.603,-30.2525,630.1908],[152.598,-30.2501,637.5255],[152.5968,-30.2468,640.3683],[152.5898,-30.245,644.327],[152.5865,-30.2409,641.9189],[152.5828,-30.2444,647.2481],[152.5805,-30.2422,660.5728],[152.5739,-30.2445,664.0856],[152.5698,-30.2393,672.4889],[152.5612,-30.2336,697.5967],[152.5649,-30.2393,669.5128],[152.5579,-30.241,706.9685],[152.5575,-30.2431,697.6765],[152.5596,-30.2437,687.1397],[152.5597,-30.2454,701.4964],[152.5547,-30.2499,704.4139],[152.5547,-30.2554,726.9822],[152.5525,-30.2552,703.3158],[152.5513,-30.2578,716.6392],[152.5573,-30.2623,707.27],[152.5553,-30.2739,706.1726],[152.5512,-30.2755,729.4467],[152.5502,-30.2777,718.1486],[152.555,-30.2809,741.4264],[152.5504,-30.2813,716.6307],[152.5466,-30.2854,724.4667],[152.5471,-30.2887,731.3315],[152.5424,-30.2904,747.837],[152.5438,-30.2927,797.7373],[152.5391,-30.2929,812.2679],[152.5384,-30.2954,752.9246],[152.5356,-30.2954,757.1846],[152.5353,-30.2931,762.582],[152.533,-30.2927,775.7456],[152.531,-30.2952,794.3985],[152.5329,-30.2973,777.2933],[152.5331,-30.301,759.3802],[152.5313,-30.3,759.3802],[152.5293,-30.3011,768.9912],[152.5259,-30.3116,833.9682],[152.5202,-30.3159,836.6804],[152.5135,-30.3169,868.3528],[152.5105,-30.3196,888.1843],[152.5062,-30.3206,904.7865],[152.5017,-30.3297,1034.3911],[152.4966,-30.3313,1048.4644],[152.4959,-30.3349,1055.3159],[152.4934,-30.3369,1076.481],[152.4905,-30.3373,1072.4745],[152.4873,-30.3347,1082.5897],[152.4855,-30.3354,1090.5164],[152.4832,-30.3317,1115.5157],[152.4805,-30.3324,1148.781],[152.4823,-30.3374,1137.6996],[152.4788,-30.3379,1155.3008],[152.4821,-30.3455,1165.9583],[152.4794,-30.3479,1172.3584],[152.4769,-30.3476,1171.4749],[152.4765,-30.3548,1180.0403],[152.4749,-30.3566,1173.9193],[152.4766,-30.3617,1180.6836],[152.4762,-30.367,1184.941],[152.478,-30.3684,1195.9543],[152.4769,-30.3732,1196.6405],[152.4789,-30.3779,1196.5374],[152.4774,-30.3791,1214.9073],[152.4777,-30.3898,1280.199],[152.4841,-30.3915,1332.0747],[152.4786,-30.397,1340.5148],[152.4652,-30.3956,1365.1178],[152.4605,-30.3981,1356.9807],[152.4539,-30.3968,1396.343],[152.4489,-30.4009,1319.8163],[152.4463,-30.3984,1332.7554],[152.438,-30.4002,1365.0732],[152.4351,-30.4053,1378.2415],[152.4305,-30.4062,1409.7058],[152.4297,-30.4159,1479.8206],[152.4248,-30.4241,1496.1604],[152.4195,-30.4269,1446.5308],[152.4174,-30.4366,1520.631],[152.411,-30.437,1467.1472],[152.4018,-30.435,1480.573],[152.3969,-30.4421,1427.0034],[152.392,-30.4429,1441.0144],[152.3896,-30.4531,1384.4944],[152.3956,-30.469,1334.0148],[152.3929,-30.4725,1532.7393],[152.394,-30.4785,1547.3115],[152.4022,-30.4861,1490.6899],[152.4083,-30.4887,1555.5963]]]]}}