{"type": "Feature","bbox": [151.0385,-33.9502,151.155,-33.8944],"geometry": {"type": "MultiPolygon","coordinates": [[[[151.1124,-33.8944,25.8322],[151.0996,-33.8975,12.955],[151.0994,-33.9028,8.1926],[151.0974,-33.9037,7.4773],[151.089,-33.8998,9.9579],[151.0859,-33.9007,13.5878],[151.0748,-33.9101,19.2758],[151.0684,-33.913,21.688],[151.06,-33.922,28.3998],[151.0466,-33.9286,13.1695],[151.0448,-33.9325,8.8547],[151.0385,-33.934,4.835],[151.0403,-33.9367,5.7412],[151.0395,-33.9404,3.4027],[151.0419,-33.9474,6.9945],[151.0591,-33.9502,28.642],[151.0788,-33.9471,50.3555],[151.0774,-33.9442,39.0823],[151.0856,-33.9404,27.0825],[151.0876,-33.9409,26.3201],[151.0905,-33.9391,28.1462],[151.0916,-33.941,27.6011],[151.0939,-33.9412,26.0536],[151.1042,-33.9372,20.127],[151.1158,-33.9368,17.7252],[151.1251,-33.9307,9.4868],[151.1328,-33.9318,5.8434],[151.1346,-33.9299,8.8777],[151.1376,-33.9304,5.6174],[151.1399,-33.9274,8.2321],[151.1519,-33.9277,4.4307],[151.155,-33.9262,3.1791],[151.1547,-33.9236,3.2341],[151.1478,-33.9212,10.0728],[151.1417,-33.9228,3.2379],[151.1371,-33.9213,14.9443],[151.14,-33.9163,2.2758],[151.135,-33.9132,2.4429],[151.1344,-33.9058,39.0751],[151.1286,-33.9047,47.4432],[151.1259,-33.9076,42.1605],[151.1222,-33.9063,32.2029],[151.1251,-33.8957,38.8014],[151.113,-33.8957,33.9621],[151.1124,-33.8944,25.8322]]]]}
,"properties": {"GID_2": "AUS.5.29_1","GID_0": "AUS","country": "Australia","GID_1": "AUS.5_1","state": "NewSouthWales","NL_NAME_1": "NA","county": "Canterbury","VARNAME_2": "NA","NL_NAME_2": "NA","TYPE_2": "City","ENGTYPE_2": "City","CC_2": "11550","HASC_2": "AU.NS.CA","name": "Canterbury.county","area_km2": 33.6558,"hist_schema_id": "Elevation0-9000","hist_area_km2": {"0": 5.98206,"25": 18.05084,"50": 9.60532,"75": 0.01759}}}