{"type":"Feature","properties":{"GID_2":"AUS.11.10_1","GID_0":"AUS","country":"Australia","GID_1":"AUS.11_1","state":"WesternAustralia","NL_NAME_1":"NA","county":"BoyupBrook","VARNAME_2":"NA","NL_NAME_2":"NA","TYPE_2":"Shire","ENGTYPE_2":"Shire","CC_2":"50770","HASC_2":"AU.WA.BB","name":"BoyupBrook.county"},
"geometry":{"type": "MultiPolygon","coordinates": [[[[116.4848,-34.1591,259.0279],[116.4935,-34.1591,238.1807],[116.4935,-34.1555,234.9366],[116.5233,-34.1557,232.862],[116.5233,-34.1715,215.3732],[116.5298,-34.1716,235.0952],[116.5297,-34.1746,248.9285],[116.5232,-34.1745,226.4298],[116.5233,-34.1848,223.1235],[116.5347,-34.1849,209.6631],[116.5049,-34.2101,245.4461],[116.5128,-34.2197,243.1985],[116.5138,-34.2259,224.9752],[116.6108,-34.2261,262.9813],[116.6179,-34.2256,273.6151],[116.6255,-34.2216,276.6759],[116.6563,-34.2196,282.8052],[116.6674,-34.2247,268.479],[116.6674,-34.2576,235.488],[116.6828,-34.2576,202.4677],[116.6929,-34.2543,228.2924],[116.7179,-34.2572,214.5945],[116.7406,-34.2574,216.7716],[116.769,-34.2555,237.8419],[116.7873,-34.2513,247.1588],[116.8407,-34.2513,281.4967],[116.8407,-34.219,294.1123],[116.8425,-34.219,285.7984],[116.8422,-34.1406,248.3995],[116.8216,-34.1322,229.2803],[116.8024,-34.1221,229.3017],[116.7927,-34.1236,226.103],[116.7952,-34.1207,228.6855],[116.7991,-34.121,226.0078],[116.8016,-34.1185,226.608],[116.7999,-34.1137,229.4418],[116.804,-34.1134,227.1002],[116.8064,-34.1115,229.4748],[116.7796,-34.1115,227.6682],[116.7796,-34.087,276.4344],[116.7825,-34.0774,290.9437],[116.7824,-34.0515,292.9393],[116.7597,-34.0516,291.4064],[116.7597,-34.032,327.1143],[116.7535,-34.032,297.6264],[116.7451,-34.0151,306.8743],[116.7472,-34.0079,316.7522],[116.7473,-33.9998,323.8498],[116.7498,-33.9943,325.357],[116.7486,-33.9787,333.0947],[116.7409,-33.9787,304.9475],[116.7409,-33.9808,294.3032],[116.7296,-33.9808,291.8039],[116.7284,-33.9666,297.9427],[116.7228,-33.9666,309.2547],[116.7242,-33.9604,288.4401],[116.72,-33.9604,297.9541],[116.72,-33.9495,288.4958],[116.7475,-33.9493,319.1153],[116.768,-33.927,311.3135],[116.7765,-33.9222,281.4356],[116.7766,-33.8959,277.1881],[116.774,-33.8959,278.8375],[116.7707,-33.859,256.195],[116.7739,-33.8583,255.0174],[116.7738,-33.833,258.6826],[116.7762,-33.833,264.0861],[116.7758,-33.8102,280.533],[116.7783,-33.809,277.4118],[116.7762,-33.8089,281.3146],[116.7762,-33.7907,255.495],[116.7783,-33.7907,257.2723],[116.7783,-33.7749,264.5293],[116.7825,-33.7749,274.4801],[116.7825,-33.7651,247.2183],[116.7818,-33.7446,225.423],[116.7726,-33.7371,270.8659],[116.7882,-33.7241,219.1472],[116.7842,-33.7211,222.3385],[116.781,-33.7208,218.7399],[116.7772,-33.7154,218.7418],[116.7655,-33.7137,217.921],[116.7603,-33.705,216.0956],[116.7576,-33.7042,216.9324],[116.7511,-33.6971,217.1144],[116.7423,-33.6961,217.1102],[116.7386,-33.6943,214.3869],[116.7349,-33.682,212.5293],[116.7281,-33.6858,211.2959],[116.7149,-33.6831,210.1814],[116.71,-33.6833,209.0101],[116.7061,-33.6854,211.4406],[116.6976,-33.6846,209.8464],[116.6933,-33.6877,225.6406],[116.6935,-33.6925,209.6631],[116.688,-33.6961,207.5442],[116.6904,-33.6991,210.4258],[116.6898,-33.7005,210.2296],[116.6854,-33.7009,209.7497],[116.6789,-33.6977,209.4427],[116.6712,-33.7004,208.98],[116.663,-33.697,207.3103],[116.6571,-33.6975,204.9784],[116.6539,-33.7002,208.4883],[116.6443,-33.6952,207.383],[116.636,-33.6956,206.7376],[116.6389,-33.6868,206.636],[116.6371,-33.6844,206.1802],[116.6315,-33.6841,205.8766],[116.6285,-33.686,204.8741],[116.6264,-33.6803,205.7494],[116.6162,-33.6809,204.8638],[116.6101,-33.6786,203.8367],[116.6161,-33.671,208.6158],[116.6151,-33.669,204.8438],[116.61,-33.6694,203.5974],[116.6021,-33.6785,208.7645],[116.5944,-33.6739,203.4916],[116.5867,-33.6718,202.4053],[116.5808,-33.6642,203.5553],[116.5753,-33.665,202.1746],[116.5744,-33.6677,203.4774],[116.5563,-33.6677,247.5018],[116.5563,-33.673,253.5727],[116.5326,-33.6728,264.6941],[116.5326,-33.6594,257.1136],[116.4979,-33.6594,213.0478],[116.4979,-33.6667,211.3154],[116.4847,-33.6667,229.2678],[116.4847,-33.6421,212.252],[116.4731,-33.64,218.909],[116.4731,-33.6239,260.103],[116.4594,-33.6239,240.3062],[116.4594,-33.6184,263.329],[116.4508,-33.6184,246.9161],[116.4508,-33.6221,240.1483],[116.4388,-33.6219,240.2985],[116.439,-33.6128,277.0444],[116.429,-33.6127,255.8787],[116.4289,-33.6028,261.6241],[116.4216,-33.6053,265.28],[116.4117,-33.6056,254.8354],[116.4116,-33.5916,251.2697],[116.4058,-33.5916,244.0984],[116.4058,-33.5835,268.073],[116.384,-33.5836,233.8484],[116.3866,-33.5767,244.6794],[116.3648,-33.5765,233.9877],[116.3648,-33.5682,230.0038],[116.3078,-33.568,206.8477],[116.3025,-33.564,202.833],[116.3028,-33.5555,205.6461],[116.2991,-33.5525,201.2189],[116.279,-33.5525,239.4797],[116.1968,-33.5135,256.4666],[116.197,-33.5925,217.5813],[116.2064,-33.5964,237.527],[116.2065,-33.6175,253.2959],[116.2038,-33.6174,256.7274],[116.2038,-33.6279,265.4692],[116.1952,-33.6347,269.1064],[116.1982,-33.6387,267.0258],[116.2011,-33.6387,266.9409],[116.202,-33.6463,260.1199],[116.206,-33.6463,270.1965],[116.2053,-33.6578,262.8356],[116.2011,-33.6578,267.4779],[116.2011,-33.6698,281.2364],[116.2154,-33.6698,267.8858],[116.2158,-33.7014,280.1295],[116.2273,-33.7014,257.7393],[116.2273,-33.7031,263.23],[116.2398,-33.7065,249.225],[116.2391,-33.7111,251.0805],[116.2337,-33.7111,270.1483],[116.2337,-33.7184,254.7293],[116.2315,-33.7184,262.5778],[116.2315,-33.7213,236.8818],[116.2283,-33.7213,276.4016],[116.2282,-33.735,290.9727],[116.2184,-33.7351,274.6871],[116.218,-33.7711,273.7894],[116.1961,-33.7711,256.7196],[116.1977,-33.8442,261.8093],[116.2003,-33.8442,268.2561],[116.2003,-33.847,269.4156],[116.2133,-33.847,286.3486],[116.2133,-33.8553,267.3749],[116.2068,-33.8553,269.2876],[116.2068,-33.865,272.3446],[116.2047,-33.865,271.095],[116.2038,-33.8822,280.9077],[116.2112,-33.8815,287.5658],[116.2112,-33.8777,276.8304],[116.2324,-33.878,298.308],[116.2324,-33.8794,298.308],[116.2397,-33.8796,293.2196],[116.2548,-33.8739,296.1924],[116.2667,-33.8738,273.987],[116.2668,-33.8864,261.0543],[116.2747,-33.8867,246.003],[116.2846,-33.8962,218.9727],[116.3009,-33.8989,226.2706],[116.3214,-33.8979,263.9179],[116.3214,-33.9253,245.1468],[116.3361,-33.9253,269.9741],[116.3361,-33.9474,167.2392],[116.3417,-33.9478,168.7856],[116.3454,-33.9514,167.4702],[116.3486,-33.9579,167.3896],[116.3625,-33.96,169.2847],[116.3661,-33.9653,173.0823],[116.3661,-33.9883,250.174],[116.3767,-33.9883,277.0473],[116.3768,-34.0052,258.3073],[116.3738,-34.002,282.736],[116.3738,-34.0079,247.4543],[116.3651,-34.0079,244.5009],[116.3651,-34.0133,294.2979],[116.3611,-34.0133,294.731],[116.3613,-34.0222,296.1972],[116.3641,-34.0222,292.3158],[116.3639,-34.0338,294.4321],[116.3606,-34.0338,288.2693],[116.3609,-34.0485,301.118],[116.3564,-34.0485,305.3429],[116.3564,-34.0546,304.9729],[116.3774,-34.0547,297.1506],[116.3774,-34.0567,295.0871],[116.4058,-34.0564,271.4151],[116.4054,-34.0751,280.7102],[116.4494,-34.0753,275.8412],[116.4494,-34.0776,274.5365],[116.4986,-34.0774,259.1932],[116.4986,-34.0968,282.7293],[116.5043,-34.0968,284.6294],[116.503,-34.1206,304.6229],[116.4644,-34.1203,297.7579],[116.4643,-34.1509,255.5013],[116.4848,-34.1509,240.7349],[116.4848,-34.1591,259.0279]]]]}}