{"type":"Feature","properties":{"ISO3166-1-Alpha-3":"AUS","country":"Australia","fill":"#F0F","id":"2659","name":"Norfolk Island"},
"geometry":{"type": "Polygon","coordinates": [[[159.04444,-31.51922,0.0],[159.04705,-31.52654,0.0],[159.05177,-31.53346,0.0],[159.05795,-31.52606,0.0],[159.07521,-31.53981,6.447],[159.08302,-31.55836,174.8758],[159.08009,-31.57627,231.2959],[159.06479,-31.58815,0.0],[159.07887,-31.59336,0.0],[159.08961,-31.58904,0.0],[159.0984,-31.57928,0.0],[159.10646,-31.56764,0.0],[159.09376,-31.55299,36.4236],[159.08334,-31.53484,0.0],[159.06886,-31.52093,38.6287],[159.04444,-31.51922,0.0]]]}}