{"type":"Feature","properties":{"GID_2":"AUS.10.55_1","GID_0":"AUS","country":"Australia","GID_1":"AUS.10_1","state":"Victoria","NL_NAME_1":"NA","county":"Moyne","VARNAME_2":"NA","NL_NAME_2":"NA","TYPE_2":"Shire","ENGTYPE_2":"Shire","CC_2":"25490","HASC_2":"AU.VI.MY","name":"Moyne.county"},
"geometry":{"type": "MultiPolygon","coordinates": [[[[142.6147,-37.8103,187.6219],[142.5982,-37.8095,205.1558],[142.5885,-37.8058,218.5472],[142.5525,-37.8013,244.3143],[142.5485,-37.8209,235.3544],[142.534,-37.8271,233.3752],[142.5307,-37.843,226.7975],[142.4667,-37.8349,249.6348],[142.4552,-37.8925,208.5234],[142.4562,-37.8931,210.7293],[142.4502,-37.918,212.2491],[142.4406,-37.9155,220.6918],[142.4323,-37.9097,202.3741],[142.4235,-37.9085,204.6571],[142.4098,-37.899,209.1998],[142.4115,-37.9059,206.074],[142.4103,-37.9138,208.0186],[142.4119,-37.9315,200.6614],[142.4147,-37.9326,199.8585],[142.2141,-37.9344,201.2079],[142.2141,-37.9373,201.5241],[142.2049,-37.936,204.1867],[142.203,-37.9376,203.2283],[142.1932,-37.939,204.4942],[142.1898,-37.937,199.6891],[142.1796,-37.9398,195.3903],[142.1773,-37.9419,195.9865],[142.1785,-37.9445,195.8154],[142.1757,-37.946,193.9286],[142.1745,-37.946,193.304],[142.1744,-37.9425,197.359],[142.1674,-37.9436,192.4365],[142.1642,-37.9393,192.6042],[142.1617,-37.9393,195.1295],[142.1616,-37.9438,191.1785],[142.1544,-37.9463,190.3222],[142.1544,-37.952,188.2317],[142.1507,-37.9526,187.9999],[142.1494,-37.9504,187.0019],[142.1451,-37.9516,186.1977],[142.1408,-37.9497,186.7535],[142.1351,-37.9499,186.3305],[142.136,-37.9529,187.6757],[142.134,-37.9565,186.4177],[142.1127,-37.9569,196.8512],[142.1146,-37.9469,198.5031],[142.0314,-37.9482,156.6217],[142.0175,-37.9584,142.6112],[142.0104,-37.9559,141.7499],[142.0078,-37.9564,140.0772],[142.0081,-37.9593,141.2977],[142.0068,-37.9599,135.4591],[141.9965,-37.9591,131.9482],[141.9938,-37.9641,123.1503],[141.9886,-37.9656,117.7371],[141.9891,-37.9678,115.0881],[141.9866,-37.9708,109.5009],[141.9712,-37.9728,94.7477],[141.9656,-37.971,94.684],[141.9586,-37.9726,83.1777],[141.9321,-37.9621,71.8967],[141.9154,-37.9638,71.8331],[141.8847,-37.9424,71.9872],[141.8769,-37.9404,72.2282],[141.8701,-37.9434,70.7095],[141.8332,-37.934,62.9035],[141.8264,-37.9357,62.4516],[141.8171,-37.9433,60.8954],[141.8201,-37.9615,57.2084],[141.8345,-37.9855,54.6886],[141.8347,-38.0101,54.1954],[141.8301,-38.0221,52.6372],[141.8207,-38.0338,53.3039],[141.8198,-38.0393,53.2962],[141.824,-38.0432,54.6562],[141.8237,-38.0455,54.9094],[141.8291,-38.0531,53.0806],[141.8322,-38.0549,51.8419],[141.8314,-38.0594,51.4019],[141.8468,-38.0796,54.1941],[141.8513,-38.0803,54.6727],[141.8515,-38.0865,63.7893],[141.8694,-38.1131,70.9434],[141.8694,-38.1447,59.3935],[141.851,-38.1447,60.9383],[141.8509,-38.1744,52.2562],[141.8509,-38.2112,37.4321],[141.8696,-38.2107,42.2632],[141.8696,-38.2643,2.639],[141.8849,-38.2663,0.0],[141.8999,-38.2706,2.2847],[141.9035,-38.2711,2.9967],[141.9035,-38.2699,2.9967],[141.94,-38.282,0.0],[141.9783,-38.2982,2.71],[142.0145,-38.3169,11.7384],[142.0372,-38.332,2.4703],[142.0445,-38.3386,0.0],[142.0501,-38.3407,4.0995],[142.0738,-38.3559,7.6962],[142.0983,-38.3655,0.0],[142.106,-38.37,0.0],[142.1059,-38.3715,0.0],[142.1131,-38.3716,5.2205],[142.1197,-38.3743,7.2182],[142.124,-38.3779,3.6364],[142.1269,-38.3773,9.2051],[142.1297,-38.38,1.2056],[142.1365,-38.3807,4.668],[142.1434,-38.3866,0.0],[142.1457,-38.3915,0.705],[142.1472,-38.3896,0.4818],[142.1534,-38.3919,1.2602],[142.1548,-38.3903,2.7948],[142.1629,-38.3919,1.3862],[142.1735,-38.39,0.0],[142.1793,-38.3921,1.8689],[142.1809,-38.3917,0.0],[142.1803,-38.3903,2.803],[142.1866,-38.392,0.0],[142.1888,-38.3947,0.0],[142.1902,-38.393,0.2771],[142.1976,-38.3951,1.3866],[142.2063,-38.3926,4.4858],[142.216,-38.3948,0.0],[142.2193,-38.3922,3.3979],[142.2244,-38.3935,0.1064],[142.2265,-38.3917,0.6675],[142.2336,-38.3924,3.9051],[142.2345,-38.3945,0.5189],[142.238,-38.3957,0.1206],[142.243,-38.3922,0.1003],[142.2416,-38.3946,0.1386],[142.2449,-38.3965,0.1375],[142.255,-38.3912,0.0],[142.2535,-38.3899,1.3903],[142.25,-38.3903,1.2136],[142.2511,-38.3882,0.0],[142.2466,-38.3896,0.3731],[142.244,-38.388,5.8711],[142.243,-38.3827,0.0],[142.2443,-38.378,4.2594],[142.251,-38.3703,0.0],[142.2615,-38.3646,0.0],[142.2801,-38.3623,5.5317],[142.2841,-38.3634,4.6766],[142.286,-38.3665,0.0],[142.2862,-38.3644,2.0728],[142.2942,-38.3598,0.0],[142.3,-38.3601,0.7236],[142.3094,-38.3563,0.5715],[142.317,-38.36,0.0],[142.328,-38.3571,1.5787],[142.3345,-38.3584,0.1306],[142.3372,-38.3534,0.0],[142.3536,-38.3501,2.0253],[142.3725,-38.3495,4.6272],[142.4044,-38.3626,4.6522],[142.4224,-38.3724,0.0],[142.4321,-38.3536,3.9793],[142.4256,-38.3508,5.432],[142.4259,-38.333,4.7527],[142.429,-38.3144,38.396],[142.4503,-38.3161,50.4726],[142.4638,-38.3135,62.6887],[142.4651,-38.3062,57.667],[142.4927,-38.3093,34.9796],[142.4921,-38.3129,40.3463],[142.5033,-38.314,14.8166],[142.5098,-38.3125,20.0007],[142.5142,-38.3195,47.0689],[142.5202,-38.3253,54.7743],[142.5178,-38.339,48.1257],[142.5226,-38.3362,51.8471],[142.5188,-38.3588,38.6037],[142.5232,-38.3566,42.5897],[142.5316,-38.3561,50.7399],[142.5564,-38.3597,44.1949],[142.554,-38.3723,33.7727],[142.5724,-38.3743,37.1043],[142.5699,-38.3885,24.9821],[142.594,-38.3837,13.8444],[142.6153,-38.3845,22.4688],[142.6093,-38.3874,13.6125],[142.621,-38.3886,22.3751],[142.6199,-38.3985,20.9872],[142.6171,-38.3981,20.9377],[142.6204,-38.4081,25.872],[142.6114,-38.4071,19.7925],[142.6096,-38.4169,8.4189],[142.607,-38.4167,7.8025],[142.6047,-38.4298,4.2754],[142.6092,-38.4316,3.8288],[142.609,-38.4349,3.1901],[142.6052,-38.4366,3.289],[142.6113,-38.4373,4.1263],[142.609,-38.4501,19.2827],[142.6152,-38.4527,41.207],[142.6162,-38.4555,0.0],[142.6207,-38.4571,21.4921],[142.6222,-38.4594,5.655],[142.6263,-38.4599,23.7619],[142.6444,-38.471,61.4324],[142.6629,-38.4837,31.7995],[142.668,-38.4891,3.1284],[142.6705,-38.4904,0.0],[142.673,-38.4891,18.2825],[142.6741,-38.4918,0.0],[142.6768,-38.4906,16.9868],[142.6751,-38.4938,0.0],[142.6781,-38.4929,23.868],[142.6774,-38.4948,0.0],[142.6794,-38.4932,0.0],[142.684,-38.4951,1.4292],[142.6866,-38.4987,0.0],[142.6902,-38.5,4.2994],[142.6906,-38.5034,2.9935],[142.6959,-38.5029,23.5268],[142.6949,-38.5061,0.0],[142.7007,-38.5095,30.0923],[142.6999,-38.5124,0.963],[142.7061,-38.5118,14.7781],[142.7081,-38.5143,13.3897],[142.7206,-38.5207,10.0839],[142.7471,-38.5405,7.0021],[142.7495,-38.5439,18.7926],[142.754,-38.5457,14.0604],[142.757,-38.5496,0.0],[142.7604,-38.5496,0.0],[142.7689,-38.5562,27.1503],[142.7729,-38.5574,37.0587],[142.7762,-38.5615,0.0],[142.7792,-38.5608,27.7185],[142.778,-38.563,0.0],[142.78,-38.5626,51.9887],[142.7843,-38.5652,49.8709],[142.7877,-38.5691,4.8657],[142.7904,-38.5689,27.662],[142.7915,-38.5713,0.0],[142.7963,-38.5697,32.8042],[142.7957,-38.5723,5.5647],[142.8006,-38.5743,14.6734],[142.8027,-38.5741,0.0],[142.8042,-38.5717,8.2727],[142.8076,-38.5715,2.6117],[142.8157,-38.577,7.7943],[142.8161,-38.5795,0.0],[142.8188,-38.5766,2.4053],[142.823,-38.5764,7.7916],[142.8245,-38.5799,0.0],[142.8281,-38.5809,13.5889],[142.8252,-38.5847,1.2438],[142.8284,-38.587,7.1406],[142.8325,-38.5882,0.0],[142.8399,-38.5874,4.4843],[142.8459,-38.5918,1.2763],[142.8475,-38.5912,12.3546],[142.8474,-38.5925,1.2763],[142.8527,-38.5921,1.3992],[142.8533,-38.5946,0.0],[142.8591,-38.5987,0.0],[142.8575,-38.6003,0.0],[142.8587,-38.6015,7.8072],[142.8571,-38.6016,0.0],[142.8588,-38.6037,6.4994],[142.8576,-38.6053,0.0],[142.8605,-38.6042,13.0808],[142.8603,-38.6057,1.7989],[142.8654,-38.6058,4.931],[142.8684,-38.6036,2.8806],[142.8718,-38.605,0.0],[142.8719,-38.6091,0.0],[142.8739,-38.609,9.7647],[142.8731,-38.6102,1.1259],[142.8783,-38.6098,0.0],[142.8846,-38.6007,0.0],[142.8775,-38.5965,1.0418],[142.8768,-38.5924,0.113],[142.8709,-38.5826,0.3375],[142.8698,-38.5789,-0.5],[142.8719,-38.5762,0.059],[142.869,-38.5728,0.0955],[142.8703,-38.5695,0.4292],[142.8694,-38.5671,-0.0319],[142.8529,-38.5567,0.4908],[142.8535,-38.5511,0.5912],[142.8465,-38.5496,0.4461],[142.8327,-38.5375,1.0458],[142.8359,-38.5352,0.6798],[142.835,-38.5291,1.8318],[142.8378,-38.525,5.8681],[142.8341,-38.519,1.8501],[142.8402,-38.5183,5.0315],[142.8436,-38.5124,1.7154],[142.8555,-38.5115,11.4268],[142.8536,-38.506,13.1329],[142.8584,-38.5041,3.3098],[142.8582,-38.5,3.9304],[142.865,-38.4993,3.1719],[142.8674,-38.4927,9.0672],[142.8737,-38.4943,5.517],[142.8763,-38.4918,6.7979],[142.8793,-38.4943,4.4241],[142.8852,-38.4917,13.3304],[142.8897,-38.4919,19.6792],[142.8902,-38.4888,7.0066],[142.8996,-38.4868,5.845],[142.8474,-38.4809,72.2855],[142.8778,-38.3122,106.9517],[142.8803,-38.3062,98.9051],[142.8703,-38.3072,97.5466],[142.869,-38.3101,96.6024],[142.8669,-38.309,96.836],[142.8625,-38.3114,93.644],[142.8605,-38.3094,98.3913],[142.8568,-38.3116,98.8949],[142.8558,-38.3105,89.1608],[142.8579,-38.3057,94.0217],[142.8494,-38.3069,82.3626],[142.8472,-38.306,81.2313],[142.8394,-38.313,80.6913],[142.8376,-38.3133,81.5152],[142.8344,-38.3085,87.2543],[142.832,-38.3121,81.3823],[142.8269,-38.3145,87.9631],[142.8215,-38.3107,86.0377],[142.8192,-38.3109,83.8289],[142.8179,-38.3129,80.5955],[142.815,-38.307,102.4432],[142.8146,-38.2984,97.8528],[142.8254,-38.297,98.3631],[142.8445,-38.1967,130.0798],[142.8587,-38.198,131.793],[142.8832,-38.1936,137.5501],[142.8907,-38.1944,133.3903],[142.8959,-38.1788,132.2402],[142.8972,-38.1651,141.0333],[142.8937,-38.1553,135.7032],[142.89,-38.1528,134.8384],[142.8958,-38.1233,132.1767],[143.0013,-38.1356,136.5698],[143.0177,-38.1373,121.0314],[143.0194,-38.136,122.308],[143.0141,-38.1326,121.8518],[143.013,-38.1294,122.3083],[143.0121,-38.1303,124.4577],[143.0106,-38.1292,122.6048],[143.0112,-38.126,122.9999],[143.0058,-38.1212,123.779],[143.0062,-38.1153,124.0238],[143.0025,-38.1113,124.4819],[143.0045,-38.1093,124.7528],[143.0031,-38.1055,125.0958],[143.005,-38.1016,128.29],[143.0015,-38.0949,126.4449],[142.9973,-38.0942,126.8001],[142.9958,-38.0927,126.7834],[142.9962,-38.0903,127.0197],[142.9927,-38.0881,127.3402],[142.9941,-38.0869,127.6335],[142.9925,-38.0866,127.6603],[142.9953,-38.0837,128.5408],[142.9921,-38.0798,129.9391],[142.9996,-38.0712,129.96],[143.0065,-38.0702,130.5014],[143.013,-38.0664,140.4331],[143.015,-38.0634,131.297],[143.0217,-38.0617,135.3717],[143.0262,-38.0581,135.7132],[143.0265,-38.0564,132.3472],[143.0149,-38.0527,133.4979],[143.0132,-38.0502,133.5692],[143.0134,-38.0458,134.1271],[143.0214,-38.0439,135.2931],[143.0212,-38.0424,135.4409],[143.0228,-38.0425,143.0519],[143.0199,-38.0395,135.8363],[143.0223,-38.04,137.8737],[143.0267,-38.0355,139.1254],[143.032,-38.0372,139.0312],[143.0343,-38.0361,137.1366],[143.0358,-38.0335,138.1895],[143.0315,-38.0335,138.1954],[143.0334,-38.0326,138.0965],[143.0324,-38.0319,139.4193],[143.0341,-38.0292,138.1956],[143.0307,-38.0291,138.8762],[143.0305,-38.0256,138.7688],[143.0341,-38.0259,138.7114],[143.0319,-38.0231,138.981],[143.0337,-38.0231,139.5921],[143.0358,-38.0191,139.789],[143.031,-38.0139,140.2916],[143.0341,-38.0124,144.1741],[143.0387,-38.0148,143.9318],[143.0404,-38.0127,140.967],[143.0446,-38.0127,140.766],[143.0458,-38.0112,140.7121],[143.0445,-38.0091,141.2784],[143.0504,-38.0049,144.7913],[143.0477,-38.0035,142.1056],[143.0505,-38.0001,142.2609],[143.0474,-37.9987,147.0972],[143.0439,-38.0,147.9069],[143.0436,-37.9984,144.9787],[143.0379,-37.9965,149.892],[143.0365,-37.9914,151.3769],[143.0388,-37.9887,154.8342],[143.0414,-37.9896,152.0108],[143.0419,-37.9865,145.0224],[143.0429,-37.9889,145.2936],[143.044,-37.9862,149.7355],[143.0494,-37.9851,152.9953],[143.0478,-37.9825,149.0271],[143.0435,-37.9812,147.6281],[143.0471,-37.9755,154.9184],[143.0519,-37.975,152.6413],[143.0528,-37.9736,151.7657],[143.0538,-37.9709,151.6061],[143.052,-37.9699,153.3026],[143.0519,-37.9634,154.8726],[143.0555,-37.9623,165.3887],[143.0563,-37.9594,167.0287],[143.0604,-37.9626,162.8437],[143.0628,-37.9608,167.6682],[143.0694,-37.9604,166.8713],[143.0702,-37.957,164.3178],[143.0742,-37.9567,171.0044],[143.0768,-37.9545,165.5906],[143.0757,-37.9506,166.6046],[143.083,-37.9473,168.7981],[143.0789,-37.9423,165.7996],[143.0791,-37.9391,166.5175],[143.0754,-37.9378,166.5825],[143.0755,-37.9351,167.3334],[143.0777,-37.9328,167.0827],[143.0741,-37.929,169.1826],[143.0779,-37.9271,171.5779],[143.0829,-37.9277,168.7183],[143.0874,-37.9247,171.2575],[143.0835,-37.9221,170.8821],[143.087,-37.921,169.7863],[143.0893,-37.9181,170.3987],[143.0887,-37.9156,171.0684],[143.0944,-37.9122,169.8534],[143.0978,-37.9071,169.3224],[143.0955,-37.9055,170.0703],[143.0939,-37.9064,171.5302],[143.0924,-37.9035,173.9576],[143.0846,-37.9076,170.6439],[143.0836,-37.9052,172.0359],[143.0821,-37.9059,172.0359],[143.0826,-37.904,175.9897],[143.0813,-37.9036,172.624],[143.0828,-37.9024,175.1439],[143.0798,-37.8982,172.9244],[143.0723,-37.8959,172.9694],[143.0751,-37.8937,174.3123],[143.0799,-37.8937,174.3295],[143.0773,-37.8902,175.736],[143.0752,-37.8902,173.9525],[143.0762,-37.8882,177.004],[143.0739,-37.8861,176.4992],[143.0833,-37.8844,174.4373],[143.0889,-37.8793,179.4197],[143.1012,-37.883,182.5195],[143.0959,-37.8799,176.9189],[143.0954,-37.877,177.8972],[143.0927,-37.8796,177.3081],[143.089,-37.8764,176.7427],[143.087,-37.8794,178.3633],[143.0813,-37.8785,181.1499],[143.0804,-37.8762,181.1297],[143.0832,-37.8726,183.84],[143.0808,-37.8696,183.9604],[143.0795,-37.8638,184.2598],[143.083,-37.8619,185.6203],[143.0843,-37.8563,188.5128],[143.0889,-37.856,184.4115],[143.0963,-37.851,192.5482],[143.0994,-37.8507,183.8593],[143.0983,-37.8486,194.8904],[143.0998,-37.8468,190.6681],[143.0995,-37.8434,189.4776],[143.1072,-37.8436,188.3248],[143.1022,-37.8396,192.104],[143.1027,-37.8382,191.5167],[143.1056,-37.8383,192.6798],[143.1058,-37.8335,190.8993],[143.0939,-37.8293,202.1137],[143.0762,-37.8157,211.1519],[143.064,-37.8142,213.2393],[143.0621,-37.8249,207.8568],[143.0483,-37.8233,200.5112],[143.0448,-37.8161,206.5552],[143.0314,-37.8145,207.2574],[143.0353,-37.7928,220.9409],[143.0246,-37.7887,228.6097],[143.0131,-37.7869,230.6598],[143.0166,-37.7667,235.9507],[143.0072,-37.7656,241.2244],[142.9848,-37.7728,253.5399],[142.9624,-37.7872,237.4508],[142.9513,-37.7895,235.9289],[142.9384,-37.8016,229.2907],[142.9346,-37.8029,226.4234],[142.9297,-37.8007,228.7435],[142.9268,-37.8013,227.3779],[142.9234,-37.8072,224.4725],[142.9026,-37.8166,216.3061],[142.8794,-37.8366,209.5781],[142.8753,-37.8317,212.8974],[142.8795,-37.8084,220.6591],[142.8614,-37.8065,207.3709],[142.8608,-37.8099,211.3173],[142.8422,-37.8079,212.84],[142.8397,-37.8221,205.9851],[142.7577,-37.8127,202.337],[142.7498,-37.8194,207.4843],[142.7017,-37.8347,187.3724],[142.6648,-37.83,187.2383],[142.6731,-37.8166,190.7239],[142.6627,-37.8152,184.1247],[142.6611,-37.8173,176.7864],[142.6522,-37.8133,191.7115],[142.643,-37.8133,192.1645],[142.6165,-37.8093,186.3125],[142.6147,-37.8103,187.6219]]]]}}