{"type": "Feature","bbox": [153.3625,-29.0011,153.6089,-28.7042],"geometry": {"type": "MultiPolygon","coordinates": [[[[153.6051,-28.7458,6.415],[153.5961,-28.7444,12.1782],[153.5928,-28.7382,12.8381],[153.5877,-28.7375,10.1639],[153.5883,-28.7343,3.9277],[153.5813,-28.7332,1.8863],[153.5826,-28.7257,3.2106],[153.5788,-28.7252,3.4733],[153.5797,-28.7198,4.2218],[153.5737,-28.7188,33.8549],[153.575,-28.712,7.0878],[153.5621,-28.7112,85.2502],[153.5534,-28.709,144.8275],[153.5531,-28.7057,136.2977],[153.5423,-28.7042,122.3151],[153.5384,-28.709,109.013],[153.5299,-28.7108,103.9035],[153.528,-28.7166,103.2327],[153.5256,-28.7162,106.9277],[153.5229,-28.7195,102.7354],[153.5214,-28.7187,102.7354],[153.517,-28.7213,106.5709],[153.5188,-28.722,106.5709],[153.5161,-28.7248,94.4972],[153.5168,-28.7257,94.4972],[153.5073,-28.7209,99.4398],[153.508,-28.7241,88.4423],[153.5067,-28.7251,98.5897],[153.5049,-28.7236,87.1739],[153.5047,-28.7263,94.444],[153.5025,-28.7275,83.7039],[153.4998,-28.7286,85.6844],[153.4977,-28.7255,89.068],[153.4932,-28.7274,81.3387],[153.4947,-28.7293,86.8402],[153.4919,-28.7308,78.9889],[153.4915,-28.7328,82.4573],[153.4879,-28.7288,87.2958],[153.4878,-28.7266,79.4087],[153.4852,-28.7271,77.195],[153.4823,-28.7321,70.4958],[153.4875,-28.7361,63.949],[153.4805,-28.7371,61.9189],[153.4794,-28.7392,76.4614],[153.4836,-28.7413,56.1761],[153.4812,-28.7435,59.9458],[153.4832,-28.7438,56.7767],[153.482,-28.7449,54.6018],[153.4839,-28.7481,66.5488],[153.4865,-28.7462,73.2985],[153.4891,-28.7469,54.2301],[153.4873,-28.7484,53.0578],[153.4886,-28.7538,41.1666],[153.4857,-28.7553,43.8926],[153.4821,-28.7534,36.9982],[153.4818,-28.7545,43.1328],[153.4803,-28.7532,43.1328],[153.4812,-28.7502,37.1882],[153.4783,-28.7501,34.7485],[153.4761,-28.7552,43.8121],[153.4743,-28.7554,34.1713],[153.4756,-28.7563,33.0097],[153.4746,-28.7578,33.0097],[153.4765,-28.758,31.7257],[153.4735,-28.7613,26.9188],[153.4704,-28.7616,29.2512],[153.4676,-28.7598,28.3372],[153.4662,-28.7617,28.7379],[153.4648,-28.7605,24.4876],[153.4654,-28.7619,22.4062],[153.463,-28.7636,21.9816],[153.4631,-28.7655,22.3124],[153.4564,-28.7593,24.2655],[153.4536,-28.7609,19.7345],[153.4529,-28.7574,24.0731],[153.4512,-28.7568,24.0731],[153.452,-28.7549,22.1934],[153.4501,-28.755,19.5514],[153.4502,-28.7574,19.8609],[153.4476,-28.7569,20.5553],[153.4481,-28.7592,20.2165],[153.4419,-28.7629,23.9898],[153.4469,-28.7729,32.1708],[153.4442,-28.7749,42.0074],[153.443,-28.779,47.748],[153.4381,-28.7806,60.9643],[153.4389,-28.7819,62.8586],[153.4374,-28.7831,58.7762],[153.4309,-28.7823,68.0518],[153.4286,-28.787,62.0189],[153.428,-28.7845,68.9746],[153.4246,-28.7837,71.4481],[153.4237,-28.7886,73.5808],[153.426,-28.79,72.7876],[153.4268,-28.7945,81.7282],[153.4114,-28.7924,119.3582],[153.4124,-28.7865,116.7771],[153.4022,-28.7851,134.4237],[153.3974,-28.7908,134.0759],[153.3888,-28.7931,143.1874],[153.3837,-28.7973,156.8042],[153.3811,-28.8044,142.4725],[153.3829,-28.8046,142.2702],[153.3823,-28.8078,140.9148],[153.3899,-28.8117,131.5601],[153.3898,-28.8176,134.9076],[153.3866,-28.8207,140.1966],[153.3868,-28.8231,134.0028],[153.3889,-28.8242,127.3312],[153.3871,-28.8274,134.294],[153.3913,-28.8302,123.4276],[153.3889,-28.8313,124.7052],[153.3894,-28.8324,124.222],[153.3934,-28.833,127.5234],[153.3965,-28.8363,131.2975],[153.3945,-28.8395,131.9085],[153.3966,-28.8428,128.8931],[153.3937,-28.8451,132.2868],[153.39,-28.844,124.5959],[153.3924,-28.8495,120.8043],[153.3901,-28.8503,127.3827],[153.3876,-28.8487,128.9405],[153.3851,-28.8503,119.5768],[153.3842,-28.8491,130.3258],[153.3838,-28.8505,119.5768],[153.38,-28.851,110.5802],[153.3817,-28.8531,124.0792],[153.3792,-28.8568,100.5321],[153.3822,-28.8578,109.0907],[153.3797,-28.8601,69.831],[153.3813,-28.862,93.3605],[153.379,-28.8634,76.2432],[153.3775,-28.8624,78.2237],[153.3754,-28.8665,58.6328],[153.3684,-28.8709,16.0203],[153.3689,-28.8745,43.8184],[153.3657,-28.8748,9.3132],[153.3639,-28.8783,9.927],[153.3649,-28.8802,14.5115],[153.363,-28.882,9.8912],[153.3657,-28.8831,16.8967],[153.3633,-28.8871,7.8432],[153.3656,-28.8873,9.7733],[153.3643,-28.8894,8.4279],[153.3659,-28.8903,6.3826],[153.363,-28.8895,8.4279],[153.3625,-28.8921,6.6555],[153.3664,-28.8941,5.2724],[153.3647,-28.8949,4.7781],[153.3664,-28.8971,4.0278],[153.3649,-28.8996,5.0052],[153.3792,-28.9026,5.4744],[153.3784,-28.9071,2.5695],[153.382,-28.9076,3.2068],[153.3813,-28.9117,1.087],[153.3852,-28.9122,2.7519],[153.3845,-28.9161,0.8612],[153.3886,-28.9167,6.3693],[153.3874,-28.9232,14.0901],[153.3812,-28.9225,1.2161],[153.3755,-28.9539,6.0847],[153.3848,-28.9554,6.7826],[153.3894,-28.9693,4.3112],[153.4056,-28.9813,2.0368],[153.4067,-28.9859,0.0],[153.4207,-28.9925,0.0],[153.4232,-29.0004,0.0],[153.4359,-29.0011,1.6615],[153.4389,-28.9985,0.7342],[153.448,-28.9968,0.0],[153.4599,-28.9918,0.0],[153.4665,-28.9942,3.717],[153.4835,-28.9907,0.8587],[153.5124,-28.9541,4.4882],[153.5474,-28.9143,5.0093],[153.5795,-28.8817,0.0],[153.5864,-28.8763,0.9716],[153.59,-28.8777,0.0],[153.5857,-28.8759,1.1451],[153.5822,-28.875,2.8015],[153.5769,-28.8777,1.1999],[153.5742,-28.8767,0.0],[153.5729,-28.8769,0.0],[153.5719,-28.878,0.0],[153.574,-28.8771,0.0],[153.5746,-28.8782,3.5229],[153.5714,-28.8851,8.9696],[153.5598,-28.8814,4.1376],[153.5551,-28.878,3.1904],[153.547,-28.8767,4.0404],[153.5414,-28.8783,2.1617],[153.5361,-28.8766,5.6827],[153.5302,-28.8779,8.1506],[153.5275,-28.8752,0.6903],[153.5269,-28.8729,1.5375],[153.5291,-28.8711,1.3762],[153.5458,-28.8669,1.6598],[153.5545,-28.8689,2.5229],[153.5637,-28.8735,0.6566],[153.5707,-28.8728,1.5132],[153.5717,-28.874,0.0],[153.571,-28.8727,1.5132],[153.5768,-28.8698,0.0],[153.5705,-28.864,0.0],[153.571,-28.8493,0.0],[153.5703,-28.8505,1.329],[153.569,-28.8475,0.5954],[153.5636,-28.8478,3.0184],[153.5662,-28.8435,3.0189],[153.5671,-28.8448,1.0584],[153.5724,-28.8407,2.0656],[153.5766,-28.8412,0.6481],[153.5724,-28.8425,0.0],[153.5725,-28.8459,2.3985],[153.5746,-28.8465,4.1045],[153.5717,-28.8459,1.2745],[153.5712,-28.8477,2.6211],[153.5747,-28.8502,11.905],[153.5742,-28.8541,0.0],[153.5785,-28.8604,1.8698],[153.577,-28.8684,0.0],[153.5811,-28.8681,0.375],[153.5836,-28.8713,0.0],[153.5922,-28.8755,0.0],[153.5897,-28.8734,0.0],[153.5944,-28.866,2.5489],[153.5942,-28.8639,3.3909],[153.5988,-28.8595,2.7048],[153.5985,-28.8551,0.0],[153.6056,-28.844,0.0],[153.6089,-28.8431,0.0],[153.6054,-28.8416,0.0],[153.6046,-28.839,3.8719],[153.6058,-28.8319,0.0],[153.6079,-28.8304,0.0],[153.6064,-28.8235,3.1855],[153.6079,-28.8221,0.0],[153.6049,-28.8209,5.1739],[153.6039,-28.8177,1.7783],[153.6062,-28.8086,0.0],[153.5963,-28.8009,4.3364],[153.5945,-28.7933,5.6396],[153.5961,-28.7738,4.0262],[153.6051,-28.7458,6.415]]]]}
,"properties": {"GID_2": "AUS.5.5_1","GID_0": "AUS","country": "Australia","GID_1": "AUS.5_1","state": "NewSouthWales","NL_NAME_1": "NA","county": "Ballina","VARNAME_2": "NA","NL_NAME_2": "NA","TYPE_2": "Area","ENGTYPE_2": "Area","CC_2": "10250","HASC_2": "AU.NS.BA","name": "Ballina.county","area_km2": 485.313,"hist_schema_id": "Elevation0-9000","hist_area_km2": {"0": 218.1104,"25": 56.7118,"50": 27.5065,"75": 32.5848,"100": 43.7543,"125": 39.6252,"150": 43.568,"175": 23.0805,"200": 0.3714}}}