{"type": "Feature","bbox": [145.364,-38.3325,145.7649,-37.8578],"geometry": {"type": "MultiPolygon","coordinates": [[[[145.6057,-38.3325,33.4043],[145.6093,-38.3147,50.3894],[145.6071,-38.3153,49.7268],[145.6124,-38.2856,22.5114],[145.6147,-38.288,21.8993],[145.6189,-38.2891,23.7809],[145.625,-38.2861,23.0674],[145.6306,-38.2865,25.8633],[145.6385,-38.2825,31.6826],[145.6381,-38.2849,38.3299],[145.6803,-38.2896,81.9782],[145.6815,-38.2822,66.7997],[145.6909,-38.2831,103.0521],[145.6896,-38.2901,70.881],[145.6987,-38.2911,112.3707],[145.6997,-38.2857,103.0314],[145.7327,-38.2894,109.8696],[145.7365,-38.2689,80.3565],[145.7329,-38.2686,71.8169],[145.7364,-38.249,53.2567],[145.7314,-38.2511,51.9667],[145.7191,-38.2494,67.0912],[145.7128,-38.2518,48.9571],[145.7152,-38.2386,147.9551],[145.713,-38.2393,130.7721],[145.7163,-38.2216,54.9096],[145.7147,-38.2214,58.3688],[145.7174,-38.2067,33.4669],[145.7008,-38.2059,28.1621],[145.7029,-38.1948,26.0553],[145.7078,-38.1908,26.1065],[145.7297,-38.154,28.1651],[145.7485,-38.1428,34.9699],[145.7579,-38.1156,39.7592],[145.7628,-38.1089,42.5575],[145.7487,-38.1025,41.2748],[145.7392,-38.1005,39.0111],[145.7472,-38.0916,39.3331],[145.7453,-38.0862,42.2731],[145.7527,-38.0822,42.4306],[145.7544,-38.0792,46.6573],[145.7543,-38.0732,44.7451],[145.7521,-38.0702,45.1918],[145.7533,-38.0694,45.8638],[145.7527,-38.0658,50.3439],[145.7556,-38.0614,50.5412],[145.7542,-38.0567,48.9686],[145.7572,-38.0541,52.0097],[145.7547,-38.0499,54.5919],[145.7556,-38.0466,54.8069],[145.7576,-38.0463,55.4514],[145.7551,-38.04,59.5273],[145.757,-38.038,63.0428],[145.7553,-38.0316,65.1962],[145.7581,-38.0284,67.6539],[145.7572,-38.0257,62.1378],[145.7649,-38.0189,61.3633],[145.7639,-38.0153,63.1302],[145.7649,-38.0083,65.0773],[145.7613,-37.9993,69.2407],[145.7628,-37.9931,72.1415],[145.7617,-37.989,78.4398],[145.7551,-37.9849,77.5561],[145.756,-37.9825,79.5847],[145.7497,-37.977,79.9186],[145.7396,-37.9718,97.7066],[145.731,-37.9595,109.4806],[145.7343,-37.9558,113.7562],[145.7369,-37.9555,116.5953],[145.735,-37.9499,122.6536],[145.7411,-37.9482,146.9378],[145.7419,-37.9433,140.3505],[145.7471,-37.9381,155.3739],[145.7462,-37.9342,163.5308],[145.7411,-37.9274,218.5845],[145.7466,-37.9244,347.2068],[145.7472,-37.9194,503.1635],[145.7508,-37.9171,611.5947],[145.7489,-37.9127,622.9188],[145.7493,-37.9085,749.364],[145.7379,-37.902,756.1131],[145.7292,-37.9029,696.502],[145.7272,-37.8998,683.8788],[145.7281,-37.8969,724.7537],[145.7242,-37.8936,706.1527],[145.7215,-37.8852,713.5498],[145.7161,-37.8838,690.3674],[145.713,-37.8861,639.0727],[145.7071,-37.8872,585.5583],[145.6995,-37.8851,634.7569],[145.6939,-37.886,663.621],[145.6869,-37.8808,671.061],[145.685,-37.8831,626.5562],[145.6863,-37.8888,572.1746],[145.6797,-37.8936,522.3338],[145.6705,-37.8943,530.3829],[145.6691,-37.8995,536.4829],[145.6711,-37.9034,612.2808],[145.6707,-37.9071,545.7742],[145.6622,-37.9088,605.5173],[145.658,-37.908,596.1555],[145.6506,-37.9127,586.8602],[145.6526,-37.9164,531.7155],[145.6421,-37.9184,435.391],[145.6259,-37.9176,443.5976],[145.6279,-37.904,282.1629],[145.6037,-37.9011,244.4475],[145.6043,-37.898,241.6339],[145.5899,-37.8963,245.5946],[145.5882,-37.8976,243.7722],[145.5763,-37.8976,248.1146],[145.5752,-37.8993,220.1058],[145.5705,-37.8959,200.463],[145.5691,-37.898,202.9361],[145.5676,-37.897,193.8268],[145.5688,-37.8933,186.9951],[145.5625,-37.8854,177.8746],[145.5623,-37.8819,171.7211],[145.5542,-37.8777,145.952],[145.5533,-37.8736,141.0703],[145.5512,-37.8721,149.028],[145.5411,-37.8716,134.6646],[145.5371,-37.867,140.2706],[145.5306,-37.8664,123.9863],[145.5307,-37.8644,122.7216],[145.5282,-37.8616,120.0834],[145.5226,-37.8579,119.5184],[145.5191,-37.8578,129.1493],[145.5195,-37.8582,126.0398],[145.5246,-37.86,133.2571],[145.5268,-37.8636,127.6321],[145.5263,-37.8685,130.7808],[145.5283,-37.8709,126.4039],[145.5289,-37.8754,139.0038],[145.5256,-37.8827,136.5895],[145.5269,-37.8853,141.7364],[145.5255,-37.8874,140.5893],[145.5224,-37.8871,154.542],[145.521,-37.8898,137.3411],[145.5077,-37.8998,148.8609],[145.4978,-37.9004,221.1913],[145.4899,-37.8983,177.7098],[145.4897,-37.8994,177.7098],[145.4816,-37.8984,206.8889],[145.4797,-37.9007,222.821],[145.4738,-37.9,267.5183],[145.4705,-37.9011,256.3297],[145.4691,-37.9102,249.8357],[145.4667,-37.912,260.8498],[145.4594,-37.9054,222.1248],[145.4565,-37.9072,214.5353],[145.4446,-37.9063,240.8599],[145.4427,-37.907,233.1856],[145.442,-37.9097,229.6786],[145.4397,-37.91,211.8214],[145.4387,-37.9146,215.6595],[145.4285,-37.9135,294.5786],[145.4255,-37.9199,265.0653],[145.4229,-37.9192,286.7057],[145.4196,-37.9263,274.1854],[145.417,-37.9229,307.0804],[145.416,-37.9283,252.4875],[145.4113,-37.9277,214.1033],[145.4116,-37.9262,257.9425],[145.4093,-37.9274,221.8676],[145.4008,-37.9263,237.1599],[145.4008,-37.9236,275.0513],[145.3985,-37.9213,256.9633],[145.3898,-37.9243,205.7346],[145.3841,-37.9296,186.057],[145.3857,-37.9361,174.357],[145.3822,-37.9412,160.0384],[145.3851,-37.9529,155.1411],[145.3823,-37.9559,150.5587],[145.3881,-37.9573,161.7996],[145.388,-37.971,98.4285],[145.3841,-37.9707,107.1943],[145.3834,-37.9747,112.4002],[145.3795,-37.974,96.9508],[145.3825,-37.9846,99.123],[145.3758,-37.9897,89.1442],[145.3775,-37.9953,84.3496],[145.3798,-37.9969,83.9435],[145.3779,-38.0014,91.4386],[145.3852,-38.0089,84.6835],[145.3827,-38.0123,71.0377],[145.3839,-38.0143,74.3297],[145.3787,-38.0175,70.837],[145.3799,-38.0192,71.6512],[145.3775,-38.0226,73.2628],[145.3772,-38.0263,63.3186],[145.3659,-38.0388,56.6299],[145.3671,-38.041,54.9666],[145.3648,-38.0445,54.5191],[145.3667,-38.0473,53.1123],[145.364,-38.0518,51.7738],[145.3716,-38.0564,46.1752],[145.3705,-38.0574,46.1752],[145.3718,-38.0591,47.1611],[145.3752,-38.0595,46.8146],[145.3762,-38.0648,43.5372],[145.3808,-38.0669,39.6441],[145.3799,-38.0687,39.8215],[145.3818,-38.0698,39.0621],[145.3778,-38.0709,38.6159],[145.376,-38.0787,36.6128],[145.3804,-38.0816,33.2535],[145.3823,-38.0908,31.0892],[145.3978,-38.0999,24.0496],[145.3985,-38.1049,22.5389],[145.4006,-38.1078,20.6702],[145.399,-38.1132,17.74],[145.4018,-38.1191,15.7287],[145.3885,-38.1205,15.5688],[145.3834,-38.1256,13.0915],[145.3995,-38.143,7.1673],[145.3889,-38.1925,3.4221],[145.3957,-38.1934,2.1072],[145.3952,-38.1955,1.7164],[145.4183,-38.1985,1.9928],[145.4167,-38.2038,1.8072],[145.4218,-38.2097,1.8522],[145.427,-38.2112,2.0403],[145.4305,-38.2157,2.1452],[145.4356,-38.2155,1.8723],[145.436,-38.2176,2.4056],[145.4391,-38.2163,2.4678],[145.4382,-38.2145,2.0351],[145.4418,-38.2187,2.4575],[145.4523,-38.2188,0.7974],[145.46,-38.228,0.0],[145.4744,-38.2295,1.8857],[145.4792,-38.2323,0.4657],[145.483,-38.232,0.9198],[145.4856,-38.2341,0.8968],[145.489,-38.2334,0.3937],[145.4885,-38.2383,0.4123],[145.491,-38.2397,0.0],[145.491,-38.2425,0.0],[145.4928,-38.243899999999996,0.273],[145.4908,-38.2455,0.0],[145.4904,-38.2506,0.0],[145.4945,-38.2563,0.9511],[145.4959,-38.2636,0.9263],[145.4977,-38.2645,0.9263],[145.498,-38.2741,1.7666],[145.5046,-38.2835,0.4859],[145.5179,-38.2909,0.5161],[145.5222,-38.2993,0.3233],[145.5207,-38.3067,2.5915],[145.5418,-38.3094,17.3267],[145.5458,-38.2913,14.2795],[145.5537,-38.2936,21.8148],[145.5653,-38.3033,15.8062],[145.5821,-38.3127,12.5691],[145.5848,-38.3208,17.8352],[145.5936,-38.3301,23.0366],[145.6057,-38.3325,33.4043]]]]}
,"properties": {"GID_2": "AUS.10.13_1","GID_0": "AUS","country": "Australia","GID_1": "AUS.10_1","state": "Victoria","NL_NAME_1": "NA","county": "Cardinia","VARNAME_2": "NA","NL_NAME_2": "NA","TYPE_2": "Shire","ENGTYPE_2": "Shire","CC_2": "21450","HASC_2": "AU.VI.CA","name": "Cardinia.county","area_km2": 1280.6474,"hist_schema_id": "Elevation0-9000","hist_area_km2": {"0": 248.4545,"25": 344.1881,"50": 92.8647,"75": 71.6026,"100": 63.4905,"125": 55.0978,"150": 62.2949,"175": 56.6711,"200": 59.5185,"225": 51.5378,"250": 46.6957,"275": 38.4533,"300": 27.9039,"325": 17.5216,"350": 9.7807,"375": 6.521,"400": 4.615,"425": 3.746,"450": 3.1111,"475": 2.8436,"500": 2.827,"525": 2.7769,"550": 2.1581,"575": 1.7734,"600": 1.4221,"625": 0.9871,"650": 0.4852,"675": 0.4183,"700": 0.4518,"725": 0.3179,"750": 0.0836,"775": 0.0335}}}