{"type":"Feature","properties":{"GID_2":"AUS.11.37_1","GID_0":"AUS","country":"Australia","GID_1":"AUS.11_1","state":"WesternAustralia","NL_NAME_1":"NA","county":"Dandaragan","VARNAME_2":"NA","NL_NAME_2":"NA","TYPE_2":"Shire","ENGTYPE_2":"Shire","CC_2":"52590","HASC_2":"AU.WA.DN","name":"Dandaragan.county"},
"geometry":{"type": "MultiPolygon","coordinates": [[[[115.189,-30.8296,0.0],[115.1907,-30.8299,0.0],[115.1879,-30.827,0.0],[115.1874,-30.8282,0.0],[115.189,-30.8296,0.0]]],
[[[115.1073,-30.6823,0.0],[115.1058,-30.68,0.0],[115.1042,-30.6818,0.0],[115.1081,-30.6834,0.0],[115.1073,-30.6823,0.0]]],
[[[115.1042,-30.6787,0.0],[115.1029,-30.6781,0.0],[115.1023,-30.6783,0.0],[115.1046,-30.6805,0.0],[115.1042,-30.6787,0.0]]],
[[[115.1093,-30.6645,0.0],[115.11,-30.6647,0.0],[115.1102,-30.6643,0.0],[115.1094,-30.664,0.0],[115.1093,-30.6645,0.0]]],
[[[115.1157,-30.6571,0.0],[115.1148,-30.6562,0.0],[115.1141,-30.6572,0.0],[115.1145,-30.6575,0.0],[115.1157,-30.6571,0.0]]],
[[[115.0437,-30.1153,0.4392],[115.0438,-30.1448,2.2679],[115.0039,-30.1443,4.2333],[115.0047,-30.1459,10.1666],[115.003,-30.1486,8.3733],[115.0062,-30.1592,0.842],[115.0026,-30.1649,11.3274],[115.0037,-30.1719,1.7652],[115.0014,-30.1748,6.7106],[114.9995,-30.1748,5.7945],[114.9985,-30.1829,3.7393],[114.996,-30.1843,0.8401],[114.9935,-30.1822,0.0],[114.9919,-30.184,0.0],[114.9944,-30.1854,9.8239],[114.9946,-30.1921,4.586],[114.9974,-30.2003,2.311],[114.9965,-30.2042,3.9541],[114.9927,-30.2076,0.0],[114.9975,-30.2103,1.6191],[114.9967,-30.2166,4.4272],[114.999,-30.2234,4.94],[114.9941,-30.2271,0.9769],[114.994,-30.2282,0.0],[114.9966,-30.2288,4.1426],[114.9943,-30.2313,7.5509],[114.9954,-30.233,0.0],[114.9985,-30.2285,0.0],[115.0032,-30.228,0.0],[115.014,-30.2334,0.0],[115.016,-30.2324,4.563],[115.0249,-30.235,1.591],[115.032,-30.242,1.3996],[115.0371,-30.2532,0.0],[115.0422,-30.2736,0.0],[115.0428,-30.2826,0.0],[115.0415,-30.2873,0.8775],[115.0394,-30.2888,0.0],[115.0412,-30.2899,0.0],[115.0405,-30.2958,2.0751],[115.0369,-30.3028,0.0],[115.0286,-30.3094,0.0],[115.024,-30.3111,0.0],[115.0205,-30.317,0.0],[115.0364,-30.3303,1.2967],[115.042,-30.3378,5.0955],[115.0426,-30.3493,0.0],[115.0474,-30.3625,9.6817],[115.0499,-30.3781,1.9782],[115.0514,-30.3947,0.0],[115.0506,-30.4243,0.0],[115.0568,-30.4395,3.5148],[115.0625,-30.4489,2.6424],[115.0637,-30.4536,0.0],[115.0628,-30.4581,0.0],[115.0712,-30.4781,0.0],[115.0711,-30.4857,0.0],[115.0688,-30.4916,0.7907],[115.0626,-30.4991,0.0],[115.054,-30.5051,0.0],[115.0573,-30.5038,0.0],[115.0576,-30.5109,0.0],[115.062,-30.5098,0.0],[115.0675,-30.5113,0.0],[115.074,-30.5174,0.4962],[115.0758,-30.5205,0.0],[115.0748,-30.5245,1.9362],[115.0759,-30.5277,0.0],[115.0861,-30.5348,0.0],[115.0942,-30.5483,1.385],[115.0949,-30.5575,2.5033],[115.0907,-30.5636,3.4319],[115.0877,-30.5784,0.0],[115.09,-30.5813,0.0],[115.0986,-30.5839,0.0],[115.1036,-30.5915,2.2279],[115.1019,-30.6015,0.7048],[115.1075,-30.6065,2.3662],[115.1073,-30.6134,2.6605],[115.1152,-30.6204,0.0],[115.1209,-30.6362,1.4933],[115.1317,-30.653,0.0],[115.1338,-30.6667,0.0],[115.1367,-30.6685,5.9152],[115.1448,-30.6848,4.7222],[115.1522,-30.7045,4.0883],[115.1542,-30.7178,0.0],[115.1566,-30.7203,7.9223],[115.1594,-30.7285,0.0],[115.165,-30.7341,5.5182],[115.1722,-30.7521,0.5897],[115.178,-30.76,7.2486],[115.1833,-30.7719,2.4654],[115.1902,-30.7931,1.9226],[115.19,-30.8252,0.0],[115.1948,-30.8228,3.4243],[115.203,-30.823,0.0],[115.2099,-30.8254,0.0],[115.2189,-30.8318,0.0],[115.238,-30.8569,0.0],[115.2422,-30.8681,0.0],[115.2478,-30.8707,7.0738],[115.253,-30.8755,0.0],[115.2627,-30.8917,0.0],[115.4236,-30.8928,92.1714],[115.4246,-30.8988,102.5625],[115.4723,-30.8989,59.2295],[115.4742,-30.9015,55.9211],[115.4827,-30.9056,56.6611],[115.4982,-30.9196,60.8262],[115.5082,-30.9431,79.4222],[115.5131,-30.9505,66.4545],[115.5129,-30.9546,59.5032],[115.5181,-30.9655,60.7485],[115.5203,-30.9757,65.8093],[115.6918,-30.9756,87.5693],[115.693,-30.9935,86.5822],[115.6981,-30.9967,80.5223],[115.7,-30.996,81.7855],[115.7042,-30.9884,80.4853],[115.709,-30.9858,83.6255],[115.705,-30.9814,86.0097],[115.7062,-30.9791,86.7257],[115.7095,-30.9782,86.6796],[115.7254,-30.9797,90.552],[115.7385,-30.9839,95.3972],[115.7478,-30.9838,92.4639],[115.7575,-30.9806,98.4875],[115.7635,-30.9831,104.2596],[115.7707,-30.9832,103.8568],[115.7798,-30.9771,99.6845],[115.7898,-30.9796,122.4553],[115.7955,-30.9725,109.733],[115.798,-30.9767,116.3837],[115.806,-30.9775,112.7047],[115.8165,-30.9824,113.734],[115.8248,-30.9819,121.091],[115.8347,-30.9785,121.7757],[115.8441,-30.9782,129.4257],[115.8471,-30.9793,133.1697],[115.8541,-30.9779,135.8127],[115.8581,-30.981,129.7629],[115.8624,-30.9776,133.6051],[115.8668,-30.9791,134.302],[115.8679,-30.9812,130.6631],[115.8703,-30.9756,136.1292],[115.8732,-30.9723,132.1896],[115.8754,-30.9721,132.3204],[115.881,-30.9752,132.3515],[115.8873,-30.9759,137.6863],[115.8921,-30.981,136.8823],[115.8932,-30.9927,136.7127],[115.8978,-30.9928,142.0115],[115.8954,-31.0016,141.1668],[115.9009,-31.0079,139.8506],[115.9053,-31.0085,141.7],[115.9197,-31.005,144.9349],[115.9273,-31.0054,147.5451],[115.938,-31.0009,151.7931],[115.9481,-31.0021,148.8402],[115.9522,-31.0043,149.0435],[115.9522,-30.9799,199.0249],[115.9398,-30.9799,166.3407],[115.9399,-30.9322,166.4667],[115.934,-30.9314,169.3819],[115.9345,-30.7098,235.1299],[115.9374,-30.7098,235.5533],[115.9375,-30.6882,225.0067],[115.9308,-30.6882,227.6619],[115.9308,-30.6677,229.9193],[115.9267,-30.6676,229.8623],[115.9267,-30.6556,233.5884],[115.907,-30.6555,245.0197],[115.9071,-30.615,235.3073],[115.923,-30.617,217.2733],[115.9232,-30.6141,222.674],[115.921,-30.6141,226.6995],[115.921,-30.583,233.3117],[115.9018,-30.583,235.152],[115.9019,-30.5513,237.7951],[115.8874,-30.5513,241.3586],[115.8875,-30.5234,246.4158],[115.9022,-30.5234,237.1318],[115.9022,-30.4947,240.1765],[115.9332,-30.4948,240.5976],[115.9331,-30.4722,228.6716],[115.9248,-30.4722,236.1205],[115.9249,-30.4576,238.4149],[115.9109,-30.4575,237.188],[115.9109,-30.4338,231.7181],[115.8948,-30.4338,242.8981],[115.895,-30.4192,244.6799],[115.8983,-30.4172,243.5591],[115.8988,-30.318,230.386],[115.8761,-30.318,240.2925],[115.8762,-30.1957,239.9701],[115.8359,-30.1955,252.0562],[115.7951,-30.2053,260.4354],[115.7949,-30.1349,271.2144],[115.7871,-30.1358,272.0902],[115.7658,-30.1422,269.5556],[115.6944,-30.1731,282.5026],[115.6879,-30.1772,282.4649],[115.6472,-30.1906,266.515],[115.5895,-30.1945,264.0402],[115.5811,-30.1911,249.7268],[115.5725,-30.1987,243.19],[115.5304,-30.2086,279.3277],[115.481,-30.2046,250.0543],[115.481,-30.1729,216.7233],[115.2345,-30.1727,272.6514],[115.2344,-30.1445,208.7597],[115.217,-30.1444,253.0863],[115.217,-30.1126,232.6647],[115.2126,-30.1126,235.3142],[115.2128,-30.1063,222.6176],[115.0792,-30.1059,22.9886],[115.0794,-30.0743,52.9512],[115.0376,-30.0744,12.8546],[115.0377,-30.1119,0.0],[115.0437,-30.112,0.0],[115.0437,-30.1153,0.4392]]],
[[[115.0459,-30.5244,0.0],[115.0473,-30.5225,0.0],[115.0459,-30.5207,0.0],[115.0453,-30.5238,0.0],[115.0459,-30.5244,0.0]]],
[[[115.0446,-30.5325,0.0],[115.0457,-30.5309,0.0],[115.0449,-30.5297,0.0],[115.0445,-30.5312,0.0],[115.0446,-30.5325,0.0]]],
[[[115.0449,-30.5287,0.0],[115.0454,-30.529,0.0],[115.0453,-30.5281,0.0],[115.0448,-30.5283,0.0],[115.0449,-30.5287,0.0]]],
[[[115.0213,-30.4544,0.0],[115.018,-30.4538,0.0],[115.0181,-30.4574,0.0],[115.0196,-30.4546,0.0],[115.0213,-30.4544,0.0]]],
[[[114.9974,-30.4409,0.0],[114.9975,-30.4414,0.0],[114.9983,-30.4418,0.0],[114.9982,-30.4405,0.0],[114.9974,-30.4409,0.0]]],
[[[115.0083,-30.2808,0.0],[115.0086,-30.2808,0.0],[115.0086,-30.2805,0.0],[115.0082,-30.2805,0.0],[115.0083,-30.2808,0.0]]],
[[[114.997,-30.4424,0.0],[114.9973,-30.4429,0.0],[114.9977,-30.4423,0.0],[114.9974,-30.4421,0.0],[114.997,-30.4424,0.0]]],
[[[114.9961,-30.3538,0.0],[114.9966,-30.3538,0.0],[114.9966,-30.353,0.0],[114.9956,-30.3534,0.0],[114.9961,-30.3538,0.0]]],
[[[114.9888,-30.3332,0.0],[114.9888,-30.3306,0.0],[114.9835,-30.3343,0.0],[114.9838,-30.3361,0.055],[114.9865,-30.3339,0.6681],[114.9888,-30.3332,0.0]]],
[[[114.9864,-30.3312,0.0],[114.9866,-30.3315,0.3929],[114.9872,-30.3313,0.3929],[114.9867,-30.331,0.0],[114.9864,-30.3312,0.0]]],
[[[114.9988,-30.3499,0.0],[114.9996,-30.3497,0.0],[114.9991,-30.3488,0.0],[114.9987,-30.3489,0.0],[114.9988,-30.3499,0.0]]],
[[[115.0065,-30.3163,0.0],[115.009,-30.3153,0.0],[115.0064,-30.3127,0.0],[114.9988,-30.3191,1.7232],[115.0033,-30.3193,0.4285],[115.0065,-30.3163,0.0]]],
[[[115.0063,-30.3123,0.0],[115.0059,-30.311,0.0],[115.0049,-30.3119,0.1513],[115.005,-30.3122,0.1513],[115.0063,-30.3123,0.0]]],
[[[115.0071,-30.2835,0.0],[115.0083,-30.2832,0.0],[115.0081,-30.2812,0.0],[115.0071,-30.2827,0.0],[115.0071,-30.2835,0.0]]],
[[[114.9937,-30.3213,0.0],[114.9932,-30.3182,0.0],[114.9921,-30.3202,0.0],[114.9933,-30.3241,0.0],[114.9937,-30.3213,0.0]]],
[[[114.9963,-30.3168,0.0],[114.9968,-30.3172,0.0],[114.9973,-30.317,0.0],[114.9965,-30.3164,0.0],[114.9963,-30.3168,0.0]]],
[[[114.9706,-30.2721,0.0],[114.9717,-30.2718,0.0],[114.9714,-30.2698,0.0],[114.9704,-30.2706,0.0],[114.9706,-30.2721,0.0]]],
[[[114.997,-30.2327,0.0],[114.9974,-30.2329,0.0],[114.9978,-30.2326,0.0],[114.9972,-30.2322,0.0],[114.997,-30.2327,0.0]]],
[[[114.9898,-30.2107,0.0758],[114.9903,-30.2103,0.0758],[114.9898,-30.2095,0.0],[114.9888,-30.2107,0.0533],[114.9898,-30.2107,0.0758]]]]}}