{"type":"Feature","properties":{"GID_2":"AUS.8.28_1","GID_0":"AUS","country":"Australia","GID_1":"AUS.8_1","state":"SouthAustralia","NL_NAME_1":"NA","county":"LowerEyrePeninsula","VARNAME_2":"NA","NL_NAME_2":"NA","TYPE_2":"DistrictCouncil","ENGTYPE_2":"DistrictCouncil","CC_2":"43710","HASC_2":"AU.SA.LE","name":"LowerEyrePeninsula.county"},
"geometry":{"type": "MultiPolygon","coordinates": [[[[135.6229,-34.9793,1.308],[135.6174,-34.9802,4.0113],[135.619,-34.9845,43.4023],[135.6175,-34.9861,0.0],[135.6172,-34.9945,1.1617],[135.6189,-34.9976,4.2106],[135.617,-34.9971,2.9133],[135.6158,-34.9988,0.0],[135.6179,-34.9989,5.3387],[135.6181,-35.0019,0.0],[135.6196,-35.0011,0.8627],[135.6196,-34.9978,4.2106],[135.6237,-34.994,6.8894],[135.6259,-34.9866,7.7651],[135.6263,-34.9819,19.7731],[135.6229,-34.9793,1.308]]],
[[[135.8651,-34.9544,0.0],[135.8666,-34.956,2.5673],[135.8657,-34.9522,0.0],[135.8647,-34.9533,0.0],[135.8651,-34.9544,0.0]]],
[[[135.6844,-34.9521,0.0],[135.6846,-34.9529,0.0],[135.6851,-34.9528,0.0],[135.6848,-34.9513,0.0],[135.6844,-34.9521,0.0]]],
[[[135.6868,-34.9476,0.0],[135.6866,-34.9462,0.0],[135.6851,-34.9465,0.2526],[135.6853,-34.948,0.0],[135.6868,-34.9476,0.0]]],
[[[135.6844,-34.9463,0.0],[135.684,-34.9464,0.0],[135.6834,-34.947,0.0],[135.6845,-34.9469,0.2526],[135.6844,-34.9463,0.0]]],
[[[135.6864,-34.9455,6.0577],[135.6858,-34.9455,6.0577],[135.6857,-34.9458,6.0577],[135.6865,-34.9462,6.0577],[135.6864,-34.9455,6.0577]]],
[[[135.8738,-34.9431,11.5894],[135.8751,-34.9427,1.4137],[135.8742,-34.9406,0.0],[135.8678,-34.9458,9.8211],[135.8685,-34.949,3.7594],[135.8726,-34.9466,4.861],[135.8738,-34.9431,11.5894]]],
[[[135.8737,-34.9403,0.0],[135.8748,-34.9367,0.0],[135.8741,-34.9335,0.0],[135.8709,-34.9381,0.0],[135.8737,-34.9403,0.0]]],
[[[135.8738,-34.9325,0.0],[135.8733,-34.9324,0.0],[135.8732,-34.9326,0.0],[135.8737,-34.9329,0.0],[135.8738,-34.9325,0.0]]],
[[[135.875,-34.9319,0.0],[135.8744,-34.9322,0.0],[135.8744,-34.9324,0.0],[135.875,-34.9325,0.0],[135.875,-34.9319,0.0]]],
[[[135.8554,-34.8999,0.0],[135.8544,-34.898,18.4092],[135.8524,-34.8981,0.0],[135.8547,-34.9015,0.0],[135.8554,-34.8999,0.0]]],
[[[135.8472,-34.8891,14.343],[135.8486,-34.8893,14.343],[135.8478,-34.8875,3.9874],[135.8469,-34.8876,0.0],[135.8472,-34.8891,14.343]]],
[[[135.8497,-34.8873,0.0],[135.8495,-34.8878,0.0],[135.8502,-34.8877,0.0],[135.8501,-34.8873,0.0],[135.8497,-34.8873,0.0]]],
[[[135.9542,-34.7495,8.73],[135.956,-34.7496,0.0],[135.9566,-34.749,0.0],[135.955,-34.7477,0.0],[135.9542,-34.7495,8.73]]],
[[[135.9565,-34.743,0.0],[135.9557,-34.7408,1.0708],[135.9526,-34.7413,6.1932],[135.9532,-34.7424,6.1932],[135.9565,-34.743,0.0]]],
[[[135.9816,-35.0245,0.0],[135.9786,-35.0198,0.0],[135.9791,-35.0216,3.7117],[135.9743,-35.0279,1.8302],[135.9675,-35.0216,12.2223],[135.9654,-35.0233,0.0],[135.968,-35.0289,0.0],[135.9675,-35.0321,0.0],[135.975,-35.0376,0.7296],[135.9749,-35.0361,8.7707],[135.9776,-35.0347,1.6075],[135.983,-35.0337,0.0],[135.9816,-35.0245,0.0]]],
[[[136.0308,-34.9828,7.941],[136.03,-34.98,16.7029],[136.0279,-34.9793,0.0],[136.0265,-34.9828,6.8503],[136.0272,-34.9865,0.0],[136.0306,-34.9863,0.0],[136.0308,-34.9828,7.941]]],
[[[136.063,-34.9576,3.0168],[136.0599,-34.9574,5.1909],[136.0508,-34.9679,13.9858],[136.0517,-34.9708,5.8299],[136.0608,-34.9679,29.4927],[136.0655,-34.9683,0.2871],[136.0664,-34.9655,36.9618],[136.0699,-34.9634,0.0],[136.0668,-34.9585,32.439],[136.063,-34.9576,3.0168]]],
[[[136.0299,-34.9545,0.0],[136.0305,-34.9572,4.4905],[136.0329,-34.9572,0.0],[136.0325,-34.9542,0.0],[136.0299,-34.9545,0.0]]],
[[[136.0257,-34.9504,0.0],[136.0264,-34.9494,0.0],[136.0244,-34.9491,1.4993],[136.0245,-34.9498,0.0],[136.0257,-34.9504,0.0]]],
[[[136.0375,-34.9062,0.0],[136.0342,-34.905,7.9134],[136.0322,-34.9059,0.0],[136.0308,-34.9107,0.9787],[136.0272,-34.912,4.6987],[136.028,-34.917,0.0],[136.0336,-34.9178,4.3248],[136.0382,-34.9078,8.9917],[136.0375,-34.9062,0.0]]],
[[[136.0095,-34.8945,0.0],[136.0114,-34.8944,4.2764],[136.0118,-34.8925,0.3463],[136.0113,-34.8923,0.0],[136.0095,-34.8945,0.0]]],
[[[136.0141,-34.8735,0.0],[136.0124,-34.8665,13.6667],[136.0087,-34.8651,15.5697],[136.0007,-34.8728,1.3335],[136.0014,-34.8814,3.4989],[136.0054,-34.8846,0.0],[136.0069,-34.8895,10.903],[136.0102,-34.8913,0.0],[136.0129,-34.8899,3.0485],[136.0146,-34.8826,0.0],[136.0128,-34.8797,29.4566],[136.0141,-34.8735,0.0]]],
[[[136.0081,-34.8593,8.6283],[136.0097,-34.8601,0.0],[136.0085,-34.8565,5.4373],[136.0075,-34.8578,0.0],[136.0081,-34.8593,8.6283]]],
[[[136.2131,-34.815,1.0055],[136.212,-34.8147,1.0055],[136.2111,-34.8151,0.0],[136.2135,-34.8156,0.3062],[136.2131,-34.815,1.0055]]],
[[[135.9987,-34.7204,0.7238],[135.9979,-34.7209,0.7238],[135.9981,-34.7217,0.0],[135.9993,-34.7212,0.7238],[135.9987,-34.7204,0.7238]]],
[[[136.1838,-34.6422,4.0107],[136.1836,-34.6407,1.1369],[136.1812,-34.6406,3.3293],[136.1798,-34.6465,0.0],[136.1839,-34.6495,9.1831],[136.1857,-34.6487,0.5981],[136.1859,-34.6467,3.0562],[136.1837,-34.6451,9.8995],[136.1838,-34.6422,4.0107]]],
[[[136.2746,-34.6759,2.3337],[136.2694,-34.6756,2.1789],[136.2669,-34.6732,2.3144],[136.2657,-34.6803,0.0],[136.2698,-34.6835,1.0075],[136.2728,-34.6835,0.6467],[136.2726,-34.679,6.3442],[136.2797,-34.6816,-0.0031],[136.2746,-34.6759,2.3337]]],
[[[136.3183,-34.6543,1.4746],[136.319,-34.656,2.9753],[136.3215,-34.6546,0.0],[136.3194,-34.6536,1.4746],[136.3183,-34.6543,1.4746]]],
[[[136.3743,-34.6503,0.0],[136.3741,-34.6501,0.0],[136.3733,-34.6502,-0.1044],[136.3741,-34.6505,0.0],[136.3743,-34.6503,0.0]]],
[[[136.3653,-34.6475,1.8713],[136.3701,-34.648,0.0],[136.3683,-34.6451,2.7875],[136.366,-34.6454,3.3927],[136.3653,-34.6475,1.8713]]],
[[[136.1952,-34.6384,0.9272],[136.1968,-34.6388,0.9272],[136.1971,-34.638,0.9632],[136.1954,-34.6368,2.433],[136.1952,-34.6384,0.9272]]],
[[[135.9817,-34.6087,4.123],[135.9851,-34.6091,1.2928],[135.986,-34.6042,1.3387],[135.9839,-34.6047,4.333],[135.9817,-34.6087,4.123]]],
[[[136.2105,-34.5523,3.7214],[136.2144,-34.5529,8.061],[136.2167,-34.5505,0.5287],[136.2167,-34.5474,0.2287],[136.2105,-34.5484,4.7496],[136.209,-34.5511,0.375],[136.2105,-34.5523,3.7214]]],
[[[136.2558,-34.5959,5.5782],[136.2593,-34.5926,0.0],[136.2557,-34.5942,1.1109],[136.2508,-34.5936,3.3908],[136.2486,-34.597,0.8642],[136.2535,-34.5974,3.6789],[136.2558,-34.5959,5.5782]]],
[[[136.3179,-34.5897,8.8939],[136.3097,-34.5895,0.0],[136.3065,-34.5939,2.7428],[136.3123,-34.5935,6.2512],[136.319,-34.5964,0.0],[136.3237,-34.5953,1.1787],[136.325,-34.5909,0.0],[136.3219,-34.5893,0.0],[136.3179,-34.5897,8.8939]]],
[[[136.2952,-34.5802,1.8183],[136.2909,-34.5777,0.0],[136.2872,-34.5794,0.1971],[136.2904,-34.5822,1.0467],[136.2967,-34.5839,2.5201],[136.3025,-34.5818,1.0063],[136.3016,-34.5805,1.2357],[136.2952,-34.5802,1.8183]]],
[[[136.2919,-34.5689,1.111],[136.2934,-34.5683,1.111],[136.2934,-34.567,1.7479],[136.2904,-34.5677,0.0],[136.2919,-34.5689,1.111]]],
[[[136.2356,-34.5641,0.9053],[136.2367,-34.5645,3.133],[136.2389,-34.562,0.5961],[136.2366,-34.5622,2.1825],[136.2356,-34.5641,0.9053]]],
[[[136.2617,-34.542,0.3766],[136.2616,-34.5405,0.0],[136.2597,-34.5404,1.3383],[136.2571,-34.5443,1.8687],[136.2601,-34.5445,3.0161],[136.2617,-34.542,0.3766]]],
[[[136.254,-34.5265,0.5973],[136.2582,-34.526,5.8649],[136.261,-34.5235,0.0],[136.2558,-34.519,0.4119],[136.2508,-34.5222,2.974],[136.2514,-34.5268,1.863],[136.254,-34.5265,0.5973]]],
[[[136.2507,-34.5135,0.9922],[136.2524,-34.5139,0.9922],[136.2508,-34.51,0.2225],[136.2491,-34.5114,1.0225],[136.2507,-34.5135,0.9922]]],
[[[136.2864,-34.4885,0.7594],[136.2794,-34.4875,2.8046],[136.2852,-34.4922,0.3196],[136.2872,-34.4895,0.7594],[136.2864,-34.4885,0.7594]]],
[[[135.0367,-34.7859,1.529],[135.037,-34.7866,0.4822],[135.0379,-34.7856,1.529],[135.0375,-34.7854,1.529],[135.0367,-34.7859,1.529]]],
[[[135.0366,-34.7819,0.0],[135.0325,-34.781,0.0],[135.0304,-34.7844,7.4873],[135.0355,-34.7847,23.5606],[135.0366,-34.7819,0.0]]],
[[[135.0311,-34.7795,0.0],[135.0319,-34.7796,0.0],[135.0324,-34.7782,0.0],[135.0316,-34.7783,0.0],[135.0311,-34.7795,0.0]]],
[[[135.029,-34.776,61.2026],[135.031,-34.7772,19.6124],[135.0319,-34.7756,47.5326],[135.0308,-34.7668,0.4654],[135.028,-34.7742,0.0],[135.029,-34.776,61.2026]]],
[[[135.0426,-34.7577,33.2792],[135.0458,-34.7569,9.139],[135.0464,-34.7526,10.671],[135.0423,-34.7539,5.8916],[135.0381,-34.759,0.0],[135.0426,-34.7577,33.2792]]],
[[[135.081,-34.7553,0.0],[135.082,-34.7544,1.4717],[135.0807,-34.7529,1.5781],[135.0789,-34.7547,0.0],[135.081,-34.7553,0.0]]],
[[[135.167,-34.7196,15.0515],[135.1624,-34.7195,0.0],[135.1647,-34.7224,1.8334],[135.1533,-34.7265,0.0],[135.1548,-34.7283,7.413],[135.1505,-34.7324,0.0],[135.1523,-34.7337,0.0],[135.1578,-34.7318,0.0],[135.1593,-34.7274,38.6408],[135.1655,-34.7232,0.0],[135.167,-34.7196,15.0515]]],
[[[135.2914,-34.7035,14.5155],[135.2864,-34.7028,0.6256],[135.2868,-34.7054,30.8647],[135.2828,-34.708,0.0],[135.2831,-34.7092,0.0],[135.2868,-34.7103,0.0],[135.2897,-34.7085,0.0],[135.2919,-34.7064,0.0],[135.2914,-34.7035,14.5155]]],
[[[135.3348,-34.7008,8.0779],[135.3361,-34.7005,8.0779],[135.3363,-34.6981,10.4953],[135.3295,-34.6997,0.9374],[135.3298,-34.701,0.9374],[135.3272,-34.7014,14.0318],[135.3253,-34.704,2.1261],[135.33,-34.702,14.3301],[135.332,-34.7028,9.2058],[135.3348,-34.7008,8.0779]]],
[[[135.4334,-34.6197,3.1369],[135.4323,-34.6192,0.0],[135.4309,-34.6195,0.0],[135.4329,-34.6213,0.0],[135.4334,-34.6197,3.1369]]],
[[[135.3784,-34.5957,0.0],[135.3777,-34.5956,0.0],[135.3771,-34.5957,0.0],[135.3774,-34.5959,0.0],[135.3784,-34.5957,0.0]]],
[[[135.374,-34.5947,1.1122],[135.3746,-34.5953,1.1122],[135.3761,-34.5954,0.0],[135.3742,-34.5939,0.0],[135.374,-34.5947,1.1122]]],
[[[135.211,-34.5631,0.0],[135.2126,-34.5639,0.0],[135.2131,-34.5633,0.0],[135.2094,-34.5617,0.0],[135.211,-34.5631,0.0]]],
[[[135.2432,-33.9402,128.7462],[135.2169,-33.9402,14.4293],[135.2236,-33.9456,88.7197],[135.2289,-33.9517,16.6707],[135.2285,-33.9535,4.4448],[135.237,-33.9618,19.2608],[135.2522,-33.9813,0.0],[135.2552,-33.9917,2.6576],[135.2574,-33.9928,20.3459],[135.2567,-33.9949,5.4145],[135.2582,-33.9959,5.4145],[135.2588,-33.9998,0.0],[135.2667,-34.0101,0.0],[135.2664,-34.0137,0.0],[135.2706,-34.0161,27.7137],[135.2716,-34.0199,32.1864],[135.2696,-34.0233,14.1878],[135.272,-34.0248,15.3769],[135.2691,-34.0264,30.3345],[135.2689,-34.0285,39.3359],[135.2662,-34.0292,0.6446],[135.2648,-34.0321,17.7464],[135.269,-34.0349,43.6332],[135.2727,-34.0427,5.6155],[135.2753,-34.0569,0.0],[135.2795,-34.0647,48.1351],[135.2811,-34.0721,2.3015],[135.273,-34.0867,25.0912],[135.2745,-34.0897,3.8902],[135.2727,-34.0946,0.6123],[135.2748,-34.0988,0.0],[135.2746,-34.1133,0.0],[135.2752,-34.1155,12.3227],[135.2789,-34.1178,9.3049],[135.279,-34.1213,7.7537],[135.2729,-34.1258,0.0],[135.2621,-34.1282,13.1573],[135.2526,-34.1379,6.4484],[135.2516,-34.1418,24.1251],[135.244,-34.1408,0.469],[135.244,-34.1425,2.0059],[135.2415,-34.1434,0.0],[135.2439,-34.1435,15.4992],[135.2411,-34.1475,0.0],[135.2436,-34.1486,13.0847],[135.2412,-34.1501,0.0775],[135.2482,-34.1551,0.3875],[135.2502,-34.1527,30.8488],[135.2557,-34.1552,4.4065],[135.2557,-34.158,0.6999],[135.2664,-34.1674,2.2739],[135.2659,-34.1736,0.1636],[135.2677,-34.1736,3.3844],[135.2679,-34.1773,0.0469],[135.2693,-34.1752,0.0],[135.2683,-34.1736,3.3844],[135.271,-34.1701,2.0332],[135.28,-34.1703,6.3593],[135.2923,-34.1751,2.2392],[135.3035,-34.1841,1.2832],[135.32,-34.2105,0.0],[135.3462,-34.2676,4.53],[135.3499,-34.2836,4.6329],[135.3513,-34.2842,31.7332],[135.3503,-34.288,2.8368],[135.3515,-34.2884,33.97],[135.3495,-34.2903,29.4155],[135.3504,-34.2931,13.874],[135.349,-34.2937,0.9799],[135.3501,-34.2946,18.0428],[135.349,-34.2962,0.0],[135.3518,-34.2993,18.2204],[135.351,-34.3049,0.0],[135.3534,-34.307,20.6397],[135.3528,-34.3106,0.0],[135.3561,-34.3132,38.3582],[135.3541,-34.3158,0.2028],[135.3565,-34.3173,26.7879],[135.3553,-34.3195,30.5918],[135.3577,-34.3237,34.9749],[135.3587,-34.3433,1.6725],[135.3598,-34.3441,17.7544],[135.356,-34.3491,4.7002],[135.3578,-34.3501,3.2435],[135.3571,-34.3557,1.3087],[135.3586,-34.3583,8.2121],[135.3574,-34.3662,23.6634],[135.3549,-34.3683,29.629],[135.353,-34.3668,4.2575],[135.3499,-34.3686,5.1881],[135.3555,-34.3738,31.8188],[135.3564,-34.3781,0.0],[135.3578,-34.3762,27.2533],[135.3615,-34.377,17.0321],[135.3646,-34.3807,1.9474],[135.3656,-34.385,14.2253],[135.3648,-34.3912,0.0],[135.3634,-34.392,0.0],[135.3637,-34.4114,16.8702],[135.362,-34.4171,10.108],[135.3589,-34.4187,6.0154],[135.3612,-34.4239,1.2787],[135.3658,-34.4231,37.6431],[135.3691,-34.4306,2.8632],[135.3717,-34.43,7.1849],[135.3728,-34.4319,0.0],[135.3747,-34.4302,8.4445],[135.3782,-34.4308,18.3976],[135.381,-34.4342,3.4859],[135.38,-34.4374,2.2979],[135.3856,-34.438,0.0],[135.3884,-34.4413,24.2458],[135.3869,-34.4533,12.5008],[135.3879,-34.4571,1.2788],[135.3905,-34.4589,45.871],[135.3913,-34.4645,35.3924],[135.3884,-34.4707,13.0266],[135.3922,-34.4751,8.9264],[135.393,-34.4795,31.0276],[135.3911,-34.4881,9.0756],[135.3949,-34.4917,13.4865],[135.3958,-34.4968,2.5683],[135.3895,-34.5058,0.6095],[135.379,-34.5104,0.0],[135.3769,-34.516,0.5782],[135.3776,-34.5248,0.0],[135.3819,-34.529,0.0],[135.3849,-34.5287,3.1059],[135.3867,-34.5302,2.8979],[135.3903,-34.5418,3.5676],[135.3953,-34.5467,1.4361],[135.3957,-34.5524,0.6703],[135.3983,-34.5557,0.1587],[135.397,-34.5597,0.8049],[135.3992,-34.5671,0.7749],[135.394,-34.5771,0.2645],[135.3947,-34.5787,2.0402],[135.3892,-34.5951,0.0],[135.3932,-34.5995,2.577],[135.3961,-34.5977,2.096],[135.3983,-34.5992,0.1728],[135.4222,-34.6015,1.449],[135.4034,-34.5952,2.7355],[135.4021,-34.5934,0.4629],[135.4036,-34.591,0.0],[135.4002,-34.5931,4.9381],[135.3963,-34.5931,0.3324],[135.3968,-34.5925,0.6196],[135.3991,-34.5917,0.36],[135.4002,-34.5887,1.2918],[135.4037,-34.5883,0.0],[135.4053,-34.5906,0.3565],[135.407,-34.5888,0.4175],[135.4095,-34.5905,0.0779],[135.4136,-34.5879,0.3838],[135.4086,-34.5825,0.3208],[135.4113,-34.5814,0.0],[135.4097,-34.5742,0.0],[135.4105,-34.568,0.0597],[135.4093,-34.5673,0.0],[135.4118,-34.5623,0.2417],[135.4075,-34.5597,1.9024],[135.4064,-34.555,1.1893],[135.4088,-34.5517,0.0],[135.4128,-34.5496,0.0],[135.4222,-34.549,1.9083],[135.4218,-34.5473,0.0],[135.4153,-34.5428,0.0],[135.4132,-34.545,1.1182],[135.4042,-34.5448,1.0696],[135.4022,-34.5434,1.9988],[135.4022,-34.5408,0.3744],[135.3914,-34.534,0.0501],[135.3941,-34.5306,1.7161],[135.4012,-34.5334,0.0],[135.3973,-34.5303,0.4365],[135.398,-34.529,0.4479],[135.3952,-34.5243,1.4973],[135.3995,-34.5189,0.311],[135.3998,-34.5152,0.2885],[135.3996,-34.5181,0.311],[135.4011,-34.5188,0.3423],[135.4001,-34.5218,0.0],[135.4014,-34.5217,0.0],[135.4014,-34.5097,0.0],[135.4023,-34.5071,0.2103],[135.4051,-34.5072,0.8312],[135.4123,-34.5136,2.7604],[135.4146,-34.5208,0.2929],[135.4137,-34.5262,2.9905],[135.4093,-34.529,6.2655],[135.4109,-34.5313,16.0704],[135.4093,-34.537,16.1544],[135.4104,-34.5388,4.9356],[135.4203,-34.5392,6.302],[135.4202,-34.5351,2.816],[135.4225,-34.5312,9.8489],[135.4287,-34.5274,0.93],[135.432,-34.5287,0.5701],[135.4315,-34.5317,0.681],[135.4364,-34.5323,1.5891],[135.4458,-34.5371,1.2998],[135.4444,-34.5412,1.4202],[135.4374,-34.5404,2.8892],[135.4357,-34.5416,13.9813],[135.4362,-34.5441,6.3048],[135.4425,-34.5475,0.7855],[135.4431,-34.5519,0.0],[135.4417,-34.5549,3.4504],[135.444,-34.57,11.5098],[135.4317,-34.6034,1.8514],[135.4458,-34.609,2.7347],[135.4584,-34.6104,7.1645],[135.473,-34.6166,0.0],[135.4736,-34.6147,1.7519],[135.467,-34.612,7.4146],[135.4636,-34.6085,6.039],[135.4524,-34.6054,1.3946],[135.4431,-34.6006,9.7536],[135.4453,-34.5947,0.0],[135.4526,-34.5916,0.0],[135.4558,-34.5869,3.0084],[135.4581,-34.5864,0.0],[135.4673,-34.5918,0.2344],[135.4757,-34.5944,2.6458],[135.4782,-34.5974,0.7978],[135.4838,-34.5963,0.0],[135.4962,-34.5997,0.0],[135.5069,-34.5993,0.2202],[135.5026,-34.5977,1.7565],[135.4982,-34.5983,1.4824],[135.5025,-34.597,1.7565],[135.5005,-34.5943,2.3757],[135.508,-34.595,1.6305],[135.5144,-34.6042,1.5799],[135.5139,-34.6067,3.1303],[135.5106,-34.6074,0.3724],[135.5152,-34.609,1.5938],[135.5168,-34.613,3.8218],[135.5136,-34.6186,0.1048],[135.5104,-34.621,0.4546],[135.5013,-34.6202,3.5433],[135.4991,-34.6188,1.5986],[135.4989,-34.6161,0.921],[135.494,-34.6133,5.308],[135.4787,-34.6166,0.0],[135.4769,-34.6215,6.6978],[135.474,-34.6228,0.0],[135.4652,-34.6202,3.5112],[135.4648,-34.616,0.0],[135.4627,-34.615,1.9564],[135.4549,-34.6161,0.0],[135.4515,-34.6144,0.0],[135.4523,-34.6222,4.676],[135.4511,-34.6268,0.2599],[135.4463,-34.6309,2.2331],[135.4383,-34.6336,2.7754],[135.4315,-34.6349,9.5399],[135.4274,-34.6329,0.0],[135.4221,-34.6359,0.5983],[135.412,-34.6381,10.2159],[135.4079,-34.6359,0.522],[135.4028,-34.6379,0.0],[135.399,-34.6369,0.6812],[135.3938,-34.6409,1.3505],[135.3857,-34.6441,0.487],[135.3778,-34.6449,0.3315],[135.373,-34.6439,0.356],[135.3719,-34.642,0.0853],[135.3658,-34.6421,4.1665],[135.3626,-34.6397,5.666],[135.3638,-34.6373,0.4369],[135.3714,-34.6385,0.0],[135.374,-34.6417,0.0967],[135.3769,-34.6407,0.2588],[135.3752,-34.6372,0.7726],[135.3725,-34.6359,1.0051],[135.3728,-34.6298,2.7969],[135.3743,-34.6288,3.1778],[135.3848,-34.6312,5.0385],[135.3904,-34.6301,5.9563],[135.39,-34.6332,0.5581],[135.3878,-34.6337,0.0],[135.3925,-34.6366,0.0],[135.392,-34.6376,0.4779],[135.3965,-34.634,0.0],[135.3971,-34.6316,0.1461],[135.3996,-34.6341,0.0],[135.4022,-34.6334,0.9541],[135.3983,-34.6303,1.4735],[135.3987,-34.6272,1.4176],[135.3942,-34.6265,4.9221],[135.3911,-34.623,0.0],[135.3817,-34.6219,3.1194],[135.3706,-34.6228,0.0],[135.3616,-34.6207,1.2324],[135.3588,-34.6133,0.7044],[135.3522,-34.6083,3.0814],[135.3505,-34.6035,1.7154],[135.3519,-34.5969,0.6511],[135.3581,-34.5892,0.0],[135.3561,-34.587,0.0],[135.3547,-34.5801,13.4448],[135.3497,-34.5754,1.8875],[135.3444,-34.5761,1.3336],[135.3408,-34.573,9.6232],[135.3306,-34.5723,2.4094],[135.327,-34.5702,1.4256],[135.3275,-34.568,4.9653],[135.3258,-34.5668,6.9922],[135.3165,-34.5662,0.0],[135.3095,-34.5637,7.2819],[135.3044,-34.56,2.1346],[135.3012,-34.556,2.8431],[135.3012,-34.5539,2.4966],[135.2976,-34.5523,10.335],[135.299,-34.5472,4.0258],[135.3061,-34.5366,0.0],[135.3037,-34.5391,5.2555],[135.3041,-34.5365,0.0899],[135.3057,-34.5351,0.9432],[135.3061,-34.5362,0.0],[135.3084,-34.5317,0.0],[135.3141,-34.527,0.801],[135.315,-34.5256,0.0],[135.3133,-34.5264,0.801],[135.3123,-34.5247,0.2746],[135.3163,-34.5207,0.1399],[135.3247,-34.5194,1.2892],[135.3443,-34.5229,1.4978],[135.3539,-34.5221,0.0],[135.3462,-34.5197,3.2697],[135.3041,-34.5165,3.1705],[135.3009,-34.5146,2.9364],[135.2989,-34.5102,1.7563],[135.2952,-34.5089,0.8831],[135.2851,-34.5082,2.3268],[135.2613,-34.5101,6.3083],[135.239,-34.505,5.6304],[135.2214,-34.4986,2.3361],[135.2154,-34.493899999999996,0.0],[135.2153,-34.4847,2.5137],[135.2126,-34.4815,2.3687],[135.2142,-34.4728,2.987],[135.2116,-34.4625,2.7984],[135.2165,-34.4556,0.7503],[135.2115,-34.4408,1.5289],[135.2174,-34.4334,0.0],[135.2096,-34.434,4.1675],[135.2076,-34.4318,2.0425],[135.2083,-34.4298,1.7288],[135.2063,-34.4293,0.4571],[135.195,-34.4341,1.4891],[135.1945,-34.4379,0.0958],[135.1909,-34.4406,13.0009],[135.1903,-34.4531,8.6448],[135.1866,-34.4599,14.7402],[135.1837,-34.4618,17.1292],[135.1814,-34.4608,1.1247],[135.1789,-34.4643,0.9322],[135.1732,-34.4648,6.3234],[135.173,-34.4668,27.867],[135.169,-34.4688,0.0],[135.1704,-34.4709,5.1458],[135.1688,-34.4744,0.7174],[135.1596,-34.4889,0.0],[135.1463,-34.5017,12.9213],[135.1407,-34.5019,4.0099],[135.139,-34.5033,3.5426],[135.1389,-34.5059,1.4581],[135.1437,-34.5093,6.8858],[135.1432,-34.5167,1.8439],[135.1417,-34.5183,2.0808],[135.1436,-34.5198,6.6493],[135.1415,-34.5228,4.9266],[135.136,-34.5229,0.0],[135.1299,-34.5278,1.5913],[135.1326,-34.532,0.0],[135.1342,-34.5443,0.0],[135.1307,-34.5538,8.5669],[135.1233,-34.5574,0.5352],[135.1265,-34.5594,3.4607],[135.1251,-34.5609,1.9243],[135.1264,-34.5674,0.0],[135.1244,-34.5715,0.0],[135.1256,-34.572,4.1632],[135.1254,-34.5765,15.8971],[135.1221,-34.5769,5.2586],[135.1174,-34.5813,13.7755],[135.1119,-34.5816,7.8228],[135.1092,-34.5882,0.3281],[135.1138,-34.5901,0.0],[135.1155,-34.5882,4.6826],[135.1183,-34.5887,2.7598],[135.118,-34.587,20.6809],[135.1196,-34.5877,1.87],[135.1214,-34.5852,8.8371],[135.1244,-34.5873,1.2061],[135.1286,-34.5876,2.524],[135.1289,-34.5902,0.0],[135.1335,-34.5875,12.7445],[135.1358,-34.5905,0.0],[135.1385,-34.5894,9.745],[135.1399,-34.5912,4.9658],[135.1435,-34.5918,1.7412],[135.1459,-34.5889,0.0],[135.1456,-34.587,1.8623],[135.1476,-34.586,0.0],[135.1454,-34.5816,0.0],[135.1478,-34.5765,0.0],[135.1466,-34.5729,9.8043],[135.1499,-34.5689,7.2525],[135.155,-34.5676,0.0745],[135.154,-34.566,2.705],[135.1586,-34.5618,1.8807],[135.166,-34.561,0.983],[135.1704,-34.5566,2.3691],[135.177,-34.5546,0.0],[135.1811,-34.557,3.798],[135.1871,-34.5559,18.317],[135.1923,-34.5577,13.1928],[135.1963,-34.5551,9.1358],[135.2027,-34.5553,0.0],[135.2088,-34.5586,0.0],[135.2103,-34.5574,2.0296],[135.2065,-34.5525,17.058],[135.2066,-34.55,7.3032],[135.2136,-34.5455,2.3357],[135.2202,-34.544,2.2847],[135.2306,-34.5439,3.0772],[135.2426,-34.5475,5.3384],[135.2548,-34.5532,4.2515],[135.2727,-34.5654,4.1377],[135.288,-34.582,14.1536],[135.2856,-34.5848,8.8038],[135.2906,-34.5875,17.3419],[135.2946,-34.5933,0.0],[135.2968,-34.5936,11.607],[135.299,-34.6,0.0],[135.2971,-34.6032,0.0],[135.3032,-34.6014,10.8224],[135.3085,-34.6021,3.2645],[135.3214,-34.608,2.0371],[135.3355,-34.6196,0.0],[135.3422,-34.6303,1.9022],[135.3423,-34.6349,1.2147],[135.3455,-34.6396,1.4656],[135.3496,-34.6529,18.3244],[135.3473,-34.666,25.6213],[135.3406,-34.6713,28.8467],[135.3374,-34.6702,10.9419],[135.3323,-34.6712,2.5962],[135.3294,-34.6694,0.0],[135.3258,-34.6748,0.0],[135.3255,-34.6799,18.5936],[135.3208,-34.6803,7.147],[135.325,-34.6864,0.0],[135.3294,-34.6892,6.7982],[135.3417,-34.682,2.4181],[135.3505,-34.6805,4.8837],[135.3672,-34.6832,0.0],[135.3797,-34.6871,3.4877],[135.4138,-34.7028,6.9296],[135.4552,-34.729,5.4463],[135.4743,-34.7441,8.8238],[135.4788,-34.7486,68.4045],[135.4791,-34.7528,33.5365],[135.4869,-34.7586,0.0],[135.4928,-34.766,2.5532],[135.4941,-34.7657,24.4441],[135.4944,-34.7692,3.8797],[135.4915,-34.7727,5.3101],[135.4963,-34.779,1.8641],[135.4948,-34.7811,0.0],[135.4959,-34.7826,0.5597],[135.5031,-34.7851,0.0],[135.5293,-34.8051,6.5176],[135.5329,-34.809,71.8164],[135.533,-34.8111,27.5242],[135.5406,-34.8141,74.1277],[135.542,-34.8179,35.0723],[135.5537,-34.8267,29.5449],[135.5524,-34.8307,0.0],[135.5567,-34.832,0.0],[135.5556,-34.8332,0.0],[135.5585,-34.8338,69.8906],[135.5578,-34.836,45.4424],[135.5698,-34.8448,44.7274],[135.5761,-34.8538,0.0],[135.5806,-34.8556,51.741],[135.5789,-34.8571,0.0],[135.5828,-34.8583,10.4882],[135.5817,-34.8608,0.0],[135.5861,-34.862,65.3061],[135.5861,-34.8643,1.8682],[135.5883,-34.8637,48.8809],[135.5878,-34.8658,2.4973],[135.5908,-34.8656,40.8398],[135.5934,-34.8692,79.044],[135.5923,-34.8717,0.0],[135.597,-34.8719,38.7185],[135.5999,-34.8768,0.0],[135.6045,-34.8787,98.0064],[135.6028,-34.8834,21.2953],[135.6044,-34.8846,53.6169],[135.6049,-34.8917,7.7905],[135.6145,-34.8927,28.2541],[135.6143,-34.8956,2.5748],[135.6186,-34.8988,0.0],[135.6181,-34.9046,0.0],[135.624,-34.9064,8.1256],[135.6229,-34.9112,9.0329],[135.6243,-34.9157,4.7331],[135.6223,-34.9163,3.7223],[135.6216,-34.9193,10.2863],[135.6165,-34.9188,0.0],[135.617,-34.9213,2.1311],[135.6147,-34.9245,2.0183],[135.6159,-34.9253,5.9801],[135.618,-34.9212,8.5189],[135.6195,-34.9231,0.0],[135.6219,-34.9227,12.9743],[135.62,-34.9277,4.8681],[135.6212,-34.931,23.0716],[135.6183,-34.9328,0.0],[135.6197,-34.9369,31.553],[135.6192,-34.9447,0.0],[135.6225,-34.9421,9.9327],[135.624,-34.9459,3.2072],[135.6263,-34.9465,0.0],[135.6299,-34.9417,0.0],[135.6346,-34.9412,32.7821],[135.6358,-34.9429,6.7744],[135.6394,-34.9429,1.4021],[135.64,-34.9371,9.2481],[135.6513,-34.9377,26.9766],[135.6536,-34.9364,6.7454],[135.668,-34.9426,18.621],[135.6687,-34.9467,0.7345],[135.6706,-34.9467,0.8472],[135.671,-34.9434,72.0582],[135.6736,-34.9426,85.921],[135.6771,-34.9453,8.4851],[135.681,-34.9443,88.8175],[135.6846,-34.9459,6.0577],[135.6903,-34.9387,8.2284],[135.6869,-34.936,12.7525],[135.6887,-34.9329,0.0],[135.6865,-34.9297,76.6135],[135.6884,-34.9233,27.7947],[135.6792,-34.9137,7.3954],[135.682,-34.9103,2.4782],[135.6866,-34.9086,5.9422],[135.692,-34.9139,2.8131],[135.6925,-34.9103,15.7374],[135.6958,-34.9061,21.6915],[135.7011,-34.9052,12.7954],[135.7038,-34.9077,8.2816],[135.7058,-34.9057,3.2716],[135.7037,-34.9017,4.223],[135.7049,-34.8966,10.8882],[135.7078,-34.8951,0.0],[135.7078,-34.8744,2.7165],[135.7124,-34.8653,13.9334],[135.7187,-34.8644,4.0543],[135.7219,-34.8615,0.0],[135.7357,-34.8579,14.2635],[135.7518,-34.8561,9.8858],[135.7634,-34.8567,0.0],[135.8022,-34.8631,0.0],[135.847,-34.8809,0.0],[135.8507,-34.8867,0.0],[135.8538,-34.8866,0.0],[135.8551,-34.8895,0.0],[135.8522,-34.8915,0.0],[135.8593,-34.8994,5.2973],[135.8557,-34.9066,61.2932],[135.8558,-34.9149,54.1569],[135.8526,-34.9202,0.0],[135.8552,-34.9264,0.0],[135.858,-34.9267,0.0],[135.8597,-34.9224,0.0],[135.8637,-34.9193,30.9191],[135.8702,-34.9206,7.6255],[135.8712,-34.9241,0.4498],[135.8739,-34.9221,11.2992],[135.8782,-34.9246,8.6452],[135.8802,-34.9291,9.5666],[135.8932,-34.9309,45.777],[135.9096,-34.9368,31.6315],[135.9193,-34.942,68.6717],[135.9198,-34.9451,3.6216],[135.9236,-34.9453,29.5018],[135.9289,-34.9484,4.3882],[135.9324,-34.9529,11.1123],[135.9275,-34.9596,31.773],[135.9317,-34.9708,10.3381],[135.9346,-34.9735,0.0],[135.9429,-34.9739,20.074],[135.9471,-34.9757,14.4535],[135.9485,-34.9813,41.5705],[135.9464,-34.9819,16.3017],[135.945,-34.9851,23.8486],[135.9413,-34.9858,0.0],[135.945,-34.9907,29.4304],[135.9431,-34.9917,0.0],[135.9445,-34.9962,37.5066],[135.9431,-34.9978,0.0],[135.9434,-35.0029,0.0],[135.9471,-35.0054,3.5383],[135.9605,-35.0053,0.0],[135.9583,-34.9972,8.7798],[135.9595,-34.9923,19.05],[135.9708,-34.9905,14.953],[135.9766,-34.9947,0.0],[135.9841,-34.9895,15.9118],[135.9865,-34.9821,47.5468],[135.9915,-34.9802,0.5613],[135.9941,-34.9801,2.7227],[135.9954,-34.9828,17.0024],[136.0027,-34.9858,6.5249],[136.0024,-34.9819,33.7799],[136.0046,-34.9799,7.589],[136.0032,-34.9797,45.1241],[136.0029,-34.9761,13.4163],[136.0007,-34.9746,39.4893],[135.9986,-34.9694,4.2846],[135.998,-34.9592,0.0],[135.9916,-34.9627,4.6626],[135.9873,-34.9587,2.28],[135.9898,-34.9543,0.0],[135.9885,-34.9527,12.6278],[135.9924,-34.9489,5.5308],[135.993,-34.9449,17.8139],[135.9914,-34.9425,1.9918],[135.9896,-34.9435,16.1858],[135.9864,-34.9411,28.0823],[135.9858,-34.937,22.6799],[135.989,-34.9303,15.4937],[135.9914,-34.9315,0.0],[135.9931,-34.9302,3.8989],[135.9922,-34.926,6.5399],[135.9896,-34.9209,0.0],[135.9869,-34.92,38.5901],[135.9871,-34.9182,0.0],[135.9847,-34.9166,38.5763],[135.9871,-34.912,0.0],[135.9862,-34.9093,10.5026],[135.9761,-34.9064,12.5559],[135.9753,-34.9024,2.5704],[135.9769,-34.8953,4.4],[135.9713,-34.8915,3.2088],[135.9725,-34.8857,6.4262],[135.9679,-34.8823,28.6412],[135.9627,-34.8754,0.0],[135.9601,-34.8543,1.8878],[135.9613,-34.8515,0.0],[135.96,-34.848,12.2277],[135.9651,-34.8413,0.0],[135.9847,-34.8283,2.8688],[135.9883,-34.827,3.067],[135.9935,-34.8278,6.6224],[136.0007,-34.8157,4.9665],[136.003,-34.8076,9.4196],[136.0085,-34.8057,0.792],[136.0037,-34.8018,4.3777],[136.0043,-34.7988,2.3859],[136.0081,-34.7948,0.0],[136.0138,-34.7959,0.5847],[136.0158,-34.7942,0.0],[136.0105,-34.7936,7.3965],[136.0073,-34.7911,0.0],[136.0052,-34.7921,3.3166],[136.0019,-34.7873,3.5291],[136.0031,-34.7762,21.7563],[136.0108,-34.7634,3.616],[136.013,-34.7625,8.5309],[136.0127,-34.7578,20.9531],[136.0145,-34.7552,0.0],[136.0095,-34.7518,12.2195],[136.0109,-34.7433,8.1815],[136.0065,-34.7359,0.0],[136.0019,-34.7362,0.3952],[136.0003,-34.7337,0.6739],[135.9974,-34.7334,1.3297],[135.9956,-34.7255,1.4558],[135.9902,-34.7281,10.2774],[135.9842,-34.7269,2.7872],[135.9792,-34.7305,21.6383],[135.9807,-34.7349,0.0],[135.9857,-34.7349,1.5045],[135.9875,-34.7368,5.2528],[135.9888,-34.7408,3.3616],[135.9863,-34.7448,0.0],[135.9908,-34.7471,3.9862],[135.9913,-34.7503,4.2461],[135.9895,-34.7557,6.8203],[135.9873,-34.757,9.9222],[135.985,-34.7561,0.3601],[135.9836,-34.7579,2.2597],[135.9865,-34.7592,0.8011],[135.987,-34.7642,19.1406],[135.9901,-34.7695,8.1261],[135.9888,-34.7736,5.1661],[135.9843,-34.7773,0.0],[135.9853,-34.7803,6.5917],[135.9819,-34.7841,2.1277],[135.9711,-34.7863,5.2173],[135.9646,-34.7858,0.6676],[135.9609,-34.7838,0.0],[135.9623,-34.7726,0.0],[135.9605,-34.7671,0.0],[135.9567,-34.7637,3.2374],[135.9575,-34.7594,9.2373],[135.9564,-34.7571,2.2887],[135.9543,-34.7581,15.5225],[135.953,-34.7627,7.4458],[135.9496,-34.7657,2.1357],[135.9467,-34.7653,6.135],[135.9386,-34.7696,14.8086],[135.9327,-34.7675,1.9183],[135.9289,-34.7688,2.6793],[135.9205,-34.7845,0.8904],[135.9146,-34.7874,3.8598],[135.9118,-34.786,0.4315],[135.9106,-34.7901,6.303],[135.9053,-34.7924,2.189],[135.898,-34.8038,0.8003],[135.8935,-34.8056,2.4267],[135.8884,-34.8056,4.3086],[135.8811,-34.8083,5.1006],[135.8606,-34.8075,0.8671],[135.8561,-34.8126,3.9177],[135.8466,-34.8134,0.0],[135.8428,-34.8174,2.7262],[135.8344,-34.819,3.9705],[135.8054,-34.8131,9.1321],[135.7986,-34.8138,4.3638],[135.7941,-34.8108,0.0],[135.7882,-34.8123,1.1309],[135.7858,-34.8095,0.0],[135.7898,-34.8029,1.5723],[135.8028,-34.794,0.7837],[135.8027,-34.7907,3.9737],[135.8098,-34.7821,6.2193],[135.8284,-34.7672,5.2508],[135.8241,-34.7645,48.8707],[135.8281,-34.76,50.7095],[135.8296,-34.753,83.6942],[135.8345,-34.7478,88.3734],[135.8362,-34.7489,68.3292],[135.8394,-34.7455,41.7312],[135.83,-34.7421,103.8213],[135.8261,-34.7372,107.3667],[135.8216,-34.7346,107.5247],[135.8262,-34.7349,114.9781],[135.8268,-34.725,146.9968],[135.8261,-34.7207,150.5773],[135.8229,-34.7179,154.2124],[135.825,-34.7147,156.3676],[135.8214,-34.7085,174.8734],[135.8251,-34.703,209.5387],[135.8286,-34.7011,230.2631],[135.8321,-34.6874,148.908],[135.8348,-34.6887,138.5534],[135.8371,-34.6875,144.0211],[135.8555,-34.6876,0.0],[135.854,-34.6654,5.0169],[135.8605,-34.6408,2.505],[135.8601,-34.6366,2.1095],[135.8629,-34.6323,5.057],[135.8723,-34.624,0.9536],[135.8873,-34.6167,0.7496],[135.8947,-34.6153,2.585],[135.9042,-34.6166,0.0],[135.9145,-34.6218,0.4118],[135.9126,-34.6315,0.0],[135.9169,-34.6307,2.7739],[135.9247,-34.635,0.0],[135.9269,-34.6418,4.3999],[135.9267,-34.6465,0.0],[135.9374,-34.649,2.5942],[135.9348,-34.6455,10.0989],[135.9334,-34.6354,11.1441],[135.9308,-34.6323,4.1049],[135.9347,-34.6234,6.0496],[135.9343,-34.6194,0.0],[135.9315,-34.6195,0.0],[135.9306,-34.6172,7.9403],[135.9334,-34.6098,11.8669],[135.9271,-34.6095,0.0],[135.9245,-34.6078,0.0],[135.92,-34.6113,5.8277],[135.9139,-34.6113,2.6298],[135.9043,-34.6023,1.5054],[135.9021,-34.5926,0.0],[135.9058,-34.5811,2.0183],[135.9133,-34.5706,0.4068],[135.9227,-34.55,0.983],[135.925,-34.5474,3.0069],[135.9282,-34.5477,2.541],[135.9348,-34.544,3.175],[135.9356,-34.5409,0.0],[135.9303,-34.5412,0.0],[135.9282,-34.5381,0.1997],[135.9314,-34.5295,1.2855],[135.946,-34.5169,0.0],[135.9598,-34.5092,1.6],[135.972,-34.505,0.0],[135.9813,-34.5059,6.7851],[135.9837,-34.5083,3.7867],[135.9819,-34.5119,2.8117],[135.9826,-34.514,0.8592],[135.9884,-34.5134,2.1675],[135.9931,-34.5186,0.2193],[135.9953,-34.5178,0.0],[135.9954,-34.514,2.5553],[136.0015,-34.5096,0.0],[136.0083,-34.5077,4.5369],[136.0157,-34.5089,3.3525],[136.0178,-34.5116,0.4737],[136.0169,-34.5149,0.8357],[136.0219,-34.5162,6.2231],[136.0236,-34.5148,0.3781],[136.0166,-34.5072,0.0],[136.0191,-34.5023,1.1499],[136.0162,-34.5004,0.8323],[136.0158,-34.4977,0.0],[136.0257,-34.4903,2.1949],[136.0242,-34.4857,0.0],[136.025,-34.484,0.5602],[136.0349,-34.4804,1.9513],[136.0349,-34.4774,1.2596],[135.7774,-34.4773,177.0076],[135.7777,-33.9386,79.0244],[135.2432,-33.9402,128.7462]]],
[[[135.2601,-34.2607,0.0],[135.261,-34.2599,27.8037],[135.2593,-34.2563,0.0],[135.2585,-34.2587,0.0],[135.2601,-34.2607,0.0]]]]}}