{"type": "Feature","bbox": [148.1416,-34.9066,148.6697,-34.3501],"geometry": {"type": "MultiPolygon","coordinates": [[[[148.5677,-34.4316,547.7829],[148.5546,-34.4299,534.097],[148.5534,-34.4365,538.4691],[148.5423,-34.4345,553.7485],[148.5412,-34.4406,607.691],[148.5397,-34.4404,607.691],[148.5237,-34.4229,623.0279],[148.5143,-34.4207,640.1949],[148.5104,-34.4155,623.4973],[148.5066,-34.4132,637.7316],[148.5055,-34.4111,639.6466],[148.508,-34.4092,636.8989],[148.4986,-34.3952,613.8372],[148.4922,-34.39,599.6265],[148.4805,-34.3725,624.6864],[148.4722,-34.3681,623.0833],[148.4705,-34.3657,636.7153],[148.4624,-34.365,623.9824],[148.4532,-34.3613,614.2325],[148.4507,-34.3626,597.9395],[148.4498,-34.3661,619.0068],[148.4382,-34.3641,642.0895],[148.4391,-34.3583,628.5052],[148.4315,-34.3573,579.7372],[148.4281,-34.3752,558.2145],[148.4207,-34.3743,526.585],[148.4215,-34.3704,568.2584],[148.4103,-34.3668,575.6162],[148.4031,-34.3697,559.6837],[148.3963,-34.3702,570.6523],[148.3937,-34.3669,567.6084],[148.3916,-34.3555,559.3285],[148.3832,-34.3546,554.5364],[148.3678,-34.3576,539.4425],[148.3675,-34.3593,551.7762],[148.3533,-34.3511,549.5685],[148.3483,-34.3501,554.5141],[148.3472,-34.3557,554.2556],[148.3499,-34.3561,559.1443],[148.3479,-34.3669,544.9053],[148.3279,-34.3642,537.656],[148.3272,-34.3675,552.7003],[148.3219,-34.3679,560.491],[148.3137,-34.364,565.0276],[148.3047,-34.3677,550.3303],[148.2989,-34.367,551.3835],[148.2952,-34.3702,541.7739],[148.2924,-34.37,544.5046],[148.2896,-34.3744,551.4125],[148.2847,-34.3729,549.1601],[148.2776,-34.3742,555.9335],[148.2759,-34.3763,551.5433],[148.2707,-34.3778,563.1763],[148.262,-34.3876,575.8284],[148.2523,-34.3859,571.1091],[148.2479,-34.3907,569.9036],[148.2383,-34.3913,556.98],[148.2321,-34.3958,558.5339],[148.2231,-34.3946,557.0305],[148.2234,-34.3989,567.3027],[148.2184,-34.4077,572.9267],[148.213,-34.4123,542.8832],[148.2075,-34.4116,554.4601],[148.2066,-34.416,561.6996],[148.2118,-34.4168,555.9522],[148.2063,-34.42,551.5948],[148.2044,-34.4231,555.478],[148.1978,-34.425,546.0021],[148.1733,-34.42,531.3176],[148.1692,-34.4365,528.5136],[148.1568,-34.4398,498.3993],[148.1544,-34.4423,499.7554],[148.1545,-34.4493,506.7072],[148.1531,-34.4518,498.5927],[148.1416,-34.4654,489.6609],[148.1567,-34.4673,487.7693],[148.1566,-34.4687,488.0782],[148.1678,-34.4706,494.9831],[148.1642,-34.4848,493.2477],[148.1872,-34.4862,521.2687],[148.1869,-34.4873,526.8375],[148.1986,-34.489,518.6667],[148.2001,-34.4906,522.476],[148.1956,-34.4969,541.7111],[148.1975,-34.5037,532.5657],[148.1966,-34.5116,524.4742],[148.1949,-34.5133,512.7965],[148.2036,-34.5169,518.6799],[148.2048,-34.5243,520.1273],[148.2099,-34.5261,519.1998],[148.212,-34.5289,519.3276],[148.2216,-34.5317,504.8478],[148.2194,-34.5423,480.5028],[148.2239,-34.543,488.7398],[148.2181,-34.5467,464.8593],[148.2077,-34.5453,460.7523],[148.2057,-34.5557,431.9183],[148.2131,-34.561,433.8798],[148.2198,-34.5613,430.3232],[148.2224,-34.5586,417.9513],[148.2285,-34.5593,418.0209],[148.2244,-34.5807,492.2874],[148.2371,-34.5823,443.9483],[148.2361,-34.5874,447.857],[148.213,-34.5855,503.6987],[148.212,-34.5901,517.9037],[148.208,-34.5895,529.5151],[148.209,-34.584,502.0264],[148.2031,-34.5832,518.6801],[148.2026,-34.594,498.9272],[148.1987,-34.5933,490.4435],[148.1983,-34.5951,492.3742],[148.1938,-34.5952,506.3611],[148.1933,-34.599,507.871],[148.1949,-34.5954,506.3611],[148.1991,-34.5959,492.3742],[148.1986,-34.6003,499.9173],[148.2035,-34.6009,527.1093],[148.2028,-34.6045,525.7544],[148.2091,-34.6054,524.9126],[148.2062,-34.6058,533.506],[148.204,-34.6159,528.5048],[148.1942,-34.6149,545.1628],[148.1928,-34.6215,517.2549],[148.2012,-34.6228,532.0015],[148.1997,-34.6301,532.4417],[148.2041,-34.6307,553.9718],[148.2049,-34.627,542.1608],[148.2092,-34.6277,535.5959],[148.2099,-34.6244,529.1782],[148.2129,-34.6249,539.8158],[148.2118,-34.63,537.2199],[148.214,-34.6303,537.5696],[148.2118,-34.6419,523.5524],[148.2041,-34.6409,533.4982],[148.2031,-34.646,538.1705],[148.2018,-34.6459,538.1705],[148.2021,-34.6443,549.4045],[148.1973,-34.6437,554.6185],[148.1935,-34.6638,517.5897],[148.2026,-34.665,532.0349],[148.2023,-34.667,532.5177],[148.2073,-34.6676,560.3817],[148.2021,-34.6976,522.3664],[148.2062,-34.6981,517.0569],[148.207,-34.6936,533.5795],[148.2152,-34.6946,468.3943],[148.2155,-34.693,469.0464],[148.2201,-34.6936,490.4825],[148.2193,-34.6977,458.6747],[148.2268,-34.6987,474.2255],[148.2264,-34.7006,473.807],[148.2358,-34.7018,478.6896],[148.2345,-34.7096,464.4114],[148.2301,-34.7092,441.434],[148.2278,-34.7234,429.9218],[148.2233,-34.7229,419.102],[148.2225,-34.7271,407.1278],[148.2248,-34.7274,423.1008],[148.2239,-34.7317,394.3587],[148.2259,-34.7319,409.9384],[148.2252,-34.7361,400.8087],[148.2313,-34.7368,372.9351],[148.2306,-34.7408,391.6605],[148.2401,-34.7421,395.4819],[148.2415,-34.7391,375.3727],[148.232,-34.7378,372.9351],[148.2329,-34.7337,391.7593],[148.2426,-34.735,366.2909],[148.2432,-34.7321,381.002],[148.2472,-34.7323,355.9312],[148.2466,-34.7354,357.1127],[148.2606,-34.7373,337.3936],[148.2679,-34.7418,333.9623],[148.2685,-34.746,325.8373],[148.2615,-34.7508,315.8749],[148.2621,-34.7566,311.0851],[148.2654,-34.7605,309.4984],[148.2625,-34.761,309.9446],[148.2561,-34.7709,302.5953],[148.2605,-34.7734,295.4437],[148.2646,-34.7794,295.2955],[148.2672,-34.7792,293.0617],[148.2698,-34.7829,303.8551],[148.272,-34.7877,289.2876],[148.2693,-34.791,287.107],[148.2718,-34.794,283.1802],[148.2733,-34.7927,287.2144],[148.2751,-34.7937,294.281],[148.2727,-34.7979,284.2831],[148.2793,-34.8042,275.9808],[148.281,-34.8119,276.7999],[148.2857,-34.8167,274.2448],[148.2897,-34.8178,270.897],[148.288,-34.8211,269.59],[148.2897,-34.8226,266.7953],[148.2896,-34.8254,267.1333],[148.2984,-34.8302,262.6981],[148.299,-34.8467,254.2766],[148.3008,-34.8467,262.9337],[148.3016,-34.8492,253.2835],[148.3063,-34.8522,251.0973],[148.3068,-34.8553,252.1511],[148.3111,-34.8537,251.3642],[148.3142,-34.8552,246.4329],[148.3145,-34.8575,245.4085],[148.3106,-34.861,250.7327],[148.3111,-34.8632,243.7732],[148.3158,-34.8669,245.4659],[148.3208,-34.8678,243.8728],[148.3225,-34.8715,241.4626],[148.326,-34.8688,239.8638],[148.3316,-34.8716,237.4452],[148.3415,-34.8698,236.6354],[148.3466,-34.8684,239.5091],[148.3526,-34.864,242.1717],[148.3568,-34.8519,246.2632],[148.3628,-34.8526,249.0768],[148.373,-34.8583,246.9435],[148.3872,-34.8586,251.3576],[148.3987,-34.8654,248.3157],[148.4002,-34.8712,250.8076],[148.3992,-34.8781,250.7383],[148.3906,-34.8855,249.3417],[148.3852,-34.8926,250.7348],[148.3847,-34.8981,264.0576],[148.3898,-34.9066,254.1238],[148.3975,-34.9063,260.5345],[148.4126,-34.8963,255.9828],[148.4184,-34.8955,262.1025],[148.4188,-34.8982,256.4484],[148.4205,-34.8987,254.8096],[148.429,-34.8995,262.2759],[148.4382,-34.8982,254.8782],[148.4494,-34.9025,272.8117],[148.4597,-34.9028,266.3223],[148.486,-34.8986,262.3116],[148.503,-34.9026,262.8545],[148.5149,-34.9034,284.4379],[148.5222,-34.9016,274.8033],[148.5246,-34.8896,509.2432],[148.5282,-34.8901,654.1838],[148.5306,-34.878,443.3821],[148.527,-34.8775,505.1193],[148.5279,-34.8722,536.2362],[148.5392,-34.8737,533.4269],[148.5409,-34.8616,549.0502],[148.544,-34.862,559.2457],[148.5452,-34.8557,532.6123],[148.5547,-34.857,546.4253],[148.5544,-34.8588,547.7267],[148.5586,-34.8594,556.7369],[148.565,-34.8275,614.7718],[148.5583,-34.8266,602.489],[148.5586,-34.8247,627.7661],[148.5618,-34.825,611.8288],[148.5635,-34.8156,543.2352],[148.5616,-34.8154,545.7347],[148.5635,-34.8052,532.8479],[148.5674,-34.8057,520.2463],[148.5694,-34.7954,521.9074],[148.5721,-34.7958,517.0323],[148.5694,-34.7912,505.0144],[148.5721,-34.7781,519.2789],[148.5748,-34.7785,536.941],[148.5759,-34.773,538.6563],[148.5715,-34.7724,505.9918],[148.5735,-34.7616,500.3956],[148.5718,-34.7614,535.9995],[148.5739,-34.7501,563.2876],[148.5728,-34.75,563.2876],[148.5736,-34.7457,686.1051],[148.5759,-34.7461,670.7937],[148.5779,-34.7355,426.4738],[148.5754,-34.7351,432.5123],[148.577,-34.7247,377.4387],[148.5717,-34.7229,383.8469],[148.5745,-34.7084,450.4219],[148.5633,-34.7069,410.4398],[148.5644,-34.7011,438.1703],[148.5721,-34.7021,439.4439],[148.5867,-34.6274,551.8181],[148.5999,-34.6292,558.2839],[148.5934,-34.6271,564.6079],[148.595,-34.6187,584.2891],[148.6264,-34.6229,537.3688],[148.6291,-34.6107,586.4164],[148.6588,-34.6142,552.0524],[148.6596,-34.6035,586.1217],[148.6663,-34.5967,599.3727],[148.6697,-34.5896,591.4428],[148.6594,-34.5878,594.5627],[148.6614,-34.5775,591.9801],[148.6534,-34.5766,572.7658],[148.6544,-34.5713,574.5552],[148.6495,-34.5708,569.9656],[148.6513,-34.5663,567.4416],[148.6466,-34.5657,566.1169],[148.6516,-34.5571,587.6461],[148.6543,-34.5391,593.9993],[148.6458,-34.538,613.2153],[148.6437,-34.5492,585.5178],[148.6307,-34.5475,554.835],[148.6325,-34.5379,648.9252],[148.6258,-34.5371,600.39],[148.6284,-34.5306,589.543],[148.6196,-34.5295,558.0892],[148.6201,-34.5264,565.9794],[148.6224,-34.5267,584.4828],[148.6241,-34.5172,598.665],[148.6219,-34.5169,572.4019],[148.6252,-34.5005,563.5129],[148.6126,-34.4989,539.3222],[148.6215,-34.4881,541.5461],[148.6095,-34.4871,531.0062],[148.6101,-34.4839,513.5807],[148.6115,-34.4841,517.611],[148.6148,-34.4662,542.871],[148.6008,-34.464,547.9587],[148.6005,-34.4656,542.8677],[148.5806,-34.4621,569.3977],[148.5817,-34.4563,587.5082],[148.5803,-34.4476,592.9051],[148.5779,-34.4454,578.8862],[148.5803,-34.4333,548.2137],[148.5677,-34.4316,547.7829]]]]}
,"properties": {"GID_2": "AUS.5.62_1","GID_0": "AUS","country": "Australia","GID_1": "AUS.5_1","state": "NewSouthWales","NL_NAME_1": "NA","county": "Harden","VARNAME_2": "NA","NL_NAME_2": "NA","TYPE_2": "Area","ENGTYPE_2": "Area","CC_2": "13700","HASC_2": "AU.NS.HD","name": "Harden.county","area_km2": 1868.621,"hist_schema_id": "Elevation0-9000","hist_area_km2": {"225": 0.557,"250": 23.074,"275": 26.807,"300": 42.54,"325": 60.46,"350": 78.991,"375": 109.939,"400": 157.865,"425": 210.202,"450": 252.85,"475": 277.825,"500": 246.01,"525": 184.417,"550": 109.017,"575": 36.294,"600": 23.533,"625": 14.793,"650": 6.534,"675": 3.465,"700": 1.846,"725": 0.888,"750": 0.47,"775": 0.209,"800": 0.035}}}