{"type":"Feature","properties":{"GID_2":"AUS.11.75_1","GID_0":"AUS","country":"Australia","GID_1":"AUS.11_1","state":"WesternAustralia","NL_NAME_1":"NA","county":"Meekatharra","VARNAME_2":"NA","NL_NAME_2":"NA","TYPE_2":"Shire","ENGTYPE_2":"Shire","CC_2":"55250","HASC_2":"AU.WA.MT","name":"Meekatharra.county"},
"geometry":{"type": "MultiPolygon","coordinates": [[[[117.6338,-23.7872,407.423],[117.6343,-23.8888,376.953],[117.7144,-23.888,354.5274],[117.7144,-23.8906,353.8159],[117.8083,-23.8906,324.7952],[117.8083,-23.9723,361.6736],[117.8382,-23.9724,338.7987],[117.8307,-24.3748,516.5721],[117.664,-24.3779,479.3041],[117.6639,-24.4972,533.9304],[117.6653,-24.4973,523.8691],[117.6653,-24.5157,487.6344],[117.6783,-24.5157,487.1187],[117.6783,-24.5344,483.6993],[117.6186,-24.5344,497.9194],[117.6185,-24.6944,550.0308],[117.7908,-24.6944,529.2592],[117.7908,-24.7071,604.217],[117.871,-24.7071,529.3646],[117.871,-24.7833,520.0376],[117.721,-24.7833,529.7735],[117.721,-24.8549,480.0569],[117.7939,-24.8549,496.9388],[117.7939,-25.2146,451.5764],[117.7362,-25.2146,452.6408],[117.7362,-25.274,481.6039],[117.7571,-25.274,470.7264],[117.7572,-25.3921,492.7009],[117.6772,-25.3921,483.9993],[117.6772,-25.3671,482.0103],[117.371,-25.3668,468.4206],[117.373,-25.5837,449.39],[117.2944,-25.5837,467.4418],[117.2944,-25.6074,489.149],[117.247,-25.6074,446.7424],[117.2472,-25.7962,399.7458],[117.2083,-25.7963,401.7791],[117.2081,-25.949,364.8185],[117.371,-25.9491,378.8507],[117.3711,-26.0231,391.5881],[117.2081,-26.0232,362.7829],[117.2081,-26.1002,409.7004],[117.2727,-26.1002,428.2808],[117.2727,-26.092,449.5631],[117.3491,-26.092,412.3324],[117.3491,-26.2691,397.8654],[117.4767,-26.2691,444.2294],[117.4767,-26.3596,437.4654],[117.6212,-26.3596,471.6111],[117.6216,-26.776,529.6945],[117.9733,-26.776,498.5895],[117.9724,-26.7973,513.3835],[117.9738,-26.808,502.4933],[117.9947,-26.8574,492.6563],[117.9992,-26.8574,490.5733],[117.9987,-26.9927,462.5898],[118.1579,-26.9927,487.8882],[118.1579,-26.9897,494.4328],[118.3277,-26.9897,443.6264],[118.3277,-26.999,444.327],[118.5073,-26.9991,450.1798],[118.5079,-27.0158,452.797],[118.5889,-27.0158,455.1942],[118.5889,-27.1399,467.7458],[118.5753,-27.1399,470.8834],[118.5753,-27.227,491.9525],[118.801,-27.2267,489.5966],[118.8009,-27.3129,526.4435],[119.0244,-27.3131,493.1316],[119.0244,-27.2989,489.1968],[119.094,-27.2989,505.4649],[119.094,-27.2747,502.8975],[119.1865,-27.2747,499.0653],[119.2011,-27.2311,508.969],[119.1968,-27.2023,507.8722],[119.2041,-27.1815,518.5903],[119.2014,-27.1694,532.325],[119.2365,-27.0628,512.3906],[119.2732,-27.0149,524.0834],[119.2879,-27.0087,526.7845],[119.332,-26.8994,557.1777],[119.3336,-26.8849,562.661],[119.3395,-26.8638,569.962],[119.4114,-26.7851,616.9813],[119.4475,-26.7688,631.8835],[119.4858,-26.722,620.6914],[119.5019,-26.6809,603.1183],[119.5285,-26.6444,592.6568],[119.5767,-26.6057,592.311],[119.5825,-26.5922,573.3783],[119.5834,-26.5777,569.5304],[119.5956,-26.5712,565.8756],[119.6024,-26.5711,564.5811],[119.6139,-26.5527,560.072],[119.7377,-26.4809,530.1603],[119.7497,-26.4686,535.5518],[119.77,-26.4585,534.9006],[119.7765,-26.4529,527.1107],[119.7923,-26.4496,526.9526],[119.8046,-26.4403,525.7621],[119.8046,-26.3822,533.5332],[119.808,-26.3708,533.6522],[119.8142,-26.3648,534.6318],[119.8673,-26.2569,572.4216],[119.8782,-26.2475,576.818],[119.883,-26.2406,588.5428],[119.8872,-26.2266,587.2524],[119.8945,-26.2136,585.4087],[119.9129,-26.1996,595.1438],[119.9163,-26.193,596.0217],[119.9218,-26.1876,596.9576],[119.9336,-26.1492,625.3121],[119.9413,-26.1408,621.2589],[119.955,-26.1066,599.8415],[119.9556,-26.0994,597.1331],[119.9611,-26.0857,593.4301],[119.977,-26.0605,583.9067],[120.0079,-26.027,575.5515],[120.1189,-25.7544,541.5442],[120.1122,-25.726,540.5908],[120.1071,-25.6598,536.7878],[120.1083,-25.6564,536.5826],[120.1073,-25.6319,536.8278],[120.1055,-25.6267,534.871],[120.0994,-25.6219,538.3854],[120.0936,-25.5841,535.7293],[120.0919,-25.5612,531.24],[120.0864,-25.5519,534.1253],[120.0883,-25.5274,535.6125],[120.085,-25.3386,574.2893],[120.137,-25.2324,619.7436],[120.1542,-25.2173,622.6323],[120.1621,-25.2123,626.53],[120.1641,-25.2048,629.7727],[120.1673,-25.2003,637.3367],[120.1768,-25.2015,629.3389],[120.1912,-25.1945,633.8533],[120.1971,-25.1945,631.0645],[120.2022,-25.1921,629.0525],[120.2024,-25.1826,628.8181],[120.1985,-25.1629,635.6196],[120.1935,-25.1551,640.1796],[120.195,-25.1487,644.5029],[120.1897,-25.1423,646.3334],[120.1154,-24.9976,592.1604],[120.1054,-24.9402,602.4417],[120.0987,-24.927,617.6965],[120.0883,-24.9159,600.2346],[120.0608,-24.8536,582.5305],[120.0553,-24.845,582.7508],[120.0554,-24.7624,577.0422],[120.057,-24.7581,578.8228],[120.056,-24.7335,590.249],[120.053,-24.723,596.4657],[120.0428,-24.7074,600.4141],[120.07,-24.609,599.9315],[120.0768,-24.5958,603.9343],[120.085,-24.5529,630.4669],[120.0925,-24.5401,640.0267],[120.0823,-24.5256,654.9956],[120.081,-24.5139,648.0657],[120.0771,-24.5024,641.8176],[120.0667,-24.493,631.0012],[120.0781,-24.4761,618.1934],[120.1114,-24.4563,590.7096],[120.1325,-24.3707,567.801],[120.1376,-24.3675,569.6562],[120.1462,-24.3564,570.8035],[120.1584,-24.3445,578.4189],[120.1738,-24.3376,587.6094],[120.1786,-24.3323,600.5482],[120.1835,-24.3309,594.4845],[120.2129,-24.2858,590.9211],[120.2196,-24.2461,568.905],[120.2417,-24.2217,565.7511],[120.2878,-24.1592,606.9692],[120.2945,-24.1435,623.4937],[120.30029999999999,-24.1347,614.4088],[120.3211,-24.1086,589.7877],[120.3436,-24.0898,569.8051],[120.3523,-24.0805,569.506],[120.3649,-24.072,577.1984],[120.4101,-24.0172,597.8854],[120.4364,-23.9536,571.5356],[120.4931,-23.8662,560.4069],[120.5079,-23.8505,551.8198],[120.5127,-23.8481,549.0579],[120.5244,-23.8529,547.1279],[120.5373,-23.8527,545.576],[120.61,-23.8123,578.3277],[120.612,-23.8053,575.043],[120.7615,-23.609,572.483],[120.7705,-23.5888,582.4348],[120.7751,-23.5418,590.0949],[120.7772,-23.5387,580.572],[120.7784,-23.5035,558.5156],[120.7914,-23.4403,542.8044],[119.9014,-23.4429,527.3462],[118.8836,-23.4403,655.5827],[118.8836,-23.419,657.0583],[118.8186,-23.419,724.9898],[118.8186,-23.4403,639.2319],[118.426,-23.4404,574.3009],[118.426,-23.3151,567.488],[118.1675,-23.3151,495.505],[118.1675,-23.2933,487.7814],[118.079,-23.2933,439.2833],[118.079,-23.375,569.0695],[117.9916,-23.375,420.6734],[117.9916,-23.3936,420.2989],[117.8403,-23.3936,410.3549],[117.8403,-23.3784,374.0657],[117.7202,-23.3784,342.2563],[117.7214,-23.4327,327.7889],[117.6402,-23.434,317.1809],[117.6418,-23.4818,304.8963],[117.6702,-23.4838,326.4729],[117.6708,-23.5236,300.6774],[117.7397,-23.5237,345.3469],[117.7409,-23.6172,300.8938],[117.7438,-23.618,301.6003],[117.7144,-23.6787,294.6921],[117.7101,-23.6755,289.1459],[117.7098,-23.708,296.4403],[117.7144,-23.7107,296.6642],[117.7144,-23.74,300.6288],[117.6352,-23.74,323.1411],[117.6338,-23.7872,407.423]]]]}}