{"type":"Feature","properties":{"GID_2":"AUS.10.32_1","GID_0":"AUS","country":"Australia","GID_1":"AUS.10_1","state":"Victoria","NL_NAME_1":"NA","county":"Horsham","VARNAME_2":"NA","NL_NAME_2":"NA","TYPE_2":"RuralCity","ENGTYPE_2":"RuralCity","CC_2":"23190","HASC_2":"AU.VI.HO","name":"Horsham.county"},
"geometry":{"type": "MultiPolygon","coordinates": [[[[141.8377,-36.5543,162.9901],[141.8262,-36.6287,155.0328],[141.821,-36.6282,164.0419],[141.8161,-36.6598,121.6233],[141.7408,-36.6522,147.9433],[141.7284,-36.7334,163.443],[141.7303,-36.7334,164.8095],[141.7276,-36.751,169.4303],[141.7255,-36.7504,173.0083],[141.7178,-36.801,156.3414],[141.7021,-36.7995,168.623],[141.7006,-36.8092,175.6209],[141.7035,-36.8095,179.7723],[141.7023,-36.8181,174.4563],[141.7048,-36.8409,177.0927],[141.7026,-36.8498,177.2764],[141.7119,-36.8507,175.8772],[141.7066,-36.8838,179.9534],[141.6839,-36.8817,200.821],[141.6834,-36.8851,195.5197],[141.6688,-36.8837,194.4167],[141.6577,-36.9557,180.0471],[141.7793,-36.9672,149.7973],[141.7739,-36.9721,148.6408],[141.7801,-36.9771,150.0963],[141.7861,-36.9776,149.8678],[141.7858,-36.9796,152.5115],[141.7923,-36.9802,153.8942],[141.7911,-36.989,153.721],[141.7863,-36.9886,154.741],[141.7809,-37.0228,163.6375],[141.7718,-37.0219,161.2101],[141.7706,-37.027,158.6926],[141.7808,-37.028,164.7163],[141.7783,-37.0451,167.9178],[141.781,-37.0453,168.0427],[141.7721,-37.1027,169.9545],[141.7734,-37.1073,183.1023],[141.7702,-37.1152,195.0796],[141.7652,-37.1488,196.9694],[141.7704,-37.1515,191.7348],[141.7719,-37.156,181.2432],[141.7709,-37.1593,169.7743],[141.7731,-37.162,191.2326],[141.7745,-37.1682,169.4552],[141.7764,-37.1692,154.4588],[141.7752,-37.1709,184.5452],[141.7763,-37.1731,153.508],[141.7799,-37.1739,145.7166],[141.7788,-37.1757,145.9808],[141.7808,-37.1745,145.7166],[141.7804,-37.1734,145.7166],[141.7767,-37.1719,142.3081],[141.7865,-37.1688,145.6013],[141.7874,-37.1706,143.5477],[141.7847,-37.1723,145.5721],[141.7849,-37.1741,145.1225],[141.7932,-37.1726,155.717],[141.796,-37.1752,155.7205],[141.7967,-37.1731,147.512],[141.8005,-37.1718,148.8977],[141.801,-37.1695,148.1044],[141.7992,-37.1678,158.9718],[141.8004,-37.1667,148.661],[141.8024,-37.1674,165.3725],[141.8029,-37.1703,152.173],[141.8063,-37.1695,166.6936],[141.8059,-37.1739,164.7251],[141.8099,-37.1773,155.2128],[141.8145,-37.1746,150.9177],[141.8141,-37.1714,152.0869],[141.811,-37.1699,151.4974],[141.8115,-37.1681,150.1259],[141.8185,-37.1712,157.253],[141.8208,-37.174,151.1173],[141.8259,-37.1689,157.9225],[141.8327,-37.172,158.1259],[141.8363,-37.1708,154.1492],[141.8366,-37.169,157.3434],[141.8422,-37.1663,150.7254],[141.8397,-37.1642,151.651],[141.8397,-37.161,155.4398],[141.8357,-37.1604,154.6544],[141.8345,-37.158,152.5612],[141.8378,-37.1538,151.67],[141.8541,-37.1522,162.2661],[141.8563,-37.15,156.3309],[141.8596,-37.1513,155.9534],[141.8577,-37.1466,153.0753],[141.8597,-37.1457,152.7958],[141.8649,-37.1494,153.7159],[141.871,-37.1469,154.9483],[141.8809,-37.1472,157.0001],[141.8845,-37.1435,154.0354],[141.8857,-37.1384,155.015],[141.89,-37.1361,154.2665],[141.8987,-37.1376,154.5073],[141.9011,-37.1344,154.8641],[141.9047,-37.1359,156.0694],[141.9087,-37.1349,159.0271],[141.9097,-37.1319,153.9054],[141.9057,-37.1286,159.3165],[141.9071,-37.1272,157.6091],[141.9044,-37.1233,160.5188],[141.9058,-37.1231,156.2734],[141.9049,-37.1204,156.6222],[141.9081,-37.118,161.2639],[141.9093,-37.1138,158.3311],[141.9111,-37.1134,158.3311],[141.9129,-37.115,160.3852],[141.9151,-37.1145,160.0582],[141.9163,-37.1181,157.3667],[141.9186,-37.1178,159.3213],[141.92,-37.1201,154.792],[141.9229,-37.121,158.4581],[141.9226,-37.1237,156.1504],[141.9254,-37.125,163.1615],[141.9229,-37.1267,161.0005],[141.927,-37.1292,159.0173],[141.9249,-37.1314,159.4759],[141.9255,-37.1339,159.2312],[141.9234,-37.1385,161.8903],[141.9274,-37.145,159.4128],[141.9241,-37.1523,163.3863],[141.9285,-37.1579,161.4718],[141.928,-37.1606,163.0506],[141.9295,-37.163,166.3245],[141.9339,-37.1644,177.4617],[141.9334,-37.1657,162.5618],[141.9348,-37.1663,164.6004],[141.9293,-37.1671,163.1897],[141.9277,-37.1691,160.9667],[141.9353,-37.1709,161.5339],[141.9299,-37.1763,163.4078],[141.9299,-37.1795,164.9244],[141.9192,-37.1828,171.2256],[141.9198,-37.1859,168.4786],[141.9135,-37.1884,163.907],[141.9111,-37.1914,164.2076],[141.9104,-37.1984,163.8391],[141.9135,-37.201,175.3054],[141.9126,-37.2024,165.7326],[141.9205,-37.2032,193.3482],[141.9214,-37.1983,191.4475],[141.9382,-37.2001,228.7542],[141.9372,-37.2067,212.4893],[141.9419,-37.2073,214.4524],[141.945,-37.2107,193.7377],[141.9534,-37.2087,220.6652],[141.9893,-37.2122,236.0095],[141.9958,-37.2226,223.7812],[141.9998,-37.2243,217.8627],[142.0338,-37.2229,229.2385],[142.0394,-37.2241,227.2463],[142.045,-37.2221,224.9918],[142.0523,-37.2229,220.4523],[142.0646,-37.2186,209.28],[142.0799,-37.2235,202.2092],[142.0887,-37.2126,205.7226],[142.0888,-37.2102,202.4519],[142.0846,-37.2053,215.7745],[142.0875,-37.1994,228.196],[142.0867,-37.191,206.8302],[142.0904,-37.1851,209.4353],[142.0925,-37.1707,224.0302],[142.0981,-37.1668,221.91],[142.1087,-37.1635,204.2652],[142.1092,-37.1586,205.4834],[142.1068,-37.1458,210.7227],[142.1098,-37.1411,226.8512],[142.1074,-37.1305,219.7168],[142.1145,-37.1121,244.1588],[142.1223,-37.1097,257.7782],[142.1328,-37.109,240.5528],[142.1414,-37.1116,228.4792],[142.1533,-37.107,216.587],[142.1636,-37.1058,211.9934],[142.1724,-37.1087,207.5625],[142.1783,-37.108,209.2307],[142.1814,-37.1108,199.7215],[142.181,-37.1177,199.3719],[142.1825,-37.1175,199.3719],[142.1891,-37.1115,207.5248],[142.1878,-37.1095,199.0832],[142.1917,-37.1081,203.2519],[142.1932,-37.1036,200.7942],[142.1991,-37.0987,199.3426],[142.2016,-37.0946,200.0528],[142.2018,-37.0882,199.0047],[142.206,-37.087,198.5273],[142.2117,-37.0899,199.6631],[142.2165,-37.1006,200.2733],[142.2159,-37.1113,200.6887],[142.2218,-37.1154,204.6598],[142.2212,-37.1185,202.9717],[142.2226,-37.1205,201.189],[142.2329,-37.1232,202.0733],[142.235,-37.1279,201.8063],[142.2351,-37.1072,208.6225],[142.2712,-37.1074,254.3233],[142.276,-37.0984,268.2703],[142.2884,-37.0887,258.1273],[142.3002,-37.0985,283.1356],[142.3082,-37.0985,267.6091],[142.3083,-37.086,245.7162],[142.3151,-37.086,284.3535],[142.3331,-37.072,232.1922],[142.3447,-37.0816,266.8483],[142.3746,-37.0586,213.0257],[142.4069,-37.0583,364.4598],[142.4068,-37.046,287.7164],[142.391,-37.0463,229.4254],[142.3911,-37.0431,236.3649],[142.3958,-37.043,249.9512],[142.3959,-37.0285,241.8602],[142.4052,-37.031,273.0918],[142.4109,-37.0346,271.9172],[142.411,-37.0214,401.1048],[142.4051,-37.0214,359.801],[142.405,-37.0163,375.303],[142.3805,-37.0154,268.2132],[142.3805,-37.0091,320.8922],[142.3684,-37.009,355.1748],[142.3684,-37.0143,297.0411],[142.3614,-37.0144,343.7925],[142.3609,-37.0215,251.2453],[142.335,-37.0191,201.3933],[142.3364,-37.0112,206.2721],[142.3387,-37.0139,215.9715],[142.3469,-37.0138,302.0228],[142.3466,-37.0032,256.5461],[142.3399,-37.0032,220.1207],[142.34,-36.9913,209.9905],[142.3515,-36.9913,230.7361],[142.3515,-36.9803,211.2908],[142.3683,-36.9805,238.1907],[142.3754,-36.9829,239.882],[142.3806,-36.9783,259.1406],[142.3947,-36.9784,403.6134],[142.3947,-36.9733,392.5612],[142.3582,-36.9731,218.1898],[142.3582,-36.9657,223.0885],[142.3759,-36.9657,285.9467],[142.3759,-36.9583,294.0635],[142.3773,-36.9583,315.2287],[142.3787,-36.9477,311.3396],[142.3742,-36.9476,270.7662],[142.3751,-36.9271,256.6014],[142.3581,-36.9266,214.7532],[142.3583,-36.9034,213.0983],[142.374,-36.9034,241.0387],[142.3741,-36.8903,244.3774],[142.3683,-36.8918,229.6623],[142.3625,-36.8886,220.6016],[142.3582,-36.8886,207.101],[142.3581,-36.8968,210.2729],[142.3527,-36.8968,204.8861],[142.3528,-36.885,191.1665],[142.3584,-36.885,210.0112],[142.3584,-36.881,203.8416],[142.3638,-36.8811,214.9615],[142.3671,-36.8794,224.4521],[142.3726,-36.8789,212.5056],[142.3748,-36.881,215.002],[142.3823,-36.8811,211.7875],[142.381,-36.8775,204.2068],[142.3772,-36.8762,197.5444],[142.3773,-36.869,184.9609],[142.398,-36.8689,178.586],[142.4028,-36.8733,181.9136],[142.4238,-36.8804,177.0738],[142.4315,-36.8889,178.9784],[142.4315,-36.8687,164.5412],[142.4417,-36.8688,160.2684],[142.4495,-36.8749,162.5326],[142.4495,-36.8977,175.1114],[142.4559,-36.8977,172.6771],[142.4558,-36.9167,181.7845],[142.4804,-36.9168,168.9722],[142.4802,-36.8977,161.7653],[142.4933,-36.8977,162.4617],[142.4934,-36.9067,165.5779],[142.5073,-36.9067,170.6333],[142.5055,-36.9111,172.7805],[142.5113,-36.9154,170.4826],[142.5106,-36.9171,170.4629],[142.4981,-36.9166,168.3197],[142.4978,-36.942,173.5824],[142.5039,-36.9394,175.1699],[142.5119,-36.9399,170.498],[142.5119,-36.9492,179.0187],[142.5392,-36.9493,173.584],[142.5594,-36.9427,176.5781],[142.5594,-36.8796,160.851],[142.5713,-36.8796,162.4873],[142.5683,-36.8784,173.2471],[142.5675,-36.8726,168.8514],[142.5634,-36.8723,168.6018],[142.5591,-36.8693,170.6929],[142.5572,-36.87,167.3427],[142.5561,-36.8668,165.8995],[142.5478,-36.861,165.1264],[142.548,-36.8578,159.3743],[142.5453,-36.8564,160.5754],[142.5419,-36.8572,158.8976],[142.535,-36.8527,160.7462],[142.5352,-36.849,159.7484],[142.5321,-36.8467,160.1813],[142.53,-36.8418,155.7729],[142.5203,-36.8381,155.0841],[142.5171,-36.8327,154.0155],[142.5175,-36.8303,156.2383],[142.5083,-36.8225,158.629],[142.5076,-36.8186,152.3364],[142.5098,-36.8111,154.7683],[142.5032,-36.8089,154.0545],[142.5009,-36.8036,153.9871],[142.4987,-36.8028,152.2398],[142.4954,-36.7981,154.0222],[142.4892,-36.7962,151.5629],[142.4904,-36.7933,151.4494],[142.4871,-36.7919,153.7603],[142.4846,-36.7941,151.3884],[142.4828,-36.7922,150.2696],[142.4809,-36.7866,147.2469],[142.4815,-36.7832,151.5533],[142.4798,-36.783,148.6509],[142.4789,-36.7793,147.1445],[142.4805,-36.7778,147.7791],[142.4807,-36.7735,148.9915],[142.479,-36.7731,146.5434],[142.4804,-36.772,147.0407],[142.4772,-36.772,149.5653],[142.4768,-36.7696,147.8183],[142.4713,-36.768,150.2412],[142.4712,-36.7615,145.7397],[142.4696,-36.7615,151.0073],[142.4753,-36.7586,149.2018],[142.474,-36.756,150.2419],[142.4753,-36.7529,148.2228],[142.4734,-36.7531,149.3648],[142.4693,-36.7487,150.277],[142.4634,-36.7398,149.7362],[142.4626,-36.7349,148.8689],[142.4554,-36.732,149.9426],[142.4537,-36.7293,145.7632],[142.451,-36.7301,148.8703],[142.44,-36.7267,145.3173],[142.4359,-36.7223,145.6857],[142.4333,-36.722,145.8218],[142.4284,-36.7162,142.9432],[142.4239,-36.7143,143.3816],[142.4238,-36.7116,143.8111],[142.4191,-36.7105,141.8853],[142.4149,-36.707,144.0997],[142.4104,-36.7063,139.3156],[142.4076,-36.7032,140.8527],[142.4082,-36.7008,138.4325],[142.4003,-36.6996,137.5937],[142.4015,-36.6967,139.0886],[142.3989,-36.6931,136.8592],[142.4023,-36.6898,138.1051],[142.3958,-36.6835,138.2007],[142.3973,-36.6812,138.3096],[142.3963,-36.6785,137.1915],[142.3929,-36.6763,136.9905],[142.39,-36.6776,137.3592],[142.3869,-36.6769,136.643],[142.3823,-36.673,135.3979],[142.3857,-36.6658,136.7217],[142.3831,-36.6631,136.8993],[142.3826,-36.6572,135.0658],[142.3789,-36.6522,134.7],[142.373,-36.6502,134.1473],[142.3698,-36.646,133.1599],[142.3719,-36.6372,134.7304],[142.3701,-36.6323,137.1157],[142.3709,-36.6278,134.1373],[142.373,-36.6254,133.7018],[142.3735,-36.6196,133.8003],[142.3719,-36.6133,133.4372],[142.3786,-36.6073,133.9385],[142.3783,-36.6036,133.5484],[142.3863,-36.5988,133.4228],[142.3873,-36.5912,131.5577],[142.389,-36.5899,132.1211],[142.3861,-36.5871,134.1051],[142.3878,-36.5845,132.0533],[142.388,-36.5783,131.216],[142.382,-36.5738,130.7659],[142.3874,-36.5566,130.7516],[142.3914,-36.5498,129.7775],[142.3906,-36.5468,132.1824],[142.3965,-36.5382,127.2729],[142.3981,-36.5281,128.9648],[142.3943,-36.5273,128.2907],[142.3918,-36.5216,128.9045],[142.3941,-36.5192,128.2621],[142.3964,-36.5104,128.2026],[142.3944,-36.506,126.9653],[142.3963,-36.502,126.6616],[142.3999,-36.5005,129.2513],[142.3986,-36.4986,125.375],[142.4026,-36.4974,128.977],[142.4044,-36.4947,126.4685],[142.4019,-36.4941,126.0895],[142.3993,-36.4879,123.9794],[142.3998,-36.4838,125.2888],[142.4024,-36.4818,124.7976],[142.3984,-36.4802,124.3505],[142.4,-36.4754,125.108],[142.3979,-36.4719,124.1039],[142.399,-36.4684,125.3027],[142.4019,-36.4664,124.9723],[142.3963,-36.4583,123.3794],[142.4003,-36.456,124.6619],[142.4015,-36.4521,123.6183],[142.4048,-36.4495,124.2653],[142.3505,-36.4494,129.3312],[142.3433,-36.4403,128.4166],[142.2435,-36.4401,128.3676],[142.2282,-36.4375,127.8142],[142.198,-36.4376,127.7569],[142.1767,-36.433,127.22],[142.1659,-36.4327,128.3122],[142.166,-36.4695,130.8728],[142.1645,-36.4696,131.4844],[142.1646,-36.4819,132.563],[142.1681,-36.4925,132.9524],[142.1184,-36.4927,134.3537],[142.1182,-36.4941,135.2031],[142.1002,-36.4942,133.8971],[142.0998,-36.4928,133.8476],[142.0761,-36.4929,135.3126],[142.0708,-36.4964,140.9391],[142.0674,-36.4931,141.441],[142.0178,-36.4946,103.8778],[142.0168,-36.497,102.155],[142.0189,-36.4968,106.9326],[142.0186,-36.5022,105.8811],[142.022,-36.5036,103.0652],[142.0215,-36.5056,104.4646],[142.0239,-36.5081,104.7613],[142.0272,-36.5086,104.024],[142.03,-36.5112,105.6548],[142.0273,-36.513,104.8694],[142.0302,-36.5153,106.4867],[142.0305,-36.5174,105.6919],[142.028,-36.5198,107.1852],[142.0284,-36.5219,107.6199],[142.0221,-36.528,106.7232],[142.0251,-36.5317,106.979],[142.0198,-36.5335,106.1925],[142.0199,-36.5361,105.6695],[142.015,-36.535,105.0568],[142.0156,-36.5384,105.2038],[142.0127,-36.5389,104.3144],[142.0136,-36.5423,104.2201],[142.0105,-36.5484,104.1084],[142.0135,-36.551,106.5673],[142.0097,-36.5519,106.8566],[142.0107,-36.5554,105.3936],[142.0125,-36.5558,107.4511],[142.0103,-36.5576,105.3763],[142.0101,-36.5602,108.0627],[142.0051,-36.5622,107.5238],[142.0059,-36.565,106.9897],[142.0039,-36.5675,106.9747],[141.9737,-36.5664,110.2723],[141.8377,-36.5543,162.9901]]]]}}