{"type": "Feature","bbox": [115.9257,-31.9245,115.9643,-31.8877],"geometry": {"type": "MultiPolygon","coordinates": [[[[115.9595,-31.8944,3.5513],[115.9633,-31.8911,3.6005],[115.9643,-31.8877,2.1552],[115.9318,-31.8879,26.0693],[115.9329,-31.8948,24.4904],[115.9314,-31.9013,24.6786],[115.9278,-31.9012,24.7718],[115.9276,-31.9081,25.835],[115.9257,-31.9096,23.1738],[115.9366,-31.9198,13.0807],[115.9349,-31.9212,12.8588],[115.9387,-31.9245,4.0638],[115.9414,-31.9197,0.7664],[115.9504,-31.9226,3.0129],[115.9616,-31.9114,3.948],[115.9626,-31.9031,2.6485],[115.9575,-31.8963,3.8948],[115.9595,-31.8944,3.5513]]]]}
,"properties": {"GID_2": "AUS.11.5_1","GID_0": "AUS","country": "Australia","GID_1": "AUS.11_1","state": "WesternAustralia","NL_NAME_1": "NA","county": "Bassendean","VARNAME_2": "NA","NL_NAME_2": "NA","TYPE_2": "Town","ENGTYPE_2": "Town","CC_2": "50350","HASC_2": "AU.WA.BA","name": "Bassendean.county","area_km2": 10.223588,"hist_schema_id": "Elevation0-9000","hist_area_km2": {"0": 2.771689,"25": 7.451899}}}