{"type": "Feature","bbox": [114.56,-28.727,115.4958,-27.8179],"geometry": {"type": "MultiPolygon","coordinates": [[[[114.6127,-28.6656,0.0],[114.6196,-28.6657,26.0167],[114.6207,-28.6679,25.3264],[114.6294,-28.6678,56.0982],[114.6303,-28.6748,43.1115],[114.6427,-28.6747,77.3451],[114.6427,-28.6707,81.1347],[114.6561,-28.6707,113.0531],[114.6561,-28.6725,125.2824],[114.6672,-28.6726,166.3502],[114.6662,-28.7084,86.8481],[114.6767,-28.7058,121.1792],[114.6883,-28.707,128.4338],[114.6927,-28.7043,138.3796],[114.6956,-28.7071,137.3817],[114.6954,-28.719,114.8658],[114.6919,-28.7202,120.4781],[114.6919,-28.727,143.9121],[114.7354,-28.727,50.2249],[114.748,-28.7261,80.4372],[114.7478,-28.7134,80.5351],[114.7557,-28.7134,103.5009],[114.7557,-28.6843,74.642],[114.7532,-28.6857,74.39],[114.7461,-28.685,69.558],[114.7382,-28.6863,65.1843],[114.7388,-28.6534,129.3559],[114.759,-28.6536,165.0611],[114.759,-28.6491,154.7484],[114.7614,-28.6481,148.0883],[114.7807,-28.6528,96.5038],[114.7844,-28.6528,101.1627],[114.7845,-28.648,102.2515],[114.7955,-28.6481,106.6375],[114.7966,-28.6504,105.0552],[114.8049,-28.6505,106.1207],[114.805,-28.6446,129.3375],[114.8311,-28.6449,140.955],[114.831,-28.6472,144.3848],[114.8372,-28.6473,122.171],[114.8372,-28.6491,124.2357],[114.846,-28.6493,118.5681],[114.8448,-28.6355,123.5821],[114.9662,-28.6349,239.4302],[114.9662,-28.6446,248.2846],[115.0259,-28.6446,233.9432],[115.0259,-28.6555,226.7663],[115.0484,-28.6555,194.9915],[115.0484,-28.6504,197.5813],[115.0664,-28.6501,146.4316],[115.0754,-28.6441,147.5876],[115.0762,-28.6417,146.1838],[115.0726,-28.6329,147.9961],[115.0803,-28.6272,151.7428],[115.091,-28.6116,170.719],[115.088,-28.601,163.1661],[115.0895,-28.5954,159.5915],[115.0937,-28.5929,155.5193],[115.1021,-28.5913,161.0523],[115.1107,-28.5819,154.1651],[115.1152,-28.5841,154.4242],[115.1174,-28.589,154.4809],[115.1217,-28.5887,158.7013],[115.1269,-28.5772,156.2162],[115.1376,-28.5686,157.4148],[115.1429,-28.5571,157.5547],[115.1518,-28.5572,159.2791],[115.1614,-28.5545,159.4001],[115.1647,-28.552,160.6658],[115.169,-28.5524,164.0196],[115.1709,-28.5476,169.318],[115.1705,-28.5399,164.1497],[115.166,-28.5323,162.37],[115.1677,-28.5299,160.9284],[115.1752,-28.5272,163.1785],[115.1785,-28.5136,165.2891],[115.178,-28.5021,163.7173],[115.1897,-28.5008,164.1031],[115.1952,-28.4966,164.8168],[115.2051,-28.4981,173.8933],[115.2122,-28.4933,174.8134],[115.2112,-28.4889,167.9446],[115.2006,-28.4876,168.6591],[115.1982,-28.4848,168.5649],[115.1976,-28.4796,172.0074],[115.2027,-28.4705,168.4566],[115.2033,-28.4647,171.2192],[115.1911,-28.456,172.2296],[115.1898,-28.454,172.0917],[115.1904,-28.4514,171.9443],[115.1955,-28.448,171.348],[115.212,-28.4434,175.2733],[115.2226,-28.4474,177.5472],[115.2226,-28.4516,199.8438],[115.2329,-28.4516,207.7789],[115.2329,-28.4464,183.1052],[115.2415,-28.4413,176.7501],[115.2459,-28.4461,177.7887],[115.2499,-28.4546,181.6578],[115.2473,-28.4611,181.02],[115.2489,-28.466,181.5841],[115.2528,-28.4667,181.0892],[115.2682,-28.4619,184.9066],[115.2717,-28.4588,182.1022],[115.275,-28.4503,181.1113],[115.2828,-28.4479,182.9645],[115.2878,-28.4437,182.0388],[115.2819,-28.428,190.9559],[115.285,-28.4223,184.865],[115.2885,-28.4218,185.1491],[115.2923,-28.4249,187.8607],[115.2983,-28.4265,194.3639],[115.3078,-28.4186,187.3728],[115.3218,-28.4223,192.3962],[115.3332,-28.4137,189.5423],[115.3452,-28.4147,197.0035],[115.3529,-28.4125,195.5676],[115.3573,-28.408,196.4768],[115.3604,-28.3979,193.6249],[115.3693,-28.3919,193.4911],[115.3667,-28.3804,196.3766],[115.3703,-28.3766,196.5402],[115.3804,-28.3565,198.0868],[115.3765,-28.3512,198.2805],[115.3767,-28.3465,199.0965],[115.4042,-28.3333,203.663],[115.4097,-28.3261,206.3543],[115.4163,-28.3224,206.2942],[115.424,-28.3222,204.3349],[115.4292,-28.3241,204.7448],[115.4326,-28.3223,205.6234],[115.4392,-28.3036,207.4921],[115.4484,-28.2918,209.0723],[115.4489,-28.2826,213.1706],[115.442,-28.2725,210.7814],[115.4421,-28.2683,211.6486],[115.4454,-28.2616,212.0165],[115.4493,-28.2558,212.5806],[115.4642,-28.248,215.9292],[115.4721,-28.24,216.6116],[115.475,-28.2384,216.7983],[115.4787,-28.2391,219.056],[115.4849,-28.2293,218.8934],[115.4873,-28.2286,220.5772],[115.4875,-28.2261,219.695],[115.4853,-28.228,218.8934],[115.4838,-28.2272,219.2325],[115.4906,-28.2179,218.3933],[115.4958,-28.2062,221.233],[115.4424,-28.2062,256.4511],[115.4397,-28.2067,256.0649],[115.4387,-28.2174,252.3901],[115.4163,-28.2174,237.6459],[115.4162,-28.1962,275.5513],[115.4041,-28.1963,258.6576],[115.4049,-28.0032,264.8105],[115.321,-28.0021,262.6461],[115.321,-27.9377,247.846],[115.3552,-27.9381,251.5767],[115.3552,-27.8975,252.7838],[115.3197,-27.8975,243.3867],[115.3197,-27.8179,254.2658],[115.2587,-27.8181,240.4803],[115.2592,-27.9143,241.6737],[115.2518,-27.9144,232.8845],[115.2518,-27.9364,238.6613],[115.1946,-27.9344,246.986],[115.1833,-27.9397,248.702],[115.1287,-27.9369,261.5217],[115.1197,-27.9417,258.7424],[115.1016,-27.9402,256.5164],[115.0777,-27.9512,278.9608],[115.0707,-27.9499,273.4883],[115.0589,-27.9521,270.4759],[115.0589,-27.9902,260.0281],[115.0574,-27.9902,258.7675],[115.0574,-28.0061,258.7491],[115.0518,-28.0063,256.5052],[115.0518,-28.0242,252.1822],[115.0393,-28.0242,251.4911],[115.0393,-28.0468,258.8151],[115.0206,-28.161,276.0005],[114.9893,-28.1687,273.9583],[114.9846,-28.2171,277.1511],[114.7694,-28.2171,276.4247],[114.7694,-28.2626,289.7022],[114.7917,-28.2626,297.1636],[114.7917,-28.2755,284.7965],[114.796,-28.2755,285.3063],[114.7959,-28.3387,290.4855],[114.7906,-28.3387,289.4823],[114.7905,-28.354,285.5511],[114.7819,-28.354,266.2814],[114.782,-28.3724,276.7569],[114.7613,-28.383,246.8564],[114.7551,-28.3909,226.9531],[114.7507,-28.3912,218.7791],[114.7459,-28.395,213.6599],[114.7456,-28.4057,207.6089],[114.7369,-28.4056,223.1484],[114.7368,-28.4133,224.9387],[114.7424,-28.4219,202.585],[114.7241,-28.4219,236.6053],[114.7241,-28.4373,230.3719],[114.6795,-28.4374,178.7955],[114.6796,-28.4408,192.5365],[114.6877,-28.4409,199.6713],[114.6877,-28.4562,218.3815],[114.6794,-28.4562,189.6217],[114.6788,-28.4809,198.1895],[114.6673,-28.4821,183.8735],[114.6673,-28.4908,193.4648],[114.6452,-28.4905,179.395],[114.6451,-28.4992,213.4848],[114.6326,-28.499,166.5294],[114.6326,-28.4959,166.0377],[114.6272,-28.4958,146.1871],[114.6267,-28.504,153.7801],[114.6308,-28.5093,159.7727],[114.6315,-28.5199,138.8362],[114.6283,-28.5198,136.4762],[114.6305,-28.5262,125.1833],[114.6307,-28.5373,110.7314],[114.6154,-28.5372,103.0003],[114.614,-28.5307,116.6355],[114.5964,-28.5307,63.4866],[114.597,-28.5254,72.8314],[114.5855,-28.5254,60.4429],[114.5832,-28.5206,42.3205],[114.5712,-28.5289,95.4852],[114.5733,-28.5341,91.3873],[114.56,-28.5439,4.1637],[114.564,-28.5508,10.6753],[114.5655,-28.5594,1.7596],[114.5698,-28.5652,0.0],[114.5753,-28.578,0.0],[114.5831,-28.5843,8.0338],[114.5839,-28.59,0.0],[114.5969,-28.6123,4.4311],[114.5969,-28.6157,2.2386],[114.6017,-28.6237,5.3892],[114.6057,-28.6384,1.1584],[114.6041,-28.6427,0.0],[114.6062,-28.6461,0.421],[114.6054,-28.649,0.0],[114.6101,-28.6559,1.6436],[114.6127,-28.6656,0.0]]]]}
,"properties": {"GID_2": "AUS.11.23_1","GID_0": "AUS","country": "Australia","GID_1": "AUS.11_1","state": "WesternAustralia","NL_NAME_1": "NA","county": "ChapmanValley","VARNAME_2": "NA","NL_NAME_2": "NA","TYPE_2": "Shire","ENGTYPE_2": "Shire","CC_2": "51610","HASC_2": "AU.WA.CV","name": "ChapmanValley.county","area_km2": 3987.894,"hist_schema_id": "Elevation0-9000","hist_area_km2": {"0": 4.244,"25": 8.228,"50": 20.637,"75": 63.608,"100": 61.346,"125": 66.454,"150": 101.421,"175": 192.239,"200": 319.684,"225": 459.284,"250": 1356.192,"275": 1117.852,"300": 215.174,"325": 1.531}}}