{"type":"Feature","properties":{"GID_2":"AUS.5.66_1","GID_0":"AUS","country":"Australia","GID_1":"AUS.5_1","state":"NewSouthWales","NL_NAME_1":"NA","county":"Hornsby","VARNAME_2":"NA","NL_NAME_2":"NA","TYPE_2":"Area","ENGTYPE_2":"Area","CC_2":"14000","HASC_2":"AU.NS.HR","name":"Hornsby.county"},
"geometry":{"type": "MultiPolygon","coordinates": [[[[150.9893,-33.3794,0.0],[150.988,-33.3802,1.0327],[150.9888,-33.3826,5.1822],[150.984,-33.3878,51.7546],[150.9855,-33.3876,51.7546],[150.9866,-33.391,70.8447],[150.985,-33.395,146.792],[150.9865,-33.3977,141.6793],[150.9857,-33.4017,159.0312],[150.979,-33.4094,186.3663],[150.9797,-33.4123,174.7572],[150.9733,-33.4167,179.5923],[150.972,-33.4214,210.0775],[150.9743,-33.4234,207.3661],[150.9879,-33.4263,200.5218],[150.9906,-33.429,225.135],[150.9921,-33.4329,232.3173],[150.9924,-33.4449,208.5103],[151.0014,-33.4538,189.7065],[151.0051,-33.4661,201.704],[151.0104,-33.4722,191.9289],[151.0102,-33.4835,184.4422],[151.0159,-33.4905,200.0054],[151.0212,-33.4922,217.2272],[151.0233,-33.5002,187.2134],[151.0229,-33.5059,215.8646],[151.0291,-33.517,218.7603],[151.0243,-33.5237,205.7532],[151.0111,-33.532,203.3767],[151.0136,-33.5384,199.6258],[151.0101,-33.5443,182.5179],[151.0133,-33.5489,207.4133],[151.0088,-33.5547,188.3115],[151.0117,-33.5626,197.0028],[151.008,-33.5692,174.7046],[151.0145,-33.5727,185.513],[151.0113,-33.5819,169.0532],[151.0129,-33.5859,161.6593],[151.007,-33.593,157.7893],[151.0063,-33.5978,162.3344],[151.0076,-33.6012,170.0998],[151.0192,-33.6099,176.061],[151.0193,-33.6146,173.3187],[151.0238,-33.6213,172.1066],[151.0219,-33.6279,168.6937],[151.0224,-33.6432,181.1228],[151.0197,-33.6517,192.2454],[151.0262,-33.6639,199.8508],[151.0253,-33.6722,208.8263],[151.0284,-33.6799,218.3702],[151.0276,-33.6873,211.3647],[151.0324,-33.6923,218.1886],[151.0302,-33.696,214.8527],[151.0189,-33.694,208.2654],[151.0144,-33.7041,198.039],[151.0113,-33.7064,192.693],[151.0114,-33.7109,181.6013],[151.019,-33.717,192.9021],[151.0168,-33.7307,179.579],[151.0269,-33.7328,188.4989],[151.0327,-33.7381,176.0224],[151.0483,-33.7449,180.8559],[151.0498,-33.748,163.0483],[151.0477,-33.7533,143.1656],[151.049,-33.7593,128.2441],[151.0473,-33.7656,129.637],[151.051,-33.7704,123.4964],[151.0522,-33.7789,127.0552],[151.0815,-33.7709,96.5752],[151.0842,-33.7772,96.6267],[151.0827,-33.787,68.4996],[151.0839,-33.7869,68.4996],[151.0852,-33.7865,70.2759],[151.085,-33.7839,63.9061],[151.0938,-33.7786,62.5464],[151.0938,-33.7707,62.7376],[151.096,-33.7692,71.3806],[151.0968,-33.7658,63.7831],[151.1015,-33.7624,56.8867],[151.1043,-33.7628,60.4181],[151.1057,-33.7602,56.2301],[151.1051,-33.7573,63.8369],[151.1019,-33.7543,60.1363],[151.1006,-33.7547,76.3311],[151.0986,-33.7485,67.1362],[151.0935,-33.7478,77.8281],[151.0908,-33.7446,109.367],[151.0922,-33.7409,83.9053],[151.09,-33.7354,123.8175],[151.0925,-33.7334,139.3492],[151.0923,-33.7305,164.4767],[151.0937,-33.7295,158.9097],[151.1007,-33.7304,163.8043],[151.1065,-33.7276,172.153],[151.1083,-33.7183,200.0935],[151.1099,-33.7187,199.9316],[151.1163,-33.7103,172.2168],[151.1183,-33.6995,143.2593],[151.1233,-33.6894,123.1957],[151.125,-33.6884,97.2003],[151.1288,-33.6897,126.9831],[151.13,-33.6878,108.958],[151.1378,-33.6844,64.7606],[151.1363,-33.6823,61.7664],[151.138,-33.6781,87.2147],[151.1417,-33.6779,78.451],[151.1469,-33.6747,72.3983],[151.1488,-33.6698,39.3621],[151.1554,-33.667,12.8456],[151.1543,-33.6637,37.3148],[151.1577,-33.6637,6.4186],[151.1588,-33.6623,45.0452],[151.1617,-33.6577,1.5],[151.1589,-33.6524,1.5],[151.1553,-33.6518,8.0504],[151.1496,-33.6553,47.4924],[151.1531,-33.6525,26.991],[151.1586,-33.6505,23.937],[151.1629,-33.6466,1.5],[151.1594,-33.6452,28.213],[151.162,-33.644,12.3031],[151.1623,-33.642,10.9635],[151.1585,-33.6411,80.2751],[151.1616,-33.6401,1.0],[151.1638,-33.6368,5.3849],[151.1623,-33.6359,45.474],[151.1665,-33.6346,5.5669],[151.1704,-33.6291,6.709],[151.1698,-33.6276,1.0],[151.1655,-33.6275,8.3958],[151.164,-33.6259,47.5996],[151.1666,-33.6266,8.3958],[151.1753,-33.6229,26.9802],[151.1756,-33.6202,21.8952],[151.1804,-33.6224,24.5422],[151.1872,-33.6179,86.3954],[151.1943,-33.6187,1.0],[151.1987,-33.6149,1.0],[151.1949,-33.6122,17.0614],[151.2014,-33.6123,31.8765],[151.2056,-33.6091,37.2379],[151.2084,-33.6105,12.0572],[151.2131,-33.6079,3.2318],[151.2131,-33.6017,0.5],[151.2079,-33.5997,30.1634],[151.2113,-33.5994,48.3541],[151.2138,-33.5967,9.2915],[151.205,-33.5928,0.5],[151.2014,-33.5963,51.8047],[151.202,-33.5922,0.5],[151.1988,-33.5926,3.1677],[151.1954,-33.5909,0.5],[151.1891,-33.5928,22.2414],[151.1864,-33.5921,29.727],[151.1918,-33.5917,3.8848],[151.1924,-33.5891,28.1797],[151.2091,-33.591,37.6778],[151.2113,-33.59,21.5805],[151.2134,-33.5925,32.2212],[151.2195,-33.5943,18.1308],[151.2206,-33.594,0.5],[151.2203,-33.5916,47.2146],[151.2245,-33.5938,3.6057],[151.2252,-33.5918,17.3623],[151.2328,-33.594,19.9307],[151.2334,-33.59,0.0],[151.2354,-33.5897,0.0],[151.2375,-33.5859,22.5439],[151.2421,-33.5848,0.0],[151.244,-33.5828,17.4784],[151.2433,-33.5811,22.7699],[151.2471,-33.579,36.7482],[151.2432,-33.5735,0.0],[151.2404,-33.5727,1.3078],[151.2403,-33.5704,17.292],[151.242,-33.5699,0.0],[151.2344,-33.5656,52.5702],[151.231,-33.5614,6.3414],[151.2256,-33.5674,0.0],[151.2264,-33.5705,8.384],[151.2235,-33.5722,16.9381],[151.2241,-33.575,37.493],[151.2219,-33.5759,14.3655],[151.2211,-33.5735,2.4453],[151.2153,-33.5717,24.4612],[151.2129,-33.5726,22.3579],[151.2141,-33.5692,14.3027],[151.2113,-33.5672,9.6816],[151.2139,-33.5666,6.021],[151.2203,-33.5703,0.0],[151.222,-33.5694,14.0609],[151.2187,-33.5649,23.0785],[151.2238,-33.5619,7.9992],[151.2256,-33.5589,23.9595],[151.2231,-33.5557,30.2672],[151.2284,-33.5544,73.9771],[151.229,-33.5513,0.0],[151.2314,-33.5508,0.0],[151.2303,-33.5478,10.1261],[151.2331,-33.5475,0.0],[151.2273,-33.5464,9.0207],[151.231,-33.5385,0.0],[151.2277,-33.5379,0.0],[151.2185,-33.542,11.0907],[151.2036,-33.5421,11.2823],[151.2022,-33.5441,45.9262],[151.2037,-33.5454,9.0832],[151.2092,-33.5451,5.2954],[151.229,-33.5415,0.0],[151.2259,-33.547,2.6558],[151.2192,-33.5455,1.1471],[151.1986,-33.55,11.9338],[151.1997,-33.5468,13.6561],[151.1983,-33.5438,2.7615],[151.1999,-33.5418,0.0],[151.1861,-33.5368,43.6236],[151.1851,-33.5293,21.4391],[151.1801,-33.5264,16.8706],[151.1812,-33.5254,11.7347],[151.1756,-33.514,2.0606],[151.1726,-33.5241,3.7528],[151.1642,-33.5291,0.0],[151.1637,-33.5324,12.8967],[151.1654,-33.5355,15.382],[151.17,-33.5387,20.1956],[151.1685,-33.5391,5.2994],[151.1606,-33.5342,0.0],[151.1549,-33.5337,5.5015],[151.1489,-33.5368,9.9899],[151.1486,-33.5398,0.0],[151.1549,-33.5429,63.9241],[151.1551,-33.5461,36.1439],[151.1585,-33.5491,0.0],[151.1653,-33.5517,17.1078],[151.1696,-33.5585,38.6414],[151.1666,-33.557,68.342],[151.1618,-33.5518,20.5579],[151.158,-33.5525,26.15],[151.1534,-33.5498,31.4878],[151.1517,-33.5515,27.8367],[151.1521,-33.5577,19.4396],[151.1598,-33.5621,44.0951],[151.1551,-33.5648,4.1663],[151.1592,-33.5682,60.0292],[151.1554,-33.5687,4.1115],[151.1554,-33.5702,6.322],[151.1622,-33.5758,18.3058],[151.1571,-33.5744,7.9422],[151.1501,-33.5686,0.5],[151.1464,-33.5721,26.5834],[151.1425,-33.5715,30.6678],[151.1409,-33.5731,42.9453],[151.1395,-33.571,1.0],[151.1336,-33.571,1.0],[151.1332,-33.5752,22.8885],[151.1369,-33.5793,44.4964],[151.1362,-33.581,18.502],[151.1416,-33.5835,4.6719],[151.1458,-33.5827,47.0404],[151.1438,-33.5836,8.1767],[151.1443,-33.5871,48.9857],[151.1433,-33.5838,8.1767],[151.1348,-33.5841,14.2061],[151.1321,-33.5814,7.6704],[151.1303,-33.584,13.2592],[151.1261,-33.5848,61.8597],[151.1266,-33.5886,50.9256],[151.1235,-33.5858,1.5],[151.1216,-33.5889,10.2543],[151.1191,-33.5887,4.7579],[151.119,-33.5915,2.0],[151.1245,-33.5949,55.5982],[151.1256,-33.6003,21.6],[151.1202,-33.5993,7.4788],[151.1227,-33.5965,31.942],[151.117,-33.5926,7.9671],[151.1161,-33.5875,1.5],[151.1097,-33.5901,57.6871],[151.1086,-33.5876,5.295],[151.1029,-33.5878,55.6706],[151.1075,-33.5862,28.0369],[151.1201,-33.586,14.6291],[151.1315,-33.5783,11.7652],[151.1296,-33.5773,49.7227],[151.1304,-33.573,11.3662],[151.1285,-33.5719,19.4665],[151.131,-33.5679,70.5155],[151.137,-33.5678,42.7196],[151.1415,-33.566,40.0521],[151.1443,-33.5677,6.5892],[151.1443,-33.5652,24.3044],[151.1422,-33.5647,40.0521],[151.1447,-33.5637,34.9399],[151.1476,-33.5656,19.0652],[151.1515,-33.5622,0.5],[151.1465,-33.5579,0.0],[151.1484,-33.548,39.7941],[151.1471,-33.5468,19.6507],[151.1477,-33.544,15.4931],[151.1449,-33.5421,6.7196],[151.1407,-33.5448,0.0],[151.141,-33.5477,0.0],[151.1388,-33.5505,10.9296],[151.1324,-33.5502,23.0545],[151.1313,-33.5492,51.4595],[151.1376,-33.5464,9.036],[151.1283,-33.5416,19.2171],[151.1208,-33.5432,21.8365],[151.1195,-33.5457,7.758],[151.1169,-33.5462,12.4923],[151.1188,-33.5426,41.7782],[151.1216,-33.5405,54.1555],[151.1237,-33.5409,22.269],[151.127,-33.5376,28.6857],[151.1376,-33.542,13.014099999999999],[151.1405,-33.5388,16.606],[151.1411,-33.5321,43.8264],[151.1434,-33.5298,0.0],[151.1375,-33.5279,11.618],[151.1358,-33.5223,3.3778],[151.1264,-33.5311,11.54],[151.1315,-33.5227,52.8987],[151.1313,-33.5193,0.0],[151.1218,-33.5216,32.8054],[151.1225,-33.5188,26.1847],[151.1194,-33.513,38.6693],[151.1153,-33.5097,42.396],[151.1118,-33.5089,10.5374],[151.1115,-33.507,2.5671],[151.117,-33.5047,7.5745],[151.1302,-33.5051,16.4024],[151.1213,-33.5106,2.3843],[151.1255,-33.5178,22.4585],[151.1278,-33.5172,26.9498],[151.1293,-33.5133,19.6692],[151.1335,-33.5133,2.6213],[151.1362,-33.5147,52.5288],[151.1355,-33.5178,4.4146],[151.1391,-33.5197,3.8723],[151.1408,-33.5244,16.034],[151.1451,-33.5222,29.3573],[151.1485,-33.523,0.0],[151.1504,-33.5208,87.4663],[151.1532,-33.5245,6.5117],[151.1541,-33.5237,6.5117],[151.1533,-33.521,5.9296],[151.1544,-33.5196,5.9296],[151.1522,-33.5174,14.4763],[151.1533,-33.5147,0.0],[151.1525,-33.5088,32.8445],[151.1553,-33.499,0.0],[151.1461,-33.4958,5.8972],[151.1425,-33.4966,12.8776],[151.1352,-33.4921,11.1507],[151.1321,-33.4928,14.2273],[151.1313,-33.4913,7.7676],[151.1345,-33.4881,4.042],[151.139,-33.4909,32.3764],[151.1438,-33.4905,16.8325],[151.1481,-33.4826,76.6741],[151.1503,-33.4745,34.9298],[151.1527,-33.4735,4.2003],[151.1555,-33.4678,1.1578],[151.1548,-33.4656,2.6057],[151.1527,-33.4657,6.8188],[151.1463,-33.473,22.0763],[151.1388,-33.4754,16.9274],[151.1309,-33.4721,2.3127],[151.1262,-33.4667,1.1544],[151.1224,-33.4666,2.6832],[151.1209,-33.4682,3.6938],[151.1235,-33.4694,5.5027],[151.1158,-33.4714,4.4829],[151.1033,-33.4841,2.7969],[151.09,-33.4806,11.0462],[151.0846,-33.4737,22.4522],[151.0799,-33.455,17.4249],[151.0798,-33.4488,8.4538],[151.0766,-33.4495,4.4886],[151.0786,-33.4576,22.8317],[151.0777,-33.4602,1.7131],[151.0719,-33.463,5.0714],[151.0719,-33.4614,0.0],[151.0678,-33.4596,0.0],[151.0641,-33.4549,0.0],[151.0632,-33.4425,1.3366],[151.0517,-33.4407,0.0],[151.0441,-33.4297,1.2496],[151.0358,-33.4293,0.0],[151.0323,-33.4273,0.0],[151.0309,-33.4222,0.0],[151.0338,-33.4094,0.0],[151.0319,-33.4054,0.0],[151.0212,-33.4006,0.0],[151.0012,-33.4016,0.0],[150.9948,-33.3994,0.0],[150.9934,-33.3974,0.0],[150.9925,-33.3842,3.4365],[150.9893,-33.3794,0.0]]],
[[[151.2422,-33.5369,8.3617],[151.2367,-33.537,0.0],[151.2352,-33.5415,4.458],[151.2379,-33.5425,4.9477],[151.2393,-33.5402,0.0],[151.2428,-33.54,0.0],[151.244,-33.5373,4.5089],[151.2422,-33.5369,8.3617]]],
[[[151.1525,-33.5286,3.2093],[151.154,-33.5272,10.9475],[151.1532,-33.5252,2.3229],[151.152,-33.5275,10.415],[151.1525,-33.5286,3.2093]]],
[[[151.1777,-33.5073,0.0],[151.176,-33.5097,0.0],[151.1779,-33.5106,26.4772],[151.1788,-33.5173,1.0572],[151.183,-33.5193,8.4461],[151.1805,-33.5104,5.8057],[151.1777,-33.5073,0.0]]]]}}