{"type": "Feature","bbox": [137.8111,-33.6262,138.4033,-33.1041],"geometry": {"type": "MultiPolygon","coordinates": [[[[138.085,-33.6092,67.9188],[138.0849,-33.6262,72.0201],[138.4033,-33.626,172.4533],[138.3978,-33.4937,290.4807],[138.3889,-33.4744,248.7615],[138.2588,-33.473,107.7658],[138.259,-33.2863,274.0798],[138.2414,-33.2868,205.0923],[138.2379,-33.2845,214.5593],[138.2312,-33.2862,261.3025],[138.2269,-33.2848,267.1924],[138.2266,-33.2816,269.457],[138.2229,-33.2787,272.2109],[138.2212,-33.2733,290.198],[138.217,-33.271,296.0598],[138.2132,-33.2713,303.8425],[138.2117,-33.2674,322.972],[138.2124,-33.2643,325.4279],[138.207,-33.2623,329.6005],[138.208,-33.2606,320.518],[138.2061,-33.2575,330.9631],[138.2073,-33.2559,318.1258],[138.2052,-33.2467,312.3123],[138.2083,-33.2426,333.0574],[138.2052,-33.24,303.2074],[138.2061,-33.2326,354.2195],[138.2034,-33.2249,368.8036],[138.1989,-33.2211,383.2744],[138.1967,-33.2162,424.1285],[138.1877,-33.2203,408.8195],[138.1842,-33.2172,400.7488],[138.1848,-33.2143,421.5876],[138.1775,-33.2114,423.5899],[138.1798,-33.2088,427.5618],[138.1832,-33.208,435.6269],[138.1839,-33.2001,444.1855],[138.1773,-33.1979,441.8278],[138.1773,-33.1918,486.3489],[138.1729,-33.1884,508.8108],[138.17,-33.1884,499.653],[138.1677,-33.1832,489.2416],[138.1673,-33.1704,543.6448],[138.1695,-33.1658,530.6826],[138.1676,-33.1611,580.6385],[138.17,-33.1463,576.0471],[138.1673,-33.1401,608.1281],[138.1673,-33.1332,601.0815],[138.1703,-33.1285,556.4087],[138.1647,-33.1171,648.6458],[138.1654,-33.1107,695.0867],[138.1637,-33.1041,725.0917],[138.0401,-33.1049,1.5585],[138.0537,-33.1135,1.1007],[138.0546,-33.1182,1.4038],[138.0534,-33.1249,1.24],[138.0479,-33.136,2.0998],[138.0406,-33.1394,1.7153],[138.0353,-33.1441,1.7099],[138.0242,-33.1466,1.2657],[138.0209,-33.149,1.6493],[138.0206,-33.1511,1.3794],[138.0283,-33.155,0.7146],[138.0248,-33.1553,0.6903],[138.0183,-33.1594,1.5654],[138.0185,-33.1642,1.3399],[138.0176,-33.1631,1.4268],[138.0141,-33.1781,0.7662],[138.0153,-33.179,0.7662],[138.0153,-33.1769,0.7529],[138.0192,-33.1798,0.0],[138.0213,-33.1796,0.0],[138.0275,-33.1709,1.1323],[138.0363,-33.1695,1.343],[138.0363,-33.171,0.0],[138.0326,-33.1712,0.0],[138.0304,-33.1732,2.4226],[138.0278,-33.1788,0.5283],[138.0242,-33.1819,3.2412],[138.0162,-33.1821,1.5153],[138.0119,-33.178,2.1978],[138.0144,-33.1647,0.0],[138.0126,-33.1617,2.7703],[138.013,-33.1537,1.3304],[138.0013,-33.144,0.4266],[138.0044,-33.1378,1.2806],[138.0069,-33.1373,2.2408],[138.0071,-33.1332,2.2154],[138.005,-33.1311,2.1433],[138.0008,-33.1316,1.7264],[137.9876,-33.144,1.0593],[137.9769,-33.1454,1.564],[137.9763,-33.1479,2.2968],[137.9736,-33.1472,1.8346],[137.9666,-33.153,1.2054],[137.9544,-33.1547,1.3033],[137.9586,-33.1626,1.2374],[137.9635,-33.1605,1.1311],[137.959,-33.1636,2.2475],[137.9583,-33.1678,1.234],[137.9561,-33.1681,1.0109],[137.958,-33.166,1.9389],[137.9554,-33.1668,1.5761],[137.9575,-33.165,1.9389],[137.956,-33.1637,1.6145],[137.9531,-33.1664,0.8084],[137.9539,-33.1631,2.3141],[137.9511,-33.1607,2.9457],[137.94,-33.1581,1.5297],[137.9321,-33.1713,1.248],[137.9255,-33.1765,0.9939],[137.9118,-33.1774,1.3773],[137.9116,-33.1722,2.3248],[137.9078,-33.1714,2.2851],[137.9054,-33.1738,1.3083],[137.8963,-33.1763,1.3333],[137.893,-33.1803,1.7154],[137.8797,-33.1834,1.9393],[137.8536,-33.1968,1.1663],[137.8503,-33.2026,1.4201],[137.8514,-33.2058,1.8372],[137.8528,-33.2053,1.8372],[137.853,-33.2096,0.6848],[137.847,-33.2119,1.1386],[137.8449,-33.2071,1.4808],[137.838,-33.2072,1.693],[137.8347,-33.2122,3.1874],[137.8327,-33.2216,1.1779],[137.8275,-33.2272,1.8945],[137.8264,-33.2337,2.0281],[137.8213,-33.2449,1.2127],[137.8268,-33.2486,2.3903],[137.8214,-33.2558,0.9228],[137.8148,-33.2583,1.5543],[137.8111,-33.2663,0.0],[137.8114,-33.2766,0.1196],[137.8174,-33.2867,0.9786],[137.8277,-33.2972,1.335],[137.8348,-33.3026,1.4231],[137.8398,-33.3037,2.1092],[137.843,-33.3081,1.3576],[137.844,-33.3073,1.7938],[137.842,-33.3053,2.0171],[137.8447,-33.3047,1.7788],[137.841,-33.304,2.1092],[137.8427,-33.3028,2.2811],[137.8396,-33.3007,2.4996],[137.8419,-33.3014,2.2811],[137.8449,-33.3047,1.7788],[137.8464,-33.3087,1.6483],[137.8434,-33.3112,1.663],[137.8425,-33.3165,1.1296],[137.8518,-33.3262,2.1891],[137.8564,-33.3288,1.7185],[137.8617,-33.3289,1.7676],[137.8585,-33.327,2.2308],[137.8655,-33.3285,2.1217],[137.8653,-33.3273,2.2867],[137.8591,-33.3259,1.9651],[137.8635,-33.3244,2.0056],[137.8663,-33.3276,2.4094],[137.8661,-33.3291,2.543],[137.8703,-33.3309,2.5179],[137.8734,-33.3303,2.3306],[137.8666,-33.327,2.4094],[137.8648,-33.3233,2.3273],[137.8673,-33.324,2.2505],[137.8675,-33.3226,1.2186],[137.859,-33.321,1.5733],[137.8591,-33.3195,1.7528],[137.8634,-33.3173,0.8266],[137.8649,-33.3205,1.3274],[137.8643,-33.3184,1.6934],[137.8656,-33.3174,1.8586],[137.8712,-33.3202,1.8041],[137.8718,-33.3221,1.5049],[137.8679,-33.3223,1.4538],[137.8708,-33.3234,2.3109],[137.8747,-33.3305,2.2687],[137.8755,-33.3294,2.7368],[137.8786,-33.3299,2.4436],[137.8764,-33.3285,2.7188],[137.8789,-33.3278,2.4181],[137.874,-33.3265,2.6926],[137.8758,-33.3228,2.4937],[137.8746,-33.323,2.3446],[137.8735,-33.3188,2.1617],[137.8703,-33.3181,2.1174],[137.8741,-33.3161,2.6198],[137.8812,-33.3232,2.5887],[137.885,-33.3386,3.0049],[137.8848,-33.3483,2.5935],[137.8835,-33.3495,2.3731],[137.8855,-33.3522,2.5342],[137.8838,-33.3524,2.3463],[137.8848,-33.353,2.2094],[137.889,-33.3527,2.8425],[137.8912,-33.354,3.0246],[137.8861,-33.3533,2.2094],[137.8882,-33.3557,2.3873],[137.8866,-33.3598,2.6403],[137.8855,-33.3588,2.6965],[137.887,-33.3555,2.3873],[137.8844,-33.3571,2.6697],[137.885,-33.3538,2.2094],[137.8829,-33.3578,2.4873],[137.8868,-33.3644,2.4616],[137.8891,-33.3656,2.8998],[137.8895,-33.3642,3.0482],[137.8909,-33.3668,3.0641],[137.8862,-33.3648,2.556],[137.8833,-33.3594,1.9554],[137.8804,-33.3594,2.0925],[137.877,-33.3629,1.9725],[137.8779,-33.3608,1.7855],[137.8755,-33.3624,1.6754],[137.8705,-33.3965,0.6827],[137.8775,-33.4072,1.3589],[137.8861,-33.4139,1.5247],[137.8928,-33.4224,1.976],[137.8924,-33.4205,1.8138],[137.8932,-33.4237,1.5897],[137.8975,-33.4274,1.7872],[137.896,-33.4269,1.4226],[137.8989,-33.431,1.8368],[137.905,-33.4368,1.8156],[137.9064,-33.4356,1.8636],[137.9041,-33.4319,2.0547],[137.9066,-33.4341,1.8407],[137.9107,-33.4444,1.9231],[137.9095,-33.4439,1.9231],[137.91,-33.4456,1.8468],[137.9088,-33.4459,1.2206],[137.9118,-33.4487,1.7945],[137.9137,-33.4551,1.4416],[137.922,-33.4681,1.6427],[138.0686,-33.4703,28.6773],[138.0683,-33.5147,22.0409],[138.0853,-33.5182,44.2639],[138.085,-33.6092,67.9188]]],
[[[137.8786,-33.334,2.3852],[137.8759,-33.3356,2.3081],[137.8756,-33.3409,1.977],[137.8787,-33.3442,2.4826],[137.8823,-33.345,1.7272],[137.8778,-33.3385,2.7048],[137.8802,-33.3344,2.1282],[137.8786,-33.334,2.3852]]],
[[[137.8756,-33.3322,2.4286],[137.8743,-33.331,2.2687],[137.8741,-33.3318,2.4286],[137.8754,-33.3336,2.2126],[137.8769,-33.3334,2.3023],[137.8756,-33.3322,2.4286]]]]}
,"properties": {"GID_2": "AUS.8.49_1","GID_0": "AUS","country": "Australia","GID_1": "AUS.8_1","state": "SouthAustralia","NL_NAME_1": "NA","county": "PortPirieCityandDists","VARNAME_2": "NA","NL_NAME_2": "NA","TYPE_2": "Municipality","ENGTYPE_2": "Municipality","CC_2": "46450","HASC_2": "NA","name": "PortPirieCityandDists.county","area_km2": 1759.711,"hist_schema_id": "Elevation0-9000","hist_area_km2": {"0": 439.975,"25": 318.427,"50": 125.765,"75": 166.498,"100": 242.915,"125": 121.467,"150": 81.291,"175": 65.109,"200": 55.807,"225": 49.589,"250": 31.521,"275": 17.448,"300": 11.259,"325": 7.405,"350": 4.857,"375": 3.726,"400": 2.946,"425": 3.071,"450": 2.734,"475": 2.059,"500": 1.829,"525": 1.207,"550": 1.136,"575": 0.621,"600": 0.604,"625": 0.231,"650": 0.053,"675": 0.107,"700": 0.036,"725": 0.018}}}