{"type":"Feature","properties":{"GID_2":"AUS.5.128_1","GID_0":"AUS","country":"Australia","GID_1":"AUS.5_1","state":"NewSouthWales","NL_NAME_1":"NA","county":"Tumut","VARNAME_2":"NA","NL_NAME_2":"NA","TYPE_2":"Shire","ENGTYPE_2":"Shire","CC_2":"17500","HASC_2":"AU.NS.TT","name":"Tumut.county"},
"geometry":{"type": "MultiPolygon","coordinates": [[[[148.8035,-35.3168,1141.9089],[148.7639,-35.3169,940.2668],[148.7649,-35.3139,932.4112],[148.7635,-35.3081,915.338],[148.7654,-35.3032,986.0878],[148.7632,-35.3005,969.8391],[148.7666,-35.2896,1065.6019],[148.7642,-35.2873,1113.3809],[148.7648,-35.2793,1063.5277],[148.7672,-35.2736,1172.6943],[148.752,-35.2635,836.4338],[148.7531,-35.2579,793.8729],[148.679,-35.2487,881.1362],[148.678,-35.2533,801.533],[148.6166,-35.245,1065.4663],[148.6158,-35.249,1062.4219],[148.545,-35.2394,983.5387],[148.5437,-35.2382,983.5387],[148.5493,-35.2339,1026.1082],[148.5498,-35.2256,1021.8774],[148.562,-35.2186,1028.139],[148.5627,-35.2136,1002.1156],[148.5749,-35.2026,966.5446],[148.5807,-35.1936,929.9486],[148.5765,-35.1798,917.8946],[148.5822,-35.1674,901.552],[148.5795,-35.1572,909.4197],[148.5834,-35.1524,914.0096],[148.5785,-35.1495,925.1235],[148.5703,-35.1494,926.0534],[148.5483,-35.1322,888.3636],[148.5455,-35.1321,882.0389],[148.5418,-35.1354,883.6326],[148.5319,-35.1291,877.3915],[148.5284,-35.1246,888.3857],[148.5248,-35.1239,894.4928],[148.5239,-35.1221,907.1823],[148.5268,-35.1195,911.7987],[148.5291,-35.1011,876.8331],[148.5242,-35.1001,855.1773],[148.5258,-35.0905,811.0591],[148.5243,-35.0903,820.5737],[148.5247,-35.0877,820.3649],[148.4692,-35.0801,706.7847],[148.4677,-35.0882,648.1219],[148.4719,-35.0888,669.692],[148.4664,-35.1174,729.6364],[148.4624,-35.117,731.5528],[148.4606,-35.1285,717.5447],[148.4595,-35.1285,717.5447],[148.456,-35.1467,670.5903],[148.4584,-35.1466,671.8037],[148.4568,-35.1545,697.0991],[148.4227,-35.1643,692.9791],[148.4158,-35.1624,649.8063],[148.4119,-35.156,622.7386],[148.4137,-35.153,658.4319],[148.3947,-35.1505,769.4731],[148.3968,-35.1399,813.9112],[148.3895,-35.1416,824.1871],[148.3476,-35.1371,774.602],[148.347,-35.1399,778.6515],[148.3415,-35.1392,758.0755],[148.3419,-35.1419,762.3777],[148.3375,-35.1412,738.724],[148.3379,-35.139,753.6373],[148.3336,-35.1383,701.4384],[148.3343,-35.1348,737.6146],[148.33,-35.1341,729.5608],[148.3303,-35.1324,725.114],[148.3234,-35.1314,675.5482],[148.3229,-35.1336,693.0168],[148.3142,-35.1323,571.6591],[148.3148,-35.129,554.207],[148.31,-35.1283,489.9415],[148.3103,-35.1265,504.0811],[148.3065,-35.1273,454.1222],[148.2933,-35.1251,434.3799],[148.293,-35.1224,458.9236],[148.2832,-35.1211,525.8685],[148.2838,-35.1182,454.6399],[148.2762,-35.1173,342.672],[148.276,-35.119,351.9102],[148.2619,-35.1171,441.3762],[148.2616,-35.1184,401.4856],[148.2572,-35.1178,470.6622],[148.2567,-35.1198,410.006],[148.2507,-35.119,364.3902],[148.251,-35.1171,399.4834],[148.2277,-35.112,377.9754],[148.2157,-35.1104,386.1869],[148.2151,-35.113,347.5547],[148.1999,-35.1109,235.4056],[148.1986,-35.1148,232.2017],[148.2009,-35.1152,232.735],[148.1986,-35.1166,233.087],[148.1991,-35.1186,233.3162],[148.2019,-35.1181,233.3887],[148.2063,-35.1215,241.0253],[148.2048,-35.1226,235.0587],[148.2077,-35.1269,235.053],[148.2061,-35.1286,238.6208],[148.211,-35.1362,236.5989],[148.2117,-35.1435,236.4108],[148.2168,-35.1482,239.516],[148.2138,-35.1527,237.4972],[148.2143,-35.1547,238.9689],[148.2175,-35.156,238.646],[148.2164,-35.1579,238.3767],[148.2222,-35.1583,239.6204],[148.2236,-35.1628,239.4506],[148.2215,-35.1662,239.7633],[148.2144,-35.1685,240.9129],[148.2121,-35.1664,240.3142],[148.2106,-35.1695,240.8876],[148.2065,-35.171,241.0536],[148.1975,-35.1707,263.7214],[148.1981,-35.1739,242.201],[148.1968,-35.1749,242.3357],[148.1916,-35.1734,247.5131],[148.1915,-35.1789,243.6954],[148.1835,-35.1849,249.2263],[148.1863,-35.1865,245.0101],[148.1837,-35.1894,250.5016],[148.1644,-35.1936,285.2718],[148.1601,-35.1929,302.3336],[148.1614,-35.1868,431.0605],[148.1578,-35.1863,421.2766],[148.1555,-35.1971,294.7586],[148.149,-35.1974,306.877],[148.1476,-35.1973,315.8122],[148.1479,-35.1958,311.1539],[148.1222,-35.19,413.5105],[148.1198,-35.2026,405.7176],[148.1125,-35.2016,441.2648],[148.112,-35.2038,460.9341],[148.0872,-35.1989,402.8948],[148.0878,-35.1954,459.6181],[148.0826,-35.1947,447.0266],[148.0821,-35.1974,406.4412],[148.0781,-35.1969,445.3251],[148.0774,-35.2004,441.0284],[148.0644,-35.1986,387.4954],[148.0641,-35.2005,381.5918],[148.0593,-35.2009,339.2746],[148.0448,-35.1983,253.8443],[148.0445,-35.1998,247.4964],[148.0389,-35.1988,237.0964],[148.0376,-35.1942,237.3898],[148.0326,-35.1967,243.9624],[148.0292,-35.1938,267.8478],[148.0255,-35.1957,282.528],[148.0236,-35.1931,299.153],[148.0199,-35.195,293.6788],[148.0181,-35.1926,302.7027],[148.0156,-35.1938,313.7761],[148.0142,-35.1916,297.9872],[148.0135,-35.1953,323.1872],[147.9972,-35.192,278.2462],[147.9968,-35.1939,282.3095],[147.9931,-35.1934,373.1256],[147.9935,-35.1914,344.3402],[147.9617,-35.1874,565.9433],[147.9662,-35.1978,550.9596],[147.9708,-35.1991,587.2605],[147.9758,-35.2041,585.6397],[147.9776,-35.2088,610.4249],[147.9742,-35.213,613.6249],[147.9665,-35.212,582.5911],[147.9655,-35.2179,526.0764],[147.961,-35.2173,499.6122],[147.9586,-35.2291,483.5583],[147.935,-35.2259,326.4813],[147.9341,-35.2311,300.1144],[147.9283,-35.2308,365.9208],[147.9278,-35.2332,284.3894],[147.9,-35.2304,261.7801],[147.8968,-35.2314,261.5074],[147.8948,-35.2334,275.5371],[147.8962,-35.2369,271.4838],[147.894,-35.2397,283.2273],[147.8999,-35.2415,285.354],[147.8991,-35.2448,278.5886],[147.8942,-35.2487,340.8946],[147.8918,-35.2581,446.8299],[147.8842,-35.2592,455.2424],[147.8798,-35.2679,546.4886],[147.884,-35.2729,577.5838],[147.8846,-35.2773,592.7847],[147.8739,-35.278,562.1742],[147.8724,-35.2817,572.8568],[147.8636,-35.2805,562.9235],[147.8621,-35.2784,559.3837],[147.8558,-35.2791,554.6104],[147.8552,-35.2835,536.2618],[147.8467,-35.2915,560.6806],[147.8455,-35.3003,544.4573],[147.8469,-35.3034,534.4768],[147.8437,-35.308,577.2513],[147.8452,-35.3136,551.4707],[147.8512,-35.3171,563.3285],[147.8489,-35.3186,565.1043],[147.8511,-35.3209,571.8384],[147.85,-35.3244,564.7284],[147.8513,-35.326,556.2545],[147.8475,-35.3272,565.464],[147.8465,-35.3302,579.7206],[147.853,-35.3337,576.7294],[147.8518,-35.3359,551.6606],[147.8543,-35.3399,559.6715],[147.8592,-35.3399,551.314],[147.8617,-35.3471,552.1861],[147.8656,-35.3493,609.092],[147.865,-35.3545,628.7694],[147.8663,-35.3577,655.3504],[147.8683,-35.3591,653.8845],[147.8731,-35.3575,635.9597],[147.88,-35.3587,673.4458],[147.8843,-35.3574,695.6294],[147.8901,-35.3725,690.4001],[147.8887,-35.3746,690.5321],[147.8899,-35.3766,696.9829],[147.898,-35.3783,722.0463],[147.8998,-35.3805,697.0064],[147.8984,-35.3881,660.2411],[147.8952,-35.3943,702.7927],[147.8945,-35.4024,735.375],[147.8985,-35.4134,646.5245],[147.9088,-35.4213,643.2251],[147.9082,-35.4263,600.0491],[147.8932,-35.4244,499.6222],[147.8894,-35.4443,617.2517],[147.8728,-35.4421,391.0301],[147.872,-35.4461,414.3448],[147.8751,-35.4466,471.8953],[147.873,-35.457,421.0851],[147.8815,-35.4581,538.4036],[147.8805,-35.4634,440.2466],[147.886,-35.4641,476.9958],[147.8831,-35.4786,384.8323],[147.8857,-35.479,392.6047],[147.8838,-35.4885,352.1519],[147.8994,-35.4891,425.6655],[147.9,-35.4927,388.8086],[147.9072,-35.49,415.5862],[147.9046,-35.5049,387.7382],[147.9063,-35.5051,419.6662],[147.9048,-35.5133,383.209],[147.928,-35.5163,588.4347],[147.9256,-35.5285,569.4781],[147.908,-35.5262,428.2479],[147.9071,-35.5308,380.1805],[147.9095,-35.531,377.4752],[147.9081,-35.5382,365.3869],[147.914,-35.5389,387.9886],[147.9154,-35.5417,370.0726],[147.9231,-35.5427,427.6184],[147.922,-35.5488,372.2905],[147.9314,-35.5502,450.5117],[147.9298,-35.5585,457.8239],[147.9119,-35.5562,340.8185],[147.9151,-35.5574,355.0756],[147.916,-35.5602,361.9554],[147.9211,-35.5589,359.179],[147.9218,-35.5629,376.0595],[147.9189,-35.5676,364.4348],[147.9564,-35.5718,427.278],[147.9644,-35.5682,440.1187],[147.967,-35.57,458.7506],[147.9713,-35.5694,486.1386],[147.9746,-35.5728,470.9677],[147.9763,-35.571,488.2397],[147.9818,-35.57,511.0421],[147.9888,-35.572,546.7411],[147.9966,-35.5706,590.9513],[148.0028,-35.5718,614.4694],[148.0048,-35.5744,611.5665],[148.0076,-35.5747,617.2802],[148.0081,-35.5718,646.5809],[148.0106,-35.5691,658.1294],[148.0128,-35.5691,671.1669],[148.0126,-35.5671,675.6688],[148.0144,-35.5656,688.2297],[148.0176,-35.5656,684.1758],[148.0177,-35.5689,688.8423],[148.026,-35.565,716.6812],[148.032,-35.5663,742.9805],[148.0377,-35.5633,735.4309],[148.0398,-35.5648,735.9676],[148.0445,-35.5601,756.5451],[148.0495,-35.5611,770.1978],[148.053,-35.5588,777.7424],[148.0575,-35.5608,785.6897],[148.0587,-35.5585,791.7266],[148.0928,-35.5625,975.7332],[148.0888,-35.5737,953.7264],[148.0923,-35.584,992.1434],[148.089,-35.5929,1001.6983],[148.0928,-35.5977,1001.3685],[148.0922,-35.6019,976.0676],[148.0939,-35.6057,993.9995],[148.0907,-35.6118,998.9148],[148.0945,-35.6122,1013.7578],[148.0986,-35.607,1039.7262],[148.0984,-35.6036,1042.9412],[148.1051,-35.6017,1021.3694],[148.111,-35.6014,1028.0609],[148.1183,-35.6061,1097.5577],[148.1289,-35.6008,1109.649],[148.1329,-35.6014,1088.4159],[148.1357,-35.6128,1106.2114],[148.141,-35.6189,1176.2924],[148.1397,-35.6307,1171.7189],[148.1483,-35.6471,1250.4126],[148.1399,-35.6466,1298.1863],[148.1419,-35.655,1289.4227],[148.137,-35.6566,1310.4655],[148.1365,-35.6581,1309.8466],[148.1388,-35.6626,1328.8284],[148.1452,-35.6679,1324.7393],[148.1433,-35.6739,1313.6913],[148.2748,-35.6942,832.3599],[148.2729,-35.7031,1145.6227],[148.2826,-35.7045,901.5826],[148.2861,-35.6882,593.6984],[148.2881,-35.6886,588.4407],[148.2979,-35.6828,548.2917],[148.3145,-35.6807,540.0],[148.3178,-35.6788,540.0],[148.3197,-35.6744,540.0],[148.3217,-35.6832,540.0],[148.3202,-35.7011,540.0],[148.3259,-35.7051,540.0],[148.3263,-35.7093,540.0],[148.3327,-35.7126,540.0],[148.3312,-35.7189,540.0],[148.3347,-35.7206,540.0],[148.3403,-35.7275,540.0],[148.3394,-35.7341,540.0],[148.3359,-35.7416,540.0],[148.3426,-35.7473,540.0],[148.3426,-35.752,540.0],[148.344,-35.7538,540.0],[148.3516,-35.753,546.1104],[148.3549,-35.7647,540.0],[148.3586,-35.7696,540.125],[148.3593,-35.7729,540.8559],[148.3547,-35.7765,540.5],[148.356,-35.7801,540.5],[148.3534,-35.7837,540.875],[148.3536,-35.7877,541.0],[148.3586,-35.8007,541.5],[148.3587,-35.8045,541.5],[148.3645,-35.812,553.902],[148.3665,-35.8211,565.192],[148.3639,-35.8241,558.0856],[148.358,-35.822,568.7621],[148.3562,-35.8261,562.8293],[148.3613,-35.8276,579.5452],[148.3618,-35.8334,654.6154],[148.3665,-35.833,564.231],[148.371,-35.8353,632.2614],[148.3696,-35.8379,572.6358],[148.362,-35.8377,670.8097],[148.3634,-35.8416,597.5355],[148.3593,-35.8487,612.4954],[148.3604,-35.8508,599.0288],[148.3636,-35.851,644.9939],[148.364,-35.8577,615.9164],[148.3696,-35.86,609.6514],[148.366,-35.8617,638.1639],[148.367,-35.8645,631.5496],[148.3626,-35.8726,697.1541],[148.3677,-35.8754,664.0155],[148.3681,-35.8788,720.198],[148.3617,-35.8931,692.4418],[148.3589,-35.8951,695.7425],[148.3623,-35.9028,711.6635],[148.365,-35.9005,714.7842],[148.3674,-35.9014,720.6425],[148.3627,-35.9055,742.9496],[148.3629,-35.9082,780.3369],[148.3594,-35.9105,784.8201],[148.3661,-35.916,774.6704],[148.3577,-35.9216,844.2576],[148.3617,-35.9251,875.8149],[148.362,-35.9304,879.3923],[148.3602,-35.9321,830.8252],[148.3633,-35.9404,851.2341],[148.3616,-35.9436,909.6705],[148.3646,-35.9495,928.701],[148.3606,-35.9495,959.7007],[148.3589,-35.9518,923.5425],[148.3608,-35.9551,953.502],[148.3589,-35.9615,974.3258],[148.3624,-35.9636,1029.7809],[148.3574,-35.966,966.8355],[148.353,-35.9652,975.1042],[148.3497,-35.9674,1013.0167],[148.3525,-35.9688,1051.2675],[148.3514,-35.9714,1066.057],[148.3541,-35.9744,1013.3359],[148.3577,-35.9719,1008.575],[148.3635,-35.9744,1028.9086],[148.3639,-35.9709,1065.4438],[148.3667,-35.9701,1043.072],[148.3672,-35.9724,1057.7347],[148.3655,-35.9744,1047.6315],[148.3687,-35.9768,1079.951],[148.3822,-35.9644,1106.6221],[148.3944,-35.9654,1143.0],[148.3953,-35.9674,1143.0],[148.393,-35.9694,1143.0],[148.4003,-35.9723,1145.396],[148.4036,-35.9714,1165.3875],[148.4103,-35.9654,1143.0],[148.4232,-35.9716,1146.7743],[148.428,-35.9686,1157.0659],[148.4295,-35.971,1148.8186],[148.4326,-35.9714,1155.6648],[148.437,-35.9748,1155.3757],[148.4341,-35.9775,1167.4817],[148.435,-35.9815,1176.897],[148.4401,-35.9822,1168.7598],[148.4413,-35.9839,1189.6888],[148.4369,-35.9864,1167.8718],[148.4424,-35.9905,1176.6183],[148.4398,-35.9944,1199.2906],[148.4478,-36.0002,1205.7909],[148.45,-35.9998,1201.3394],[148.4497,-36.0029,1210.6448],[148.4517,-36.0034,1250.8621],[148.4557,-36.0021,1217.5541],[148.4581,-35.9982,1241.1794],[148.4705,-35.9374,1529.6047],[148.4707,-35.9282,1499.3257],[148.4731,-35.9248,1527.4296],[148.471,-35.9214,1567.0007],[148.4726,-35.9179,1577.7197],[148.4714,-35.915,1582.2075],[148.4628,-35.9077,1595.4915],[148.4556,-35.9056,1593.2812],[148.4465,-35.9057,1518.9576],[148.4446,-35.9027,1501.4679],[148.4383,-35.8989,1517.0378],[148.4406,-35.8918,1505.9857],[148.4402,-35.8873,1509.031],[148.4461,-35.8801,1483.9224],[148.446,-35.8744,1483.3401],[148.4508,-35.87,1521.5366],[148.4497,-35.8685,1497.0743],[148.451,-35.8657,1457.2838],[148.4481,-35.8595,1472.9702],[148.4522,-35.8496,1470.3962],[148.4522,-35.8441,1496.5425],[148.4603,-35.8291,1482.9607],[148.4677,-35.824,1502.9807],[148.4692,-35.8139,1473.7035],[148.4796,-35.7929,1484.6716],[148.4988,-35.7753,1469.8588],[148.499,-35.7731,1461.5632],[148.5127,-35.7764,1477.8431],[148.5208,-35.7708,1442.0156],[148.5214,-35.7662,1454.1218],[148.5169,-35.7596,1429.1072],[148.5165,-35.7562,1388.4393],[148.5313,-35.7201,1339.9105],[148.5475,-35.7135,1324.099],[148.5492,-35.7056,1313.4944],[148.5531,-35.7063,1320.5553],[148.55,-35.6985,1309.0571],[148.5523,-35.694,1309.5063],[148.5517,-35.6925,1308.1072],[148.5541,-35.6909,1320.7567],[148.5553,-35.6934,1316.1852],[148.5574,-35.6895,1327.4854],[148.5624,-35.6919,1317.5156],[148.5673,-35.6876,1317.1703],[148.5595,-35.6844,1322.457],[148.5574,-35.681399999999996,1325.8274],[148.5711,-35.6787,1322.8865],[148.5699,-35.6749,1325.8759],[148.5666,-35.6726,1325.7122],[148.5703,-35.6674,1337.8756],[148.5669,-35.6668,1336.3047],[148.5668,-35.6653,1332.314],[148.5699,-35.6652,1333.4385],[148.5702,-35.6636,1330.7623],[148.5735,-35.662,1331.7719],[148.5764,-35.6642,1330.1421],[148.5808,-35.6605,1331.981],[148.5771,-35.6528,1333.9629],[148.5806,-35.6501,1360.0789],[148.5786,-35.6468,1336.3257],[148.5812,-35.6453,1341.6327],[148.5804,-35.6395,1338.5631],[148.5862,-35.6328,1339.2474],[148.5825,-35.6274,1340.743],[148.58,-35.6266,1347.1066],[148.5807,-35.6206,1344.6725],[148.5905,-35.617,1369.5229],[148.5989,-35.6175,1417.3336],[148.6028,-35.6152,1412.4282],[148.6146,-35.6185,1454.0139],[148.6127,-35.6239,1473.896],[148.6154,-35.6253,1486.3503],[148.6161,-35.6289,1553.7019],[148.6191,-35.6306,1595.3203],[148.6188,-35.6329,1593.3604],[148.6241,-35.6389,1483.3895],[148.6299,-35.6391,1467.4546],[148.6338,-35.6457,1497.9553],[148.6447,-35.6527,1504.4111],[148.6494,-35.6533,1481.087],[148.6642,-35.6598,1487.2682],[148.668,-35.6605,1456.3267],[148.6777,-35.6564,1318.1664],[148.6984,-35.6602,1368.2222],[148.7066,-35.6656,1359.825],[148.72,-35.6674,1341.8551],[148.7308,-35.6767,1262.2925],[148.7358,-35.6781,1283.3313],[148.7409,-35.6842,1417.8926],[148.7449,-35.6862,1454.8989],[148.7478,-35.6847,1492.1748],[148.7528,-35.6868,1486.2314],[148.7578,-35.6995,1559.978],[148.7669,-35.7032,1512.1313],[148.7815,-35.7359,1812.6414],[148.7941,-35.724,1571.4153],[148.7965,-35.7231,1561.8057],[148.8001,-35.7252,1565.2001],[148.8018,-35.7228,1576.1643],[148.804,-35.714,1614.3727],[148.7966,-35.7094,1622.6224],[148.7884,-35.6977,1670.5393],[148.7914,-35.6932,1762.8523],[148.7914,-35.6896,1826.2773],[148.7976,-35.6803,1545.9565],[148.7984,-35.6665,1793.6929],[148.7906,-35.6592,1879.0256],[148.787,-35.6605,1892.6458],[148.7864,-35.6578,1865.0142],[148.7833,-35.6562,1819.3273],[148.7736,-35.6555,1686.1362],[148.7722,-35.6536,1719.5964],[148.7728,-35.6499,1730.444],[148.7699,-35.6497,1726.0317],[148.7675,-35.6473,1739.7305],[148.7714,-35.6457,1688.5765],[148.7708,-35.6399,1683.8796],[148.7804,-35.6329,1544.4623],[148.7835,-35.6283,1620.811],[148.7796,-35.6237,1664.2889],[148.7807,-35.6203,1618.3362],[148.779,-35.6148,1565.6896],[148.7724,-35.6091,1608.5693],[148.7685,-35.6032,1760.6371],[148.7721,-35.6013,1680.9603],[148.7744,-35.5979,1582.0378],[148.7832,-35.5953,1507.2562],[148.7888,-35.5882,1652.783],[148.786,-35.5824,1739.1161],[148.7825,-35.5813,1746.3174],[148.773,-35.5682,1834.4172],[148.7785,-35.5637,1641.0826],[148.7782,-35.5589,1698.8357],[148.7692,-35.5441,1628.9823],[148.7724,-35.5293,1757.423],[148.7681,-35.5244,1648.5028],[148.7663,-35.5104,1684.4426],[148.7686,-35.508,1682.2415],[148.7655,-35.5049,1582.3422],[148.7627,-35.4955,1506.1647],[148.7652,-35.4908,1499.9346],[148.7744,-35.486,1638.1665],[148.7708,-35.48,1468.2527],[148.7706,-35.4756,1420.7157],[148.7669,-35.4711,1469.8964],[148.7671,-35.4654,1481.0701],[148.7729,-35.4624,1461.2223],[148.7759,-35.4547,1383.7427],[148.773,-35.4493,1466.3306],[148.7748,-35.4417,1427.8369],[148.7775,-35.44,1415.7102],[148.7809,-35.4332,1418.5309],[148.7842,-35.4322,1415.0815],[148.7889,-35.4264,1450.8888],[148.7876,-35.423,1434.3351],[148.7901,-35.4155,1265.3933],[148.7863,-35.4127,1243.1511],[148.7858,-35.4087,1315.697],[148.7961,-35.4065,1275.0295],[148.7957,-35.3929,1268.7241],[148.8036,-35.3887,1332.4413],[148.8048,-35.385,1325.2905],[148.8087,-35.3824,1343.537],[148.8087,-35.3806,1342.6741],[148.8053,-35.3788,1309.6846],[148.8041,-35.3761,1278.592],[148.8056,-35.3654,1307.6401],[148.8014,-35.3628,1269.2827],[148.7995,-35.3592,1260.4253],[148.7964,-35.3586,1262.4784],[148.799,-35.3546,1274.7683],[148.7991,-35.3506,1255.8992],[148.7932,-35.3392,1321.4006],[148.8015,-35.3293,1227.8196],[148.8009,-35.3217,1232.4817],[148.8035,-35.3168,1141.9089]]]]}}