{"type": "Feature","bbox": [115.897,-31.9888,115.9875,-31.9204],"geometry": {"type": "MultiPolygon","coordinates": [[[[115.897,-31.9527,4.188],[115.9372,-31.9875,15.3699],[115.9425,-31.9843,16.2792],[115.9735,-31.9868,18.7958],[115.9777,-31.9888,19.7728],[115.9802,-31.9832,21.603],[115.9875,-31.9491,26.3089],[115.9538,-31.9204,1.1552],[115.9503,-31.9234,5.1779],[115.9414,-31.9204,0.7664],[115.939,-31.9289,0.8081],[115.9363,-31.931,1.0729],[115.9173,-31.9329,0.0],[115.9125,-31.9346,0.3595],[115.9096,-31.9366,1.2891],[115.9112,-31.9357,0.2597],[115.9087,-31.9385,0.5615],[115.9092,-31.9404,1.0144],[115.9103,-31.9411,0.4665],[115.9101,-31.9396,0.4665],[115.9153,-31.9447,0.0],[115.919,-31.9442,1.3593],[115.9181,-31.9485,6.7328],[115.9158,-31.9506,10.2336],[115.9045,-31.9539,5.2797],[115.897,-31.9527,4.188]]]]}
,"properties": {"GID_2": "AUS.11.7_1","GID_0": "AUS","country": "Australia","GID_1": "AUS.11_1","state": "WesternAustralia","NL_NAME_1": "NA","county": "Belmont","VARNAME_2": "NA","NL_NAME_2": "NA","TYPE_2": "City","ENGTYPE_2": "City","CC_2": "50490","HASC_2": "AU.WA.BE","name": "Belmont.county","area_km2": 39.84576,"hist_schema_id": "Elevation0-9000","hist_area_km2": {"0": 6.71135,"25": 33.13441}}}