{"type":"Feature","properties":{"GID_2":"AUS.10.67_1","GID_0":"AUS","country":"Australia","GID_1":"AUS.10_1","state":"Victoria","NL_NAME_1":"NA","county":"SwanHill","VARNAME_2":"NA","NL_NAME_2":"NA","TYPE_2":"RuralCity","ENGTYPE_2":"RuralCity","CC_2":"26610","HASC_2":"AU.VI.SH","name":"SwanHill.county"},
"geometry":{"type": "MultiPolygon","coordinates": [[[[142.517,-34.7548,41.6701],[142.5186,-34.8639,59.5107],[142.6354,-34.8641,63.1684],[142.6362,-34.8667,63.4458],[142.6422,-34.8684,60.2018],[142.6442,-34.8727,62.6409],[142.6412,-34.884,60.0257],[142.6509,-34.8867,61.1447],[142.6534,-34.8843,61.2785],[142.6913,-34.8838,68.0859],[142.6974,-34.8869,68.3762],[142.6973,-34.9243,67.5133],[142.6962,-34.9243,67.3654],[142.6962,-34.9298,72.2518],[142.6934,-34.9345,70.923],[142.6962,-34.9393,71.6338],[142.6971,-35.1145,60.3068],[142.743,-35.115,61.4977],[142.7387,-35.1409,64.6922],[142.7365,-35.1445,62.6829],[142.7345,-35.1695,60.4788],[142.7345,-35.1981,62.5183],[142.7484,-35.1994,60.6651],[142.7938,-35.2475,52.4492],[142.8147,-35.2366,45.5767],[142.8148,-35.2324,58.0545],[142.818,-35.2308,58.8978],[142.8212,-35.2347,42.5657],[142.83,-35.235,43.2152],[142.8564,-35.2311,53.8255],[142.8564,-35.2392,48.048],[143.0033,-35.2494,53.7138],[143.0058,-35.3005,55.6353],[143.0098,-35.3027,48.5625],[143.0101,-35.3077,49.4236],[143.0065,-35.3121,47.7402],[143.0104,-35.3738,50.5519],[142.9972,-35.374,63.4703],[142.9973,-35.491,56.9047],[143.1313,-35.4909,62.2857],[143.1307,-35.5015,63.001],[143.1275,-35.5102,62.7844],[143.1236,-35.5148,64.8102],[143.1248,-35.5241,63.3413],[143.1292,-35.5266,64.1164],[143.1319,-35.5306,65.0583],[143.1358,-35.5317,65.549],[143.1338,-35.5395,64.9249],[143.1371,-35.5453,66.3646],[143.1396,-35.5464,66.6915],[143.1518,-35.5443,66.6133],[143.1635,-35.5452,68.6683],[143.1707,-35.5427,68.8424],[143.1753,-35.543,69.8594],[143.1787,-35.5447,69.4146],[143.1846,-35.5448,71.5275],[143.1981,-35.5516,72.7882],[143.2016,-35.5643,75.3244],[143.1986,-35.5716,76.8285],[143.1985,-35.5809,77.0146],[143.1922,-35.586,77.9099],[143.1909,-35.5898,76.6321],[143.1909,-35.6029,80.2207],[143.1872,-35.6074,79.7164],[143.1923,-35.6245,82.2166],[143.1968,-35.6282,82.612],[143.1982,-35.6319,81.7467],[143.1991,-35.6357,82.0601],[143.1969,-35.6408,83.2679],[143.2003,-35.6546,84.0615],[143.2881,-35.6547,84.661],[143.2882,-35.5749,90.8233],[143.3938,-35.5752,85.3485],[143.3963,-35.5724,85.7791],[143.6415,-35.5727,75.1331],[143.6414,-35.5435,73.6353],[143.6388,-35.5434,73.0519],[143.6387,-35.5295,70.5875],[143.7284,-35.5296,72.585],[143.7344,-35.5252,72.2052],[143.7232,-35.5092,71.625],[143.709,-35.4942,71.3411],[143.7497,-35.4944,71.6611],[143.7497,-35.4964,72.451],[143.7607,-35.5002,77.9608],[143.8056,-35.5001,72.717],[143.8057,-35.4921,71.6423],[143.8116,-35.4921,70.8983],[143.8095,-35.4852,71.0318],[143.8105,-35.4834,71.4952],[143.8072,-35.4821,71.02],[143.8087,-35.4799,72.597],[143.808,-35.4751,72.1187],[143.8051,-35.4744,71.8173],[143.8044,-35.4761,72.1262],[143.8036,-35.4732,70.7772],[143.8019,-35.4729,71.7803],[143.8032,-35.4703,71.7423],[143.7961,-35.47,71.8703],[143.7952,-35.4674,71.6228],[143.793,-35.4688,72.1551],[143.7908,-35.4666,73.4351],[143.7943,-35.4618,72.0467],[143.7975,-35.4622,72.0178],[143.8025,-35.46,72.1525],[143.8024,-35.4578,71.6366],[143.7985,-35.4594,73.6624],[143.7961,-35.4551,75.6195],[143.7986,-35.4546,73.4864],[143.8024,-35.4476,72.887],[143.8089,-35.4466,73.8869],[143.8164,-35.4489,73.4357],[143.8125,-35.4444,72.4227],[143.819,-35.4385,78.8845],[143.8086,-35.4333,74.4012],[143.8038,-35.4345,72.3145],[143.8002,-35.4334,75.3747],[143.7969,-35.4297,73.5287],[143.7937,-35.4294,70.9262],[143.7901,-35.4225,70.63],[143.7767,-35.4241,71.2004],[143.772,-35.424,71.2514],[143.7689,-35.4218,72.0989],[143.7628,-35.4231,72.9241],[143.7625,-35.4214,70.5965],[143.766,-35.4159,71.1837],[143.7602,-35.4175,73.446],[143.7589,-35.415,70.1502],[143.7616,-35.4103,70.7702],[143.7688,-35.4079,71.5952],[143.767,-35.4046,74.3868],[143.7687,-35.4016,72.0448],[143.7628,-35.4004,75.4775],[143.7644,-35.3926,71.9672],[143.7624,-35.3921,70.6888],[143.7572,-35.3945,72.6829],[143.7516,-35.3925,71.7294],[143.751,-35.3878,77.631],[143.7459,-35.3887,70.692],[143.7455,-35.3863,68.8923],[143.7442,-35.3906,73.2901],[143.7396,-35.3936,71.3069],[143.735,-35.3929,71.1445],[143.732,-35.3941,72.4592],[143.7304,-35.3905,76.7378],[143.7269,-35.3902,74.2083],[143.715,-35.3929,74.264],[143.7092,-35.3925,71.8756],[143.7092,-35.3886,74.5203],[143.7118,-35.3866,74.7366],[143.7117,-35.3847,76.594],[143.7092,-35.384,71.781],[143.7056,-35.389,74.1528],[143.7034,-35.3894,72.4345],[143.7013,-35.387,70.3342],[143.704,-35.3798,71.0536],[143.7023,-35.3779,70.5215],[143.697,-35.3838,70.8204],[143.6931,-35.3839,71.1759],[143.6929,-35.3779,72.8399],[143.6893,-35.3773,72.5577],[143.6884,-35.3707,72.3251],[143.6841,-35.3684,70.559],[143.6826,-35.3741,74.2898],[143.679,-35.3735,75.1449],[143.6766,-35.3707,70.9208],[143.6679,-35.3716,69.2097],[143.6666,-35.3764,71.9386],[143.6642,-35.3776,72.2475],[143.6668,-35.3791,70.9097],[143.6658,-35.3822,69.5373],[143.6681,-35.3846,70.5834],[143.6677,-35.3862,70.5834],[143.6571,-35.385,71.9277],[143.6558,-35.3907,69.0547],[143.6524,-35.3915,72.9491],[143.6539,-35.3949,69.7121],[143.649,-35.3954,69.033],[143.6469,-35.3991,69.4755],[143.6404,-35.4011,69.6885],[143.6379,-35.3962,71.9603],[143.6325,-35.3963,70.1973],[143.6293,-35.3922,68.8229],[143.6346,-35.3866,69.9447],[143.633,-35.3835,71.9117],[143.6299,-35.3848,70.5569],[143.6263,-35.381,68.4981],[143.6242,-35.3831,67.7522],[143.6247,-35.3879,68.0008],[143.6196,-35.3869,67.7803],[143.619,-35.3821,67.6138],[143.6133,-35.377,68.7684],[143.6165,-35.3722,70.1016],[143.616,-35.3689,70.861],[143.6136,-35.3677,67.4419],[143.6098,-35.37,69.2223],[143.6085,-35.3666,68.8747],[143.603,-35.3654,68.0497],[143.6038,-35.3621,67.4695],[143.5975,-35.3552,69.9444],[143.5988,-35.3526,72.15],[143.5971,-35.3511,68.0337],[143.5903,-35.3503,67.8984],[143.5894,-35.3471,67.0133],[143.5845,-35.346,67.6967],[143.5814,-35.3406,70.3339],[143.5742,-35.3405,70.0914],[143.5735,-35.3372,66.9026],[143.5719,-35.3379,66.9026],[143.5699,-35.343,71.8366],[143.5668,-35.3436,72.2329],[143.5648,-35.3421,66.0123],[143.5618,-35.3372,66.3781],[143.5643,-35.3285,71.002],[143.5617,-35.3245,66.4181],[143.5637,-35.3224,69.1727],[143.5635,-35.3168,66.8837],[143.5665,-35.3139,65.0],[143.5675,-35.3086,67.6958],[143.5725,-35.306,67.0468],[143.569,-35.3024,69.2549],[143.5711,-35.3013,66.3935],[143.5741,-35.3034,69.1359],[143.5779,-35.3032,67.8856],[143.5771,-35.2984,65.5095],[143.5823,-35.2981,68.4175],[143.5797,-35.2956,66.6825],[143.5821,-35.2878,66.7395],[143.5867,-35.2865,68.8396],[143.5867,-35.2846,64.5],[143.5909,-35.2817,69.7773],[143.5903,-35.2804,67.4233],[143.5845,-35.2793,66.2327],[143.5853,-35.2768,67.1829],[143.5877,-35.2769,65.5915],[143.5908,-35.2738,67.1858],[143.5897,-35.2722,66.8026],[143.5824,-35.2728,66.9401],[143.5808,-35.2691,67.801],[143.5835,-35.265,64.0984],[143.5784,-35.2674,67.9207],[143.5751,-35.2654,68.4974],[143.5752,-35.2685,72.3671],[143.5738,-35.2692,65.0561],[143.5717,-35.268,65.2385],[143.571,-35.2655,65.8745],[143.5741,-35.2565,68.9061],[143.5701,-35.2507,65.6217],[143.5699,-35.2464,64.7779],[143.5637,-35.2435,68.0049],[143.5667,-35.2402,65.594],[143.5642,-35.238,68.9329],[143.5645,-35.2361,66.4977],[143.573,-35.2352,66.5697],[143.5781,-35.2317,65.0731],[143.5762,-35.2303,66.6466],[143.5759,-35.2264,64.9347],[143.581,-35.22,65.724],[143.58,-35.2143,70.7758],[143.5708,-35.2069,69.9629],[143.5634,-35.2025,67.5332],[143.547,-35.2062,67.7919],[143.5465,-35.2076,66.3782],[143.5496,-35.2112,66.0862],[143.5483,-35.2138,66.5925],[143.5292,-35.2199,68.7715],[143.5228,-35.2183,64.6245],[143.5183,-35.2116,67.8048],[143.5049,-35.2139,66.3391],[143.5014,-35.2179,64.9454],[143.494,-35.22,67.9832],[143.4841,-35.2184,64.8436],[143.4715,-35.2193,67.4869],[143.4661,-35.2147,68.263],[143.4647,-35.2026,63.6664],[143.4592,-35.2034,65.9113],[143.4582,-35.1988,64.8824],[143.456,-35.1964,65.3438],[143.4502,-35.1939,67.5771],[143.4495,-35.1891,65.1246],[143.4338,-35.1907,63.1847],[143.4339,-35.1935,65.4737],[143.4316,-35.195,64.1326],[143.4285,-35.1937,63.0168],[143.4254,-35.1894,65.9501],[143.4165,-35.1949,71.468],[143.4122,-35.1933,71.5133],[143.4042,-35.1937,76.1442],[143.4005,-35.1899,74.4021],[143.3955,-35.1929,62.3758],[143.391,-35.1887,61.669],[143.3931,-35.1855,62.9692],[143.3878,-35.1854,81.4129],[143.3871,-35.1824,70.8899],[143.3916,-35.1803,63.1893],[143.394,-35.1773,65.387],[143.3899,-35.1711,70.5429],[143.3877,-35.1725,63.4709],[143.3847,-35.1714,62.0091],[143.3843,-35.1741,62.0321],[143.3821,-35.1734,67.1481],[143.3826,-35.1699,62.664],[143.3875,-35.1623,60.0735],[143.3826,-35.1628,60.1469],[143.3834,-35.1608,63.409],[143.3869,-35.1598,62.4591],[143.3822,-35.1564,63.8717],[143.3846,-35.1528,63.6161],[143.3895,-35.1502,64.6849],[143.3911,-35.1472,63.3063],[143.3905,-35.1448,66.3854],[143.3867,-35.1432,66.1354],[143.387,-35.1376,64.7827],[143.3766,-35.129,61.8638],[143.3739,-35.1226,62.5226],[143.3688,-35.1198,65.988],[143.366,-35.1203,67.8872],[143.362,-35.1169,61.7184],[143.3621,-35.1144,63.0824],[143.359,-35.1113,70.1657],[143.3597,-35.109,69.7837],[143.3577,-35.1049,66.9841],[143.3608,-35.103,66.0247],[143.3529,-35.0996,60.7039],[143.3529,-35.103,67.0198],[143.3486,-35.1008,61.302],[143.3501,-35.1044,63.553],[143.3481,-35.1054,62.8615],[143.3444,-35.0995,62.2781],[143.3446,-35.0964,63.2164],[143.3409,-35.0957,62.7383],[143.3459,-35.0938,72.8075],[143.3409,-35.0885,66.9291],[143.345,-35.0868,72.7773],[143.3416,-35.0851,69.6154],[143.3437,-35.0825,61.5025],[143.3374,-35.0804,60.2543],[143.343,-35.0791,65.0124],[143.3428,-35.0767,63.3054],[143.3455,-35.0741,64.7101],[143.339,-35.0704,66.0401],[143.3391,-35.0682,61.8631],[143.3419,-35.0645,64.3216],[143.3468,-35.0658,65.4646],[143.347,-35.0683,64.1416],[143.3497,-35.0699,61.2465],[143.3508,-35.0647,73.6083],[143.342,-35.0587,72.1331],[143.3408,-35.0593,61.8001],[143.3416,-35.0624,64.4286],[143.3377,-35.0613,60.7136],[143.3368,-35.0597,63.5537],[143.3399,-35.055,62.6419],[143.3373,-35.0486,62.1482],[143.3343,-35.0493,61.0017],[143.3342,-35.0545,61.9432],[143.3305,-35.0539,61.6447],[143.3335,-35.0459,60.403],[143.3365,-35.0432,78.8295],[143.3287,-35.0459,61.9948],[143.3278,-35.0442,67.4372],[143.3296,-35.0416,61.8212],[143.3244,-35.042,62.9821],[143.3278,-35.0379,61.6288],[143.3221,-35.0367,61.2096],[143.3277,-35.0339,64.2236],[143.3305,-35.0374,60.923],[143.336,-35.0374,64.9534],[143.3345,-35.0329,62.0962],[143.3352,-35.0294,61.869],[143.3329,-35.0279,66.0043],[143.3349,-35.0263,61.9075],[143.3319,-35.0238,61.3707],[143.3351,-35.0206,63.9672],[143.3333,-35.0182,62.2226],[143.3341,-35.0151,64.3913],[143.3381,-35.0109,61.4066],[143.3358,-35.003,61.2064],[143.3297,-34.9957,61.901],[143.3263,-34.9931,62.3534],[143.3235,-34.9945,60.5166],[143.3188,-34.9929,63.2403],[143.3178,-34.9864,62.9442],[143.3232,-34.9815,60.2179],[143.3237,-34.9791,59.0164],[143.3213,-34.9738,58.8338],[143.323,-34.9702,61.7337],[143.3196,-34.9687,60.4937],[143.3198,-34.956,60.6016],[143.3177,-34.9526,60.5555],[143.3227,-34.9509,58.8532],[143.3199,-34.9477,57.0206],[143.3225,-34.9462,56.1507],[143.322,-34.9423,61.8858],[143.3273,-34.9424,58.703],[143.3295,-34.9399,57.4884],[143.3318,-34.9411,55.1534],[143.3334,-34.9385,58.8586],[143.3366,-34.9448,60.0674],[143.3395,-34.9436,61.2399],[143.3414,-34.9403,58.8717],[143.3375,-34.9402,54.5136],[143.3376,-34.9366,55.2619],[143.3409,-34.9354,59.1146],[143.3428,-34.9325,57.3252],[143.3389,-34.9259,59.781],[143.3419,-34.919,56.6907],[143.3405,-34.9137,56.0668],[143.3362,-34.9134,58.9002],[143.3334,-34.9113,57.5341],[143.332,-34.9075,54.4747],[143.3299,-34.9064,55.0139],[143.3324,-34.9045,59.2447],[143.3262,-34.8982,61.6022],[143.3281,-34.895,54.355],[143.3227,-34.8918,58.054],[143.3214,-34.8885,50.0898],[143.3237,-34.8838,55.8358],[143.3266,-34.8839,55.1918],[143.3273,-34.8823,59.5804],[143.3336,-34.8855,49.4562],[143.3322,-34.8884,51.0529],[143.3357,-34.886,49.2848],[143.3341,-34.8846,49.4562],[143.336,-34.8832,51.3097],[143.3367,-34.8792,62.0359],[143.3389,-34.8814,54.2208],[143.3417,-34.8811,52.347],[143.3429,-34.8788,50.0782],[143.3408,-34.8778,61.2441],[143.3424,-34.8758,51.3272],[143.3373,-34.8748,48.1561],[143.3384,-34.8703,50.7512],[143.3435,-34.8659,56.9177],[143.3486,-34.8648,52.0119],[143.3479,-34.8621,51.1373],[143.3526,-34.8582,47.8021],[143.3474,-34.8561,46.8451],[143.3452,-34.8535,58.3472],[143.3487,-34.8478,47.5929],[143.3552,-34.8474,43.5937],[143.3549,-34.846,54.9329],[143.3474,-34.8464,48.9437],[143.3433,-34.8482,60.5645],[143.3412,-34.8463,61.8434],[143.3515,-34.8385,53.7037],[143.3506,-34.8342,52.9896],[143.3542,-34.8302,51.3955],[143.3516,-34.8232,63.6283],[143.3596,-34.8169,53.1519],[143.357,-34.8121,47.1387],[143.352,-34.8107,43.1416],[143.3476,-34.8073,44.4508],[143.3474,-34.8039,54.3175],[143.3517,-34.7955,41.8554],[143.3479,-34.7916,42.8476],[143.3451,-34.7907,52.9195],[143.333,-34.7932,62.51],[143.3291,-34.7864,43.5201],[143.3217,-34.7909,43.7055],[143.3183,-34.7908,46.867],[143.3134,-34.7875,39.0],[143.3127,-34.7808,53.379],[143.3088,-34.7799,47.9847],[143.297,-34.7854,41.5979],[143.294,-34.7909,46.2729],[143.2875,-34.785,49.9059],[143.2843,-34.7852,46.7323],[143.2869,-34.795,57.6219],[143.2837,-34.7952,59.1565],[143.2767,-34.7923,38.7624],[143.2736,-34.7891,40.1652],[143.2762,-34.7823,48.6703],[143.2718,-34.7796,46.0647],[143.273,-34.7764,51.0044],[143.2627,-34.7736,37.0],[143.262,-34.7771,45.0188],[143.2577,-34.7785,48.3811],[143.2521,-34.7728,46.6192],[143.2543,-34.7666,42.6553],[143.265,-34.764,55.8941],[143.2716,-34.7595,40.9299],[143.2677,-34.756,40.4211],[143.2686,-34.753,37.0],[143.274,-34.7527,41.8139],[143.2653,-34.7486,42.459],[143.2623,-34.7518,46.4037],[143.2489,-34.7579,44.2448],[143.2442,-34.7549,58.0802],[143.2434,-34.7479,40.9842],[143.2407,-34.7455,48.1651],[143.2379,-34.7473,44.0849],[143.2288,-34.7478,41.3942],[143.2274,-34.7507,37.0],[143.2289,-34.7578,39.6712],[143.2244,-34.7587,47.5357],[143.22,-34.7552,42.0144],[143.2191,-34.7526,49.6355],[143.2214,-34.7431,57.1462],[143.2139,-34.7385,42.1829],[143.2149,-34.7354,46.7144],[143.2225,-34.7324,51.1975],[143.2188,-34.7295,38.6496],[143.2136,-34.7302,45.2669],[143.2056,-34.7344,46.7085],[143.2,-34.7334,57.8493],[143.1965,-34.7286,53.8044],[143.1958,-34.7208,46.1207],[143.1992,-34.717,68.7861],[143.1918,-34.7128,47.0233],[143.1793,-34.7173,44.6952],[143.1779,-34.7151,49.5645],[143.1813,-34.7117,41.5033],[143.181,-34.7095,47.3534],[143.1756,-34.7132,37.6746],[143.1732,-34.7197,56.4097],[143.1654,-34.7181,57.5426],[143.1637,-34.7153,48.6575],[143.1659,-34.7075,58.9702],[143.1658,-34.702,60.9064],[143.1617,-34.6979,47.2751],[143.1564,-34.6993,45.1496],[143.1537,-34.7053,52.4935],[143.1479,-34.7088,37.0],[143.1487,-34.7139,44.4343],[143.1474,-34.7148,57.4059],[143.1349,-34.7078,51.9861],[143.1335,-34.7006,56.5795],[143.1258,-34.7011,37.0],[143.1206,-34.7037,48.0949],[143.1178,-34.7031,51.1949],[143.1181,-34.6983,40.4268],[143.1277,-34.6945,37.0],[143.1278,-34.6927,49.2643],[143.1221,-34.6936,45.0703],[143.1098,-34.7016,60.3926],[143.1072,-34.7015,58.8382],[143.1066,-34.6995,57.3301],[143.1116,-34.6871,42.1458],[143.1156,-34.6857,48.0826],[143.1213,-34.6874,37.0],[143.1125,-34.6808,42.5708],[143.111,-34.6812,42.5708],[143.1065,-34.6923,40.6466],[143.0973,-34.6962,41.945],[143.0928,-34.7013,55.3931],[143.0762,-34.696,40.165],[143.0718,-34.6894,39.9499],[143.0708,-34.6784,52.2258],[143.0668,-34.6796,48.0361],[143.0651,-34.689,47.1987],[143.0584,-34.6971,48.6686],[143.0548,-34.6989,43.2657],[143.0509,-34.6993,43.0379],[143.047,-34.6971,55.0597],[143.0438,-34.6921,46.2365],[143.0434,-34.6866,39.2072],[143.0404,-34.6859,39.9528],[143.0377,-34.6885,37.0],[143.0375,-34.6917,39.8605],[143.0444,-34.6993,37.0],[143.0395,-34.7026,44.8438],[143.0294,-34.6919,43.5568],[143.0298,-34.6874,37.0],[143.0325,-34.6829,46.7671],[143.0268,-34.6818,44.2623],[143.0242,-34.6829,45.3487],[143.0218,-34.6929,41.3062],[143.0154,-34.6948,53.1436],[143.0102,-34.6937,45.5565],[143.008,-34.6908,54.5328],[143.008,-34.6859,58.928],[143.0169,-34.6766,40.5911],[143.0173,-34.6737,42.7034],[143.0133,-34.6711,46.166],[143.0011,-34.6697,47.4283],[142.999,-34.6703,47.4422],[142.9965,-34.674,47.4987],[142.9946,-34.6739,42.1893],[142.9893,-34.6626,40.3832],[142.9861,-34.6684,56.7443],[142.9753,-34.6709,40.538],[142.9814,-34.6775,54.5397],[142.9825,-34.6821,43.597],[142.9773,-34.6933,54.0253],[142.9727,-34.6952,52.1335],[142.9678,-34.6919,54.471],[142.963,-34.6758,39.2506],[142.9581,-34.6711,54.1791],[142.9593,-34.665,40.8595],[142.9524,-34.6694,37.7616],[142.9489,-34.6697,57.9961],[142.9452,-34.6665,41.8408],[142.9437,-34.662,40.4199],[142.9352,-34.6608,38.3497],[142.9326,-34.6555,42.8975],[142.9223,-34.6565,51.0333],[142.9212,-34.6545,55.8293],[142.9247,-34.6496,39.9817],[142.9238,-34.6479,45.8265],[142.9183,-34.6506,44.9757],[142.9097,-34.6512,37.0],[142.9015,-34.655,47.2823],[142.9004,-34.6627,44.7463],[142.8933,-34.6657,44.9211],[142.8943,-34.6674,39.129],[142.8994,-34.6688,46.1688],[142.9002,-34.6715,43.7394],[142.8964,-34.6733,45.4602],[142.8914,-34.6718,42.8955],[142.8908,-34.6739,48.644],[142.8939,-34.6768,42.3843],[142.8939,-34.6788,47.5262],[142.8868,-34.6798,49.4813],[142.8852,-34.6772,39.4984],[142.8872,-34.6734,39.4714],[142.8865,-34.6721,44.191],[142.8759,-34.6749,53.3268],[142.8727,-34.6704,42.3503],[142.8721,-34.6641,42.8891],[142.8693,-34.6641,39.6064],[142.8642,-34.6671,45.0583],[142.8605,-34.6652,44.0462],[142.8613,-34.6624,50.1956],[142.8696,-34.6572,49.9896],[142.8719,-34.6503,53.4527],[142.8645,-34.6442,37.4602],[142.8635,-34.6391,38.8037],[142.8602,-34.6396,46.8461],[142.8605,-34.6442,43.679],[142.8588,-34.645,50.8518],[142.8564,-34.643,41.0416],[142.8554,-34.6387,40.4112],[142.8683,-34.6275,39.5573],[142.8611,-34.6281,54.1004],[142.8554,-34.6203,47.0211],[142.8525,-34.6192,40.1903],[142.8476,-34.6201,46.7642],[142.8451,-34.6265,54.0944],[142.8407,-34.6258,42.9614],[142.8382,-34.613,38.2012],[142.8247,-34.6085,55.4689],[142.8252,-34.6019,37.9247],[142.8231,-34.6003,40.7424],[142.8206,-34.6006,38.6769],[142.8185,-34.6031,42.6424],[142.8202,-34.6099,46.3313],[142.8185,-34.6124,45.3453],[142.805,-34.6084,44.6769],[142.803,-34.6062,37.2944],[142.8029,-34.6017,37.0],[142.8097,-34.595,53.5077],[142.8114,-34.5914,37.0],[142.8103,-34.5891,42.2069],[142.8031,-34.5889,40.2659],[142.7996,-34.5975,39.333],[142.7979,-34.5976,39.5442],[142.7953,-34.5971,44.7032],[142.7877,-34.5902,48.7754],[142.7866,-34.5843,37.0],[142.8014,-34.579,46.6202],[142.8001,-34.576,42.5889],[142.7966,-34.574,40.4019],[142.7964,-34.5719,40.1485],[142.8027,-34.5647,37.6763],[142.8101,-34.5609,45.6404],[142.8054,-34.5539,40.0584],[142.7942,-34.5513,48.9981],[142.7914,-34.5464,50.6596],[142.7894,-34.5471,37.0],[142.788,-34.5512,43.8244],[142.7887,-34.5574,41.0817],[142.7827,-34.5616,37.0],[142.7825,-34.5649,48.8245],[142.778,-34.5674,44.2714],[142.7716,-34.566,37.0],[142.77,-34.5689,55.1295],[142.7719,-34.5718,40.7044],[142.7839,-34.5775,55.57],[142.7841,-34.5804,52.8927],[142.7693,-34.5782,50.8718],[142.7585,-34.5798,55.492],[142.7502,-34.5763,57.288],[142.7483,-34.5768,40.079],[142.7453,-34.5842,51.8377],[142.7469,-34.5878,64.878],[142.7501,-34.5891,50.7248],[142.7604,-34.5884,42.9856],[142.7634,-34.5904,51.6246],[142.7635,-34.5967,50.903],[142.7592,-34.6001,65.264],[142.7531,-34.6026,45.796],[142.7432,-34.6028,38.8156],[142.7312,-34.5992,44.1195],[142.7236,-34.5923,39.8386],[142.7198,-34.5939,37.0],[142.7178,-34.5988,39.479],[142.7148,-34.6004,44.6746],[142.7043,-34.5976,37.0],[142.7,-34.5994,40.809],[142.6995,-34.6029,50.1617],[142.704,-34.6135,42.9224],[142.7005,-34.6158,38.7463],[142.6905,-34.6157,39.5775],[142.6895,-34.6183,38.5076],[142.6924,-34.6196,45.1473],[142.7076,-34.618899999999996,52.4469],[142.7088,-34.6227,43.7726],[142.7008,-34.6245,38.8722],[142.6991,-34.6313,44.8027],[142.695,-34.6359,43.7525],[142.6974,-34.641,62.4758],[142.6892,-34.6525,45.9381],[142.6954,-34.66,38.7111],[142.7016,-34.6594,50.2882],[142.7086,-34.6622,53.5161],[142.7109,-34.6679,42.0769],[142.7107,-34.676,40.8555],[142.7082,-34.6791,50.8863],[142.7059,-34.6795,37.8349],[142.6884,-34.6714,50.8094],[142.6841,-34.6709,37.0],[142.6805,-34.6729,38.7357],[142.6789,-34.6808,49.3279],[142.6822,-34.6908,37.9521],[142.6911,-34.7017,37.0],[142.6905,-34.7047,49.5901],[142.6854,-34.7096,49.7205],[142.6845,-34.7141,37.0],[142.6888,-34.7175,38.2598],[142.6977,-34.7207,51.8929],[142.6994,-34.7245,42.2715],[142.6909,-34.7267,48.8361],[142.6818,-34.7218,44.2737],[142.6786,-34.7223,46.0578],[142.6759,-34.7268,37.0],[142.6766,-34.729,37.0],[142.6867,-34.7339,37.4308],[142.6847,-34.7366,41.7704],[142.679,-34.7392,38.8041],[142.6674,-34.7359,41.8085],[142.6642,-34.7303,47.6114],[142.6637,-34.7233,42.9772],[142.6614,-34.7217,43.0726],[142.6522,-34.7295,45.7974],[142.6426,-34.7317,44.5726],[142.6373,-34.735,44.4096],[142.6321,-34.7338,44.388],[142.6235,-34.7275,37.4563],[142.6183,-34.7288,37.733],[142.6163,-34.7364,37.0],[142.6195,-34.7445,52.2743],[142.6192,-34.7542,52.3851],[142.6205,-34.7571,37.4144],[142.6263,-34.7606,39.6129],[142.6396,-34.7575,43.8738],[142.6429,-34.7589,40.1171],[142.6464,-34.7634,49.75],[142.6445,-34.7753,54.9976],[142.6387,-34.7808,40.4246],[142.6303,-34.7846,48.3933],[142.6168,-34.7855,43.0797],[142.6073,-34.7812,37.0],[142.5948,-34.7724,37.0],[142.5858,-34.7704,38.9493],[142.5756,-34.7714,50.6521],[142.5672,-34.7669,40.358],[142.5632,-34.7692,37.7318],[142.5608,-34.7743,37.0],[142.5567,-34.7754,43.4046],[142.5503,-34.7689,42.1515],[142.5501,-34.7627,38.278],[142.5388,-34.7629,49.168],[142.5336,-34.7531,42.1779],[142.5294,-34.7586,38.9241],[142.5263,-34.7598,47.5623],[142.517,-34.7548,41.6701]]]]}}