{"type":"Feature","properties":{"GID_2":"AUS.5.126_1","GID_0":"AUS","country":"Australia","GID_1":"AUS.5_1","state":"NewSouthWales","NL_NAME_1":"NA","county":"TheHills","VARNAME_2":"NA","NL_NAME_2":"NA","TYPE_2":"Shire","ENGTYPE_2":"Shire","CC_2":"17420","HASC_2":"NA","name":"TheHills.county"},
"geometry":{"type": "MultiPolygon","coordinates": [[[[150.959,-33.7683,42.2964],[150.9711,-33.7735,67.5049],[150.9822,-33.7723,84.1987],[150.9988,-33.7681,89.7011],[151.0008,-33.7704,79.6137],[151.0013,-33.7753,75.5623],[150.9975,-33.7805,67.2094],[150.9952,-33.7888,42.9488],[150.9998,-33.7934,17.8001],[151.0078,-33.7881,47.1215],[151.009,-33.7843,54.5767],[151.0105,-33.7848,52.3281],[151.0103,-33.7834,54.5767],[151.0137,-33.7816,58.1789],[151.0145,-33.7851,67.6865],[151.013,-33.7854,67.6865],[151.0161,-33.8007,28.9247],[151.0245,-33.7994,43.3437],[151.0238,-33.8042,22.6398],[151.0268,-33.8043,19.9583],[151.0281,-33.798,39.9497],[151.0263,-33.7963,51.9261],[151.0289,-33.7923,63.7936],[151.0284,-33.7877,85.4668],[151.0436,-33.7847,97.4807],[151.0498,-33.7824,108.6197],[151.0524,-33.7797,128.3415],[151.051,-33.7704,123.4964],[151.0473,-33.7656,129.637],[151.049,-33.7593,128.2441],[151.0477,-33.7533,143.1656],[151.0498,-33.748,163.0483],[151.0483,-33.7449,180.8559],[151.0327,-33.7381,176.0224],[151.0269,-33.7328,188.4989],[151.0168,-33.7307,179.579],[151.019,-33.717,192.9021],[151.0112,-33.7101,181.6013],[151.0113,-33.7064,192.693],[151.0144,-33.7041,198.039],[151.0163,-33.6974,199.7751],[151.0191,-33.6939,208.2654],[151.0241,-33.6959,212.5889],[151.0302,-33.696,214.8527],[151.0324,-33.6923,218.1886],[151.0276,-33.6873,211.3647],[151.0284,-33.6799,218.3702],[151.0253,-33.6722,208.8263],[151.0262,-33.6639,199.8508],[151.0197,-33.6517,192.2454],[151.0224,-33.6432,181.1228],[151.0219,-33.6279,168.6937],[151.0238,-33.6213,172.1066],[151.0193,-33.6146,173.3187],[151.0192,-33.6099,176.061],[151.0076,-33.6012,170.0998],[151.0063,-33.5978,162.3344],[151.007,-33.593,157.7893],[151.0129,-33.5859,161.6593],[151.0113,-33.5819,169.0532],[151.0145,-33.5727,185.513],[151.008,-33.5692,174.7046],[151.0117,-33.5626,197.0028],[151.0088,-33.5547,188.3115],[151.0133,-33.5489,207.4133],[151.0101,-33.5443,182.5179],[151.0136,-33.5384,199.6258],[151.0111,-33.532,203.3767],[151.0243,-33.5237,205.7532],[151.0291,-33.517,218.7603],[151.0229,-33.5059,215.8646],[151.0233,-33.5002,187.2134],[151.0212,-33.4922,217.2272],[151.0159,-33.4905,200.0054],[151.0102,-33.4835,184.4422],[151.0104,-33.4722,191.9289],[151.0051,-33.4661,201.704],[151.0014,-33.4538,189.7065],[150.9924,-33.4449,208.5103],[150.9921,-33.4329,232.3173],[150.9906,-33.429,225.135],[150.9879,-33.4263,200.5218],[150.9743,-33.4234,207.3661],[150.972,-33.4214,210.0775],[150.9733,-33.4167,179.5923],[150.9797,-33.4123,174.7572],[150.979,-33.4094,186.3663],[150.9857,-33.4017,159.0312],[150.9865,-33.3977,141.6793],[150.985,-33.395,146.792],[150.9866,-33.391,70.8447],[150.9855,-33.3876,51.7546],[150.984,-33.3879,51.7546],[150.9889,-33.3823,5.1822],[150.9888,-33.3795,0.0],[150.987,-33.3781,1.8882],[150.9838,-33.3785,0.0],[150.9797,-33.3947,0.0],[150.9767,-33.4002,0.0],[150.9611,-33.4123,0.0],[150.9517,-33.4138,0.0],[150.9511,-33.4168,0.0],[150.9534,-33.4252,0.0],[150.9516,-33.4275,0.0],[150.9492,-33.4281,13.0973],[150.9437,-33.4249,0.0],[150.9398,-33.4139,0.0],[150.9343,-33.4165,0.0],[150.9313,-33.4285,3.43],[150.9277,-33.432,1.1763],[150.9233,-33.4317,0.5],[150.9215,-33.4291,6.0621],[150.9245,-33.4183,0.5],[150.9036,-33.4195,9.8149],[150.898,-33.4232,1.172],[150.8938,-33.4272,0.5],[150.8933,-33.4303,0.5],[150.8992,-33.4344,0.5],[150.8982,-33.4359,0.5],[150.8963,-33.4375,0.5],[150.8909,-33.4361,0.5],[150.8874,-33.4372,1.601],[150.8854,-33.4463,5.3408],[150.8755,-33.4527,6.1892],[150.879,-33.4557,2.0714],[150.8846,-33.4565,22.8765],[150.8983,-33.4517,0.5],[150.9048,-33.4668,0.5],[150.9048,-33.472,20.4168],[150.8961,-33.4747,22.7826],[150.8766,-33.4708,4.5869],[150.8711,-33.4731,3.4685],[150.8708,-33.475,2.1416],[150.8774,-33.4818,3.5681],[150.879,-33.4866,28.9294],[150.8787,-33.4901,2.4765],[150.8697,-33.4977,0.5],[150.8717,-33.5012,5.0361],[150.8746,-33.5014,0.5],[150.8902,-33.4861,5.3305],[150.8935,-33.4847,5.5615],[150.9009,-33.4894,1.0],[150.9103,-33.5,3.4228],[150.9254,-33.502,3.0574],[150.9277,-33.5049,3.0916],[150.9247,-33.5113,26.2966],[150.9193,-33.5168,1.0],[150.9127,-33.5165,4.946],[150.9053,-33.5106,1.6501],[150.8985,-33.5124,1.0],[150.8996,-33.5154,2.5289],[150.9078,-33.5226,17.5521],[150.9005,-33.5269,1.0],[150.8958,-33.5355,18.3587],[150.8894,-33.5406,7.1597],[150.8931,-33.5486,3.9875],[150.892,-33.5524,1.0],[150.8891,-33.5553,1.0],[150.8898,-33.5616,4.2651],[150.8934,-33.561,5.7546],[150.896,-33.5553,5.8667],[150.8997,-33.5561,12.6708],[150.9036,-33.5544,4.2219],[150.9086,-33.5576,6.2651],[150.9163,-33.5544,6.5522],[150.9205,-33.5573,4.5537],[150.922,-33.5611,14.5695],[150.9268,-33.5585,12.5611],[150.9289,-33.5614,18.8108],[150.9324,-33.5596,9.4272],[150.9337,-33.5634,10.704],[150.9358,-33.5647,18.8409],[150.874,-33.6568,27.103],[150.8772,-33.6598,27.2981],[150.8931,-33.6622,38.952],[150.8994,-33.6659,38.7365],[150.9134,-33.6789,46.4615],[150.9265,-33.6954,55.3659],[150.9572,-33.7613,72.8955],[150.959,-33.7683,42.2964]]]]}}