{"type": "Feature","bbox": [148.1489,-21.771,149.9364,-20.3928],"geometry": {"type": "MultiPolygon","coordinates": [[[[149.5031,-21.602,0.0],[149.5015,-21.6025,0.0],[149.503,-21.6046,1.0294],[149.5039,-21.6027,0.0],[149.5031,-21.602,0.0]]],
[[[149.4977,-21.5974,0.0],[149.4958,-21.5982,0.0],[149.49,-21.5949,0.2153],[149.4854,-21.5974,0.0],[149.4892,-21.6032,11.0319],[149.4933,-21.605,12.5226],[149.4963,-21.6037,1.6098],[149.4986,-21.5989,0.3988],[149.4977,-21.5974,0.0]]],
[[[149.7146,-21.4413,0.0],[149.7136,-21.4389,0.1464],[149.7106,-21.4388,2.5188],[149.7077,-21.4478,0.4735],[149.7111,-21.4523,0.5896],[149.7109,-21.4545,1.3828],[149.7183,-21.4588,3.4895],[149.7171,-21.4538,6.297],[149.7195,-21.4523,0.5581],[149.7167,-21.4517,15.7263],[149.7156,-21.4491,17.6722],[149.7184,-21.4464,0.0],[149.7146,-21.4413,0.0]]],
[[[149.495,-21.4217,0.0],[149.4944,-21.4214,0.0],[149.4937,-21.4222,4.0435],[149.4946,-21.4225,0.0],[149.495,-21.4217,0.0]]],
[[[149.4019,-21.4891,0.0],[149.4002,-21.4884,5.7354],[149.3993,-21.4907,9.1066],[149.4014,-21.4903,18.6745],[149.4019,-21.4891,0.0]]],
[[[149.3917,-21.4731,0.0],[149.3906,-21.4731,10.2761],[149.3899,-21.4738,10.2761],[149.3916,-21.4742,0.0],[149.3917,-21.4731,0.0]]],
[[[149.4567,-21.4563,2.6337],[149.4615,-21.4574,0.0],[149.4606,-21.4524,0.0],[149.4575,-21.4535,24.2189],[149.4567,-21.4563,2.6337]]],
[[[149.3222,-21.3239,6.1666],[149.3232,-21.324,6.1666],[149.324,-21.3224,10.8222],[149.3225,-21.3225,5.584],[149.3222,-21.3239,6.1666]]],
[[[149.6574,-21.3727,0.2339],[149.6599,-21.3714,0.0],[149.6602,-21.3705,2.7926],[149.6566,-21.3707,2.2624],[149.6574,-21.3727,0.2339]]],
[[[149.6812,-21.3084,9.7219],[149.6753,-21.3081,2.6968],[149.6741,-21.3059,23.465699999999998],[149.6758,-21.3021,22.3017],[149.6723,-21.3003,22.3767],[149.6679,-21.3016,2.0397],[149.6644,-21.3072,0.5326],[149.6681,-21.3137,2.6274],[149.6708,-21.3129,33.0178],[149.6742,-21.3146,10.0785],[149.6791,-21.3233,13.3021],[149.6822,-21.3249,22.9102],[149.6868,-21.3322,6.2557],[149.6888,-21.3283,7.7453],[149.6928,-21.3291,28.273],[149.6954,-21.325,3.3335],[149.6932,-21.3194,66.9573],[149.6946,-21.3139,0.0],[149.6812,-21.3084,9.7219]]],
[[[149.9317,-21.1019,0.0],[149.9334,-21.1044,29.2305],[149.9364,-21.1026,21.5653],[149.9338,-21.1014,28.8869],[149.9317,-21.1019,0.0]]],
[[[149.5452,-21.0286,0.0],[149.5454,-21.0305,0.0],[149.5483,-21.0315,2.7663],[149.5464,-21.0286,0.0],[149.5452,-21.0286,0.0]]],
[[[149.3041,-21.2925,0.0],[149.3032,-21.2921,0.0],[149.3026,-21.2931,4.9118],[149.3035,-21.2934,0.0],[149.3041,-21.2925,0.0]]],
[[[149.2673,-21.175,6.9677],[149.2684,-21.1744,0.5443],[149.2659,-21.1702,0.0],[149.263,-21.1744,0.0],[149.2658,-21.1764,0.0],[149.2673,-21.175,6.9677]]],
[[[149.2464,-21.161,17.1051],[149.2442,-21.1634,6.0261],[149.2479,-21.1632,0.0],[149.2491,-21.1585,0.0],[149.2471,-21.1595,0.0],[149.2464,-21.161,17.1051]]],
[[[149.245,-21.0962,0.0],[149.2447,-21.096,0.0],[149.2441,-21.0962,0.0],[149.2455,-21.0963,0.0],[149.245,-21.0962,0.0]]],
[[[149.9113,-21.0186,38.821],[149.9094,-21.0117,100.0501],[149.9038,-21.0029,0.0],[149.8942,-21.0048,0.0],[149.8941,-21.009,0.0],[149.8991,-21.013,0.0],[149.8974,-21.0172,6.6312],[149.8947,-21.0176,0.0],[149.8976,-21.0209,0.9995],[149.9004,-21.0162,4.439],[149.906,-21.0194,2.8497],[149.9113,-21.0186,38.821]]],
[[[149.7787,-20.988,0.0],[149.7916,-20.9886,4.5537],[149.7883,-20.9859,18.9736],[149.783,-20.9855,99.0973],[149.7802,-20.9834,2.4787],[149.7717,-20.9855,0.0],[149.7755,-20.9886,0.0],[149.7787,-20.988,0.0]]],
[[[149.7337,-20.9478,0.0],[149.7344,-20.9464,0.0],[149.7343,-20.945,0.0],[149.7327,-20.9474,0.0],[149.7337,-20.9478,0.0]]],
[[[149.4751,-20.927,0.0],[149.4737,-20.9298,0.0],[149.476,-20.9305,0.0],[149.4758,-20.9275,0.0],[149.4751,-20.927,0.0]]],
[[[149.4643,-20.9288,0.0],[149.4664,-20.9372,0.0],[149.4675,-20.9372,3.9153],[149.4691,-20.9356,32.8751],[149.4696,-20.9282,1.6525],[149.4647,-20.9258,0.0],[149.4643,-20.9288,0.0]]],
[[[149.4482,-20.9034,6.2275],[149.4459,-20.903199999999998,0.0],[149.4447,-20.9075,2.6808],[149.4423,-20.9071,28.6465],[149.4392,-20.9027,0.0],[149.4351,-20.9069,3.4804],[149.432,-20.9072,13.2215],[149.4303,-20.9056,0.0],[149.4245,-20.9077,0.0],[149.4261,-20.9147,0.0],[149.4311,-20.9163,9.1532],[149.4298,-20.9218,0.0],[149.4273,-20.9235,0.0],[149.4276,-20.9267,0.0],[149.4291,-20.9277,12.1459],[149.4339,-20.9265,7.4917],[149.4351,-20.9279,11.5227],[149.4343,-20.9304,0.0],[149.4274,-20.9351,11.9185],[149.4254,-20.9347,0.0],[149.4249,-20.9378,0.0],[149.4225,-20.9392,4.8036],[149.4265,-20.9455,18.5958],[149.4283,-20.9449,21.9619],[149.4289,-20.9408,66.6685],[149.4325,-20.9391,7.2882],[149.4326,-20.9371,13.4938],[149.4383,-20.9376,44.9626],[149.4391,-20.9407,2.4892],[149.4419,-20.9413,26.9484],[149.447,-20.9349,28.5805],[149.4452,-20.9329,49.1364],[149.447,-20.9301,17.1161],[149.4513,-20.9343,13.3665],[149.4528,-20.9295,80.2643],[149.4552,-20.9289,16.8082],[149.4594,-20.9211,8.3929],[149.4586,-20.9192,41.2981],[149.4607,-20.915,46.4097],[149.457,-20.9143,2.5715],[149.4561,-20.9103,14.2128],[149.4535,-20.9105,5.6905],[149.4526,-20.9058,9.0788],[149.4482,-20.9034,6.2275]]],
[[[149.417,-20.9151,29.6408],[149.4138,-20.9091,0.0],[149.4155,-20.9058,23.7151],[149.4146,-20.9018,26.9282],[149.4165,-20.8994,0.0],[149.4142,-20.8969,0.2738],[149.4122,-20.8974,0.0],[149.4097,-20.9019,0.8922],[149.4078,-20.9019,2.0487],[149.4036,-20.8975,0.0],[149.3981,-20.9015,6.0371],[149.39,-20.9019,0.0],[149.3859,-20.9041,0.0],[149.3851,-20.9097,2.643],[149.3875,-20.9081,16.8061],[149.3878,-20.9058,53.6084],[149.3911,-20.9045,60.1878],[149.3914,-20.9082,3.6637],[149.3949,-20.9103,0.0],[149.3937,-20.9183,0.0],[149.3956,-20.9182,2.0535],[149.3956,-20.9156,18.6474],[149.4001,-20.9148,11.3067],[149.4003,-20.9164,0.0],[149.403,-20.9171,4.9451],[149.4055,-20.9242,0.0],[149.409,-20.9226,56.1784],[149.4084,-20.9185,36.8069],[149.4098,-20.918,3.254],[149.4151,-20.9192,6.8373],[149.4146,-20.9235,7.756],[149.4175,-20.9271,4.1954],[149.4223,-20.9247,1.8944],[149.422,-20.9183,0.0],[149.417,-20.9151,29.6408]]],
[[[149.2843,-20.8109,0.0],[149.2805,-20.8053,6.6376],[149.2819,-20.8028,0.0],[149.2744,-20.7964,0.0],[149.2603,-20.7977,0.0],[149.2554,-20.8007,0.0],[149.2533,-20.805,0.0],[149.2493,-20.8059,0.0],[149.2572,-20.8047,25.5255],[149.2631,-20.808,12.8756],[149.2621,-20.8055,37.2056],[149.2683,-20.8101,30.3068],[149.2648,-20.8186,0.0],[149.2649,-20.8233,0.0],[149.2684,-20.8187,6.9136],[149.2718,-20.8176,68.6248],[149.2724,-20.8125,58.798],[149.2751,-20.8118,155.2243],[149.2775,-20.8146,20.021],[149.2779,-20.8113,109.3342],[149.2798,-20.8104,77.3231],[149.2833,-20.8127,2.9692],[149.2833,-20.8169,0.0],[149.2861,-20.8203,55.6628],[149.2892,-20.8159,5.7704],[149.29,-20.81,0.0],[149.2843,-20.8109,0.0]]],
[[[149.6214,-20.8779,161.8375],[149.6219,-20.8743,97.764],[149.6261,-20.8687,16.884],[149.6238,-20.8625,0.0],[149.6237,-20.857,0.0],[149.6035,-20.8465,1.2691],[149.6018,-20.8538,11.7058],[149.6062,-20.8621,0.5828],[149.6057,-20.865,0.0],[149.6006,-20.8686,1.7756],[149.5954,-20.8639,0.0],[149.5915,-20.8672,0.0],[149.5894,-20.8665,6.7713],[149.5886,-20.8626,0.0],[149.5847,-20.8612,0.0],[149.5781,-20.8692,0.0],[149.5802,-20.8735,0.0],[149.5863,-20.8756,22.915],[149.5967,-20.8852,21.1403],[149.6045,-20.8827,86.0133],[149.6064,-20.8794,85.4223],[149.6166,-20.8845,52.7518],[149.6169,-20.88,60.6579],[149.6214,-20.8779,161.8375]]],
[[[149.6197,-20.7739,61.2017],[149.6264,-20.7734,3.1538],[149.6255,-20.7681,5.076],[149.6225,-20.7678,57.7114],[149.6227,-20.7608,0.0],[149.6181,-20.7674,4.2755],[149.6124,-20.7717,0.0],[149.6129,-20.7781,0.0],[149.6176,-20.7791,1.7194],[149.6197,-20.7739,61.2017]]],
[[[149.4797,-20.7466,11.0888],[149.4813,-20.7452,21.4068],[149.4808,-20.743,14.755],[149.4831,-20.7432,3.9749],[149.4837,-20.741,2.6273],[149.4789,-20.7395,21.0376],[149.4737,-20.7335,12.0866],[149.4682,-20.7311,0.0],[149.4663,-20.7267,0.0],[149.4657,-20.735,0.0],[149.4726,-20.7418,4.5172],[149.4723,-20.7472,0.0],[149.4797,-20.7466,11.0888]]],
[[[149.2665,-20.792,0.0],[149.2666,-20.7929,0.0],[149.2672,-20.7932,0.0],[149.2673,-20.7921,0.0],[149.2665,-20.792,0.0]]],
[[[149.3,-20.7997,8.6747],[149.3014,-20.7979,35.3553],[149.3002,-20.7874,0.0],[149.2993,-20.7861,0.0],[149.2971,-20.788,0.0],[149.2942,-20.7869,169.2454],[149.2943,-20.7781,7.3346],[149.2912,-20.7745,0.0],[149.2849,-20.7717,0.0],[149.2816,-20.7718,0.0],[149.2737,-20.7784,0.0],[149.2766,-20.7934,26.0338],[149.2838,-20.7978,59.7133],[149.2872,-20.7971,115.4214],[149.2888,-20.7942,177.8159],[149.2955,-20.7934,8.7524],[149.3,-20.7997,8.6747]]],
[[[149.4115,-20.7745,8.8576],[149.4123,-20.7729,0.0],[149.4082,-20.7711,0.0],[149.4062,-20.7675,0.0],[149.3988,-20.7664,15.6818],[149.3901,-20.7693,0.0],[149.3903,-20.7739,1.6553],[149.3946,-20.7745,31.5825],[149.3978,-20.7792,25.0721],[149.4007,-20.7788,5.487],[149.3996,-20.7768,12.4272],[149.4025,-20.7749,45.5673],[149.4089,-20.7736,28.813],[149.4115,-20.7745,8.8576]]],
[[[149.2703,-20.7567,0.0],[149.2703,-20.7556,0.0],[149.2701,-20.7553,0.0],[149.2693,-20.757,0.0],[149.2703,-20.7567,0.0]]],
[[[149.1485,-20.9763,0.0],[149.1472,-20.9807,0.0],[149.1483,-20.9835,0.0],[149.1506,-20.982,19.8594],[149.152,-20.9775,0.4994],[149.1485,-20.9763,0.0]]],
[[[149.1635,-20.7507,4.6277],[149.1618,-20.7491,0.0],[149.1586,-20.7495,0.0],[149.1618,-20.7546,5.3829],[149.1635,-20.7507,4.6277]]],
[[[149.1406,-20.7093,0.0],[149.1371,-20.7122,0.0],[149.1373,-20.7145,13.4191],[149.1386,-20.7146,6.6024],[149.1406,-20.7093,0.0]]],
[[[149.1422,-20.6985,0.0],[149.1394,-20.703,0.0],[149.144,-20.7032,24.1385],[149.146,-20.7017,3.985],[149.1434,-20.7011,2.8367],[149.1422,-20.6985,0.0]]],
[[[149.2328,-20.7318,0.0],[149.2316,-20.7306,0.0],[149.231,-20.7309,0.0],[149.2318,-20.7325,0.0],[149.2328,-20.7318,0.0]]],
[[[149.2089,-20.7001,2.7491],[149.2077,-20.699,0.0],[149.2068,-20.6993,0.0],[149.2078,-20.7008,0.0],[149.2089,-20.7001,2.7491]]],
[[[149.2068,-20.6949,40.0172],[149.2085,-20.6945,36.4569],[149.2091,-20.6906,0.0],[149.2043,-20.6909,0.0],[149.2,-20.6855,0.0],[149.1973,-20.6898,0.0],[149.1994,-20.6963,0.0],[149.2013,-20.6963,12.1968],[149.2035,-20.6988,0.0],[149.2052,-20.6985,17.7147],[149.2045,-20.695,22.187],[149.2068,-20.6949,40.0172]]],
[[[149.0966,-20.6811,0.0],[149.0974,-20.6815,2.8222],[149.0972,-20.6794,0.0],[149.0968,-20.6796,0.0],[149.0966,-20.6811,0.0]]],
[[[149.1632,-20.6716,0.0],[149.1626,-20.6641,0.0],[149.1577,-20.6644,0.0],[149.1548,-20.6622,0.0],[149.1511,-20.6629,0.0],[149.1537,-20.6671,68.1405],[149.1535,-20.6709,17.5002],[149.1522,-20.6728,0.0],[149.1461,-20.673,3.7148],[149.1451,-20.675,22.9489],[149.1488,-20.6784,15.8265],[149.1488,-20.6814,9.0879],[149.1463,-20.683,16.0774],[149.1462,-20.6846,4.6663],[149.1483,-20.6849,10.7659],[149.1453,-20.6883,5.2592],[149.1422,-20.688,0.0],[149.1397,-20.684,0.0],[149.1361,-20.686,0.0],[149.1399,-20.6904,3.8087],[149.1385,-20.6947,10.0275],[149.1431,-20.6929,98.318],[149.1458,-20.6938,21.0627],[149.1499,-20.6911,41.1895],[149.1502,-20.6871,44.9262],[149.1581,-20.6833,8.4882],[149.1555,-20.6771,1.9361],[149.1564,-20.6744,49.3175],[149.1611,-20.68,57.7949],[149.1667,-20.6833,13.9507],[149.166,-20.674,0.0],[149.1632,-20.6716,0.0]]],
[[[149.1904,-20.6736,40.9985],[149.1927,-20.6746,9.2281],[149.1939,-20.6716,0.0],[149.1816,-20.6662,0.0],[149.1725,-20.6723,0.0],[149.174,-20.6743,9.3315],[149.1779,-20.6745,79.3788],[149.177,-20.6769,0.0],[149.183,-20.6796,10.3608],[149.1823,-20.6835,0.0],[149.1848,-20.6873,0.0],[149.1871,-20.6872,66.9905],[149.1883,-20.6892,43.4852],[149.1902,-20.6848,4.6781],[149.1856,-20.681,4.5067],[149.1872,-20.6749,49.3819],[149.1904,-20.6736,40.9985]]],
[[[149.1412,-20.6729,0.0],[149.1385,-20.6735,12.02],[149.1393,-20.677,12.1838],[149.1406,-20.6761,20.1131],[149.1412,-20.6729,0.0]]],
[[[149.1545,-20.652,0.0],[149.1528,-20.6495,0.0],[149.1512,-20.6501,1.1718],[149.1516,-20.6526,44.5623],[149.1531,-20.6533,25.2345],[149.1545,-20.652,0.0]]],
[[[149.1867,-20.6003,6.9498],[149.187,-20.5995,0.0],[149.1846,-20.5986,0.0],[149.1846,-20.5992,0.0],[149.1867,-20.6003,6.9498]]],
[[[149.113,-20.5916,20.4412],[149.1121,-20.5828,0.0],[149.1095,-20.5819,0.0],[149.1094,-20.5893,31.2721],[149.113,-20.5916,20.4412]]],
[[[149.4173,-21.6283,42.6023],[149.4405,-21.631,9.3435],[149.4471,-21.6124,11.3752],[149.4535,-21.6029,13.8342],[149.4614,-21.5971,14.2191],[149.4685,-21.5942,17.6065],[149.4733,-21.5893,15.0678],[149.4728,-21.5819,13.3029],[149.4754,-21.574,16.9553],[149.4807,-21.5701,13.627],[149.4844,-21.5719,8.7932],[149.4862,-21.5707,0.0],[149.4857,-21.5629,8.6668],[149.4879,-21.5513,0.0],[149.4864,-21.5477,0.0],[149.4874,-21.542,0.5526],[149.4846,-21.5317,0.0],[149.4828,-21.5312,0.0],[149.4771,-21.5347,0.5238],[149.4701,-21.5333,0.47],[149.4682,-21.5349,3.2015],[149.4681,-21.5387,5.97],[149.4652,-21.5406,0.0],[149.4649,-21.5461,0.0],[149.4577,-21.5531,3.3911],[149.468,-21.5556,3.8955],[149.4724,-21.5596,3.9796],[149.4636,-21.5551,2.712],[149.4574,-21.5558,1.1787],[149.4577,-21.5586,4.542],[149.465,-21.5612,3.8459],[149.458,-21.5601,2.5394],[149.4533,-21.5627,0.0],[149.4561,-21.5694,3.5403],[149.4524,-21.5652,1.5049],[149.4502,-21.5713,4.3123],[149.4533,-21.5817,1.6046],[149.4426,-21.5899,4.4749],[149.4434,-21.5934,5.3303],[149.4411,-21.5904,3.4812],[149.4498,-21.5832,3.8319],[149.4509,-21.5799,0.0],[149.4497,-21.5782,0.0],[149.4473,-21.577,0.0],[149.447,-21.5801,1.6375],[149.4397,-21.58,1.8366],[149.4323,-21.5843,4.3396],[149.4369,-21.5799,2.7902],[149.429,-21.5746,3.967],[149.422,-21.5751,4.2984],[149.4241,-21.5734,4.2704],[149.4274,-21.5733,4.2968],[149.4373,-21.5787,4.0295],[149.4442,-21.5776,0.9061],[149.4419,-21.567,0.0],[149.4361,-21.5599,3.4722],[149.4399,-21.5589,2.0531],[149.4378,-21.5538,0.0],[149.4157,-21.5496,5.5443],[149.4151,-21.5481,4.2426],[149.4276,-21.5495,0.0],[149.4226,-21.5469,0.0],[149.4142,-21.5463,1.0904],[149.4121,-21.5485,2.967],[149.4088,-21.5475,0.0],[149.401,-21.5498,0.9209],[149.4019,-21.5546,4.5781],[149.3997,-21.5574,5.6076],[149.4004,-21.559,7.0083],[149.4087,-21.5587,5.0578],[149.4004,-21.5604,4.0478],[149.3985,-21.5585,4.9582],[149.3986,-21.5527,0.0],[149.3951,-21.5495,3.444],[149.3928,-21.55,2.7318],[149.3946,-21.5478,3.409],[149.3978,-21.5483,4.7548],[149.4004,-21.5451,7.0592],[149.399,-21.5406,1.0965],[149.3944,-21.5381,3.5379],[149.3892,-21.5401,4.0355],[149.3855,-21.538,2.024],[149.385,-21.5417,3.1566],[149.3834,-21.5394,0.9029],[149.3814,-21.5398,3.6516],[149.3815,-21.5374,1.5192],[149.3795,-21.5353,0.0],[149.376,-21.534,3.585],[149.3736,-21.5351,4.2354],[149.374,-21.5336,3.7108],[149.38,-21.531,6.3102],[149.384,-21.5214,5.4225],[149.3828,-21.5183,14.9289],[149.3849,-21.5128,2.5228],[149.3846,-21.5073,5.2947],[149.3901,-21.506,2.6264],[149.3916,-21.4994,14.9369],[149.3965,-21.4943,0.0],[149.3958,-21.4931,0.0],[149.3728,-21.4977,0.0],[149.3699,-21.5008,0.0],[149.3616,-21.504,0.0],[149.3557,-21.503,1.7358],[149.3546,-21.5056,11.0],[149.3504,-21.5073,3.6353],[149.3501,-21.5094,4.7962],[149.3487,-21.5069,4.961],[149.3532,-21.5039,1.9788],[149.3571,-21.4962,0.0],[149.3547,-21.4924,0.0],[149.3551,-21.49,0.0],[149.3469,-21.4833,0.0],[149.345,-21.4767,0.0],[149.3396,-21.4746,11.3909],[149.3378,-21.4755,11.3909],[149.3379,-21.4807,3.0],[149.3347,-21.4865,0.6807],[149.3192,-21.4906,0.0],[149.3164,-21.4944,0.5892],[149.3092,-21.4967,0.8243],[149.3109,-21.4983,3.5062],[149.3226,-21.5004,5.2382],[149.3269,-21.5051,3.4298],[149.3222,-21.5013,2.6583],[149.3149,-21.4998,2.9757],[149.3019,-21.5006,0.0],[149.3002,-21.5038,0.0],[149.3005,-21.5111,0.0],[149.2972,-21.5113,4.8849],[149.2943,-21.5057,0.0],[149.2904,-21.5038,0.0],[149.2908,-21.4959,0.0],[149.2867,-21.4872,0.0],[149.2743,-21.4777,1.0189],[149.2776,-21.4734,3.7281],[149.2837,-21.4763,0.0],[149.2898,-21.4755,8.4448],[149.2984,-21.4708,1.042],[149.2982,-21.4687,0.0],[149.2949,-21.4663,0.0],[149.2914,-21.467,1.3517],[149.2891,-21.4631,0.0],[149.2901,-21.4593,5.8203],[149.2926,-21.4583,0.0],[149.2931,-21.4413,0.0],[149.2983,-21.4264,5.9517],[149.3095,-21.4273,15.0656],[149.3163,-21.4256,5.4469],[149.3148,-21.4229,8.6616],[149.3171,-21.4201,0.0],[149.322,-21.4183,8.4572],[149.3248,-21.4196,7.5801],[149.3264,-21.4234,19.425],[149.331,-21.4276,25.8239],[149.334,-21.4288,30.0288],[149.3355,-21.4324,5.5092],[149.3382,-21.4269,0.0],[149.3313,-21.4103,1.5301],[149.3286,-21.4105,11.1425],[149.3261,-21.4151,18.5421],[149.3153,-21.4105,0.0],[149.3023,-21.4116,0.0],[149.2977,-21.4157,0.0],[149.2954,-21.4157,0.0],[149.2822,-21.4096,0.0],[149.2839,-21.4069,4.5885],[149.2906,-21.4044,0.0],[149.2889,-21.4017,0.0],[149.2861,-21.4003,0.0],[149.2843,-21.4029,5.5228],[149.2809,-21.4008,0.0],[149.2777,-21.402,0.6257],[149.2764,-21.4007,0.0],[149.2766,-21.3987,2.9384],[149.282,-21.3969,5.1213],[149.2832,-21.3947,0.0],[149.2762,-21.3891,4.3833],[149.2823,-21.3904,2.3361],[149.2887,-21.3894,5.1542],[149.2919,-21.3921,5.8842],[149.2928,-21.3957,28.6778],[149.3022,-21.4,3.9148],[149.3064,-21.3914,1.9017],[149.3102,-21.3906,11.8272],[149.3116,-21.3917,5.3806],[149.3122,-21.3966,0.0],[149.3173,-21.3927,0.0],[149.315,-21.3906,0.0],[149.315,-21.3879,0.0],[149.3186,-21.3696,0.0],[149.3118,-21.3742,0.0],[149.3086,-21.3647,8.5079],[149.3107,-21.3579,27.6154],[149.3135,-21.3592,8.144],[149.3155,-21.3582,0.7795],[149.3151,-21.3545,0.0],[149.3106,-21.3527,0.0],[149.3098,-21.3495,0.0],[149.3058,-21.3456,0.8053],[149.3021,-21.3451,3.0609],[149.2972,-21.340699999999998,0.0],[149.2985,-21.3365,4.1479],[149.3015,-21.3351,0.0],[149.297,-21.3244,0.0],[149.2912,-21.318,0.0],[149.2954,-21.3172,0.0],[149.2955,-21.2855,0.0],[149.2987,-21.2733,0.2371],[149.294,-21.2715,5.9849],[149.2845,-21.2803,7.2778],[149.274,-21.2776,0.0],[149.2658,-21.2709,7.8664],[149.2645,-21.2657,0.0],[149.2605,-21.262,0.0],[149.2577,-21.2453,0.0],[149.2559,-21.2447,1.0493],[149.2537,-21.2486,5.5881],[149.2357,-21.2571,2.6798],[149.2325,-21.2624,5.8907],[149.2297,-21.2619,1.8256],[149.2249,-21.2637,6.0519],[149.2223,-21.2687,5.1854],[149.2169,-21.2719,7.0385],[149.2173,-21.2759,7.834],[149.2107,-21.2836,6.4959],[149.207,-21.2833,4.7884],[149.2035,-21.2869,0.0],[149.2019,-21.2934,5.6466],[149.1981,-21.2964,5.9044],[149.1932,-21.2979,0.0],[149.1891,-21.294,4.0629],[149.1909,-21.2938,2.2681],[149.2014,-21.2773,0.0],[149.1887,-21.277,0.7322],[149.1811,-21.2874,2.5552],[149.1792,-21.2847,0.5],[149.1817,-21.2744,0.5],[149.1898,-21.2709,7.7776],[149.194,-21.2715,0.0],[149.1993,-21.2681,0.0],[149.2018,-21.2632,2.3889],[149.2014,-21.259,3.8079],[149.2058,-21.2561,1.3656],[149.2095,-21.2477,2.7411],[149.2141,-21.2444,0.0],[149.2141,-21.2415,0.0],[149.2087,-21.2295,0.0],[149.2083,-21.2322,0.0],[149.2032,-21.2277,2.2317],[149.2008,-21.2286,4.7107],[149.2015,-21.2311,1.5912],[149.1991,-21.23,5.22],[149.1965,-21.2232,0.0],[149.1853,-21.2152,0.7328],[149.1843,-21.2106,3.2823],[149.1866,-21.2088,0.0],[149.185,-21.2035,1.9003],[149.1814,-21.2014,0.5],[149.1768,-21.2023,0.5],[149.1739,-21.1988,0.5],[149.1788,-21.1967,0.5],[149.1837,-21.1988,1.4469],[149.1896,-21.2038,3.4283],[149.1891,-21.2115,0.0],[149.1916,-21.2132,0.0],[149.196,-21.211,0.0],[149.1932,-21.1838,1.9983],[149.1957,-21.1812,0.0],[149.1982,-21.1671,0.0],[149.2008,-21.1608,2.2593],[149.1998,-21.1589,3.5462],[149.2023,-21.1584,0.0],[149.2077,-21.1502,1.1137],[149.2152,-21.1454,0.0],[149.2126,-21.1464,0.0],[149.2125,-21.1446,0.0],[149.2077,-21.1404,1.808],[149.1947,-21.1409,0.0],[149.183,-21.1362,0.5],[149.1726,-21.1341,0.5],[149.1616,-21.1356,1.2917],[149.159,-21.1401,5.1565],[149.1526,-21.1456,5.2872],[149.1528,-21.143,0.5],[149.1568,-21.1407,1.1891],[149.1635,-21.132,3.3862],[149.1706,-21.1334,0.5],[149.1778,-21.1314,0.5],[149.1897,-21.1379,0.0],[149.1992,-21.1376,3.8269],[149.2039,-21.1348,0.0],[149.204,-21.1328,0.0],[149.1927,-21.1322,1.6781],[149.1924,-21.1308,4.0077],[149.1956,-21.1316,2.3848],[149.1972,-21.1299,0.5],[149.196,-21.1257,5.1256],[149.2011,-21.1288,3.9294],[149.2055,-21.1288,7.2372],[149.2063,-21.1267,4.9866],[149.2067,-21.1292,6.5297],[149.2094,-21.13,2.7978],[149.2169,-21.1227,3.3551],[149.2126,-21.1301,5.5102],[149.2091,-21.1313,2.399],[149.2157,-21.1372,3.927],[149.2209,-21.1475,0.0],[149.2227,-21.1477,0.0],[149.2214,-21.1388,0.0],[149.2236,-21.1182,0.0],[149.2242,-21.1159,2.1779],[149.2259,-21.1163,0.0],[149.2311,-21.1097,0.0],[149.2257,-21.1095,2.2522],[149.2251,-21.1039,0.0],[149.2233,-21.1031,1.5703],[149.2261,-21.1011,0.0],[149.23,-21.0783,0.0],[149.2302,-21.0707,0.0],[149.227,-21.0628,0.0],[149.2238,-21.0643,2.2917],[149.2182,-21.0711,0.0],[149.2148,-21.0718,1.5677],[149.2141,-21.0742,2.9618],[149.2103,-21.077,1.5078],[149.2056,-21.0768,2.1279],[149.2081,-21.0745,0.0],[149.1954,-21.0566,0.0],[149.1867,-21.0341,0.0],[149.1847,-21.0334,3.9102],[149.1817,-21.0352,4.8483],[149.1774,-21.0321,0.0],[149.1747,-21.0327,0.0],[149.1732,-21.0381,4.0679],[149.1746,-21.0394,4.0679],[149.1718,-21.039,0.0],[149.1728,-21.0417,3.5016],[149.1705,-21.0422,3.3066],[149.1704,-21.037,0.0],[149.1619,-21.0277,0.0],[149.1575,-21.0162,5.1225],[149.1592,-21.0026,0.0],[149.1581,-21.0003,5.8833],[149.1483,-21.0016,0.0],[149.1391,-20.9984,0.0],[149.1382,-20.9959,0.0],[149.1346,-20.995,0.0],[149.133,-20.9961,0.0],[149.1314,-20.9984,1.1734],[149.1342,-21.0017,4.5845],[149.1314,-21.0009,5.1454],[149.1309,-21.0025,6.9656],[149.1345,-21.0085,5.5584],[149.1368,-21.0098,5.9206],[149.1341,-21.0117,8.5196],[149.1342,-21.019,6.0162],[149.1312,-21.0232,3.8666],[149.1318,-21.0315,5.6537],[149.1277,-21.0291,3.5953],[149.1227,-21.0333,4.7953],[149.1245,-21.0289,2.5823],[149.1226,-21.0261,7.3793],[149.1274,-21.0272,1.0],[149.1293,-21.0237,1.0],[149.1279,-21.0212,4.1327],[149.131,-21.0186,3.4229],[149.1286,-21.0066,0.375],[149.1258,-21.0071,3.0978],[149.1236,-21.0054,4.542],[149.1223,-21.001,0.0],[149.12,-21.0026,3.0487],[149.1155,-21.0024,1.1112],[149.1081,-20.9984,1.8587],[149.1061,-20.9958,6.4233],[149.1068,-20.9912,1.0145],[149.1052,-20.9891,0.0],[149.094,-20.9783,1.1074],[149.0889,-20.9759,0.0],[149.0649,-20.9749,0.0],[149.0653,-20.9789,3.6687],[149.0752,-20.9818,6.4979],[149.0858,-20.99,5.4553],[149.0748,-20.983,0.0],[149.068,-20.9841,0.0],[149.0698,-20.9872,1.5342],[149.0683,-20.9879,1.5342],[149.0698,-20.9929,3.2479],[149.0661,-20.9952,1.8798],[149.0672,-20.9911,5.1523],[149.0648,-20.9853,0.0],[149.056,-20.9837,0.0],[149.0501,-20.9788,0.0],[149.0446,-20.983,0.0],[149.0416,-20.9893,2.3062],[149.0318,-20.9888,2.9428],[149.0304,-20.9867,0.0],[149.0237,-20.9904,0.0],[149.0222,-20.9931,0.0],[149.0167,-20.9936,0.0],[149.0143,-20.9919,7.3128],[149.0196,-20.9802,6.4719],[149.0199,-20.9758,1.325],[149.0158,-20.9727,7.7018],[149.0152,-20.9673,6.1339],[149.0186,-20.9681,3.6751],[149.0216,-20.9626,7.8254],[149.0213,-20.9597,2.8601],[149.0159,-20.9544,4.5601],[149.019,-20.9569,6.0374],[149.0228,-20.9567,7.4053],[149.0294,-20.9595,33.4722],[149.0307,-20.9568,20.6466],[149.0248,-20.9438,0.0],[149.0175,-20.9416,7.8526],[149.0146,-20.9374,0.0],[149.0137,-20.9412,6.665],[149.0117,-20.9354,2.2738],[149.0196,-20.9269,8.4693],[149.0282,-20.9234,9.7815],[149.0395,-20.924,4.8869],[149.0433,-20.9301,0.0],[149.0503,-20.9305,62.3636],[149.059,-20.9287,59.7753],[149.0598,-20.9258,0.0],[149.0498,-20.9238,0.0],[149.0462,-20.92,0.0],[149.0437,-20.912,35.1296],[149.0456,-20.9075,47.7028],[149.0486,-20.9062,0.0],[149.0461,-20.903,2.6871],[149.0407,-20.9038,2.309],[149.035,-20.8988,2.4978],[149.029,-20.8977,0.0],[149.024,-20.9005,0.0],[149.0174,-20.9122,0.0],[149.0054,-20.9123,0.0],[148.995,-20.9018,5.8839],[148.9978,-20.8957,19.0966],[148.9954,-20.8922,0.0],[148.9922,-20.8946,33.7188],[148.9884,-20.8927,3.072],[148.9884,-20.8909,0.0],[148.9828,-20.892,0.0],[148.9813,-20.8974,0.0],[148.9829,-20.9003,0.0],[148.971,-20.9004,1.5615],[148.9657,-20.8977,0.0],[148.959,-20.8912,3.0527],[148.9562,-20.8847,9.6493],[148.9554,-20.8775,0.9956],[148.9527,-20.8775,3.1932],[148.9512,-20.8756,0.1826],[148.9494,-20.878,7.3724],[148.9459,-20.8786,0.9959],[148.941,-20.8858,6.1944],[148.9434,-20.8843,6.2195],[148.9439,-20.8852,9.0238],[148.9385,-20.8883,7.9961],[148.9362,-20.8872,2.4452],[148.9331,-20.8884,2.8408],[148.9279,-20.8838,0.0],[148.9237,-20.8909,2.1448],[148.9201,-20.8891,0.7951],[148.9182,-20.893,2.9667],[148.9151,-20.892,0.9733],[148.913,-20.8863,2.2542],[148.9049,-20.8859,0.0],[148.8902,-20.8779,6.2224],[148.8907,-20.8648,3.0092],[148.8882,-20.8614,5.6083],[148.8926,-20.8622,5.8327],[148.8857,-20.8574,1.8946],[148.8821,-20.8578,3.2338],[148.881,-20.856,5.192],[148.8865,-20.8533,5.8174],[148.8848,-20.8488,0.0],[148.879,-20.8516,3.1908],[148.8785,-20.8544,0.0],[148.8801,-20.8571,2.4505],[148.8749,-20.8625,1.1686],[148.8751,-20.867,2.5886],[148.8778,-20.8693,4.4784],[148.8777,-20.881,0.5],[148.8754,-20.883,0.5],[148.8757,-20.8796,6.013],[148.8662,-20.8676,0.0],[148.8586,-20.869,0.0],[148.8431,-20.876,0.0],[148.8421,-20.872,5.2489],[148.8442,-20.8701,0.0],[148.8471,-20.856,0.0],[148.8439,-20.8565,0.749],[148.8363,-20.8508,0.189],[148.8325,-20.8497,1.4873],[148.8371,-20.8475,5.8287],[148.8379,-20.8441,5.7445],[148.8398,-20.8456,4.1104],[148.8402,-20.8502,5.5367],[148.8494,-20.8466,30.1149],[148.8449,-20.8421,2.5263],[148.8382,-20.828,3.0331],[148.8389,-20.8245,0.0],[148.8302,-20.8213,6.4802],[148.8239,-20.8214,4.0194],[148.8221,-20.8234,3.4008],[148.8223,-20.8271,3.1469],[148.8254,-20.8301,3.8786],[148.8203,-20.832,2.6368],[148.8223,-20.8288,1.241],[148.82,-20.826,2.5756],[148.8183,-20.8179,0.0],[148.8112,-20.8142,0.0],[148.7989,-20.8125,0.0],[148.7964,-20.8137,0.0],[148.7934,-20.8187,3.0528],[148.7873,-20.8166,6.4581],[148.7943,-20.8133,4.7019],[148.8008,-20.8067,0.0],[148.7994,-20.8057,4.9646],[148.8004,-20.8031,1.849],[148.7985,-20.8044,1.849],[148.7955,-20.8037,0.5991],[148.7963,-20.797,3.2909],[148.7983,-20.7986,3.8522],[148.7964,-20.8024,3.7924],[148.7991,-20.8009,2.1861],[148.8085,-20.8041,5.3306],[148.8133,-20.8037,6.9661],[148.8183,-20.802,1.4993],[148.8204,-20.7996,2.5365],[148.8191,-20.7952,1.5115],[148.8132,-20.7921,4.2454],[148.8147,-20.791,4.3902],[148.8245,-20.7952,1.2314],[148.8259,-20.7948,0.0],[148.8242,-20.7922,5.8468],[148.8254,-20.7902,3.1815],[148.8321,-20.7889,5.2764],[148.8376,-20.7924,10.0078],[148.8408,-20.7911,1.4141],[148.8339,-20.7847,5.3372],[148.8297,-20.7766,1.7947],[148.8113,-20.7714,2.6853],[148.8075,-20.7756,1.3658],[148.8027,-20.7759,0.0],[148.7986,-20.7733,4.1824],[148.794,-20.7674,4.2452],[148.7901,-20.7691,8.703],[148.7914,-20.767,1.9412],[148.7877,-20.7628,0.0],[148.7808,-20.7625,3.2894],[148.7769,-20.7501,3.167],[148.7786,-20.7458,1.221],[148.7773,-20.7397,3.815],[148.7779,-20.7321,3.2011],[148.7668,-20.7344,0.0],[148.7627,-20.7315,7.2501],[148.7586,-20.7244,1.056],[148.7515,-20.7235,6.0873],[148.7455,-20.7199,8.1437],[148.7432,-20.7208,2.98],[148.7414,-20.7184,0.0],[148.7398,-20.7191,2.9284],[148.7402,-20.718,2.9284],[148.7389,-20.7194,2.9284],[148.7308,-20.7167,5.4824],[148.7301,-20.7002,5.4175],[148.7326,-20.6935,4.6033],[148.7326,-20.6885,8.4401],[148.7312,-20.6875,0.0],[148.7262,-20.6885,7.2607],[148.722,-20.6796,7.0778],[148.7164,-20.6793,0.9386],[148.7063,-20.6707,0.0],[148.7101,-20.6652,3.8887],[148.7129,-20.6658,2.3677],[148.7179,-20.6628,33.6508],[148.7176,-20.6588,3.8571],[148.7239,-20.6464,3.9108],[148.7309,-20.6446,0.0],[148.727,-20.6398,6.6659],[148.7272,-20.633,5.2655],[148.7217,-20.6324,2.9223],[148.7194,-20.6356,6.3291],[148.7206,-20.6363,12.3045],[148.7188,-20.6392,4.6043],[148.7195,-20.6417,5.2894],[148.7132,-20.6435,6.3006],[148.7102,-20.643,5.4116],[148.7102,-20.6405,5.2807],[148.7008,-20.6401,8.8603],[148.6965,-20.6368,5.083],[148.6862,-20.6177,1.3912],[148.6861,-20.6164,1.3912],[148.6886,-20.6165,0.0],[148.6923,-20.612,0.0],[148.6905,-20.6081,0.0],[148.6882,-20.6068,0.0],[148.6873,-20.6028,0.0],[148.6903,-20.5991,0.0],[148.6879,-20.5976,0.0],[148.6861,-20.5998,0.0],[148.675,-20.5905,0.0],[148.6693,-20.5927,0.5154],[148.668,-20.5902,8.7534],[148.6629,-20.5871,1.1056],[148.6616,-20.584,6.6229],[148.6642,-20.5832,2.995],[148.6681,-20.5768,0.8074],[148.6693,-20.571,1.6107],[148.6608,-20.5621,0.25],[148.6431,-20.5503,2.4898],[148.6362,-20.5499,8.3819],[148.6203,-20.5615,2.6699],[148.6068,-20.5677,15.9945],[148.606,-20.574,9.9986],[148.6003,-20.5843,5.5308],[148.6001,-20.5933,10.455],[148.5941,-20.595,10.6923],[148.5897,-20.6009,12.0806],[148.5858,-20.6003,15.2604],[148.5753,-20.5946,20.9264],[148.5689,-20.587,14.0741],[148.5642,-20.5865,17.3074],[148.5637,-20.5814,25.2627],[148.5562,-20.5804,21.6345],[148.5539,-20.5865,39.3334],[148.5554,-20.6009,41.7379],[148.5704,-20.6242,28.5174],[148.5654,-20.6263,26.7836],[148.5653,-20.6297,24.1359],[148.5634,-20.6318,26.8578],[148.5528,-20.6387,50.3921],[148.5452,-20.6414,36.6635],[148.5369,-20.6487,48.6212],[148.5268,-20.6538,49.8815],[148.4966,-20.6222,50.105],[148.4908,-20.6216,77.0906],[148.4808,-20.6981,381.8387],[148.4675,-20.6976,588.7483],[148.4614,-20.6939,567.8194],[148.4557,-20.694,530.6199],[148.4476,-20.7002,746.9536],[148.4479,-20.7366,734.8365],[148.4516,-20.7363,803.8123],[148.4527,-20.7343,836.2563],[148.4566,-20.7367,837.147],[148.3606,-20.8074,557.3759],[148.3013,-20.8006,270.7242],[148.3031,-20.7873,256.4791],[148.1658,-20.7713,199.4151],[148.1644,-20.7794,194.9245],[148.1686,-20.7859,198.4744],[148.1644,-20.7936,190.8442],[148.1657,-20.8093,181.7172],[148.1636,-20.8145,178.628],[148.1583,-20.817,176.347],[148.157,-20.8193,177.4953],[148.1603,-20.8281,168.7488],[148.1531,-20.8329,164.3306],[148.156,-20.8364,161.1953],[148.1489,-20.8416,334.7828],[148.1512,-20.8487,338.757],[148.1547,-20.8544,293.2085],[148.1572,-20.8534,344.5363],[148.1627,-20.8578,382.8736],[148.1708,-20.8711,404.0039],[148.1755,-20.8729,442.3364],[148.1793,-20.8824,425.9879],[148.1828,-20.8844,385.6659],[148.1898,-20.8811,601.1485],[148.1912,-20.8818,635.2486],[148.1927,-20.8893,663.9812],[148.1962,-20.8936,662.1555],[148.2003,-20.8954,629.8227],[148.2037,-20.9003,608.725],[148.2088,-20.902,598.3787],[148.2109,-20.9098,682.462],[148.2127,-20.91,659.656],[148.2164,-20.9148,625.6837],[148.2181,-20.9145,620.4294],[148.2272,-20.9273,698.7489],[148.2299,-20.94,627.7567],[148.2324,-20.9418,660.0849],[148.2374,-20.9539,627.5367],[148.2342,-20.9682,637.7798],[148.2269,-20.9744,640.1711],[148.2266,-20.9791,660.3065],[148.2248,-20.9805,665.002],[148.2258,-20.9827,647.1577],[148.2335,-20.9834,660.638],[148.24,-20.989,644.7919],[148.2406,-20.9941,645.2869],[148.2348,-20.9978,690.8505],[148.2387,-21.0058,601.8982],[148.2436,-21.0111,634.7157],[148.2541,-21.0181,620.8053],[148.256,-21.0228,671.6963],[148.2607,-21.0245,643.6293],[148.2643,-21.0279,612.7616],[148.267,-21.0375,662.4851],[148.2739,-21.0474,623.9639],[148.2785,-21.049,639.9128],[148.2842,-21.0448,654.8674],[148.2968,-21.056,707.9005],[148.2946,-21.0583,645.448],[148.295,-21.0636,663.4384],[148.3021,-21.0671,704.0182],[148.306,-21.0823,639.8585],[148.3078,-21.0839,631.1538],[148.3066,-21.0917,627.1078],[148.3138,-21.0957,651.3242],[148.3161,-21.1064,658.0044],[148.319,-21.1095,665.2645],[148.321,-21.1096,663.428],[148.3241,-21.1134,666.2124],[148.3287,-21.1144,664.5447],[148.3278,-21.1204,646.7505],[148.3249,-21.1206,626.6832],[148.3211,-21.1253,587.6311],[148.3022,-21.1374,385.7337],[148.3,-21.146,422.0911],[148.2921,-21.1517,313.025],[148.297,-21.1565,464.6496],[148.3031,-21.1582,517.1718],[148.3036,-21.16,507.6132],[148.3095,-21.1625,508.4068],[148.3121,-21.1671,518.8809],[148.3042,-21.2129,364.2071],[148.308,-21.222,382.6852],[148.3154,-21.2244,380.006],[148.3379,-21.2497,441.7564],[148.3427,-21.2508,445.3181],[148.3472,-21.2573,401.6495],[148.3567,-21.2535,557.0957],[148.3613,-21.258,551.7553],[148.365,-21.2553,550.5142],[148.3705,-21.2574,528.2979],[148.3753,-21.2607,519.4709],[148.3789,-21.2692,551.5638],[148.383,-21.2718,578.3131],[148.3858,-21.2704,621.9533],[148.3873,-21.28,550.9135],[148.3893,-21.2812,539.6331],[148.3937,-21.2801,543.9006],[148.3962,-21.2749,596.1014],[148.4081,-21.2792,553.2941],[148.4123,-21.2822,570.7084],[148.4112,-21.2834,552.6983],[148.4126,-21.2863,516.1104],[148.4198,-21.2866,561.7705],[148.4264,-21.2926,554.5455],[148.429,-21.2957,549.7214],[148.4289,-21.2991,557.0648],[148.4313,-21.299,557.485],[148.4348,-21.2946,553.4265],[148.4405,-21.2931,560.6008],[148.4398,-21.2884,554.758],[148.4421,-21.2879,570.3656],[148.4442,-21.2848,575.9205],[148.4505,-21.2846,593.5402],[148.4524,-21.2815,661.1965],[148.4597,-21.2803,595.3596],[148.4665,-21.2749,677.1329],[148.4703,-21.2739,783.2565],[148.4725,-21.2788,715.6123],[148.4799,-21.2862,706.7609],[148.4829,-21.2862,697.9536],[148.4898,-21.2923,787.0106],[148.4934,-21.2919,784.2891],[148.5,-21.298,756.309],[148.5014,-21.3021,809.2823],[148.5069,-21.3036,790.6582],[148.51,-21.3103,805.1535],[148.5174,-21.3099,858.5897],[148.5158,-21.3149,839.8026],[148.521,-21.3208,839.0106],[148.5222,-21.327,848.9753],[148.5346,-21.3333,855.0703],[148.5363,-21.3426,814.6348],[148.5397,-21.3479,794.1573],[148.5436,-21.3501,767.6552],[148.5423,-21.3573,860.5547],[148.5472,-21.3673,896.812],[148.5564,-21.3706,907.2567],[148.5862,-21.3723,972.2881],[148.597,-21.3651,809.6686],[148.6086,-21.3642,731.1378],[148.6115,-21.366,728.6649],[148.6144,-21.377,729.1002],[148.6163,-21.3787,731.7258],[148.6199,-21.3765,701.9628],[148.6276,-21.3753,732.8903],[148.6355,-21.3655,668.2193],[148.6413,-21.3713,754.599],[148.6516,-21.3653,622.2625],[148.6623,-21.3694,743.4572],[148.6671,-21.3666,787.9238],[148.6727,-21.3662,704.575],[148.6778,-21.3717,578.359],[148.6863,-21.3768,782.4374],[148.6933,-21.3725,739.9421],[148.6907,-21.3682,749.0198],[148.6896,-21.3591,750.3033],[148.7002,-21.3439,652.3006],[148.7183,-21.3505,546.5403],[148.7236,-21.3551,577.4301],[148.7245,-21.3597,560.3192],[148.7273,-21.3636,590.4145],[148.7298,-21.3644,584.0237],[148.7302,-21.3662,589.5468],[148.7368,-21.3681,509.2643],[148.7366,-21.3728,538.8444],[148.7383,-21.3766,548.2114],[148.744,-21.3835,516.0969],[148.7511,-21.3887,505.9737],[148.7558,-21.3893,559.2634],[148.7586,-21.393,503.641],[148.7629,-21.3948,443.6572],[148.7719,-21.3945,377.7794],[148.7848,-21.3863,473.1939],[148.7883,-21.3881,487.7061],[148.7902,-21.3873,482.982],[148.7929,-21.3929,371.0742],[148.9022,-21.4053,260.994],[148.9036,-21.3977,261.0691],[148.9077,-21.3939,273.9404],[148.9063,-21.3888,261.4451],[148.9071,-21.385,265.6421],[148.914,-21.3791,265.4814],[148.9222,-21.3769,299.253],[148.9279,-21.3779,292.7012],[148.9364,-21.3869,226.3903],[148.9437,-21.3818,231.6752],[148.9467,-21.3818,236.6544],[148.9507,-21.3854,247.0559],[148.9561,-21.3814,242.0932],[148.9636,-21.3801,262.202],[148.9684,-21.372,351.4142],[148.9714,-21.371,448.4803],[148.9719,-21.3681,474.0882],[148.9783,-21.3681,495.4777],[148.9826,-21.3643,523.4655],[148.9873,-21.3652,552.2172],[148.9883,-21.3672,573.2119],[149.0006,-21.3643,461.131],[149.0054,-21.3647,453.0108],[149.0117,-21.3615,379.7812],[149.0181,-21.3605,398.7779],[149.0235,-21.3549,462.9108],[149.032,-21.3544,485.2486],[149.0351,-21.3557,425.8774],[149.0365,-21.3609,430.3616],[149.0449,-21.3647,511.8573],[149.0447,-21.3683,516.1572],[149.0505,-21.3728,462.4931],[149.0538,-21.3795,341.5785],[149.0625,-21.384,306.3311],[149.0652,-21.3882,318.567],[149.0756,-21.3905,408.1144],[149.0737,-21.3954,308.7198],[149.0705,-21.3949,313.2231],[149.0701,-21.3971,286.9331],[149.0735,-21.4021,341.4319],[149.0759,-21.4145,359.6438],[149.0818,-21.4157,471.4508],[149.0847,-21.4182,481.9639],[149.0812,-21.4289,436.3501],[149.0849,-21.435,434.0925],[149.0907,-21.44,435.6851],[149.0927,-21.4449,419.7313],[149.0889,-21.4598,315.2064],[149.0878,-21.4742,442.621],[149.0846,-21.4849,433.4377],[149.0865,-21.4905,505.8119],[149.0811,-21.4993,489.0649],[149.0734,-21.5052,540.5599],[149.0722,-21.5097,503.6073],[149.0614,-21.5152,588.363],[149.0593,-21.5217,588.0189],[149.0593,-21.5304,568.7651],[149.0568,-21.5334,599.244],[149.057,-21.5409,514.8055],[149.0482,-21.5463,586.0468],[149.054,-21.5531,509.9338],[149.0583,-21.554,528.9907],[149.051,-21.5657,380.4472],[149.0498,-21.5773,461.6758],[149.0518,-21.5782,417.9879],[149.0548,-21.585,477.6124],[149.0521,-21.589,371.6051],[149.0513,-21.5942,280.9482],[149.0545,-21.6032,375.1989],[149.0492,-21.6092,338.6344],[149.0481,-21.6145,246.4435],[149.0505,-21.6164,186.7588],[149.05,-21.6196,186.4791],[149.0439,-21.6334,185.8959],[149.0397,-21.6385,188.1858],[149.0374,-21.6386,189.6858],[149.0339,-21.6342,184.8314],[149.0287,-21.6324,185.138],[149.0258,-21.627,183.94],[149.0154,-21.6304,184.5902],[149.0094,-21.6378,185.4822],[149.0129,-21.6461,185.7649],[149.0179,-21.652,181.9012],[149.0199,-21.661,186.4784],[149.0086,-21.6706,181.2486],[149.0025,-21.6727,181.9354],[148.9983,-21.6799,180.843],[148.9994,-21.7046,179.2797],[148.9938,-21.7188,177.2305],[149.0069,-21.7271,185.7964],[149.0127,-21.7367,202.2659],[149.0268,-21.742,297.9094],[149.028,-21.7446,368.1481],[149.0272,-21.7527,478.0835],[149.0354,-21.771,676.1201],[149.0461,-21.7648,340.8817],[149.0505,-21.7635,443.7578],[149.052,-21.766,452.3508],[149.0588,-21.7633,502.3381],[149.0583,-21.7556,515.6547],[149.0627,-21.7491,519.9982],[149.065,-21.7342,547.9011],[149.0665,-21.7328,567.4601],[149.0839,-21.7371,492.9383],[149.0887,-21.74,471.7729],[149.0966,-21.7396,418.7038],[149.1004,-21.741,361.6576],[149.1035,-21.7444,330.1715],[149.1079,-21.743,381.2311],[149.117,-21.7459,502.656],[149.1233,-21.7457,435.9528],[149.1299,-21.7431,545.2037],[149.1316,-21.7447,498.4365],[149.1347,-21.7444,574.2806],[149.1369,-21.7457,568.0577],[149.1369,-21.7489,471.9236],[149.1399,-21.7539,469.1186],[149.1487,-21.7539,452.243],[149.1501,-21.7566,499.372],[149.1573,-21.7579,527.9636],[149.1655,-21.7681,526.1261],[149.1742,-21.7703,376.393],[149.1755,-21.7701,383.9508],[149.177,-21.7651,353.3137],[149.1826,-21.7677,332.5879],[149.1853,-21.7578,341.0638],[149.1835,-21.7555,350.1777],[149.1911,-21.7559,335.0245],[149.1939,-21.7615,365.942],[149.2001,-21.7593,340.5693],[149.202,-21.7578,351.1321],[149.2022,-21.7554,357.2467],[149.2068,-21.7555,333.5965],[149.2064,-21.7516,311.2725],[149.2132,-21.7447,343.2721],[149.2161,-21.7447,347.1806],[149.2209,-21.7381,372.818],[149.2244,-21.7467,398.5313],[149.2235,-21.7518,345.5864],[149.2335,-21.7494,336.4669],[149.2463,-21.742,277.871],[149.2491,-21.7434,288.5492],[149.2557,-21.7431,124.7419],[149.2634,-21.7404,209.0756],[149.2681,-21.7305,189.3114],[149.2706,-21.7311,148.8257],[149.277,-21.7273,266.8643],[149.2829,-21.7196,211.4187],[149.2828,-21.7118,139.9058],[149.2861,-21.7016,221.0204],[149.3015,-21.7003,197.3533],[149.3063,-21.6969,171.2654],[149.3124,-21.7004,119.8103],[149.32,-21.6965,103.2241],[149.323,-21.6972,101.8027],[149.3319,-21.692,106.9299],[149.3357,-21.6826,72.7814],[149.3397,-21.6828,63.9676],[149.342,-21.6886,49.4762],[149.3547,-21.678,32.4649],[149.3498,-21.6728,30.4001],[149.3525,-21.6701,27.7405],[149.3618,-21.6495,44.5286],[149.3662,-21.6548,72.6661],[149.3718,-21.6498,118.6996],[149.3797,-21.6508,57.6906],[149.3835,-21.6494,67.3292],[149.3846,-21.6448,90.5287],[149.3903,-21.6365,190.213],[149.3877,-21.6336,211.2723],[149.3882,-21.6274,231.641],[149.3848,-21.6243,246.5365],[149.4173,-21.6283,42.6023]]],
[[[148.9599,-20.8682,0.3597],[148.9601,-20.8674,0.6367],[148.9588,-20.8671,0.0],[148.9588,-20.868,0.0],[148.9599,-20.8682,0.3597]]],
[[[148.9025,-20.8655,1.9994],[148.8986,-20.8653,4.4016],[148.8976,-20.8665,1.3808],[148.9,-20.8666,1.1845],[148.9025,-20.8655,1.9994]]],
[[[148.9439,-20.8614,8.7755],[148.9433,-20.8617,8.7755],[148.9425,-20.8638,2.2224],[148.9444,-20.8624,8.7755],[148.9439,-20.8614,8.7755]]],
[[[148.94,-20.8625,0.7444],[148.9404,-20.862,0.7444],[148.9386,-20.8614,0.7444],[148.9388,-20.8623,0.7444],[148.94,-20.8625,0.7444]]],
[[[148.928,-20.8617,8.2551],[148.9312,-20.8627,22.6419],[148.9313,-20.8603,6.8521],[148.928,-20.859,0.0],[148.9241,-20.86,5.3978],[148.9264,-20.8607,26.2408],[148.928,-20.8617,8.2551]]],
[[[148.9378,-20.8601,0.0],[148.939,-20.8591,1.5132],[148.939,-20.8589,1.5132],[148.9375,-20.8593,0.0],[148.9378,-20.8601,0.0]]],
[[[148.9177,-20.8481,0.0],[148.9191,-20.8527,1.5338],[148.9179,-20.8547,7.2871],[148.9207,-20.856,19.7432],[148.9268,-20.8545,12.3301],[148.9277,-20.8521,3.7],[148.9223,-20.8504,1.1774],[148.9189,-20.8471,2.9748],[148.9177,-20.8481,0.0]]],
[[[148.9286,-20.8466,6.618],[148.9321,-20.8499,0.0],[148.9315,-20.8534,0.0],[148.9374,-20.8524,10.4103],[148.9332,-20.8437,6.3687],[148.9286,-20.8466,6.618]]],
[[[148.9059,-20.8374,3.1007],[148.9074,-20.8352,19.2934],[148.9029,-20.8332,21.131],[148.9024,-20.8268,2.2913],[148.8976,-20.8304,9.0448],[148.8925,-20.8291,0.3668],[148.8906,-20.8311,0.1685],[148.8929,-20.8477,0.0],[148.895,-20.8508,1.4254],[148.9001,-20.8485,2.3788],[148.897,-20.8516,0.0],[148.8969,-20.8536,1.3415],[148.9,-20.8559,10.1694],[148.9153,-20.8536,8.4468],[148.9072,-20.8437,3.466],[148.9059,-20.8374,3.1007]]],
[[[148.8418,-20.8232,2.5792],[148.8411,-20.8226,0.0],[148.8399,-20.823,1.453],[148.8399,-20.8234,1.453],[148.8418,-20.8232,2.5792]]],
[[[148.8543,-20.794,0.0],[148.8562,-20.7957,1.064],[148.8587,-20.7951,0.846],[148.857,-20.7951,1.064],[148.8543,-20.794,0.0]]],
[[[149.0589,-20.9204,0.0],[149.0589,-20.923,4.3416],[149.0614,-20.9231,19.468],[149.0617,-20.9212,0.0],[149.0589,-20.9204,0.0]]],
[[[148.9612,-20.87,2.8658],[148.9607,-20.8688,0.3597],[148.9582,-20.8723,6.7607],[148.9601,-20.8716,15.4179],[148.9612,-20.87,2.8658]]],
[[[149.0707,-20.6618,7.0515],[149.0708,-20.661,0.0],[149.0698,-20.6607,0.0],[149.0699,-20.6618,0.0],[149.0707,-20.6618,7.0515]]],
[[[149.0537,-20.6382,5.5734],[149.0539,-20.6434,47.5641],[149.0569,-20.6479,33.0692],[149.0629,-20.6511,28.9245],[149.0596,-20.6428,24.2735],[149.0537,-20.6382,5.5734]]],
[[[148.8444,-20.7923,0.0],[148.8458,-20.7925,0.0],[148.8459,-20.7919,0.0],[148.845,-20.7915,0.0],[148.8444,-20.7923,0.0]]],
[[[148.8515,-20.786,0.2008],[148.8482,-20.7865,6.0427],[148.8482,-20.7869,6.0427],[148.85,-20.7881,6.519],[148.8515,-20.786,0.2008]]],
[[[148.8562,-20.7831,3.2886],[148.8562,-20.7826,0.0],[148.8545,-20.7821,0.4363],[148.8551,-20.7831,9.3205],[148.8562,-20.7831,3.2886]]],
[[[148.7624,-20.6904,4.9179],[148.7635,-20.692,0.0],[148.7664,-20.6916,3.7133],[148.7658,-20.6894,0.0],[148.7601,-20.6887,1.8492],[148.7624,-20.6904,4.9179]]],
[[[148.759,-20.6733,0.0],[148.759,-20.6718,0.0],[148.7584,-20.6717,0.0],[148.7579,-20.673,0.0],[148.759,-20.6733,0.0]]],
[[[148.9436,-20.6613,0.0],[148.9433,-20.6606,0.0],[148.9427,-20.6608,0.0],[148.9427,-20.6612,0.0],[148.9436,-20.6613,0.0]]],
[[[149.0485,-20.4362,10.0359],[149.0474,-20.4341,0.0],[149.0429,-20.4384,2.4026],[149.0401,-20.4381,6.9056],[149.0379,-20.4317,6.3356],[149.0335,-20.4299,3.6432],[149.0316,-20.4387,2.1296],[149.029,-20.4381,14.9138],[149.0248,-20.4402,0.0],[149.0241,-20.4429,0.0],[149.0272,-20.4424,26.103],[149.0304,-20.4449,2.5501],[149.0292,-20.4515,10.0719],[149.034,-20.4602,8.3964],[149.0455,-20.4579,10.7834],[149.0528,-20.4506,6.5809],[149.0562,-20.4503,11.5361],[149.059,-20.4538,4.7238],[149.0604,-20.4541,18.2729],[149.0617,-20.4515,35.275],[149.0646,-20.453,1.3342],[149.0638,-20.4505,3.1723],[149.0604,-20.4501,20.3026],[149.0549,-20.4461,6.2531],[149.053,-20.4363,44.7222],[149.0485,-20.4362,10.0359]]],
[[[149.0815,-20.4281,14.3189],[149.0826,-20.4327,4.9012],[149.0882,-20.4258,79.9022],[149.0912,-20.4258,11.9938],[149.0922,-20.4181,40.0439],[149.0892,-20.4177,0.0],[149.0854,-20.4206,1.4948],[149.0815,-20.4281,14.3189]]],
[[[149.0068,-20.4248,5.0889],[149.0082,-20.4267,0.0],[149.0075,-20.4221,0.236],[149.0044,-20.4246,0.0],[149.0068,-20.4248,5.0889]]],
[[[149.0351,-20.4267,0.6438],[149.0369,-20.4257,16.8932],[149.0366,-20.4235,23.1949],[149.0295,-20.4233,18.6421],[149.0266,-20.4212,0.0],[149.0258,-20.4242,0.0],[149.0276,-20.4259,55.9703],[149.0351,-20.4267,0.6438]]],
[[[149.0164,-20.4204,0.0],[149.0167,-20.4192,0.0],[149.0159,-20.4192,0.0],[149.0159,-20.4202,0.0],[149.0164,-20.4204,0.0]]],
[[[149.0231,-20.3974,15.8397],[149.0243,-20.4013,0.0],[149.0323,-20.4035,3.801],[149.0347,-20.4034,6.3409],[149.0363,-20.4006,82.7314],[149.0363,-20.397,17.7157],[149.0317,-20.394,5.7881],[149.0264,-20.3928,0.0],[149.0231,-20.3974,15.8397]]],
[[[149.0701,-20.6362,1.988],[149.0681,-20.6342,0.0],[149.0664,-20.6264,3.4613],[149.0582,-20.6214,7.6948],[149.0567,-20.6181,3.3207],[149.0552,-20.6184,0.0],[149.0552,-20.6253,21.6217],[149.0572,-20.6294,24.1996],[149.0611,-20.632,7.059],[149.0676,-20.6421,10.226],[149.0719,-20.6438,0.6841],[149.0724,-20.6468,35.2026],[149.075,-20.6482,1.8518],[149.0833,-20.6611,51.723],[149.0859,-20.6621,47.7833],[149.0889,-20.661,0.0],[149.0808,-20.6503,0.0],[149.0764,-20.6484,0.0],[149.0771,-20.6446,14.1073],[149.0729,-20.6423,2.5409],[149.0745,-20.6395,0.0],[149.0701,-20.6362,1.988]]],
[[[149.0721,-20.6255,0.0],[149.0729,-20.6253,0.0],[149.0723,-20.6243,0.0],[149.0715,-20.6248,0.0],[149.0721,-20.6255,0.0]]],
[[[149.0641,-20.6126,0.0],[149.0623,-20.6118,1.2702],[149.0656,-20.6148,8.2662],[149.0658,-20.6137,7.9927],[149.0641,-20.6126,0.0]]],
[[[149.088,-20.5301,0.0],[149.0863,-20.5317,0.0],[149.0864,-20.5349,0.0],[149.088,-20.5337,22.1716],[149.088,-20.5301,0.0]]],
[[[149.1267,-20.5485,3.9435],[149.1271,-20.5465,3.5862],[149.1271,-20.5456,0.0],[149.1259,-20.5486,3.9435],[149.1267,-20.5485,3.9435]]],
[[[149.1169,-20.5446,14.6204],[149.1192,-20.542,28.6539],[149.1221,-20.5458,3.9541],[149.1244,-20.544,0.0],[149.116,-20.5379,0.0],[149.1126,-20.5378,0.0],[149.1105,-20.5433,2.6024],[149.1065,-20.5456,3.6445],[149.103,-20.5429,0.0],[149.1016,-20.5457,4.8957],[149.0979,-20.5448,1.2536],[149.096,-20.5472,0.0],[149.1001,-20.5501,32.9213],[149.1065,-20.5497,3.2287],[149.1077,-20.5516,8.0896],[149.1101,-20.5489,38.5586],[149.1125,-20.5526,15.3774],[149.115,-20.5529,59.9441],[149.1178,-20.5479,1.0432],[149.1169,-20.5446,14.6204]]],
[[[149.1122,-20.4926,6.0661],[149.1129,-20.4924,6.0661],[149.1102,-20.486,0.0],[149.1102,-20.4915,0.0],[149.1122,-20.4926,6.0661]]],
[[[149.1322,-20.4685,25.6241],[149.1323,-20.4667,20.1291],[149.1257,-20.4672,9.0968],[149.1235,-20.4639,0.0],[149.1212,-20.465,0.0],[149.1207,-20.4694,0.0],[149.1237,-20.4742,24.27],[149.1267,-20.4748,1.3776],[149.1323,-20.482,0.0],[149.1308,-20.4752,60.5833],[149.1322,-20.4685,25.6241]]],
[[[149.089,-20.5254,17.0669],[149.0902,-20.5244,22.4515],[149.0897,-20.5221,0.0],[149.0872,-20.5225,7.8645],[149.0831,-20.5196,24.605],[149.0809,-20.515,2.9168],[149.0792,-20.5158,0.0],[149.0808,-20.5256,22.1032],[149.085,-20.5224,6.6023],[149.0875,-20.5256,9.701],[149.089,-20.5254,17.0669]]],
[[[149.0897,-20.5065,9.8208],[149.0896,-20.5056,0.0],[149.0883,-20.5058,0.0],[149.0882,-20.5066,0.0],[149.0897,-20.5065,9.8208]]],
[[[149.0875,-20.4462,85.2926],[149.0871,-20.4434,31.7299],[149.0799,-20.4435,0.0],[149.0818,-20.4416,14.6198],[149.0814,-20.4382,24.0595],[149.0834,-20.4368,14.6248],[149.0833,-20.435,9.5064],[149.0781,-20.4379,0.0],[149.0788,-20.4439,0.0],[149.0747,-20.4476,3.5404],[149.0762,-20.452,2.6369],[149.0743,-20.4518,2.6369],[149.0782,-20.4561,0.0],[149.0821,-20.4567,0.0],[149.0823,-20.4598,0.7746],[149.0743,-20.4648,14.9249],[149.0756,-20.4815,17.3794],[149.0716,-20.4772,2.2491],[149.0687,-20.4774,0.0],[149.0699,-20.4867,1.8837],[149.068,-20.4874,0.0],[149.0678,-20.4978,0.0],[149.0642,-20.5036,1.9277],[149.0619,-20.5054,0.0],[149.0515,-20.5063,0.0],[149.0517,-20.5088,6.8702],[149.0499,-20.5096,2.8458],[149.0367,-20.503,0.0],[149.0431,-20.5078,2.1216],[149.0429,-20.511,0.0],[149.0468,-20.5134,6.9087],[149.0461,-20.516,3.8751],[149.0431,-20.5169,0.0],[149.0436,-20.5222,5.7587],[149.0525,-20.5244,42.4457],[149.0553,-20.519,18.9918],[149.06,-20.5189,11.2134],[149.0619,-20.5167,5.7943],[149.0652,-20.5162,6.4045],[149.0653,-20.5224,5.0228],[149.0669,-20.526,30.8889],[149.0691,-20.523,30.8342],[149.0689,-20.5128,40.7605],[149.0706,-20.509,13.7438],[149.0691,-20.5072,32.7691],[149.0696,-20.5044,20.3053],[149.0773,-20.5026,15.1319],[149.0766,-20.4981,7.0134],[149.074,-20.4953,46.4137],[149.079,-20.4934,4.8144],[149.0787,-20.4898,9.9278],[149.081,-20.4896,6.5371],[149.0833,-20.4924,4.694],[149.082,-20.4843,31.5182],[149.0851,-20.4829,32.5035],[149.0983,-20.4907,2.1472],[149.0953,-20.4806,22.8561],[149.103,-20.484,1.6958],[149.1044,-20.4819,57.9412],[149.1006,-20.473,49.6107],[149.0963,-20.471,29.4765],[149.0903,-20.4631,27.8319],[149.0842,-20.4593,4.8402],[149.0887,-20.4517,0.0],[149.0893,-20.4488,4.5465],[149.0872,-20.4476,59.3404],[149.0875,-20.4462,85.2926]]],
[[[149.0371,-20.4662,0.0],[149.034,-20.4666,0.0],[149.0329,-20.4685,0.0],[149.0324,-20.4742,0.0],[149.0359,-20.472,21.3392],[149.0371,-20.4662,0.0]]],
[[[149.1045,-20.4654,0.0],[149.1089,-20.4636,13.0957],[149.1098,-20.4614,20.5009],[149.1075,-20.4602,10.1967],[149.1037,-20.4624,0.0],[149.1045,-20.4654,0.0]]],
[[[149.102,-20.4331,0.3644],[149.101,-20.4359,5.4626],[149.1025,-20.4381,0.0],[149.1022,-20.4318,0.0],[149.102,-20.4331,0.3644]]]]}
,"properties": {"GID_2": "AUS.7.40_1","GID_0": "AUS","country": "Australia","GID_1": "AUS.7_1","state": "Queensland","NL_NAME_1": "NA","county": "Mackay","VARNAME_2": "NA","NL_NAME_2": "NA","TYPE_2": "Region","ENGTYPE_2": "Region","CC_2": "34770","HASC_2": "AU.QL.MK","name": "Mackay.county","area_km2": 7621.106,"hist_schema_id": "Elevation0-9000","hist_area_km2": {"0": 800.917,"25": 1134.802,"50": 785.739,"75": 521.427,"100": 360.589,"125": 231.644,"150": 164.183,"175": 145.779,"200": 236.752,"225": 256.358,"250": 244.083,"275": 208.01,"300": 195.928,"325": 162.689,"350": 145.214,"375": 133.986,"400": 125.837,"425": 115.57,"450": 104.057,"475": 99.808,"500": 97.929,"525": 92.554,"550": 94.732,"575": 109.428,"600": 102.387,"625": 95.776,"650": 91.349,"675": 82.844,"700": 82.722,"725": 78.617,"750": 71.965,"775": 68.599,"800": 63.909,"825": 55.363,"850": 46.391,"875": 47.922,"900": 44.085,"925": 37.277,"950": 28.829,"975": 17.217,"1000": 11.855,"1025": 8.47,"1050": 4.789,"1075": 3.839,"1100": 3.107,"1125": 2.157,"1150": 1.465,"1175": 1.267,"1200": 0.435,"1225": 0.297,"1250": 0.158}}}