{"type": "Feature","bbox": [139.6006,-35.0195,140.9663,-33.9436],"geometry": {"type": "MultiPolygon","coordinates": [[[[140.4895,-34.3957,10.0644],[140.4881,-34.3927,11.2861],[140.4835,-34.3913,11.2424],[140.4818,-34.3891,8.0],[140.4875,-34.3869,12.0807],[140.4874,-34.383,15.1712],[140.4773,-34.3778,21.6638],[140.4707,-34.377,8.0],[140.4601,-34.3812,11.2587],[140.4494,-34.3795,11.4006],[140.4435,-34.3813,9.2172],[140.4375,-34.388,8.0],[140.4343,-34.3963,11.9175],[140.4311,-34.3974,10.2987],[140.4172,-34.3826,8.0],[140.3991,-34.3596,8.0],[140.3916,-34.3388,8.0],[140.3795,-34.3255,8.6814],[140.3789,-34.3203,8.0],[140.3834,-34.3132,8.6192],[140.3838,-34.3067,8.0],[140.3727,-34.2914,8.9194],[140.3669,-34.2804,8.0],[140.3701,-34.2695,8.0],[140.3768,-34.2633,8.8443],[140.3826,-34.2625,10.1879],[140.3937,-34.266,8.533],[140.3981,-34.2631,8.0],[140.3956,-34.2566,8.5856],[140.3856,-34.2503,8.0],[140.3862,-34.2474,8.8122],[140.393,-34.2441,8.0],[140.3948,-34.2394,8.9622],[140.3895,-34.2351,9.8199],[140.3806,-34.2349,8.0],[140.3794,-34.2321,8.0],[140.3747,-34.2291,11.0771],[140.3669,-34.2309,8.7758],[140.3662,-34.2291,10.2674],[140.3687,-34.2243,8.0],[140.368,-34.2213,8.0],[140.3628,-34.2152,8.7006],[140.3563,-34.2156,7.5],[140.3493,-34.2199,9.2877],[140.345,-34.2187,13.1675],[140.3463,-34.2126,8.301],[140.3601,-34.2056,7.0],[140.3628,-34.2029,8.5573],[140.3645,-34.1969,8.511],[140.3617,-34.1918,7.9729],[140.3566,-34.187,6.5],[140.3441,-34.1865,8.0339],[140.3388,-34.1824,6.992],[140.3409,-34.1753,7.1767],[140.3491,-34.1723,7.2473],[140.3508,-34.1689,6.5],[140.348,-34.1665,6.9064],[140.3373,-34.1639,7.3827],[140.3352,-34.1609,6.7202],[140.3356,-34.1567,6.5],[140.3344,-34.155,7.4006],[140.3288,-34.1556,31.4689],[140.314,-34.1687,6.5],[140.3068,-34.1731,9.423],[140.2939,-34.1868,15.2014],[140.2825,-34.1838,11.3104],[140.2707,-34.1749,7.2059],[140.2557,-34.1694,15.5492],[140.2453,-34.1732,7.3513],[140.2354,-34.1806,6.0],[140.2161,-34.174,8.4978],[140.2159,-33.9453,58.7638],[139.8572,-33.9436,42.5252],[139.8576,-34.1587,34.9432],[139.6592,-34.1592,3.0],[139.6594,-34.1653,3.6031],[139.6512,-34.1707,11.3779],[139.65,-34.1859,2.5],[139.6466,-34.1974,4.5545],[139.6389,-34.209,2.5],[139.6339,-34.2135,2.5],[139.641,-34.237,3.5151],[139.6329,-34.2481,3.5549],[139.632,-34.2589,2.0],[139.6239,-34.2652,2.0],[139.63,-34.2749,2.0],[139.6402,-34.2777,11.0363],[139.6408,-34.2844,3.0872],[139.6383,-34.2868,3.8027],[139.6324,-34.2878,6.7005],[139.6366,-34.2962,3.1761],[139.6453,-34.2992,1.5],[139.639,-34.3086,1.5],[139.6289,-34.316,1.9638],[139.6177,-34.3299,1.911],[139.6169,-34.3517,0.0],[139.6216,-34.3571,0.5157],[139.6294,-34.361,11.9628],[139.63,-34.3638,11.2409],[139.6208,-34.3903,0.0],[139.6171,-34.3963,0.0],[139.6153,-34.417,0.0],[139.6106,-34.4289,0.0],[139.6114,-34.4435,15.488],[139.6096,-34.4522,2.85],[139.6101,-34.4595,4.5443],[139.608,-34.4657,2.3989],[139.6022,-34.4712,1.0441],[139.6006,-34.4764,30.362],[139.757,-34.4768,43.0117],[139.7565,-34.4942,41.3178],[139.7582,-34.496,40.0778],[139.7573,-34.5013,41.8259],[139.7587,-34.5105,45.607],[139.7588,-34.6069,44.9212],[139.7679,-34.609,50.178],[139.8411,-34.613,59.2074],[139.8577,-34.6122,58.156],[139.8837,-34.6081,57.749],[139.8988,-34.6101,59.0746],[139.9144,-34.6144,55.5453],[139.9287,-34.6136,61.86],[139.9677,-34.6205,55.9258],[140.0642,-34.5997,58.2675],[140.0642,-34.5755,67.3347],[140.1017,-34.5755,66.0444],[140.1541,-34.5651,63.5842],[140.1882,-34.5651,65.1559],[140.188,-34.6607,68.7189],[140.1772,-34.6614,69.2376],[140.1771,-34.6947,72.0513],[140.3676,-34.6945,68.9367],[140.3672,-34.87,67.8368],[140.4297,-34.8702,72.0586],[140.4299,-35.0193,67.0753],[140.5141,-35.0195,74.6096],[140.5358,-35.0174,70.2426],[140.5406,-35.0187,68.4163],[140.562,-35.0173,77.1253],[140.5722,-35.0189,72.1412],[140.5946,-35.0182,72.7886],[140.6073,-35.0167,77.0071],[140.6073,-35.0033,82.8785],[140.6303,-35.0001,79.2663],[140.6397,-35.0021,83.9135],[140.6433,-35.0001,85.591],[140.6483,-35.0011,80.688],[140.6566,-34.9985,84.2397],[140.6763,-34.9963,89.9936],[140.7042,-34.9889,91.3315],[140.7604,-34.9914,87.6342],[140.7739,-34.9887,83.2603],[140.7865,-34.9967,74.7687],[140.796,-34.9867,87.3076],[140.8047,-34.9875,89.7446],[140.8089,-34.99,99.3572],[140.8113,-34.9939,98.9774],[140.8135,-34.9933,92.3677],[140.8229,-34.9984,90.9815],[140.8278,-35.0038,95.8925],[140.8405,-35.0079,87.4892],[140.8587,-35.0049,79.0094],[140.8745,-35.0074,73.6043],[140.892,-35.0056,72.5191],[140.9203,-35.0078,65.7936],[140.9499,-35.006,54.614],[140.9656,-35.0083,54.1784],[140.9644,-34.4973,27.8278],[140.9663,-34.4955,22.2986],[140.9644,-34.4927,31.0855],[140.9635,-34.3228,23.6736],[140.5995,-34.3231,11.281],[140.5986,-34.3259,11.2767],[140.593,-34.3252,10.0],[140.5731,-34.3286,11.3068],[140.5705,-34.3324,10.0],[140.5768,-34.3424,10.0],[140.5761,-34.3457,20.4395],[140.5721,-34.3469,18.0873],[140.5655,-34.346,13.2217],[140.555,-34.342,11.4611],[140.5526,-34.343,12.4252],[140.5519,-34.3454,10.0],[140.5624,-34.3499,10.4716],[140.5666,-34.3557,11.5352],[140.5772,-34.3565,9.8806],[140.5767,-34.3592,11.5694],[140.5665,-34.3605,10.4192],[140.5647,-34.3634,20.6904],[140.5685,-34.3659,11.8426],[140.5756,-34.3642,12.0671],[140.5795,-34.373,21.6926],[140.5831,-34.3727,12.457],[140.5861,-34.3643,8.5],[140.5885,-34.3627,10.534],[140.5958,-34.3644,10.2052],[140.5974,-34.3709,9.5737],[140.5916,-34.3781,13.1647],[140.5927,-34.3827,11.9027],[140.5964,-34.3847,18.2245],[140.5965,-34.3864,23.1583],[140.5925,-34.391,14.4733],[140.5672,-34.3949,8.5],[140.5618,-34.3988,8.5],[140.5657,-34.4035,12.115],[140.5661,-34.4089,11.4066],[140.5679,-34.4113,10.099],[140.5767,-34.4134,11.1257],[140.5855,-34.4111,17.3282],[140.5909,-34.4184,9.3152],[140.5848,-34.4326,8.5],[140.5817,-34.4346,10.5744],[140.5714,-34.4368,12.3234],[140.5725,-34.4438,9.5608],[140.5627,-34.4481,8.9568],[140.5476,-34.4467,10.5847],[140.5457,-34.449,10.9043],[140.5473,-34.4528,14.2937],[140.5394,-34.4557,8.0],[140.5345,-34.4558,8.7866],[140.5293,-34.4517,10.1772],[140.526,-34.4528,11.7617],[140.5266,-34.4563,20.5728],[140.519,-34.4547,15.3811],[140.5125,-34.4518,9.3118],[140.4981,-34.4404,8.0],[140.4955,-34.4224,13.7518],[140.4959,-34.4103,13.4325],[140.4925,-34.4071,8.0],[140.4853,-34.4063,11.0796],[140.4825,-34.4038,9.2013],[140.4829,-34.4005,11.2648],[140.4895,-34.3957,10.0644]]]]}
,"properties": {"GID_2": "AUS.8.29_1","GID_0": "AUS","country": "Australia","GID_1": "AUS.8_1","state": "SouthAustralia","NL_NAME_1": "NA","county": "LoxtonWaikerie","VARNAME_2": "NA","NL_NAME_2": "NA","TYPE_2": "DistrictCouncil","ENGTYPE_2": "DistrictCouncil","CC_2": "43790","HASC_2": "AU.SA.LW","name": "LoxtonWaikerie.county","area_km2": 7997.735,"hist_schema_id": "Elevation0-9000","hist_area_km2": {"0": 134.563,"25": 1552.353,"50": 4206.947,"75": 2035.96,"100": 67.686,"125": 0.226}}}