{"type": "Feature","bbox": [144.3577,-34.5802,146.4927,-32.6713],"geometry": {"type": "MultiPolygon","coordinates": [[[[144.4605,-33.5163,88.1575],[144.5445,-33.5257,89.8312],[144.5527,-33.4882,91.5771],[144.5739,-33.4932,91.3791],[144.6177,-33.4978,92.3145],[144.6144,-33.512,91.8173],[144.7276,-33.5251,94.6432],[144.7196,-33.5107,94.4052],[144.7028,-33.5082,93.6581],[144.7061,-33.4847,94.796],[144.6926,-33.4666,94.4231],[144.6915,-33.4623,94.0358],[144.8081,-33.4751,97.2342],[144.802,-33.5123,96.3408],[144.8192,-33.5141,97.1203],[144.821,-33.5041,96.8337],[144.8342,-33.5055,97.3404],[144.8084,-33.6652,94.7677],[144.8139,-33.6706,94.4649],[144.8117,-33.6834,95.0031],[144.8962,-33.7117,96.6213],[144.9342,-33.7162,97.8683],[144.9301,-33.7405,97.3264],[144.925,-33.7446,96.6672],[144.9275,-33.7537,96.5931],[144.964,-33.7573,97.5908],[144.9654,-33.7593,98.3111],[144.9653,-33.7573,98.18],[144.9682,-33.7564,98.5963],[144.969,-33.7581,97.5517],[144.9716,-33.7566,97.5831],[144.9689,-33.7537,98.1888],[144.9714,-33.7526,98.2235],[144.9698,-33.7505,97.6465],[144.9704,-33.7486,97.8987],[144.9724,-33.7511,99.0298],[144.9739,-33.749,98.5232],[144.9787,-33.7502,98.5783],[144.9786,-33.7477,98.4379],[144.9814,-33.7483,100.0763],[144.9809,-33.7513,97.8127],[144.9829,-33.7529,99.1266],[144.9825,-33.7501,99.8531],[144.9848,-33.75,99.0734],[144.9832,-33.7483,100.0763],[144.9857,-33.7491,98.1199],[144.9849,-33.7481,99.5912],[144.9863,-33.7467,99.6039],[144.9878,-33.7487,99.3568],[144.9903,-33.7485,98.4219],[144.989,-33.7468,98.3623],[144.9909,-33.7468,99.8906],[144.9901,-33.7437,99.6513],[144.9933,-33.7441,99.2091],[144.9939,-33.7416,100.3734],[144.9963,-33.7421,99.1611],[144.9953,-33.7393,99.1798],[145.0007,-33.739,99.7821],[144.9991,-33.7402,101.3521],[145.0022,-33.7433,98.4029],[145.0022,-33.741,100.1039],[145.0056,-33.7413,98.8694],[145.004,-33.7404,100.1039],[145.0045,-33.7377,99.5567],[145.0098,-33.7383,99.1023],[145.0124,-33.737,98.6459],[145.0129,-33.74,99.1799],[145.0154,-33.7381,99.9835],[145.0181,-33.7397,98.8179],[145.0199,-33.7383,100.2197],[145.0228,-33.7391,99.2577],[145.0206,-33.7358,100.5516],[145.0217,-33.7346,100.5516],[145.024,-33.7366,100.0999],[145.0244,-33.7395,99.2577],[145.0252,-33.7376,99.8442],[145.0282,-33.739,100.4351],[145.0267,-33.7365,99.5413],[145.0303,-33.7376,101.32],[145.0282,-33.7348,99.3616],[145.0306,-33.7366,101.32],[145.0323,-33.7344,101.9121],[145.0318,-33.7321,101.7794],[145.0331,-33.7345,101.2076],[145.0388,-33.7348,99.5901],[145.0362,-33.7345,101.2977],[145.0376,-33.7328,101.3132],[145.036,-33.7314,100.1763],[145.0397,-33.7314,99.8797],[145.0376,-33.7293,102.6149],[145.0395,-33.7296,100.1381],[145.0384,-33.7274,103.0264],[145.0398,-33.7279,102.4476],[145.0413,-33.7259,101.0817],[145.0392,-33.7263,102.4476],[145.0379,-33.7241,102.2718],[145.0411,-33.7239,100.849],[145.0395,-33.722,102.9665],[145.0415,-33.7215,101.2824],[145.0403,-33.7206,101.7139],[145.0412,-33.7188,101.7334],[145.0422,-33.7203,102.8392],[145.045,-33.7184,102.5226],[145.0424,-33.7174,102.4464],[145.0435,-33.7159,101.7675],[145.0397,-33.7145,102.3259],[145.0396,-33.713,102.3259],[145.0428,-33.7136,102.4944],[145.0414,-33.7108,102.0944],[145.0439,-33.7119,102.5052],[145.0441,-33.7094,101.4999],[145.0464,-33.7117,100.7547],[145.048,-33.7096,103.1103],[145.0495,-33.7116,102.0659],[145.0539,-33.7112,101.9489],[145.0518,-33.7135,102.7204],[145.0539,-33.7145,102.7699],[145.0529,-33.7159,101.666],[145.0552,-33.718,100.9022],[145.0582,-33.7171,101.7116],[145.0593,-33.7189,102.3024],[145.0621,-33.7192,102.338],[145.0604,-33.7214,103.2131],[145.0624,-33.7201,103.1867],[145.0661,-33.7222,101.5041],[145.0659,-33.7253,102.6083],[145.067,-33.7238,102.3925],[145.0704,-33.7253,102.0949],[145.0703,-33.7219,103.1752],[145.0776,-33.7243,102.3464],[145.0794,-33.7228,101.2443],[145.0817,-33.7235,102.2681],[145.0826,-33.7215,103.1382],[145.0852,-33.722,103.2389],[145.0871,-33.7199,103.5439],[145.0885,-33.7216,102.7314],[145.0916,-33.7215,102.4774],[145.0929,-33.7187,103.1731],[145.0956,-33.7214,102.4555],[145.0957,-33.7184,103.5075],[145.0975,-33.7199,103.4546],[145.1016,-33.7186,103.2057],[145.0994,-33.7229,103.6124],[145.1026,-33.7236,103.1894],[145.1104,-33.7198,102.6783],[145.1092,-33.7188,103.3813],[145.1099,-33.7162,101.8829],[145.1152,-33.7161,102.5269],[145.1193,-33.7141,103.714],[145.119,-33.711,101.8449],[145.1267,-33.7126,104.5739],[145.1293,-33.7159,104.8319],[145.1323,-33.7133,104.1734],[145.1306,-33.7122,105.3507],[145.1313,-33.7112,102.5289],[145.133,-33.7124,105.6968],[145.1345,-33.7109,103.0163],[145.1368,-33.7126,104.2039],[145.1387,-33.7094,102.6951],[145.1412,-33.7116,104.2665],[145.1388,-33.7122,103.7496],[145.1406,-33.715,104.6561],[145.1417,-33.7151,104.6561],[145.141,-33.7132,105.234],[145.1431,-33.7127,103.3718],[145.1481,-33.7142,102.7233],[145.1502,-33.7184,104.0353],[145.1546,-33.7171,104.2098],[145.1552,-33.716,104.2054],[145.1533,-33.7146,105.1312],[145.1587,-33.7123,104.2815],[145.1559,-33.7113,104.6115],[145.1581,-33.7085,103.6543],[145.1577,-33.705,104.0903],[145.1589,-33.7064,105.2145],[145.1604,-33.7022,103.919],[145.1635,-33.703,104.3596],[145.1635,-33.6985,104.9542],[145.1656,-33.6975,104.4415],[145.1674,-33.6988,105.329],[145.1701,-33.6972,106.8403],[145.1713,-33.6986,104.9514],[145.1714,-33.6956,105.6721],[145.1751,-33.6957,104.5307],[145.1625,-33.7714,102.6526],[145.1704,-33.7725,100.9275],[145.1695,-33.7785,100.7834],[145.2146,-33.826,102.7005],[145.0347,-33.9402,93.6277],[145.0883,-33.9991,94.3805],[145.1002,-34.0004,93.9836],[145.0985,-34.0096,93.9603],[145.1137,-34.0269,93.3695],[145.113,-34.0307,94.3046],[145.118,-34.0314,93.85],[145.1344,-34.0497,94.4896],[145.1341,-34.0515,94.6207],[145.1281,-34.0508,95.2628],[145.1237,-34.0767,93.9724],[145.1624,-34.081,94.9891],[145.162,-34.0845,95.0797],[145.1665,-34.0851,95.1046],[145.2492,-34.1763,98.9662],[145.2584,-34.1773,98.4957],[145.2578,-34.1803,98.6788],[145.2595,-34.1805,98.6615],[145.2068,-34.4884,92.674],[145.2119,-34.4926,90.9363],[145.2164,-34.4925,96.4322],[145.2161,-34.4982,94.9316],[145.2174,-34.4994,94.9316],[145.2258,-34.498,97.7066],[145.2312,-34.4998,94.2277],[145.2316,-34.5061,98.8065],[145.233,-34.5068,97.3893],[145.2344,-34.5037,97.5518],[145.2362,-34.5034,94.8872],[145.2374,-34.5043,95.4539],[145.2371,-34.5082,97.372],[145.244,-34.5044,96.1528],[145.2456,-34.4998,95.4558],[145.254,-34.4989,94.6814],[145.2563,-34.4967,98.7218],[145.2561,-34.495,95.3499],[145.2483,-34.4963,100.1298],[145.2484,-34.4916,99.1098],[145.2516,-34.4926,95.9424],[145.2573,-34.4915,101.3373],[145.2567,-34.4891,99.2477],[145.2521,-34.4879,97.1326],[145.2561,-34.4856,94.2487],[145.2509,-34.4844,99.7227],[145.255,-34.484,95.1728],[145.2551,-34.4805,96.1328],[145.2694,-34.4738,97.1826],[145.2745,-34.4769,96.1785],[145.2794,-34.4768,95.3794],[145.2856,-34.4749,95.9511],[145.2929,-34.4699,98.0072],[145.2993,-34.4703,96.004],[145.3029,-34.4674,101.4409],[145.3072,-34.4715,96.7903],[145.3167,-34.4696,99.0569],[145.3152,-34.4752,97.0566],[145.3161,-34.4768,99.3962],[145.3189,-34.4746,97.3755],[145.3259,-34.4757,96.5897],[145.3296,-34.4745,93.5018],[145.3306,-34.4693,101.0995],[145.3261,-34.4658,96.8327],[145.3194,-34.4641,95.2029],[145.3196,-34.4594,102.6354],[145.3161,-34.4558,101.2707],[145.32,-34.4541,100.1227],[145.3216,-34.4581,97.3958],[145.3244,-34.4587,96.4198],[145.3261,-34.4533,97.4134],[145.334,-34.4514,101.8156],[145.3359,-34.4526,102.9438],[145.3376,-34.4579,101.6931],[145.3409,-34.4606,96.3969],[145.3458,-34.4605,100.878],[145.3521,-34.4527,101.0521],[145.3552,-34.4537,100.0245],[145.3608,-34.4511,102.6901],[145.3616,-34.4492,106.2232],[145.3587,-34.4449,101.1059],[145.3593,-34.4425,100.4329],[145.3625,-34.4443,104.5502],[145.367,-34.4442,101.2112],[145.3694,-34.4521,101.0762],[145.3756,-34.4538,101.2941],[145.3775,-34.4595,99.0756],[145.3827,-34.4638,103.0534],[145.3861,-34.464,101.0523],[145.3905,-34.467,100.0847],[145.3963,-34.4626,100.9859],[145.3944,-34.4595,102.7007],[145.3978,-34.4592,100.8384],[145.4008,-34.4545,103.7896],[145.4049,-34.452,104.6414],[145.4004,-34.4434,100.7223],[145.4054,-34.4405,105.4618],[145.4057,-34.4357,103.6686],[145.411,-34.4356,100.7656],[145.4111,-34.4401,101.0015],[145.4084,-34.4438,101.597],[145.4148,-34.4494,102.9894],[145.4188,-34.4487,102.3597],[145.4216,-34.4438,102.2163],[145.4277,-34.443,103.5366],[145.4273,-34.4387,97.93],[145.4337,-34.4393,102.9884],[145.434,-34.4423,98.8303],[145.4384,-34.4462,105.0407],[145.4362,-34.4495,106.164],[145.4398,-34.4518,97.449],[145.4325,-34.4582,102.8004],[145.4441,-34.4684,100.0287],[145.448,-34.4636,101.5314],[145.447,-34.46,98.9694],[145.4513,-34.4602,102.6222],[145.4542,-34.4578,99.701],[145.451,-34.4509,106.9235],[145.4582,-34.4442,104.0785],[145.4597,-34.444,104.0206],[145.4588,-34.4466,104.1924],[145.4617,-34.448,100.9699],[145.4612,-34.4517,103.8068],[145.4663,-34.4504,102.2212],[145.4656,-34.4543,99.0724],[145.468,-34.4529,105.2404],[145.4716,-34.4543,99.8067],[145.4801,-34.4527,103.3987],[145.4858,-34.4558,104.0792],[145.4876,-34.4542,105.3722],[145.4919,-34.4543,104.3535],[145.494,-34.4514,108.712],[145.4907,-34.4516,105.3916],[145.4898,-34.4495,109.39],[145.4821,-34.4454,98.9579],[145.4845,-34.4425,101.0349],[145.4902,-34.4394,105.0258],[145.4908,-34.4415,105.1122],[145.4948,-34.4423,104.1346],[145.4974,-34.445,102.6656],[145.5009,-34.4403,103.0009],[145.5008,-34.4368,106.6034],[145.5037,-34.4375,104.7037],[145.5039,-34.4404,103.134],[145.508,-34.4402,107.1227],[145.509,-34.4361,107.5982],[145.5136,-34.437,99.7911],[145.5176,-34.4413,108.1094],[145.5241,-34.4394,110.5431],[145.5262,-34.4403,104.764],[145.5236,-34.4479,99.4243],[145.5247,-34.4508,100.821],[145.5264,-34.4472,102.7471],[145.5283,-34.4494,101.4587],[145.5335,-34.4462,109.1665],[145.5365,-34.447,100.211],[145.539,-34.4427,107.8477],[145.5455,-34.4456,103.67],[145.5595,-34.4425,105.0139],[145.5591,-34.4448,110.414],[145.5611,-34.4471,111.7336],[145.5655,-34.447,104.3668],[145.5668,-34.4484,103.8967],[145.5666,-34.4512,103.5684],[145.5637,-34.4523,111.9129],[145.5636,-34.4553,109.726],[145.566,-34.4552,112.5492],[145.5747,-34.4606,102.8907],[145.5758,-34.4599,102.8907],[145.5736,-34.4568,101.9567],[145.5775,-34.4573,101.9716],[145.579,-34.4543,107.0374],[145.5822,-34.4546,102.45],[145.5875,-34.4503,105.6788],[145.5875,-34.4526,103.6408],[145.5899,-34.4547,113.4902],[145.5886,-34.458,105.4965],[145.5909,-34.4602,109.1246],[145.5916,-34.4657,104.0322],[145.5986,-34.4695,103.4163],[145.6027,-34.4696,113.0049],[145.6046,-34.4716,107.8402],[145.6095,-34.4717,110.1462],[145.6099,-34.4673,104.9902],[145.6091,-34.4655,111.5412],[145.6068,-34.4659,114.8659],[145.6042,-34.462,108.9818],[145.607,-34.4621,112.4299],[145.6081,-34.4594,106.1771],[145.6106,-34.4593,101.8699],[145.6132,-34.4546,120.5641],[145.6181,-34.4556,104.6009],[145.6192,-34.4533,104.038],[145.6232,-34.4549,113.9352],[145.6265,-34.4588,108.4586],[145.6247,-34.4618,108.7137],[145.6213,-34.4618,108.9729],[145.6256,-34.4655,115.4803],[145.6232,-34.4675,110.4165],[145.6273,-34.4707,102.5953],[145.6275,-34.4663,105.506],[145.6326,-34.4657,112.6383],[145.6309,-34.4684,115.8389],[145.6336,-34.4736,110.9493],[145.6379,-34.4733,111.283],[145.6385,-34.4717,105.3865],[145.6352,-34.4712,105.5939],[145.637,-34.4675,106.1955],[145.6412,-34.4656,111.4861],[145.6456,-34.4737,105.5649],[145.6496,-34.4746,115.9253],[145.6507,-34.473,103.4881],[145.6494,-34.4701,111.2514],[145.6537,-34.4714,109.568],[145.6569,-34.4702,102.6522],[145.6578,-34.4657,113.1606],[145.6597,-34.4641,111.1905],[145.664,-34.4656,108.4534],[145.6634,-34.4686,101.8856],[145.6681,-34.4678,105.0687],[145.673,-34.4727,103.5736],[145.6789,-34.468,105.2943],[145.6899,-34.467,106.3089],[145.692,-34.4688,111.7995],[145.6969,-34.4689,113.172],[145.6981,-34.4701,111.6512],[145.6967,-34.4729,103.8925],[145.697,-34.4777,106.8123],[145.6948,-34.4806,105.2605],[145.6927,-34.4794,123.7551],[145.6909,-34.481,119.0973],[145.6842,-34.4809,116.6022],[145.6878,-34.4836,112.2727],[145.685,-34.4864,121.1773],[145.686,-34.4916,108.7216],[145.6836,-34.4963,115.5182],[145.6864,-34.4981,111.4321],[145.6855,-34.5008,111.1159],[145.6871,-34.5071,113.3882],[145.6948,-34.5072,107.7989],[145.6966,-34.509,110.3204],[145.7033,-34.5101,107.6585],[145.6978,-34.5143,107.1272],[145.6992,-34.5199,112.3817],[145.7034,-34.5198,109.8049],[145.7054,-34.5222,105.9854],[145.7106,-34.5226,107.4618],[145.7118,-34.5221,107.4618],[145.7107,-34.5198,110.5264],[145.7148,-34.5185,107.7767],[145.7162,-34.521,110.1697],[145.7222,-34.5223,120.6413],[145.7235,-34.5281,114.5973],[145.7314,-34.5285,111.214],[145.7297,-34.5336,114.2177],[145.731,-34.5347,114.1393],[145.7386,-34.5284,113.0027],[145.7416,-34.5292,110.7356],[145.7484,-34.527,109.5695],[145.7511,-34.5309,112.9454],[145.7473,-34.5358,107.8649],[145.7518,-34.5371,109.8064],[145.7565,-34.5421,110.6555],[145.7595,-34.5359,105.5608],[145.7614,-34.5355,110.1156],[145.7627,-34.5411,109.1317],[145.7672,-34.5417,109.4397],[145.7722,-34.5477,106.7251],[145.7739,-34.5444,106.922],[145.7762,-34.5437,106.2736],[145.7761,-34.5498,111.6104],[145.7793,-34.5502,109.6314],[145.782,-34.5472,107.7511],[145.7834,-34.5507,114.7425],[145.7868,-34.5502,109.5239],[145.787,-34.5529,105.0],[145.7909,-34.555,108.7037],[145.79,-34.559,115.6386],[145.795,-34.5586,109.332],[145.7947,-34.5622,109.9156],[145.7974,-34.5639,110.4925],[145.8003,-34.5586,114.1902],[145.8031,-34.5589,108.1937],[145.8042,-34.5614,116.8316],[145.8059,-34.5603,107.8511],[145.8052,-34.5567,106.886],[145.8067,-34.5534,111.4416],[145.809,-34.5521,108.5306],[145.8131,-34.5544,110.0738],[145.8146,-34.5596,114.7972],[145.8181,-34.5619,112.7298],[145.8204,-34.5605,109.1438],[145.8215,-34.5558,106.8006],[145.825,-34.5517,115.067],[145.8266,-34.5518,109.363],[145.8285,-34.5552,110.1082],[145.8333,-34.5535,107.9506],[145.8345,-34.5548,110.1306],[145.8331,-34.5592,117.5727],[145.8392,-34.5646,120.1847],[145.8503,-34.5631,117.8832],[145.8517,-34.5708,118.7087],[145.8484,-34.5768,113.8181],[145.8542,-34.5802,118.7193],[145.8587,-34.5767,118.8142],[145.8622,-34.5769,114.2032],[145.8629,-34.5786,116.2888],[145.8651,-34.5752,120.7617],[145.8686,-34.5752,122.0667],[145.8748,-34.5675,116.4285],[145.8811,-34.5661,122.5912],[145.8789,-34.5636,133.2732],[145.8818,-34.5597,131.0948],[145.8854,-34.5609,121.6388],[145.8883,-34.56,125.5338],[145.8889,-34.5569,119.1512],[145.8958,-34.5573,124.0714],[145.8981,-34.5595,115.4358],[145.9016,-34.5553,116.386],[145.9041,-34.5572,118.5789],[145.9085,-34.557,126.7849],[145.9104,-34.5541,119.3087],[145.9165,-34.5526,120.2315],[145.9194,-34.5558,123.2883],[145.9255,-34.5546,123.1799],[145.9261,-34.5581,120.9746],[145.9225,-34.5611,125.5166],[145.9228,-34.5626,122.3405],[145.9334,-34.563,124.6977],[145.9347,-34.5589,120.9598],[145.9379,-34.5607,122.2465],[145.9455,-34.5586,123.1937],[145.9465,-34.5572,120.6815],[145.944,-34.5537,120.2708],[145.9493,-34.5532,121.8788],[145.9665,-34.4531,123.0847],[145.918,-34.4411,122.5424],[145.9023,-34.4387,121.7328],[145.8264,-34.4406,117.4892],[145.8307,-34.4173,119.3562],[145.82,-34.4158,118.3936],[145.8325,-34.3453,117.194],[145.7658,-34.3373,115.3334],[145.7608,-34.3666,114.8133],[145.7343,-34.3634,113.7605],[145.7468,-34.2917,112.108],[145.7496,-34.2892,111.6596],[145.7522,-34.2746,112.334],[145.75,-34.2728,112.1061],[145.7762,-34.1159,119.2653],[145.7916,-34.1178,122.9277],[145.7949,-34.0989,126.1806],[145.8409,-34.1047,114.4111],[145.8393,-34.1128,116.4327],[145.8585,-34.115,114.2086],[145.8598,-34.107,116.952],[146.0245,-34.1273,123.4936],[146.0253,-34.1227,123.8081],[146.0474,-34.1254,137.5817],[146.0447,-34.1409,127.7593],[146.0776,-34.1452,164.2826],[146.0822,-34.1454,170.5795],[146.0937,-34.1408,146.3297],[146.0775,-34.1389,163.6355],[146.0761,-34.1247,168.9723],[146.1535,-34.1338,144.9773],[146.1505,-34.1512,136.4114],[146.1801,-34.1543,147.7997],[146.1763,-34.1763,131.2065],[146.1969,-34.1788,141.4996],[146.1936,-34.1977,132.097],[146.2121,-34.192,138.8654],[146.2139,-34.1819,149.7798],[146.2288,-34.1841,154.4918],[146.2295,-34.1865,148.3074],[146.2468,-34.1812,248.1891],[146.2335,-34.2531,133.8802],[146.3286,-34.2636,138.3567],[146.3595,-34.0837,185.4959],[146.4412,-34.0933,152.3163],[146.445,-34.0953,152.3606],[146.4468,-34.0939,153.2684],[146.4646,-34.0951,153.9027],[146.4927,-33.9196,196.2894],[146.4171,-33.9106,173.3208],[146.4372,-33.7946,190.8275],[146.3201,-33.7811,290.5492],[146.3192,-33.7864,258.9681],[146.3166,-33.7842,242.0458],[146.3172,-33.7805,251.5336],[146.0703,-33.7535,259.7685],[146.0951,-33.6031,169.5595],[146.054,-33.4758,287.1231],[146.0671,-33.3711,143.6602],[146.0682,-33.3693,149.403],[146.0712,-33.369,145.2682],[146.067,-33.3573,145.5293],[146.0728,-33.3564,144.8629],[146.0722,-33.3542,143.3862],[146.0745,-33.3521,144.8733],[146.0711,-33.3522,145.1701],[146.0711,-33.3503,143.2132],[146.075,-33.3441,144.7615],[146.076,-33.3391,143.8443],[146.0793,-33.3403,144.221],[146.0797,-33.3368,147.1446],[146.085,-33.3385,144.2507],[146.0862,-33.3376,143.3857],[146.0833,-33.3342,148.5926],[146.0853,-33.3283,150.4698],[146.0889,-33.3259,145.8423],[146.0868,-33.3236,147.1715],[146.0878,-33.3205,146.7118],[146.0907,-33.319,148.031],[146.0864,-33.3141,147.3203],[146.0838,-33.3147,146.547],[146.0816,-33.3085,145.9109],[146.0855,-33.3077,149.991],[146.081,-33.3038,149.1342],[146.084,-33.3031,148.9756],[146.0865,-33.3055,151.8164],[146.0885,-33.3043,151.0761],[146.0885,-33.3011,151.0569],[146.0831,-33.2983,156.12],[146.0875,-33.2957,153.522],[146.0836,-33.2904,148.8931],[146.0862,-33.2892,147.0509],[146.0915,-33.2914,146.7963],[146.0918,-33.2896,150.5838],[146.0895,-33.2879,147.2609],[146.093,-33.2876,152.1198],[146.0912,-33.285,155.2259],[146.0944,-33.2835,153.0175],[146.0918,-33.28,146.8417],[146.095,-33.2786,148.5536],[146.0924,-33.2765,147.7076],[146.095,-33.276,150.2101],[146.0589,-33.2118,178.2107],[146.0689,-33.204,164.1085],[146.0936,-33.1891,150.4351],[146.0317,-33.0936,187.0334],[145.9053,-33.0877,147.2026],[145.9068,-33.0786,146.5584],[145.8726,-33.0748,144.659],[145.8709,-33.0863,143.3321],[145.6453,-33.0803,132.1791],[145.6686,-32.9358,146.9287],[145.6518,-32.9352,146.7328],[145.6719,-32.8057,164.1554],[145.5865,-32.7962,163.7704],[145.5957,-32.7378,176.5155],[145.5566,-32.7333,192.0889],[145.5544,-32.736,192.1045],[145.5526,-32.7559,224.5562],[145.5489,-32.7652,231.4328],[145.5575,-32.7661,179.5023],[145.5611,-32.7569,180.0203],[145.5691,-32.7579,180.2386],[145.5606,-32.7814,184.1557],[145.5508,-32.7916,219.9945],[145.5379,-32.7833,222.6294],[145.5449,-32.7754,248.1299],[145.5043,-32.7701,232.2335],[145.5104,-32.7279,232.8055],[145.4675,-32.7225,176.0089],[145.4149,-32.7614,189.0066],[145.4126,-32.7765,213.1651],[145.331,-32.7674,155.2219],[145.3443,-32.6825,140.8542],[145.2573,-32.6713,127.1195],[145.2494,-32.7244,127.2105],[145.165,-32.7148,130.7117],[145.1273,-32.9541,110.7848],[145.1198,-32.9535,110.2197],[145.1087,-33.0342,106.0339],[145.0277,-33.0221,102.8865],[145.0272,-33.0259,102.7349],[145.0104,-33.0239,102.1589],[145.008,-33.0355,102.0262],[144.9917,-33.0337,101.6166],[144.9936,-33.0225,101.0284],[144.9849,-33.0216,101.1612],[144.9844,-33.0259,101.3534],[144.9875,-33.0264,101.4603],[144.9823,-33.0633,102.1339],[144.9864,-33.0667,102.223],[144.9859,-33.0705,102.2138],[144.9809,-33.073,102.1539],[144.9794,-33.0838,102.1229],[144.9635,-33.082,101.6433],[144.9628,-33.0873,101.7065],[144.9411,-33.0848,100.5603],[144.9423,-33.0783,100.1585],[144.9089,-33.0744,100.0923],[144.9131,-33.0491,100.5623],[144.7982,-33.0362,96.4248],[144.778,-33.1636,97.6931],[144.7757,-33.1579,96.7347],[144.7716,-33.1573,97.2243],[144.7693,-33.1585,97.0999],[144.7697,-33.1615,97.7655],[144.7638,-33.1602,97.4229],[144.7637,-33.1626,97.5169],[144.7621,-33.1633,96.956],[144.7601,-33.16,97.596],[144.7605,-33.1573,97.2291],[144.7566,-33.1557,95.982],[144.7572,-33.1525,97.0157],[144.7545,-33.1531,96.253],[144.7522,-33.1559,96.4084],[144.7524,-33.1608,97.4715],[144.7472,-33.1617,96.9706],[144.7478,-33.1658,96.6546],[144.7497,-33.1671,96.0737],[144.7496,-33.1709,95.8582],[144.742,-33.1706,95.8215],[144.7439,-33.1735,96.0135],[144.7419,-33.1737,96.2765],[144.7334,-33.2314,97.06],[144.6457,-33.2224,93.6657],[144.6427,-33.2411,93.9273],[144.6122,-33.2378,92.3849],[144.6094,-33.2563,92.6157],[144.598,-33.2551,92.1296],[144.5957,-33.27,90.9233],[144.5802,-33.2684,91.4355],[144.5775,-33.2887,90.9219],[144.5516,-33.2859,90.454],[144.5488,-33.2896,90.3074],[144.5469,-33.3,88.6991],[144.5308,-33.2983,88.1797],[144.5303,-33.2966,87.8671],[144.4911,-33.293,88.7838],[144.4887,-33.3005,88.7028],[144.4718,-33.299,87.9865],[144.4717,-33.2912,88.0665],[144.4336,-33.2877,86.4719],[144.4335,-33.2805,87.16],[144.4162,-33.2791,86.5494],[144.4142,-33.2865,86.2004],[144.3687,-33.2827,84.8608],[144.3674,-33.3075,84.7717],[144.3588,-33.3082,84.8668],[144.3577,-33.3228,84.8954],[144.3666,-33.3241,85.3719],[144.3649,-33.3598,84.555],[144.3955,-33.3633,87.2781],[144.3824,-33.4404,85.4131],[144.3912,-33.4413,85.5268],[144.3906,-33.4468,85.2003],[144.4414,-33.4525,86.756],[144.4316,-33.5131,86.0223],[144.4605,-33.5163,88.1575]]]]}
,"properties": {"GID_2": "AUS.5.30_1","GID_0": "AUS","country": "Australia","GID_1": "AUS.5_1","state": "NewSouthWales","NL_NAME_1": "NA","county": "Carrathool","VARNAME_2": "NA","NL_NAME_2": "NA","TYPE_2": "Area","ENGTYPE_2": "Area","CC_2": "11600","HASC_2": "AU.NS.CH","name": "Carrathool.county","area_km2": 18938.42,"hist_schema_id": "Elevation0-9000","hist_area_km2": {"75": 129.37,"100": 8602.46,"125": 5054.29,"150": 2419.44,"175": 1088.38,"200": 627.88,"225": 398.51,"250": 261.82,"275": 148.62,"300": 82.07,"325": 50.08,"350": 33.3,"375": 19.31,"400": 13.9,"425": 7.52,"450": 1.42}}}