{"type": "Feature","bbox": [142.5353,-36.4999,143.5687,-35.1928],"geometry": {"type": "MultiPolygon","coordinates": [[[[143.2882,-35.647,84.438],[143.288,-35.6548,84.661],[143.2003,-35.6546,84.0615],[143.1969,-35.6408,83.2679],[143.1991,-35.6357,82.0601],[143.1982,-35.6319,81.7467],[143.1968,-35.6282,82.612],[143.1923,-35.6245,82.2166],[143.1872,-35.6074,79.7164],[143.1909,-35.6029,80.2207],[143.1909,-35.5898,76.6321],[143.1922,-35.586,77.9099],[143.1985,-35.5809,77.0146],[143.1986,-35.5716,76.8285],[143.2016,-35.5643,75.3244],[143.1981,-35.5516,72.7882],[143.1846,-35.5448,71.5275],[143.1787,-35.5447,69.4146],[143.1753,-35.543,69.8594],[143.1707,-35.5427,68.8424],[143.1635,-35.5452,68.6683],[143.1518,-35.5443,66.6133],[143.1396,-35.5464,66.6915],[143.1371,-35.5453,66.3646],[143.1338,-35.5395,64.9249],[143.1358,-35.5317,65.549],[143.1319,-35.5306,65.0583],[143.1292,-35.5266,64.1164],[143.1248,-35.5241,63.3413],[143.1236,-35.5148,64.8102],[143.1275,-35.5102,62.7844],[143.1307,-35.5015,63.001],[143.1313,-35.4909,62.2857],[142.9973,-35.491,56.9047],[142.9972,-35.374,63.4703],[143.0104,-35.3738,50.5519],[143.0065,-35.3121,47.7402],[143.0101,-35.3077,49.4236],[143.0098,-35.3027,48.5625],[143.0058,-35.3005,55.6353],[143.0033,-35.2494,53.7138],[142.8564,-35.2392,48.048],[142.8564,-35.2311,53.8255],[142.83,-35.235,43.2152],[142.8212,-35.2347,42.5657],[142.818,-35.2308,58.8978],[142.8148,-35.2324,58.0545],[142.8147,-35.2366,45.5767],[142.7938,-35.2475,52.4492],[142.7481,-35.1993,60.6651],[142.6872,-35.1943,68.9527],[142.6441,-35.1944,60.0834],[142.6372,-35.1928,58.3872],[142.6115,-35.1944,59.5114],[142.6112,-35.2002,60.1926],[142.6082,-35.205,57.699],[142.6113,-35.2082,54.8342],[142.6091,-35.2205,63.6721],[142.6124,-35.2303,63.1525],[142.6118,-35.2386,63.605],[142.6082,-35.2416,61.8843],[142.6108,-35.2446,61.2982],[142.611,-35.2834,56.3756],[142.6143,-35.2866,61.249],[142.6144,-35.294,63.8126],[142.616,-35.2975,67.0473],[142.6133,-35.3012,63.1149],[142.6159,-35.3039,63.1677],[142.6118,-35.305,55.9188],[142.593,-35.3044,57.6253],[142.5816,-35.3024,61.1472],[142.5785,-35.3038,61.1799],[142.5358,-35.3029,74.3723],[142.5353,-35.3866,66.3935],[142.5437,-35.387,67.3161],[142.5433,-35.4758,75.1039],[142.7225,-35.4753,63.1306],[142.7218,-35.736,90.6538],[142.6011,-35.7364,82.0359],[142.6011,-35.9322,94.3262],[142.5976,-35.932,99.6617],[142.601,-35.9349,94.7539],[142.6008,-35.9979,100.0113],[142.6044,-35.9978,100.0069],[142.6042,-36.1205,101.6175],[142.6315,-36.1205,108.0317],[142.6316,-36.1253,106.6926],[142.6809,-36.0963,106.2586],[142.6809,-36.0999,106.4747],[142.7033,-36.1,106.1581],[142.7318,-36.1034,103.8208],[142.7287,-36.1203,104.361],[142.7289,-36.1471,107.6058],[142.7278,-36.1478,107.0976],[142.7432,-36.1478,106.0858],[142.7422,-36.1532,106.226],[142.7475,-36.1539,106.5662],[142.7458,-36.1637,107.1972],[142.7422,-36.1633,107.6394],[142.7417,-36.166,107.4571],[142.7364,-36.1657,107.4334],[142.7354,-36.1835,108.5395],[142.7321,-36.1831,107.6723],[142.7322,-36.2097,108.8041],[142.7252,-36.2097,108.7213],[142.7253,-36.2245,110.3207],[142.728,-36.2245,110.6324],[142.728,-36.2394,110.6849],[142.7221,-36.2394,110.6127],[142.7221,-36.2623,112.3832],[142.7431,-36.2646,113.1951],[142.7401,-36.2828,113.2247],[142.7272,-36.2814,113.1749],[142.7256,-36.2915,113.0115],[142.7219,-36.2911,114.7913],[142.7192,-36.3072,113.8139],[142.7316,-36.2986,115.7747],[142.7316,-36.3757,119.5954],[142.735,-36.376,119.2439],[142.743,-36.3931,122.0649],[142.7319,-36.3973,121.5024],[142.7318,-36.4052,124.4328],[142.7621,-36.4052,123.7603],[142.7621,-36.4081,125.0983],[142.7987,-36.4081,125.1019],[142.7986,-36.4376,124.6079],[142.8167,-36.4375,126.6932],[142.8167,-36.4596,128.172],[142.823,-36.4625,128.0395],[143.0198,-36.4827,124.5214],[143.0212,-36.474,121.5728],[143.0515,-36.4773,122.6815],[143.053,-36.4681,122.2175],[143.0574,-36.4682,120.6996],[143.0557,-36.464,121.0599],[143.0594,-36.4619,120.926],[143.0449,-36.4432,119.6885],[143.0637,-36.4452,120.4893],[143.0723,-36.4447,120.9986],[143.0726,-36.4429,122.5049],[143.1331,-36.4494,138.0636],[143.1391,-36.413,134.0486],[143.1474,-36.4097,138.0113],[143.2384,-36.4095,149.3443],[143.2384,-36.4054,149.1361],[143.248,-36.4054,150.1583],[143.2528,-36.4069,153.3611],[143.2856,-36.4067,147.3089],[143.2863,-36.4083,147.0484],[143.2896,-36.4086,149.8539],[143.2887,-36.4094,149.8539],[143.2899,-36.4106,145.97],[143.2931,-36.411,146.4601],[143.2902,-36.4123,147.7431],[143.2919,-36.4179,144.4557],[143.2883,-36.4196,145.7394],[143.2888,-36.4212,145.7394],[143.2928,-36.4221,146.0248],[143.2906,-36.4256,146.431],[143.291,-36.4301,147.3338],[143.2942,-36.4321,147.228],[143.2917,-36.4349,147.8379],[143.3003,-36.4362,150.8673],[143.2983,-36.4399,150.731],[143.3025,-36.4407,149.7755],[143.301,-36.4427,150.203],[143.3038,-36.4452,152.4763],[143.3035,-36.4504,153.9935],[143.3066,-36.4528,154.0151],[143.3049,-36.4548,153.4299],[143.3091,-36.4553,153.3504],[143.3113,-36.4646,151.3477],[143.3104,-36.4705,150.9746],[143.3152,-36.4769,154.6442],[143.3326,-36.4888,161.7918],[143.3561,-36.4922,221.4056],[143.3611,-36.4906,220.9861],[143.3882,-36.4934,206.8099],[143.3867,-36.498,201.2395],[143.4068,-36.4999,200.6004],[143.4122,-36.4677,202.8556],[143.4301,-36.4696,212.1181],[143.4317,-36.4623,214.4704],[143.4366,-36.4628,239.1154],[143.4371,-36.4597,256.6064],[143.4411,-36.4602,287.0101],[143.443,-36.4503,283.6031],[143.4403,-36.4455,241.7388],[143.4451,-36.446,250.4062],[143.4466,-36.437,219.4518],[143.4416,-36.4366,219.2122],[143.4439,-36.4225,206.7129],[143.4411,-36.4224,203.1946],[143.4464,-36.3917,175.8357],[143.439,-36.3905,181.7478],[143.4389,-36.3684,185.064],[143.4682,-36.3718,160.445],[143.4677,-36.3749,161.5082],[143.4785,-36.3761,160.3413],[143.4861,-36.3395,150.8479],[143.476,-36.3349,149.0743],[143.4821,-36.3016,149.8045],[143.4821,-36.295,155.9948],[143.514,-36.2951,173.1655],[143.508,-36.265,160.5647],[143.5236,-36.2646,168.4907],[143.5236,-36.2498,170.1997],[143.533,-36.2485,166.0341],[143.5382,-36.2459,165.8554],[143.5605,-36.2253,127.9062],[143.5687,-36.2222,124.4199],[143.5471,-36.2199,136.7227],[143.5497,-36.2053,117.4286],[143.5317,-36.2033,125.508],[143.5367,-36.174,115.8065],[143.5135,-36.1733,112.7531],[143.5135,-36.1521,111.9992],[143.5112,-36.1521,109.5562],[143.5037,-36.1369,109.0774],[143.5067,-36.1335,109.6847],[143.5115,-36.1333,109.79],[143.5116,-36.1013,109.3855],[143.4822,-36.1017,107.9463],[143.4817,-35.9832,97.8538],[143.4324,-35.9835,103.0644],[143.4324,-35.9886,101.3419],[143.4303,-35.9885,104.191],[143.4277,-35.9911,103.8874],[143.4283,-35.9929,103.5828],[143.4239,-35.9975,104.8575],[143.4249,-35.999,102.9445],[143.4182,-36.0033,104.1497],[143.4172,-36.008,103.2794],[143.4127,-36.0095,103.1036],[143.4129,-36.0115,104.4778],[143.4073,-36.0119,105.7111],[143.4094,-36.0137,102.8552],[143.4067,-36.0144,102.9359],[143.408,-36.0169,105.4886],[143.4059,-36.0183,104.2396],[143.4006,-36.0138,106.8018],[143.3969,-36.0153,107.8005],[143.3787,-36.0143,105.625],[143.3787,-36.007,104.521],[143.3772,-36.007,103.8043],[143.3773,-35.9921,102.7728],[143.3654,-35.992,102.7733],[143.3653,-35.9337,97.3086],[143.3725,-35.9337,97.1488],[143.3818,-35.8804,94.8696],[143.3787,-35.8801,94.7584],[143.3848,-35.8431,99.0076],[143.3584,-35.8399,93.095],[143.3597,-35.8325,93.7959],[143.3571,-35.8322,92.8922],[143.3596,-35.8296,92.8347],[143.3544,-35.8227,92.5176],[143.3553,-35.8177,92.3512],[143.3535,-35.8152,91.4001],[143.3574,-35.8112,92.2183],[143.3565,-35.8082,92.4973],[143.3527,-35.8067,91.624],[143.353,-35.797,91.1755],[143.3504,-35.7926,91.3687],[143.3528,-35.7915,91.7855],[143.3528,-35.7882,91.1275],[143.3566,-35.7854,90.7499],[143.3559,-35.7833,90.3544],[143.3576,-35.7806,90.6321],[143.3609,-35.7812,90.1377],[143.362,-35.7776,91.505],[143.3665,-35.7738,90.4959],[143.3652,-35.7695,90.5176],[143.3687,-35.7667,90.5289],[143.3669,-35.7642,89.9037],[143.3717,-35.7585,90.2959],[143.3724,-35.7539,89.5554],[143.3685,-35.746,88.6953],[143.3643,-35.7442,88.0476],[143.3635,-35.7415,88.768],[143.3492,-35.7333,86.5397],[143.3472,-35.7292,86.2563],[143.3493,-35.7276,85.9874],[143.3497,-35.7215,86.0273],[143.3471,-35.7212,85.6836],[143.3462,-35.7178,85.9404],[143.3386,-35.713,86.453],[143.3364,-35.7091,87.3371],[143.335,-35.6976,86.3262],[143.3367,-35.6916,84.7473],[143.3437,-35.6852,86.6677],[143.3414,-35.6812,86.6745],[143.3334,-35.6793,86.4171],[143.3363,-35.6766,86.1421],[143.3298,-35.672,85.522],[143.3302,-35.6584,85.6396],[143.2882,-35.647,84.438]]]]}
,"properties": {"GID_2": "AUS.10.11_1","GID_0": "AUS","country": "Australia","GID_1": "AUS.10_1","state": "Victoria","NL_NAME_1": "NA","county": "Buloke","VARNAME_2": "NA","NL_NAME_2": "NA","TYPE_2": "Shire","ENGTYPE_2": "Shire","CC_2": "21270","HASC_2": "AU.VI.BU","name": "Buloke.county","area_km2": 8000.423,"hist_schema_id": "Elevation0-9000","hist_area_km2": {"50": 895.978,"75": 1838.619,"100": 3346.795,"125": 1346.85,"150": 403.181,"175": 80.523,"200": 45.133,"225": 28.025,"250": 9.195,"275": 4.317,"300": 1.467,"325": 0.341}}}