{"type":"Feature","properties":{"GID_2":"AUS.5.130_1","GID_0":"AUS","country":"Australia","GID_1":"AUS.5_1","state":"NewSouthWales","NL_NAME_1":"NA","county":"UnincorporatedNewSouthWales","VARNAME_2":"NA","NL_NAME_2":"NA","TYPE_2":"UnincorporatedAreaUnincorporate","ENGTYPE_2":"UnincorporatedArea","CC_2":"19399","HASC_2":"NA","name":"UnincorporatedNewSouthWales.county"},
"geometry":{"type": "MultiPolygon","coordinates": [[[[159.1085,-31.5403,0.4052],[159.1091,-31.5391,0.0],[159.1061,-31.5412,1.414],[159.1073,-31.5419,0.1099],[159.1085,-31.5403,0.4052]]],
[[[159.1055,-31.5406,0.2174],[159.106,-31.5401,1.414],[159.1058,-31.5398,1.414],[159.1054,-31.5401,0.2174],[159.1055,-31.5406,0.2174]]],
[[[159.0735,-31.5024,0.0753],[159.0738,-31.5017,0.0753],[159.0721,-31.5018,0.0],[159.0723,-31.5027,0.0],[159.0735,-31.5024,0.0753]]],
[[[159.0715,-31.4871,0.0881],[159.0709,-31.487,0.0881],[159.0706,-31.4883,0.0],[159.0719,-31.4872,0.0881],[159.0715,-31.4871,0.0881]]],
[[[144.3916,-29.0002,127.9616],[144.3921,-28.999,127.7299],[144.356,-28.9988,129.5238],[142.6026,-28.999,80.7467],[142.4844,-28.9978,78.0],[140.9995,-28.9991,118.5077],[141.0024,-33.3288,70.107],[141.264,-33.3558,80.7891],[141.2666,-33.3372,69.345],[141.3087,-33.3414,81.2265],[141.3058,-33.3625,90.5423],[141.348,-33.3667,57.5499],[141.4018,-32.9867,72.9906],[141.5732,-33.0056,81.8031],[141.5608,-33.0963,73.1839],[142.0384,-33.1439,61.9245],[142.0229,-33.0848,48.8277],[142.1078,-33.0901,47.5392],[142.1057,-33.1124,44.0],[142.1731,-33.1168,72.148],[142.1782,-33.1153,66.7148],[142.2226,-33.12,46.5],[142.227,-33.1263,46.5],[142.2224,-33.129,49.0306],[142.2428,-33.1309,52.3813],[142.2447,-33.1188,52.7617],[142.2688,-33.1224,48.5855],[142.2699,-33.12,48.1535],[142.2719,-33.1197,52.4517],[142.2751,-33.1245,49.7377],[142.2807,-33.1215,50.138],[142.2743,-33.1154,50.7408],[142.2743,-33.1123,50.1461],[142.2793,-33.116,56.4397],[142.2931,-33.1173,50.0131],[142.2954,-33.1093,50.1804],[142.2874,-33.1088,52.3698],[142.2869,-33.1074,48.8186],[142.2905,-33.1053,50.549],[142.2916,-33.0997,49.0382],[142.2965,-33.1029,50.07],[142.295,-33.0955,52.3547],[142.3026,-33.0926,52.2083],[142.2887,-33.0883,51.1722],[142.2876,-33.0855,49.3873],[142.2892,-33.082,49.2744],[142.3117,-33.0669,51.1152],[142.3144,-33.0594,51.0222],[142.3132,-33.05,53.204],[142.3168,-33.0491,51.9713],[142.3265,-33.0504,53.6734],[142.3294,-33.0474,51.6081],[142.3338,-33.0471,52.2021],[142.3448,-33.0376,52.048],[142.3492,-33.0374,52.5786],[142.3516,-33.0336,51.0027],[142.3581,-33.0353,52.0418],[142.3583,-33.027,50.8095],[142.3665,-33.0283,52.1899],[142.3635,-33.0256,51.7989],[142.3663,-33.0177,50.247],[142.3758,-33.0146,51.2068],[142.3782,-33.0093,51.5927],[142.3857,-33.0009,52.645],[142.3849,-32.9994,60.4901],[142.3807,-33.0012,53.3438],[142.3811,-32.9969,51.4734],[142.3725,-32.996,52.7642],[142.3754,-32.988,52.1906],[142.3726,-32.9809,53.8564],[142.3757,-32.9793,52.2679],[142.3715,-32.9755,52.6292],[142.3764,-32.973,52.5697],[142.367,-32.9647,50.27],[142.3726,-32.961,50.8351],[142.3599,-32.9599,52.1468],[142.3582,-32.9582,50.3232],[142.3657,-32.9549,55.2539],[142.3622,-32.9505,50.6095],[142.3643,-32.9446,51.0448],[142.3607,-32.9415,52.0218],[142.3646,-32.9381,53.6557],[142.365,-32.9341,52.5774],[142.3697,-32.9317,53.8551],[142.3756,-32.9328,52.6125],[142.3774,-32.9281,52.3445],[142.3709,-32.9244,52.6448],[142.3655,-32.9254,52.7944],[142.3655,-32.929,51.0538],[142.3628,-32.9296,53.3979],[142.3613,-32.9215,53.8783],[142.3677,-32.9219,55.8113],[142.3649,-32.9183,51.957],[142.3664,-32.9124,51.6296],[142.3692,-32.9116,55.4734],[142.3743,-32.9134,52.5284],[142.3764,-32.9077,51.8153],[142.3753,-32.9061,55.5461],[142.371,-32.9058,53.1974],[142.3732,-32.9017,52.9568],[142.3719,-32.9003,55.8937],[142.366,-32.8994,56.6704],[142.3619,-32.8955,52.4985],[142.3557,-32.8964,54.2266],[142.3463,-32.8929,53.7079],[142.3533,-32.8889,56.9604],[142.3556,-32.8856,54.1115],[142.3561,-32.8779,52.6427],[142.3643,-32.8805,54.5081],[142.3702,-32.8774,52.8178],[142.3688,-32.8711,56.6686],[142.3622,-32.8674,53.8093],[142.3632,-32.8639,57.2101],[142.3591,-32.8629,52.9956],[142.3622,-32.8579,54.4682],[142.3585,-32.8539,52.6674],[142.3645,-32.8495,54.9167],[142.3648,-32.8458,53.3622],[142.3614,-32.8451,57.0649],[142.3606,-32.8406,54.1461],[142.3542,-32.8334,54.2642],[142.35,-32.8347,56.4449],[142.3448,-32.8316,53.2814],[142.3434,-32.8285,53.5324],[142.347,-32.8249,56.2202],[142.3656,-32.8149,53.7079],[142.366,-32.8073,57.7],[142.3703,-32.806,53.644],[142.3697,-32.8026,57.6352],[142.3757,-32.7988,55.3981],[142.3752,-32.7952,54.2973],[142.3703,-32.7927,54.4339],[142.375,-32.7857,53.1516],[142.3768,-32.7856,53.8867],[142.3811,-32.7935,55.0172],[142.3857,-32.7927,54.7208],[142.3859,-32.7858,53.1951],[142.389,-32.7832,57.1134],[142.3882,-32.7805,53.8092],[142.3842,-32.7808,54.8159],[142.3868,-32.7769,52.5214],[142.3856,-32.7737,54.7041],[142.388,-32.7697,54.8317],[142.2365,-32.7548,57.7025],[142.2485,-32.6649,58.2517],[142.2485,-32.6105,57.7758],[142.1349,-32.5977,72.1614],[142.1319,-32.5963,69.2005],[142.134,-32.5951,73.6201],[142.1192,-32.5558,64.9008],[142.1062,-32.5308,61.5557],[142.0982,-32.5251,53.0],[142.0986,-32.5235,53.0],[142.1098,-32.5226,57.6421],[142.116,-32.5149,62.7067],[142.1098,-32.4985,66.4426],[142.1144,-32.4794,60.8424],[142.0918,-32.4679,66.1324],[142.0975,-32.4574,63.1248],[142.1074,-32.4185,67.5941],[142.1115,-32.3674,74.5264],[142.241,-32.3797,59.0486],[142.2603,-32.3682,59.5625],[142.2538,-32.3533,57.7039],[142.2452,-32.3513,59.4928],[142.2458,-32.3498,60.292],[142.2466,-32.3513,59.4928],[142.2537,-32.3522,58.4336],[142.2572,-32.3408,57.0],[142.256,-32.3344,62.3225],[142.2661,-32.3231,62.6245],[142.2658,-32.3154,64.498],[142.2678,-32.3081,57.0],[142.2667,-32.2988,65.1655],[142.2735,-32.2845,60.8117],[142.2796,-32.2792,60.6263],[142.2958,-32.2753,59.7879],[142.2954,-32.2142,71.7659],[142.3455,-32.2245,66.4149],[142.3705,-32.2075,68.2179],[142.3722,-32.1225,89.1084],[142.5258,-32.0067,93.2284],[142.5213,-32.0023,95.3943],[142.6942,-31.8681,140.5203],[142.6802,-31.8568,140.446],[142.7277,-31.8241,138.3343],[142.7465,-31.8212,137.6644],[142.7698,-31.8386,118.0758],[142.785,-31.8386,112.8834],[142.7871,-31.8518,108.6009],[142.8099,-31.8694,101.3039],[142.8576,-31.8234,119.9598],[142.8211,-31.7945,122.3569],[142.8639,-31.7539,104.9356],[142.8917,-31.7324,107.3798],[142.8318,-31.6781,134.2219],[142.8261,-31.6713,140.2366],[142.8306,-31.6388,123.552],[142.8141,-31.6371,129.1571],[142.7863,-31.6151,155.7041],[142.803,-31.6021,202.3522],[142.8235,-31.5896,141.5711],[142.7265,-31.5145,143.2833],[142.726,-31.3358,195.5975],[142.7559,-31.3356,188.5206],[142.7554,-31.0701,171.2362],[142.5848,-31.0704,349.0847],[142.5853,-31.0041,274.932],[142.741,-31.0048,176.0819],[142.7396,-30.975,194.244],[142.7393,-30.7134,199.9055],[142.7641,-30.7134,184.8268],[142.7637,-30.6052,178.1095],[142.8533,-30.6049,148.1607],[142.8535,-30.4636,122.7859],[143.0213,-30.4626,137.5648],[143.0204,-30.3159,131.4449],[143.2902,-30.314,152.0611],[143.2921,-30.3018,149.421],[143.4975,-30.3232,169.8263],[143.509,-30.2426,168.6017],[143.9422,-30.2897,92.3998],[143.9441,-30.281,93.3764],[143.9412,-30.2731,95.3197],[144.0396,-30.2814,93.6125],[144.0348,-30.3107,92.6561],[144.0268,-30.3244,91.8351],[144.1135,-30.3319,93.8655],[144.0924,-30.3866,96.9302],[144.0935,-30.3914,98.1882],[144.1261,-30.424,89.4606],[144.1553,-30.4029,92.1032],[144.1557,-30.3993,94.0794],[144.16,-30.3997,93.5383],[144.1977,-30.372,89.995],[144.1876,-30.3607,94.5204],[144.3444,-30.254,108.1421],[144.2098,-30.2398,93.4966],[144.2344,-30.0799,100.3264],[144.0654,-30.0633,96.1918],[144.0664,-30.0604,96.678],[144.0652,-30.0566,97.3466],[144.0664,-30.051,97.577],[144.0699,-30.0465,97.7436],[144.0769,-30.0456,98.5303],[144.0808,-30.0469,98.9999],[144.0847,-30.0436,98.8729],[144.0951,-30.0427,98.5932],[144.0963,-30.041,98.7273],[144.0963,-30.0331,98.5239],[144.1011,-30.0227,98.767],[144.1065,-30.0203,99.3166],[144.1109,-30.0158,99.3815],[144.118,-30.0144,99.0357],[144.124,-30.0061,98.9371],[144.1242,-30.0029,99.4919],[144.1279,-29.9997,99.6634],[144.1301,-29.9939,100.0137],[144.129,-29.9873,99.482],[144.133,-29.9857,100.7203],[144.1323,-29.9821,99.8802],[144.1336,-29.9807,100.4464],[144.1322,-29.9712,100.6129],[144.1293,-29.9666,100.1059],[144.1298,-29.9595,100.3823],[144.132,-29.9558,100.438],[144.1293,-29.9472,100.9217],[144.1306,-29.9428,100.9319],[144.1285,-29.9395,100.9597],[144.1323,-29.9369,101.3253],[144.1384,-29.9382,100.9267],[144.1402,-29.9371,100.7686],[144.1351,-29.9228,101.2605],[144.1389,-29.9166,101.6637],[144.141,-29.9169,101.9773],[144.1382,-29.9086,101.8816],[144.1416,-29.904,102.0181],[144.1472,-29.9022,102.4069],[144.1516,-29.898,102.8321],[144.1461,-29.8925,102.9176],[144.1485,-29.8913,101.9715],[144.1501,-29.883,102.1593],[144.1487,-29.8802,102.979],[144.1449,-29.88,103.3594],[144.144,-29.8722,103.5464],[144.1395,-29.8662,104.9492],[144.1355,-29.8495,103.0217],[144.1256,-29.8486,103.6162],[144.1265,-29.8414,103.5319],[144.1372,-29.8423,103.2815],[144.137,-29.8412,103.475],[144.1244,-29.8351,101.2032],[144.1256,-29.8292,103.7852],[144.1158,-29.8242,102.3495],[144.1111,-29.8168,104.0823],[144.1132,-29.8136,102.9226],[144.1208,-29.8108,102.2559],[144.1202,-29.8085,102.3422],[144.113,-29.8018,103.0963],[144.1183,-29.7907,101.0811],[144.1274,-29.7872,101.1737],[144.1271,-29.7821,103.1976],[144.1385,-29.7741,103.2264],[144.142,-29.7679,103.5381],[144.1402,-29.7567,104.1017],[144.1309,-29.7421,105.2035],[144.1293,-29.7368,105.0443],[144.1328,-29.7283,104.9684],[144.1352,-29.7272,105.2277],[144.1348,-29.7237,105.4609],[144.1393,-29.7186,105.0572],[144.1457,-29.7157,105.1569],[144.1353,-29.7071,106.8645],[144.1459,-29.6977,105.3642],[144.1371,-29.6904,106.7551],[144.1375,-29.6876,106.9969],[144.1653,-29.6912,106.0441],[144.1686,-29.6831,107.1252],[144.1757,-29.6789,106.2708],[144.1891,-29.6637,106.2125],[144.195,-29.6599,106.4412],[144.1937,-29.6495,106.8733],[144.1999,-29.6427,107.552],[144.2035,-29.6411,107.6744],[144.2058,-29.6367,108.2593],[144.2044,-29.6354,107.561],[144.2123,-29.6312,107.8207],[144.2173,-29.6316,107.6543],[144.226,-29.6268,107.7391],[144.2298,-29.6207,107.9357],[144.2283,-29.614,107.8479],[144.2317,-29.6116,107.653],[144.2321,-29.6057,108.6182],[144.2366,-29.6037,108.4081],[144.2435,-29.5895,108.1065],[144.2476,-29.5869,108.7476],[144.2605,-29.5841,108.8302],[144.273,-29.5732,108.1071],[144.2819,-29.5711,109.6355],[144.2907,-29.5589,109.9301],[144.2962,-29.5552,109.5423],[144.2985,-29.5484,110.4007],[144.302,-29.5457,110.3218],[144.3029,-29.5428,110.5651],[144.3144,-29.5358,111.3291],[144.3178,-29.5281,111.4714],[144.3212,-29.5269,110.7714],[144.321,-29.5237,110.2874],[144.3344,-29.5094,109.9756],[144.3367,-29.5088,112.2822],[144.337,-29.5134,110.606],[144.3393,-29.5126,112.5542],[144.3516,-29.5023,111.7048],[144.3621,-29.4903,112.3007],[144.374,-29.4838,111.8153],[144.3763,-29.4769,112.1694],[144.3859,-29.4652,112.8613],[144.3943,-29.461,113.3253],[144.3967,-29.4511,113.7868],[144.3986,-29.4491,114.0444],[144.4021,-29.4491,114.2475],[144.4136,-29.4286,113.8086],[144.4119,-29.4269,114.6787],[144.4127,-29.4167,113.5833],[144.4175,-29.4104,114.7184],[144.4202,-29.4026,115.3859],[144.4169,-29.3884,116.7503],[144.4208,-29.3843,116.1929],[144.4198,-29.3802,116.1843],[144.4235,-29.374,115.7922],[144.4245,-29.3673,116.0918],[144.4215,-29.3624,116.2695],[144.4211,-29.3585,116.8675],[144.4168,-29.358,117.5384],[144.4158,-29.3528,116.3225],[144.4138,-29.3512,116.1149],[144.4144,-29.337,115.244],[144.41,-29.3325,116.262],[144.4091,-29.3273,116.5481],[144.4035,-29.322,116.8006],[144.4032,-29.3158,115.6521],[144.4105,-29.2988,116.7525],[144.4167,-29.2941,117.4183],[144.4183,-29.2867,117.8735],[144.4273,-29.2834,117.6038],[144.4312,-29.2743,118.0502],[144.4493,-29.2665,118.4956],[144.4541,-29.259,118.1937],[144.4546,-29.2558,118.4148],[144.4509,-29.2536,118.2038],[144.45,-29.2491,118.9195],[144.4517,-29.2419,118.2964],[144.4545,-29.2391,118.4611],[144.4645,-29.2358,119.5154],[144.4683,-29.231,120.214],[144.4683,-29.2292,119.8275],[144.4636,-29.2248,119.6172],[144.4612,-29.2168,119.5469],[144.4656,-29.207,119.5275],[144.4742,-29.1996,120.2417],[144.4711,-29.1913,120.9407],[144.4722,-29.1852,120.5169],[144.4792,-29.1793,120.5639],[144.4788,-29.1733,120.6963],[144.4807,-29.1686,120.8176],[144.4748,-29.1595,120.9122],[144.4757,-29.1526,120.9309],[144.4724,-29.1497,120.4851],[144.4677,-29.1381,122.0946],[144.4646,-29.1348,120.8247],[144.46,-29.1333,121.6141],[144.4557,-29.127,122.647],[144.4466,-29.1223,122.089],[144.4463,-29.1145,122.2952],[144.4429,-29.111,122.6965],[144.4432,-29.1075,123.0431],[144.4414,-29.1047,122.6484],[144.4347,-29.1027,123.2001],[144.4292,-29.1045,123.4896],[144.4233,-29.1089,123.9708],[144.4137,-29.1078,123.642],[144.3944,-29.1122,124.6439],[144.379,-29.1089,124.8033],[144.3691,-29.1029,125.5398],[144.3566,-29.0844,126.4514],[144.3567,-29.0641,125.5064],[144.3597,-29.0619,125.9214],[144.3633,-29.0547,126.0294],[144.3653,-29.0485,126.3948],[144.3643,-29.0432,126.3559],[144.3694,-29.0283,125.2839],[144.3737,-29.0254,127.0648],[144.3807,-29.0113,127.4675],[144.3881,-29.0064,127.1668],[144.3916,-29.0002,127.9616]],
[[141.5479,-31.9136,252.3847],[141.5493,-31.9137,250.9365],[141.5481,-31.9255,244.7962],[141.5454,-31.9253,245.8845],[141.5428,-31.9461,257.9259],[141.5426,-32.0024,331.1095],[141.483,-32.0025,286.2394],[141.4798,-32.009,283.3534],[141.4735,-32.0091,277.6126],[141.4815,-32.0169,290.2334],[141.4784,-32.0191,286.0367],[141.4683,-32.0091,275.1925],[141.4599,-32.0118,273.6364],[141.458,-32.0094,277.3275],[141.4639,-32.0045,277.9597],[141.463,-32.0025,279.0015],[141.4121,-32.0026,270.9837],[141.3907,-31.9769,276.754],[141.413,-31.9715,285.3122],[141.413,-31.8868,301.7695],[141.5585,-31.8838,240.7854],[141.5636,-31.885,239.4348],[141.5565,-31.9027,238.0134],[141.5657,-31.9076,236.4584],[141.5464,-31.9135,248.874],[141.5479,-31.9136,252.3847]]],
[[[159.07,-31.4963,0.0],[159.071,-31.4962,0.0],[159.0707,-31.494,0.2548],[159.0696,-31.4951,8.1249],[159.07,-31.4963,0.0]]],
[[[159.0674,-31.5043,0.3307],[159.068,-31.5049,0.0],[159.0688,-31.5042,0.0],[159.0679,-31.5036,0.3307],[159.0674,-31.5043,0.3307]]],
[[[159.0645,-31.5016,0.0],[159.0651,-31.5016,0.0697],[159.0641,-31.5011,0.0],[159.064,-31.5014,0.0],[159.0645,-31.5016,0.0]]],
[[[159.0689,-31.4985,0.0],[159.0694,-31.497,0.0],[159.0655,-31.4975,0.0],[159.069,-31.5019,10.108],[159.0717,-31.5017,0.0],[159.0695,-31.4997,24.4316],[159.0689,-31.4985,0.0]]],
[[[159.0717,-31.5995,0.0733],[159.073,-31.5996,0.0],[159.0733,-31.5993,0.0],[159.072,-31.5987,0.0733],[159.0717,-31.5995,0.0733]]],
[[[159.0633,-31.5086,0.11],[159.0626,-31.5084,0.11],[159.0622,-31.5088,0.0],[159.0637,-31.509,0.11],[159.0633,-31.5086,0.11]]],
[[[159.0575,-31.5208,0.6596],[159.05760714285714,-31.521107142857137,0.6596],[159.0577,-31.5212,0.6596],[159.05763953488372,-31.5212,0.6596],[159.059,-31.5251,0.0225],[159.0641,-31.5271,1.9191],[159.0772,-31.5435,14.7617],[159.0744,-31.548,0.0],[159.0764,-31.5547,0.0],[159.0756,-31.5692,14.2872],[159.0712,-31.5743,40.2756],[159.0721,-31.576,45.3188],[159.0689,-31.578,18.5088],[159.07,-31.5819,3.6822],[159.0679,-31.5834,0.0],[159.0666,-31.5884,0.0],[159.0693,-31.5927,0.0],[159.0686,-31.5956,0.0],[159.0711,-31.5947,9.8419],[159.0736,-31.5978,4.7709],[159.0764,-31.5924,8.5495],[159.0813,-31.5908,1.5076],[159.0868,-31.5815,48.4177],[159.0898,-31.5806,4.1328],[159.0897,-31.578,4.3842],[159.0928,-31.5751,33.1236],[159.0942,-31.571,48.2421],[159.0996,-31.5734,0.0],[159.0958,-31.5682,0.0],[159.0957,-31.5667,14.784],[159.0988,-31.5667,1.5694],[159.0978,-31.5643,39.4441],[159.1026,-31.5662,19.1782],[159.1054,-31.5639,0.4237],[159.1037,-31.5644,0.4237],[159.1042,-31.5615,0.0],[159.1016,-31.5625,67.6635],[159.1042,-31.5581,0.0],[159.1014,-31.559,32.7057],[159.1004,-31.5569,2.4668],[159.0979,-31.5592,10.2012],[159.0976,-31.5557,0.0],[159.0951,-31.5542,36.4236],[159.0977,-31.5522,0.0],[159.0925,-31.547,23.4029],[159.0947,-31.545,4.9979],[159.0922,-31.5465,23.4029],[159.0877,-31.5452,20.6618],[159.0819,-31.5398,1.1519],[159.0822,-31.5346,18.9921],[159.08,-31.5321,6.5706],[159.0812,-31.5266,0.0],[159.0752,-31.5269,8.0184],[159.0725,-31.5179,0.0],[159.066,-31.5187,5.8524],[159.0638,-31.5174,10.6331],[159.0646,-31.5097,0.0],[159.059,-31.5126,5.3296],[159.0432,-31.5119,9.3415],[159.0435,-31.5146,9.4208],[159.038,-31.5122,0.0],[159.0389,-31.5149,30.674],[159.0369,-31.517,21.6007],[159.0385,-31.5225,29.3786],[159.0425,-31.5222,0.0],[159.0426,-31.5186,0.0],[159.0452,-31.5172,4.1306],[159.0479,-31.5182,0.0],[159.0514,-31.5233,0.0],[159.0539,-31.5192,10.8929],[159.0575,-31.5208,0.6596]]],
[[[159.05763953488372,-31.5212,0.6596],[159.05760714285714,-31.521107142857137,0.6596],[159.0576,-31.5211,0.6596],[159.0575,-31.5212,0.6596],[159.05763953488372,-31.5212,0.6596]]],
[[[159.0605,-31.5343,0.0],[159.0585,-31.5344,0.0],[159.0582,-31.5349,0.0],[159.0603,-31.5354,0.1156],[159.0605,-31.5343,0.0]]]]}}