{"type": "Feature","bbox": [146.497,-36.0683,147.8976,-35.4485],"geometry": {"type": "MultiPolygon","coordinates": [[[[147.0966,-36.0405,190.5],[147.0965,-36.0385,190.5],[147.0998,-36.0389,190.5],[147.1002,-36.0359,190.5],[147.1037,-36.0329,190.5],[147.0981,-36.0314,190.5],[147.0921,-36.0276,190.5],[147.0936,-36.0263,190.5],[147.097,-36.0284,190.5],[147.0991,-36.0262,190.5],[147.0993,-36.0242,190.5],[147.0966,-36.0219,190.5],[147.0983,-36.019,190.5],[147.0977,-36.0158,190.5],[147.1,-36.0157,190.5],[147.101,-36.02,190.5],[147.1043,-36.0191,190.5],[147.1064,-36.0165,190.5],[147.1055,-36.0118,190.5],[147.0986,-36.0124,190.5],[147.0981,-36.0102,190.5],[147.1052,-36.0107,190.5],[147.1092,-36.0126,190.5],[147.1106,-36.0096,190.5],[147.1064,-36.0079,190.5],[147.1068,-36.0048,190.5],[147.1123,-36.0081,190.5],[147.1161,-36.0078,190.5],[147.1158,-36.004,190.5],[147.1119,-36.0009,190.5],[147.1167,-35.9985,190.5],[147.1208,-36.0003,190.5],[147.1225,-35.9949,190.5],[147.1241,-35.9944,190.5],[147.1249,-35.9956,190.5],[147.1231,-35.9973,190.5],[147.1255,-36.0004,190.5],[147.1229,-36.0037,190.5],[147.1272,-36.0056,190.5],[147.1251,-36.0082,190.5],[147.1284,-36.0115,190.5],[147.1274,-36.018,190.5],[147.1308,-36.02,190.5],[147.1313,-36.0244,190.5],[147.137,-36.0285,190.5],[147.1414,-36.0287,190.5],[147.1447,-36.0313,190.5],[147.1428,-36.036,190.5],[147.1444,-36.0378,190.5],[147.1467,-36.0369,190.5],[147.1493,-36.032,190.5],[147.1552,-36.036,190.5],[147.1614,-36.0311,191.3536],[147.1645,-36.0308,190.5],[147.1808,-36.0374,190.5],[147.1877,-36.0383,190.5],[147.1876,-36.0423,190.5],[147.1933,-36.0449,190.5],[147.1955,-36.0439,190.5],[147.2063,-36.0501,190.5],[147.2149,-36.0467,190.5],[147.2248,-36.0485,190.5],[147.2322,-36.0423,190.5],[147.2389,-36.0433,190.5],[147.2424,-36.0385,190.5],[147.2518,-36.0416,190.5],[147.2668,-36.0394,190.5],[147.28,-36.0433,190.5],[147.2852,-36.0394,190.5],[147.2874,-36.0435,190.5],[147.2907,-36.0428,190.5],[147.2965,-36.0447,190.5],[147.2977,-36.0467,190.5],[147.3,-36.045,190.5],[147.3015,-36.0477,190.5],[147.3048,-36.0474,190.5],[147.3023,-36.05,190.5],[147.3068,-36.0539,190.5],[147.3067,-36.0572,190.5],[147.3106,-36.061,190.5],[147.313,-36.0612,190.5],[147.3155,-36.0588,190.5],[147.3144,-36.0564,190.5],[147.3111,-36.0545,190.5],[147.313,-36.0528,190.5],[147.3181,-36.0549,190.5],[147.3176,-36.0584,190.5],[147.3195,-36.0611,190.5],[147.3217,-36.0582,190.5],[147.3294,-36.0542,190.5],[147.3322,-36.0471,190.5],[147.3438,-36.0422,190.5],[147.3473,-36.0366,190.5],[147.3528,-36.0317,195.0052],[147.3518,-36.0287,190.5],[147.3462,-36.0245,190.5],[147.3457,-36.0188,190.5],[147.3489,-36.0129,190.5],[147.3553,-36.0098,202.4142],[147.3555,-36.0043,190.5],[147.3532,-36.0008,190.5],[147.3579,-35.9918,190.5],[147.3709,-35.9824,190.5],[147.3749,-35.9823,190.5],[147.3743,-35.9797,190.5],[147.372,-35.9807,190.5],[147.3759,-35.9784,190.5],[147.3765,-35.9767,190.5],[147.3739,-35.9783,190.5],[147.3744,-35.9774,190.5],[147.3758,-35.9765,190.5],[147.384,-35.9723,190.5],[147.3923,-35.9735,192.0179],[147.3915,-35.9719,190.5],[147.3931,-35.9702,190.5],[147.3889,-35.9663,190.5],[147.3882,-35.9635,195.5372],[147.393,-35.9623,190.5],[147.3941,-35.9605,190.5],[147.3927,-35.959,190.5],[147.3871,-35.959,190.5],[147.3926,-35.955,190.5],[147.3903,-35.9493,190.5],[147.3918,-35.9476,190.5],[147.3954,-35.9491,190.5],[147.4035,-35.9438,190.5],[147.4058,-35.9438,190.5],[147.4084,-35.9482,190.5],[147.4152,-35.947,190.5],[147.422,-35.9488,190.5],[147.431,-35.953,195.0384],[147.4352,-35.953,191.791],[147.4397,-35.956,193.513],[147.4431,-35.9556,192.1412],[147.445,-35.9586,193.6587],[147.4507,-35.9608,190.5],[147.4562,-35.9578,190.5],[147.4544,-35.9516,190.5],[147.4641,-35.9441,190.75],[147.4777,-35.9442,193.4261],[147.4763,-35.9434,194.2757],[147.4788,-35.9427,191.441],[147.4816,-35.9492,193.9252],[147.4885,-35.9487,201.3785],[147.4916,-35.9439,193.5371],[147.4941,-35.9436,194.245],[147.5049,-35.9527,194.4753],[147.5071,-35.9555,193.0278],[147.5071,-35.9583,201.4037],[147.5114,-35.9624,197.4337],[147.5161,-35.9589,193.5609],[147.5253,-35.9633,191.8808],[147.5253,-35.9653,193.31],[147.5213,-35.9671,192.3966],[147.5149,-35.9764,193.7592],[147.5201,-35.9797,193.3933],[147.5195,-35.9832,194.545],[147.5214,-35.9869,198.499],[147.5283,-35.9871,195.9349],[147.5375,-35.9942,202.0583],[147.5465,-35.9974,209.2118],[147.5484,-36.0029,196.2682],[147.5519,-36.0041,200.4621],[147.5568,-36.0023,197.7174],[147.5693,-35.9913,198.2079],[147.5796,-35.9885,198.5275],[147.584,-35.9846,196.3834],[147.5814,-35.978,201.253],[147.5654,-35.9786,196.3365],[147.5622,-35.9741,218.8589],[147.5589,-35.9725,220.5077],[147.5477,-35.9786,208.4905],[147.5476,-35.9746,201.9726],[147.5518,-35.971,201.8405],[147.5485,-35.9688,198.1151],[147.5491,-35.9646,199.4514],[147.5639,-35.9699,201.4572],[147.5716,-35.969,203.0982],[147.5765,-35.9711,201.8537],[147.5823,-35.9678,209.967],[147.5919,-35.9699,203.7064],[147.5968,-35.9765,206.7482],[147.6014,-35.9791,208.5989],[147.6205,-35.9676,210.3046],[147.6378,-35.9621,207.3918],[147.6424,-35.9497,207.6425],[147.6468,-35.946,207.2649],[147.6609,-35.9432,208.444],[147.6723,-35.9425,212.5447],[147.6748,-35.9446,221.7674],[147.6821,-35.9426,207.2553],[147.6903,-35.9375,209.072],[147.6897,-35.9357,211.5358],[147.6933,-35.9315,210.3271],[147.6878,-35.923,212.7519],[147.6875,-35.918,216.1161],[147.6895,-35.9163,216.4091],[147.695,-35.9162,219.3948],[147.6964,-35.9122,220.0013],[147.6928,-35.8937,225.5309],[147.6891,-35.891,227.1247],[147.6885,-35.8885,226.4389],[147.7078,-35.8788,250.013],[147.708,-35.8746,241.3711],[147.7043,-35.8719,243.1463],[147.7069,-35.8679,248.0018],[147.7064,-35.8635,251.9875],[147.7021,-35.8614,249.5481],[147.7014,-35.8587,255.6362],[147.7081,-35.8504,258.9446],[147.7067,-35.846,266.2635],[147.7094,-35.8454,265.5151],[147.7096,-35.8411,272.6853],[147.7166,-35.8378,296.8823],[147.7311,-35.837,350.1263],[147.7349,-35.8331,378.9213],[147.7401,-35.8339,428.8529],[147.7463,-35.8381,455.2391],[147.7606,-35.8398,537.4738],[147.7637,-35.8364,592.6409],[147.7615,-35.8318,720.05],[147.77,-35.832,714.1404],[147.7694,-35.8295,729.8669],[147.7669,-35.8292,732.0972],[147.7726,-35.8166,741.7598],[147.7717,-35.8126,779.4905],[147.77,-35.812,797.1121],[147.7711,-35.8062,860.7109],[147.7736,-35.8072,869.6266],[147.7831,-35.8054,877.5189],[147.7875,-35.8039,845.1533],[147.7882,-35.802,805.371],[147.8015,-35.8014,749.5743],[147.8022,-35.794,745.8161],[147.8041,-35.7937,753.3994],[147.8021,-35.79,758.7692],[147.802,-35.7858,748.777],[147.804,-35.7799,726.3052],[147.8074,-35.7779,722.4673],[147.8122,-35.77,722.0798],[147.8117,-35.7653,715.9933],[147.8157,-35.7598,710.7139],[147.8138,-35.7544,697.9495],[147.8192,-35.7468,681.3414],[147.8189,-35.7431,688.6851],[147.8079,-35.7209,687.9928],[147.8107,-35.7181,686.6246],[147.813,-35.7122,676.3381],[147.8123,-35.7091,668.8376],[147.8104,-35.7061,661.4259],[147.8038,-35.7035,666.6752],[147.802,-35.6996,671.6251],[147.8041,-35.6957,671.1041],[147.8041,-35.692,673.3477],[147.8035,-35.6879,664.9414],[147.8009,-35.6851,672.8961],[147.8023,-35.68,673.3676],[147.8014,-35.6781,666.3561],[147.8084,-35.6748,661.1483],[147.8119,-35.6622,657.6196],[147.8187,-35.6585,642.1307],[147.8208,-35.6517,640.2464],[147.8189,-35.6493,653.3079],[147.8214,-35.6493,651.1636],[147.8263,-35.6449,646.8728],[147.8282,-35.6453,643.965],[147.8336,-35.6416,648.8563],[147.8475,-35.638,640.3112],[147.8595,-35.638,644.3516],[147.8681,-35.6429,661.7775],[147.871,-35.6418,678.866],[147.8759,-35.6338,675.505],[147.8799,-35.636,668.5144],[147.8849,-35.6354,667.5105],[147.8915,-35.6312,697.2078],[147.8976,-35.6336,714.6332],[147.8928,-35.6211,730.3118],[147.89,-35.6195,737.7494],[147.8885,-35.6153,737.2695],[147.8847,-35.6131,698.4121],[147.8726,-35.5868,683.2406],[147.8594,-35.5692,676.8379],[147.8553,-35.5599,653.3625],[147.8501,-35.5613,548.0128],[147.8457,-35.5658,535.7308],[147.8434,-35.5646,520.158],[147.8454,-35.5546,526.4501],[147.8121,-35.5494,424.8001],[147.8074,-35.5494,422.5245],[147.8068,-35.5522,402.3829],[147.7943,-35.5506,335.8643],[147.7925,-35.5472,328.041],[147.7916,-35.5515,360.329],[147.7893,-35.5516,369.7717],[147.7794,-35.5496,351.0328],[147.7798,-35.5475,357.7834],[147.7544,-35.5447,399.9922],[147.7542,-35.5359,398.2683],[147.7557,-35.5335,371.3496],[147.7372,-35.5311,298.9983],[147.7416,-35.5369,310.7089],[147.7386,-35.5411,311.0662],[147.6856,-35.5342,449.3318],[147.6812,-35.5567,545.9217],[147.6681,-35.5467,552.7156],[147.6606,-35.5446,632.6561],[147.6555,-35.5402,583.0468],[147.6499,-35.5388,577.9539],[147.6445,-35.5392,588.1351],[147.637,-35.5458,614.6262],[147.6312,-35.5472,593.3162],[147.6256,-35.546,563.54],[147.6213,-35.543,545.6722],[147.6085,-35.5398,588.795],[147.6008,-35.5319,637.8984],[147.6005,-35.5294,624.0875],[147.5943,-35.5266,628.5118],[147.5928,-35.5235,662.6619],[147.5886,-35.5243,651.2607],[147.5828,-35.5174,544.7434],[147.5692,-35.5159,518.3701],[147.5672,-35.5109,505.4751],[147.5566,-35.5057,517.7457],[147.556,-35.5017,540.7925],[147.5533,-35.4986,556.2726],[147.5489,-35.4963,535.2775],[147.5462,-35.497,523.9698],[147.5431,-35.4938,500.4732],[147.5362,-35.4935,499.91],[147.5358,-35.4917,505.1833],[147.5329,-35.4928,501.0089],[147.5285,-35.4908,513.2276],[147.5291,-35.4882,500.2836],[147.5274,-35.4844,520.2194],[147.5229,-35.4838,522.1101],[147.5221,-35.4822,528.9311],[147.5149,-35.4883,521.5171],[147.5198,-35.4933,491.9648],[147.5181,-35.497,482.9981],[147.5061,-35.5064,470.9263],[147.5002,-35.5088,462.8277],[147.4982,-35.5138,458.5162],[147.5017,-35.5221,471.9926],[147.5004,-35.5285,481.4521],[147.4951,-35.5303,465.4742],[147.4927,-35.5359,486.5573],[147.4884,-35.5408,497.466],[147.4883,-35.5457,543.7277],[147.481,-35.5452,560.5701],[147.4675,-35.5392,497.1968],[147.4579,-35.5337,466.2032],[147.4563,-35.531,481.3416],[147.4446,-35.5301,442.2979],[147.4382,-35.5374,415.3748],[147.4302,-35.5371,423.4682],[147.4272,-35.5395,427.462],[147.424,-35.5347,409.6787],[147.419,-35.5336,429.742],[147.4146,-35.536,394.9942],[147.4109,-35.5417,416.5629],[147.4038,-35.5448,417.7137],[147.4017,-35.5503,421.4707],[147.3953,-35.5548,461.7917],[147.3958,-35.5594,546.9945],[147.3915,-35.5636,528.6765],[147.385,-35.5592,580.6623],[147.3867,-35.5554,542.518],[147.3823,-35.5509,504.1859],[147.3846,-35.5429,460.2481],[147.388,-35.5389,472.3842],[147.3874,-35.5368,470.2536],[147.3845,-35.5356,469.2713],[147.3881,-35.532,490.5462],[147.3843,-35.5299,475.2587],[147.378,-35.5308,452.6419],[147.3783,-35.5252,438.9838],[147.3638,-35.5139,428.4645],[147.3608,-35.5154,423.6097],[147.3539,-35.5121,419.5568],[147.3421,-35.5093,417.8727],[147.3335,-35.5095,414.8178],[147.3281,-35.5041,412.6649],[147.3139,-35.4999,382.9777],[147.3056,-35.4993,401.5528],[147.303,-35.4956,396.4384],[147.2973,-35.4958,383.0724],[147.2939,-35.5013,383.371],[147.2913,-35.4996,371.2515],[147.2836,-35.5003,377.0944],[147.2802,-35.4939,357.706],[147.2752,-35.4939,374.986],[147.274,-35.492,360.6803],[147.269,-35.491,371.9375],[147.2664,-35.4921,371.567],[147.2632,-35.4886,352.273],[147.2508,-35.4912,378.6648],[147.2456,-35.4871,373.7056],[147.2426,-35.4783,354.7163],[147.2376,-35.4729,354.4797],[147.2379,-35.4705,355.9477],[147.2345,-35.4714,363.8666],[147.2326,-35.4695,352.2908],[147.2264,-35.4737,364.5892],[147.2231,-35.4715,368.818],[147.2173,-35.471,381.1895],[147.211,-35.4727,413.716],[147.1954,-35.4661,346.4401],[147.1923,-35.4621,330.8766],[147.1941,-35.4547,346.5395],[147.1881,-35.4523,328.2553],[147.185,-35.4485,327.0632],[147.1749,-35.4571,322.5298],[147.1716,-35.4549,319.757],[147.1662,-35.4568,324.3847],[147.1578,-35.4692,334.443],[147.1431,-35.4671,356.6917],[147.1324,-35.4679,378.3879],[147.1247,-35.4626,382.7692],[147.1218,-35.4562,402.9347],[147.1193,-35.457,407.6335],[147.1134,-35.455,409.6013],[147.1102,-35.456,381.6623],[147.1053,-35.4527,345.0282],[147.0986,-35.4544,306.8733],[147.0968,-35.4525,304.6653],[147.0873,-35.4505,336.9082],[147.0702,-35.453,298.9486],[147.0712,-35.4606,295.5645],[147.0576,-35.4698,287.2275],[147.0549,-35.4689,289.38],[147.0519,-35.4704,291.797],[147.052,-35.4728,283.5303],[147.0487,-35.4768,286.4483],[147.0436,-35.478,299.8143],[147.0402,-35.4842,280.5905],[147.0345,-35.4865,232.9167],[147.0322,-35.4857,231.7889],[147.0169,-35.4937,228.5574],[147.0148,-35.4919,228.7593],[147.0148,-35.4936,228.091],[146.9939,-35.4893,224.2404],[146.9906,-35.5071,245.8183],[146.9929,-35.5074,248.4191],[146.9912,-35.5168,245.992],[146.9819,-35.5156,266.121],[146.9797,-35.5223,227.1193],[146.9708,-35.5194,234.2006],[146.9621,-35.5239,226.7834],[146.9555,-35.5231,260.4575],[146.9557,-35.5251,245.9206],[146.953,-35.5248,243.2868],[146.9537,-35.5279,241.8844],[146.9222,-35.5471,258.3633],[146.9117,-35.5475,270.163],[146.9102,-35.5546,304.1753],[146.9008,-35.5605,289.4669],[146.8909,-35.5605,285.6694],[146.8884,-35.5732,290.204],[146.8723,-35.5711,269.283],[146.8714,-35.5759,264.1708],[146.7977,-35.5663,224.9446],[146.7961,-35.575,233.3584],[146.7034,-35.5616,180.6855],[146.7007,-35.5582,183.1776],[146.673,-35.5553,166.8068],[146.6742,-35.5492,165.8727],[146.6623,-35.5478,182.4867],[146.6643,-35.5373,171.051],[146.6671,-35.5376,172.741],[146.6698,-35.5203,177.0703],[146.6051,-35.5058,188.7641],[146.6026,-35.5194,179.4456],[146.606,-35.528,175.1747],[146.6043,-35.5365,162.6278],[146.5928,-35.535,158.7068],[146.591,-35.545,155.046],[146.6023,-35.5465,158.4148],[146.5981,-35.5681,153.0582],[146.5932,-35.5674,152.9546],[146.5863,-35.6066,159.0981],[146.5849,-35.6057,160.9921],[146.5818,-35.619,159.9088],[146.5728,-35.6066,155.6129],[146.5575,-35.6866,157.2743],[146.5463,-35.6852,157.0184],[146.5433,-35.702,154.7822],[146.5253,-35.6998,152.9999],[146.5256,-35.6978,154.0629],[146.5178,-35.6968,152.7352],[146.5018,-35.7837,142.0857],[146.497,-35.8117,141.6147],[146.5026,-35.8143,139.6629],[146.5048,-35.8181,142.4638],[146.5304,-35.8211,146.7048],[146.5308,-35.8189,146.5151],[146.5327,-35.8191,148.232],[146.5333,-35.8155,149.222],[146.5376,-35.8159,153.4461],[146.5371,-35.8183,155.4629],[146.5511,-35.8204,183.5031],[146.5298,-35.9183,143.9265],[146.544,-35.9201,143.8215],[146.5467,-35.9106,145.2284],[146.5575,-35.9121,144.4276],[146.5537,-35.9253,144.9284],[146.5692,-35.9275,144.3053],[146.5703,-35.9219,145.9821],[146.5774,-35.9229,148.7689],[146.5824,-35.9293,144.9267],[146.589,-35.895,146.5878],[146.6072,-35.8975,149.8299],[146.6082,-35.8926,151.412],[146.6295,-35.8953,164.5275],[146.6304,-35.8908,163.6058],[146.6429,-35.8826,174.6069],[146.6436,-35.879,174.8006],[146.6513,-35.88,182.8292],[146.6493,-35.8901,195.4675],[146.6747,-35.8947,209.9225],[146.6706,-35.9089,182.8287],[146.6701,-35.9171,183.073],[146.6572,-35.9154,210.7359],[146.6537,-35.93,209.4664],[146.6671,-35.9317,175.5975],[146.6654,-35.936,171.1522],[146.676,-35.9405,159.3914],[146.6781,-35.9369,160.8096],[146.6742,-35.9353,160.7166],[146.6763,-35.9321,161.7312],[146.6888,-35.9372,163.0873],[146.6906,-35.934,167.5686],[146.6945,-35.9356,168.9757],[146.6871,-35.9487,159.8715],[146.7004,-35.9505,173.9471],[146.7006,-35.9492,173.8011],[146.7058,-35.9513,182.8217],[146.704,-35.9619,167.4466],[146.7109,-35.9628,177.6344],[146.708,-35.9775,152.1326],[146.7077,-35.9809,150.7123],[146.7105,-35.9813,150.1181],[146.7081,-35.994,147.8559],[146.7043,-35.9955,151.7764],[146.6981,-36.0253,143.5274],[146.7024,-36.0263,144.4322],[146.7017,-36.0297,145.8591],[146.7125,-36.0292,143.6847],[146.7163,-36.0265,144.3915],[146.7219,-36.0287,142.3288],[146.7319,-36.0238,143.4851],[146.7328,-36.0266,143.9791],[146.7292,-36.0276,153.0002],[146.7284,-36.0296,144.2371],[146.7299,-36.0312,142.8355],[146.7324,-36.031,141.5],[146.7329,-36.0345,142.0173],[146.7351,-36.0367,143.4841],[146.7316,-36.0387,142.6925],[146.7301,-36.0447,143.9422],[146.7352,-36.0481,145.4962],[146.7398,-36.0451,146.8947],[146.7446,-36.0478,143.4621],[146.7493,-36.0423,151.1174],[146.7529,-36.0421,153.0018],[146.7506,-36.0506,142.8316],[146.7469,-36.0513,146.237],[146.7487,-36.0519,143.3355],[146.747,-36.0585,146.0168],[146.7486,-36.0607,147.228],[146.752,-36.0613,153.8847],[146.7551,-36.0595,143.998],[146.7558,-36.0584,146.1065],[146.7531,-36.0553,145.62],[146.7581,-36.0562,144.8222],[146.7565,-36.0518,143.5471],[146.7623,-36.0517,149.1937],[146.7631,-36.0529,149.1937],[146.7596,-36.0572,145.4756],[146.7628,-36.0595,146.4447],[146.7647,-36.0597,147.9919],[146.7653,-36.0567,145.4971],[146.7672,-36.0557,143.9673],[146.7683,-36.059,146.7964],[146.7713,-36.058,146.0951],[146.7757,-36.0593,144.865],[146.7805,-36.0645,146.3119],[146.7835,-36.0632,147.4556],[146.7813,-36.0604,144.9022],[146.7878,-36.0593,145.5439],[146.7889,-36.0606,147.2083],[146.787,-36.0644,144.9508],[146.7917,-36.0636,147.5799],[146.7962,-36.0651,146.0234],[146.7986,-36.0625,146.9705],[146.7934,-36.0612,146.8427],[146.7946,-36.0585,148.4987],[146.7966,-36.0572,147.6814],[146.8008,-36.0584,149.3501],[146.8034,-36.0551,148.0576],[146.8068,-36.0613,150.0451],[146.8147,-36.0641,147.0172],[146.8129,-36.0669,147.7864],[146.8139,-36.0683,149.0156],[146.8177,-36.0674,149.9833],[146.8214,-36.0496,219.2882],[146.8253,-36.0495,242.0047],[146.8265,-36.0472,236.2239],[146.8272,-36.0375,214.442],[146.8312,-36.0333,241.8561],[146.8347,-36.0156,244.7197],[146.839,-36.0161,256.049],[146.8384,-36.0191,260.0839],[146.8462,-36.02,320.5646],[146.8453,-36.0246,280.4592],[146.8489,-36.0241,318.1117],[146.8509,-36.0219,294.3109],[146.8553,-36.0225,357.1224],[146.8557,-36.0204,340.5739],[146.8591,-36.0209,367.1956],[146.8601,-36.0163,364.9052],[146.8736,-36.018,451.106],[146.881,-36.0143,432.23],[146.8827,-36.0101,472.7671],[146.8923,-36.0076,362.1373],[146.8965,-36.0023,314.7192],[146.9,-36.0072,284.2681],[146.9138,-36.0069,426.0572],[146.921,-36.001,413.117],[146.9205,-35.9975,424.3473],[146.9286,-35.9914,379.8504],[146.9355,-35.9912,334.0317],[146.9446,-35.9936,410.4191],[146.9456,-35.9881,351.0563],[146.952,-35.989,316.5294],[146.9527,-35.9854,311.9549],[146.9463,-35.9845,360.6889],[146.947,-35.9754,324.3276],[146.9415,-35.9747,335.415],[146.9444,-35.9731,324.7601],[146.9393,-35.9673,334.776],[146.9427,-35.9652,421.9522],[146.9411,-35.9634,359.5047],[146.9352,-35.9668,318.3856],[146.9341,-35.9641,293.9346],[146.9377,-35.9484,249.5076],[146.9346,-35.9474,245.6565],[146.9453,-35.9383,246.7697],[146.9624,-35.9406,233.0378],[146.9687,-35.9139,205.6225],[146.9749,-35.9175,204.5026],[146.9784,-35.9166,201.8308],[146.9833,-35.9186,201.5807],[146.9971,-35.9189,199.5239],[147.0008,-35.9203,199.4343],[147.0022,-35.9281,201.1936],[147.0101,-35.9248,194.7991],[147.0239,-35.9251,198.6434],[147.0239,-35.9279,193.9136],[147.0283,-35.9333,190.5],[147.0263,-35.9364,194.2205],[147.0292,-35.9361,191.805],[147.0305,-35.9377,190.5885],[147.0327,-35.9366,190.5],[147.0328,-35.9397,190.5],[147.038,-35.9427,190.5],[147.0371,-35.9455,190.5],[147.0444,-35.9436,190.5],[147.045,-35.9454,190.5],[147.048,-35.9452,190.8178],[147.0481,-35.9472,190.5],[147.0439,-35.95,190.5],[147.0502,-35.9517,190.5],[147.0481,-35.9547,190.5],[147.0507,-35.9556,190.5],[147.0515,-35.9592,190.5],[147.0562,-35.9608,190.5],[147.054,-35.9653,190.5],[147.0587,-35.9663,190.5],[147.0567,-35.9701,190.5],[147.0576,-35.9729,190.5],[147.0545,-35.9721,190.5],[147.0551,-35.974,190.5],[147.0588,-35.9755,190.5],[147.0571,-35.9783,190.5],[147.0586,-35.9807,190.5],[147.0568,-35.9813,190.5],[147.057,-35.9842,190.5],[147.0629,-35.9884,190.5],[147.0631,-35.9904,190.5],[147.0616,-35.9908,190.5],[147.0635,-35.9929,190.5],[147.0712,-35.9951,190.5],[147.0801,-36.0001,190.5],[147.0809,-36.0024,190.5],[147.079,-36.0042,190.5],[147.0803,-36.0055,190.5],[147.0787,-36.0062,190.5],[147.0809,-36.0079,190.5],[147.0802,-36.0094,190.5],[147.0835,-36.011,190.5],[147.0854,-36.0098,190.5],[147.0846,-36.0113,190.5],[147.0867,-36.0129,190.5],[147.083,-36.0174,190.5],[147.0846,-36.024,190.5],[147.0904,-36.0324,190.5],[147.089,-36.0344,190.5],[147.0961,-36.0373,190.5],[147.0958,-36.0401,190.5],[147.0966,-36.0405,190.5]]]]}
,"properties": {"GID_2": "AUS.5.55_1","GID_0": "AUS","country": "Australia","GID_1": "AUS.5_1","state": "NewSouthWales","NL_NAME_1": "NA","county": "GreaterHume","VARNAME_2": "NA","NL_NAME_2": "NA","TYPE_2": "Shire","ENGTYPE_2": "Shire","CC_2": "13340","HASC_2": "NA","name": "GreaterHume.county","area_km2": 5747.894,"hist_schema_id": "Elevation0-9000","hist_area_km2": {"150": 248.084,"175": 438.484,"200": 573.385,"225": 609.54,"250": 612.32,"275": 487.745,"300": 421.697,"325": 353.182,"350": 287.067,"375": 238.149,"400": 204.262,"425": 175.276,"450": 159.818,"475": 145.141,"500": 135.233,"525": 120.902,"550": 105.458,"575": 87.62,"600": 77.051,"625": 67.503,"650": 55.975,"675": 45.807,"700": 30.769,"725": 24.509,"750": 14.537,"775": 11.357,"800": 6.494,"825": 4.449,"850": 3.195,"875": 1.632,"900": 0.653,"925": 0.326,"950": 0.086,"975": 0.103,"1000": 0.086}}}