{"type":"Feature","properties":{"featurecla":"River","scalerank":3,"rivernum":54,"dissolve":"54River","name":"Murray8","name_alt":null,"note":null,"min_zoom":3.0,"strokeweig":1.0,"name_en":"Murray","min_label":4.0},
"geometry":{"type": "LineString","coordinates": [[140.966796875,-33.98650481563088,22.8117],[140.94179687500002,-33.98919036250588,49.9512],[140.92470703125002,-34.003741143755889,47.9446],[140.91064453125,-34.019854425005889,60.5805],[140.894775390625,-34.02752044063088,60.311],[140.872802734375,-34.03264739375588,56.8783],[140.85976562500002,-34.044463800005886,46.0411],[140.84794921875005,-34.05828215938088,61.6077],[140.82958984375,-34.06902434688088,66.2778],[140.818115234375,-34.070342706255886,67.4253],[140.79345703125,-34.06804778438088,16.4604],[140.78183593750003,-34.06902434688088,49.5819],[140.77285156250002,-34.07293059688088,18.3414],[140.76035156250003,-34.079913018755889,18.6617],[140.75283203125002,-34.08660247188088,19.2266],[140.75830078125,-34.08953215938088,15.0],[140.76113281250002,-34.092315362505886,19.2369],[140.77783203125,-34.104522393755886,18.7302],[140.78183593750003,-34.10662200313088,19.1752],[140.78466796875,-34.11248137813088,16.7002],[140.79013671875003,-34.11760833125588,14.0],[140.79433593750002,-34.122393487505889,55.3182],[140.79267578125,-34.12737395625588,51.1234],[140.78183593750003,-34.15032317500588,34.8099],[140.773193359375,-34.19378020625588,18.3752],[140.765625,-34.211748956255889,14.8905],[140.7265625,-34.255889581255886,14.3508],[140.713134765625,-34.26165130000588,14.2783],[140.69296875000003,-34.26018645625588,16.548],[140.679443359375,-34.25481536250588,15.3888],[140.67294921875003,-34.25042083125588,17.8314],[140.66640625000002,-34.250811456255889,14.4376],[140.65214843750005,-34.26018645625588,18.8115],[140.647216796875,-34.26751067500588,15.6217],[140.64423828125,-34.27678801875588,15.2998],[140.63925781250003,-34.28484465938088,14.572],[140.61660156250002,-34.29070403438088,10.5],[140.60927734375002,-34.29753997188088,14.2929],[140.60546875,-34.30730559688088,14.3753],[140.60429687500005,-34.31853606563088,13.3698],[140.59931640625,-34.32927825313088,52.9078],[140.58798828125003,-34.33464934688088,49.8017],[140.576171875,-34.33831145625588,13.8467],[140.569580078125,-34.34270598750588,15.4949],[140.56777343750002,-34.346709893755886,18.8518],[140.56689453125,-34.347198175005886,14.0608],[140.565673828125,-34.34710051875588,14.0608],[140.5626953125,-34.348955987505889,14.6953],[140.59267578125002,-34.36614348750588,12.8346],[140.59677734375003,-34.37346770625588,13.1879],[140.59462890625002,-34.38469817500588,12.9556],[140.58310546875003,-34.40789153438088,37.8276],[140.584228515625,-34.427764581255886,12.6854],[140.5830078125,-34.443194268755889,40.2393],[140.5734375,-34.451983331255889,42.0461],[140.549072265625,-34.45256926875588,16.2619],[140.52773437500002,-34.44670989375588,10.8402],[140.51865234375003,-34.43645598750588,11.0657],[140.513671875,-34.42327239375588,20.7348],[140.50400390625003,-34.40789153438088,19.8574],[140.4873046875,-34.391924737505889,11.2861],[140.47421875000003,-34.386553643755889,11.7032],[140.4599609375,-34.38933684688088,11.0488],[140.43916015625,-34.397979425005886,11.9667],[140.424072265625,-34.388213800005886,9.3163],[140.41171875000003,-34.37493255000588,8.0],[140.40185546875,-34.359209893755889,10.7971],[140.39423828125,-34.34148528438088,10.5764],[140.3857421875,-34.30388762813088,11.41],[140.3857421875,-34.246612237505886,8.8122],[140.384521484375,-34.239092706255889,10.1949],[140.38095703125003,-34.23162200313088,12.4479],[140.37646484375,-34.226885675005889,10.7109],[140.37265625000003,-34.22063567500588,11.3998],[140.36875,-34.20037200313088,8.5308],[140.36328125,-34.193877862505886,7.0],[140.33193359375002,-34.172393487505886,38.7104],[140.322998046875,-34.173858331255886,26.3657],[140.314697265625,-34.180010675005889,15.3082],[140.30136718750003,-34.18450286250588,9.5355],[140.22998046875,-34.179034112505889,6.0],[140.219482421875,-34.17449309688088,12.0854],[140.20810546875003,-34.15935637813088,38.9179],[140.1826171875,-34.16130950313088,10.2392],[140.1375,-34.178252862505886,52.0875],[140.11318359375002,-34.19060637813088,54.4754],[140.10341796875002,-34.191924737505886,49.4889],[140.08837890625,-34.188799737505889,50.8606],[140.06396484375,-34.17424895625588,43.0991],[140.04453125000003,-34.16887786250588,10.2883],[140.0375,-34.16594817500588,6.0],[140.02919921875002,-34.16643645625588,17.3614],[140.006103515625,-34.182647393755886,10.989],[139.99589843750005,-34.183916925005889,6.8956],[139.93886718750002,-34.17083098750588,15.8563],[139.93173828125003,-34.162920831255889,5.0],[139.926513671875,-34.151397393755886,15.73],[139.92841796875,-34.141143487505886,9.9912],[139.94228515625002,-34.136748956255886,10.6515],[139.96005859375003,-34.127471612505886,26.4817],[139.963623046875,-34.10784270625588,35.2763],[139.95400390625002,-34.088897393755886,4.5],[139.93203125000002,-34.08269622188088,5.0],[139.89804687500003,-34.104327081255889,34.4507],[139.87851562500003,-34.10759856563088,29.5666],[139.87001953125002,-34.08611419063088,11.8793],[139.867919921875,-34.077666925005886,27.2369],[139.8576171875,-34.05217864375588,31.1591],[139.853271484375,-34.04485442500588,5.5923],[139.838623046875,-34.03826262813088,2.8735],[139.827880859375,-34.045245050005889,9.5677],[139.8154296875,-34.06218840938088,31.1806],[139.8017578125,-34.05999114375588,22.3099],[139.79697265625003,-34.054034112505889,5.9609],[139.79443359375,-34.04680755000588,9.8001],[139.7880859375,-34.041045831255886,6.9401],[139.77675781250002,-34.039385675005889,29.8932],[139.751220703125,-34.040069268755886,6.5088],[139.743359375,-34.03801848750588,10.4852],[139.72265625,-34.026202081255889,6.3657],[139.7001953125,-34.02263762813088,6.2348],[139.68125,-34.031084893755889,5.2742],[139.67197265625003,-34.054717706255886,5.3262],[139.6806640625,-34.09783294063088,36.6748],[139.680908203125,-34.12468840938088,4.2165],[139.66855468750003,-34.136748956255886,3.4993],[139.66591796875002,-34.14763762813088,29.9032],[139.637939453125,-34.212432550005886,5.9948],[139.636474609375,-34.23455169063088,4.4715],[139.644775390625,-34.29119231563088,9.5185],[139.64150390625002,-34.30193450313088,1.5],[139.634521484375,-34.308135675005886,4.4327],[139.62734375000002,-34.31292083125588,4.7391],[139.624267578125,-34.31853606563088,3.4431],[139.624267578125,-34.356475518755886,2.3873],[139.61171875000002,-34.420733331255889,3.6843],[139.607177734375,-34.43157317500588,0.0],[139.60888671875,-34.44280364375588,1.8572],[139.588134765625,-34.49114348750588,0.6675],[139.58261718750003,-34.50042083125588,5.6233],[139.58330078125005,-34.51384856563088,20.7181],[139.58779296875002,-34.52141692500588,3.3909],[139.59316406250002,-34.52703215938088,1.0],[139.596923828125,-34.53460051875588,2.0049],[139.59765625,-34.534991143755889,2.0049],[139.603759765625,-34.54827239375588,5.1445],[139.60302734375,-34.55559661250588,5.0134],[139.59267578125002,-34.56633880000588,1.8823],[139.5900390625,-34.573077081255889,3.7417],[139.59345703125,-34.589873956255886,10.1837],[139.61005859375,-34.634112237505889,1.4874],[139.61669921875,-34.64446380000588,-0.1539],[139.6279296875,-34.646807550005889,35.5869],[139.64697265625,-34.64202239375588,36.4081],[139.65771484375,-34.64446380000588,6.6006],[139.6669921875,-34.65056731563088,42.1956],[139.66875,-34.65545012813088,42.7287],[139.66679687500005,-34.66253020625588,48.4879],[139.66513671875003,-34.675127862505889,46.966],[139.65615234375002,-34.692413018755886,56.4068],[139.634765625,-34.70037200313088,51.3476],[139.5900390625,-34.70647551875588,52.7767],[139.57041015625003,-34.717803643755886,41.2953],[139.55166015625002,-34.73626067500588,15.2696],[139.54599609375003,-34.75359465938088,50.3323],[139.578125,-34.764678643755886,46.1418],[139.57421875,-34.772784112505889,19.8273],[139.55908203125,-34.78435637813088,22.9292],[139.5509765625,-34.795440362505886,-0.5],[139.54892578125003,-34.80486419063088,34.7678],[139.5509765625,-34.81340911250588,12.7915],[139.555908203125,-34.82195403438088,9.1935],[139.56845703125003,-34.83123137813088,1.5712],[139.61591796875,-34.85247161250588,27.1534],[139.63417968750002,-34.85662200313088,24.6592],[139.640869140625,-34.862139581255889,21.6234],[139.64316406250003,-34.873858331255889,0.932],[139.640869140625,-34.88543059688088,1.51],[139.63417968750002,-34.89080169063088,53.6502],[139.62148437500002,-34.89397551875588,35.4429],[139.611083984375,-34.90081145625588,23.5376],[139.602783203125,-34.90789153438088,48.9692],[139.596923828125,-34.91130950313088,63.4582],[139.58261718750003,-34.91033294063088,30.9928],[139.57509765625002,-34.90471770625588,13.0934],[139.56982421875,-34.89739348750588,1.118],[139.56210937500003,-34.89080169063088,7.5122],[139.54833984375,-34.884307550005886,54.2957],[139.54179687500005,-34.882647393755889,76.9966],[139.52431640625002,-34.88396575313088,19.2429],[139.50546875000003,-34.87932708125588,7.6616],[139.47021484375,-34.859698175005889,2.9333],[139.44599609375,-34.85662200313088,1.5406],[139.38613281250002,-34.875518487505886,11.144],[139.3759765625,-34.88054778438088,3.9946],[139.37119140625003,-34.886065362505889,15.0293],[139.360595703125,-34.891631768755886,4.4549],[139.34824218750003,-34.89592864375588,1.9194],[139.33935546875,-34.89763762813088,0.5493],[139.33134765625005,-34.901885675005886,0.0],[139.32568359375,-34.911944268755889,-0.9046],[139.32080078125,-34.923370050005886,10.0205],[139.31513671875,-34.93181731563088,1.3804],[139.260498046875,-34.965850518755886,27.1907],[139.26884765625005,-34.978057550005886,59.4929],[139.2783203125,-34.97844817500588,56.4719],[139.28945312500002,-34.97429778438088,42.1203],[139.30214843750002,-34.973467706255889,32.3017],[139.31484375000002,-34.97747161250588,11.2683],[139.327880859375,-34.984209893755889,0.0],[139.33828125000002,-34.99309661250588,-0.3233],[139.34238281250003,-35.00408294063088,2.1759],[139.34951171875002,-35.010284112505886,-0.2497],[139.36376953125,-35.01702239375588,-0.822],[139.3751953125,-35.02581145625588,60.8311],[139.373046875,-35.03826262813088,6.1567],[139.36416015625002,-35.04876067500588,1.1642],[139.35410156250003,-35.057159112505886,60.4108],[139.34238281250003,-35.060381768755889,57.5293],[139.32871093750003,-35.05535247188088,0.563],[139.30214843750002,-35.094073175005889,0.7958],[139.29296875,-35.115069268755889,38.6873],[139.29833984375,-35.12420012813088,-0.8809],[139.31679687500002,-35.131377862505886,16.1613],[139.32509765625002,-35.148272393755889,14.3725],[139.32421875,-35.16863372188088,29.5951],[139.31513671875,-35.185577081255886,0.0344],[139.3515625,-35.201983331255889,16.6525],[139.39931640625002,-35.21721770625588,0.0],[139.44082031250002,-35.23796965938088,19.6589],[139.45849609375,-35.271026300005886,16.3955],[139.45156250000002,-35.290069268755886,13.4251],[139.43496093750002,-35.295928643755886,12.304],[139.414794921875,-35.29876067500588,0.0],[139.39765625,-35.308623956255886,1.7813],[139.39345703125002,-35.318389581255886,3.6807],[139.393310546875,-35.34050872188088,-1.8925],[139.39072265625003,-35.350127862505886,10.8903],[139.384521484375,-35.358428643755886,18.2904],[139.36289062500003,-35.37688567500588,0.0]]}}