{"type":"Feature","properties":{"featurecla":"River","scalerank":3,"rivernum":54,"dissolve":"54River","name":"Murray7","name_alt":null,"note":null,"min_zoom":3.0,"strokeweig":0.8,"name_en":"Murray","min_label":4.0},
"geometry":{"type": "LineString","coordinates": [[141.92626953125,-34.11687590938088,33.197],[141.90488281250003,-34.12664153438088,32.9144],[141.88710937500002,-34.13054778438088,34.3843],[141.84072265625002,-34.13054778438088,37.05],[141.81669921875005,-34.126299737505889,34.089],[141.77041015625002,-34.107452081255886,31.1762],[141.74814453125003,-34.10320403438088,28.2299],[141.70576171875,-34.11003997188088,29.8453],[141.66552734375,-34.126983331255886,27.4952],[141.630615234375,-34.14910247188088,30.1086],[141.60429687500005,-34.17083098750588,30.3955],[141.58115234375003,-34.201983331255889,29.11],[141.567578125,-34.213897393755886,29.2041],[141.5458984375,-34.21868255000588,41.1021],[141.53701171875002,-34.215850518755886,49.5563],[141.529296875,-34.20867278438088,27.6748],[141.52382812500002,-34.198760675005886,29.8815],[141.5185546875,-34.176592706255889,28.5784],[141.510498046875,-34.172198175005889,31.2482],[141.458984375,-34.169268487505889,28.0217],[141.44589843750003,-34.16399505000588,32.3624],[141.41494140625002,-34.145830987505889,27.7965],[141.40869140625,-34.14080169063088,28.1296],[141.3916015625,-34.13372161250588,22.5],[141.368359375,-34.13738372188088,25.4184],[141.34560546875002,-34.14373137813088,25.2132],[141.33056640625,-34.144854425005889,27.4381],[141.32138671875003,-34.136260675005886,27.8525],[141.30917968750003,-34.114288018755886,27.0967],[141.29941406250003,-34.11003997188088,22.5728],[141.28544921875005,-34.105791925005889,29.8482],[141.27451171875003,-34.09636809688088,25.3813],[141.26552734375002,-34.086944268755886,25.1168],[141.25820312500002,-34.08269622188088,25.6877],[141.25244140625,-34.081377862505889,31.287],[141.241455078125,-34.07610442500588,29.6746],[141.23427734375002,-34.075225518755886,25.5465],[141.22792968750002,-34.07756926875588,24.4681],[141.2138671875,-34.086944268755886,25.6038],[141.20644531250002,-34.08953215938088,22.8192],[141.18984375000002,-34.08928801875588,25.2153],[141.180908203125,-34.08440520625588,23.3275],[141.17275390625002,-34.07708098750588,26.2458],[141.15859375000002,-34.06902434688088,23.2198],[141.1337890625,-34.063995050005886,25.9603],[141.04531250000002,-34.06218840938088,21.6202],[141.02382812500002,-34.051299737505886,19.2018],[140.98691406250003,-34.00090911250588,23.0093],[140.966796875,-33.98650481563088,22.8117]]}}