{"type":"Feature","properties":{"featurecla":"River","scalerank":4,"rivernum":97,"dissolve":"97River","name":"Murray3","name_alt":null,"note":null,"min_zoom":4.0,"strokeweig":0.2,"name_en":"Murray","min_label":5.0},
"geometry":{"type": "LineString","coordinates": [[148.146484375,-36.54583098750588,630.1637],[148.1484375,-36.50432708125588,725.2009],[148.146240234375,-36.49968840938088,684.3068],[148.1416015625,-36.494659112505886,623.6013],[148.136962890625,-36.487823175005886,570.6783],[148.1337890625,-36.466631768755889,553.2488],[148.13076171875002,-36.45891692500588,688.6808],[148.12050781250002,-36.44695403438088,1138.1455],[148.0849609375,-36.424834893755886,514.6137],[148.06728515625002,-36.409698175005886,725.4884],[148.05966796875003,-36.388213800005886,733.4102],[148.0626953125,-36.37761809688088,893.5223],[148.07587890625,-36.360381768755886,834.3269],[148.07900390625002,-36.35442473750588,851.0645],[148.07753906250002,-36.34197356563088,744.8081],[148.07412109375002,-36.33245208125588,608.7546],[148.06533203125002,-36.31658294063088,440.8841],[148.04306640625003,-36.25847747188088,292.7455],[148.0419921875,-36.247588800005886,287.9745],[148.03164062500002,-36.237139581255889,325.2676],[148.033935546875,-36.213409112505886,276.5372],[148.0451171875,-36.17253997188088,265.2284],[148.03564453125,-36.15178801875588,257.866],[147.99912109375003,-36.130694268755889,251.8793],[147.99111328125002,-36.11419036250588,247.9741],[147.995361328125,-36.08709075313088,242.9892],[148.0009765625,-36.07024505000588,239.1243],[147.99658203125,-36.05925872188088,240.0398],[147.970703125,-36.04900481563088,234.2829],[147.948974609375,-36.04534270625588,233.3714],[147.94033203125002,-36.04265715938088,232.0016],[147.92910156250002,-36.03533294063088,230.2927],[147.9208984375,-36.025420831255886,233.2434],[147.915625,-36.014190362505886,227.3068],[147.909423828125,-36.00505950313088,238.2788],[147.89833984375002,-36.001299737505889,226.0833],[147.87158203125,-35.998370050005889,223.8677],[147.74091796875,-35.94597747188088,229.5916],[147.73134765625002,-35.944659112505889,224.4934],[147.71347656250003,-35.93938567500588,215.9395],[147.703125,-35.93987395625588,430.744],[147.6943359375,-35.943877862505886,362.2765],[147.67763671875002,-35.956866143755889,452.9993],[147.67197265625003,-35.95964934688088,507.8008],[147.55654296875002,-35.996416925005889,209.9596],[147.53857421875,-35.990752862505886,231.289],[147.53330078125003,-35.972491143755889,243.2954],[147.519775390625,-35.958038018755886,215.7658],[147.501953125,-35.948760675005886,191.1478],[147.4833984375,-35.94597747188088,194.8489],[147.47519531250003,-35.94841887813088,191.6831],[147.457275390625,-35.95769622188088,190.5],[147.44638671875003,-35.95964934688088,205.5602],[147.419189453125,-35.957354425005889,219.2424],[147.40830078125003,-35.95964934688088,234.3391],[147.396240234375,-35.96672942500588,202.4596],[147.38193359375003,-35.97966887813088,193.8451],[147.368896484375,-35.994659112505886,482.6455],[147.36044921875003,-36.008135675005889,211.3275],[147.34794921875005,-36.06243255000588,239.29],[147.33994140625003,-36.07634856563088,315.6281],[147.32373046875,-36.06170012813088,190.5],[147.305908203125,-36.052080987505889,190.5],[147.286376953125,-36.049346612505886,198.9696],[147.2716796875,-36.04900481563088,236.0927]]}}