{"type":"Feature","properties":{"featurecla":"River","scalerank":4,"rivernum":97,"dissolve":"97River","name":"Murray5","name_alt":null,"note":null,"min_zoom":4.0,"strokeweig":0.25,"name_en":"Murray","min_label":5.0},
"geometry":{"type": "LineString","coordinates": [[143.22119140625,-34.733233331255889,44.6973],[143.23193359375,-34.743975518755889,58.1623],[143.25068359375,-34.74797942500588,58.0714],[143.2685546875,-34.753936456255886,37.0],[143.2763671875,-34.77068450313088,58.195],[143.282470703125,-34.792510675005886,55.9668],[143.296630859375,-34.79119231563088,58.8926],[143.313720703125,-34.78289153438088,40.141],[143.327880859375,-34.78435637813088,60.1411],[143.35517578125,-34.80144622188088,59.9021],[143.36005859375,-34.80632903438088,59.1941],[143.358154296875,-34.81707122188088,53.1519],[143.35146484375002,-34.83562590938088,49.4036],[143.353125,-34.84587981563088,53.0508],[143.35791015625,-34.85906340938088,59.6045],[143.35888671875,-34.86663176875588,60.2888],[143.35585937500002,-34.875811456255889,59.8094],[143.34873046875003,-34.88225676875588,59.0476],[143.341552734375,-34.887041925005889,61.6558],[143.337890625,-34.89080169063088,64.7138],[143.337158203125,-34.90203215938088,67.8869],[143.33994140625003,-34.91106536250588,68.9025],[143.34326171875,-34.91863372188088,56.6907],[143.3447265625,-34.92498137813088,69.7807],[143.341796875,-34.93523528438088,55.9452],[143.33291015625002,-34.955108331255886,70.1438],[143.3310546875,-34.96282317500588,60.1329],[143.33330078125005,-34.97918059688088,63.7355],[143.34248046875,-35.006670831255889,67.6374],[143.349853515625,-35.065948175005886,73.6083],[143.36367187500002,-35.107256768755889,69.8417],[143.38349609375,-35.14568450313088,68.5118],[143.40673828125,-35.17888762813088,65.7592],[143.41796875,-35.188018487505886,64.9409],[143.4375,-35.199541925005889,63.8406],[143.45957031250003,-35.20940520625588,64.6453],[143.546875,-35.22600676875588,66.5341],[143.564453125,-35.233428643755886,65.1941],[143.5810546875,-35.24944426875588,64.8584],[143.5888671875,-35.267413018755889,66.2088],[143.591015625,-35.286455987505889,65.7949],[143.591015625,-35.305498956255889,66.7618],[143.58759765625,-35.314483331255886,66.171],[143.58095703125002,-35.321123956255889,66.6847],[143.576171875,-35.32903411250588,67.3354],[143.57861328125,-35.34270598750588,69.3464],[143.585693359375,-35.35295989375588,67.4584],[143.59521484375,-35.36052825313088,67.7567],[143.65087890625,-35.38933684688088,70.2029],[143.7333984375,-35.40178801875588,72.0522],[143.7765625,-35.41838958125588,70.9735],[143.78427734375003,-35.42522551875588,71.7554],[143.78847656250002,-35.431963800005889,70.9155],[143.79443359375,-35.43694426875588,70.7888],[143.81591796875,-35.44085051875588,76.1486],[143.82607421875002,-35.445635675005889,77.6401],[143.83544921875,-35.45134856563088,71.2632],[143.858154296875,-35.47063567500588,73.8979],[143.89882812500002,-35.491729425005886,74.1002],[143.96054687500003,-35.513213800005886,73.9259],[143.98037109375002,-35.52337005000588,74.7998],[143.99814453125003,-35.555498956255889,74.9969],[144.019775390625,-35.563799737505889,76.4341],[144.06455078125003,-35.56926848750588,77.0123],[144.09970703125003,-35.586748956255889,72.9492],[144.150634765625,-35.65007903438088,75.7937],[144.18007812500002,-35.67913176875588,78.7218],[144.189697265625,-35.683135675005886,78.1076],[144.201171875,-35.686065362505886,74.0942],[144.210693359375,-35.689776300005889,78.9649],[144.21484375,-35.69646575313088,73.4872],[144.21865234375002,-35.70086028438088,75.0348],[144.23779296875,-35.717120050005889,77.0151],[144.25302734375003,-35.72429778438088,79.4116],[144.26767578125003,-35.741729425005886,81.0613],[144.27626953125002,-35.74797942500588,79.3896],[144.28798828125002,-35.75042083125588,79.8774],[144.3125,-35.75139739375588,81.9009],[144.323974609375,-35.754229425005889,80.0169],[144.35302734375,-35.77752044063088,86.9394],[144.37568359375,-35.81438567500588,80.2996],[144.42236328125,-35.91399505000588,94.2283],[144.43544921875002,-35.932159112505886,93.9202],[144.45224609375003,-35.94719817500588,90.6875],[144.492431640625,-35.95964934688088,90.4456],[144.60244140625002,-36.06609465938088,92.361],[144.61972656250003,-36.075225518755886,91.4957],[144.66220703125003,-36.078155206255886,94.2053],[144.681640625,-36.083819268755889,92.6242],[144.69775390625,-36.09783294063088,96.5956],[144.70556640625,-36.10662200313088,96.1186],[144.70517578125003,-36.11052825313088,96.4239],[144.717041015625,-36.110381768755886,92.7669],[144.72421875000003,-36.111651300005889,86.0],[144.727783203125,-36.116534112505889,87.6419],[144.728759765625,-36.12786223750588,97.8984],[144.740478515625,-36.13494231563088,95.8887],[144.7666015625,-36.13640715938088,97.0385],[144.810791015625,-36.131670831255889,95.0942],[144.83066406250003,-36.11882903438088,98.9077],[144.87177734375,-36.08367278438088,94.0172],[144.88974609375003,-36.07634856563088,97.5547],[144.91064453125,-36.081377862505889,99.049],[144.95595703125002,-36.09929778438088,95.9546],[144.97509765625,-36.097491143755889,96.4016],[144.985595703125,-36.08098723750588,96.4169],[144.97714843750003,-36.06023528438088,96.2389],[144.96015625,-36.03997161250588,97.9809],[144.94482421875,-36.02507903438088,97.6054],[144.93359375,-36.00554778438088,95.2983],[144.93886718750002,-35.98772551875588,96.9544],[144.962158203125,-35.953448175005889,96.9587],[144.9708984375,-35.894854425005889,101.0485],[144.97607421875,-35.88738372188088,106.232],[144.99277343750003,-35.874053643755886,97.2097],[145.008056640625,-35.86760833125588,101.6571],[145.12050781250002,-35.85125090938088,99.4101],[145.21767578125002,-35.85125090938088,110.5462],[145.2501953125,-35.857256768755889,112.92529999999999],[145.29111328125003,-35.86980559688088,113.1006],[145.333740234375,-35.876006768755886,103.6405],[145.37558593750003,-35.87297942500588,106.3554],[145.450439453125,-35.83953215938088,107.0786],[145.493359375,-35.82903411250588,108.1917],[145.53623046875003,-35.829131768755886,110.753],[145.572265625,-35.843584893755889,115.5841],[145.74423828125003,-35.964873956255886,123.3874],[145.78662109375,-35.97991301875588,119.2163],[145.82958984375,-35.983428643755886,120.8825],[145.89580078125005,-35.967120050005889,121.3311],[145.91796875,-35.964190362505889,114.9582],[145.939453125,-35.966827081255886,114.9494],[145.959228515625,-35.97698333125588,126.4553],[145.966015625,-35.98601653438088,121.5119],[145.96914062500002,-35.996123956255886,121.4017],[145.97324218750003,-36.006182550005889,121.4525],[145.983154296875,-36.01433684688088,127.8144],[145.991943359375,-36.01604583125588,126.0931],[146.028076171875,-36.01458098750588,128.469]]}}