{"type":"Feature","properties":{"featurecla":"River","scalerank":4,"rivernum":97,"dissolve":"97River","name":"Murray6","name_alt":null,"note":null,"min_zoom":4.0,"strokeweig":0.45,"name_en":"Murray","min_label":5.0},
"geometry":{"type": "LineString","coordinates": [[143.22119140625,-34.733233331255889,44.6973],[143.156494140625,-34.70305755000588,59.3995],[143.142333984375,-34.699053643755889,55.8367],[143.0498046875,-34.692217706255889,56.1277],[143.0125,-34.672881768755886,49.2849],[142.995361328125,-34.668780206255889,48.1349],[142.98837890625003,-34.68230559688088,55.2214],[142.98105468750003,-34.69060637813088,55.6822],[142.96435546875,-34.68132903438088,49.7018],[142.93369140625003,-34.65813567500588,50.5099],[142.92138671875,-34.65813567500588,55.4539],[142.91455078125,-34.66179778438088,53.614],[142.90878906250003,-34.667022393755886,53.9521],[142.880078125,-34.67937590938088,54.8537],[142.87832031250002,-34.674834893755886,51.8991],[142.86875,-34.66179778438088,50.9641],[142.86416015625002,-34.65252044063088,52.056],[142.85976562500002,-34.62981536250588,52.3901],[142.85488281250002,-34.62078215938088,47.0211],[142.84677734375003,-34.61492278438088,54.645],[142.817578125,-34.60344817500588,42.6424],[142.8068359375,-34.591827081255886,56.0529],[142.79941406250003,-34.585479425005886,54.7995],[142.789794921875,-34.582354425005889,44.3912],[142.77890625000003,-34.584307550005889,55.5212],[142.7568359375,-34.593780206255886,53.5475],[142.74501953125002,-34.596026300005889,53.7745],[142.725830078125,-34.60320403438088,51.508],[142.716552734375,-34.620928643755889,52.4605],[142.707763671875,-34.665557550005886,47.0113],[142.70468750000003,-34.67058684688088,52.0896],[142.69980468750003,-34.675616143755889,51.4673],[142.695556640625,-34.681475518755889,50.1889],[142.693603515625,-34.68914153438088,49.3164],[142.6962890625,-34.70525481563088,48.0667],[142.69863281250002,-34.71282317500588,49.76],[142.70029296875003,-34.712725518755889,50.3186],[142.6943359375,-34.730987237505886,50.7244],[142.68701171875,-34.735674737505889,50.9752],[142.67617187500002,-34.733916925005886,50.8011],[142.659423828125,-34.733233331255889,48.3598],[142.63974609375003,-34.734405206255886,48.9547],[142.63046875000003,-34.736358331255886,52.7976],[142.62890625,-34.743682550005886,49.5791],[142.632080078125,-34.76116301875588,43.3787],[142.64345703125002,-34.77849700313088,52.277],[142.64248046875002,-34.787627862505886,56.9705],[142.6251953125,-34.795245050005889,48.3604],[142.6083984375,-34.78142669063088,49.3068],[142.59423828125,-34.77776458125588,49.8978],[142.578125,-34.777373956255886,48.1525],[142.556396484375,-34.77410247188088,41.7882],[142.54775390625002,-34.77092864375588,49.8291],[142.536376953125,-34.76506926875588,49.7888],[142.5263671875,-34.75774505000588,49.1016],[142.522216796875,-34.750323175005889,46.9432],[142.52333984375002,-34.72747161250588,48.7783],[142.522216796875,-34.719561456255889,46.3559],[142.49423828125003,-34.665557550005886,51.0609],[142.47128906250003,-34.643389581255889,45.3814],[142.46748046875,-34.63420989375588,40.7803],[142.46826171875,-34.62420012813088,47.6524],[142.4697265625,-34.61785247188088,44.2281],[142.47011718750002,-34.61199309688088,44.3565],[142.46748046875,-34.60344817500588,38.0016],[142.45830078125005,-34.591631768755889,48.6367],[142.39453125,-34.546905206255886,37.7423],[142.385498046875,-34.53337981563088,42.3354],[142.37109375,-34.44475676875588,39.9135],[142.3720703125,-34.42473723750588,40.8469],[142.3779296875,-34.40325286250588,35.6064],[142.39765625,-34.37371184688088,37.4119],[142.40615234375002,-34.356475518755886,57.0753],[142.396240234375,-34.33806731563088,37.8519],[142.382080078125,-34.335772393755889,39.372],[142.36464843750002,-34.34026458125588,39.8169],[142.3447265625,-34.34270598750588,39.8337],[142.327880859375,-34.33464934688088,38.9699],[142.30478515625003,-34.317217706255889,35.7386],[142.28457031250002,-34.297881768755886,37.6047],[142.27255859375003,-34.28045012813088,74.6873],[142.265625,-34.27752044063088,53.808],[142.25849609375,-34.27288176875588,36.8688],[142.25537109375,-34.263995050005889,50.4538],[142.253662109375,-34.240557550005889,58.9004],[142.24853515625,-34.21868255000588,49.761],[142.238037109375,-34.196319268755886,44.4798],[142.23486328125,-34.191924737505886,45.5925],[142.22402343750002,-34.19036223750588,35.1709],[142.199462890625,-34.19280364375588,35.2182],[142.19003906250003,-34.188311456255889,37.371],[142.17568359375002,-34.17156340938088,37.4038],[142.163818359375,-34.162432550005889,32.7708],[142.14980468750002,-34.15862395625588,49.0221],[142.12841796875,-34.157745050005886,32.452],[142.12255859375,-34.15984465938088,36.2028],[142.10498046875,-34.16887786250588,35.5256],[142.093994140625,-34.17083098750588,31.4425],[142.0771484375,-34.136748956255886,33.1946],[142.0509765625,-34.116045831255889,35.4361],[142.02490234375,-34.11223723750588,35.681],[141.9708984375,-34.12371184688088,33.3834],[141.96005859375003,-34.12468840938088,34.388],[141.94912109375002,-34.124053643755886,44.788],[141.9376953125,-34.121612237505886,34.5556],[141.92626953125,-34.11687590938088,33.197]]}}