{"type":"Feature","properties":{"featurecla":"River","scalerank":4,"rivernum":97,"dissolve":"97River","name":"Murray2","name_alt":null,"note":null,"min_zoom":4.0,"strokeweig":0.15,"name_en":"Murray","min_label":5.0},
"geometry":{"type": "LineString","coordinates": [[148.00498046875003,-36.967120050005889,1393.6649],[148.001953125,-36.93987395625588,1295.6514],[148.19482421875,-36.691241143755889,967.3013],[148.20576171875,-36.67253997188088,1005.3772],[148.21376953125002,-36.65129973750588,867.9731],[148.21669921875002,-36.62810637813088,685.3573],[148.21464843750005,-36.61687590938088,666.6678],[148.19765625000002,-36.585479425005886,621.7366],[148.18505859375,-36.581573175005886,728.4252],[148.171142578125,-36.57952239375588,600.7428],[148.16152343750002,-36.57659270625588,581.2676],[148.154541015625,-36.569854425005886,606.5336],[148.15,-36.562530206255886,557.8644],[148.1474609375,-36.554522393755889,619.7798],[148.146484375,-36.54583098750588,630.1637]]}}