{"type": "Feature","bbox": [129.0005,-24.1988,137.9985,-17.9452],"geometry": {"type": "MultiPolygon","coordinates": [[[[131.6461,-18.3244,211.0054],[130.6354,-18.3233,323.3676],[130.6354,-17.9452,254.3853],[130.1234,-17.9453,391.6295],[130.1234,-18.6827,410.8079],[129.0005,-18.6826,421.0502],[129.0009,-23.0209,417.2234],[131.4744,-23.0209,570.1247],[131.8902,-23.0171,576.4316],[131.8902,-22.9121,565.6355],[132.0674,-22.9121,569.9052],[132.0673,-22.8539,563.8141],[132.3051,-22.8539,555.4861],[132.3051,-23.0183,570.7283],[133.8353,-23.0187,700.1624],[133.8353,-23.0472,709.7869],[133.8817,-23.0995,976.1591],[134.1255,-23.099,818.7582],[134.1257,-23.5976,710.4473],[134.4419,-23.5977,620.3958],[134.4423,-23.5651,510.9491],[134.4608,-23.5543,525.0848],[134.5987,-23.5542,691.6688],[134.5988,-23.4438,801.9297],[134.666,-23.4438,794.2365],[134.6659,-23.4595,694.5248],[134.7158,-23.4595,663.4168],[134.7159,-23.486,643.1829],[134.9516,-23.486,489.4579],[134.9516,-23.3094,620.2098],[135.0493,-23.3748,811.0958],[135.1945,-23.3753,497.368],[135.2062,-23.4166,584.3778],[135.2255,-23.4335,496.7249],[135.2374,-23.4524,446.1531],[135.2398,-23.4609,443.8402],[135.2657,-23.507,421.5928],[135.2657,-23.5524,412.3734],[135.287,-23.5522,408.4996],[135.3362,-23.5828,395.2294],[135.3776,-23.6167,383.4485],[135.4238,-23.6184,373.8329],[135.4209,-23.4967,472.0482],[135.5495,-23.4971,376.6464],[135.66,-23.4947,357.245],[135.66,-23.7592,321.1115],[135.6917,-23.7685,315.175],[135.7264,-23.7855,309.9054],[135.7402,-23.7949,306.8674],[135.7593,-23.8172,302.2446],[135.7763,-23.8301,299.0199],[135.7793,-23.8353,295.8439],[135.7826,-23.85,296.0899],[135.793,-23.8664,290.7986],[135.7978,-23.8849,287.4119],[135.802,-23.8923,286.3081],[135.8086,-23.8985,286.1607],[135.8256,-23.9079,281.5072],[135.8369,-23.9236,278.4047],[135.8551,-23.9354,275.2689],[135.8574,-23.9395,274.7458],[135.8599,-23.9605,271.5374],[135.8672,-23.9743,268.9306],[135.8857,-23.9867,265.7187],[135.8946,-24.0052,262.6239],[135.9068,-24.0153,261.1658],[135.9086,-24.0316,258.5142],[135.9134,-24.0442,257.0693],[135.9345,-24.0846,249.6932],[135.9527,-24.1041,246.6507],[135.9603,-24.115,245.2965],[135.9976,-24.1988,232.7855],[136.6109,-23.8869,196.3108],[136.8442,-23.8869,182.2631],[137.682,-23.8702,132.4064],[137.9985,-23.872,120.8396],[137.9976,-21.9292,223.6679],[137.6815,-21.9293,219.0856],[137.6814,-21.9984,202.3983],[136.4901,-21.9981,299.4399],[136.4901,-21.9784,298.0084],[136.4523,-21.9795,320.8587],[136.427,-21.9879,312.1604],[136.4209,-21.9949,310.0072],[136.4166,-21.9964,305.8932],[136.4029,-21.9888,314.3836],[136.3725,-22.0057,337.0045],[136.3342,-22.0366,332.5698],[136.3122,-22.0582,326.4761],[136.3058,-22.0602,328.6998],[136.2933,-22.0598,330.5347],[136.2825,-22.0635,338.085],[136.252,-22.0858,346.0663],[136.2498,-22.09,349.7499],[136.2451,-22.091,349.3082],[136.1506,-22.1654,331.3693],[135.9799,-22.1655,370.5217],[135.9799,-22.5475,380.149],[135.9169,-22.5405,388.0682],[135.899,-22.5809,383.2701],[135.8636,-22.57,419.2941],[135.7702,-22.5538,489.9398],[135.6074,-22.5518,493.5734],[135.467,-22.4518,527.0852],[135.4006,-22.4805,573.5791],[135.4006,-22.5481,474.0516],[135.1497,-22.5486,479.107],[135.152,-22.164,454.7265],[134.8854,-22.1655,488.9557],[134.8854,-22.4816,502.7775],[134.6273,-22.4816,535.1483],[134.6279,-22.4684,537.7753],[134.6331,-22.4617,542.3942],[134.627,-22.4568,534.3418],[134.6278,-22.3545,517.8831],[134.6166,-22.3545,535.3961],[134.6165,-22.2972,508.3627],[134.5307,-22.2974,501.8726],[134.5408,-22.2893,500.9688],[134.5465,-22.2639,498.5906],[134.5603,-22.2291,493.7986],[134.5398,-22.2225,492.8242],[134.5484,-22.1871,488.6212],[134.5441,-22.1521,484.5923],[134.5641,-22.1391,493.8765],[134.579,-22.1256,508.1299],[134.6004,-22.1205,484.6895],[134.6091,-22.0449,487.365],[134.5404,-21.948,522.8015],[134.5251,-21.9451,517.3671],[134.4257,-21.8459,539.2997],[134.3707,-21.8462,534.1366],[134.372,-21.6997,495.4603],[133.7913,-21.6972,500.4306],[133.8082,-21.6876,514.9766],[133.8318,-21.6612,512.9388],[133.8441,-21.6572,514.7781],[133.8485,-21.6508,539.4026],[133.8524,-21.6359,524.762],[133.8713,-21.6165,556.7467],[133.8846,-21.5978,600.431],[133.8908,-21.5683,522.8405],[133.7715,-21.5683,513.5038],[133.7715,-21.4084,495.8774],[133.6604,-21.4077,472.3391],[133.6571,-20.922,393.5149],[133.6572,-20.7229,366.1084],[133.3264,-20.7229,408.366],[133.3264,-21.1948,432.7287],[133.161,-21.1947,480.5373],[133.1611,-21.0772,461.0655],[132.7556,-21.0772,449.9279],[132.7562,-20.8529,424.6808],[132.1839,-20.393,399.3666],[132.0252,-20.2574,353.4355],[132.0219,-18.3241,214.7998],[131.6461,-18.3244,211.0054]]]]}
,"properties": {"GID_2": "AUS.6.4_1","GID_0": "AUS","country": "Australia","GID_1": "AUS.6_1","state": "NorthernTerritory","NL_NAME_1": "NA","county": "CentralDesert","VARNAME_2": "NA","NL_NAME_2": "NA","TYPE_2": "Shire","ENGTYPE_2": "Shire","CC_2": "70620","HASC_2": "NA","name": "CentralDesert.county","area_km2": 282061.23,"hist_schema_id": "Elevation0-9000","hist_area_km2": {"125": 646.44,"150": 2263.55,"175": 4637.2,"200": 8005.07,"225": 10430.94,"250": 10982.32,"275": 12748.99,"300": 13022.14,"325": 11836.16,"350": 18035.89,"375": 23841.82,"400": 26247.24,"425": 22682.79,"450": 16394.9,"475": 13924.82,"500": 13270.57,"525": 11391.92,"550": 14358.55,"575": 12722.09,"600": 10153.95,"625": 8203.0,"650": 6504.98,"675": 3990.34,"700": 1949.4,"725": 1297.19,"750": 900.37,"775": 558.93,"800": 371.55,"825": 252.11,"850": 168.82,"875": 99.83,"900": 58.46,"925": 37.54,"950": 25.46,"975": 17.11,"1000": 11.69,"1025": 7.51,"1050": 4.39,"1075": 2.61}}}