{"type":"Feature","properties":{"GID_2":"AUS.9.22_1","GID_0":"AUS","country":"Australia","GID_1":"AUS.9_1","state":"Tasmania","NL_NAME_1":"NA","county":"MacquarieIsland","VARNAME_2":"NA","NL_NAME_2":"NA","TYPE_2":"Statereserve","ENGTYPE_2":"Statereserve","CC_2":"NA","HASC_2":"AU.TS.??","name":"MacquarieIsland.county"},
"geometry":{"type": "MultiPolygon","coordinates": [[[[158.6922,-55.1147,0.0],[158.6911,-55.1117,4.2845],[158.6891,-55.1112,0.0],[158.688,-55.1142,7.9349],[158.685,-55.115,1.7663],[158.6883,-55.1169,0.0],[158.6922,-55.1147,0.0]]],
[[[158.9439,-54.4867,2.2428],[158.9384,-54.486,0.0],[158.9361,-54.4964,0.0],[158.9387,-54.4972,2.1352],[158.9351,-54.4978,0.0],[158.9283,-54.5028,0.0],[158.9261,-54.5014,0.0],[158.9164,-54.5023,1.6359],[158.9055,-54.4956,0.0],[158.8944,-54.4936,0.0],[158.8828,-54.4961,0.0],[158.8767,-54.4956,0.1395],[158.875,-54.4964,0.0],[158.8778,-54.4986,0.1737],[158.8761,-54.5008,0.0],[158.8861,-54.5058,0.0],[158.875,-54.5094,0.0],[158.8689,-54.5153,0.0],[158.8572,-54.5142,0.0],[158.8544,-54.5156,0.0],[158.8662,-54.5187,0.5652],[158.8567,-54.5178,0.0],[158.8506,-54.5189,0.0],[158.8522,-54.5208,0.0],[158.8561,-54.5211,0.808],[158.8583,-54.5239,0.1484],[158.8661,-54.5239,0.1192],[158.8694,-54.5264,1.5086],[158.8595,-54.5275,0.0],[158.85,-54.5319,0.2046],[158.8567,-54.5344,0.096],[158.855,-54.5358,0.0],[158.86,-54.5372,0.0],[158.8589,-54.5383,0.1567],[158.86,-54.5392,0.1567],[158.8567,-54.5425,0.0],[158.8622,-54.5453,0.2077],[158.8722,-54.5539,0.2051],[158.8683,-54.5547,0.0],[158.8694,-54.5558,0.0636],[158.8661,-54.5583,1.529],[158.8567,-54.5569,0.0],[158.8506,-54.5578,0.0],[158.8567,-54.5597,0.5598],[158.8533,-54.5611,0.0],[158.8556,-54.5625,0.6596],[158.8522,-54.5642,0.0],[158.8572,-54.5675,0.3688],[158.8494,-54.5708,0.2649],[158.8533,-54.5739,0.0],[158.8489,-54.5803,0.9092],[158.8422,-54.5839,0.0],[158.8433,-54.5853,0.0],[158.8383,-54.59,0.0],[158.8389,-54.5967,0.0],[158.8322,-54.6008,0.0],[158.8344,-54.6031,0.6265],[158.825,-54.6064,1.6548],[158.8256,-54.6081,0.0],[158.8322,-54.6094,3.812],[158.8328,-54.6119,0.5296],[158.8211,-54.6156,0.0],[158.8267,-54.6183,3.8099],[158.8217,-54.6211,0.0],[158.8244,-54.6242,3.988],[158.8194,-54.6272,0.0],[158.8239,-54.6294,6.4519],[158.8206,-54.6325,0.0],[158.8228,-54.635,0.0866],[158.82,-54.6397,0.0],[158.8228,-54.6442,0.0],[158.8194,-54.6461,0.0],[158.8144,-54.6461,0.0],[158.8139,-54.6472,1.8527],[158.8183,-54.6494,0.1982],[158.8133,-54.6514,0.0],[158.8183,-54.6517,0.085],[158.8228,-54.6542,1.1547],[158.8244,-54.6608,0.5247],[158.82,-54.6636,0.2435],[158.82,-54.6658,0.2629],[158.8233,-54.6672,0.0],[158.8239,-54.6711,0.0],[158.8283,-54.6725,0.0],[158.8261,-54.6739,0.0],[158.8272,-54.6764,1.3029],[158.8189,-54.6797,0.3344],[158.8139,-54.6797,0.2334],[158.8102,-54.6833,0.2366],[158.7983,-54.6878,0.0],[158.805,-54.6883,0.0],[158.8089,-54.6908,0.0],[158.8028,-54.6933,0.0],[158.8033,-54.6944,0.0],[158.8,-54.6969,0.0],[158.81,-54.705,0.2052],[158.8106,-54.7069,0.3523],[158.8067,-54.7114,0.0],[158.8094,-54.715,0.0],[158.8067,-54.7172,0.0],[158.8078,-54.7192,0.0],[158.8022,-54.7217,0.6735],[158.8061,-54.7256,0.0],[158.8011,-54.7292,0.0],[158.795,-54.7306,0.0676],[158.7956,-54.7322,0.1826],[158.8006,-54.7344,0.1055],[158.7961,-54.7378,0.0],[158.7972,-54.7403,0.5111],[158.79,-54.7408,0.0],[158.785,-54.7447,0.0],[158.7983,-54.7486,0.0],[158.7989,-54.7533,0.0],[158.7894,-54.7569,0.0],[158.7922,-54.7589,7.3739],[158.7917,-54.7617,15.3808],[158.7794,-54.7572,0.0],[158.7767,-54.7583,0.3765],[158.7817,-54.7625,0.0],[158.7772,-54.7642,0.7188],[158.775,-54.7672,0.0],[158.785,-54.7711,0.4778],[158.7932,-54.7697,0.0],[158.8016,-54.775,0.0],[158.8093,-54.7762,8.6376],[158.8189,-54.7758,0.0],[158.8233,-54.7739,0.0],[158.8322,-54.7742,1.1862],[158.8361,-54.7775,0.0],[158.8411,-54.7786,0.1099],[158.8389,-54.7728,0.8989],[158.8472,-54.7597,0.0],[158.8467,-54.7564,0.0],[158.8511,-54.7514,0.0],[158.85,-54.7481,0.0],[158.8533,-54.7406,0.0],[158.8533,-54.7356,0.0],[158.8517,-54.7328,11.4204],[158.8533,-54.7314,0.0],[158.8511,-54.7261,0.0],[158.8517,-54.7175,2.6554],[158.855,-54.715,0.0],[158.8561,-54.7103,0.3743],[158.86,-54.7064,0.0],[158.86,-54.7006,0.0],[158.8694,-54.6892,0.0],[158.8689,-54.6869,0.0],[158.8761,-54.6797,0.0],[158.8778,-54.6758,0.0],[158.8895,-54.6664,0.4456],[158.8972,-54.6436,18.0383],[158.9,-54.6414,0.0],[158.9033,-54.6347,0.0],[158.9006,-54.6325,0.4272],[158.9006,-54.6297,0.1911],[158.9072,-54.6261,0.0],[158.9067,-54.6242,0.0],[158.9133,-54.6139,0.0],[158.9128,-54.61,0.0],[158.915,-54.6083,0.0],[158.9133,-54.6044,0.1089],[158.9156,-54.5983,0.0],[158.9172,-54.5975,0.0],[158.9161,-54.5919,13.3968],[158.9211,-54.5867,0.0],[158.9211,-54.5831,0.5055],[158.9261,-54.5806,0.0],[158.9217,-54.5767,18.6003],[158.9211,-54.5739,0.0],[158.9172,-54.5703,0.0],[158.9183,-54.5683,0.0],[158.9161,-54.5667,17.403199999999998],[158.9233,-54.5606,0.0],[158.9228,-54.5589,0.0],[158.9272,-54.5536,0.0],[158.9289,-54.5467,0.0],[158.9322,-54.5425,3.8336],[158.9311,-54.5394,7.2193],[158.9339,-54.5381,0.0],[158.9361,-54.5339,0.0],[158.9339,-54.5322,26.582],[158.9389,-54.5297,0.0],[158.9344,-54.5256,39.3826],[158.9372,-54.5242,0.0],[158.9361,-54.5217,0.0],[158.9378,-54.5203,0.0],[158.9344,-54.5058,1.7598],[158.9378,-54.5011,0.0],[158.9444,-54.4994,4.5182],[158.9467,-54.4942,9.3847],[158.95,-54.4922,0.0],[158.9444,-54.4894,15.8507],[158.9456,-54.4875,0.0],[158.9439,-54.4867,2.2428]]]]}}