{"type": "Feature","bbox": [151.3658,-29.4275,152.6314,-28.2492],"geometry": {"type": "MultiPolygon","coordinates": [[[[152.5585,-28.9901,102.9978],[152.5606,-28.9863,100.006],[152.5562,-28.9662,128.5701],[152.5534,-28.9606,106.138],[152.5539,-28.9564,150.8586],[152.5503,-28.9549,99.5],[152.5491,-28.9467,103.6478],[152.5458,-28.9424,111.1275],[152.5439,-28.9361,105.2916],[152.5505,-28.9315,106.2622],[152.5621,-28.9302,106.5434],[152.5659,-28.9261,118.159],[152.5736,-28.9313,113.2561],[152.5773,-28.9325,108.6465],[152.5796,-28.9314,118.1741],[152.581,-28.9286,112.4047],[152.5806,-28.9131,107.5],[152.5797,-28.9111,131.3849],[152.5675,-28.9042,133.3137],[152.5635,-28.9092,110.4813],[152.5551,-28.9126,110.1069],[152.548,-28.9089,112.8505],[152.5547,-28.9025,115.7181],[152.5545,-28.8995,114.1245],[152.5573,-28.8935,115.5873],[152.5646,-28.8871,117.9683],[152.5734,-28.8639,124.6594],[152.5677,-28.8579,125.277],[152.5618,-28.858,125.2459],[152.5462,-28.8542,123.1776],[152.5406,-28.8516,131.6782],[152.5372,-28.8477,120.3492],[152.5572,-28.8237,133.5176],[152.5549,-28.8179,128.4716],[152.544,-28.8178,126.9067],[152.5392,-28.8149,143.411],[152.537,-28.8039,126.6669],[152.5437,-28.7879,165.7388],[152.543,-28.7838,131.0459],[152.5408,-28.7815,131.6189],[152.531,-28.7814,131.6125],[152.5217,-28.7931,156.3832],[152.5183,-28.7947,155.8851],[152.5143,-28.7917,140.6256],[152.5152,-28.7844,142.2049],[152.511,-28.7797,141.25],[152.5065,-28.7812,152.2434],[152.5019,-28.7856,149.357],[152.4967,-28.7855,143.2616],[152.4801,-28.7801,152.6615],[152.4776,-28.7771,165.0023],[152.4782,-28.7751,149.494],[152.4808,-28.7725,151.4642],[152.4903,-28.7689,154.8356],[152.4921,-28.7646,156.7357],[152.4891,-28.7592,161.0972],[152.4804,-28.7532,173.1153],[152.4798,-28.7508,153.1325],[152.4836,-28.7487,153.8949],[152.4903,-28.7501,165.9922],[152.4952,-28.7484,173.3119],[152.4982,-28.7448,157.31],[152.499,-28.7411,163.9836],[152.496,-28.7365,159.5845],[152.4914,-28.7356,179.6053],[152.4842,-28.7386,160.8452],[152.4777,-28.7463,175.9151],[152.4731,-28.7471,167.6714],[152.4714,-28.7461,165.4765],[152.4713,-28.7428,173.4635],[152.4762,-28.7367,211.4042],[152.4736,-28.7308,171.1017],[152.4653,-28.7358,169.0236],[152.4556,-28.7318,171.6747],[152.4392,-28.7286,174.0299],[152.435,-28.7251,178.7149],[152.4279,-28.7252,175.6447],[152.4207,-28.718,178.9626],[152.4147,-28.7233,215.4268],[152.4086,-28.724,177.6585],[152.4071,-28.7223,178.9208],[152.4048,-28.7106,186.0523],[152.4065,-28.7045,226.4156],[152.4038,-28.7038,184.5866],[152.4021,-28.7064,216.6285],[152.3988,-28.7072,188.1203],[152.3872,-28.702,189.2429],[152.3785,-28.7039,192.2039],[152.3753,-28.7008,191.073],[152.376,-28.693,198.6596],[152.3737,-28.6876,198.1786],[152.3752,-28.6851,195.9661],[152.3845,-28.6861,196.5475],[152.3872,-28.6827,293.1457],[152.3894,-28.6826,225.0569],[152.3863,-28.6768,276.2026],[152.3914,-28.6703,245.5398],[152.3893,-28.6654,227.0377],[152.3926,-28.6635,226.0614],[152.3981,-28.6654,219.1667],[152.3985,-28.6621,227.3951],[152.4031,-28.6587,237.5324],[152.4034,-28.6526,249.4273],[152.3986,-28.6468,240.0958],[152.4078,-28.6429,274.6253],[152.4083,-28.636,259.6603],[152.414,-28.632,296.8531],[152.4085,-28.629,263.6201],[152.412,-28.6263,322.3112],[152.4066,-28.6241,268.9752],[152.4058,-28.6217,285.6486],[152.4089,-28.6204,279.9801],[152.4132,-28.6213,306.7611],[152.4169,-28.6185,279.7546],[152.4201,-28.6215,302.0193],[152.4248,-28.6208,289.0063],[152.4247,-28.6188,292.595],[152.4207,-28.6187,290.8188],[152.417,-28.615,297.522],[152.4213,-28.6074,309.6238],[152.4341,-28.6023,311.9008],[152.4394,-28.6047,316.016],[152.4428,-28.6034,321.5938],[152.4425,-28.6007,311.7189],[152.4391,-28.5989,312.6655],[152.4418,-28.5927,312.6116],[152.4402,-28.5898,313.0539],[152.441,-28.5874,320.4021],[152.4382,-28.583,324.5166],[152.441,-28.5805,308.7964],[152.4461,-28.5846,333.1224],[152.4475,-28.577,312.6396],[152.4465,-28.5759,312.7802],[152.4417,-28.5776,314.5618],[152.4403,-28.576,314.6381],[152.4496,-28.5681,316.4313],[152.4557,-28.5698,323.0923],[152.4578,-28.569,319.3331],[152.4575,-28.5663,319.7099],[152.4524,-28.5634,322.4149],[152.4481,-28.5559,330.5045],[152.4414,-28.5559,331.2215],[152.4415,-28.5518,337.0045],[152.4435,-28.5499,329.1249],[152.4415,-28.5474,325.3089],[152.445,-28.5454,331.1871],[152.4464,-28.5392,333.3776],[152.4405,-28.5303,331.525],[152.4526,-28.5267,331.7476],[152.4607,-28.5292,333.1878],[152.4627,-28.5275,336.2642],[152.4598,-28.5225,335.6264],[152.4624,-28.5219,336.148],[152.4641,-28.5257,335.6437],[152.4661,-28.5266,337.2949],[152.4687,-28.5213,339.1353],[152.4722,-28.5192,338.2245],[152.4763,-28.5205,337.4462],[152.4759,-28.5267,340.5395],[152.483,-28.5259,347.6028],[152.4834,-28.5305,342.2317],[152.4847,-28.5312,340.3607],[152.4889,-28.5268,340.069],[152.4935,-28.5272,340.9483],[152.4952,-28.5288,344.965],[152.4966,-28.5277,341.7831],[152.501,-28.5285,354.1714],[152.5028,-28.5267,359.825],[152.5,-28.5236,342.3723],[152.5004,-28.5175,355.9699],[152.503,-28.5117,354.1853],[152.506,-28.5112,360.7711],[152.508,-28.5136,360.0851],[152.5106,-28.5139,354.7135],[152.5207,-28.5101,361.5432],[152.5256,-28.5134,365.8774],[152.5285,-28.5119,363.3918],[152.5302,-28.515,370.6403],[152.5331,-28.5138,361.2398],[152.5368,-28.5066,367.1846],[152.5371,-28.5004,364.4303],[152.5271,-28.4965,378.7246],[152.5406,-28.4828,361.6404],[152.5388,-28.4811,377.494],[152.5438,-28.4818,365.2618],[152.5442,-28.4793,364.5889],[152.5417,-28.4804,364.0136],[152.5414,-28.479,370.9759],[152.547,-28.4776,365.4041],[152.5472,-28.479,364.9713],[152.55,-28.4794,366.824],[152.5532,-28.4777,368.7492],[152.5528,-28.4742,368.8102],[152.5486,-28.4705,370.5243],[152.5513,-28.4668,371.1507],[152.5553,-28.4651,370.345],[152.558,-28.4697,371.5869],[152.5613,-28.47,370.9797],[152.5602,-28.4669,370.426],[152.5622,-28.4647,369.4969],[152.5614,-28.4563,415.329],[152.5668,-28.4503,376.0478],[152.5643,-28.4473,379.6439],[152.5667,-28.4433,377.7067],[152.5652,-28.44,376.4025],[152.5721,-28.4368,376.8816],[152.5732,-28.4384,377.5364],[152.5754,-28.4367,377.017],[152.578,-28.4375,378.343],[152.578,-28.4355,377.4252],[152.5806,-28.435,379.2992],[152.5787,-28.4334,377.1367],[152.5798,-28.4243,383.5918],[152.5828,-28.4224,385.0069],[152.5816,-28.4203,381.922],[152.5795,-28.4204,383.5581],[152.58,-28.4189,380.2121],[152.5775,-28.4181,389.6115],[152.5764,-28.4156,383.5143],[152.5867,-28.4165,383.0341],[152.5864,-28.4146,382.534],[152.5934,-28.4105,384.7505],[152.5946,-28.4086,385.3712],[152.5932,-28.4011,386.1264],[152.5986,-28.399,386.2216],[152.5979,-28.3981,386.2216],[152.5992,-28.3974,385.3364],[152.5973,-28.3948,386.6394],[152.6056,-28.3913,387.902],[152.6058,-28.3867,388.5887],[152.6005,-28.381,390.4793],[152.6028,-28.3796,393.4118],[152.6012,-28.3783,390.8451],[152.6074,-28.3783,394.4354],[152.6071,-28.3767,393.1772],[152.6097,-28.377,403.4476],[152.6121,-28.3744,394.3858],[152.611,-28.3693,392.986],[152.6152,-28.364,395.2522],[152.6128,-28.3564,408.5702],[152.6164,-28.3545,400.769],[152.6144,-28.3527,398.7967],[152.6183,-28.3508,399.5905],[152.6181,-28.3486,399.446],[152.6209,-28.3469,400.8794],[152.6287,-28.3486,402.5952],[152.627,-28.346,403.7034],[152.6304,-28.341,405.7032],[152.6287,-28.34,405.3551],[152.6314,-28.3388,407.3966],[152.6291,-28.3344,412.7958],[152.6305,-28.3332,411.2333],[152.6273,-28.3291,422.707],[152.6275,-28.327,423.0764],[152.6216,-28.3272,461.4948],[152.6168,-28.3198,465.9099],[152.6066,-28.3211,507.8693],[152.5978,-28.3148,649.4922],[152.5924,-28.324,668.0125],[152.5834,-28.3312,683.3903],[152.583,-28.3346,664.7143],[152.5792,-28.339,698.3148],[152.5744,-28.3334,684.0724],[152.5725,-28.3262,609.8234],[152.5686,-28.3236,619.0765],[152.5564,-28.3234,640.5784],[152.5553,-28.3168,656.8867],[152.5516,-28.3204,641.6903],[152.5481,-28.321,650.374],[152.5435,-28.3185,669.9272],[152.5414,-28.3133,759.3092],[152.5391,-28.3116,806.5661],[152.5261,-28.3064,1131.0254],[152.5252,-28.3019,1043.6188],[152.5292,-28.2977,752.1582],[152.5292,-28.2862,651.1445],[152.5332,-28.2792,665.2557],[152.5329,-28.2722,718.3862],[152.5368,-28.2659,654.7994],[152.5348,-28.2651,675.2753],[152.5342,-28.2626,684.2568],[152.522,-28.2609,774.0318],[152.5187,-28.2568,798.8884],[152.5161,-28.2568,792.7562],[152.5157,-28.2518,750.4744],[152.5084,-28.2492,778.663],[152.4977,-28.2538,811.4016],[152.488,-28.2537,1134.7999],[152.4821,-28.2579,924.7568],[152.4712,-28.257,796.6918],[152.4624,-28.2601,746.7159],[152.4598,-28.2658,740.5368],[152.4615,-28.2696,738.7953],[152.4579,-28.2724,748.1012],[152.455,-28.2778,779.8947],[152.4481,-28.2812,870.1405],[152.4429,-28.2904,863.3204],[152.4447,-28.2989,1059.9303],[152.428,-28.2977,1035.8101],[152.4241,-28.2994,1059.4021],[152.4172,-28.2968,1112.0073],[152.4146,-28.298,1079.1948],[152.4128,-28.3019,1056.249],[152.4135,-28.3074,999.9723],[152.4107,-28.3102,980.822],[152.4095,-28.3157,1002.5626],[152.4112,-28.3211,956.4922],[152.4172,-28.3301,1071.8198],[152.4173,-28.3331,1061.1077],[152.4095,-28.3417,1081.353],[152.4001,-28.3476,1023.9344],[152.3931,-28.3605,972.5491],[152.3862,-28.3686,981.8303],[152.3774,-28.3658,956.5312],[152.3648,-28.3661,945.342],[152.3559,-28.3612,893.441],[152.3416,-28.3679,882.2802],[152.3361,-28.3664,890.6222],[152.3313,-28.3681,727.7758],[152.3269,-28.3666,660.1541],[152.3208,-28.3672,640.3613],[152.3135,-28.3631,677.9393],[152.3097,-28.3632,715.071],[152.3049,-28.372,750.3314],[152.3021,-28.3727,796.2153],[152.3001,-28.3743,816.9918],[152.3022,-28.3746,748.874],[152.2907,-28.3825,736.51],[152.2884,-28.3932,765.9025],[152.2771,-28.393,632.7006],[152.2676,-28.39,660.769],[152.2607,-28.4004,639.1778],[152.2525,-28.4074,612.1534],[152.2522,-28.4104,609.4629],[152.2393,-28.4176,617.6085],[152.2379,-28.4234,582.3897],[152.2306,-28.4298,581.4384],[152.2285,-28.437,610.8344],[152.2256,-28.4372,616.073],[152.222,-28.442,596.3786],[152.2217,-28.4449,588.2562],[152.2172,-28.4492,607.9314],[152.2139,-28.4461,604.8835],[152.2073,-28.4454,614.6328],[152.2047,-28.4382,589.7148],[152.1903,-28.4339,579.6259],[152.1845,-28.4389,588.6092],[152.1747,-28.4348,557.7241],[152.1683,-28.4344,559.7245],[152.1649,-28.4326,575.1434],[152.1605,-28.4331,570.029],[152.1567,-28.4344,560.9823],[152.1546,-28.4379,562.5075],[152.1466,-28.4391,567.3073],[152.142,-28.4422,571.7395],[152.1352,-28.4521,648.1095],[152.1279,-28.4537,679.3038],[152.1211,-28.4627,710.331],[152.1115,-28.4639,830.0691],[152.1028,-28.463,865.5491],[152.1015,-28.4648,860.2551],[152.0962,-28.4659,898.5537],[152.0941,-28.469,880.4996],[152.0877,-28.4694,938.2932],[152.0847,-28.4676,945.3934],[152.0796,-28.4702,953.8103],[152.0761,-28.4696,957.2145],[152.0747,-28.4677,925.9736],[152.0727,-28.4689,945.8821],[152.0702,-28.468,933.6161],[152.0669,-28.4793,926.0944],[152.067,-28.4856,925.2046],[152.0596,-28.4907,916.7182],[152.0554,-28.49,925.4377],[152.0457,-28.495,927.9532],[152.0359,-28.5073,882.5654],[152.027,-28.5129,893.108],[152.0243,-28.5131,905.7542],[152.019,-28.5178,914.5718],[152.0201,-28.521,903.1367],[152.0169,-28.5253,896.9938],[151.9995,-28.5285,881.0264],[151.9996,-28.5272,884.0613],[151.9951,-28.5268,912.2546],[151.9921,-28.5247,934.4492],[151.989,-28.5256,941.0188],[151.9844,-28.5165,930.2482],[151.9859,-28.5098,950.3414],[151.9829,-28.5034,939.887],[151.9785,-28.5032,937.4539],[151.9736,-28.5053,930.2261],[151.9731,-28.5076,944.9082],[151.9648,-28.5145,934.2262],[151.9583,-28.5162,932.7004],[151.9556,-28.5189,927.7643],[151.9569,-28.5254,925.8118],[151.9587,-28.5272,930.2007],[151.9554,-28.5325,928.7063],[151.9539,-28.5399,921.7783],[151.9571,-28.5438,921.3459],[151.9547,-28.5516,939.4435],[151.9585,-28.5568,930.2411],[151.9577,-28.5634,929.5222],[151.9608,-28.5666,937.0474],[151.965,-28.5674,934.1364],[151.9678,-28.5718,927.1349],[151.9764,-28.573,924.4199],[151.986,-28.5815,920.9911],[151.9884,-28.5918,909.1326],[151.9918,-28.5947,910.7049],[151.9891,-28.6038,919.0898],[151.9939,-28.6113,909.3629],[151.9908,-28.6244,900.5861],[152.0018,-28.6399,920.2706],[152.002,-28.6501,962.5888],[152.0058,-28.6513,951.396],[152.0114,-28.6618,976.8803],[152.0102,-28.665,973.0159],[152.0139,-28.6658,980.1837],[152.0205,-28.6638,972.2981],[152.0315,-28.6662,965.1692],[152.0392,-28.6644,970.6227],[152.045,-28.6682,1000.1708],[152.0458,-28.6706,996.5509],[152.0445,-28.6729,1008.4135],[152.0526,-28.6819,1016.1265],[152.062,-28.6791,1017.9985],[152.0664,-28.681,1009.9255],[152.068,-28.6849,1064.6279],[152.0646,-28.6906,1078.6476],[152.0661,-28.6975,1011.7882],[152.076,-28.7082,1025.802],[152.0712,-28.7149,1004.6088],[152.0621,-28.7182,1004.5176],[152.0539,-28.7254,975.848],[152.0427,-28.7316,1003.8662],[152.0463,-28.7342,998.552],[152.0477,-28.7403,988.8706],[152.0438,-28.7461,996.808],[152.0416,-28.7463,1012.1551],[152.041,-28.7537,1021.3391],[152.0363,-28.757,1009.286],[152.0387,-28.7648,1016.6953],[152.0369,-28.7761,1021.3507],[152.0417,-28.7786,1026.2068],[152.0398,-28.785,1034.1345],[152.0347,-28.7907,1056.1382],[152.0383,-28.797,1052.4846],[152.0355,-28.8071,1073.546],[152.0365,-28.8129,1090.3616],[152.0355,-28.8162,1110.7094],[152.0373,-28.8192,1117.4619],[152.0327,-28.829,1086.0123],[152.028,-28.8324,1097.9324],[152.0232,-28.8316,1103.3535],[152.0201,-28.8379,1105.0234],[152.0171,-28.8385,1097.951],[152.0183,-28.8458,1113.8953],[152.0151,-28.8506,1128.7249],[152.0155,-28.852,1140.0363],[152.0229,-28.8547,1099.2417],[152.026,-28.8583,1158.7013],[152.0295,-28.8546,1156.2214],[152.0369,-28.8518,1191.3687],[152.0396,-28.8546,1202.2722],[152.0359,-28.8587,1170.5745],[152.0381,-28.8647,1201.0698],[152.0342,-28.866,1202.4692],[152.0309,-28.8695,1169.9772],[152.0315,-28.8742,1152.1021],[152.0284,-28.8768,1162.9482],[152.024,-28.8868,1156.2855],[152.0245,-28.8899,1166.4061],[152.0167,-28.8925,1217.6191],[152.0163,-28.8971,1199.6321],[152.0125,-28.9009,1202.342],[152.0097,-28.9077,1181.198],[152.004,-28.9101,1175.5542],[152.0011,-28.9097,1181.4668],[152.0009,-28.8993,1200.9369],[151.9976,-28.8955,1218.9799],[151.9969,-28.898,1183.2595],[151.9818,-28.9089,1138.7261],[151.9741,-28.9091,1130.7715],[151.9682,-28.9166,1086.6958],[151.9613,-28.9188,982.9191],[151.9562,-28.9168,929.8209],[151.9518,-28.9192,913.6568],[151.9274,-28.9254,891.464],[151.9224,-28.9284,901.8964],[151.916,-28.9293,918.4528],[151.9167,-28.9251,910.0647],[151.9134,-28.9206,886.0212],[151.9004,-28.915,847.8636],[151.8971,-28.9152,849.0171],[151.8958,-28.9137,849.488],[151.8926,-28.9158,854.1848],[151.8816,-28.9119,882.2651],[151.878,-28.915,893.927],[151.8713,-28.9145,940.4588],[151.8683,-28.9139,964.5972],[151.8651,-28.9097,971.8998],[151.8591,-28.9072,1036.8241],[151.8494,-28.9079,1075.276],[151.8414,-28.9116,1239.0762],[151.8379,-28.9165,1167.7543],[151.8361,-28.9309,1104.4539],[151.8348,-28.9323,1125.2627],[151.8364,-28.9368,1121.0706],[151.8394,-28.9397,1163.2118],[151.8396,-28.9427,1180.395],[151.8357,-28.9486,1297.7358],[151.8342,-28.9572,1262.8811],[151.8322,-28.9598,1243.4692],[151.8256,-28.9633,1290.3571],[151.8138,-28.9594,1212.2726],[151.8126,-28.9561,1203.8362],[151.8155,-28.9541,1203.2727],[151.815,-28.9508,1182.0615],[151.8095,-28.9498,1168.2114],[151.8101,-28.9479,1161.087],[151.8083,-28.945,1164.6846],[151.8064,-28.9446,1173.6014],[151.7938,-28.9497,1181.9941],[151.7899,-28.9537,1170.896],[151.7836,-28.9545,1074.856],[151.7783,-28.958,1081.2977],[151.7778,-28.9599,1073.703],[151.7702,-28.9558,1143.3318],[151.7732,-28.9474,1125.3999],[151.7727,-28.9383,1144.7189],[151.7624,-28.9341,924.3508],[151.758,-28.9299,945.4484],[151.7594,-28.9264,947.4774],[151.7554,-28.925,922.4321],[151.7546,-28.9223,941.1658],[151.7505,-28.9227,968.8802],[151.7435,-28.9186,948.494],[151.7453,-28.9177,937.107],[151.7463,-28.9138,942.4327],[151.7401,-28.9022,969.3099],[151.7409,-28.8975,991.4041],[151.737,-28.8957,1001.3479],[151.7318,-28.8827,1062.9615],[151.7338,-28.8784,1067.52],[151.7339,-28.8716,1078.5341],[151.7266,-28.8669,1072.9692],[151.7229,-28.8685,1067.9922],[151.7226,-28.8703,1077.7277],[151.7168,-28.8749,1024.4132],[151.7136,-28.8754,1062.8081],[151.7113,-28.8713,1002.6222],[151.7065,-28.8718,1019.1756],[151.7021,-28.8823,998.1171],[151.6955,-28.8844,964.0797],[151.6957,-28.8884,934.5461],[151.6884,-28.8869,994.9318],[151.6861,-28.8889,958.8074],[151.6851,-28.893,1014.7867],[151.6777,-28.9002,1024.4663],[151.6774,-28.9039,1008.054],[151.6748,-28.9076,1023.1646],[151.6663,-28.9054,983.8492],[151.6514,-28.917,903.892],[151.6444,-28.9168,840.1868],[151.6367,-28.9221,824.5167],[151.6347,-28.9292,858.2545],[151.6331,-28.9297,842.799],[151.6258,-28.9237,836.7979],[151.6168,-28.9261,738.4022],[151.6096,-28.9233,689.6497],[151.6051,-28.9251,646.8502],[151.6034,-28.9274,635.9792],[151.5884,-28.9319,573.4302],[151.584,-28.9392,532.6265],[151.5771,-28.945,575.8197],[151.5751,-28.9435,565.6969],[151.5705,-28.9441,485.7914],[151.5668,-28.9417,458.1327],[151.5493,-28.9523,373.9513],[151.5456,-28.953,374.3253],[151.5447,-28.9612,370.215],[151.5376,-28.9737,367.7687],[151.5361,-28.9806,370.2144],[151.5247,-28.9888,360.2714],[151.522,-28.9961,360.734],[151.5157,-28.9982,362.6736],[151.5047,-29.0111,356.0551],[151.5023,-29.0166,356.2867],[151.4997,-29.0174,355.1677],[151.4982,-29.0201,353.8558],[151.4953,-29.0349,351.5903],[151.4971,-29.0422,355.4219],[151.4915,-29.0562,350.199],[151.4971,-29.0629,347.4738],[151.5025,-29.0661,357.9955],[151.5018,-29.0714,350.392],[151.4958,-29.0731,349.2047],[151.4914,-29.0776,347.3273],[151.4861,-29.0888,346.5574],[151.4759,-29.0918,342.9789],[151.463,-29.0989,341.0073],[151.4576,-29.1171,338.9131],[151.4518,-29.1269,334.8726],[151.4338,-29.1395,333.7838],[151.4283,-29.1475,335.9425],[151.4165,-29.1494,333.4243],[151.4106,-29.1526,336.8329],[151.4028,-29.1661,333.5001],[151.4017,-29.171,327.7931],[151.3956,-29.177,330.9549],[151.3771,-29.1769,328.4937],[151.3658,-29.174,322.73],[151.3659,-29.1834,327.753],[151.3681,-29.1868,328.9479],[151.3727,-29.1854,328.8422],[151.3761,-29.1902,330.8964],[151.3802,-29.2071,336.8479],[151.3774,-29.2138,346.3464],[151.387,-29.2238,342.2656],[151.3948,-29.2362,357.2621],[151.4027,-29.2427,355.3389],[151.4143,-29.2441,366.2264],[151.4176,-29.2475,361.7904],[151.4196,-29.2549,367.675],[151.4129,-29.2574,391.8737],[151.4121,-29.2595,369.7375],[151.4158,-29.2648,376.6887],[151.4185,-29.2761,377.4357],[151.4246,-29.2828,428.4438],[151.4268,-29.2875,399.7375],[151.4319,-29.2878,492.0425],[151.448,-29.2839,607.3992],[151.4507,-29.28,629.412],[151.4564,-29.2787,664.9941],[151.4633,-29.2731,670.4224],[151.4606,-29.2703,764.064],[151.4583,-29.272,734.6581],[151.4571,-29.2707,774.0378],[151.4609,-29.2665,778.8734],[151.4586,-29.2648,768.7271],[151.4603,-29.2629,790.7601],[151.4593,-29.2621,790.7601],[151.4634,-29.2577,812.8802],[151.4602,-29.2555,763.7288],[151.463,-29.2401,702.0955],[151.4778,-29.2422,720.318],[151.5554,-29.2645,839.8697],[151.5806,-29.2681,803.6029],[151.5926,-29.2803,1000.8884],[151.6158,-29.2835,913.9937],[151.6165,-29.2928,801.145],[151.6144,-29.3009,805.9629],[151.6133,-29.3011,803.7956],[151.6089,-29.325,1015.791],[151.6175,-29.3261,887.1868],[151.6148,-29.341,743.7701],[151.625,-29.3424,896.5506],[151.6244,-29.347,784.4212],[151.6488,-29.3502,821.4597],[151.6484,-29.3527,835.4653],[151.6762,-29.3563,975.3633],[151.678,-29.3454,1066.9658],[151.6965,-29.3475,941.6285],[151.6998,-29.3283,1095.3271],[151.7126,-29.3301,1001.5887],[151.7151,-29.3354,930.3533],[151.7169,-29.3347,928.1526],[151.7123,-29.3401,905.4595],[151.7157,-29.3443,883.3723],[151.7814,-29.3542,987.455],[151.7884,-29.3581,975.2197],[151.7874,-29.3629,969.317],[151.7835,-29.366,951.0397],[151.7818,-29.3705,935.3193],[151.8026,-29.3733,984.9789],[151.8006,-29.3851,969.8702],[151.7977,-29.385,975.7792],[151.7941,-29.3884,1000.6743],[151.79,-29.3993,1017.2786],[151.7885,-29.4085,1020.1977],[151.7919,-29.4138,1031.3511],[151.8058,-29.4246,1019.9157],[151.8054,-29.4273,1020.5227],[151.8069,-29.4275,1020.5227],[151.8081,-29.4232,1008.9368],[151.8171,-29.4154,990.6631],[151.8189,-29.4167,988.5809],[151.8183,-29.4195,990.0326],[151.8626,-29.4262,958.3256],[151.8634,-29.4223,955.7965],[151.8678,-29.423,975.0692],[151.8685,-29.4193,968.2467],[151.8726,-29.4199,994.1603],[151.8731,-29.4171,975.7619],[151.8764,-29.4176,979.454],[151.8954,-29.4065,1001.9948],[151.9113,-29.4082,1108.856],[151.9136,-29.4122,1079.0994],[151.9203,-29.4152,1119.8508],[151.9266,-29.4152,1160.5231],[151.9286,-29.4176,1181.7115],[151.9318,-29.4181,1189.2122],[151.9363,-29.4172,1192.3748],[151.9368,-29.4139,1210.0122],[151.9411,-29.4127,1232.9541],[151.9446,-29.4095,1291.4622],[151.9571,-29.4156,1254.1006],[151.9683,-29.4179,1293.3435],[151.9757,-29.4162,1340.7892],[151.9808,-29.411,1332.9822],[151.9868,-29.4076,1369.5334],[151.9968,-29.4059,1382.2484],[152.006,-29.407,1415.1372],[152.0081,-29.4047,1404.8503],[152.0047,-29.4025,1369.8969],[152.0033,-29.4001,1369.0277],[152.0042,-29.3982,1359.6892],[152.0099,-29.396,1251.7434],[152.0168,-29.3879,1362.1042],[152.0141,-29.3853,1341.7716],[152.0143,-29.3811,1406.0959],[152.0076,-29.3751,1478.4025],[152.008,-29.3713,1457.4263],[152.01,-29.3687,1414.5004],[152.0185,-29.366,1283.0198],[152.0237,-29.3618,1290.2825],[152.0305,-29.3643,1285.936],[152.0327,-29.3672,1269.4551],[152.0485,-29.3583,1133.0067],[152.0546,-29.3518,1143.6136],[152.0589,-29.3525,1179.7595],[152.0585,-29.3442,1137.405],[152.0539,-29.341,1153.1274],[152.0804,-29.3444,1054.2567],[152.08,-29.3465,1040.6156],[152.085,-29.3471,993.0891],[152.0833,-29.3482,981.8146],[152.0914,-29.3492,1105.5856],[152.0919,-29.3461,1092.4849],[152.1247,-29.3505,1027.7306],[152.124,-29.3553,1020.3251],[152.1498,-29.3583,956.4714],[152.1475,-29.3548,955.2787],[152.2442,-29.3682,448.4505],[152.246,-29.3703,439.1053],[152.2528,-29.3686,448.303],[152.2547,-29.3717,488.1892],[152.2613,-29.3752,502.2993],[152.2669,-29.375,528.8491],[152.2674,-29.3723,561.1187],[152.3003,-29.3771,918.801],[152.3034,-29.3684,1017.8703],[152.3068,-29.3637,1010.5397],[152.3065,-29.3556,948.9529],[152.3078,-29.3524,902.8683],[152.3159,-29.347,958.7064],[152.3192,-29.35,917.9358],[152.3226,-29.3506,929.0127],[152.3278,-29.3436,930.4946],[152.3353,-29.3404,1085.869],[152.3371,-29.3369,1062.6569],[152.3312,-29.3289,1076.2939],[152.3083,-29.3216,1139.0981],[152.3001,-29.3136,1063.4572],[152.3014,-29.3108,1066.5288],[152.2983,-29.3074,1077.2737],[152.3,-29.3045,1117.3381],[152.3088,-29.3049,1080.4778],[152.3095,-29.302,1049.1063],[152.3147,-29.2985,1074.5814],[152.3118,-29.2962,1049.6641],[152.3115,-29.2901,1030.3225],[152.3065,-29.2831,1076.1602],[152.3142,-29.2825,1154.8864],[152.3152,-29.2802,1117.0001],[152.3211,-29.2775,1143.5796],[152.3229,-29.2701,1123.2061],[152.3374,-29.2636,1125.4506],[152.3405,-29.2574,1097.5918],[152.3445,-29.2538,1038.309],[152.3472,-29.2537,1031.4384],[152.3518,-29.2487,949.9597],[152.3575,-29.2506,1017.1888],[152.3653,-29.246,855.9475],[152.3686,-29.2471,872.6041],[152.3757,-29.2438,930.4899],[152.3805,-29.2453,945.3775],[152.3876,-29.24,868.5921],[152.3937,-29.2414,1023.6201],[152.4141,-29.2289,1009.2448],[152.4113,-29.226,941.1628],[152.4111,-29.22,959.9168],[152.4052,-29.2112,922.3846],[152.4102,-29.2009,827.6114],[152.4185,-29.1902,811.8064],[152.4219,-29.1803,781.88],[152.4251,-29.1784,877.0412],[152.4215,-29.1739,819.7266],[152.4175,-29.1722,833.9942],[152.4189,-29.1688,831.4884],[152.4145,-29.1654,864.816],[152.4138,-29.1613,873.4073],[152.4178,-29.1523,892.2313],[152.4238,-29.1522,878.7946],[152.4289,-29.1505,767.5544],[152.4346,-29.1454,737.8844],[152.4442,-29.1442,722.8543],[152.455,-29.089,677.0785],[152.421,-29.0841,713.9502],[152.419,-29.081,741.0759],[152.4213,-29.0805,746.2473],[152.4243,-29.0755,705.402],[152.4287,-29.0743,687.7747],[152.4311,-29.072,672.3767],[152.4306,-29.0646,646.2421],[152.4357,-29.0594,613.6043],[152.4361,-29.0565,614.8407],[152.441,-29.0534,648.5106],[152.4439,-29.0398,427.306],[152.4238,-29.0366,206.0026],[152.4297,-29.0327,215.8901],[152.4379,-29.0322,203.4357],[152.4461,-29.0283,205.3015],[152.4564,-29.0332,213.5734],[152.4598,-29.0316,220.7601],[152.4541,-29.0245,205.3387],[152.4552,-29.0205,198.2908],[152.465,-29.0077,217.5198],[152.4724,-29.0039,183.2621],[152.4648,-28.9985,225.9546],[152.4639,-28.992,194.9683],[152.4659,-28.9904,196.3373],[152.4744,-28.992,194.778],[152.4762,-28.9904,231.335],[152.4729,-28.9802,188.1369],[152.4636,-28.9792,170.5411],[152.4621,-28.9778,176.6711],[152.4626,-28.9759,205.2093],[152.4721,-28.9725,171.1439],[152.4767,-28.9726,398.7453],[152.4886,-28.9771,560.4067],[152.4894,-28.9752,556.1418],[152.4866,-28.97,529.8527],[152.5096,-28.9733,270.4747],[152.5083,-28.9804,255.0505],[152.5169,-28.9816,238.1146],[152.5166,-28.9836,218.1574],[152.5257,-28.9847,192.46],[152.53,-28.9885,173.8718],[152.5329,-28.9839,169.2714],[152.534,-28.9857,173.5869],[152.5585,-28.9901,102.9978]]]]}
,"properties": {"GID_2": "AUS.5.125_1","GID_0": "AUS","country": "Australia","GID_1": "AUS.5_1","state": "NewSouthWales","NL_NAME_1": "NA","county": "Tenterfield","VARNAME_2": "NA","NL_NAME_2": "NA","TYPE_2": "Area","ENGTYPE_2": "Area","CC_2": "17400","HASC_2": "AU.NS.TN","name": "Tenterfield.county","area_km2": 7331.458,"hist_schema_id": "Elevation0-9000","hist_area_km2": {"100": 3.562,"125": 24.782,"150": 40.533,"175": 36.192,"200": 27.52,"225": 32.031,"250": 42.206,"275": 51.064,"300": 62.093,"325": 91.151,"350": 137.128,"375": 175.557,"400": 207.104,"425": 219.21,"450": 211.713,"475": 216.11,"500": 216.514,"525": 228.981,"550": 233.736,"575": 225.324,"600": 203.432,"625": 198.608,"650": 210.268,"675": 224.088,"700": 214.34,"725": 199.029,"750": 184.116,"775": 196.313,"800": 220.662,"825": 244.768,"850": 286.878,"875": 299.853,"900": 290.728,"925": 249.169,"950": 254.078,"975": 263.29,"1000": 219.911,"1025": 214.657,"1050": 190.577,"1075": 154.636,"1100": 122.217,"1125": 77.423,"1150": 45.089,"1175": 27.909,"1200": 16.32,"1225": 11.45,"1250": 8.321,"1275": 7.378,"1300": 4.049,"1325": 3.013,"1350": 2.569,"1375": 1.608,"1400": 0.905,"1425": 0.739,"1450": 0.314,"1475": 0.166,"1500": 0.074}}}