{"type":"Feature","properties":{"GID_2":"AUS.11.81_1","GID_0":"AUS","country":"Australia","GID_1":"AUS.11_1","state":"WesternAustralia","NL_NAME_1":"NA","county":"Morawa","VARNAME_2":"NA","NL_NAME_2":"NA","TYPE_2":"Shire","ENGTYPE_2":"Shire","CC_2":"55670","HASC_2":"AU.WA.MO","name":"Morawa.county"},
"geometry":{"type": "MultiPolygon","coordinates": [[[[115.752,-29.2885,305.8645],[115.8534,-29.2881,283.4413],[115.8535,-29.3444,290.146],[115.9188,-29.3447,247.1497],[115.9187,-29.3245,249.7795],[116.1197,-29.324,275.5073],[116.1197,-29.2894,280.6337],[116.1178,-29.2871,282.7577],[116.1321,-29.2871,284.8925],[116.13,-29.2849,285.0734],[116.1615,-29.2853,288.738],[116.2533,-29.2775,320.6376],[116.258,-29.2744,328.0167],[116.2735,-29.2743,333.9217],[116.2735,-29.2626,354.4902],[116.2922,-29.2626,299.6395],[116.2922,-29.2662,302.9749],[116.314,-29.2598,292.6641],[116.3863,-29.2593,300.6564],[116.3856,-29.1951,266.5927],[116.4244,-29.1933,268.6071],[116.4909,-29.194,266.7831],[116.491,-29.0939,292.0738],[116.3837,-29.0937,265.2771],[116.3824,-29.0159,270.7959],[116.346,-29.016,263.6407],[116.346,-29.0064,266.426],[116.3487,-29.0013,278.916],[116.3449,-28.9523,293.5983],[116.235,-28.9523,345.8972],[116.235,-28.9219,339.2588],[116.2118,-28.922,379.0461],[116.2116,-28.8911,353.0798],[116.1802,-28.8911,341.3356],[116.1801,-28.8753,335.9792],[116.1568,-28.8765,321.5514],[116.1568,-28.8468,308.3949],[116.0876,-28.8469,305.3811],[116.0871,-28.8365,304.2497],[116.084,-28.8365,303.4251],[116.0839,-28.7975,317.3806],[116.0815,-28.7884,322.671],[116.0816,-28.7583,339.5248],[116.0795,-28.7565,341.8948],[116.0521,-28.7566,376.306],[116.0522,-28.7262,352.247],[115.991,-28.7263,351.5501],[115.991,-28.7566,349.5834],[115.9581,-28.7566,331.3655],[115.958,-28.7845,335.3838],[115.9248,-28.7845,334.9771],[115.9247,-28.8024,336.8694],[115.8844,-28.8025,327.7898],[115.8841,-28.8392,344.1863],[115.8114,-28.8392,360.2819],[115.8114,-28.8514,339.2856],[115.6858,-28.8517,274.8758],[115.6858,-28.8602,294.0748],[115.6362,-28.8602,262.291],[115.6362,-28.9374,319.0989],[115.6246,-28.9374,317.7283],[115.6243,-28.9494,329.7138],[115.6219,-28.9496,339.2903],[115.6219,-29.0088,273.0366],[115.6468,-29.0088,294.5469],[115.6468,-29.0289,330.6413],[115.6595,-29.03,329.6263],[115.6595,-29.0312,329.6263],[115.6714,-29.0245,319.5463],[115.6714,-29.0354,347.8665],[115.7353,-29.0354,316.1795],[115.7353,-29.069,288.5486],[115.6734,-29.0699,281.0496],[115.6736,-29.2159,257.9427],[115.7523,-29.215699999999998,287.7504],[115.752,-29.2885,305.8645]]]]}}