{"type": "Feature","bbox": [130.0168,-25.2652,136.7962,-12.001],"geometry": {"type": "MultiPolygon","coordinates": [[[[130.9953,-25.1486,488.9763],[130.9305,-25.1486,482.5186],[130.9305,-25.2652,515.6248],[131.0096,-25.2652,512.7763],[131.0096,-25.1486,488.9465],[130.9953,-25.1486,488.9763]]],
[[[130.6224,-12.6849,3.0779],[130.6252,-12.6885,0.0],[130.6289,-12.6852,0.0],[130.6258,-12.6798,4.2982],[130.6224,-12.6849,3.0779]]],
[[[130.869,-12.5917,2.5869],[130.869,-12.5931,0.7985],[130.871,-12.5901,1.021],[130.8701,-12.5902,1.021],[130.869,-12.5917,2.5869]]],
[[[130.8866,-12.4474,5.3822],[130.886,-12.4464,5.3822],[130.8845,-12.4483,6.7926],[130.8844,-12.4513,5.4552],[130.8882,-12.456,4.4686],[130.8868,-12.4575,4.4602],[130.8907,-12.4652,3.2567],[130.9071,-12.4648,0.0],[130.9106,-12.4627,2.2075],[130.9101,-12.4602,4.6763],[130.9169,-12.4577,4.6926],[130.917,-12.4592,4.7607],[130.9145,-12.4592,1.9014],[130.9079,-12.4665,5.7573],[130.8989,-12.4673,2.4651],[130.8919,-12.4728,0.0],[130.8931,-12.4819,5.1855],[130.8974,-12.4877,6.8972],[130.9022,-12.4878,2.8935],[130.905,-12.4846,0.0],[130.9054,-12.4807,4.652],[130.9088,-12.4809,4.391],[130.9132,-12.4842,3.3956],[130.9161,-12.4827,4.4433],[130.9259,-12.483,0.4029],[130.9334,-12.4765,0.0],[130.9364,-12.4714,2.1169],[130.9403,-12.4736,1.6146],[130.9457,-12.4708,5.1075],[130.9467,-12.471,5.1075],[130.9426,-12.4748,7.1472],[130.9376,-12.4755,3.1015],[130.9312,-12.4835,4.9787],[130.9319,-12.4918,5.0182],[130.9409,-12.5043,5.3127],[130.9426,-12.5043,4.1235],[130.9461,-12.4995,4.031],[130.9468,-12.4941,6.44],[130.9563,-12.494,7.3415],[130.9624,-12.4822,11.5504],[130.9636,-12.4733,15.0638],[130.9605,-12.4657,22.8611],[130.9459,-12.4569,12.4663],[130.9532,-12.4452,32.185],[130.951,-12.4434,34.2585],[130.9309,-12.4359,37.0294],[130.931,-12.44,37.4659],[130.9273,-12.4399,37.9628],[130.9274,-12.4465,26.5879],[130.9162,-12.4466,9.6512],[130.9162,-12.4487,8.1093],[130.9086,-12.4487,7.9908],[130.9027,-12.4509,9.7249],[130.9027,-12.4467,22.9085],[130.8934,-12.4467,5.5058],[130.8961,-12.4401,6.3449],[130.8943,-12.4393,9.2701],[130.8884,-12.4469,6.0355],[130.8866,-12.4474,5.3822]]],
[[[130.1019,-13.1979,1.5756],[130.1029,-13.1969,1.5756],[130.1009,-13.1932,3.5985],[130.091,-13.1928,1.0985],[130.0892,-13.1947,1.5856],[130.0915,-13.1956,3.1772],[130.0883,-13.1975,1.4691],[130.0866,-13.2013,1.7476],[130.088,-13.2027,3.66],[130.0844,-13.2086,0.9078],[130.085,-13.2099,1.2832],[130.0864,-13.2076,5.2435],[130.0878,-13.2127,5.0066],[130.0953,-13.2173,5.7222],[130.0976,-13.2212,4.2645],[130.1056,-13.2237,3.7303],[130.1074,-13.2221,3.7152],[130.1078,-13.2241,1.5466],[130.1096,-13.2201,1.2195],[130.105,-13.2148,0.377],[130.1046,-13.2114,0.0],[130.105,-13.21,2.1575],[130.1077,-13.2103,0.8015],[130.1059,-13.2085,1.9655],[130.1057,-13.205,0.8939],[130.101,-13.2011,2.1305],[130.1019,-13.1979,1.5756]]],
[[[130.0364,-13.1544,0.0],[130.0301,-13.1529,0.0],[130.0217,-13.1433,0.8345],[130.0208,-13.1396,4.3822],[130.0247,-13.1198,0.0],[130.0222,-13.1131,4.5216],[130.0185,-13.1112,0.0],[130.0169,-13.114,3.7314],[130.0168,-13.1248,4.023],[130.019,-13.1423,3.2679],[130.0186,-13.1659,4.3826],[130.0204,-13.1798,1.7674],[130.0308,-13.1799,1.7028],[130.0411,-13.1832,1.0455],[130.0435,-13.1775,1.655],[130.0472,-13.1759,4.9869],[130.0448,-13.1783,0.0],[130.0541,-13.1773,1.5914],[130.0681,-13.1824,0.8213],[130.0737,-13.1787,0.8386],[130.075,-13.1712,14.5564],[130.0734,-13.1673,5.1054],[130.0577,-13.1521,1.2795],[130.0491,-13.1506,0.1832],[130.0432,-13.1542,0.5216],[130.0364,-13.1544,0.0]]],
[[[130.5999,-12.6993,0.0],[130.6008,-12.7025,4.1128],[130.6043,-12.7015,0.0],[130.6042,-12.7008,0.0],[130.5999,-12.6993,0.0]]],
[[[130.5211,-12.5891,0.3445],[130.5163,-12.5829,0.0],[130.5184,-12.5779,1.3626],[130.5228,-12.5758,0.3221],[130.5224,-12.5731,0.0],[130.5179,-12.5692,0.0],[130.5201,-12.564,0.0],[130.5173,-12.5576,0.4251],[130.5156,-12.5621,4.8237],[130.5104,-12.5654,2.9858],[130.5113,-12.57,2.8646],[130.5081,-12.5742,10.7493],[130.4904,-12.5817,9.0462],[130.4868,-12.5817,2.8999],[130.4883,-12.5807,0.7886],[130.4875,-12.579,0.0677],[130.4853,-12.5797,0.2847],[130.4853,-12.5852,0.2384],[130.4928,-12.5909,0.943],[130.4949,-12.5964,1.8426],[130.4948,-12.6051,0.0],[130.4916,-12.609,0.8267],[130.4887,-12.6195,13.9],[130.4872,-12.6181,0.4253],[130.4866,-12.6237,0.0],[130.4913,-12.628,3.8234],[130.492,-12.6346,1.1478],[130.4964,-12.6373,1.8407],[130.4992,-12.6455,3.4666],[130.5061,-12.6495,6.3959],[130.5075,-12.6521,6.5676],[130.5153,-12.6529,5.6868],[130.524,-12.6618,5.3109],[130.523,-12.6681,0.8382],[130.5261,-12.6751,7.3965],[130.5271,-12.6847,6.3645],[130.5236,-12.6918,0.0],[130.5243,-12.7001,7.4595],[130.5326,-12.7087,7.915],[130.5397,-12.7099,2.0197],[130.5436,-12.7087,0.0],[130.5442,-12.7067,1.089],[130.5435,-12.7004,0.0],[130.539,-12.6924,1.3844],[130.5422,-12.6812,0.0],[130.5361,-12.6718,0.0],[130.5302,-12.6678,0.0],[130.5298,-12.6591,2.2827],[130.5178,-12.6506,0.0],[130.5178,-12.6477,0.0],[130.5147,-12.6434,3.7119],[130.516,-12.6328,0.0],[130.5108,-12.6246,1.3079],[130.511,-12.617,1.2391],[130.5095,-12.6149,0.1393],[130.5041,-12.6127,0.0],[130.503,-12.6103,2.4544],[130.5036,-12.6043,0.3381],[130.5101,-12.5907,1.002],[130.5141,-12.5883,1.9485],[130.5178,-12.5902,1.366],[130.5211,-12.5891,0.3445]]],
[[[130.3932,-12.6219,2.8238],[130.3856,-12.6174,0.0],[130.381,-12.6183,5.9682],[130.3778,-12.6167,0.5647],[130.3707,-12.6195,0.3265],[130.3685,-12.6233,5.5928],[130.3649,-12.625,1.7604],[130.3669,-12.6334,1.9187],[130.3701,-12.6363,3.1579],[130.3689,-12.6427,0.127],[130.3779,-12.6436,1.5927],[130.3801,-12.6416,4.5962],[130.3804,-12.6435,1.6516],[130.3834,-12.6438,2.7738],[130.3889,-12.6415,0.0],[130.3963,-12.633,0.0],[130.3947,-12.6301,7.9356],[130.3964,-12.6266,7.9597],[130.3941,-12.6257,6.2337],[130.3932,-12.6219,2.8238]]],
[[[130.4064,-12.607,2.1744],[130.4044,-12.6082,8.2043],[130.3917,-12.6008,0.9662],[130.385,-12.6025,0.8209],[130.3857,-12.6084,1.4056],[130.388,-12.6109,7.6373],[130.4018,-12.6151,2.1548],[130.4057,-12.6136,4.3967],[130.4084,-12.6095,6.1004],[130.4064,-12.607,2.1744]]],
[[[130.4095,-12.584,8.2321],[130.4008,-12.5809,0.0],[130.3952,-12.5828,0.0],[130.3915,-12.5889,0.0],[130.3941,-12.5976,7.1073],[130.4019,-12.602,3.6528],[130.4145,-12.5985,6.7518],[130.4162,-12.595,8.5643],[130.4095,-12.584,8.2321]]],
[[[130.4106,-12.5844,8.5189],[130.4131,-12.5896,8.3023],[130.4168,-12.5921,7.2909],[130.4245,-12.5882,0.7011],[130.4278,-12.5838,1.1558],[130.4334,-12.5815,-0.1643],[130.4344,-12.5798,-0.26],[130.4294,-12.5684,1.0341],[130.4207,-12.5636,3.5784],[130.4109,-12.5671,2.9566],[130.4059,-12.5722,0.0],[130.4051,-12.5772,1.3902],[130.4106,-12.5844,8.5189]]],
[[[136.4272,-13.8455,37.4045],[136.4229,-13.8455,16.8809],[136.4127,-13.8398,21.6217],[136.4087,-13.8464,0.0],[136.417,-13.8532,0.0],[136.4188,-13.858,0.6228],[136.4272,-13.855,24.8419],[136.4272,-13.8455,37.4045]]],
[[[130.8892,-12.8659,31.5118],[130.8893,-12.6482,0.9675],[130.8871,-12.6482,4.2004],[130.8864,-12.6446,0.0],[130.8848,-12.6454,2.8492],[130.8858,-12.6423,0.0],[130.8846,-12.6353,0.0],[130.8798,-12.6313,1.5654],[130.8714,-12.6397,3.5744],[130.8716,-12.6551,6.1788],[130.8698,-12.6587,3.7691],[130.8707,-12.6521,2.0348],[130.8691,-12.6502,1.4282],[130.8688,-12.6411,1.5578],[130.8766,-12.6288,0.0],[130.8705,-12.6209,0.0],[130.8693,-12.6116,1.7834],[130.8622,-12.6143,0.0],[130.859,-12.6174,1.8542],[130.859,-12.6206,3.4766],[130.8571,-12.6173,1.8542],[130.8521,-12.618,0.886],[130.8487,-12.6156,1.7666],[130.8462,-12.6105,1.7738],[130.8516,-12.6157,3.0797],[130.8573,-12.6152,0.0],[130.868,-12.6015,0.0],[130.8665,-12.5995,0.0],[130.8672,-12.5966,0.0],[130.8598,-12.5862,0.0],[130.8498,-12.5789,0.0],[130.8493,-12.5738,0.0],[130.8428,-12.5673,0.0],[130.8421,-12.5563,0.0],[130.8388,-12.5541,0.0],[130.8301,-12.5574,0.0],[130.8161,-12.5582,7.402],[130.8171,-12.5636,6.4572],[130.8206,-12.5685,3.9432],[130.8188,-12.5724,4.0268],[130.8195,-12.5755,1.5668],[130.8284,-12.5803,4.3673],[130.8309,-12.5836,5.3339],[130.8309,-12.5875,6.2813],[130.8284,-12.5878,4.4862],[130.8301,-12.5851,5.5618],[130.824,-12.5793,1.1543],[130.8179,-12.5787,0.6018],[130.8142,-12.582,5.1934],[130.8118,-12.5667,0.0],[130.8103,-12.5648,1.1491],[130.8051,-12.5635,3.7299],[130.8073,-12.5633,0.567],[130.8076,-12.5554,3.145],[130.8094,-12.5557,2.426],[130.8121,-12.5501,0.0],[130.8117,-12.544,1.8615],[130.8102,-12.5399,0.0],[130.805,-12.5387,0.0],[130.7999,-12.5393,0.0],[130.7882,-12.5483,8.7822],[130.7871,-12.5509,8.8882],[130.7889,-12.5598,4.7299],[130.7919,-12.5612,2.9871],[130.7909,-12.563,1.7472],[130.7944,-12.5723,3.2799],[130.7945,-12.5784,0.8086],[130.788,-12.5834,4.9496],[130.7837,-12.5894,3.0676],[130.7829,-12.593,1.8393],[130.7861,-12.5963,4.288],[130.7856,-12.5995,4.4696],[130.7901,-12.6026,4.4865],[130.7853,-12.6042,1.7737],[130.7838,-12.6086,3.6742],[130.7845,-12.6122,3.9812],[130.7823,-12.6122,2.5006],[130.7804,-12.6169,4.2532],[130.7822,-12.6191,5.3915],[130.7922,-12.6195,3.9167],[130.7919,-12.6219,4.1918],[130.7901,-12.6205,0.0],[130.7823,-12.6208,0.0],[130.7799,-12.6195,1.2915],[130.7787,-12.615,4.9222],[130.7813,-12.6034,0.0],[130.7771,-12.5996,0.8771],[130.7751,-12.6015,5.5666],[130.7747,-12.616,2.1818],[130.7724,-12.6016,0.8485],[130.7674,-12.6017,2.5264],[130.7742,-12.5972,1.5033],[130.7817,-12.5737,0.0],[130.781,-12.562,0.0],[130.7786,-12.5591,0.0],[130.7743,-12.5599,1.4144],[130.7614,-12.5695,1.2362],[130.7557,-12.5784,2.8487],[130.749,-12.584,0.0],[130.7459,-12.585,0.994],[130.7335,-12.5819,0.0],[130.7301,-12.5831,5.9611],[130.7307,-12.5915,3.4891],[130.7348,-12.5982,5.3305],[130.7344,-12.6007,6.416],[130.7294,-12.5907,2.6394],[130.7293,-12.5816,2.871],[130.7489,-12.58,1.0862],[130.7545,-12.5692,0.0],[130.7676,-12.5596,1.9001],[130.7677,-12.5512,4.2911],[130.7728,-12.5487,0.0],[130.7744,-12.5456,2.1488],[130.774,-12.5422,0.6752],[130.7705,-12.5368,5.883],[130.7725,-12.5319,2.368],[130.7694,-12.5271,4.6961],[130.7772,-12.5204,0.0],[130.7765,-12.5137,3.4988],[130.7785,-12.5096,3.2192],[130.772,-12.5005,1.6426],[130.7714,-12.4939,0.0],[130.7759,-12.4883,0.0],[130.7789,-12.4748,0.0],[130.778,-12.4769,5.3529],[130.7742,-12.4774,6.8739],[130.7699,-12.4817,3.5658],[130.7634,-12.481,0.8049],[130.7616,-12.4825,3.6095],[130.7519,-12.4934,0.0],[130.7436,-12.5115,0.0],[130.7382,-12.518,4.3333],[130.7375,-12.5199,3.2958],[130.739,-12.5216,4.0654],[130.7368,-12.5246,5.4474],[130.7308,-12.5254,1.7657],[130.7278,-12.5288,5.9913],[130.7271,-12.5262,1.2689],[130.7443,-12.5056,0.0],[130.7497,-12.4916,2.7357],[130.7574,-12.4822,2.4774],[130.7584,-12.4716,0.7764],[130.7599,-12.4703,13.0471],[130.7596,-12.464,1.6911],[130.7664,-12.4533,2.896],[130.7673,-12.4431,1.2815],[130.7663,-12.4395,3.1283],[130.7642,-12.4369,1.7794],[130.7592,-12.4366,11.062],[130.7529,-12.4288,0.0],[130.7498,-12.4271,0.9874],[130.742,-12.4268,4.4111],[130.737,-12.429,4.9746],[130.726,-12.4279,0.0],[130.7117,-12.4234,4.6211],[130.7106,-12.4178,0.8054],[130.7057,-12.4141,0.0],[130.695,-12.4164,7.3374],[130.6838,-12.4161,0.0],[130.6721,-12.4098,6.0928],[130.6687,-12.4032,4.502],[130.6614,-12.402,2.9551],[130.6568,-12.3994,1.0115],[130.6543,-12.394,1.459],[130.6516,-12.3926,0.4468],[130.6475,-12.3934,9.6151],[130.6383,-12.389,0.0],[130.6241,-12.3889,1.3633],[130.6206,-12.3863,0.0],[130.6202,-12.3819,0.5369],[130.6177,-12.3814,-0.1495],[130.6174,-12.387,1.9575],[130.6116,-12.3931,0.0],[130.6069,-12.3958,0.9219],[130.6047,-12.3948,1.6899],[130.6031,-12.398,6.9786],[130.5915,-12.4039,-0.2038],[130.5844,-12.4035,0.3545],[130.579,-12.4049,0.2029],[130.5782,-12.4066,0.8702],[130.582,-12.413,5.1207],[130.581,-12.416,0.3583],[130.5836,-12.4207,1.6441],[130.5855,-12.4208,4.545],[130.5873,-12.4252,-1.061],[130.5931,-12.4251,3.7378999999999998],[130.5989,-12.4279,4.69],[130.6019,-12.4269,9.3706],[130.6042,-12.4295,6.186],[130.6122,-12.4318,8.8779],[130.6176,-12.4437,3.4361],[130.6232,-12.4478,5.7806],[130.616,-12.4511,0.7765],[130.6082,-12.4501,1.2627],[130.6045,-12.4528,1.3246],[130.6005,-12.452,0.4092],[130.5929,-12.4553,5.8768],[130.5884,-12.4528,0.8628],[130.581,-12.4626,5.1884],[130.5818,-12.469,9.6537],[130.5868,-12.4711,22.4027],[130.5911,-12.4799,3.9042],[130.6041,-12.4879,8.7873],[130.6041,-12.4971,4.4015],[130.6058,-12.5015,2.4815],[130.5887,-12.5013,3.4708],[130.5874,-12.5096,9.6593],[130.5828,-12.5128,0.2095],[130.5819,-12.5191,8.6317],[130.5805,-12.5195,0.7285],[130.581,-12.5237,1.925],[130.5776,-12.5292,5.8717],[130.578,-12.5348,12.1861],[130.5744,-12.5413,1.6818],[130.5754,-12.5433,6.3695],[130.5717,-12.5485,1.7929],[130.5659,-12.5667,1.7014],[130.5693,-12.572,11.8789],[130.5694,-12.5756,9.2682],[130.5668,-12.5815,0.0],[130.5691,-12.5872,15.632],[130.5684,-12.5901,2.525],[130.5736,-12.5968,1.383],[130.582,-12.5929,1.1291],[130.579,-12.5895,4.672],[130.5845,-12.5907,3.1195],[130.589,-12.5805,1.9744],[130.5914,-12.5835,0.8617],[130.6039,-12.5784,0.9443],[130.6001,-12.5819,4.845],[130.5896,-12.5867,5.3522],[130.5892,-12.5921,0.7152],[130.5975,-12.5992,3.0304],[130.6036,-12.5983,2.5581],[130.612,-12.6015,0.0],[130.6148,-12.6052,5.3953],[130.6166,-12.6121,7.2159],[130.6185,-12.6129,8.6613],[130.6279,-12.6085,3.5055],[130.6315,-12.609,6.1854],[130.6358,-12.6201,1.9123],[130.6441,-12.6238,6.7396],[130.6436,-12.6276,4.4186],[130.6391,-12.6326,7.7107],[130.6423,-12.6373,4.1754],[130.6412,-12.6442,6.4234],[130.6414,-12.6369,4.1754],[130.6382,-12.6329,8.3286],[130.6429,-12.6252,3.2041],[130.6339,-12.6194,0.0],[130.6303,-12.6106,0.0],[130.6189,-12.6156,1.479],[130.6148,-12.6132,0.0],[130.609,-12.6044,0.0],[130.6059,-12.605,3.4939],[130.6047,-12.6145,4.3551],[130.6002,-12.6164,3.8824],[130.5994,-12.6184,1.3336],[130.5952,-12.6192,1.019],[130.5882,-12.6294,1.2737],[130.5867,-12.638,6.543],[130.5896,-12.6469,6.8003],[130.5888,-12.6544,6.8651],[130.5908,-12.6548,2.4549],[130.5943,-12.6527,5.2795],[130.5962,-12.654,6.8484],[130.5893,-12.6562,2.6346],[130.5865,-12.6605,6.0432],[130.588,-12.6478,1.4015],[130.5851,-12.642,5.3795],[130.5849,-12.6264,5.9895],[130.5828,-12.623,2.907],[130.5596,-12.6265,3.3409],[130.5569,-12.6256,0.0],[130.5499,-12.6161,0.0],[130.5498,-12.6244,1.6367],[130.546,-12.6297,1.2381],[130.5457,-12.6343,2.9715],[130.5511,-12.6355,8.2419],[130.5734,-12.6522,5.9504],[130.5733,-12.6635,6.5002],[130.5775,-12.667,5.1469],[130.5796,-12.6747,7.4924],[130.5859,-12.6844,0.0],[130.59,-12.6765,0.0],[130.595,-12.6755,0.0],[130.5972,-12.6708,5.0911],[130.6064,-12.6728,6.417],[130.6121,-12.6766,0.0],[130.6174,-12.6764,0.7999],[130.6183,-12.6726,0.876],[130.6165,-12.6687,4.7154],[130.619,-12.6712,4.5037],[130.6219,-12.67,3.1095],[130.6225,-12.6723,5.3092],[130.6301,-12.6785,7.0912],[130.6327,-12.6829,5.829],[130.6377,-12.6837,2.5085],[130.633,-12.6849,4.0546],[130.6334,-12.6863,1.6849],[130.6449,-12.6881,0.6618],[130.6483,-12.6855,5.9581],[130.6554,-12.6923,0.5321],[130.658,-12.6905,2.1502],[130.658,-12.6871,4.5895],[130.6607,-12.6921,3.2503],[130.6639,-12.6921,3.0432],[130.6669,-12.6942,0.5424],[130.6677,-12.6913,1.3108],[130.6739,-12.6915,4.9997],[130.6647,-12.7005,7.7547],[130.6663,-12.7036,4.4112],[130.6741,-12.7079,6.289],[130.6844,-12.7068,0.0],[130.6934,-12.698,0.0],[130.7007,-12.6955,1.5824],[130.702,-12.6905,1.3566],[130.7027,-12.6956,1.5824],[130.6933,-12.7003,2.5531],[130.6896,-12.7066,1.289],[130.6791,-12.7135,2.6095],[130.6828,-12.7169,4.1791],[130.6902,-12.7198,0.0],[130.6953,-12.7198,1.0122],[130.7061,-12.711,4.1871],[130.7297,-12.7086,3.1882],[130.7388,-12.7105,2.8941],[130.7282,-12.7109,0.0],[130.7073,-12.7165,3.408],[130.7065,-12.7201,0.0],[130.7082,-12.7227,2.1251],[130.6985,-12.7274,0.0],[130.6976,-12.7319,2.1066],[130.6926,-12.7387,4.7879],[130.6846,-12.7445,4.1115],[130.686,-12.7472,3.9206],[130.6897,-12.7475,5.3794],[130.693,-12.7453,0.9205],[130.6939,-12.7467,1.1007],[130.6891,-12.7515,1.7727],[130.6817,-12.7485,0.3479],[130.6797,-12.7453,4.45],[130.683,-12.7384,0.0],[130.6907,-12.7327,0.0],[130.6871,-12.728,1.6842],[130.6726,-12.7232,1.9348],[130.6691,-12.724,1.5224],[130.6606,-12.7147,3.6986],[130.6496,-12.7131,2.5458],[130.6476,-12.717,6.1744],[130.647,-12.7135,5.3132],[130.6411,-12.7124,0.0],[130.6363,-12.715,2.6366],[130.6301,-12.7152,2.1602],[130.6247,-12.7069,0.0],[130.6215,-12.7052,0.9976],[130.6175,-12.7077,0.4641],[130.6163,-12.7109,5.1727],[130.6221,-12.7183,3.2563],[130.6299,-12.7219,4.6465],[130.6363,-12.7271,2.6112],[130.6377,-12.7408,3.2303],[130.6393,-12.7413,0.0],[130.6399,-12.7393,4.6409],[130.6436,-12.7437,5.4314],[130.6393,-12.7437,4.9351],[130.6346,-12.7594,0.0],[130.6317,-12.7645,4.5163],[130.6247,-12.7697,6.04],[130.6267,-12.7739,6.6724],[130.6352,-12.7742,5.7848],[130.6343,-12.7755,2.414],[130.6243,-12.7751,2.0641],[130.6237,-12.7678,3.2445],[130.6285,-12.7592,3.8624],[130.6285,-12.7566,4.3664],[130.6252,-12.7535,2.4656],[130.6286,-12.7531,3.5912],[130.6309,-12.7453,0.0],[130.6295,-12.7278,0.0],[130.6187,-12.7267,2.4175],[130.6103,-12.7223,0.379],[130.6025,-12.7278,0.0],[130.605,-12.7327,7.5214],[130.5997,-12.7303,5.6322],[130.5998,-12.7291,7.0389],[130.607,-12.7225,1.2555],[130.6077,-12.7199,2.1109],[130.6045,-12.7182,1.2303],[130.596,-12.718,2.2752],[130.5945,-12.7255,4.9956],[130.5868,-12.7287,3.887],[130.5851,-12.7319,0.0],[130.5853,-12.7339,0.0],[130.5911,-12.7392,1.4433],[130.5846,-12.7353,0.9329],[130.5805,-12.7392,1.0599],[130.5795,-12.7424,5.7401],[130.5783,-12.7396,0.7839],[130.5699,-12.7438,5.0201],[130.5695,-12.7399,1.3368],[130.5736,-12.7396,0.476],[130.5807,-12.7339,1.9372],[130.5833,-12.7192,2.6438],[130.5805,-12.7143,0.0],[130.5758,-12.7135,2.8664],[130.5726,-12.7077,0.0],[130.5672,-12.7064,1.7289],[130.5637,-12.7069,1.3899],[130.5603,-12.7097,6.2838],[130.561,-12.7172,6.0627],[130.5586,-12.7186,5.1633],[130.5599,-12.7049,0.0],[130.5573,-12.702,3.4088],[130.5545,-12.7025,0.0],[130.5422,-12.7131,4.5113],[130.5427,-12.7169,4.6537],[130.5408,-12.7138,1.0133],[130.5382,-12.7135,2.3499],[130.5358,-12.719,2.0962],[130.5359,-12.7134,1.4414],[130.5267,-12.7089,0.0],[130.5206,-12.7035,1.6948],[130.5114,-12.7103,5.9352],[130.5115,-12.7166,9.7187],[130.5154,-12.7227,4.2591],[130.5268,-12.7221,2.9716],[130.5311,-12.7249,3.0049],[130.5301,-12.7301,6.1926],[130.5253,-12.7343,4.5943],[130.5295,-12.7409,3.5897],[130.5338,-12.7397,2.756],[130.531,-12.7422,2.5627],[130.5277,-12.7402,3.9875],[130.5243,-12.7341,4.5943],[130.5294,-12.7281,0.0],[130.5294,-12.725,2.4938],[130.5262,-12.724,0.0],[130.5238,-12.7258,5.8433],[130.5175,-12.7256,1.3504],[130.5206,-12.7332,4.4448],[130.5173,-12.742,2.3872],[130.5178,-12.7466,5.8533],[130.5209,-12.7505,5.0865],[130.5192,-12.7501,3.4495],[130.5164,-12.746,3.6078],[130.5154,-12.7405,3.6043],[130.5182,-12.7315,0.0],[130.5061,-12.715,2.3765],[130.5012,-12.718,5.0896],[130.5183,-12.6914,0.0],[130.5184,-12.6809,0.0],[130.5136,-12.6678,0.0],[130.5089,-12.6644,0.0],[130.496,-12.666,0.0],[130.4948,-12.6684,5.3588],[130.4921,-12.6673,0.4127],[130.491,-12.662,1.1105],[130.4717,-12.6505,7.6735],[130.4664,-12.6433,0.5486],[130.4609,-12.6392,0.9137],[130.4551,-12.6396,4.0217],[130.453,-12.6442,3.9067],[130.4504,-12.6425,0.3981],[130.4466,-12.643,5.3542],[130.4447,-12.6455,4.242],[130.44,-12.6342,0.0],[130.4386,-12.6337,0.4285],[130.4341,-12.6359,0.0],[130.4326,-12.6393,0.0],[130.4279,-12.643,5.0868],[130.4215,-12.644,0.6369],[130.4203,-12.6454,1.6661],[130.4243,-12.6531,0.0],[130.4245,-12.657,2.1568],[130.4142,-12.6645,0.0],[130.4128,-12.6635,0.0],[130.4112,-12.6651,3.2976],[130.4096,-12.6635,6.1116],[130.4134,-12.6586,1.846],[130.4128,-12.6556,0.0],[130.3936,-12.6623,2.6588],[130.3929,-12.6647,3.145],[130.3983,-12.6714,3.3074],[130.3965,-12.6801,1.5036],[130.4026,-12.6868,0.6985],[130.4055,-12.6853,3.1857],[130.4049,-12.687,3.2894],[130.4072,-12.693,2.5202],[130.4041,-12.7015,0.0],[130.3928,-12.6907,3.0614],[130.3897,-12.685,6.8028],[130.3789,-12.6777,0.0],[130.3725,-12.682,4.3006],[130.3738,-12.6786,1.985],[130.3647,-12.6777,3.2034],[130.3573,-12.6714,1.0364],[130.3527,-12.6695,1.0593],[130.3477,-12.6885,0.037],[130.3486,-12.6894,0.037],[130.3468,-12.6993,0.0],[130.3485,-12.705,0.0],[130.3463,-12.7152,0.0354],[130.3539,-12.7255,2.3149],[130.3562,-12.7348,0.0],[130.352,-12.7632,2.348],[130.3531,-12.7717,3.7106],[130.356,-12.7754,0.0],[130.3528,-12.7954,0.0],[130.3542,-12.8012,1.6154],[130.358,-12.8041,6.8177],[130.3583,-12.8072,1.9308],[130.3475,-12.8482,2.1052],[130.3332,-12.8811,0.0],[130.3338,-12.8828,0.0],[130.3389,-12.8847,3.4252],[130.3387,-12.8893,5.2074],[130.3322,-12.8951,0.0],[130.3219,-12.8992,3.4234],[130.3208,-12.8983,3.4234],[130.3145,-12.9025,0.7558],[130.3029,-12.9166,2.2529],[130.2953,-12.9201,4.937],[130.2948,-12.9221,0.0],[130.2897,-12.9235,0.0],[130.2795,-12.9325,1.8386],[130.2711,-12.935,0.7587],[130.2608,-12.9419,0.9093],[130.2494,-12.9453,0.0],[130.2498,-12.9467,1.285],[130.2471,-12.9484,3.8909],[130.2451,-12.9483,3.5011],[130.2456,-12.9465,2.7237],[130.2214,-12.9493,0.0],[130.2132,-12.947,0.0],[130.2053,-12.9424,1.9903],[130.1962,-12.9329,4.2592],[130.1917,-12.9254,5.4923],[130.1938,-12.9105,1.3958],[130.19,-12.9136,3.3753],[130.1861,-12.9143,6.4316],[130.1758,-12.9103,3.372],[130.1677,-12.9174,7.6169],[130.1591,-12.9292,1.2957],[130.1514,-12.932,6.0534],[130.1455,-12.9309,3.3464],[130.1411,-12.9335,5.9807],[130.1393,-12.9504,4.4481],[130.1297,-12.9653,4.348],[130.1282,-12.9737,0.0],[130.1283,-12.9791,0.0],[130.1303,-12.9822,2.2286],[130.1346,-12.9851,0.1705],[130.138,-12.9853,1.2159],[130.141,-12.9942,8.2829],[130.1412,-13.0007,6.2104],[130.1302,-13.0287,4.7338],[130.1309,-13.0329,10.2034],[130.1293,-13.0334,2.4946],[130.1284,-13.0496,0.0],[130.1221,-13.068,2.2426],[130.1201,-13.0794,0.0],[130.1203,-13.0898,0.0],[130.1339,-13.1045,6.4019],[130.134,-13.1075,2.4384],[130.1282,-13.12,0.0],[130.1189,-13.1334,3.9549],[130.1174,-13.1447,0.0],[130.1187,-13.1526,6.0427],[130.1162,-13.1641,0.0],[130.1189,-13.1681,0.0],[130.1268,-13.1721,6.0037],[130.1305,-13.1765,0.0],[130.1538,-13.1737,2.2068],[130.1631,-13.1769,1.4439],[130.1649,-13.1812,2.6422],[130.1752,-13.1909,2.1495],[130.1886,-13.2079,8.1705],[130.1994,-13.2177,7.2623],[130.1986,-13.2191,10.4235],[130.2116,-13.2314,9.0135],[130.2252,-13.2492,2.6499],[130.2282,-13.2629,4.6031],[130.2325,-13.2736,4.3017],[130.2397,-13.2825,5.9968],[130.2465,-13.2863,6.6668],[130.2451,-13.2877,4.4168],[130.246,-13.289,5.7092],[130.248,-13.2885,4.6431],[130.2694,-13.2996,0.0],[130.2824,-13.304,4.4334],[130.2958,-13.3107,2.3385],[130.305,-13.3162,0.0],[130.31,-13.322,1.575],[130.3183,-13.3459,2.6691],[130.3227,-13.3543,4.3325],[130.3239,-13.3604,0.0],[130.3229,-13.3696,2.0987],[130.305,-13.398,0.0],[130.2871,-13.4183,0.0],[130.2851,-13.4229,0.0],[130.2852,-13.4264,0.0],[130.2872,-13.4287,0.0],[130.3036,-13.4347,0.0],[130.3102,-13.44,0.0],[130.3178,-13.4503,0.0],[130.3263,-13.4578,5.2533],[130.3392,-13.4646,0.0],[130.357,-13.4567,11.4519],[130.3621,-13.4561,12.9709],[130.3679,-13.4578,5.2605],[130.3711,-13.4609,0.0],[130.3728,-13.4661,0.0],[130.3734,-13.4772,0.0],[130.3713,-13.4918,7.0786],[130.3749,-13.4953,6.766],[130.3792,-13.4949,0.0],[130.3856,-13.4916,2.9293],[130.3934,-13.4912,0.6424],[130.4173,-13.5035,4.0337],[130.4232,-13.5051,3.2792],[130.424,-13.5034,6.8087],[130.4182,-13.4948,7.3211],[130.4144,-13.4849,0.0],[130.4158,-13.4784,1.545],[130.4191,-13.4766,4.5598],[130.4234,-13.4781,0.0],[130.4281,-13.4746,1.5158],[130.4406,-13.4715,4.176],[130.4476,-13.4767,5.6777],[130.4644,-13.4834,11.8601],[130.4725,-13.4925,4.4587],[130.4746,-13.5002,6.1082],[130.472,-13.5034,11.8137],[130.4667,-13.5055,10.2692],[130.4652,-13.5088,10.0177],[130.4728,-13.5149,11.7085],[130.6609,-13.5144,22.1021],[130.6611,-13.6094,8.769],[130.6755,-13.6094,12.984],[130.6754,-13.601,11.6654],[130.6945,-13.601,17.8913],[130.6946,-13.5828,17.9052],[130.758,-13.583,38.0229],[130.8078,-13.5258,69.0281],[130.8321,-13.5268,84.326],[130.8401,-13.5393,111.1484],[130.8446,-13.542,109.6321],[130.8614,-13.5376,87.2468],[130.8709,-13.5378,85.765],[130.8728,-13.5298,98.2879],[130.88,-13.5242,101.1327],[130.8868,-13.5216,95.4437],[130.8915,-13.5115,113.1168],[130.8972,-13.5088,113.7532],[130.9034,-13.5021,126.1752],[130.9059,-13.5013,130.3776],[130.9153,-13.5034,124.7295],[130.9079,-13.4723,152.3693],[130.9209,-13.4249,147.1791],[130.933,-13.4113,160.2614],[130.9499,-13.4119,133.0208],[130.9539,-13.4193,122.0108],[130.9804,-13.4363,106.6994],[130.9895,-13.4346,127.8739],[130.9937,-13.4429,136.398],[131.0135,-13.4423,123.5876],[131.0135,-13.4889,153.5793],[131.1861,-13.4889,157.5617],[131.1856,-13.8268,39.2413],[131.1818,-13.8299,37.6765],[131.171,-13.8335,35.2835],[131.1662,-13.8372,36.409],[131.1608,-13.8361,34.7088],[131.1495,-13.8405,29.6913],[131.145,-13.8365,30.9608],[131.1417,-13.8369,23.791],[131.1472,-13.845,32.2012],[131.1568,-13.8546,23.6408],[131.1583,-13.8701,26.5428],[131.1618,-13.8766,27.9134],[131.1673,-13.8772,25.0876],[131.1865,-13.8621,30.0858],[131.1975,-13.8697,36.3746],[131.2135,-13.8688,32.6575],[131.218,-13.872,32.2551],[131.2211,-13.8911,30.6367],[131.2198,-13.8966,31.201],[131.2071,-13.9056,27.7061],[131.2001,-13.9227,26.9092],[131.1848,-13.9285,32.4343],[131.1813,-13.9343,37.4086],[131.1842,-13.9402,33.5422],[131.1947,-13.9456,36.0939],[131.1932,-13.9608,30.7387],[131.1954,-13.9673,27.2261],[131.1993,-13.9688,29.8085],[131.2084,-13.9671,31.7192],[131.2128,-13.9687,33.7867],[131.2142,-13.9723,30.206],[131.2139,-13.9816,32.7638],[131.2249,-13.9842,33.868899999999996],[131.2266,-13.9872,32.488],[131.2268,-13.9973,29.6581],[131.2402,-14.0047,31.8131],[131.2423,-14.0084,30.7668],[131.2417,-14.0142,44.842],[131.2372,-14.0189,32.6014],[131.2215,-14.0216,37.3144],[131.2174,-14.0242,38.0562],[131.2158,-14.0362,32.9911],[131.2093,-14.0462,37.2169],[131.209,-14.0491,47.9854],[131.212,-14.0522,32.741],[131.2185,-14.0542,37.5296],[131.2234,-14.0579,41.4091],[131.2276,-14.0696,38.2101],[131.2303,-14.0727,37.7497],[131.2365,-14.0731,39.2868],[131.2432,-14.0707,34.6396],[131.253,-14.0718,32.6725],[131.2538,-14.0763,28.7014],[131.2463,-14.0881,40.5648],[131.2471,-14.0954,33.0759],[131.2521,-14.0989,34.2496],[131.2597,-14.097,35.9895],[131.2645,-14.0976,43.519],[131.2695,-14.1003,40.4224],[131.2742,-14.1057,34.8846],[131.2824,-14.1079,34.685],[131.2858,-14.1148,48.4112],[131.2856,-14.1237,46.1368],[131.2891,-14.1289,34.1768],[131.2926,-14.129,33.2258],[131.2967,-14.121,38.3879],[131.3002,-14.1202,36.4039],[131.3033,-14.1216,50.2156],[131.3042,-14.1256,50.9002],[131.3017,-14.1416,38.8282],[131.3112,-14.1728,39.1275],[131.3148,-14.1738,38.5995],[131.3258,-14.1615,36.0905],[131.3433,-14.1532,45.4792],[131.3604,-14.1532,42.9164],[131.3635,-14.1552,39.0776],[131.3643,-14.1576,39.9393],[131.3593,-14.1678,47.5008],[131.3674,-14.1826,53.6909],[131.3749,-14.1865,52.536],[131.3996,-14.1856,45.8664],[131.4069,-14.1924,43.7942],[131.4134,-14.1917,42.3499],[131.4205,-14.2011,44.5983],[131.4235,-14.2071,44.7183],[131.4222,-14.2179,44.0892],[131.423,-14.2314,47.8857],[131.4223,-14.2343,40.7016],[131.4167,-14.2407,61.1282],[131.4172,-14.2429,42.1894],[131.4797,-14.2428,73.1528],[131.4797,-13.976,107.501],[131.5975,-13.976,111.4559],[131.5966,-13.947,133.3867],[131.5625,-13.947,131.2646],[131.5626,-13.7687,108.4265],[131.5851,-13.7718,121.2905],[131.5866,-13.7701,145.5292],[131.5712,-13.7503,117.38],[131.5758,-13.747,189.5966],[131.5754,-13.739,167.9219],[131.563,-13.7398,101.5817],[131.5631,-13.5504,146.3591],[131.7123,-13.5495,88.6476],[131.7073,-13.5433,92.8998],[131.702,-13.5434,99.5738],[131.702,-13.5399,102.6826],[131.6989,-13.5394,110.7873],[131.6989,-13.5375,98.9165],[131.6956,-13.5375,101.2658],[131.6963,-13.5333,96.3345],[131.6843,-13.5233,102.3242],[131.652,-13.5055,126.9057],[131.5916,-13.4859,104.8983],[131.4895,-13.4724,107.8168],[131.4895,-13.4376,106.3497],[131.4564,-13.4376,133.0443],[131.4561,-13.4103,123.0301],[131.3524,-13.4103,70.1315],[131.3524,-13.2479,71.0106],[131.8545,-13.248,94.9449],[131.8545,-13.1757,51.5278],[132.0735,-13.1757,77.7007],[132.0735,-12.9212,48.9507],[131.9718,-12.9211,41.7612],[131.9717,-12.7629,25.5698],[131.927,-12.7629,41.6047],[131.927,-12.6146,27.775],[131.8881,-12.6146,36.2199],[131.8881,-12.5237,44.7582],[132.0202,-12.4764,16.0631],[132.1115,-12.3611,2.2644],[132.1125,-12.3373,9.2386],[132.1084,-12.3314,2.0188],[132.1057,-12.3314,3.3089],[132.0983,-12.3369,2.2748],[132.0967,-12.3404,10.311],[132.1027,-12.3468,2.5861],[132.1032,-12.3497,2.6665],[132.0958,-12.354,1.2288],[132.0898,-12.3541,4.4434],[132.086,-12.3508,9.9607],[132.0851,-12.344,2.25],[132.0805,-12.3407,3.8577],[132.0806,-12.33,0.3554],[132.0847,-12.3265,2.3786],[132.0908,-12.3245,1.836],[132.0827,-12.3068,1.7356],[132.0792,-12.3068,4.5952],[132.0731,-12.3115,1.265],[132.0692,-12.3111,0.0],[132.0648,-12.3032,0.0],[132.05,-12.2995,0.0],[132.0365,-12.2998,0.0],[132.0212,-12.2967,2.423],[131.9966,-12.2865,3.3247],[131.9677,-12.2824,0.0],[131.9394,-12.2729,0.0],[131.924,-12.2625,0.6783],[131.9175,-12.2559,1.4016],[131.9158,-12.2445,0.0],[131.9132,-12.2423,0.0],[131.9109,-12.2425,0.0],[131.9036,-12.2328,1.0907],[131.9048,-12.2251,0.0],[131.8984,-12.222,1.9136],[131.8918,-12.2153,3.6923],[131.8793,-12.2146,0.0],[131.8712,-12.2164,0.0],[131.8647,-12.2223,0.0],[131.8305,-12.2451,3.2538],[131.8154,-12.2519,2.8769],[131.7977,-12.2569,5.4302],[131.7965,-12.2587,5.3977],[131.7875,-12.2594,1.077],[131.7772,-12.2649,0.0],[131.7753,-12.2682,0.0],[131.7728,-12.2677,0.0],[131.7545,-12.2739,2.5976],[131.7101,-12.2775,1.883],[131.7011,-12.2814,1.5682],[131.6992,-12.2796,0.0],[131.6904,-12.2808,0.0],[131.6834,-12.2828,0.0],[131.6828,-12.2847,2.6525],[131.6802,-12.2824,0.0],[131.6783,-12.2842,1.4307],[131.6607,-12.2855,0.9307],[131.6402,-12.2837,0.0],[131.6016,-12.2834,0.0],[131.5881,-12.2811,0.0],[131.5745,-12.281,0.0],[131.5637,-12.2785,0.0],[131.5545,-12.2806,0.2428],[131.5481,-12.2782,0.0],[131.5287,-12.2817,0.7507],[131.5045,-12.2837,0.0],[131.4723,-12.2837,2.4542],[131.4452,-12.2803,1.7092],[131.4268,-12.2754,1.2437],[131.3962,-12.264099999999999,1.4512],[131.3939,-12.2612,0.0],[131.3822,-12.2542,0.0],[131.3809,-12.2565,2.0707],[131.3811,-12.2534,0.5969],[131.3668,-12.245,1.6203],[131.3431,-12.2223,0.0],[131.3228,-12.1934,0.0],[131.3177,-12.181,4.8422],[131.3141,-12.1657,0.6638],[131.32,-12.1576,13.4282],[131.3228,-12.1472,0.0],[131.316,-12.1417,0.0],[131.3141,-12.1382,0.0],[131.315,-12.1335,0.0],[131.3129,-12.1324,5.2129],[131.3218,-12.1226,2.7965],[131.3214,-12.1202,2.3782],[131.3139,-12.1127,0.0],[131.3158,-12.0987,4.3105],[131.3209,-12.0899,1.6416],[131.3174,-12.0892,1.9424],[131.3133,-12.085,6.9988],[131.3103,-12.0775,0.0],[131.3072,-12.078,4.7246],[131.2995,-12.0702,0.8556],[131.3008,-12.068,0.5944],[131.2984,-12.0589,1.6281],[131.3034,-12.053,6.3891],[131.3008,-12.0468,2.7548],[131.3018,-12.043,0.0],[131.2971,-12.0426,0.0],[131.289,-12.0464,3.6636],[131.2883,-12.0493,7.2937],[131.2782,-12.0627,0.0],[131.27,-12.0706,7.5718],[131.2664,-12.0769,0.0],[131.2706,-12.0983,2.3064],[131.2736,-12.1001,3.5099],[131.271,-12.102,3.0884],[131.2707,-12.1074,4.1982],[131.2688,-12.108,4.2861],[131.2639,-12.1147,3.3071],[131.2617,-12.1222,13.6349],[131.2508,-12.1359,0.3701],[131.2504,-12.1462,3.7751],[131.2558,-12.1532,2.602],[131.2539,-12.1628,4.1336],[131.247,-12.1746,2.3796],[131.2462,-12.179,4.9452],[131.2327,-12.1951,2.3953],[131.2289,-12.2087,0.8619],[131.2311,-12.2144,0.7494],[131.2436,-12.2146,0.0],[131.2497,-12.2172,1.5027],[131.2509,-12.22,3.9812],[131.2482,-12.2223,0.0],[131.2563,-12.232,0.0],[131.269,-12.2373,0.0],[131.2738,-12.2424,0.0],[131.2763,-12.2479,0.0],[131.2819,-12.2837,0.0],[131.2852,-12.2895,0.0],[131.2932,-12.296,0.0],[131.2942,-12.2996,0.0],[131.2897,-12.3095,0.0],[131.2762,-12.3228,0.9959],[131.2719,-12.3297,0.0],[131.2716,-12.3342,0.0],[131.2806,-12.3414,0.0],[131.2815,-12.3545,0.0],[131.2901,-12.3637,0.0],[131.2943,-12.3722,0.0],[131.3039,-12.3774,2.1439],[131.3095,-12.3831,0.0],[131.3118,-12.3845,4.6361],[131.3145,-12.3836,2.6932],[131.3206,-12.3786,0.0],[131.3241,-12.3791,1.021],[131.3276,-12.385,0.0],[131.3277,-12.3883,0.0],[131.3241,-12.3936,0.0],[131.3187,-12.395,0.0],[131.3099,-12.394,0.0],[131.3079,-12.3954,6.2046],[131.308,-12.4022,5.2501],[131.3147,-12.4054,1.7969],[131.3164,-12.4111,3.4165],[131.3128,-12.4148,0.9529],[131.3063,-12.4137,0.0],[131.3025,-12.4155,0.0],[131.3007,-12.4192,0.0],[131.3013,-12.4243,0.2995],[131.3026,-12.4255,0.0],[131.3113,-12.4241,2.09],[131.3167,-12.4257,2.0038],[131.3189,-12.4296,0.0],[131.3193,-12.4383,0.0],[131.3208,-12.4401,0.0],[131.3231,-12.4408,0.0],[131.3292,-12.4334,0.0],[131.332,-12.4325,3.1272],[131.3407,-12.4374,1.7689],[131.3418,-12.4424,1.5741],[131.3399,-12.4457,0.0],[131.3313,-12.4434,0.0],[131.3273,-12.4443,0.0],[131.3234,-12.4478,1.8016],[131.3233,-12.4534,6.07],[131.3273,-12.4566,0.0],[131.3308,-12.4564,2.7695],[131.3333,-12.4551,2.7832],[131.3362,-12.4499,0.0],[131.3416,-12.4491,1.9131],[131.3432,-12.4511,2.0835],[131.3427,-12.4531,8.2811],[131.3378,-12.4571,0.5315],[131.3373,-12.4595,0.0],[131.3385,-12.4637,0.4971],[131.3413,-12.4642,1.7164],[131.3468,-12.4615,2.5256],[131.3537,-12.4631,0.3389],[131.3541,-12.4679,0.0],[131.3461,-12.4718,1.8327],[131.3437,-12.4758,6.5995],[131.344,-12.4789,7.1386],[131.3472,-12.4825,8.2798],[131.351,-12.4812,5.9574],[131.3547,-12.4762,2.1192],[131.3582,-12.4747,8.4549],[131.3639,-12.4743,1.0684],[131.3688,-12.4763,0.0],[131.3695,-12.4798,5.7393],[131.3622,-12.4846,2.9307],[131.3627,-12.4906,2.4653],[131.3661,-12.492,3.4701],[131.3732,-12.4892,1.406],[131.38,-12.493,1.3713],[131.3806,-12.4996,1.2999],[131.3761,-12.5046,6.941],[131.3767,-12.509,7.6473],[131.3801,-12.5122,6.028],[131.3854,-12.5111,3.5558],[131.3918,-12.5066,0.0],[131.3949,-12.5078,3.9658],[131.3948,-12.5118,1.8563],[131.3892,-12.521,0.0],[131.3956,-12.5284,2.0605],[131.3964,-12.5357,6.2299],[131.3927,-12.5446,9.3154],[131.3845,-12.5451,7.467],[131.3747,-12.5508,1.6175],[131.3751,-12.5534,1.0886],[131.3806,-12.5557,1.3975],[131.3856,-12.5605,0.5363],[131.3847,-12.5636,0.6262],[131.3806,-12.5668,2.5984],[131.3801,-12.5715,3.4461],[131.3865,-12.5726,2.1806],[131.3882,-12.5747,2.8358],[131.3796,-12.5845,1.0493],[131.38,-12.5868,4.134],[131.3862,-12.5901,2.3068],[131.3869,-12.5928,1.3505],[131.3802,-12.5942,0.955],[131.3749,-12.5993,5.0171],[131.375,-12.6042,1.0735],[131.3786,-12.6088,0.9557],[131.3776,-12.6124,3.1291],[131.3703,-12.6214,3.7976],[131.3598,-12.6284,10.7768],[131.356,-12.6347,0.0],[131.3578,-12.6403,1.236],[131.3638,-12.6409,1.6878],[131.3685,-12.6436,1.4343],[131.368,-12.6479,0.551],[131.3577,-12.6482,0.7122],[131.3511,-12.6431,0.7629],[131.3481,-12.644,0.7457],[131.339,-12.6535,0.5804],[131.333,-12.6752,4.6327],[131.316,-12.6848,5.4278],[131.3068,-12.6855,0.8609],[131.3049,-12.6896,3.9525],[131.2975,-12.6901,1.4602],[131.2934,-12.6965,4.087],[131.2886,-12.695,1.1191],[131.2806,-12.6974,1.2325],[131.278,-12.7031,0.6287],[131.2734,-12.7058,0.4402],[131.2758,-12.7137,1.2106],[131.2705,-12.7238,1.5998],[131.2779,-12.733,1.1717],[131.2839,-12.7352,1.3251],[131.2817,-12.7414,2.6238],[131.283,-12.7535,3.2768],[131.2757,-12.7577,2.0955],[131.2753,-12.7649,2.8722],[131.2724,-12.7687,1.5855],[131.2671,-12.7684,2.8527],[131.2624,-12.7656,2.8678],[131.2595,-12.7678,3.5841],[131.2563,-12.767,2.3482],[131.2548,-12.7683,9.3526],[131.255,-12.7706,6.9181],[131.2607,-12.7735,4.8779],[131.2602,-12.7795,6.3817],[131.2561,-12.7792,3.4533],[131.2527,-12.7824,2.9419],[131.2449,-12.779,4.8268],[131.2417,-12.7795,4.1867],[131.2363,-12.7853,5.5594],[131.2358,-12.7886,6.6823],[131.2299,-12.7896,4.7828],[131.2213,-12.8029,2.1916],[131.214,-12.8031,4.227],[131.217,-12.807,3.7415],[131.2195,-12.8193,6.7608],[131.2112,-12.8205,5.0467],[131.209,-12.8221,5.2102],[131.209,-12.8255,5.9761],[131.2114,-12.8291,6.7924],[131.2076,-12.8378,5.7287],[131.2087,-12.8492,6.0107],[131.2038,-12.8605,3.8078],[131.2039,-12.8626,4.62],[131.2064,-12.8618,0.6206],[131.207,-12.8644,6.7341],[131.2051,-12.8763,7.5856],[131.2018,-12.8812,5.1191],[131.2068,-12.887,6.0266],[131.2082,-12.8916,6.7134],[131.222,-12.9044,9.7394],[131.2262,-12.9062,6.9195],[131.226,-12.9027,8.8036],[131.2283,-12.9022,10.6138],[131.2399,-12.9134,8.1034],[131.2493,-12.9127,10.1559],[131.2629,-12.9183,13.0692],[131.2652,-12.9179,9.9087],[131.2631,-12.9253,12.383],[131.2658,-12.9258,11.9266],[131.269,-12.9294,9.6234],[131.2677,-12.9328,12.0125],[131.2689,-12.9361,10.5308],[131.2761,-12.9391,13.4092],[131.2749,-12.9405,15.1281],[131.2713,-12.9401,16.1149],[131.27,-12.9521,11.8582],[131.2737,-12.961,16.2612],[131.2785,-12.964,17.5978],[131.2793,-12.972,12.2407],[131.2738,-12.9777,16.4522],[131.2622,-12.981,14.995],[131.2626,-12.9841,15.6051],[131.258,-12.9889,16.6469],[131.2583,-12.9948,15.6987],[131.2551,-12.9973,18.9025],[131.2572,-12.9999,18.8238],[131.2535,-13.0019,20.0788],[131.254,-13.0106,18.7968],[131.249,-13.0169,19.2818],[131.2547,-13.0243,20.3608],[131.2527,-13.026,21.2482],[131.2524,-13.032,19.9173],[131.2467,-13.0371,20.4541],[131.2485,-13.0486,22.6557],[131.2468,-13.0562,24.0961],[131.2484,-13.0586,24.0703],[131.248,-13.0613,22.0424],[131.2506,-13.0641,25.0421],[131.25,-13.0683,24.0593],[131.2527,-13.0696,24.6426],[131.2484,-13.0735,26.8529],[131.2511,-13.0792,26.1414],[131.2372,-13.0866,27.1955],[131.2338,-13.0908,28.6374],[131.2344,-13.0926,27.759],[131.2306,-13.0939,27.6795],[131.2353,-13.0956,29.5293],[131.2324,-13.1038,29.3526],[131.2342,-13.1057,33.1503],[131.2325,-13.1102,29.4623],[131.2373,-13.116,30.8882],[131.2363,-13.1178,30.5303],[131.2388,-13.1173,33.3758],[131.2388,-13.1203,33.9502],[131.235,-13.1205,31.9972],[131.2353,-13.1247,33.8527],[131.2296,-13.1286,32.3342],[131.2263,-13.1288,33.0267],[131.2254,-13.1319,34.7685],[131.2232,-13.1316,31.1444],[131.2243,-13.1361,33.4968],[131.2214,-13.1371,35.3148],[131.2187,-13.1465,35.4903],[131.2112,-13.1515,36.8576],[131.2106,-13.1604,35.454],[131.2057,-13.1623,34.8373],[131.2046,-13.1682,35.1671],[131.1963,-13.168,37.225],[131.1916,-13.1735,36.5837],[131.1935,-13.1807,37.3717],[131.1894,-13.1885,37.7986],[131.185,-13.1924,36.76],[131.1844,-13.1964,39.4965],[131.1845,-13.2281,40.2388],[131.1455,-13.2281,44.3031],[131.1175,-13.2528,54.7911],[131.0981,-13.2528,62.8684],[131.0981,-13.2375,54.6978],[131.0959,-13.2387,49.7781],[131.0959,-13.2343,55.2295],[131.0976,-13.2334,55.2295],[131.0907,-13.2308,57.4761],[131.0855,-13.2337,52.3968],[131.0818,-13.2296,55.294],[131.0798,-13.2343,57.0439],[131.0755,-13.2342,57.1359],[131.0755,-13.2281,59.5708],[131.0663,-13.2049,69.9465],[131.0598,-13.1981,67.1704],[131.0608,-13.1901,83.3495],[131.0435,-13.1901,71.1131],[131.0435,-13.1996,85.0821],[131.0303,-13.1997,85.1113],[131.0304,-13.2086,93.7725],[130.9803,-13.2084,120.1502],[130.98,-13.22,126.8567],[130.9723,-13.2162,122.2805],[130.9602,-13.2209,124.5013],[130.9596,-13.2253,117.1225],[130.9555,-13.2324,119.8301],[130.9552,-13.2431,112.0687],[130.9527,-13.2454,125.6746],[130.951,-13.2581,129.2435],[130.9528,-13.2668,133.0285],[130.947,-13.27,138.8677],[130.9418,-13.2688,138.7675],[130.9404,-13.2705,149.3827],[130.9346,-13.2704,140.9474],[130.9327,-13.2635,131.5424],[130.9338,-13.2541,132.534],[130.9289,-13.2426,142.6484],[130.9292,-13.2323,129.3362],[130.9207,-13.2323,112.6523],[130.9205,-13.2085,109.762],[130.9033,-13.2085,101.3802],[130.903,-13.1985,93.568],[130.8994,-13.1952,102.4304],[130.8914,-13.1811,107.7972],[130.8927,-13.1797,102.0969],[130.8891,-13.1693,116.5014],[130.8891,-13.1517,106.8856],[130.8992,-13.1377,100.443],[130.9002,-13.1314,110.3011],[130.908,-13.1221,92.6519],[130.9129,-13.1112,89.8459],[130.9179,-13.1061,82.7976],[130.9203,-13.0962,94.1812],[130.9242,-13.0947,93.7833],[130.9303,-13.0831,73.5878],[130.9203,-13.0712,79.5599],[130.9255,-13.0415,72.1924],[130.9203,-13.0294,56.6412],[130.9113,-13.0162,49.1927],[130.9001,-13.0167,51.9119],[130.8952,-13.0245,52.9424],[130.8891,-13.028,62.2909],[130.8892,-12.8659,31.5118]],
[[130.7668,-12.4431,1.2815],[130.7663,-12.4473,5.0092],[130.7646,-12.4457,8.3433],[130.7611,-12.4481,5.2329],[130.7564,-12.4481,15.8076],[130.7564,-12.4454,15.2823],[130.751,-12.4454,20.107],[130.751,-12.4369,17.8381],[130.7481,-12.437,18.57],[130.7481,-12.4406,19.3023],[130.7321,-12.4406,20.9712],[130.7321,-12.4363,10.1395],[130.7358,-12.4333,11.3675],[130.7358,-12.43,8.5213],[130.7414,-12.4277,2.8675],[130.7479,-12.428,9.1824],[130.7568,-12.4344,2.7182],[130.7545,-12.4369,8.5879],[130.764,-12.4379,1.7794],[130.7652,-12.4424,6.9843],[130.7668,-12.4431,1.2815]],
[[130.6536,-12.5551,36.18],[130.6536,-12.5091,10.6353],[130.7128,-12.5091,17.5675],[130.7128,-12.5673,23.2812],[130.6536,-12.5672,32.3445],[130.6536,-12.5551,36.18]],
[[130.7588,-12.4556,13.4232],[130.7571,-12.4571,11.6586],[130.742,-12.4563,25.0423],[130.742,-12.4502,25.6259],[130.7609,-12.4512,3.8854],[130.7627,-12.4559,3.5074],[130.7588,-12.4556,13.4232]]],
[[[136.766,-12.1919,17.6619],[136.7633,-12.1926,16.8563],[136.7649,-12.1984,12.1327],[136.7676,-12.1977,12.5842],[136.766,-12.1919,17.6619]]],
[[[136.7646,-12.1854,12.6512],[136.7646,-12.1827,12.3546],[136.7618,-12.1827,11.2518],[136.7618,-12.1855,10.0756],[136.7646,-12.1854,12.6512]]],
[[[130.8443,-12.4687,14.3147],[130.8412,-12.4731,0.0],[130.8443,-12.4737,0.0],[130.8519,-12.4705,0.0],[130.8507,-12.4634,3.8941],[130.848,-12.4629,9.0741],[130.8478,-12.4657,17.6677],[130.8443,-12.4687,14.3147]]],
[[[130.8644,-12.4324,6.0526],[130.8638,-12.439,4.9281],[130.867,-12.4406,5.2121],[130.867,-12.4426,5.88],[130.8639,-12.4456,4.4489],[130.8583,-12.4454,3.191],[130.8564,-12.451,2.5686],[130.8688,-12.4567,5.0754],[130.8787,-12.4636,5.55],[130.8844,-12.4637,1.043],[130.8859,-12.4614,1.9432],[130.8824,-12.4511,3.0396],[130.8783,-12.4505,5.1597],[130.8838,-12.4476,6.385],[130.886,-12.443,4.2697],[130.8866,-12.4441,4.2697],[130.8864,-12.4323,16.2083],[130.8644,-12.4324,6.0526]]],
[[[131.0496,-12.0959,0.0],[131.0467,-12.0941,0.0],[131.0387,-12.0943,0.0],[131.0449,-12.0993,0.0],[131.0522,-12.1015,0.0],[131.0546,-12.109,0.0],[131.0495,-12.1013,0.0],[131.0321,-12.0953,0.0],[131.0235,-12.0992,0.0],[131.0153,-12.1095,0.0],[131.0021,-12.1179,0.0],[131.0108,-12.1233,0.0],[131.0319,-12.1301,0.0],[131.0435,-12.1296,0.0],[131.0537,-12.1231,0.0],[131.0588,-12.1266,0.0],[131.0651,-12.1255,0.0],[131.0629,-12.1242,0.0],[131.0715,-12.1182,0.0],[131.0713,-12.1145,0.0],[131.0648,-12.1049,0.0],[131.0496,-12.0959,0.0]]],
[[[131.0641,-12.0341,1.4027],[131.0512,-12.0305,2.4983],[131.0472,-12.0328,0.0],[131.0394,-12.032,2.0185],[131.0233,-12.0362,0.0],[131.0181,-12.0399,5.8175],[131.0126,-12.0412,0.0],[131.0019,-12.0524,3.4398],[131.0061,-12.0548,0.0],[131.0307,-12.0583,0.0],[131.0433,-12.0555,3.6193],[131.0629,-12.0468,0.0],[131.062,-12.0424,4.3417],[131.0588,-12.0431,5.5583],[131.06,-12.0419,5.8914],[131.0643,-12.0403,5.2296],[131.0648,-12.0376,6.0121],[131.0628,-12.0355,9.5318],[131.0641,-12.0341,1.4027]]],
[[[136.7722,-12.1941,21.1202],[136.7747,-12.1958,20.0313],[136.7962,-12.1882,1.3554],[136.7962,-12.1866,0.0],[136.7915,-12.1868,7.5366],[136.7898,-12.1849,3.0119],[136.7876,-12.1747,0.0],[136.7857,-12.1766,4.3556],[136.7838,-12.1681,6.5459],[136.7806,-12.164,6.7339],[136.7787,-12.1642,8.2303],[136.7788,-12.1614,5.7944],[136.7685,-12.1644,0.0],[136.7685,-12.1914,19.8598],[136.7722,-12.1941,21.1202]]],
[[[131.3439,-12.1076,4.7756],[131.3454,-12.111,10.1916],[131.348,-12.1125,5.3258],[131.3537,-12.1121,1.5778],[131.3573,-12.1091,0.0],[131.3556,-12.1017,1.271],[131.3511,-12.0961,0.0],[131.3443,-12.1047,2.4369],[131.3439,-12.1076,4.7756]]],
[[[131.1227,-12.0554,1.449],[131.0983,-12.0527,0.0],[131.0943,-12.0535,3.2612],[131.0829,-12.0598,3.5248],[131.0761,-12.0609,0.0],[131.065,-12.066,0.5554],[131.0618,-12.0694,4.0013],[131.0708,-12.073,0.0],[131.0823,-12.0735,1.5564],[131.0863,-12.0759,3.2204],[131.0999,-12.076,4.6146],[131.1164,-12.0733,0.2785],[131.1228,-12.0702,0.0],[131.1267,-12.064,0.4659],[131.1259,-12.057,4.1167],[131.1227,-12.0554,1.449]]],
[[[131.1244,-12.0174,0.1258],[131.1331,-12.0171,0.0],[131.1355,-12.0147,0.0],[131.1321,-12.0058,0.0],[131.1271,-12.001,0.0],[131.0839,-12.0145,0.0],[131.0729,-12.015,0.0],[131.1045,-12.0236,0.0],[131.117,-12.0231,0.0],[131.1235,-12.0195,0.0],[131.1222,-12.0179,0.5265],[131.1244,-12.0174,0.1258]]]]}
,"properties": {"GID_2": "AUS.6.14_1","GID_0": "AUS","country": "Australia","GID_1": "AUS.6_1","state": "NorthernTerritory","NL_NAME_1": "NA","county": "UnincorporatedNortherTerritori","VARNAME_2": "NA","NL_NAME_2": "NA","TYPE_2": "UnincorporatedArea","ENGTYPE_2": "UnincorporatedArea","CC_2": "79399","HASC_2": "NA","name": "UnincorporatedNortherTerritori.county","area_km2": 20412.42,"hist_schema_id": "Elevation0-9000","hist_area_km2": {"0": 5594.82,"25": 5866.08,"50": 3651.31,"75": 1839.96,"100": 1288.47,"125": 901.72,"150": 471.45,"175": 253.82,"200": 195.82,"225": 149.42,"250": 70.65,"275": 26.84,"475": 9.17,"500": 85.38,"525": 7.5}}}