{"type": "Feature","bbox": [117.0832,-33.518,117.6879,-33.032],"geometry": {"type": "MultiPolygon","coordinates": [[[[117.6873,-33.0434,377.3509],[117.6081,-33.0436,325.8056],[117.5573,-33.032,309.4588],[117.5574,-33.0429,315.7295],[117.5639,-33.0428,312.0081],[117.5639,-33.063,343.0555],[117.5321,-33.0641,332.2794],[117.5321,-33.0721,358.4014],[117.5097,-33.0721,325.4811],[117.5097,-33.0822,333.3146],[117.5126,-33.0822,345.5807],[117.5126,-33.0931,363.7762],[117.5054,-33.0931,359.7694],[117.5054,-33.1022,360.3534],[117.5004,-33.1022,349.7571],[117.5003,-33.0975,361.3289],[117.4917,-33.0975,375.3085],[117.4917,-33.1051,337.0937],[117.461,-33.1045,322.5819],[117.461,-33.1085,322.4531],[117.4548,-33.1085,311.32],[117.4548,-33.1027,316.3257],[117.4384,-33.1028,362.318],[117.4384,-33.1127,335.3067],[117.4298,-33.1127,334.5638],[117.431,-33.1232,310.1196],[117.417,-33.1233,324.0189],[117.4169,-33.1078,341.4804],[117.4029,-33.1078,347.8092],[117.4029,-33.1124,357.9447],[117.3943,-33.1124,339.4301],[117.3943,-33.1081,335.3108],[117.3835,-33.1081,324.2943],[117.3835,-33.1053,327.3529],[117.3694,-33.1053,308.7206],[117.3694,-33.1032,306.2942],[117.3628,-33.1033,312.9201],[117.3628,-33.1214,328.8726],[117.3575,-33.1214,329.7434],[117.3575,-33.1244,329.8379],[117.3154,-33.126,300.996],[117.3154,-33.124,300.7103],[117.2814,-33.124,278.4845],[117.2814,-33.1305,287.4441],[117.2784,-33.1305,285.7029],[117.2784,-33.1418,292.9827],[117.2695,-33.1418,279.697],[117.2695,-33.1307,277.4507],[117.2638,-33.131,276.8042],[117.2638,-33.1413,275.7298],[117.2551,-33.1413,275.5822],[117.2522,-33.1444,275.4868],[117.2353,-33.1459,303.7164],[117.2353,-33.1518,289.5742],[117.218,-33.1515,284.631],[117.218,-33.1479,294.2625],[117.1942,-33.1479,284.6067],[117.1934,-33.1541,279.6479],[117.1899,-33.1541,280.5451],[117.1899,-33.1601,279.2155],[117.1868,-33.1601,282.8788],[117.184,-33.1571,283.9197],[117.184,-33.1541,283.3013],[117.1821,-33.1541,284.4235],[117.1821,-33.1504,284.1905],[117.1765,-33.1508,293.4716],[117.1765,-33.1563,299.1678],[117.1532,-33.1563,299.7092],[117.1526,-33.1685,288.4061],[117.1463,-33.1685,293.6844],[117.1428,-33.1642,292.9533],[117.1276,-33.1642,313.4682],[117.1273,-33.1712,310.3862],[117.1079,-33.1711,280.9037],[117.1083,-33.1789,287.3969],[117.0991,-33.1788,273.2769],[117.0991,-33.176,274.1841],[117.0924,-33.176,270.681],[117.0924,-33.1802,268.7617],[117.0834,-33.1802,272.463],[117.0832,-33.1957,300.9636],[117.0852,-33.1957,290.793],[117.0852,-33.2029,280.981],[117.0884,-33.2029,278.9276],[117.087,-33.2245,262.3451],[117.0923,-33.2309,262.9734],[117.091,-33.2327,262.6474],[117.0924,-33.2352,263.0867],[117.0895,-33.2365,261.9792],[117.0899,-33.2404,262.0045],[117.0861,-33.2415,261.5292],[117.0875,-33.2446,262.4135],[117.0905,-33.2462,262.2162],[117.0861,-33.2498,263.0374],[117.09,-33.2531,263.0093],[117.0952,-33.2525,265.0455],[117.0957,-33.2542,264.5452],[117.0959,-33.2833,294.1134],[117.0846,-33.2833,286.0063],[117.0853,-33.3263,334.3975],[117.0872,-33.3263,328.5939],[117.0875,-33.3735,280.7531],[117.0861,-33.3736,280.3337],[117.0861,-33.3861,290.1165],[117.0971,-33.386,305.9977],[117.0971,-33.4044,322.4339],[117.088,-33.4044,337.0714],[117.0882,-33.414,335.3183],[117.0834,-33.4164,334.0173],[117.0927,-33.4173,337.9031],[117.0928,-33.4265,331.1023],[117.0841,-33.4266,307.864],[117.0843,-33.4313,290.5985],[117.0894,-33.4313,309.4781],[117.0894,-33.4347,306.7131],[117.0963,-33.4347,335.4572],[117.0953,-33.4475,307.1717],[117.1061,-33.4475,329.0736],[117.1061,-33.4606,264.5667],[117.0913,-33.4605,289.9612],[117.0913,-33.4693,273.9423],[117.0967,-33.4693,261.6213],[117.0967,-33.4822,255.7469],[117.1054,-33.4822,255.6164],[117.1054,-33.4938,251.6973],[117.0913,-33.4938,248.9254],[117.0913,-33.5106,239.564],[117.1134,-33.5106,238.3607],[117.1134,-33.5152,244.796],[117.1215,-33.518,244.0925],[117.1336,-33.5151,240.1087],[117.1358,-33.5164,240.7338],[117.153,-33.5168,241.2702],[117.1599,-33.515,241.3472],[117.1638,-33.5116,242.0236],[117.1697,-33.5094,243.6499],[117.255,-33.507,244.8014],[117.2552,-33.4825,243.0487],[117.2667,-33.4826,244.0111],[117.2667,-33.4808,244.0188],[117.2711,-33.4808,243.3607],[117.2711,-33.4736,244.4569],[117.2924,-33.4736,245.6104],[117.2924,-33.4659,247.2545],[117.2863,-33.4659,248.5773],[117.2863,-33.4641,246.1736],[117.2904,-33.4643,245.4995],[117.2921,-33.4621,244.5426],[117.3018,-33.46,250.7682],[117.3063,-33.4547,246.5607],[117.3182,-33.4535,248.7866],[117.3184,-33.44,247.5141],[117.3299,-33.4398,253.0527],[117.3299,-33.4346,251.2786],[117.3561,-33.4347,251.7201],[117.3561,-33.4399,251.4649],[117.3867,-33.4398,258.4971],[117.386,-33.435,255.9482],[117.4033,-33.435,259.7446],[117.4033,-33.4217,249.9084],[117.4154,-33.4217,271.7972],[117.4154,-33.4335,272.4337],[117.428,-33.4335,290.5279],[117.428,-33.4252,308.9209],[117.4208,-33.4252,295.7112],[117.4208,-33.4179,280.8196],[117.4428,-33.4179,259.2366],[117.4428,-33.4113,256.4902],[117.4472,-33.4113,256.3013],[117.4472,-33.4065,255.2313],[117.4701,-33.4065,287.9457],[117.4701,-33.4029,280.5613],[117.4592,-33.4029,281.2976],[117.4592,-33.3971,271.0846],[117.4701,-33.3971,267.1594],[117.4701,-33.3863,260.9959],[117.4799,-33.3863,263.6623],[117.4845,-33.3913,266.304],[117.4845,-33.3845,263.7111],[117.4986,-33.3843,265.1276],[117.4986,-33.3877,266.6685],[117.5293,-33.3874,312.7275],[117.5293,-33.3937,294.4454],[117.5366,-33.3939,309.3167],[117.5366,-33.3965,292.2895],[117.5466,-33.3965,316.1074],[117.5466,-33.4061,314.1987],[117.6119,-33.4045,289.4599],[117.6137,-33.3964,278.164],[117.6168,-33.4027,300.746],[117.6329,-33.4029,269.5749],[117.6329,-33.3946,269.6928],[117.6391,-33.3856,259.7083],[117.6391,-33.3724,257.8351],[117.6447,-33.3724,260.6288],[117.643,-33.3633,257.4205],[117.6466,-33.3558,263.9286],[117.6467,-33.3505,263.7036],[117.6206,-33.3138,255.4763],[117.6206,-33.303,279.7539],[117.6315,-33.3031,292.1281],[117.6355,-33.2961,283.0797],[117.6394,-33.2952,276.7927],[117.6394,-33.291,289.4409],[117.6566,-33.291,294.6564],[117.662,-33.2878,281.0229],[117.662,-33.2725,278.7245],[117.6572,-33.2725,292.3069],[117.6487,-33.2653,297.6608],[117.6488,-33.2522,295.8192],[117.651,-33.2522,291.4648],[117.651,-33.2495,293.5641],[117.6439,-33.2495,310.0695],[117.644,-33.2387,331.0781],[117.6416,-33.2387,324.8795],[117.6407,-33.2096,313.6416],[117.6384,-33.2096,314.0768],[117.6463,-33.2018,330.267],[117.6536,-33.1981,343.9073],[117.6596,-33.1884,334.6126],[117.6449,-33.1884,341.6109],[117.6454,-33.1707,375.1885],[117.6489,-33.1707,360.0647],[117.6491,-33.1427,351.755],[117.6469,-33.1419,356.8014],[117.6469,-33.1385,356.3381],[117.6634,-33.1385,357.7725],[117.6628,-33.104,393.5526],[117.6858,-33.1004,398.8671],[117.6859,-33.0878,404.7147],[117.6879,-33.0878,410.6351],[117.6873,-33.0434,377.3509]]]]}
,"properties": {"GID_2": "AUS.11.125_1","GID_0": "AUS","country": "Australia","GID_1": "AUS.11_1","state": "WesternAustralia","NL_NAME_1": "NA","county": "Wagin","VARNAME_2": "NA","NL_NAME_2": "NA","TYPE_2": "Shire","ENGTYPE_2": "Shire","CC_2": "58610","HASC_2": "AU.WA.WG","name": "Wagin.county","area_km2": 1946.259,"hist_schema_id": "Elevation0-9000","hist_area_km2": {"225": 0.177,"250": 360.121,"275": 478.497,"300": 449.293,"325": 344.8,"350": 201.612,"375": 85.407,"400": 25.162,"425": 1.19}}}