{"type": "Feature","bbox": [144.8951,-35.5875,145.0512,-35.4707],"geometry": {"type": "MultiPolygon","coordinates": [[[[144.9066,-35.5053,85.5341],[144.8951,-35.5713,96.58],[145.0338,-35.5875,94.9445],[145.0512,-35.4871,93.663],[144.9129,-35.4707,89.1044],[144.9066,-35.5053,85.5341]]]]}
,"properties": {"GID_2": "AUS.5.43_1","GID_0": "AUS","country": "Australia","GID_1": "AUS.5_1","state": "NewSouthWales","NL_NAME_1": "NA","county": "Deniliquin","VARNAME_2": "NA","NL_NAME_2": "NA","TYPE_2": "Area","ENGTYPE_2": "Area","CC_2": "12500","HASC_2": "AU.NS.DE","name": "Deniliquin.county","area_km2": 143.0593,"hist_schema_id": "Elevation0-9000","hist_area_km2": {"75": 2.3984,"100": 140.6092,"125": 0.0518}}}