{"type": "Feature","bbox": [115.75,-32.0161,115.7718,-31.982],"geometry": {"type": "MultiPolygon","coordinates": [[[[115.7668,-31.982,20.1108],[115.7528,-31.982,0.0],[115.75,-31.9969,1.5065],[115.7514,-31.9989,10.761],[115.7513,-32.0161,10.0368],[115.7534,-32.0161,21.3139],[115.7601,-32.0017,14.7885],[115.7688,-31.9887,40.2925],[115.7718,-31.9866,39.0577],[115.7718,-31.9825,28.7582],[115.7668,-31.9846,33.1388],[115.7668,-31.982,20.1108]]]]}
,"properties": {"GID_2": "AUS.11.31_1","GID_0": "AUS","country": "Australia","GID_1": "AUS.11_1","state": "WesternAustralia","NL_NAME_1": "NA","county": "Cottesloe","VARNAME_2": "NA","NL_NAME_2": "NA","TYPE_2": "Town","ENGTYPE_2": "Town","CC_2": "52170","HASC_2": "AU.WA.CT","name": "Cottesloe.county","area_km2": 3.937968,"hist_schema_id": "Elevation0-9000","hist_area_km2": {"0": 0.665312,"25": 3.07484,"50": 0.197815}}}