{"type":"Feature","properties":{"featurecla":"Reservoir","scalerank":8,"name":"Lake Pedder","name_abb":"L. Pedder","name_alt":null,"note":null,"delta":null,"dam_name":null,"year":1972,"admin":null,"min_zoom":6.0,"min_label":7.0},
"geometry":{"type": "Polygon","coordinates": [[[146.37712887207,-42.993533174271079,412.9081],[146.36005575269633,-42.989706440618363,307.858],[146.34680936697544,-42.984702250457104,314.1674],[146.33768407903432,-42.974693870134644,350.6007],[146.3400389920514,-42.968806587592013,324.166],[146.36741485587464,-42.950556011709836,388.6888],[146.35299101364518,-42.942902544404433,444.7704],[146.32620387807617,-42.954382745362551,307.0317],[146.31178003584677,-42.938487082497431,336.7386],[146.30648148155836,-42.911994311055594,342.4978],[146.30530402504985,-42.891977550410644,411.1387],[146.29794492187153,-42.881969170088155,427.2759],[146.28116616662504,-42.885501539613756,523.8204],[146.22405952596154,-42.918470321852482,328.0204],[146.211696232622,-42.92170832725094,482.8242],[146.1922682002313,-42.92259141963234,435.7673],[146.1728401678406,-42.914937952326909,546.412],[146.1130842500329,-42.87902552881684,381.5565],[146.09983786431195,-42.867250963731578,395.6631],[146.10337023383755,-42.851944029120745,306.5],[146.11543916304993,-42.847234203086629,306.5],[146.12809682051659,-42.850177844357944,334.521],[146.13398410305922,-42.857536947536232,307.6851],[146.14075447798325,-42.860186224680433,306.5],[146.18225981990884,-42.846939838959486,375.1703],[146.17254580371349,-42.829572355458737,549.5349],[146.15694450497551,-42.829572355458737,366.8471],[146.13957702147474,-42.834282181492824,338.8849],[146.12338699448247,-42.829866719585851,306.5],[146.0857083862096,-42.79218811131301,395.6528],[146.07452254937863,-42.784240279880436,576.806],[146.06716344620031,-42.781002274482006,494.7015],[146.06215925603908,-42.781885366863406,351.7136],[146.05509451698794,-42.785417736388979,306.5],[146.0447917725383,-42.786300828770379,306.5],[146.03448902808873,-42.785123372261836,342.4677],[146.0277186531647,-42.781885366863406,306.5],[146.01771027284224,-42.773643171303718,382.6244],[146.00505261537558,-42.766872796379687,413.8196],[145.99033440901894,-42.764812247489772,311.8938],[145.97561620266237,-42.770993894159517,301.9207],[145.99622169156157,-42.796014844965725,306.5],[146.00034278934146,-42.8089668665595,584.4152],[145.99327805029026,-42.822801980534706,323.2991],[145.99769351219726,-42.826628714187422,306.5],[146.01329481093524,-42.830161083712994,306.5],[146.03007356618173,-42.836931458637025,333.9313],[146.03772703348716,-42.850472208485087,306.5],[146.04273122364839,-42.874315702782752,306.5],[146.05686070175074,-42.900219745970332,310.5002],[146.07746619064994,-42.92082523486954,314.2947],[146.10337023383755,-42.929361794556371,329.2458],[146.10808005987161,-42.932011071700543,306.5],[146.11426170654141,-42.945846185675748,309.3013],[146.11956026082976,-42.950556011709836,306.5],[146.12780245638947,-42.951733468218379,306.5],[146.1460530322716,-42.950261647582721,306.5],[146.18461473292587,-42.953794017108294,306.5],[146.19727239039253,-42.959092571396667,306.5],[146.20904695547779,-42.970867136481928,306.5],[146.21140186849487,-42.981758609185789,306.5],[146.20875259135067,-43.010900657771828,527.6102],[146.20904695547779,-43.0188484892044,385.3469],[146.21876097167313,-43.021203402221431,306.5],[146.25673394407312,-43.022380858729974,306.5],[146.27115778630258,-43.025030135874147,306.5],[146.33091370411029,-43.025618864128433,306.5],[146.37241904603587,-43.021497766348574,421.6514],[146.39420199144359,-43.01119502189897,541.0496],[146.39125835017228,-42.999420456813709,470.0018],[146.37712887207,-42.993533174271079,412.9081]]]}}