{"type": "Feature","bbox": [145.97767675155228,-42.846939838959486,146.35210792126378,-42.580245939778194],"geometry": {"type": "Polygon","coordinates": [[[145.99327805029026,-42.736847655412248,287.0],[146.01682718046084,-42.736258927157991,287.0],[146.026246832529,-42.733315285886675,326.5663],[146.04420304428407,-42.720657628420014,287.0],[146.05509451698794,-42.719774536038614,332.2455],[146.07246200048871,-42.723306905564186,289.0],[146.07746619064994,-42.725956182708387,303.5167],[146.08070419604837,-42.73449274239519,295.7502],[146.0857083862096,-42.736847655412248,411.5643],[146.09218439700652,-42.736553291285105,429.6992],[146.10219277732898,-42.731843465251018,471.8227],[146.10660823923598,-42.730666008742475,356.3179],[146.15105722243288,-42.730666008742475,289.0],[146.1710739830778,-42.76039678558277,289.0],[146.17519508085763,-42.7680502528882,289.0],[146.17931617863752,-42.783062823371921,289.0],[146.18991328721421,-42.800724670999813,289.0],[146.20345403706227,-42.816620333864932,289.0],[146.21581733040182,-42.826334350060279,306.8608],[146.21787787929173,-42.831338540221509,322.3298],[146.22199897707156,-42.83810891514554,294.1254],[146.22729753135997,-42.844290561815313,365.5921],[146.2331848139026,-42.846939838959486,335.6208],[146.24378192247934,-42.846351110705228,401.318],[146.24672556375066,-42.844290561815313,329.9559],[146.24731429200489,-42.840169464035455,322.5266],[146.2546733951832,-42.822213252280449,424.4738],[146.25761703645452,-42.807495045923844,389.7747],[146.26203249836152,-42.793659931948667,383.3514],[146.27115778630258,-42.785417736388979,337.6891],[146.28793654154907,-42.786889557024637,292.2731],[146.31531240537231,-42.812793600212217,299.162],[146.33621225839869,-42.819563975136248,408.6133],[146.35210792126378,-42.8116161437037,489.5284],[146.34268826919555,-42.794248660202925,469.309],[146.31207439997388,-42.764812247489772,634.1646],[146.30736457393976,-42.757453144311455,516.3957],[146.30177165552425,-42.745972943353337,554.8348],[146.30059419901573,-42.73537583477659,616.3887],[146.30883639457545,-42.730666008742475,393.6539],[146.31384058473668,-42.726544910962645,375.1307],[146.30707020981265,-42.717419623021556,376.6832],[146.29676746536302,-42.70858869920761,416.4007],[146.29146891107467,-42.706233786190552,441.6433],[146.28146053075221,-42.687394482054117,804.9096],[146.24554810724214,-42.68356774840143,559.345],[146.25084666153049,-42.661784802993679,451.2871],[146.25614521581889,-42.656191884578163,369.2384],[146.26291559074286,-42.652070786798333,289.0],[146.26880287328555,-42.64500604774716,301.9151],[146.27115778630258,-42.63087656964484,501.0799],[146.26615359614135,-42.621162553449494,437.2374],[146.2546733951832,-42.62086818932238,298.3505],[146.2331848139026,-42.627049835992125,353.1727],[146.2111075043677,-42.592020504863456,320.5668],[146.1940343849941,-42.580245939778194,400.7889],[146.17519508085763,-42.600262700423144,327.035],[146.1710739830778,-42.624400558847952,301.5584],[146.1728401678406,-42.643828591238645,289.0],[146.16724724942509,-42.657074976959564,289.0],[146.14075447798325,-42.661784802993679,586.9172],[146.11602789130421,-42.653836971561134,577.2256],[146.11514479892281,-42.6349976674247,539.7482],[146.12162080971967,-42.612331629635548,645.2138],[146.11956026082976,-42.592903597244856,473.4525],[146.10395896209178,-42.587016314702225,298.5139],[146.091006940498,-42.60408943407586,327.0887],[146.08247038081117,-42.628521656627782,300.6997],[146.07923237541274,-42.644711683620045,289.0],[146.08011546779414,-42.667377721409167,302.2941],[146.07834928303134,-42.6767973734774,289.0],[146.07246200048871,-42.682390291892887,289.0],[146.05950997889488,-42.683273384274287,580.8037],[146.05480015286082,-42.675914281096,493.227],[146.04802977793679,-42.630287841390583,348.2264],[146.04420304428407,-42.618513276305322,493.1835],[146.03448902808873,-42.613509086144091,556.2368],[146.02300882713058,-42.616158363288264,427.4428],[146.01829900109647,-42.622928738212295,374.796],[146.01712154458795,-42.632937118534784,301.8163],[146.01741590871507,-42.644711683620045,371.0207],[146.01918209347787,-42.656780612832449,442.7737],[146.02183137062207,-42.666494629027795,381.08],[146.0224200988763,-42.676208645223113,401.5649],[146.01741590871507,-42.689160666816917,287.0],[146.01241171855384,-42.693870492851033,321.4442],[145.99622169156157,-42.703878873173494,353.7532],[145.99004004489183,-42.709766155716125,374.0005],[145.97767675155228,-42.725956182708387,366.5103],[145.97826547980657,-42.73360965001379,401.7534],[145.99327805029026,-42.736847655412248,287.0]]]}
,"properties": {"featurecla": "Reservoir","scalerank": 8,"name": "Lake Gordon","name_abb": "L. Gordon","name_alt": null,"note": null,"delta": null,"dam_name": "Gordon Dam","year": 1974,"admin": null,"min_zoom": 6.0,"min_label": 7.0,"area_km2": 363.1349,"hist_schema_id": "Elevation0-9000","hist_area_km2": {"275": 25.1672,"300": 206.8159,"325": 26.6,"350": 22.4069,"375": 19.3669,"400": 15.6591,"425": 11.5924,"450": 8.9588,"475": 6.1387,"500": 4.6439,"525": 3.9894,"550": 2.9762,"575": 2.5404,"600": 1.8856,"625": 1.5114,"650": 0.9503,"675": 0.8101,"700": 0.4362,"725": 0.3271,"750": 0.1714,"775": 0.0779,"800": 0.0779,"825": 0.0312}}}