{"type":"Feature","properties":{"GID_2":"AUS.11.119_1","GID_0":"AUS","country":"Australia","GID_1":"AUS.11_1","state":"WesternAustralia","NL_NAME_1":"NA","county":"Toodyay","VARNAME_2":"NA","NL_NAME_2":"NA","TYPE_2":"Shire","ENGTYPE_2":"Shire","CC_2":"58330","HASC_2":"AU.WA.TO","name":"Toodyay.county"},
"geometry":{"type": "MultiPolygon","coordinates": [[[[116.1507,-31.6002,304.4042],[116.2383,-31.6,262.7643],[116.2383,-31.6707,298.2276],[116.288,-31.6711,303.4254],[116.2877,-31.7065,281.5835],[116.3472,-31.7066,363.4832],[116.3472,-31.7092,376.7251],[116.3764,-31.7092,374.4521],[116.3764,-31.702,376.4052],[116.4232,-31.702,311.8743],[116.4232,-31.6849,267.15],[116.4179,-31.6758,246.7979],[116.4269,-31.6719,270.2787],[116.4306,-31.6781,287.191],[116.4366,-31.6755,262.4793],[116.4433,-31.6868,294.9102],[116.4629,-31.6783,244.8438],[116.471,-31.6949,262.5398],[116.4759,-31.6963,279.7069],[116.4954,-31.686,400.6856],[116.5185,-31.686,290.8393],[116.5159,-31.6809,289.1065],[116.5144,-31.6816,302.4412],[116.5024,-31.6611,328.7035],[116.5001,-31.6622,353.3868],[116.4885,-31.6507,350.4097],[116.5117,-31.6402,288.0292],[116.4913,-31.6142,328.1847],[116.5868,-31.572,260.9016],[116.5795,-31.5596,284.2462],[116.5837,-31.5587,261.8982],[116.5959,-31.5511,221.8327],[116.5878,-31.5371,287.4102],[116.5988,-31.5325,256.9381],[116.5895,-31.5165,287.6004],[116.6013,-31.5066,229.6242],[116.5948,-31.4955,267.1433],[116.5978,-31.4716,253.4097],[116.6041,-31.4553,230.5307],[116.5987,-31.4391,232.9618],[116.5996,-31.427,235.9475],[116.5921,-31.418,246.3963],[116.5977,-31.4156,252.5838],[116.5917,-31.4051,265.9165],[116.6012,-31.4011,258.0307],[116.5978,-31.3952,256.5117],[116.6052,-31.3635,266.1732],[116.6036,-31.3602,267.5659],[116.6064,-31.3588,268.0422],[116.6253,-31.2736,277.4812],[116.614,-31.2787,275.3051],[116.5688,-31.3117,235.2792],[116.5479,-31.2767,265.8848],[116.4989,-31.2981,248.0923],[116.4921,-31.2867,220.3197],[116.4493,-31.3055,260.4548],[116.4402,-31.2912,249.8812],[116.4025,-31.3076,281.4401],[116.3607,-31.2365,283.0876],[116.3082,-31.2367,366.2563],[116.245,-31.2306,299.6229],[116.2456,-31.3541,303.5642],[116.1652,-31.3543,260.0736],[116.1658,-31.5277,184.9047],[116.1507,-31.5276,178.9776],[116.1508,-31.5463,156.1604],[116.1526,-31.5464,152.2163],[116.1525,-31.5518,145.1723],[116.1508,-31.5518,157.1691],[116.1507,-31.6002,304.4042]]]]}}