{"type":"Feature","properties":{"GID_2":"AUS.10.4_1","GID_0":"AUS","country":"Australia","GID_1":"AUS.10_1","state":"Victoria","NL_NAME_1":"NA","county":"Banyule","VARNAME_2":"NA","NL_NAME_2":"NA","TYPE_2":"City","ENGTYPE_2":"City","CC_2":"20660","HASC_2":"AU.VI.BY","name":"Banyule.county"},
"geometry":{"type": "MultiPolygon","coordinates": [[[[145.0671,-37.7809,15.3488],[145.0695,-37.7721,19.1455],[145.0712,-37.7711,16.668],[145.0767,-37.7734,16.5105],[145.0715,-37.7672,13.5153],[145.0765,-37.7674,18.6908],[145.0792,-37.7623,17.6357],[145.0768,-37.7586,16.4206],[145.0735,-37.7596,16.6359],[145.0731,-37.7585,17.1369],[145.0749,-37.757,16.3776],[145.0806,-37.7579,18.5604],[145.0773,-37.7557,15.7307],[145.0796,-37.7539,18.3265],[145.0818,-37.7562,16.6666],[145.0833,-37.7549,17.8412],[145.0816,-37.754,16.882],[145.0826,-37.7514,16.3456],[145.0916,-37.7543,18.7037],[145.0956,-37.7493,26.6521],[145.098,-37.749,20.899],[145.1042,-37.7537,20.7911],[145.1129,-37.7552,19.5855],[145.1151,-37.7531,23.1036],[145.1214,-37.7522,31.7332],[145.1226,-37.7492,19.4936],[145.1261,-37.7511,31.653],[145.1232,-37.7476,25.5131],[145.1203,-37.7481,19.965699999999998],[145.12,-37.7446,19.055],[145.1226,-37.7406,32.263],[145.1331,-37.7428,22.7388],[145.1356,-37.7409,24.7568],[145.1342,-37.7382,44.6551],[145.1351,-37.7343,46.5231],[145.1377,-37.7332,40.4833],[145.1349,-37.7321,38.5075],[145.1378,-37.718,33.1395],[145.1336,-37.7133,53.1372],[145.1304,-37.7059,54.1248],[145.1281,-37.7047,65.1519],[145.128,-37.7023,68.3001],[145.1316,-37.7004,85.6233],[145.1404,-37.7013,88.0355],[145.1437,-37.6826,82.4328],[145.1188,-37.6874,107.9798],[145.1077,-37.6916,102.753],[145.0955,-37.6929,84.7186],[145.0921,-37.6952,75.1793],[145.0882,-37.6911,105.6345],[145.0773,-37.6877,113.1142],[145.0677,-37.6869,110.6664],[145.0605,-37.6944,93.0488],[145.0574,-37.7025,113.2938],[145.0513,-37.7084,116.6817],[145.075,-37.7088,95.4211],[145.0745,-37.7161,92.6188],[145.0678,-37.7166,92.0519],[145.0647,-37.7202,74.1322],[145.0678,-37.7245,64.9114],[145.0615,-37.7242,99.1047],[145.0608,-37.7295,100.4249],[145.0383,-37.7275,63.1183],[145.0405,-37.7299,63.1955],[145.0383,-37.7301,60.1922],[145.04,-37.7327,63.4079],[145.0375,-37.735,68.0706],[145.034,-37.7352,57.443],[145.032,-37.7378,58.7701],[145.0351,-37.7436,57.5385],[145.0334,-37.7456,55.333],[145.0361,-37.7469,53.2357],[145.0314,-37.7509,54.1842],[145.0306,-37.7548,52.3193],[145.0322,-37.7568,52.2046],[145.0291,-37.7578,50.5555],[145.0299,-37.7602,53.7776],[145.0278,-37.7638,49.1941],[145.0308,-37.7651,50.7156],[145.0323,-37.7707,36.8089],[145.0368,-37.7706,31.581],[145.0368,-37.7726,26.2466],[145.0341,-37.7725,33.0309],[145.0359,-37.7751,25.551],[145.0345,-37.7788,28.3443],[145.0386,-37.7793,24.4394],[145.0368,-37.7818,26.2564],[145.0383,-37.7836,17.2082],[145.0402,-37.7842,13.0084],[145.0437,-37.7803,14.2422],[145.0477,-37.7799,19.67],[145.0548,-37.7851,16.8045],[145.0558,-37.784,16.1876],[145.0534,-37.7838,14.521],[145.0546,-37.7812,14.2931],[145.0555,-37.7825,15.27],[145.0609,-37.78,14.6266],[145.0665,-37.7837,17.5985],[145.0677,-37.7832,17.5985],[145.0671,-37.7809,15.3488]]]]}}