{"type": "Feature","bbox": [137.197677931596,-31.930446184281521,138.13787695365454,-30.171620524669805],"geometry": {"type": "Polygon","coordinates": [[[137.87618724463448,-31.636082057149849,35.7114],[137.88501816844843,-31.617537117140557,31.8105],[137.89679273353369,-31.601641454275466,33.2841],[137.92564041799261,-31.572793769816542,30.5],[138.02660731359879,-31.505678748830547,48.4099],[138.08489141077087,-31.44739465165847,42.4437],[138.09107305744061,-31.437091907208867,44.4347],[138.09725470411036,-31.412954048784059,36.5219],[138.10225889427164,-31.402651304334455,37.5135],[138.10932363332279,-31.394997837029024,39.9374],[138.12286438317085,-31.383517636070877,36.5535],[138.12963475809488,-31.375275440511217,39.504],[138.13405022000182,-31.36114596240887,42.9368],[138.13758258952743,-31.337596832238347,36.7444],[138.13787695365454,-31.313753337940682,36.62],[138.1325783993662,-31.297268946821305,36.3545],[138.12050947015376,-31.279607099193413,32.4056],[138.1149165517383,-31.261062159184121,39.4947],[138.11432782348402,-31.241339762666286,37.2116],[138.11579964411965,-31.218379360750021,30.5],[138.08489141077087,-31.1615670842136,30.5],[138.01718766153056,-31.120944834669444,30.5],[137.96655703166391,-31.079733856871,30.5],[137.98892870532592,-31.020861031444667,30.5],[138.00423563993678,-31.012913200012122,30.5],[138.02366367232747,-31.007320281596606,30.5],[138.04132551995536,-30.99937245016406,44.7605],[138.05133390027783,-30.984654243807483,40.3514],[138.0498620796422,-30.967875488560964,37.1077],[138.04073679170108,-30.956984015857103,34.0238],[138.02807913423442,-30.948447456170271,34.6024],[138.01718766153056,-30.93755598346641,35.795],[138.00835673771661,-30.918127951075718,36.6672],[138.00040890628406,-30.852779114852495,38.4684],[137.99481598786855,-30.830407441190488,30.5],[137.90650674972903,-30.677926823336293,41.2443],[137.88207452717711,-30.656143877928542,34.5967],[137.87648160876165,-30.649373503004512,30.5],[137.87236051098176,-30.63759893791925,30.5],[137.86823941320193,-30.6131667153673,34.1363],[137.8614690382779,-30.603158335044839,30.5],[137.85116629382833,-30.597859780756465,30.5],[137.82732279953063,-30.59491613948515,30.5],[137.81760878333529,-30.590206313451034,30.5],[137.81113277253837,-30.579314840747173,30.5],[137.81142713666554,-30.557531895339423,38.7912],[137.80818913126706,-30.545462966127019,45.64],[137.80289057697871,-30.540164411838646,41.567],[137.77993017506242,-30.525446205482069,30.5],[137.68426183374464,-30.442435521630955,30.5],[137.64305085594623,-30.423301853367377,30.5],[137.6115538943431,-30.41859202733329,37.3974],[137.5491486993912,-30.419475119714662,38.2347],[137.51882919429664,-30.410938560027859,30.5],[137.49380824349043,-30.397103446052654,30.5],[137.46672674379437,-30.378558506043362,30.5],[137.44553252664087,-30.35589246825424,37.3859],[137.43670160282693,-30.330282789193774,30.5],[137.43405232568273,-30.308499843786024,30.5],[137.42581013012307,-30.291132360285275,30.5],[137.39725680979126,-30.258163578046521,30.5],[137.35074727770444,-30.224017339299252,30.5],[137.3419163538905,-30.221073698027936,30.5],[137.33485161483935,-30.215775143739563,39.3388],[137.29069699576962,-30.201645665637244,30.5],[137.24889728971692,-30.176624714831036,37.9424],[137.22652561605491,-30.171620524669805,36.1393],[137.20474267064714,-30.181040176738009,31.4033],[137.197677931596,-30.203706214527159,35.5299],[137.22976362145334,-30.2431510075628,46.2573],[137.21857778462237,-30.264933952970551,30.5],[137.24301000717429,-30.284656349488358,36.467],[137.29364063704094,-30.311737849184482,43.9799],[137.31306866943163,-30.33587570760929,35.9632],[137.32396014213549,-30.371199402865074,31.3034],[137.33161360944092,-30.384445788585992,36.3924],[137.35663456024707,-30.4094667393922,32.641],[137.36281620691688,-30.41859202733329,30.5],[137.40402718471529,-30.523974384846412,30.5],[137.40402718471529,-30.535748949931673,43.1927],[137.39813990217266,-30.553410797559593,74.7161],[137.37988932629048,-30.587262672179719,30.5],[137.37635695676494,-30.604335791553353,32.4619],[137.38518788057888,-30.621997639181274,32.3162],[137.41992284758038,-30.637010209664965,80.097],[137.46790420030288,-30.63671584553785,30.8005],[137.55562471018811,-30.61993709029133,31.6742],[137.633631203878,-30.591678134086692,31.8484],[137.67130981215087,-30.590500677578177,31.8334],[137.698391311847,-30.618759633782815,31.8406],[137.69809694771982,-30.656143877928542,31.5171],[137.67513654580358,-30.687052111277353,31.4428],[137.64511140483614,-30.715605431609134,31.3971],[137.62332845942836,-30.745924936703688,31.2051],[137.61950172577571,-30.784192273230815,30.0],[137.63245374736948,-30.815689234833911,40.4479],[137.651587415633,-30.845420011674207,30.9637],[137.66512816548106,-30.878683158040076,30.7653],[137.66512816548106,-30.898405554557911,54.0811],[137.65659160579429,-30.904292837100542,69.1216],[137.64452267658186,-30.9066477501176,62.5767],[137.63421993213228,-30.916067402185803,43.6753],[137.63304247562371,-30.941088352991983,30.5562],[137.67749145882061,-31.02027230319041,30.2181],[137.69073784454156,-31.05706781908188,30.5035],[137.69750821946559,-31.095040791481864,67.4891],[137.68573365438033,-31.122711019432245,30.0],[137.64275649181906,-31.12889266610199,33.0028],[137.6300988343524,-31.125360296576417,35.7558],[137.62450591593694,-31.1206504705423,38.0045],[137.62156227466562,-31.114763187999671,30.0],[137.61626372037722,-31.108287177202783,31.9352],[137.58623857940978,-31.094157699100464,30.0],[137.54679378637417,-31.088564780684948,59.9375],[137.50793772159278,-31.094746427354721,39.9843],[137.47997312951526,-31.115940644508214,30.4102],[137.51559118889821,-31.12477156832216,30.8934],[137.63333683975088,-31.1957133229609,29.4725],[137.66071270357412,-31.223383550911251,30.3125],[137.66100706770123,-31.235452480123655,30.2472],[137.65835779055703,-31.264005800455436,29.4963],[137.66100706770123,-31.275486001413555,32.2023],[137.67013235564235,-31.2860831099903,29.828],[137.6763140023121,-31.281667648083328,29.0],[137.68161255660044,-31.270776175379467,29.0],[137.68985475216016,-31.262533979819779,29.0],[137.70928278455085,-31.259001610294206,29.0],[137.73577555599269,-31.260179066802721,30.6175],[137.76197396330741,-31.266949441726752,30.6201],[137.78022453918959,-31.279607099193413,30.8803],[137.78375690871513,-31.301684408728278,30.5787],[137.77580907728259,-31.331709549695717,30.4121],[137.75078812647638,-31.38292890781662,30.6851],[137.74166283853532,-31.393231652266223,31.8191],[137.73136009408569,-31.402651304334455,108.248],[137.72282353439891,-31.412659684656916,69.1361],[137.71958552900043,-31.42472861386932,29.5],[137.72341226265314,-31.435914450700324,29.825],[137.73930792551829,-31.455636847218159,36.3147],[137.74460647980663,-31.466822684049163,54.1227],[137.74519520806092,-31.481540890405739,31.9247],[137.74195720266243,-31.497142189143716,30.4531],[137.73636428424697,-31.51244912375455,30.5201],[137.72959390932294,-31.525401145348354,30.3667],[137.72400099090743,-31.531877156145242,33.7844],[137.71222642582217,-31.539530623450673,29.9362],[137.70810532804234,-31.546006634247561,30.3012],[137.70692787153376,-31.55513192218865,30.2422],[137.71163769756788,-31.573088133943685,29.92],[137.71252078994928,-31.581330329503373,29.7658],[137.70781096391516,-31.597225992368493,43.7135],[137.69220966517719,-31.619008937776215,30.6994],[137.68808856739736,-31.63284405175142,38.1742],[137.69103220866867,-31.646679165726596,33.7175],[137.70045186073691,-31.656393181921942,29.6946],[137.71104896931365,-31.665224105735888,30.4594],[137.71781934423768,-31.676409942566892,30.3278],[137.71870243661903,-31.694660518449069,62.0185],[137.71222642582217,-31.707906904169988,37.6409],[137.70368986613533,-31.721153289890907,30.4077],[137.69809694771982,-31.738815137518827,43.0656],[137.6933871216857,-31.788857039131187,43.1655],[137.68072946421904,-31.796804870563761,71.6795],[137.63039319847957,-31.778259930554469,29.5],[137.60802152481756,-31.774727561028868,30.0],[137.58594421528267,-31.776493745791669,31.0385],[137.56504436225634,-31.783558484842843,30.0],[137.57858511210435,-31.796216142309504,52.4543],[137.63068756260668,-31.811817441047481,29.5],[137.65276487214157,-31.824475098514142,29.5],[137.70074622486402,-31.885997201084649,38.2329],[137.72753336043303,-31.911901244272229,29.0],[137.76727251759576,-31.930446184281521,29.5432],[137.77051052299424,-31.888940842355964,33.7882],[137.77315980013839,-31.87687191314356,33.7547],[137.776692169664,-31.872456451236587,31.5628],[137.78758364236785,-31.863625527422641,34.4716],[137.79052728363916,-31.856855152498611,34.5453],[137.79052728363916,-31.848612956938922,33.2015],[137.78787800649502,-31.843903130904835,32.0],[137.78464000109653,-31.839782033124976,40.1618],[137.78257945220662,-31.833894750582346,41.5372],[137.78081326744382,-31.809462528030423,50.6742],[137.7831681804609,-31.798276691199419,57.3833],[137.82938334842055,-31.692011241304868,30.0],[137.84204100588721,-31.676409942566892,42.3457],[137.8658845001849,-31.65462699715917,30.5],[137.87618724463448,-31.636082057149849,35.7114]]]}
,"properties": {"featurecla": "Alkaline Lake","scalerank": 3,"name": "Lake Torrens","name_abb": "L. Torrens","name_alt": null,"note": null,"delta": null,"dam_name": null,"year": -99,"admin": null,"min_zoom": 3.0,"min_label": 4.0,"area_km2": 5157.817,"hist_schema_id": "Elevation0-9000","hist_area_km2": {"25": 4997.813,"50": 140.272,"75": 19.624,"100": 0.109}}}