{"type":"Feature","properties":{"featurecla":"Alkaline Lake","scalerank":7,"name":"Lake Everard","name_abb":"L. Everard","name_alt":null,"note":null,"delta":null,"dam_name":null,"year":-99,"admin":null,"min_zoom":5.7,"min_label":6.7},
"geometry":{"type": "Polygon","coordinates": [[[135.34759939257344,-31.405889309732885,133.4662],[135.32405026240292,-31.398530206554597,137.2404],[135.21307498647428,-31.391465467503451,142.499],[135.17745692709133,-31.377630353528247,137.3577],[135.17451328582,-31.369388157968558,136.5683],[135.1768681988371,-31.353198130976324,137.0633],[135.17569074232858,-31.344955935416635,141.0704],[135.17039218804018,-31.336419375729832,148.5702],[135.15832325882781,-31.324939174771686,139.9215],[135.15273034041229,-31.318168799847655,141.028],[135.14066141119991,-31.284022561100386,126.8237],[135.14036704707274,-31.243105947429086,131.0112],[135.14978669914098,-31.202778062012044,128.6242],[135.16656545438747,-31.169514915646175,125.0],[135.18393293788824,-31.148615062619825,125.0],[135.20748206805877,-31.127126481339218,125.0],[135.2339748395006,-31.110936454346955,125.0],[135.26017324681533,-31.106520992439982,126.1463],[135.277246366189,-31.113880095618271,134.3336],[135.30462223001223,-31.137723589915936,125.0],[135.32169534938589,-31.140667231187251,131.4109],[135.32375589827581,-31.127715209593475,133.9177],[135.34200647415793,-31.096218247990379,134.6931],[135.34730502844633,-31.082383134015203,134.964],[135.34612757193781,-31.074435302582629,133.9925],[135.33729664812387,-31.060894552734567,137.8363],[135.3361191916153,-31.051180536539249,125.0],[135.34377265892073,-31.025570857478783,125.0],[135.34965994146336,-31.012324471757864,125.0],[135.3440670230479,-31.005554096833833,125.0],[135.20718770393165,-30.960516385382675,134.6815],[135.18040056836264,-30.964931847289648,127.8029],[135.18540475852393,-30.983771151426083,125.0],[135.17480764994718,-30.99436826000283,142.6952],[135.15920635120921,-31.003787912071033,133.5947],[135.14802051437817,-31.019683574936153,125.0],[135.16892036740455,-31.0379341508183,126.2592],[135.17304146518438,-31.057362183208994,136.7071],[135.16421054137044,-31.077673307981087,134.461],[135.1288868461146,-31.118589921652386,127.3902],[135.11711228102934,-31.143316508331452,129.8759],[135.09945043340144,-31.194241502325241,128.9872],[135.09532933562161,-31.200128784867871,128.6159],[135.08414349879064,-31.21249207820739,132.9397],[135.08119985751927,-31.218084996622906,133.626],[135.08178858577355,-31.226032828055452,129.9814],[135.0888533248247,-31.237218664886456,124.9503],[135.0906195095875,-31.243694675683344,125.0],[135.08561531942627,-31.340246109382548,130.8329],[135.07737312386661,-31.367033244951529,124.4157],[135.06736474354409,-31.383223271943763,124.0797],[135.06177182512863,-31.384400728452277,130.1086],[135.05441272195031,-31.37880781003679,129.2922],[135.03969451559374,-31.375275440511217,131.1801],[135.0276255863813,-31.375864168765474,122.5],[135.02114957558445,-31.378219081782532,128.7305],[134.99524553239684,-31.4097160433856,127.1156],[134.97846677715035,-31.423256793233662,133.4334],[134.95845001650537,-31.428555347522035,133.2811],[134.93166288093641,-31.422668064979405,132.1386],[134.83216780596592,-31.373803619875559,130.5226],[134.82539743104189,-31.372037435112759,124.5186],[134.81421159421086,-31.375569804638332,122.5],[134.81362286595663,-31.379985266545305,122.5],[134.81656650722795,-31.386755641469335,122.5],[134.81627214310078,-31.396469657664682,122.5],[134.785363909752,-31.449160836421242,131.4185],[134.77859353482796,-31.46652831992202,122.5],[134.80273139325271,-31.46652831992202,129.2936],[134.8468860123225,-31.447100287531327,128.7542],[134.86925768598451,-31.446805923404213,135.4979],[134.89810537044337,-31.469766325320478,123.2788],[134.89398427266354,-31.500380194542174,122.7629],[134.86042676217056,-31.55601501457005,122.4301],[134.85512820788216,-31.573971226325085,122.3114],[134.859249305662,-31.579269780613458,122.2408],[134.86778586534882,-31.58103596537623,121.8363],[134.87749988154417,-31.588395068554519,122.2533],[134.90222646822326,-31.652566448269226,138.6109],[134.91517848981704,-31.666990290498688,127.0981],[134.94549799491159,-31.671700116532804,125.547],[134.97257949460771,-31.657570638430485,137.3508],[134.99230189112552,-31.633138415878534,122.0],[135.00054408668524,-31.607234372690954,149.9557],[135.00760882573638,-31.523046232331296,139.7742],[135.02674249399996,-31.48919435771117,123.3785],[135.06883656417978,-31.47153251008325,122.5],[135.07766748799372,-31.473298694846051,123.2823],[135.08414349879064,-31.478302885007281,127.3083],[135.0888533248247,-31.483601439295654,133.7419],[135.09356315085881,-31.485956352312712,134.6824],[135.13389103627588,-31.474476151354565,134.2749],[135.16685981851458,-31.461229765633647,126.2262],[135.19129204106656,-31.465056499286362,123.6344],[135.22013972552543,-31.560430476477023,122.6862],[135.22661573632234,-31.5742655904522,122.5],[135.23544666013629,-31.585451427283203,132.316],[135.24221703506032,-31.558958655841366,136.3933],[135.24398321982312,-31.531288427890985,122.5],[135.24869304585724,-31.507150569466205,132.9641],[135.26488307284944,-31.4915492707282,129.6005],[135.28784347476574,-31.490960542473942,122.5],[135.30962642017346,-31.503029471686347,122.5],[135.32876008843704,-31.521574411695639,124.4884],[135.34377265892073,-31.541002444086331,125.0018],[135.37144288687114,-31.607528736818097,128.1954],[135.38351181608351,-31.625779312700246,136.3983],[135.40529476149123,-31.634315872387077,132.7411],[135.41736369070367,-31.6178314812677,134.2772],[135.4206016961021,-31.591338709825862,124.5],[135.41530314181375,-31.569850128545227,135.0192],[135.39881875069437,-31.552482645044478,132.4813],[135.35878522940448,-31.522163139949896,125.4488],[135.34495011542924,-31.503029471686347,124.0],[135.3405346535223,-31.480952162151482,124.0],[135.34759939257344,-31.405889309732885,133.4662]]]}}