{"type":"Feature","properties":{"featurecla":"Alkaline Lake","scalerank":3,"name":"Lake Gairdner","name_abb":"L. Gairdner","name_alt":null,"note":null,"delta":null,"dam_name":null,"year":-99,"admin":null,"min_zoom":3.0,"min_label":4.0},
"geometry":{"type": "Polygon","coordinates": [[[135.93721073921819,-32.354919255605409,128.1559],[135.93220654905696,-32.334019402579059,119.0],[135.91719397857321,-32.321067380985255,119.0],[135.90129831570812,-32.310470272408509,119.0],[135.89246739189417,-32.296046430179075,126.7367],[135.8957053972926,-32.281033859695356,119.0],[135.90600814174223,-32.268964930482952,143.5514],[135.95310640208328,-32.230991958082967,119.0],[136.02581434148482,-32.141505263434937,119.0],[136.04141564022279,-32.128553241841132,123.1676],[136.05907748785069,-32.1235490516799,131.5673],[136.12913615010802,-32.123254687552787,119.0],[136.14149944344757,-32.1244321440613,134.4012],[136.15504019329563,-32.129436334222532,139.184],[136.15680637805843,-32.134146160256648,132.5391],[136.15150782377003,-32.141505263434937,119.0],[136.14444308471889,-32.154751649155855,119.0],[136.13914453043049,-32.170647312020975,119.0],[136.13620088915917,-32.186248610758952,121.9559],[136.13826143804914,-32.200966817115528,124.1611],[136.14856418249872,-32.21450756696359,119.0],[136.12266013931117,-32.255718544762033,119.0],[136.11942213391268,-32.263077647940321,122.9201],[136.14444308471889,-32.265138196830236,133.9261],[136.20773137205219,-32.259250914287605,125.9182],[136.23216359460412,-32.252774903490717,124.863],[136.249825442232,-32.243943979676772,119.0],[136.25865636604595,-32.23364123522714,125.5105],[136.26071691493587,-32.220983577760478,131.7336],[136.25865636604595,-32.205087914895387,128.1757],[136.25630145302893,-32.203321730132586,119.0],[136.25100289874052,-32.200672452988414,119.0],[136.24658743683358,-32.195373898700041,135.8509],[136.24511561619789,-32.184776790123294,119.0],[136.24835362159638,-32.176240230436463,129.0323],[136.26189437144444,-32.157989654554314,138.3543],[136.26630983335139,-32.149747458994625,142.8433],[136.26807601811419,-32.113835035484556,119.0],[136.25630145302893,-32.052901661168306,119.8184],[136.26630983335139,-32.026408889726468,119.0],[136.31075881654829,-31.985786640182283,119.0],[136.32047283274363,-31.963120602393161,119.0],[136.30398844162426,-31.889529570610222,123.1074],[136.29692370257311,-31.879521190287761,134.1039],[136.27602384954673,-31.8642142556769,129.9822],[136.27308020827542,-31.859210065515668,131.4114],[136.26895911049559,-31.848318592811808,135.0546],[136.25041417048629,-31.816821631208711,126.6966],[136.24511561619789,-31.800337240089334,129.9116],[136.23657905651112,-31.606940008563839,137.1661],[136.22863122507852,-31.589278160935919,129.7998],[136.21302992634054,-31.5777979599778,121.7068],[136.1874202472801,-31.573971226325085,136.2783],[136.17829495933904,-31.565434666638254,151.0505],[136.12059959042119,-31.465056499286362,148.9112],[136.11206303073442,-31.443567918005755,142.5861],[136.10853066120882,-31.420018787835204,135.6469],[136.10970811771733,-31.396764021791824,129.8938],[136.10764756882742,-31.387050005596478,129.8318],[136.1011715580305,-31.38204581543522,132.6718],[136.09498991136076,-31.385283820833678,119.0],[136.08380407452978,-31.404123124970113,119.0],[136.07438442246155,-31.409421679258486,128.5592],[136.05672257483366,-31.402651304334455,138.3311],[136.05848875959646,-31.382634543689505,127.092],[136.07438442246155,-31.344955935416635,119.0],[136.07850552024138,-31.328471544297258,119.0],[136.09646173199644,-31.289909843643017,141.6125],[136.1011715580305,-31.272836724269382,138.1728],[136.08792517230961,-31.241634126793429,124.7569],[136.05171838467243,-31.238984849649228,143.8566],[136.00756376560264,-31.244872132191887,137.191],[135.97076824971117,-31.238690485522113,128.0484],[135.94839657604922,-31.214846991224448,129.9714],[135.9401543804895,-31.210725893444589,133.911],[135.8992377668182,-31.210725893444589,127.2018],[135.88893502236857,-31.213669534715905,127.1283],[135.8547887836213,-31.231920110598082,128.112],[135.83182838170507,-31.236924300759313,127.7044],[135.72114746990354,-31.238690485522113,127.3971],[135.70407435052988,-31.230153925835282,137.5477],[135.68464631813924,-31.215141355351562,119.0],[135.66551264987567,-31.20837098042756,128.0772],[135.6493226228834,-31.225149735674051,131.2396],[135.58367942253307,-31.200423148994986,129.0061],[135.55600919458266,-31.184233122002752,119.0],[135.53452061330205,-31.150969975636883,120.4476],[135.53334315679353,-31.141550323568651,131.0848],[135.53716989044625,-31.122711019432245,119.0],[135.53569806981056,-31.114174459745414,119.0],[135.52775023837802,-31.104460443550067,119.0],[135.47682524438426,-31.072080389565571,125.048],[135.45828030437497,-31.063543829878768,133.792],[135.43885227198427,-31.057656547336137,129.7095],[135.42207351673778,-31.055890362573336,119.0],[135.3994074789486,-31.06295510162451,121.839],[135.40323421260132,-31.075907123218286,120.6204],[135.41942423959358,-31.093274606719064,129.6749],[135.43325935356876,-31.114174459745414,119.0],[135.43679172309436,-31.129187030229133,119.5432],[135.43414244595016,-31.136251769280278,137.5761],[135.42825516340753,-31.141255959441537,137.7198],[135.42207351673778,-31.151853068018255,119.0],[135.41648059832227,-31.177757111205864,119.0],[135.41942423959358,-31.199540056613586,120.1995],[135.42972698404321,-31.220439909639936,119.0],[135.45916339675637,-31.264594528709694,119.0],[135.4659337716804,-31.269598718870924,129.2097],[135.47918015740129,-31.273425452523639,119.4592],[135.4847730758168,-31.273131088396525,125.3626],[135.49860818979198,-31.268421262362409,125.3901],[135.50567292884318,-31.267832534108152,128.9294],[135.51362076027573,-31.270776175379467,119.0],[135.5256896894881,-31.279901463320556,131.2987],[135.53246006441213,-31.283433832846129,130.2408],[135.57514286284623,-31.294030941422875,127.1025],[135.5833850584059,-31.299623859838363,119.0],[135.57749777586326,-31.313458973813567,119.0],[135.55983592823537,-31.329060272551544,119.0],[135.55159373267571,-31.345839027798036,119.0],[135.57278794982921,-31.362617783044556,119.0],[135.58573997142298,-31.363500875425927,119.0],[135.59869199301676,-31.358496685264697,119.0],[135.62282985144157,-31.345250299543778,119.0],[135.64372970446789,-31.339657381128262,119.0],[135.66286337273147,-31.338479924619747,120.6369],[135.68199704099504,-31.341423565891063,119.0],[135.70260252989425,-31.349077033196494,119.0],[135.72732911657329,-31.364383967807328,119.0],[135.74351914356555,-31.383223271943763,119.0],[135.74381350769266,-31.402651304334455,119.0],[135.72232492641206,-31.420018787835204,119.0],[135.6937716060803,-31.427083526886378,119.0],[135.66816192701987,-31.42973280403055,119.0],[135.64490716097646,-31.437386271335981,119.0],[135.62430167207725,-31.458874852616589,119.0],[135.61164401461053,-31.482718346914254,119.0],[135.59986944952527,-31.512743487881693,119.0],[135.59368780285553,-31.543357357103389,128.6704],[135.59692580825396,-31.569850128545227,119.0],[135.61458765588191,-31.589572525063062,119.0],[135.64461279684929,-31.604879459673896,119.0],[135.67758157908804,-31.610766742216526,119.0],[135.70377998640276,-31.601641454275466,120.0993],[135.7140827308524,-31.5777979599778,134.7737],[135.71261091021671,-31.551305188535935,133.4682],[135.71732073625083,-31.533054612653785,141.7978],[135.74587405658258,-31.5333489767809,119.0],[135.7773710181857,-31.55012773202742,119.0],[135.80327506137326,-31.5786810523592,119.0],[135.81887636011123,-31.61282729110647,151.6103],[135.8191707242384,-31.647562258107996,119.9017],[135.80033142010194,-31.703197078135872,119.0],[135.80562997439034,-31.724096931162222,119.0],[135.8377156642477,-31.732044762594796,119.0],[135.89894340269109,-31.761775539435092,119.4661],[135.9036532287252,-31.766191001342065,119.0],[135.90924614714066,-31.773255740393211,119.0],[135.93426709794687,-31.812406169301738,122.251],[135.94633602715925,-31.822120185497084,119.0],[135.9639978747872,-31.826241283276914,119.0],[135.99637792877166,-31.821825821369941,119.4935],[136.01315668401816,-31.8250638267684,119.6717],[136.03670581418868,-31.848024228684665,122.1297],[136.05112965641814,-31.883347923940477,119.0],[136.066436591029,-31.955172770960587,127.0268],[136.03641145006156,-31.964003694774533,119.0],[136.02964107513753,-31.968124792554391,119.0],[136.0237537925949,-31.976661352241194,119.0],[136.02404815672202,-31.981959906529568,119.0],[136.02610870561193,-31.986964096690826,119.0],[136.02699179799333,-32.005509036700118,119.0],[136.02964107513753,-32.011101955115606,119.0],[136.03081853164605,-32.01728360178538,119.0],[136.02669743386622,-32.026997617980726,119.0],[136.01992705894219,-32.032884900523356,119.0],[135.99255119511895,-32.042893280845817,143.9694],[135.97694989638097,-32.053490389422564,163.4012],[135.92366998937013,-32.104415383416352,119.0],[135.91542779381047,-32.1150124919931,119.0],[135.91189542428486,-32.12767014945976,119.0],[135.91101233190346,-32.148864366613225,119.0],[135.93014600016704,-32.1653487577326,119.0],[135.92573053826004,-32.185365518377552,152.3556],[135.8600873379097,-32.2804451314411,120.1385],[135.85508314774847,-32.29722388668759,124.5759],[135.86774080521513,-32.3222448374938,124.5059],[135.8957053972926,-32.342555962265862,119.0],[135.92425871762441,-32.354330527351124,128.3129],[135.93721073921819,-32.354919255605409,128.1559]]]}}