{"type": "Feature","bbox": [139.48577029179046,-31.130953214991905,140.05418742128171,-30.259341034555035],"geometry": {"type": "Polygon","coordinates": [[[139.96617254726937,-30.896050641540853,-0.0633],[139.99766950887243,-30.811273772926938,7.5932],[139.99796387299955,-30.627001829342504,14.7961],[140.00326242728795,-30.609045617587469,0.7241],[140.01768626951741,-30.591089405832435,3.6867],[140.02681155745847,-30.574310650585943,1.9983],[140.0538930571546,-30.463335374657305,0.0],[140.05418742128171,-30.421830032731719,1.9649],[140.04123539968793,-30.38091341906042,5.2406],[140.0138595358647,-30.340585533643377,6.3139],[139.98942731331277,-30.318802588235656,1.9824],[139.97824147648174,-30.303495653624793,4.329],[139.96793873203211,-30.259341034555035,4.5172],[139.95528107456545,-30.265817045351952,2.8029],[139.89552515675774,-30.348533365075951,2.8284],[139.88639986881668,-30.385623245094536,2.4574],[139.87550839611282,-30.404168185103828,1.9722],[139.84960435292521,-30.436253874961182,4.2026],[139.828998864026,-30.481585950539454,0.5],[139.82399467386477,-30.488061961336342,2.0382],[139.7819006036849,-30.515437825159609,-0.5],[139.74716563668341,-30.5330996727875,2.5363],[139.73774598461517,-30.540458775965789,1.9133],[139.7247939630214,-30.554882618195251,-1.2112],[139.63089180646637,-30.621408910926988,5.9485],[139.61352432296559,-30.643486220461881,1.3464],[139.59203574168498,-30.716194159863392,0.0148],[139.58232172548963,-30.730912366219968,1.2064],[139.55347404103077,-30.757110773534691,3.6154],[139.54199384007262,-30.772123344018411,4.2874],[139.48606465591757,-30.889574630743937,3.7318],[139.48577029179046,-30.903704108846256,12.2009],[139.49430685147729,-30.912829396787345,5.645],[139.50549268830827,-30.913712489168745,3.7613],[139.51785598164781,-30.911946304405944,3.4365],[139.52874745435167,-30.911946304405944,5.3982],[139.54258256832685,-30.918127951075718,3.6992],[139.56819224738734,-30.936378526957895,-0.4437],[139.58291045374392,-30.943148901881926,-0.4979],[139.61028631756716,-30.950802369187329,1.0605],[139.61676232836408,-30.959338928874161,1.5977],[139.614407415347,-30.976117684120652,1.3369],[139.60763704042296,-30.985242972061741,5.6551],[139.60086666549893,-30.990247162222971,1.6071],[139.5985117524819,-30.995840080638487,4.3698],[139.60528212740593,-31.007909009850891,0.5647],[139.62794816519505,-31.026453949860183,1.4578],[139.65885639854389,-31.037345422564044,-0.2038],[139.69094208840124,-31.038817243199702,-0.8063],[139.7177292239702,-31.027925770495841,-0.4286],[139.72332214238571,-31.020566667317553,-0.2966],[139.72449959889423,-31.01526811302918,-0.3482],[139.72832633254694,-31.012324471757864,1.7578],[139.74216144652218,-31.011441379376464,-0.7286],[139.76158947891281,-31.012618835884979,-0.771],[139.77925132654076,-31.017623026046238,0.3143],[139.79161461988025,-31.027925770495841,0.3019],[139.79661881004148,-31.044410161615218,4.5093],[139.78337242432059,-31.101222438151609,8.1955],[139.78396115257482,-31.116823736889586,6.7968],[139.79603008178725,-31.126243388957818,3.4945],[139.81722429894074,-31.130953214991905,3.1328],[139.83900724434847,-31.12977575848339,9.3496],[139.85284235832364,-31.121827927050845,11.2148],[139.85343108657793,-31.109464633711298,5.1291],[139.83989033672987,-31.07796767210823,1.7775],[139.83635796720426,-31.064721286387282,1.1405],[139.83871288022135,-31.052357993047764,0.8394],[139.84430579863681,-31.034696145419872,0.5583],[139.85225363006941,-31.018800482554752,0.2568],[139.86137891801047,-31.011147015249321,-0.0471],[139.87285911896862,-31.016445569537694,-1.0],[139.88021822214688,-31.0293975911315,1.3618],[139.88904914596083,-31.039994699708245,1.0047],[139.90435608057169,-31.0379341508183,8.003],[139.9099489989872,-31.032929960657071,12.1918],[139.91112645549572,-31.027042678114441,0.6458],[139.91112645549572,-31.020566667317553,0.6253],[139.9125982761314,-31.013207564139236,0.5908],[139.96617254726937,-30.896050641540853,-0.0633]]]}
,"properties": {"featurecla": "Alkaline Lake","scalerank": 3,"name": "Lake Frome","name_abb": "L. Frome","name_alt": null,"note": null,"delta": null,"dam_name": null,"year": -99,"admin": null,"min_zoom": 3.0,"min_label": 4.0,"area_km2": 2581.2,"hist_schema_id": "Elevation0-9000","hist_area_km2": {"0": 2577.051,"25": 4.149}}}