{"type": "Feature","bbox": [143.648,-37.4865,144.419,-37.1477],"geometry": {"type": "MultiPolygon","coordinates": [[[[143.9377,-37.4754,555.8777],[143.9379,-37.4742,555.6719],[143.9867,-37.4798,633.8173],[143.9859,-37.4773,626.1812],[143.9886,-37.4776,630.4714],[143.99,-37.4794,636.1042],[144.0236,-37.4839,681.2089],[144.0214,-37.4865,687.4644],[144.0371,-37.4863,679.9738],[144.0386,-37.4856,694.5487],[144.0423,-37.4638,647.6243],[144.0551,-37.47,672.2917],[144.0562,-37.4678,687.6196],[144.0586,-37.4681,686.2335],[144.0591,-37.466,696.3793],[144.0617,-37.4664,703.61],[144.0613,-37.4685,692.1046],[144.063,-37.4689,707.7799],[144.0724,-37.4634,684.8433],[144.0787,-37.4626,707.0472],[144.0821,-37.4577,722.5214],[144.0836,-37.4503,722.4099],[144.0878,-37.4518,709.0266],[144.0871,-37.4458,713.9217],[144.0907,-37.4443,719.2408],[144.101,-37.4459,724.6297],[144.1031,-37.4415,738.4467],[144.1069,-37.4403,725.9831],[144.107,-37.4367,721.6415],[144.1115,-37.4339,723.311],[144.1072,-37.4286,713.0323],[144.1258,-37.4308,733.0624],[144.126,-37.4295,715.0634],[144.1328,-37.4302,706.1251],[144.1338,-37.4285,718.4268],[144.1389,-37.427,707.5014],[144.142,-37.4221,705.3569],[144.1453,-37.4226,710.7961],[144.148,-37.4199,716.04],[144.1561,-37.421,732.6157],[144.1594,-37.4186,732.1836],[144.1651,-37.4183,741.6459],[144.1682,-37.4204,758.1256],[144.1717,-37.4173,775.562],[144.174,-37.4181,763.7872],[144.1888,-37.4147,767.4702],[144.1928,-37.4109,786.321],[144.1961,-37.4104,784.7052],[144.1963,-37.4088,803.2656],[144.201,-37.4093,783.6417],[144.1981,-37.4201,782.2776],[144.2256,-37.4235,769.988],[144.227,-37.4161,786.306],[144.2347,-37.4165,796.8883],[144.2507,-37.4287,757.8551],[144.2687,-37.4276,777.06],[144.2827,-37.4342,759.0223],[144.2904,-37.4352,775.6944],[144.2913,-37.437,779.8682],[144.2954,-37.4358,772.7763],[144.2947,-37.4344,798.3552],[144.298,-37.436,775.6541],[144.2951,-37.429,817.1018],[144.2999,-37.428,854.8033],[144.3005,-37.4252,807.624],[144.3118,-37.4156,741.311],[144.3155,-37.4086,725.1937],[144.3167,-37.4088,725.1937],[144.3159,-37.4055,725.2936],[144.3177,-37.4025,740.6868],[144.3214,-37.4063,721.8788],[144.3265,-37.4064,718.4618],[144.3276,-37.4102,709.2047],[144.3349,-37.4089,735.2392],[144.3386,-37.4133,735.8995],[144.3457,-37.4179,732.0072],[144.3432,-37.4212,747.5082],[144.3421,-37.4206,747.5082],[144.3411,-37.426,742.6442],[144.3427,-37.4262,749.3724],[144.3424,-37.4281,744.0618],[144.3473,-37.4287,731.7892],[144.3473,-37.4321,736.0496],[144.3793,-37.4388,732.5922],[144.3826,-37.4237,726.5595],[144.3801,-37.4236,710.6437],[144.3808,-37.4198,730.5245],[144.3778,-37.4159,736.6822],[144.382,-37.3933,703.3673],[144.4138,-37.3971,697.0176],[144.4158,-37.3963,682.3655],[144.4175,-37.3898,673.0106],[144.4151,-37.3823,635.748],[144.419,-37.3605,634.1215],[144.3928,-37.3582,630.261],[144.3916,-37.3503,609.1052],[144.3957,-37.3316,602.1992],[144.3803,-37.3298,596.2643],[144.3736,-37.3261,582.0315],[144.3691,-37.3201,553.2363],[144.3604,-37.3184,538.2393],[144.3403,-37.3097,663.3228],[144.3302,-37.3021,644.1115],[144.3161,-37.2982,586.2347],[144.3104,-37.2928,592.3777],[144.3142,-37.2872,556.9195],[144.3153,-37.2826,556.3326],[144.3185,-37.2839,554.3046],[144.318,-37.2813,550.5341],[144.3208,-37.2794,545.7642],[144.3197,-37.2715,521.0023],[144.3234,-37.2643,500.9327],[144.3239,-37.2597,499.923],[144.328,-37.2554,496.1525],[144.3335,-37.2569,505.417],[144.333,-37.2538,499.5222],[144.3352,-37.2525,484.6277],[144.3358,-37.2483,507.3515],[144.3377,-37.2465,487.6555],[144.3378,-37.2425,472.9589],[144.344,-37.2262,465.468],[144.3568,-37.2146,451.786],[144.3564,-37.2127,452.7695],[144.3614,-37.2081,459.3518],[144.3684,-37.2067,447.6532],[144.3761,-37.2022,464.4615],[144.3754,-37.1958,453.3773],[144.3603,-37.194,474.6342],[144.363,-37.1794,450.5768],[144.3755,-37.1809,437.0355],[144.3805,-37.175,429.0888],[144.3773,-37.1758,421.6537],[144.3745,-37.1732,412.7155],[144.3453,-37.1697,426.7645],[144.3375,-37.1656,443.3561],[144.331,-37.1697,437.1947],[144.3309,-37.1718,449.2875],[144.3278,-37.1669,427.6389],[144.2922,-37.1636,558.7068],[144.2843,-37.208,481.4904],[144.2766,-37.2091,426.3002],[144.2753,-37.2055,426.667],[144.2571,-37.2034,378.2072],[144.2573,-37.2046,383.5154],[144.1919,-37.1961,318.4106],[144.1907,-37.1938,311.2687],[144.1888,-37.1957,317.4091],[144.1852,-37.1954,322.6958],[144.1904,-37.1661,287.0179],[144.1852,-37.1671,304.4093],[144.1829,-37.1658,301.4708],[144.1827,-37.1669,307.4997],[144.1787,-37.1673,272.5807],[144.178,-37.1651,272.6013],[144.1735,-37.1639,294.4793],[144.1566,-37.1629,276.4805],[144.157,-37.1607,273.3866],[144.146,-37.1623,263.6953],[144.1214,-37.1588,270.8051],[144.1223,-37.1533,267.4686],[144.096,-37.1502,247.6513],[144.0963,-37.1484,249.9302],[144.0934,-37.1502,254.5887],[144.0743,-37.1477,235.9959],[144.0721,-37.1599,265.0339],[144.07,-37.163,270.4865],[144.064,-37.2024,330.1355],[144.0612,-37.202,335.0688],[144.0601,-37.2077,310.2927],[144.0675,-37.2104,293.2467],[144.065,-37.2174,296.6534],[144.0661,-37.2249,333.7207],[144.0606,-37.2368,317.2609],[144.0644,-37.2445,340.0991],[144.0636,-37.2495,339.5229],[144.0627,-37.2521,353.2443],[144.056,-37.2511,382.3897],[144.0558,-37.2496,382.3897],[144.0509,-37.2505,355.7408],[144.042,-37.2561,363.1527],[144.0376,-37.2638,371.4877],[144.0386,-37.2702,368.3019],[144.0357,-37.2685,369.4976],[144.0361,-37.2648,361.5256],[144.0331,-37.2625,365.0103],[144.0253,-37.2628,356.3937],[144.0235,-37.2593,362.9642],[144.022,-37.2628,364.9095],[144.0189,-37.2633,363.9255],[144.0184,-37.2611,355.1138],[144.0186,-37.2626,347.8582],[144.0168,-37.2632,354.8234],[144.0165,-37.261,346.4862],[144.0141,-37.2614,360.6811],[144.0102,-37.2581,331.638],[144.0069,-37.2582,344.2167],[144.0063,-37.2558,328.4411],[144.0038,-37.2567,345.6494],[144.0014,-37.2553,336.0929],[144.0014,-37.2509,321.7271],[143.9949,-37.2441,303.4453],[143.9988,-37.2439,313.6079],[144.0005,-37.2413,304.8206],[143.9967,-37.2353,299.7241],[143.9938,-37.2368,302.0709],[143.9919,-37.2331,291.0189],[143.9872,-37.2319,285.5956],[143.984,-37.2335,292.9388],[143.9826,-37.2311,298.0691],[143.9799,-37.2311,281.1619],[143.9805,-37.2282,278.6114],[143.9769,-37.23,290.0696],[143.9745,-37.2278,291.5554],[143.9706,-37.2282,284.3923],[143.959,-37.2205,272.3949],[143.9584,-37.218,265.8392],[143.9556,-37.216,268.0335],[143.9563,-37.2138,262.2476],[143.952,-37.2037,258.5534],[143.9492,-37.2014,262.3262],[143.9478,-37.1967,256.2914],[143.9494,-37.1945,252.418],[143.875,-37.1864,265.7227],[143.8672,-37.1953,282.1152],[143.8603,-37.2343,313.9124],[143.8584,-37.2353,315.3863],[143.8369,-37.2328,273.2086],[143.8335,-37.2263,261.8763],[143.8221,-37.2259,296.9205],[143.8202,-37.2352,290.2237],[143.7663,-37.2282,333.073],[143.7589,-37.2331,309.5754],[143.7533,-37.2309,299.2884],[143.7443,-37.2211,260.8819],[143.7326,-37.2146,244.8441],[143.7298,-37.2194,261.7164],[143.727,-37.2137,240.93],[143.7228,-37.2174,242.6935],[143.7243,-37.221,250.2423],[143.7201,-37.2218,248.0693],[143.7195,-37.2239,248.9027],[143.7163,-37.2251,252.3331],[143.7168,-37.2274,260.8737],[143.7148,-37.2277,259.6335],[143.7139,-37.2303,277.5269],[143.7097,-37.231,264.5701],[143.7078,-37.2294,275.8086],[143.7046,-37.2309,270.1875],[143.7027,-37.2297,272.2635],[143.6921,-37.2323,277.7193],[143.6904,-37.2296,281.8529],[143.687,-37.229,297.1463],[143.6817,-37.234,292.3165],[143.679,-37.2326,299.7831],[143.6766,-37.2343,298.7158],[143.6717,-37.2332,297.1789],[143.6651,-37.2367,303.5772],[143.648,-37.3217,392.5349],[143.7881,-37.3392,360.8548],[143.7905,-37.3419,351.5966],[143.7914,-37.341,344.5475],[143.7899,-37.34,358.1854],[143.794,-37.3391,343.8023],[143.7932,-37.3437,363.481],[143.8269,-37.3401,359.5487],[143.8408,-37.3426,378.7749],[143.8416,-37.3453,377.743],[143.8688,-37.3483,404.0357],[143.8588,-37.402,416.99],[143.8492,-37.4008,388.5524],[143.8432,-37.4311,427.9753],[143.8577,-37.433,451.8883],[143.8517,-37.4613,462.3295],[143.8529,-37.4628,462.3295],[143.8494,-37.4668,458.8909],[143.9377,-37.4754,555.8777]]]]}
,"properties": {"GID_2": "AUS.10.29_1","GID_0": "AUS","country": "Australia","GID_1": "AUS.10_1","state": "Victoria","NL_NAME_1": "NA","county": "Hepburn","VARNAME_2": "NA","NL_NAME_2": "NA","TYPE_2": "Shire","ENGTYPE_2": "Shire","CC_2": "22910","HASC_2": "AU.VI.HE","name": "Hepburn.county","area_km2": 1471.224,"hist_schema_id": "Elevation0-9000","hist_area_km2": {"225": 1.926,"250": 10.642,"275": 49.969,"300": 83.105,"325": 108.541,"350": 91.811,"375": 75.769,"400": 73.267,"425": 95.456,"450": 96.968,"475": 80.27,"500": 74.497,"525": 83.21,"550": 90.615,"575": 74.921,"600": 64.003,"625": 60.343,"650": 58.838,"675": 47.038,"700": 46.446,"725": 47.791,"750": 33.703,"775": 15.914,"800": 5.17,"825": 0.775,"850": 0.219,"875": 0.017}}}