{"type":"Feature","properties":{"GID_2":"AUS.8.47_1","GID_0":"AUS","country":"Australia","GID_1":"AUS.8_1","state":"SouthAustralia","NL_NAME_1":"NA","county":"PortAugusta","VARNAME_2":"NA","NL_NAME_2":"NA","TYPE_2":"City","ENGTYPE_2":"City","CC_2":"46090","HASC_2":"AU.SA.PA","name":"PortAugusta.county"},
"geometry":{"type": "MultiPolygon","coordinates": [[[[137.7484,-32.4159,1.749],[137.7467,-32.412,4.1161],[137.7491,-32.4103,3.5548],[137.7475,-32.4027,9.9159],[137.7522,-32.4003,3.0455],[137.7508,-32.3897,2.6111],[137.7565,-32.3833,7.7968],[137.7541,-32.3773,13.3732],[137.7651,-32.3621,5.8645],[137.7606,-32.3548,10.8698],[137.6204,-32.3554,37.1506],[137.6202,-32.6731,273.4875],[137.5959,-32.6724,159.0848],[137.596,-32.6873,144.5988],[137.5974,-32.6901,143.23],[137.6025,-32.7447,93.6319],[137.601,-32.7448,88.9371],[137.6052,-32.7982,35.5433],[137.6147,-32.8775,11.9182],[137.8016,-32.7652,2.4855],[137.8022,-32.7592,2.0357],[137.8092,-32.7558,3.552],[137.8094,-32.748,8.8254],[137.8068,-32.7446,1.2552],[137.8039,-32.7452,1.4609],[137.804,-32.7444,2.4004],[137.8065,-32.744,0.2017],[137.8045,-32.7406,0.3967],[137.8057,-32.7441,2.4004],[137.8033,-32.74,1.8553],[137.803,-32.7414,2.1272],[137.8022,-32.7359,0.0],[137.8,-32.736,2.0735],[137.7984,-32.732,1.3123],[137.7899,-32.7267,1.4907],[137.78809999999999,-32.7211,0.1773],[137.7844,-32.7188,3.4052],[137.7813,-32.7137,2.0252],[137.7734,-32.7128,0.0915],[137.7723,-32.7151,1.3246],[137.7641,-32.7192,1.2123],[137.7532,-32.7212,1.3298],[137.7525,-32.7125,1.0431],[137.7499,-32.7092,2.5703],[137.75,-32.702,6.5101],[137.7571,-32.6943,1.2965],[137.7555,-32.6907,3.0375],[137.7561,-32.6856,2.3353],[137.7511,-32.6784,0.8242],[137.7504,-32.6733,13.6163],[137.755,-32.6612,0.0],[137.7532,-32.6592,0.5481],[137.7536,-32.6518,1.8422],[137.7574,-32.6434,1.2978],[137.7595,-32.6269,0.2395],[137.7627,-32.6219,2.4939],[137.7617,-32.615,0.9438],[137.7636,-32.6121,0.3525],[137.7649,-32.5967,0.0],[137.7598,-32.575,1.7313],[137.7604,-32.5692,0.6217],[137.7559,-32.5646,4.437],[137.7589,-32.5596,0.0],[137.7588,-32.5562,-0.0975],[137.7496,-32.5316,1.4591],[137.7509,-32.5309,1.1141],[137.7508,-32.5274,0.9575],[137.7547,-32.5248,1.2807],[137.7561,-32.518,1.1004],[137.762,-32.5101,1.4721],[137.7562,-32.5026,0.9765],[137.7517,-32.5035,2.2044],[137.7551,-32.5013,0.9765],[137.7529,-32.4974,0.6714],[137.7529,-32.4933,0.6202],[137.7545,-32.4891,1.4698],[137.7629,-32.4829,1.2711],[137.7645,-32.4762,2.4673],[137.7642,-32.4742,1.5576],[137.7564,-32.4676,7.7211],[137.7531,-32.4594,1.3807],[137.7592,-32.4464,0.0],[137.7637,-32.4414,0.7302],[137.7605,-32.4367,1.2792],[137.7524,-32.4313,2.1062],[137.7527,-32.4231,1.2045],[137.7541,-32.4215,1.472],[137.749,-32.4182,4.5353],[137.7484,-32.4159,1.749]]],
[[[137.923,-32.4739,176.7128],[137.923,-32.4153,321.0508],[137.7504,-32.4154,1.3257],[137.7524,-32.4183,1.2153],[137.7567,-32.419,1.6505],[137.7564,-32.4305,1.1313],[137.7646,-32.4355,0.911],[137.7661,-32.4395,0.6954],[137.7648,-32.4458,0.3551],[137.7605,-32.4497,0.9004],[137.7579,-32.456,0.8539],[137.7608,-32.463,1.5781],[137.769,-32.4719,3.9163],[137.7706,-32.4803,2.8479],[137.7679,-32.485,5.6483],[137.7588,-32.4913,4.6756],[137.7614,-32.4978,2.5056],[137.7677,-32.5001,3.7516],[137.7725,-32.5051,0.9287],[137.7737,-32.5103,2.7946],[137.7686,-32.5177,0.7983],[137.769,-32.5239,1.4954],[137.7736,-32.5249,1.3996],[137.7759,-32.5232,1.5665],[137.7853,-32.5285,1.5087],[137.7865,-32.5327,3.4982],[137.784,-32.5368,2.3655],[137.7814,-32.5378,0.0],[137.7839,-32.5437,0.3186],[137.7818,-32.5434,0.0],[137.7892,-32.5446,0.0],[137.7893,-32.546,0.0],[137.7819,-32.5461,0.0],[137.7833,-32.5467,0.3979],[137.7823,-32.5503,1.7304],[137.7908,-32.555,1.3229],[137.7982,-32.5554,1.2353],[137.7967,-32.5565,1.319],[137.8033,-32.5584,1.1431],[137.804,-32.556,2.4163],[137.8087,-32.5559,3.0759],[137.823,-32.5603,3.448],[137.826,-32.5639,2.0667],[137.8273,-32.5629,5.7822],[137.8308,-32.5664,5.3521],[137.8358,-32.5747,2.4938],[137.8297,-32.5784,0.7599],[137.8297,-32.5847,0.6134],[137.8336,-32.5883,0.718],[137.8381,-32.5873,1.1024],[137.8309,-32.5898,0.8197],[137.8317,-32.5927,1.0131],[137.834,-32.5933,1.3793],[137.8299,-32.5943,0.6923],[137.8361,-32.597,1.0344],[137.837,-32.5993,1.9231],[137.8353,-32.6022,1.5431],[137.8383,-32.602,1.5756],[137.8391,-32.6036,1.6154],[137.8351,-32.6026,1.5431],[137.8349,-32.6017,1.5431],[137.8363,-32.5985,1.4772],[137.8321,-32.5973,1.2424],[137.8291,-32.5941,0.6923],[137.8277,-32.5974,0.9732],[137.8298,-32.5991,1.5391],[137.8304,-32.6009,1.3918],[137.829,-32.6006,1.3918],[137.8293,-32.5994,1.5391],[137.8284,-32.599,1.1298],[137.8273,-32.5975,0.9732],[137.827,-32.5957,0.5329],[137.8254,-32.598,0.8682],[137.8276,-32.6028,1.2292],[137.8253,-32.6037,1.7102],[137.8269,-32.6029,1.2292],[137.8247,-32.5967,0.6705],[137.8285,-32.5912,0.7527],[137.8231,-32.5847,0.4618],[137.8237,-32.5809,0.2297],[137.8207,-32.5829,1.4841],[137.8218,-32.5806,1.6747],[137.8138,-32.5944,1.363],[137.81,-32.5962,0.6054],[137.809,-32.5944,0.5317],[137.8086,-32.597,0.8767],[137.803,-32.6027,1.6499],[137.8027,-32.608,1.4691],[137.8064,-32.6134,0.4089],[137.8222,-32.6242,2.0465],[137.8363,-32.6376,1.4155],[137.8435,-32.6396,1.5373],[137.8493,-32.6388,1.5888],[137.8496,-32.6409,1.6898],[137.852,-32.6409,1.4134],[137.8566,-32.6558,1.2754],[137.8676,-32.6639,1.0879],[137.8666,-32.6661,1.1303],[137.8682,-32.669,1.0172],[137.8662,-32.6713,1.0971],[137.8678,-32.6716,1.1801],[137.8688,-32.6751,1.2271],[137.8666,-32.6787,1.1722],[137.8642,-32.6792,1.2046],[137.8635,-32.6848,1.2304],[137.86,-32.6894,1.2384],[137.8472,-32.6893,1.3019],[137.8436,-32.6911,1.2102],[137.8422,-32.6942,1.5723],[137.8376,-32.6958,1.4892],[137.8586,-32.7074,6.1859],[137.8875,-32.7154,1.8012],[137.8921,-32.7189,1.7763],[137.8945,-32.7262,3.1944],[137.9068,-32.7309,1.7988],[137.9165,-32.7382,0.0],[137.9204,-32.7445,1.6303],[137.9363,-32.7512,1.2234],[137.9443,-32.7573,1.3012],[137.9409,-32.7612,1.3116],[137.9424,-32.7647,0.918],[137.9367,-32.7667,1.1909],[137.9295,-32.7662,1.2562],[137.9265,-32.7634,1.2991],[137.9253,-32.7645,1.0805],[137.9196,-32.7622,1.1304],[137.9211,-32.7609,1.2201],[137.9182,-32.7595,1.9209],[137.9133,-32.7622,2.9867],[137.9165,-32.7689,1.3337],[137.91,-32.7726,1.2373],[137.906,-32.771,1.4062],[137.905,-32.7732,1.2449],[137.9063,-32.7743,1.2449],[137.9009,-32.7776,1.4804],[137.9029,-32.7783,1.5264],[137.9025,-32.8057,0.3831],[137.9652,-32.8059,48.3646],[137.9555,-32.7814,28.2511],[137.9557,-32.7678,17.712],[137.9476,-32.7508,10.9724],[137.9467,-32.7434,17.3065],[137.943,-32.7345,27.7244],[137.9438,-32.7256,35.0534],[137.941,-32.7144,50.4578],[137.9431,-32.7021,60.336],[137.9426,-32.6933,59.7774],[137.9309,-32.66,37.8316],[137.9229,-32.66,32.3866],[137.923,-32.4739,176.7128]]],
[[[137.8217,-32.5754,1.5732],[137.8207,-32.5732,1.1718],[137.8225,-32.5704,0.9875],[137.8223,-32.5662,1.0761],[137.8202,-32.5732,1.5444],[137.8217,-32.5754,1.5732]]]]}}