{"type": "Feature","bbox": [138.7514,-34.8153,139.1719,-34.4117],"geometry": {"type": "MultiPolygon","coordinates": [[[[139.137,-34.7699,429.7733],[139.1371,-34.7698,429.7733],[139.1373,-34.7696,429.7733],[139.137,-34.7697,429.7733],[139.137,-34.7699,429.7733]]],
[[[139.0327,-34.8109,451.43],[139.0418,-34.8153,468.736],[139.0439,-34.8133,473.2549],[139.0451,-34.8081,461.5795],[139.0517,-34.8017,442.6158],[139.0559,-34.7982,471.2807],[139.0587,-34.8002,456.1618],[139.0672,-34.7924,423.7628],[139.0655,-34.7912,432.1745],[139.0805,-34.7768,414.731],[139.0759,-34.7734,438.9718],[139.0814,-34.7684,431.8237],[139.0839,-34.7689,426.3324],[139.0848,-34.7653,431.647],[139.0862,-34.7663,434.4327],[139.087,-34.7592,456.5585],[139.1384,-34.763,404.9375],[139.1374,-34.7696,416.6909],[139.1416,-34.7679,413.2891],[139.1507,-34.7685,399.0056],[139.1555,-34.7225,339.1185],[139.1588,-34.7129,342.3161],[139.1581,-34.7058,314.1562],[139.1615,-34.7046,318.7179],[139.1672,-34.7095,310.2079],[139.1689,-34.7073,282.5634],[139.1694,-34.691,309.6167],[139.166,-34.685,320.3089],[139.1646,-34.6705,289.2053],[139.1612,-34.6612,299.7164],[139.1614,-34.6544,321.9255],[139.158,-34.6475,334.5403],[139.1591,-34.6405,326.6692],[139.1575,-34.6326,340.092],[139.1626,-34.6211,329.3753],[139.1031,-34.6206,471.9964],[139.101,-34.6129,485.8665],[139.1033,-34.6103,482.2865],[139.1018,-34.604,473.2888],[139.1043,-34.6009,460.278],[139.1027,-34.598,464.6764],[139.1062,-34.5936,469.5027],[139.0982,-34.5835,467.3546],[139.0983,-34.5814,468.9394],[139.0962,-34.5805,453.0705],[139.1007,-34.5649,451.978],[139.1033,-34.5649,450.4447],[139.1059,-34.5627,449.4654],[139.1047,-34.5598,452.4033],[139.1087,-34.5587,430.3533],[139.1106,-34.5556,432.7975],[139.1095,-34.5488,442.5834],[139.1136,-34.5396,439.5681],[139.1118,-34.5357,420.7152],[139.1263,-34.5264,428.0104],[139.1349,-34.5087,442.1286],[139.1461,-34.5108,416.029],[139.1501,-34.5083,416.0688],[139.1549,-34.5086,421.6886],[139.1549,-34.5061,421.3498],[139.1591,-34.501,425.4637],[139.1564,-34.4991,418.2924],[139.1565,-34.4936,425.8954],[139.1598,-34.4921,431.1871],[139.1621,-34.4859,419.971],[139.1656,-34.4841,419.0487],[139.1704,-34.4843,427.6094],[139.1719,-34.4822,432.4921],[139.1701,-34.4781,437.9846],[139.1665,-34.4802,429.723],[139.1616,-34.477,413.0317],[139.1613,-34.4741,397.7139],[139.1564,-34.4682,403.1267],[139.1535,-34.4655,390.4109],[139.1498,-34.4653,387.2286],[139.1513,-34.4624,390.6786],[139.1484,-34.4624,396.502],[139.1433,-34.4582,401.4099],[139.1378,-34.4565,399.0844],[139.1354,-34.4511,389.4499],[139.1311,-34.451,417.5177],[139.131,-34.4462,406.9362],[139.1281,-34.4436,385.8546],[139.1174,-34.441,416.3229],[139.1137,-34.4382,399.2438],[139.112,-34.4388,397.7789],[139.1112,-34.4362,410.572],[139.1125,-34.4343,407.3126],[139.1098,-34.4323,399.6957],[139.1122,-34.4296,402.7492],[139.1094,-34.4237,402.4483],[139.1061,-34.4212,383.2631],[139.1058,-34.4175,379.8264],[139.1079,-34.4139,391.6491],[139.1062,-34.4125,384.0408],[139.1013,-34.4117,376.4712],[139.0796,-34.42,356.2168],[139.0576,-34.4245,346.1602],[139.002,-34.4585,276.3445],[138.9732,-34.4499,294.0112],[138.9747,-34.4601,285.9208],[138.9782,-34.4664,273.9722],[138.9697,-34.4862,275.6761],[138.9773,-34.4886,260.891],[138.9782,-34.4904,260.3513],[138.9701,-34.4988,256.0877],[138.9703,-34.5071,255.4918],[138.9633,-34.5062,250.4482],[138.9594,-34.5113,256.682],[138.9594,-34.5153,245.8134],[138.9492,-34.5256,238.7151],[138.9499,-34.5273,241.6592],[138.9479,-34.5289,245.1433],[138.9488,-34.5316,237.1896],[138.9454,-34.5344,234.2424],[138.9388,-34.5354,263.4851],[138.9366,-34.5388,262.3466],[138.9471,-34.5442,229.9843],[138.9402,-34.5552,227.2851],[138.9366,-34.556,228.5011],[138.9359,-34.5591,229.8653],[138.9309,-34.5608,228.0529],[138.9284,-34.5648,214.0796],[138.9242,-34.5837,194.9167],[138.9196,-34.585,203.8423],[138.9152,-34.5842,191.6499],[138.916,-34.5796,190.8954],[138.9137,-34.5749,186.7125],[138.9136,-34.5768,190.6573],[138.9091,-34.5767,187.859],[138.9022,-34.5724,167.4512],[138.9001,-34.5683,164.5041],[138.898,-34.5694,163.6757],[138.8963,-34.5676,175.3879],[138.8922,-34.5714,164.7542],[138.8907,-34.5691,177.9036],[138.882,-34.5733,146.9205],[138.8742,-34.5742,142.4751],[138.8726,-34.5699,143.0067],[138.8687,-34.567,133.7139],[138.8687,-34.5597,130.1551],[138.8721,-34.5587,145.0545],[138.8721,-34.5575,162.27],[138.8704,-34.5564,127.5456],[138.8674,-34.5583,139.3439],[138.8672,-34.5544,131.5724],[138.8616,-34.5535,142.3324],[138.8605,-34.5487,126.0868],[138.8577,-34.5508,120.2729],[138.8539,-34.5504,120.8156],[138.8563,-34.5529,131.5635],[138.8516,-34.5538,117.2152],[138.8516,-34.5574,112.4058],[138.8401,-34.553,106.309],[138.8372,-34.5541,103.4448],[138.8383,-34.5552,105.5215],[138.8372,-34.5561,105.5215],[138.8321,-34.5545,109.1593],[138.831,-34.5593,109.6981],[138.8325,-34.564,99.55],[138.8269,-34.5704,100.2979],[138.8233,-34.5688,96.6011],[138.8257,-34.5649,95.5129],[138.8206,-34.5637,96.9131],[138.82,-34.561,111.9187],[138.813,-34.5624,90.1939],[138.8132,-34.5578,100.336],[138.8079,-34.5578,115.222],[138.8072,-34.5603,88.9527],[138.8017,-34.5605,95.5623],[138.8006,-34.5587,92.2482],[138.8058,-34.5559,82.4308],[138.8035,-34.5508,88.1129],[138.7964,-34.5522,78.9602],[138.7939,-34.5513,80.021],[138.7932,-34.5526,106.6882],[138.7961,-34.5554,90.8538],[138.7924,-34.5574,74.5734],[138.7883,-34.5564,74.281],[138.7889,-34.5599,84.2682],[138.7912,-34.5609,74.0598],[138.7907,-34.5626,73.3059],[138.7733,-34.5605,67.146],[138.769,-34.5655,65.5388],[138.7704,-34.567,66.7562],[138.7696,-34.5687,68.3255],[138.7618,-34.5692,58.9904],[138.7629,-34.5716,82.2949],[138.7598,-34.5729,69.8556],[138.7579,-34.5767,60.4245],[138.7514,-34.5783,53.8817],[138.7521,-34.5809,54.3487],[138.7582,-34.5836,51.8113],[138.7554,-34.59,66.4796],[138.7639,-34.5907,75.5777],[138.7762,-34.5969,99.4136],[138.776,-34.6032,128.1578],[138.7825,-34.6039,135.0155],[138.7845,-34.6075,145.7333],[138.7756,-34.6136,134.3379],[138.7631,-34.6132,70.9129],[138.7619,-34.6147,59.2319],[138.7654,-34.6182,70.9792],[138.7686,-34.6174,84.5249],[138.7702,-34.6193,66.4559],[138.7732,-34.6191,89.6014],[138.7716,-34.6237,68.8196],[138.7782,-34.6234,84.1735],[138.7778,-34.6261,73.1256],[138.7753,-34.6253,76.4487],[138.7734,-34.6265,80.7072],[138.7767,-34.6303,81.6558],[138.7757,-34.6328,88.0137],[138.7781,-34.6354,77.8465],[138.7799,-34.6364,114.9438],[138.7808,-34.6343,118.1391],[138.7831,-34.6344,96.3218],[138.7863,-34.638,98.4913],[138.7872,-34.6346,84.6289],[138.7905,-34.637,94.1729],[138.792,-34.6354,85.1759],[138.798,-34.64,98.4813],[138.7953,-34.6416,90.6959],[138.7981,-34.6432,104.8449],[138.7939,-34.6443,93.1657],[138.7977,-34.6463,109.5755],[138.7906,-34.6474,117.7827],[138.794,-34.6509,137.8732],[138.7868,-34.6505,108.3145],[138.7895,-34.6528,106.6728],[138.7868,-34.6547,108.5019],[138.7869,-34.6573,109.9509],[138.7928,-34.6562,119.4098],[138.7905,-34.6623,121.8461],[138.7952,-34.6619,119.8746],[138.7952,-34.664,117.6702],[138.7976,-34.6637,123.8282],[138.7981,-34.6655,120.5573],[138.8046,-34.6638,131.4257],[138.8096,-34.6683,166.3423],[138.8146,-34.6677,146.5319],[138.8199,-34.6694,156.103],[138.8228,-34.6683,150.8113],[138.8269,-34.6712,165.3678],[138.829,-34.6683,174.3095],[138.8324,-34.6699,166.2178],[138.8311,-34.671,166.2178],[138.8367,-34.6734,213.305],[138.8409,-34.6732,211.4747],[138.8422,-34.6744,198.9124],[138.8411,-34.6793,211.2086],[138.8456,-34.6814,237.1366],[138.8484,-34.6806,222.9223],[138.8477,-34.6844,239.3674],[138.8533,-34.6866,237.0241],[138.8522,-34.6883,246.3199],[138.8541,-34.6913,253.0],[138.8587,-34.6919,253.0],[138.8619,-34.6949,253.0],[138.8597,-34.7016,260.502],[138.8625,-34.7043,253.0],[138.8675,-34.7015,253.0],[138.8731,-34.7014,253.0],[138.8769,-34.7035,257.3502],[138.8781,-34.7009,253.0],[138.885,-34.6999,253.0],[138.8918,-34.7032,257.0085],[138.8914,-34.7061,255.553],[138.8938,-34.7053,264.2796],[138.8963,-34.7075,262.0936],[138.8983,-34.7047,282.3954],[138.9037,-34.7048,282.8243],[138.9037,-34.7084,283.373],[138.9105,-34.7089,353.455],[138.9101,-34.7112,353.1483],[138.9175,-34.7256,408.2491],[138.9175,-34.7347,470.3442],[138.9267,-34.7349,492.9705],[138.9268,-34.7438,463.6467],[138.9189,-34.7456,422.6676],[138.9292,-34.7527,441.2322],[138.9284,-34.7553,450.6935],[138.9241,-34.7585,464.5605],[138.9305,-34.7569,461.6451],[138.9341,-34.7594,461.4186],[138.9407,-34.7608,454.6414],[138.9419,-34.7635,441.0117],[138.9486,-34.7654,453.7939],[138.9495,-34.7691,446.854],[138.9481,-34.7731,478.2317],[138.953,-34.7757,498.6409],[138.9603,-34.7724,476.5392],[138.9702,-34.7737,449.8975],[138.9899,-34.7698,487.593],[138.9911,-34.7723,484.6731],[138.9881,-34.7814,445.3633],[139.0049,-34.7942,407.2243],[139.0025,-34.8004,408.4834],[139.0046,-34.7991,407.6199],[139.0109,-34.804,432.8542],[139.0176,-34.8045,432.679],[139.0269,-34.8098,443.3994],[139.0327,-34.8109,451.43]]]]}
,"properties": {"GID_2": "AUS.8.5_1","GID_0": "AUS","country": "Australia","GID_1": "AUS.8_1","state": "SouthAustralia","NL_NAME_1": "NA","county": "Barossa","VARNAME_2": "NA","NL_NAME_2": "NA","TYPE_2": "DistrictCouncil","ENGTYPE_2": "DistrictCouncil","CC_2": "40310","HASC_2": "AU.SA.BA","name": "Barossa.county","area_km2": 893.4524,"hist_schema_id": "Elevation0-9000","hist_area_km2": {"50": 0.4364,"75": 3.142,"100": 10.2989,"125": 17.1052,"150": 21.013,"175": 27.2941,"200": 25.5463,"225": 25.667,"250": 36.7343,"275": 60.6371,"300": 29.4379,"325": 31.7679,"350": 61.7937,"375": 95.6998,"400": 95.831,"425": 122.2147,"450": 91.61,"475": 68.7695,"500": 37.973,"525": 18.1787,"550": 8.3234,"575": 3.4377,"600": 0.4013,"625": 0.1395}}}