{"type":"Feature","properties":{"GID_2":"AUS.7.13_1","GID_0":"AUS","country":"Australia","GID_1":"AUS.7_1","state":"Queensland","NL_NAME_1":"NA","county":"Cairns","VARNAME_2":"NA","NL_NAME_2":"NA","TYPE_2":"Region","ENGTYPE_2":"Region","CC_2":"32070","HASC_2":"AU.QL.CS","name":"Cairns.county"},
"geometry":{"type": "MultiPolygon","coordinates": [[[[146.0958,-17.2297,4.267],[146.0962,-17.2269,8.556],[146.0936,-17.2266,6.7055],[146.0931,-17.2239,2.788],[146.0913,-17.2238,0.0],[146.0935,-17.2271,6.7055],[146.0931,-17.23,20.9188],[146.0958,-17.2297,4.267]]],
[[[146.0939,-17.2213,0.0],[146.0932,-17.2227,0.0],[146.095,-17.2231,0.0],[146.095,-17.2225,0.0],[146.0939,-17.2213,0.0]]],
[[[146.0777,-17.2084,0.0],[146.0785,-17.2104,2.0069],[146.0796,-17.2105,2.0069],[146.0794,-17.209,2.0385],[146.0777,-17.2084,0.0]]],
[[[146.0754,-17.2061,4.4202],[146.0769,-17.2072,3.029],[146.0783,-17.2042,0.0],[146.075,-17.2046,4.4202],[146.0754,-17.2061,4.4202]]],
[[[146.0166,-17.156,0.0],[146.0103,-17.152,0.0],[146.0055,-17.1526,0.0],[146.0049,-17.1544,26.5615],[146.0105,-17.161,25.5261],[146.0118,-17.165,4.9063],[146.0125,-17.1606,0.0],[146.0166,-17.156,0.0]]],
[[[146.0048,-16.9249,0.0],[146.0002,-16.9223,0.0],[145.9908,-16.9253,0.0],[145.9888,-16.9312,2.0013],[145.983,-16.9349,0.0],[145.9828,-16.9376,0.0],[145.9855,-16.9422,0.0],[145.988,-16.9435,1.6493],[145.9924,-16.9427,41.0351],[146.0003,-16.9367,4.5407],[146.0048,-16.9249,0.0]]],
[[[146.0058,-16.9232,0.0],[146.0067,-16.9234,0.0],[146.007,-16.9218,0.0],[146.0062,-16.9219,0.0],[146.0058,-16.9232,0.0]]],
[[[145.9769,-16.7593,0.0],[145.9712,-16.7594,10.0001],[145.9743,-16.7609,8.8763],[145.9769,-16.7606,0.0],[145.9769,-16.7593,0.0]]],
[[[145.6945,-16.7313,0.0],[145.6948,-16.7317,0.0],[145.6955,-16.7314,0.0],[145.6951,-16.7311,0.0],[145.6945,-16.7313,0.0]]],
[[[145.6882,-16.7263,0.0],[145.6861,-16.7224,0.0],[145.685,-16.7241,0.0],[145.6788,-16.7264,0.0],[145.6795,-16.7285,1.3784],[145.6852,-16.7254,17.1494],[145.6882,-16.7263,0.0]]],
[[[145.3158,-15.9459,23.1666],[145.3159,-15.9425,74.1388],[145.3173,-15.9428,75.3762],[145.3158,-15.9403,116.3287],[145.3188,-15.9362,137.3556],[145.318,-15.9325,55.7525],[145.3202,-15.9318,34.2574],[145.3188,-15.9293,39.7753],[145.3161,-15.9287,66.4561],[145.3166,-15.9335,64.9075],[145.3118,-15.933,82.1957],[145.3121,-15.9359,103.0191],[145.3084,-15.9373,129.4876],[145.3069,-15.9326,154.696],[145.3032,-15.9325,128.7347],[145.3033,-15.9311,166.2543],[145.3008,-15.9305,133.3825],[145.3023,-15.9297,133.3825],[145.3012,-15.9276,174.3775],[145.294,-15.9298,159.3889],[145.2925,-15.9284,152.9075],[145.2944,-15.9263,199.4862],[145.2933,-15.9247,159.5662],[145.2888,-15.9259,169.6393],[145.2909,-15.922,164.9431],[145.2873,-15.9229,170.4372],[145.2829,-15.9167,175.5933],[145.2854,-15.9158,178.9359],[145.2844,-15.9136,193.0097],[145.2822,-15.9133,192.8356],[145.2837,-15.9121,184.916],[145.2826,-15.9106,191.3568],[145.2876,-15.9063,194.718],[145.2856,-15.903,182.5321],[145.2833,-15.9029,201.4041],[145.2551,-15.933,583.298],[145.2486,-15.9283,590.8571],[145.2463,-15.9175,611.1513],[145.2375,-15.9194,600.7153],[145.23,-15.9232,650.8556],[145.2307,-15.9201,620.9042],[145.2275,-15.9189,609.7838],[145.2227,-15.919,603.2744],[145.2176,-15.9223,537.2012],[145.2156,-15.9217,543.6996],[145.2135,-15.9227,521.7668],[145.2143,-15.9244,528.7791],[145.2115,-15.9319,507.2905],[145.2078,-15.9299,493.9759],[145.2061,-15.9331,507.2515],[145.2019,-15.9348,594.4259],[145.1956,-15.9347,633.2896],[145.1947,-15.9324,611.6292],[145.1848,-15.9293,506.9539],[145.1773,-15.9327,554.9007],[145.1629,-15.9233,832.5323],[145.1611,-15.9234,841.908],[145.1536,-15.9296,698.6057],[145.1457,-15.9274,706.05],[145.1403,-15.9304,595.1697],[145.1388,-15.934,653.2704],[145.1346,-15.9376,845.2678],[145.1364,-15.9439,949.9272],[145.1358,-15.9534,802.4433],[145.13,-15.9521,845.137],[145.1293,-15.9506,853.3206],[145.1264,-15.9509,871.9086],[145.1168,-15.946,575.7141],[145.1045,-15.946,392.4366],[145.1026,-15.9468,411.0235],[145.1015,-15.9527,396.0308],[145.0741,-15.966,311.6976],[145.0732,-15.9673,324.6953],[145.0766,-15.9718,296.296],[145.0781,-15.9773,296.1607],[145.0764,-15.9854,282.6649],[145.07,-15.9935,288.2484],[145.0684,-16.0022,338.749],[145.0721,-16.0131,346.1489],[145.0706,-16.0148,351.0509],[145.0714,-16.0223,329.9369],[145.0704,-16.0239,330.4127],[145.0715,-16.027,301.299],[145.0744,-16.0289,342.3277],[145.0806,-16.0281,415.2531],[145.0848,-16.0374,414.9059],[145.0896,-16.0414,397.1228],[145.0914,-16.047,422.8794],[145.0896,-16.0492,365.7107],[145.0906,-16.0523,354.9125],[145.0874,-16.057,391.8984],[145.0913,-16.062,433.4231],[145.0905,-16.0695,414.042],[145.093,-16.076,463.6902],[145.0895,-16.0808,465.7625],[145.0916,-16.0868,470.5699],[145.0907,-16.0939,403.8746],[145.0823,-16.1047,492.6953],[145.0848,-16.1182,558.8239],[145.0795,-16.1234,626.0263],[145.0772,-16.1234,658.4999],[145.0761,-16.1274,697.2556],[145.0735,-16.1292,688.3582],[145.0738,-16.1339,594.6938],[145.071,-16.1383,575.3569],[145.0686,-16.1368,568.6526],[145.0667,-16.1383,573.7165],[145.063,-16.1372,585.2356],[145.0571,-16.1411,591.3805],[145.0562,-16.1441,661.031],[145.0594,-16.1507,932.5744],[145.0562,-16.1499,911.8837],[145.0525,-16.1562,914.9077],[145.0478,-16.1556,945.4031],[145.0486,-16.1591,935.3954],[145.0448,-16.1628,948.5982],[145.0394,-16.1608,951.465],[145.0382,-16.1577,957.5273],[145.0347,-16.1575,970.3276],[145.0228,-16.151,952.4089],[145.0174,-16.1507,974.6006],[145.0152,-16.1483,991.4445],[145.0089,-16.1462,996.7416],[144.9979,-16.1566,1084.3604],[144.9894,-16.1589,1123.0706],[144.9875,-16.1613,1117.8903],[144.9951,-16.1678,1162.6464],[144.9904,-16.1684,1144.9768],[144.99,-16.1709,1171.6748],[144.9852,-16.1749,1150.145],[144.9843,-16.1801,1182.7986],[144.9858,-16.1886,1209.7512],[144.9906,-16.1938,1258.4272],[145.0024,-16.193,1255.936],[145.0049,-16.195,1264.6135],[145.0041,-16.2004,1306.5647],[145.0119,-16.2009,1283.9131],[145.0159,-16.2032,1326.9795],[145.0136,-16.2077,1271.5953],[145.0095,-16.2098,1243.5834],[145.0164,-16.2174,1251.1958],[145.0262,-16.2244,1294.762],[145.0209,-16.2264,1275.5023],[145.0203,-16.229,1316.2781],[145.0248,-16.2313,1336.692],[145.0336,-16.2306,1242.5059],[145.0544,-16.2408,1260.0682],[145.054,-16.243,1207.4666],[145.0617,-16.249,1156.105],[145.0587,-16.2509,1096.792],[145.0552,-16.2593,1112.5605],[145.061,-16.264,1160.5413],[145.0645,-16.2621,1105.1604],[145.0793,-16.2681,1149.3334],[145.0868,-16.2629,1113.6176],[145.0963,-16.2645,1010.6238],[145.1009,-16.2665,954.1923],[145.1019,-16.269,932.2898],[145.1071,-16.2687,853.0558],[145.1086,-16.2755,872.2911],[145.1122,-16.2748,878.0194],[145.1165,-16.2796,775.1599],[145.1203,-16.2802,740.4029],[145.1216,-16.2825,729.1465],[145.1256,-16.2822,702.0723],[145.1336,-16.2863,805.5524],[145.1314,-16.3028,822.6544],[145.1297,-16.3041,833.5722],[145.1357,-16.3081,757.3063],[145.1385,-16.3081,831.9502],[145.1356,-16.3268,783.3289],[145.1406,-16.3324,781.6048],[145.1401,-16.3354,789.3263],[145.1428,-16.3379,784.8129],[145.1403,-16.3466,794.928],[145.1449,-16.3508,813.2033],[145.1515,-16.349,821.0596],[145.1537,-16.3509,809.8148],[145.159,-16.3491,896.5546],[145.1664,-16.3589,1020.6473],[145.169,-16.3596,1055.0814],[145.1743,-16.3676,1062.6644],[145.1744,-16.3706,1065.1497],[145.172,-16.3723,1094.1887],[145.1732,-16.376,1127.2367],[145.1785,-16.3834,1097.2599],[145.1904,-16.394,1181.1064],[145.1954,-16.3947,1249.7703],[145.2005,-16.3984,1325.3156],[145.2061,-16.3967,1340.4785],[145.214,-16.3999,1301.2166],[145.2156,-16.4104,1316.2413],[145.213,-16.4143,1292.8851],[145.2087,-16.4165,1300.6208],[145.2088,-16.42,1253.0953],[145.2184,-16.4237,1244.551],[145.2223,-16.4269,1187.8569],[145.2217,-16.4291,1180.4121],[145.2258,-16.4315,1212.5422],[145.2254,-16.4363,1185.0759],[145.2286,-16.4421,1151.0891],[145.2359,-16.4459,1156.1826],[145.2404,-16.4456,1145.8054],[145.2402,-16.4494,1150.2897],[145.2443,-16.4575,1153.0745],[145.2429,-16.4643,1217.4202],[145.2523,-16.4643,1166.0698],[145.2594,-16.4682,1184.4718],[145.2677,-16.4658,1178.9243],[145.2697,-16.4665,1172.2695],[145.2688,-16.4725,1176.6763],[145.2658,-16.4719,1179.9536],[145.2627,-16.4751,1203.6749],[145.2636,-16.478,1176.6671],[145.2605,-16.4782,1178.3469],[145.2579,-16.4822,1074.5676],[145.2584,-16.4846,1108.9926],[145.2695,-16.4901,1257.5891],[145.2643,-16.4934,1186.5037],[145.2628,-16.4971,1213.0698],[145.2648,-16.5,1221.525],[145.272,-16.4994,1285.5482],[145.2764,-16.5006,1327.4763],[145.2761,-16.5029,1286.7219],[145.2719,-16.5043,1252.9558],[145.2721,-16.5101,1228.8268],[145.2739,-16.5126,1239.2057],[145.2804,-16.5154,1229.2588],[145.2795,-16.5186,1244.7795],[145.2847,-16.5192,1235.1228],[145.2843,-16.5213,1260.4252],[145.2902,-16.5298,1054.3976],[145.2972,-16.5311,1092.7173],[145.2972,-16.5329,1082.842],[145.2949,-16.5346,1139.5072],[145.2957,-16.5368,1164.4106],[145.2988,-16.5384,1144.21],[145.3027,-16.5375,937.8255],[145.305,-16.5329,783.2294],[145.3093,-16.5311,731.1863],[145.3132,-16.5362,766.1827],[145.3201,-16.5381,788.202],[145.3198,-16.5409,798.5204],[145.3263,-16.5418,848.3062],[145.3258,-16.5518,888.5944],[145.3301,-16.5516,822.3443],[145.3356,-16.5468,714.2449],[145.3456,-16.5475,575.7461],[145.3493,-16.5515,459.4452],[145.352,-16.5518,468.7031],[145.3519,-16.5553,472.6822],[145.3546,-16.5564,461.064],[145.3628,-16.5487,428.699],[145.3629,-16.5433,433.2566],[145.3672,-16.5397,422.3106],[145.3675,-16.5366,438.4229],[145.3722,-16.533,447.2512],[145.3768,-16.5194,140.8329],[145.3843,-16.5202,198.768],[145.3854,-16.5104,180.025],[145.4041,-16.5123,64.6802],[145.4107,-16.52,44.0747],[145.4077,-16.5223,49.0558],[145.4115,-16.5267,119.4969],[145.4103,-16.5276,179.3509],[145.4134,-16.5313,198.0081],[145.4155,-16.5296,124.2466],[145.4332,-16.552,329.3134],[145.4319,-16.5695,207.9099],[145.4394,-16.5702,46.3326],[145.4456,-16.5754,55.6297],[145.4448,-16.5785,107.5625],[145.4425,-16.5792,64.8645],[145.4444,-16.5937,362.2173],[145.4415,-16.5961,386.053],[145.4418,-16.5986,374.9418],[145.4491,-16.5994,380.187],[145.4485,-16.6045,384.3391],[145.4359,-16.6036,403.2906],[145.4438,-16.6102,384.2108],[145.4492,-16.6107,398.5373],[145.4472,-16.6435,463.2009],[145.4549,-16.6444,445.1964],[145.4588,-16.6489,468.972],[145.4615,-16.6477,488.4633],[145.4641,-16.6493,546.45],[145.4697,-16.649,509.5464],[145.469,-16.6465,477.3016],[145.4725,-16.6446,479.5058],[145.4858,-16.6416,972.2177],[145.4907,-16.645,1040.3253],[145.4952,-16.642,822.958],[145.5018,-16.6406,578.4857],[145.5147,-16.6298,485.428],[145.5171,-16.6302,481.4216],[145.5227,-16.6231,556.8613],[145.5298,-16.6234,525.7076],[145.5304,-16.6259,516.5247],[145.5211,-16.6341,479.2135],[145.524,-16.6452,480.3355],[145.52,-16.6488,476.9912],[145.5213,-16.6536,464.0447],[145.5194,-16.6566,455.8113],[145.5216,-16.6603,460.327],[145.5171,-16.6603,453.5105],[145.5137,-16.6647,479.5068],[145.5179,-16.675,481.2336],[145.5224,-16.6715,469.6303],[145.5265,-16.6714,449.0262],[145.5302,-16.6754,581.5062],[145.5378,-16.677,658.386],[145.5439,-16.687,700.3313],[145.5515,-16.6925,653.1252],[145.5654,-16.6938,478.5539],[145.5755,-16.7012,461.9857],[145.5824,-16.7015,466.5838],[145.5865,-16.7059,498.6583],[145.6008,-16.71,635.1166],[145.6057,-16.7146,707.241],[145.6158,-16.7151,728.0339],[145.6231,-16.7211,654.616],[145.6313,-16.7246,588.2986],[145.6325,-16.7276,587.3143],[145.6308,-16.7311,585.718],[145.6335,-16.7361,576.9029],[145.6364,-16.7377,602.7042],[145.6416,-16.7376,604.5572],[145.6476,-16.7423,607.6661],[145.6419,-16.751,606.7678],[145.6491,-16.7617,541.3053],[145.6486,-16.7688,457.926],[145.6517,-16.773,450.5865],[145.652,-16.7837,430.4673],[145.6562,-16.7922,404.522],[145.6539,-16.8032,449.2639],[145.6597,-16.8124,511.9662],[145.6603,-16.8171,574.0876],[145.6659,-16.8198,598.0034],[145.664,-16.8342,419.4648],[145.6599,-16.8382,372.0723],[145.6694,-16.8453,488.8421],[145.6686,-16.8472,498.9816],[145.6623,-16.8481,410.6227],[145.6599,-16.8462,366.403],[145.6439,-16.853,327.8496],[145.6491,-16.8575,314.5776],[145.6549,-16.8586,269.3524],[145.6588,-16.8634,356.3817],[145.6662,-16.8666,314.8546],[145.6661,-16.8689,284.8745],[145.6619,-16.8698,251.7506],[145.6609,-16.8723,240.1115],[145.654,-16.8749,242.5719],[145.6511,-16.8806,309.3551],[145.656,-16.8796,268.3275],[145.6633,-16.8811,172.7348],[145.664,-16.8843,451.3485],[145.6658,-16.8843,479.3232],[145.6693,-16.8897,630.0198],[145.6733,-16.892,701.5966],[145.6736,-16.8941,711.2003],[145.668,-16.9096,926.4537],[145.6609,-16.9169,940.6101],[145.6635,-16.9203,829.972],[145.6615,-16.9287,961.5786],[145.6574,-16.9303,1001.9552],[145.6567,-16.9344,1018.4531],[145.65,-16.9444,742.5494],[145.6519,-16.9504,595.5255],[145.6498,-16.9571,529.6543],[145.6512,-16.9628,568.795],[145.6504,-16.9656,551.6322],[145.6548,-16.9747,612.0619],[145.6521,-16.9751,529.2297],[145.6514,-16.9774,550.7554],[145.6397,-16.9857,776.9629],[145.6371,-16.9961,816.7734],[145.6342,-16.9974,820.6687],[145.633,-17.0033,974.8159],[145.6303,-17.0046,1045.6005],[145.6342,-17.0175,1237.8579],[145.6397,-17.0219,1261.7255],[145.6355,-17.0319,961.5884],[145.6321,-17.0336,940.4758],[145.6306,-17.0371,948.8455],[145.6236,-17.0433,853.6786],[145.6192,-17.0444,881.1855],[145.615,-17.049,915.4876],[145.6146,-17.0515,979.9893],[145.6197,-17.0587,1015.7822],[145.6164,-17.0633,1089.3777],[145.6162,-17.0685,1191.3552],[145.6187,-17.0693,1196.6912],[145.6226,-17.0677,1158.9033],[145.6252,-17.0706,1159.2987],[145.6285,-17.07,1130.7483],[145.6323,-17.0725,1083.1816],[145.6332,-17.0753,1079.595],[145.633,-17.0775,1066.259],[145.6275,-17.0837,1057.1138],[145.6236,-17.0856,1067.9453],[145.6224,-17.0896,1104.9166],[145.6245,-17.091,1093.7788],[145.6239,-17.0968,1073.8636],[145.6305,-17.0989,872.0212],[145.6316,-17.1016,886.1632],[145.6372,-17.1032,824.9412],[145.6393,-17.1059,941.858],[145.6365,-17.1091,956.083],[145.6377,-17.1133,846.0956],[145.6396,-17.114,860.6976],[145.6394,-17.1186,855.7131],[145.6422,-17.1225,887.4523],[145.6526,-17.1245,827.8383],[145.6554,-17.1265,887.2095],[145.6547,-17.1343,804.6241],[145.6559,-17.1353,801.9313],[145.6542,-17.1391,815.7426],[145.6566,-17.1454,815.6828],[145.6592,-17.1467,812.1187],[145.6588,-17.1515,806.7389],[145.6612,-17.1544,793.7568],[145.6696,-17.1544,767.0173],[145.6705,-17.1583,801.7173],[145.6751,-17.1616,770.3538],[145.6749,-17.1641,759.4662],[145.6727,-17.1661,758.3887],[145.673,-17.1691,751.515],[145.6701,-17.1718,765.9998],[145.7045,-17.1746,151.2383],[145.7042,-17.2121,543.9047],[145.7172,-17.2136,489.6187],[145.7231,-17.2314,524.8835],[145.756,-17.2474,97.7742],[145.7601,-17.2388,72.1236],[145.7705,-17.2361,104.6666],[145.7735,-17.2389,75.5152],[145.7725,-17.2473,85.9846],[145.7746,-17.2518,80.0289],[145.7796,-17.2563,78.6889],[145.7794,-17.2629,102.1474],[145.7826,-17.2633,101.041],[145.7856,-17.2697,95.3199],[145.7853,-17.2797,101.172],[145.7906,-17.281,105.8618],[145.7928,-17.288,107.0549],[145.8005,-17.2965,124.8014],[145.8003,-17.3014,114.2393],[145.7945,-17.3044,116.9475],[145.7978,-17.3117,133.9751],[145.7907,-17.3127,148.1838],[145.7849,-17.3193,147.175],[145.788,-17.3233,164.133],[145.7867,-17.3332,209.7597],[145.781,-17.3444,309.1721],[145.7828,-17.3477,307.869],[145.7813,-17.3544,382.7675],[145.7896,-17.3633,770.0688],[145.8015,-17.3702,1005.8583],[145.8031,-17.3737,1071.812],[145.8174,-17.3882,1449.1475],[145.8214,-17.3944,1504.7838],[145.8183,-17.3993,1575.0654],[145.8247,-17.4134,1110.0735],[145.8237,-17.4215,1035.5853],[145.8321,-17.4376,297.1469],[145.8322,-17.4469,131.3075],[145.8342,-17.4501,93.8976],[145.8358,-17.4481,112.0532],[145.8371,-17.453,284.0077],[145.8399,-17.4542,235.9939],[145.8375,-17.4761,129.8467],[145.8346,-17.4763,187.6264],[145.8368,-17.4826,117.2155],[145.8351,-17.4974,371.7192],[145.8503,-17.5001,225.9523],[145.8603,-17.5061,228.7874],[145.8662,-17.5048,338.4583],[145.8786,-17.4986,88.2141],[145.8822,-17.4906,209.6955],[145.8844,-17.4898,249.5389],[145.8863,-17.4917,178.5216],[145.8936,-17.4896,208.0988],[145.8953,-17.4875,267.9481],[145.8935,-17.4844,247.4874],[145.8949,-17.4811,213.5815],[145.9037,-17.4764,365.6161],[145.9063,-17.4803,275.2313],[145.9138,-17.4851,384.5586],[145.9163,-17.4891,232.2155],[145.9187,-17.5013,235.4941],[145.9213,-17.5003,224.4157],[145.9293,-17.5036,199.1155],[145.9366,-17.494,70.9076],[145.9475,-17.4936,86.0737],[145.9505,-17.4914,94.6711],[145.9508,-17.4873,80.9888],[145.9476,-17.487,65.7372],[145.9497,-17.4566,20.5674],[145.9536,-17.457,19.2852],[145.9555,-17.4455,25.9524],[145.9596,-17.4485,21.6358],[145.9656,-17.4497,35.748],[145.9661,-17.445,58.3468],[145.9935,-17.4466,11.5085],[145.9937,-17.4447,8.026],[146.0226,-17.4474,106.4238],[146.0222,-17.4512,95.4966],[146.0316,-17.452,183.4121],[146.0311,-17.4495,194.9155],[146.0366,-17.4495,134.6671],[146.0394,-17.4422,193.9446],[146.0422,-17.4414,247.1652],[146.0414,-17.4385,193.1273],[146.0382,-17.4381,113.0077],[146.0351,-17.4344,45.716],[146.0339,-17.4307,21.3264],[146.0359,-17.4328,28.4779],[146.0407,-17.4285,25.4601],[146.043,-17.4326,41.1944],[146.0459,-17.433,22.4212],[146.0471,-17.4223,12.5403],[146.0445,-17.419,9.9511],[146.0582,-17.413,5.296],[146.0563,-17.4097,6.4171],[146.058,-17.4094,8.1966],[146.0579,-17.4079,9.5009],[146.0592,-17.4084,8.1966],[146.0583,-17.4104,6.7506],[146.061,-17.4101,5.4497],[146.0601,-17.4079,5.4601],[146.0618,-17.409,4.4207],[146.0625,-17.4077,4.9994],[146.0592,-17.403,25.1861],[146.0725,-17.4034,0.0],[146.0732,-17.3947,0.0],[146.067,-17.3872,0.0],[146.0618,-17.3846,23.4972],[146.055,-17.3867,13.1696],[146.0468,-17.3802,2.5108],[146.0357,-17.3596,3.1336],[146.0316,-17.3605,0.0],[146.0253,-17.3535,1.9997],[146.0111,-17.3285,0.0],[146.0002,-17.2971,6.5582],[146.0005,-17.2908,2.9055],[145.9978,-17.2863,77.9331],[145.9957,-17.2733,7.2503],[145.9827,-17.2488,4.2336],[145.9797,-17.2472,0.0],[145.9751,-17.2478,13.0666],[145.9716,-17.242,1.6739],[145.9702,-17.2342,3.4092],[145.9714,-17.2246,0.0],[145.97,-17.2251,0.0],[145.9674,-17.2227,2.0975],[145.9707,-17.2183,1.7112],[145.9701,-17.2145,1.9368],[145.9644,-17.2029,12.2236],[145.9613,-17.1901,3.4653],[145.9613,-17.1785,2.7533],[145.9646,-17.1705,20.0992],[145.9246,-17.1654,426.4352],[145.925,-17.1589,593.0002],[145.9216,-17.1555,589.6117],[145.9176,-17.1457,731.1854],[145.9124,-17.1409,764.5547],[145.9109,-17.1352,731.9792],[145.9117,-17.1328,731.2532],[145.8972,-17.1156,597.7546],[145.8924,-17.105,828.4595],[145.8929,-17.1028,839.7834],[145.8955,-17.1014,909.5317],[145.8812,-17.0918,827.8273],[145.877,-17.0784,841.4391],[145.8716,-17.0718,734.4052],[145.8689,-17.0629,716.6669],[145.863,-17.0567,637.5933],[145.8636,-17.0513,497.6029],[145.8659,-17.0492,536.6407],[145.865,-17.0461,598.7433],[145.8525,-17.0277,517.1218],[145.8533,-17.0248,524.4233],[145.8579,-17.0228,492.5803],[145.8531,-17.0162,274.2239],[145.8541,-17.0113,331.2137],[145.8578,-17.009,379.534],[145.8531,-17.0035,366.0977],[145.855,-16.9949,227.1092],[145.8578,-16.9918,315.1995],[145.8586,-16.9877,413.1273],[145.8534,-16.9769,524.2773],[145.8612,-16.9651,511.5704],[145.8611,-16.9595,393.2415],[145.8653,-16.9506,774.2954],[145.8618,-16.9439,728.4103],[145.8518,-16.9321,722.2795],[145.8483,-16.9303,748.2328],[145.8476,-16.926,637.8595],[145.8532,-16.9182,376.791],[145.8436,-16.9048,509.1832],[145.8375,-16.8997,508.0467],[145.8377,-16.8982,450.697],[145.852,-16.8941,145.0128],[145.8477,-16.8851,212.2464],[145.8502,-16.884,210.8206],[145.8506,-16.8793,88.1754],[145.8533,-16.8796,51.7686],[145.8527,-16.8744,7.961],[145.8487,-16.8712,0.0],[145.8474,-16.8763,18.8011],[145.8394,-16.8784,4.6254],[145.8339,-16.885,24.7824],[145.8258,-16.8892,1.8255],[145.8228,-16.8987,1.945],[145.8199,-16.9015,7.5507],[145.8121,-16.9033,11.5903],[145.8118,-16.9076,28.5371],[145.81,-16.9094,3.8564],[145.8073,-16.9082,4.6004],[145.7989,-16.9107,7.7215],[145.7985,-16.9089,0.0],[145.7931,-16.9106,8.7614],[145.7906,-16.9166,1.8098],[145.7929,-16.9183,6.8913],[145.7927,-16.9204,3.4941],[145.7905,-16.9186,1.8723],[145.7858,-16.9249,1.1475],[145.7833,-16.9357,0.0],[145.785,-16.9411,6.3535],[145.7792,-16.9404,1.1561],[145.778,-16.9351,1.6241],[145.7834,-16.917,0.0],[145.7766,-16.9182,2.5729],[145.7649,-16.9073,6.0959],[145.7631,-16.9044,5.8871],[145.764,-16.903,4.1207],[145.7624,-16.8979,11.0497],[145.7645,-16.8878,14.793],[145.7711,-16.8843,5.5815],[145.7686,-16.8823,12.4379],[145.7736,-16.8829,5.3738],[145.777,-16.8804,0.0],[145.7759,-16.8754,0.0],[145.7682,-16.8725,9.5174],[145.7655,-16.8692,15.2473],[145.7699,-16.8723,8.6424],[145.774,-16.8722,0.0],[145.7741,-16.8741,0.0],[145.7749,-16.87,0.0],[145.77,-16.8655,1.3028],[145.76,-16.8613,0.7884],[145.7448,-16.8454,5.5782],[145.7376,-16.8332,7.1525],[145.7316,-16.8166,3.2205],[145.7244,-16.8056,1.2835],[145.7249,-16.8039,0.0],[145.7204,-16.8001,20.7393],[145.7182,-16.8014,15.3177],[145.7186,-16.8031,8.1413],[145.715,-16.8027,0.0],[145.7065,-16.7915,9.2964],[145.7021,-16.7889,1.9431],[145.6953,-16.7756,2.1134],[145.694,-16.7756,2.1134],[145.6928,-16.7797,4.3721],[145.691,-16.7804,3.5279],[145.6863,-16.7789,3.1591],[145.6827,-16.7756,2.9742],[145.6725,-16.7567,4.279],[145.671,-16.7374,0.0],[145.6664,-16.7345,0.0],[145.6637,-16.7363,25.3777],[145.6552,-16.73,6.9324],[145.6512,-16.7295,1.7563],[145.6291,-16.7053,10.8341],[145.6261,-16.7045,0.0],[145.6215,-16.6995,0.0],[145.6043,-16.694,3.5274],[145.5974,-16.694,5.7535],[145.5903,-16.6889,18.6867],[145.5819,-16.6872,13.1321],[145.5729,-16.6687,0.0],[145.565,-16.6432,5.3696],[145.5526,-16.6288,9.2667],[145.5491,-16.6275,6.3145],[145.5443,-16.6201,29.9383],[145.5309,-16.611,0.0],[145.5271,-16.6035,7.9614],[145.523,-16.601,0.0],[145.5221,-16.5863,1.3877],[145.5173,-16.5851,4.2488],[145.5162,-16.5863,22.6788],[145.5137,-16.5844,0.0],[145.5129,-16.5743,0.0],[145.5087,-16.5709,3.884],[145.5095,-16.5689,1.0941],[145.506,-16.5655,11.5272],[145.5,-16.5529,0.0],[145.4901,-16.5454,0.5],[145.4899,-16.5399,0.0],[145.485,-16.5369,12.7442],[145.47,-16.5144,0.0],[145.4677,-16.5034,0.0],[145.47,-16.4848,0.0],[145.4686,-16.4799,0.0],[145.465,-16.4771,0.0],[145.4614,-16.4787,4.4942],[145.4508,-16.4789,4.4462],[145.4422,-16.4724,0.0],[145.4327,-16.4732,13.0142],[145.4323,-16.4766,15.4807],[145.4225,-16.4708,0.0],[145.4173,-16.4698,2.9633],[145.4118,-16.4635,0.0],[145.4095,-16.4568,0.0],[145.4082,-16.4402,0.0],[145.4063,-16.4358,0.0],[145.4076,-16.4335,0.0],[145.4052,-16.4335,4.1433],[145.4074,-16.4316,0.0],[145.4118,-16.4082,0.0],[145.4199,-16.3879,0.0],[145.4178,-16.3814,0.0],[145.4149,-16.3801,0.0],[145.4121,-16.3762,0.0],[145.4167,-16.3588,0.0],[145.4157,-16.3484,0.0],[145.4182,-16.3383,0.0],[145.4259,-16.3257,2.3214],[145.4397,-16.31,0.0],[145.4462,-16.2985,0.0],[145.4476,-16.2896,2.3937],[145.4557,-16.2886,1.1369],[145.4596,-16.29,0.0],[145.4771,-16.2752,5.8007],[145.4823,-16.2754,58.0579],[145.4849,-16.2777,51.6873],[145.4889,-16.2767,0.0],[145.4847,-16.2744,0.0],[145.4789,-16.268,0.0],[145.4802,-16.2627,0.0],[145.4775,-16.2593,0.0],[145.4819,-16.2475,0.0],[145.4819,-16.2414,0.0],[145.4704,-16.2358,0.0],[145.4701,-16.2248,0.0],[145.4717,-16.2206,0.0],[145.4688,-16.2153,0.0],[145.4693,-16.2109,0.0],[145.4637,-16.2066,0.0],[145.4601,-16.207,0.0],[145.4553,-16.2014,0.0],[145.4491,-16.2027,0.0],[145.4449,-16.2009,0.0],[145.4413,-16.1746,0.0],[145.4455,-16.1676,0.0],[145.4457,-16.1535,0.0],[145.4505,-16.1428,1.6625],[145.4399,-16.1419,5.8235],[145.4488,-16.1409,15.1273],[145.4513,-16.1423,0.0],[145.452,-16.1412,0.0],[145.4535,-16.1355,0.0],[145.4597,-16.1263,0.0],[145.4588,-16.112,0.0],[145.4668,-16.1012,5.2097],[145.4675,-16.0875,0.0],[145.4709,-16.0822,0.0],[145.4748,-16.0807,3.0075],[145.4769,-16.0761,0.0],[145.4755,-16.0735,0.0],[145.4709,-16.0759,0.0],[145.4648,-16.0664,10.6256],[145.4636,-16.036,0.0],[145.4557,-16.0306,0.0],[145.4524,-16.0223,0.0],[145.4507,-16.0093,0.0],[145.4396,-16.0003,0.0],[145.4343,-15.9981,0.0],[145.4339,-15.9902,14.7038],[145.4312,-15.989,7.738],[145.4271,-15.9795,0.0],[145.4278,-15.9729,7.7866],[145.4144,-15.9568,42.4616],[145.4138,-15.951,3.0304],[145.4106,-15.9485,37.8093],[145.4088,-15.9444,0.0],[145.4054,-15.9434,0.0],[145.4043,-15.9403,4.541],[145.3935,-15.9398,12.8211],[145.3812,-15.9237,0.0],[145.3772,-15.9264,7.8779],[145.3704,-15.9246,13.1101],[145.3673,-15.9217,5.6627],[145.3604,-15.9219,1.9145],[145.3477,-15.9315,9.1779],[145.345,-15.9385,8.4908],[145.3361,-15.9429,2.5],[145.3363,-15.9505,21.616],[145.3324,-15.9464,8.0459],[145.3247,-15.9428,16.8905],[145.3215,-15.9439,8.1794],[145.3198,-15.9483,4.7712],[145.3202,-15.9572,11.6088],[145.3276,-15.9578,225.0182],[145.3308,-15.9542,204.1263],[145.3344,-15.956,181.1203],[145.337,-15.9544,153.4912],[145.3367,-15.9504,21.616],[145.3381,-15.9478,12.1514],[145.3398,-15.9489,12.6856],[145.3388,-15.9514,46.184],[145.3406,-15.9526,22.1417],[145.3399,-15.9535,61.9053],[145.3434,-15.9559,44.1126],[145.342,-15.9601,93.0354],[145.3315,-15.9668,193.2139],[145.3226,-15.97,192.2352],[145.3131,-15.9827,205.1253],[145.3086,-15.983,193.053],[145.3057,-15.9887,220.2306],[145.2998,-15.9898,188.7378],[145.2995,-15.9919,194.0797],[145.2946,-15.9956,174.8921],[145.289,-15.9922,176.0844],[145.287,-15.9924,158.7192],[145.2887,-15.9859,159.9836],[145.2873,-15.9808,151.4001],[145.2952,-15.9808,155.8207],[145.2985,-15.9789,152.2893],[145.2995,-15.9766,148.3914],[145.2951,-15.9703,145.0722],[145.3023,-15.9668,144.8109],[145.304,-15.9609,138.4354],[145.311,-15.9635,122.738],[145.3177,-15.9617,16.5055],[145.313,-15.9561,184.9424],[145.3154,-15.9533,186.3081],[145.3123,-15.9482,152.3683],[145.3158,-15.9459,23.1666]]],
[[[145.5677,-16.3861,5.1485],[145.5708,-16.3899,7.3686],[145.5714,-16.3864,4.5157],[145.5687,-16.3844,0.8558],[145.5677,-16.3861,5.1485]]],
[[[145.5588,-16.3828,0.0],[145.5589,-16.3846,0.0],[145.5615,-16.3843,1.9783],[145.5628,-16.3817,0.0],[145.5621,-16.3814,0.0],[145.5588,-16.3828,0.0]]],
[[[145.5666,-16.382,0.0],[145.5662,-16.3824,0.0],[145.5676,-16.3833,1.8451],[145.5679,-16.3828,0.0],[145.5666,-16.382,0.0]]],
[[[145.5063,-16.3008,0.0],[145.5025,-16.2989,0.0],[145.4995,-16.2929,0.0],[145.4925,-16.2911,0.0],[145.4953,-16.2965,38.022],[145.5013,-16.2989,28.2692],[145.5033,-16.3027,25.6546],[145.5069,-16.3043,0.0],[145.5063,-16.3008,0.0]]],
[[[145.4479,-16.1698,0.0],[145.4471,-16.1704,0.0],[145.4474,-16.1708,0.0],[145.4484,-16.1706,0.0],[145.4479,-16.1698,0.0]]]]}}