{"type": "Feature","bbox": [117.9073,-33.8049,119.433,-33.2727],"geometry": {"type": "MultiPolygon","coordinates": [[[[117.9073,-33.4655,310.7964],[117.9103,-33.4876,322.4503],[117.9377,-33.4918,334.003],[117.9431,-33.4996,354.4707],[117.9418,-33.5645,356.1023],[117.9392,-33.5638,356.1792],[117.9388,-33.6013,336.2836],[117.9495,-33.5986,315.1782],[117.9495,-33.6209,306.6207],[117.9509,-33.6209,300.8996],[117.951,-33.7112,282.3907],[117.9447,-33.7112,282.6168],[117.9447,-33.7185,289.148],[117.949,-33.7185,288.1987],[117.949,-33.732,285.9257],[117.9523,-33.7321,284.4319],[117.9496,-33.7351,284.3716],[117.9464,-33.7638,314.7099],[117.9466,-33.7873,307.2557],[117.9486,-33.7875,309.8129],[117.9711,-33.7875,311.5374],[117.9712,-33.7675,303.2877],[117.9895,-33.7675,292.8581],[117.9895,-33.7875,310.7159],[118.0022,-33.7876,302.3347],[118.0022,-33.7715,293.8137],[118.0552,-33.7716,290.3628],[118.0552,-33.7873,294.5269],[118.0762,-33.778,310.7926],[118.113,-33.7774,291.6319],[118.113,-33.775,291.534],[118.1217,-33.7752,295.9936],[118.1218,-33.7791,291.762],[118.1267,-33.7785,291.5981],[118.1417,-33.7809,292.2175],[118.1717,-33.7807,295.0978],[118.1717,-33.7953,298.3159],[118.2099,-33.7952,299.7432],[118.2099,-33.7972,298.9859],[118.2334,-33.7972,303.8239],[118.2335,-33.7791,312.0691],[118.2944,-33.779,323.7217],[118.2945,-33.7722,332.2164],[118.3645,-33.7723,351.8591],[118.3645,-33.7809,354.1248],[118.4291,-33.781,311.8617],[118.4291,-33.7739,310.4858],[118.4487,-33.7738,306.878],[118.4487,-33.7847,306.8438],[118.5002,-33.7845,296.1855],[118.5002,-33.7866,296.0542],[118.5237,-33.7865,294.9024],[118.5237,-33.7676,295.518],[118.5416,-33.777,294.4087],[118.6939,-33.7763,307.8636],[118.6939,-33.8045,307.6187],[118.7761,-33.8049,285.0381],[118.7761,-33.7848,283.7329],[118.8214,-33.7848,290.409],[118.8215,-33.7708,286.3174],[118.8772,-33.7708,305.4005],[118.8772,-33.7758,306.2878],[118.9227,-33.7758,306.3091],[118.9226,-33.7506,301.6539],[118.9208,-33.7482,302.7245],[118.9158,-33.7482,301.2394],[118.9158,-33.7042,338.7355],[119.2017,-33.7034,273.6562],[119.2016,-33.6323,290.1472],[119.2677,-33.6532,310.7601],[119.2634,-33.6391,298.1481],[119.2513,-33.5734,297.7099],[119.3761,-33.6128,286.0157],[119.3816,-33.6062,286.3422],[119.3904,-33.6027,286.9974],[119.3988,-33.5934,286.4078],[119.407,-33.5749,294.0252],[119.433,-33.5404,308.4702],[119.1343,-33.5401,294.4911],[119.135,-33.3227,291.091],[119.1254,-33.3227,295.6318],[119.1254,-33.317,291.9141],[119.1192,-33.3092,291.2509],[119.0231,-33.3083,331.2232],[119.0191,-33.3264,328.8107],[118.9016,-33.3016,335.5536],[118.8893,-33.2867,349.9653],[118.8088,-33.3303,297.0402],[118.748,-33.2727,295.5504],[118.6793,-33.3318,315.8684],[118.633,-33.2851,316.364],[118.5998,-33.3007,344.8922],[118.5985,-33.3385,357.5023],[118.5534,-33.3387,302.8971],[118.5534,-33.3442,304.2371],[118.4755,-33.3441,282.2046],[118.4755,-33.3411,281.9701],[118.4538,-33.341,279.6812],[118.4581,-33.329,280.6299],[118.4575,-33.3244,280.3975],[118.4607,-33.3214,280.1461],[118.4193,-33.3215,284.3424],[118.4172,-33.3277,282.8084],[118.4134,-33.3321,282.3013],[118.354,-33.3324,326.8127],[118.3541,-33.3162,307.882],[118.3329,-33.3162,325.8049],[118.333,-33.3205,328.7038],[118.2929,-33.3204,361.1357],[118.2929,-33.3249,336.2165],[118.2672,-33.3249,369.57],[118.2609,-33.3175,386.7437],[118.261,-33.3383,377.7784],[118.2436,-33.3382,380.3339],[118.2448,-33.3677,377.4501],[118.2117,-33.3677,372.7895],[118.2075,-33.3607,351.2323],[118.1591,-33.3608,344.9017],[118.1592,-33.3639,350.9883],[118.1186,-33.3637,355.3166],[118.1192,-33.3678,346.0742],[118.0452,-33.3679,296.9189],[118.0452,-33.3521,281.1962],[118.0236,-33.3522,279.8163],[118.0237,-33.3617,283.0988],[118.006,-33.3619,277.5162],[118.006,-33.3695,277.9113],[117.9675,-33.3695,274.2367],[117.9802,-33.3881,287.6553],[117.9664,-33.3881,302.3648],[117.9664,-33.4019,314.9489],[117.9573,-33.4018,323.7798],[117.9579,-33.4083,338.2708],[117.9308,-33.4084,301.5229],[117.9308,-33.4057,294.1861],[117.9286,-33.4057,294.376],[117.9287,-33.413,315.8457],[117.9306,-33.413,316.7271],[117.9317,-33.437,286.4941],[117.9302,-33.471,314.4082],[117.9073,-33.4655,310.7964]]]]}
,"properties": {"GID_2": "AUS.11.64_1","GID_0": "AUS","country": "Australia","GID_1": "AUS.11_1","state": "WesternAustralia","NL_NAME_1": "NA","county": "Kent","VARNAME_2": "NA","NL_NAME_2": "NA","TYPE_2": "Shire","ENGTYPE_2": "Shire","CC_2": "54480","HASC_2": "AU.WA.KN","name": "Kent.county","area_km2": 5630.354,"hist_schema_id": "Elevation0-9000","hist_area_km2": {"275": 607.214,"300": 2060.299,"325": 1677.871,"350": 1043.262,"375": 227.61,"400": 14.1}}}