{"type": "Feature","bbox": [116.2659,-33.7009,117.1061,-33.1802],"geometry": {"type": "MultiPolygon","coordinates": [[[[116.7324,-33.6833,211.3176],[116.7321,-33.6805,213.9839],[116.7393,-33.6766,211.2767],[116.7531,-33.6766,219.9737],[116.7531,-33.6715,237.5375],[116.7568,-33.6715,226.6253],[116.7568,-33.6773,235.4762],[116.7698,-33.6772,297.9968],[116.7698,-33.6854,283.6719],[116.7663,-33.6854,269.268],[116.7663,-33.6907,282.9402],[116.7685,-33.6907,274.5419],[116.7685,-33.687,276.918],[116.7794,-33.687,311.7101],[116.7794,-33.6971,301.188],[116.7855,-33.6977,297.3091],[116.7914,-33.697,307.37],[116.7922,-33.6925,303.2112],[116.7992,-33.6927,284.3914],[116.7992,-33.687,301.5938],[116.8097,-33.687,258.1501],[116.8097,-33.6733,244.2037],[116.8252,-33.6785,280.6403],[116.8298,-33.6785,283.0526],[116.8298,-33.6733,276.0646],[116.8514,-33.6733,302.3609],[116.8516,-33.6751,310.175],[116.8716,-33.6751,228.2923],[116.8745,-33.6785,229.1888],[116.9048,-33.6785,235.9215],[116.9048,-33.6675,228.5857],[116.9334,-33.6675,256.3639],[116.9398,-33.6696,245.4476],[116.9868,-33.6697,258.3588],[116.9868,-33.6333,246.1103],[116.9846,-33.6331,245.6202],[116.9846,-33.6224,251.9896],[116.9827,-33.6224,251.2469],[116.9825,-33.5541,254.5955],[116.9803,-33.5443,269.3433],[116.9824,-33.5414,276.0523],[116.9823,-33.4977,234.8009],[116.9835,-33.5011,233.7388],[116.9865,-33.503,232.8045],[116.9889,-33.5007,237.2716],[116.9939,-33.5049,234.9671],[116.9994,-33.5022,234.379],[117.0032,-33.507,237.864],[117.0149,-33.5091,238.8144],[117.0185,-33.5047,235.431],[117.0278,-33.5003,235.9699],[117.0268,-33.4985,235.5168],[117.0281,-33.4972,236.8],[117.0425,-33.491,238.8456],[117.0454,-33.4928,239.3681],[117.0459,-33.4959,238.8934],[117.048,-33.4952,237.9398],[117.0494,-33.4974,239.5458],[117.0541,-33.4987,238.91309999999999],[117.0542,-33.5091,280.0019],[117.0659,-33.509,243.3256],[117.066,-33.5043,240.5993],[117.0716,-33.5037,239.6756],[117.0733,-33.4992,238.3924],[117.0801,-33.4969,237.5742],[117.0825,-33.498,238.0253],[117.0913,-33.4967,238.6733],[117.0913,-33.4938,248.9254],[117.1054,-33.4938,251.6973],[117.1054,-33.4822,255.6164],[117.0967,-33.4822,255.7469],[117.0967,-33.4693,261.6213],[117.0913,-33.4693,273.9423],[117.0913,-33.4606,289.9612],[117.1061,-33.4606,264.5667],[117.1061,-33.4475,329.0736],[117.0953,-33.4475,307.1717],[117.0963,-33.4347,335.4572],[117.0894,-33.4347,306.7131],[117.0894,-33.4313,309.4781],[117.0843,-33.4313,290.5985],[117.0841,-33.4266,307.864],[117.0928,-33.4265,331.1023],[117.0927,-33.4173,337.9031],[117.0834,-33.4164,334.0173],[117.0882,-33.414,335.3183],[117.088,-33.4044,337.0714],[117.0971,-33.4044,322.4339],[117.0971,-33.386,305.9977],[117.0861,-33.3861,290.1165],[117.0861,-33.3736,280.3337],[117.0875,-33.3735,280.7531],[117.0872,-33.3263,328.5939],[117.0853,-33.3263,334.3975],[117.0846,-33.2833,286.0063],[117.0959,-33.2833,294.1134],[117.0957,-33.2542,264.5452],[117.0952,-33.2525,265.0455],[117.09,-33.2531,263.0093],[117.0861,-33.2498,263.0374],[117.0905,-33.2462,262.2162],[117.0875,-33.2446,262.4135],[117.0861,-33.2415,261.5292],[117.0899,-33.2404,262.0045],[117.0895,-33.2365,261.9792],[117.0924,-33.2352,263.0867],[117.091,-33.2327,262.6474],[117.0923,-33.2309,262.9734],[117.087,-33.2245,262.3451],[117.0884,-33.2029,278.9276],[117.0852,-33.2029,280.981],[117.0852,-33.1957,290.793],[117.0832,-33.1957,300.9636],[117.0834,-33.1802,272.463],[117.0676,-33.1802,277.3121],[117.0676,-33.1827,281.8289],[117.0418,-33.181,308.8479],[117.0418,-33.1884,286.9316],[117.0188,-33.1884,315.5034],[117.0188,-33.1863,322.1812],[117.0118,-33.1907,320.017],[117.0081,-33.1912,344.2288],[117.0084,-33.1957,323.5834],[116.9999,-33.1963,316.1144],[116.9999,-33.1999,299.7973],[116.9651,-33.1999,338.7372],[116.9651,-33.2053,358.1622],[116.9448,-33.2041,335.1515],[116.9449,-33.2163,302.3084],[116.9112,-33.217,349.0971],[116.9112,-33.2223,342.9105],[116.8941,-33.2223,317.055],[116.8941,-33.2289,322.8027],[116.8592,-33.2284,279.2915],[116.8594,-33.2242,279.2671],[116.8511,-33.2338,267.119],[116.8512,-33.2417,265.2884],[116.8406,-33.2416,265.3753],[116.8349,-33.2528,260.4571],[116.81,-33.2528,255.6065],[116.81,-33.2465,258.1139],[116.8055,-33.2493,257.8331],[116.8056,-33.2507,260.459],[116.7892,-33.2504,258.73],[116.7892,-33.2554,253.0704],[116.779,-33.2554,252.4247],[116.7811,-33.254,253.5593],[116.7719,-33.2512,253.8117],[116.7718,-33.2621,256.8797],[116.7093,-33.2624,275.4679],[116.7092,-33.2611,268.8225],[116.6931,-33.261,268.1372],[116.6931,-33.274,296.8771],[116.6952,-33.2811,309.7253],[116.6702,-33.2811,292.8726],[116.5839,-33.3111,290.0027],[116.5575,-33.311,283.8393],[116.5571,-33.3038,308.6699],[116.5272,-33.3038,293.9067],[116.5272,-33.3198,343.3294],[116.4541,-33.3398,331.657],[116.454,-33.3434,320.0366],[116.3828,-33.3433,280.0921],[116.3823,-33.4562,281.7096],[116.3332,-33.4729,242.6322],[116.3332,-33.4952,237.1331],[116.3246,-33.4952,247.5467],[116.3246,-33.5024,256.3735],[116.2802,-33.5015,199.4699],[116.2802,-33.4994,206.3791],[116.2659,-33.4994,197.4689],[116.276,-33.5115,195.4858],[116.2778,-33.5159,196.6936],[116.2899,-33.526,197.2158],[116.2886,-33.5289,197.6205],[116.2931,-33.5341,204.3743],[116.2945,-33.5398,207.0934],[116.2926,-33.5423,200.1814],[116.2965,-33.5496,200.4339],[116.3027,-33.5553,205.6461],[116.3018,-33.5624,203.1273],[116.3045,-33.5662,204.3175],[116.3078,-33.568,206.8477],[116.3648,-33.5682,230.0038],[116.3648,-33.5765,233.9877],[116.3866,-33.5767,244.6794],[116.384,-33.5836,233.8484],[116.4058,-33.5835,268.073],[116.4058,-33.5916,244.0984],[116.4116,-33.5916,251.2697],[116.4117,-33.6056,254.8354],[116.4216,-33.6053,265.28],[116.4289,-33.6028,261.6241],[116.429,-33.6127,255.8787],[116.439,-33.6128,277.0444],[116.4388,-33.6219,240.2985],[116.4508,-33.6221,240.1483],[116.4508,-33.6184,246.9161],[116.4594,-33.6184,263.329],[116.4594,-33.6239,240.3062],[116.4731,-33.6239,260.103],[116.4731,-33.64,218.909],[116.4847,-33.6421,212.252],[116.4847,-33.6667,229.2678],[116.4979,-33.6667,211.3154],[116.4979,-33.6594,213.0478],[116.5326,-33.6594,257.1136],[116.5326,-33.6728,264.6941],[116.5563,-33.673,253.5727],[116.5563,-33.6677,247.5018],[116.5744,-33.6677,203.4774],[116.5753,-33.665,202.1746],[116.5808,-33.6642,203.5553],[116.5867,-33.6718,202.4053],[116.5944,-33.6739,203.4916],[116.6021,-33.6785,208.7645],[116.61,-33.6694,203.5974],[116.6151,-33.669,204.8438],[116.6161,-33.671,208.6158],[116.6101,-33.6786,203.8367],[116.6162,-33.6809,204.8638],[116.6264,-33.6803,205.7494],[116.6285,-33.686,204.8741],[116.6315,-33.6841,205.8766],[116.6371,-33.6844,206.1802],[116.6389,-33.6868,206.636],[116.636,-33.6956,206.7376],[116.6443,-33.6952,207.383],[116.6539,-33.7002,208.4883],[116.6571,-33.6975,204.9784],[116.663,-33.697,207.3103],[116.6712,-33.7004,208.98],[116.6789,-33.6977,209.4427],[116.6854,-33.7009,209.7497],[116.6898,-33.7005,210.2296],[116.6904,-33.6991,210.4258],[116.688,-33.6961,207.5442],[116.6935,-33.6925,209.6631],[116.6933,-33.6877,225.6406],[116.6976,-33.6846,209.8464],[116.7061,-33.6854,211.4406],[116.71,-33.6833,209.0101],[116.7149,-33.6831,210.1814],[116.7281,-33.6858,211.2959],[116.7324,-33.6833,211.3176]]]]}
,"properties": {"GID_2": "AUS.11.129_1","GID_0": "AUS","country": "Australia","GID_1": "AUS.11_1","state": "WesternAustralia","NL_NAME_1": "NA","county": "WestArthur","VARNAME_2": "NA","NL_NAME_2": "NA","TYPE_2": "Shire","ENGTYPE_2": "Shire","CC_2": "58890","HASC_2": "AU.WA.WA","name": "WestArthur.county","area_km2": 2830.848,"hist_schema_id": "Elevation0-9000","hist_area_km2": {"200": 18.977,"225": 434.138,"250": 882.447,"275": 764.096,"300": 460.676,"325": 201.65,"350": 62.631,"375": 6.18,"400": 0.053}}}