{"type":"Feature","properties":{"GID_2":"AUS.7.69_1","GID_0":"AUS","country":"Australia","GID_1":"AUS.7_1","state":"Queensland","NL_NAME_1":"NA","county":"WesternDowns","VARNAME_2":"NA","NL_NAME_2":"NA","TYPE_2":"Region","ENGTYPE_2":"Region","CC_2":"37310","HASC_2":"NA","name":"WesternDowns.county"},
"geometry":{"type": "MultiPolygon","coordinates": [[[[149.4574,-27.9929,241.6332],[149.6274,-28.0145,260.821],[149.632,-27.9871,251.2616],[149.7865,-28.0063,233.4415],[149.9318,-27.9672,255.8049],[150.0659,-27.9855,263.0614],[150.0695,-27.9582,251.1689],[150.1169,-27.9633,249.0468],[150.1216,-27.9505,249.4515],[150.1173,-27.9485,249.0103],[150.1171,-27.9439,249.1468],[150.1239,-27.9443,249.8832],[150.1363,-27.9105,253.0771],[150.1567,-27.9226,254.4297],[150.2233,-27.8943,259.094],[150.2321,-27.9058,259.1163],[150.2483,-27.9077,258.3374],[150.2461,-27.8518,262.3826],[150.2767,-27.8516,264.3688],[150.2742,-27.8028,268.4571],[150.3264,-27.8087,269.4105],[150.3351,-27.7614,273.8102],[150.3611,-27.7649,277.0878],[150.3788,-27.7826,281.9553],[150.3869,-27.7833,273.115],[150.3929,-27.778199999999998,264.6601],[150.3933,-27.7763,267.4353],[150.3831,-27.7643,276.9637],[150.41,-27.7465,286.3884],[150.4392,-27.7683,271.7568],[150.4394,-27.7625,275.3878],[150.4412,-27.761,271.8129],[150.446,-27.7611,272.6085],[150.4507,-27.767,270.3494],[150.4548,-27.7648,272.129],[150.4547,-27.7614,276.2297],[150.4582,-27.7603,279.3595],[150.489,-27.7879,284.1355],[150.5137,-27.766,286.9805],[150.5208,-27.7724,290.0737],[150.575,-27.7793,299.1966],[150.5921,-27.79,311.4836],[150.6036,-27.8062,318.672],[150.6212,-27.811,318.9963],[150.6335,-27.8255,335.4309],[150.6448,-27.8507,341.6109],[150.6464,-27.8951,338.8887],[150.6742,-27.9037,342.3342],[150.6775,-27.9188,349.186],[150.694,-27.9331,344.6612],[150.7027,-27.9345,339.6721],[150.7252,-27.7934,312.4727],[150.7323,-27.7948,313.4012],[150.7385,-27.756,309.746],[150.7405,-27.7535,310.5296],[150.7406,-27.7429,316.144],[150.7377,-27.739,311.0189],[150.7398,-27.7105,311.3826],[150.7567,-27.5993,349.2004],[150.7706,-27.5803,368.5318],[150.7827,-27.5766,383.546],[150.7929,-27.5537,402.4172],[150.8055,-27.5405,388.4553],[150.8154,-27.5229,397.5785],[150.8252,-27.5106,385.9813],[150.8345,-27.5075,410.5309],[150.8677,-27.5459,382.1998],[150.9273,-27.534,369.5242],[150.9271,-27.572,385.4534],[150.965,-27.5788,396.4297],[150.9732,-27.5817,398.2629],[151.0071,-27.5771,400.1982],[151.0103,-27.575,402.4965],[151.0411,-27.5793,423.7508],[151.0477,-27.5837,421.1591],[151.0765,-27.5719,429.7802],[151.0718,-27.5637,449.2043],[151.0751,-27.5605,441.3927],[151.0753,-27.5546,438.2478],[151.0812,-27.5496,410.7947],[151.0844,-27.5353,446.4007],[151.0774,-27.5278,433.8215],[151.0831,-27.4936,398.9198],[151.0817,-27.4934,407.8358],[151.0775,-27.4812,415.8591],[151.0766,-27.4511,408.036],[151.0876,-27.3762,347.3068],[151.1078,-27.3788,346.938],[151.1127,-27.377,345.3013],[151.1658,-27.3836,345.481],[151.1778,-27.3816,346.4641],[151.1974,-27.384,346.532],[151.1927,-27.3987,346.4934],[151.3083,-27.414,349.4094],[151.3126,-27.3308,347.2524],[151.3177,-27.3314,347.8596],[151.3376,-27.2076,350.7221],[151.4505,-27.2787,363.1108],[151.4566,-27.2422,369.8806],[151.4535,-27.2417,368.9653],[151.4602,-27.2027,371.2118],[151.4502,-27.2013,369.9896],[151.4545,-27.1807,369.7076],[151.4524,-27.1801,369.7711],[151.458,-27.1459,376.4158],[151.4672,-27.1471,389.8132],[151.4684,-27.1388,388.7009],[151.4705,-27.1391,387.1508],[151.4662,-27.1221,389.4406],[151.4642,-27.1206,388.017],[151.4649,-27.1108,392.0342],[151.483,-27.1132,406.6947],[151.4812,-27.1244,397.0065],[151.4961,-27.1263,404.9897],[151.4968,-27.122,415.6237],[151.5255,-27.1255,438.5078],[151.5265,-27.1195,439.3256],[151.5397,-27.1218,435.1617],[151.5462,-27.1153,443.8955],[151.5571,-27.1167,475.1013],[151.556,-27.1231,477.5226],[151.5685,-27.1248,444.906],[151.5709,-27.1107,460.4328],[151.5677,-27.1102,481.9156],[151.5694,-27.0989,496.7393],[151.5764,-27.0998,474.5936],[151.5784,-27.0881,515.3267],[151.5762,-27.0878,523.9437],[151.5812,-27.056,489.5],[151.5967,-27.058,570.8562],[151.6009,-27.0305,468.4349],[151.6082,-27.028199999999998,484.0314],[151.6231,-27.0301,504.2382],[151.6275,-27.0026,486.8044],[151.6369,-27.0038,525.4666],[151.6383,-26.9968,506.8657],[151.6568,-26.9933,550.7523],[151.6644,-26.99,567.339],[151.6615,-26.9842,662.1917],[151.6622,-26.9793,623.7291],[151.6745,-26.9584,786.8666],[151.6706,-26.9542,813.8878],[151.6689,-26.9384,820.5861],[151.6638,-26.9363,768.9241],[151.6602,-26.9305,797.1718],[151.6573,-26.9304,791.9648],[151.6544,-26.9256,843.8831],[151.6465,-26.9197,924.1368],[151.6476,-26.9132,983.6306],[151.6425,-26.9073,968.6513],[151.6389,-26.9069,965.1998],[151.6302,-26.8989,915.2244],[151.6202,-26.9003,1061.4471],[151.6192,-26.8987,1068.1956],[151.617,-26.8989,1078.5076],[151.6169,-26.8965,1057.9753],[151.612,-26.8924,1049.8033],[151.6081,-26.8931,1052.2675],[151.6037,-26.8911,1069.9734],[151.5989,-26.8855,1029.5037],[151.5887,-26.8852,1041.1195],[151.5866,-26.8812,1060.2419],[151.5822,-26.8793,1051.9937],[151.5772,-26.8799,1075.3975],[151.5722,-26.8697,1069.9563],[151.5714,-26.8609,1090.269],[151.568,-26.8582,1080.8744],[151.5682,-26.8533,1070.4819],[151.5626,-26.8518,1033.5042],[151.5557,-26.84,1128.0743],[151.549,-26.835,1098.2745],[151.5484,-26.8295,1142.8409],[151.5455,-26.8276,1039.2839],[151.5438,-26.8239,1054.8042],[151.5395,-26.8197,1048.2991],[151.5359,-26.8204,1011.0524],[151.5309,-26.8181,949.1107],[151.5282,-26.8117,987.2867],[151.524,-26.8108,942.4674],[151.519,-26.8009,853.8444],[151.5164,-26.7991,874.6783],[151.5216,-26.7933,854.872],[151.5174,-26.7881,850.6556],[151.5165,-26.7826,821.0399],[151.5182,-26.7799,790.222],[151.5178,-26.7724,821.0253],[151.5198,-26.7666,946.937],[151.5148,-26.7656,904.0701],[151.5064,-26.7667,843.8517],[151.5044,-26.763,765.3757],[151.4937,-26.7628,787.0497],[151.49,-26.7572,825.4661],[151.4826,-26.7543,830.0775],[151.4796,-26.7569,822.9312],[151.476,-26.757,821.3113],[151.4738,-26.7603,809.3553],[151.4691,-26.76,773.2355],[151.4645,-26.7618,756.0826],[151.4594,-26.7597,719.3615],[151.4557,-26.7601,730.103],[151.4405,-26.7566,698.5415],[151.4344,-26.7522,680.4288],[151.4316,-26.7521,671.0256],[151.4252,-26.7484,661.835],[151.4236,-26.7461,665.4463],[151.4208,-26.746,674.3944],[151.4182,-26.7289,671.4373],[151.4133,-26.7252,719.7371],[151.4172,-26.7172,645.7473],[151.4139,-26.7104,646.5817],[151.418,-26.7025,608.7516],[151.4168,-26.6981,617.4563],[151.4106,-26.6971,599.2615],[151.4077,-26.6944,604.4055],[151.4053,-26.6951,600.2988],[151.3976,-26.6913,605.6536],[151.3943,-26.685,691.6779],[151.3919,-26.6842,637.762],[151.4072,-26.674,556.9287],[151.4092,-26.6606,542.1917],[151.408,-26.6566,551.1588],[151.3947,-26.6414,530.1088],[151.3948,-26.6388,547.1626],[151.3848,-26.6365,559.9247],[151.3786,-26.6296,600.4334],[151.3711,-26.632,590.9143],[151.3696,-26.6308,583.5479],[151.3711,-26.6278,577.0933],[151.3687,-26.6243,588.6436],[151.3634,-26.6236,572.5952],[151.3578,-26.6187,612.5586],[151.3519,-26.6172,579.8173],[151.3498,-26.6082,591.2137],[151.342,-26.607,607.9045],[151.3335,-26.6017,596.0507],[151.3337,-26.5984,585.3447],[151.3304,-26.5931,566.9736],[151.3285,-26.5938,561.5444],[151.3258,-26.5921,578.1345],[151.3245,-26.587,571.9818],[151.3228,-26.5858,570.844],[151.3182,-26.5904,579.5582],[151.3138,-26.591,570.8633],[151.31,-26.5845,525.9758],[151.3103,-26.5826,526.0625],[151.3049,-26.5797,506.5405],[151.3014,-26.5705,534.9445],[151.2949,-26.5665,528.0245],[151.2877,-26.5574,520.9603],[151.2875,-26.5449,537.8907],[151.2834,-26.5425,529.8541],[151.2777,-26.5428,529.7335],[151.2716,-26.5489,510.4247],[151.269,-26.5483,510.6335],[151.266,-26.5499,505.09],[151.2576,-26.5482,510.7033],[151.2543,-26.5442,566.7863],[151.2497,-26.5424,551.863],[151.2471,-26.5367,486.8828],[151.2482,-26.5337,494.1772],[151.2467,-26.5265,497.0945],[151.2431,-26.5277,486.2672],[151.2379,-26.5227,499.3362],[151.2297,-26.5271,487.7716],[151.2219,-26.5213,481.4967],[151.2224,-26.5182,468.2795],[151.2122,-26.514,468.4716],[151.2042,-26.5009,457.7168],[151.2081,-26.4946,459.6879],[151.2034,-26.4889,462.7858],[151.2036,-26.4858,468.658],[151.2084,-26.4807,463.1276],[151.2077,-26.4788,454.571],[151.0767,-26.4628,345.711],[151.1147,-26.3796,350.4091],[151.1357,-26.2631,345.8257],[151.0659,-26.2546,375.0569],[151.0167,-26.2562,442.1529],[151.0132,-26.1919,480.8087],[151.0182,-26.1923,464.8342],[151.0229,-26.195,482.2474],[151.0733,-26.1728,458.9218],[151.0764,-26.1619,468.0714],[151.093,-26.1595,450.0622],[151.0998,-26.1603,463.8907],[151.0987,-26.1499,467.493],[151.1159,-26.1409,457.8673],[151.1206,-26.143,472.636],[151.1227,-26.1484,480.0069],[151.1257,-26.1515,486.7452],[151.1393,-26.1592,511.9171],[151.1424,-26.1598,504.1953],[151.147,-26.1579,524.713],[151.15,-26.1597,501.6001],[151.1588,-26.1545,517.8046],[151.162,-26.1495,533.7224],[151.1607,-26.142,488.9471],[151.1565,-26.1361,493.1806],[151.1565,-26.1337,514.8467],[151.159,-26.1318,487.9756],[151.1579,-26.1293,494.4122],[151.1595,-26.1208,509.1667],[151.1517,-26.1111,482.9333],[151.1499,-26.1054,500.2367],[151.1429,-26.104,486.3481],[151.1374,-26.1077,458.0501],[151.1354,-26.1075,456.3251],[151.1344,-26.1053,459.7317],[151.1263,-26.1145,442.2454],[151.1238,-26.1137,436.8074],[151.1206,-26.1177,422.1648],[151.1154,-26.1187,410.8344],[151.1112,-26.1127,441.0051],[151.0978,-26.1108,464.6555],[151.0929,-26.1063,453.4534],[151.0881,-26.1052,469.2045],[151.0847,-26.1003,478.7652],[151.0778,-26.096,496.357],[151.0739,-26.0953,502.5626],[151.0674,-26.0854,571.3176],[151.0562,-26.0905,544.3063],[151.0543,-26.0889,547.8898],[151.0402,-26.0878,514.8457],[151.0159,-26.0772,432.3818],[151.0101,-26.0704,415.5921],[151.0083,-26.059,392.4605],[151.0021,-26.0496,383.5441],[151.003,-26.0433,359.5953],[150.9939,-26.0312,334.242],[150.9892,-26.0153,332.9997],[150.9834,-26.0115,316.8004],[150.984,-26.0078,323.6927],[150.9622,-26.0139,322.6127],[150.9498,-26.01,303.752],[150.9385,-26.0126,296.0032],[150.9335,-26.0117,298.0405],[150.9331,-26.0132,299.5374],[150.9268,-26.0118,309.5552],[150.9204,-26.005,303.4838],[150.9141,-26.0041,307.8288],[150.906,-26.0083,319.0146],[150.9064,-26.0127,325.0579],[150.9039,-26.0194,332.9157],[150.8496,-26.0564,411.7195],[150.7898,-26.0489,471.5103],[150.7885,-26.0432,467.6825],[150.7809,-26.0285,463.4152],[150.7854,-26.0224,461.6415],[150.786,-26.0187,468.0297],[150.7832,-26.0156,457.4323],[150.7791,-26.0152,435.4588],[150.7758,-26.0122,425.0325],[150.7774,-26.0086,427.568],[150.7736,-25.9983,422.3476],[150.7703,-25.9948,427.67],[150.7704,-25.9914,438.672],[150.7666,-25.991,422.6006],[150.7633,-25.9814,427.211],[150.7295,-25.98,355.1038],[150.7253,-25.9809,373.7839],[150.7194,-25.9851,355.9759],[150.7141,-25.9849,350.2913],[150.7016,-25.9741,334.4061],[150.6725,-25.9698,295.0709],[150.6747,-25.9631,322.0775],[150.6698,-25.9492,326.9472],[150.6692,-25.9429,304.5944],[150.6796,-25.9287,326.3511],[150.6808,-25.9223,291.8836],[150.6848,-25.9145,270.6642],[150.6846,-25.902,283.4875],[150.6804,-25.8981,301.1167],[150.6785,-25.8915,315.9577],[150.6793,-25.8876,320.9151],[150.6806,-25.8829,323.5381],[150.6897,-25.8774,331.7365],[150.6935,-25.872,319.4958],[150.6951,-25.8645,335.4618],[150.6992,-25.8557,348.062],[150.6976,-25.851,330.4074],[150.6797,-25.8309,343.2559],[150.6726,-25.8275,367.8041],[150.6712,-25.8214,379.5887],[150.6594,-25.8147,355.3125],[150.6506,-25.8046,360.7567],[150.6577,-25.8009,381.8269],[150.6444,-25.7853,370.1844],[150.6505,-25.7745,357.8516],[150.6604,-25.7733,373.0901],[150.668,-25.758,383.3899],[150.6637,-25.7574,357.3907],[150.6646,-25.7332,366.3792],[150.6498,-25.7266,357.2007],[150.6431,-25.716,350.5699],[150.6467,-25.7056,353.5409],[150.6514,-25.6991,347.0276],[150.6555,-25.698,351.4556],[150.6557,-25.6927,359.0504],[150.6636,-25.6846,366.7801],[150.6639,-25.6822,358.2669],[150.659,-25.6791,359.1317],[150.6563,-25.6742,361.4453],[150.6542,-25.6598,367.1546],[150.591,-25.6526,329.0863],[150.5851,-25.6438,329.7345],[150.5704,-25.6385,343.9827],[150.5529,-25.6417,377.1938],[150.5406,-25.641,400.2943],[150.5246,-25.645,444.1916],[150.5175,-25.6403,463.7672],[150.5042,-25.6359,463.0151],[150.4954,-25.6284,425.6189],[150.484,-25.6062,412.0042],[150.4461,-25.5988,446.5635],[150.441,-25.6016,441.4431],[150.4367,-25.6064,443.8141],[150.4426,-25.6218,428.9994],[150.4365,-25.6614,407.9827],[150.4266,-25.6653,408.2714],[150.4185,-25.6752,364.9619],[150.4228,-25.6869,349.7614],[150.422,-25.6942,347.007],[150.4341,-25.7336,385.7539],[150.4296,-25.7371,368.2236],[150.426,-25.774,376.8709],[150.4179,-25.7891,373.33],[150.4045,-25.7905,424.1093],[150.3951,-25.796,414.5676],[150.3928,-25.8012,434.9757],[150.3867,-25.8058,445.3954],[150.3888,-25.8145,439.8037],[150.3705,-25.8154,450.664],[150.3611,-25.8184,453.6775],[150.3454,-25.8177,382.9967],[150.3411,-25.8149,378.0313],[150.3367,-25.7904,314.6091],[150.2951,-25.7802,287.7912],[150.2819,-25.7788,275.2962],[150.2791,-25.7963,313.1805],[150.273,-25.7963,338.5002],[150.2579,-25.7884,320.0519],[150.2496,-25.7882,314.8581],[150.2485,-25.7955,270.9517],[150.2433,-25.7945,259.9157],[150.2367,-25.7888,246.9778],[150.2143,-25.7844,267.7463],[150.1744,-25.7804,246.8516],[150.1806,-25.7951,256.212],[150.1808,-25.8057,257.6915],[150.1788,-25.8057,255.2144],[150.174,-25.8119,268.3765],[150.159,-25.8192,289.3615],[150.1532,-25.8194,312.8903],[150.1416,-25.8229,333.6259],[150.1288,-25.8183,338.1292],[150.1148,-25.8109,336.4004],[150.1045,-25.7955,315.5994],[150.099,-25.797,325.0135],[150.0965,-25.7946,331.6725],[150.091,-25.8065,285.3018],[150.0854,-25.812,270.5794],[150.0559,-25.8131,272.4836],[150.0531,-25.8325,258.2296],[150.05,-25.8399,236.2973],[150.0454,-25.8393,247.7131],[150.0445,-25.8339,236.9914],[150.0424,-25.8323,236.3003],[150.0363,-25.8365,234.7255],[150.0303,-25.8363,241.9187],[150.0281,-25.8346,236.3789],[150.027,-25.8297,232.6401],[150.0217,-25.8652,240.1324],[150.0134,-25.8575,235.4097],[149.9901,-25.8471,227.5773],[149.9735,-25.8477,222.1951],[149.9649,-25.8511,223.8276],[149.9614,-25.8507,230.1382],[149.9543,-25.8413,225.3128],[149.9504,-25.8397,217.1217],[149.932,-25.8394,216.0368],[149.9277,-25.832,212.9476],[149.9187,-25.8265,211.7091],[149.914,-25.8215,212.1673],[149.9064,-25.8172,210.2056],[149.9053,-25.8196,210.4737],[149.8989,-25.8185,209.461],[149.8975,-25.8148,207.6541],[149.8945,-25.8237,209.1963],[149.8867,-25.8209,208.8982],[149.8825,-25.8294,219.8842],[149.8508,-25.8375,205.5942],[149.8385,-25.8371,204.6701],[149.8271,-25.8288,202.5944],[149.8236,-25.8283,205.485],[149.8215,-25.84,204.382],[149.827,-25.8406,203.1828],[149.8277,-25.8431,205.8969],[149.8228,-25.8493,205.2531],[149.8174,-25.8517,204.6793],[149.8099,-25.8522,207.4788],[149.8034,-25.8493,208.6058],[149.798,-25.8488,206.1872],[149.7938,-25.8508,204.6111],[149.7916,-25.8555,205.4352],[149.7874,-25.858,204.865],[149.7709,-25.8524,206.9654],[149.7663,-25.8595,208.214],[149.783,-25.8907,216.7904],[149.7713,-25.906,238.3811],[149.7673,-25.9048,226.9865],[149.7359,-25.8495,255.0222],[149.6923,-25.8691,257.9362],[149.6819,-25.8723,291.077],[149.6492,-25.8945,272.4713],[149.5844,-25.8863,275.3651],[149.5755,-25.9442,286.8977],[149.4768,-25.9335,257.2383],[149.4835,-25.8919,213.0415],[149.4016,-25.8825,253.109],[149.3991,-25.8758,277.9949],[149.3827,-25.8889,293.4595],[149.3746,-25.8905,292.2397],[149.365,-25.8981,282.9048],[149.3633,-25.9048,295.1102],[149.3594,-25.9068,297.4611],[149.3561,-25.9065,297.9496],[149.3557,-25.9096,289.0432],[149.3486,-25.9149,283.2902],[149.3463,-25.919,281.4196],[149.3423,-25.9208,291.5651],[149.3357,-25.9195,295.0071],[149.3301,-25.925,303.9769],[149.3278,-25.9252,304.1288],[149.3028,-25.9661,251.0625],[149.138,-25.9458,318.9975],[149.1378,-25.9479,347.111],[149.1311,-25.9481,350.5183],[149.1246,-25.9511,382.6132],[149.1088,-25.9459,360.7016],[149.102,-25.9456,332.2477],[149.0973,-25.9479,331.5207],[149.1353,-26.0444,343.2073],[149.2181,-26.0535,305.776],[149.217,-26.0686,314.1768],[149.2122,-26.0757,310.6448],[149.2175,-26.0927,316.4544],[149.2203,-26.1158,325.4567],[149.2038,-26.128,312.0623],[149.203,-26.1387,313.5268],[149.1977,-26.1484,323.2861],[149.1896,-26.1534,329.2357],[149.1832,-26.1621,332.4828],[149.1743,-26.163,322.1404],[149.1781,-26.177,333.3228],[149.1715,-26.1901,357.5973],[149.1633,-26.1972,342.5313],[149.1623,-26.239,368.842],[149.1588,-26.2463,365.4626],[149.154,-26.2511,375.438],[149.1615,-26.2599,395.3548],[149.1661,-26.2842,422.9846],[149.1525,-26.3054,430.2159],[149.1554,-26.3084,422.8865],[149.1731,-26.3104,421.3994],[149.18,-26.3132,419.107],[149.1841,-26.3217,418.5426],[149.2062,-26.3064,411.7696],[149.2164,-26.3037,422.0516],[149.2727,-26.2994,398.6426],[149.2809,-26.2932,403.3023],[149.2825,-26.2879,399.9975],[149.2973,-26.2823,394.3166],[149.3253,-26.2841,371.7556],[149.3403,-26.2899,366.6487],[149.3502,-26.2912,364.3279],[149.3728,-26.2869,371.7174],[149.378,-26.2952,377.598],[149.3893,-26.2908,385.2355],[149.3928,-26.2812,364.3773],[149.4004,-26.276,382.3602],[149.4273,-26.2907,372.0332],[149.4344,-26.2978,375.4998],[149.4432,-26.3026,374.301],[149.443,-26.3113,376.6294],[149.4419,-26.3151,392.6728],[149.4393,-26.3174,375.1235],[149.4421,-26.3192,389.0988],[149.4531,-26.3204,399.8145],[149.4561,-26.3144,377.687],[149.4642,-26.3115,372.6291],[149.4754,-26.315,374.9391],[149.4849,-26.3124,377.1155],[149.4906,-26.3232,372.4],[149.4893,-26.3304,369.5028],[149.505,-26.3358,374.0262],[149.528,-26.3332,383.5983],[149.5316,-26.334,383.4622],[149.5396,-26.3294,388.4084],[149.5434,-26.3306,388.4461],[149.5462,-26.3275,396.4482],[149.5497,-26.3325,405.1049],[149.5531,-26.3314,411.832],[149.5561,-26.3332,411.3464],[149.562,-26.3312,426.4491],[149.5653,-26.3323,441.089],[149.5694,-26.303,335.9195],[149.6149,-26.3079,398.7732],[149.6144,-26.3029,389.1804],[149.6228,-26.2988,375.9231],[149.6435,-26.3007,358.8068],[149.6488,-26.3069,357.6241],[149.6621,-26.3083,336.4686],[149.6648,-26.3103,332.6622],[149.666,-26.3087,331.9609],[149.6741,-26.3095,333.8436],[149.6762,-26.3063,334.8224],[149.6867,-26.3075,350.6699],[149.6943,-26.3114,372.6017],[149.6983,-26.3099,374.325],[149.7019,-26.3117,374.6139],[149.7052,-26.3097,406.7807],[149.7086,-26.3124,414.4264],[149.7096,-26.3067,396.1178],[149.7077,-26.3051,388.8669],[149.7183,-26.2911,350.4809],[149.8165,-26.3029,291.3627],[149.8139,-26.309,296.4487],[149.8316,-26.3175,312.5035],[149.8216,-26.3799,384.8797],[149.805,-26.3936,421.9886],[149.7732,-26.4011,420.1074],[149.7721,-26.3932,394.6523],[149.758,-26.389,427.6738],[149.7509,-26.39,392.5717],[149.7462,-26.4186,401.8338],[149.7318,-26.4167,406.8423],[149.7285,-26.4372,390.7903],[149.7223,-26.4364,401.8441],[149.7041,-26.4524,381.1242],[149.6855,-26.4649,408.8325],[149.7277,-26.4705,358.9778],[149.7142,-26.4813,349.7217],[149.7076,-26.4906,342.1539],[149.7046,-26.4919,338.5244],[149.7042,-26.4963,340.6779],[149.7014,-26.4985,336.8024],[149.7021,-26.5024,346.6088],[149.6971,-26.5171,342.4711],[149.7052,-26.5181,347.8416],[149.7029,-26.5325,348.7698],[149.7107,-26.5335,348.8733],[149.7075,-26.553,363.7024],[149.698,-26.551,353.2907],[149.6957,-26.5658,344.2704],[149.7004,-26.5664,345.7051],[149.6964,-26.5913,365.5193],[149.6702,-26.5879,352.3385],[149.6672,-26.6061,370.5086],[149.7019,-26.6108,350.9718],[149.6964,-26.644,347.4591],[149.6924,-26.644,351.3819],[149.6924,-26.6484,351.0514],[149.6712,-26.6683,368.6784],[149.6749,-26.6969,330.5295],[149.676,-26.7263,325.8483],[149.6737,-26.7406,321.1631],[149.6698,-26.7471,318.5426],[149.6628,-26.7517,313.1513],[149.6633,-26.7583,313.1542],[149.6746,-26.7598,315.9868],[149.6842,-26.7737,312.2903],[149.5915,-26.8083,291.3381],[149.5926,-26.8107,284.5128],[149.5943,-26.8079,290.5806],[149.5966,-26.8076,288.7614],[149.6025,-26.8155,283.4831],[149.6079,-26.814,286.8004],[149.6109,-26.8157,284.6061],[149.6121,-26.8187,288.0896],[149.5882,-26.8292,301.8691],[149.6298,-26.9443,284.2178],[149.6445,-26.9648,279.9261],[149.6633,-27.007,262.781],[149.6625,-27.0099,258.323],[149.6682,-27.0154,257.2367],[149.6677,-27.0221,257.9498],[149.6638,-27.0302,262.5288],[149.6476,-27.0285,256.4471],[149.6461,-27.0255,257.8876],[149.65,-27.0237,255.086],[149.6475,-27.0213,256.4974],[149.6366,-27.0265,260.1905],[149.6168,-27.0315,259.0272],[149.6156,-27.0416,257.2128],[149.6168,-27.0429,257.2128],[149.6205,-27.0427,257.9082],[149.6242,-27.0407,257.9763],[149.626,-27.0425,258.109],[149.6265,-27.0468,254.8658],[149.6286,-27.0483,256.5177],[149.6311,-27.0422,255.0959],[149.6369,-27.0433,253.3356],[149.634,-27.0505,257.1024],[149.6266,-27.0541,254.1588],[149.6261,-27.0559,251.3772],[149.6318,-27.0626,256.7059],[149.6321,-27.0687,255.8427],[149.6423,-27.0748,256.1637],[149.6447,-27.0743,253.2317],[149.6456,-27.0689,253.9299],[149.6499,-27.0672,256.473],[149.6704,-27.0702,256.7622],[149.6734,-27.074,255.7181],[149.6792,-27.0747,259.5601],[149.5567,-27.1914,297.853],[149.5934,-27.2221,304.8961],[149.5525,-27.2589,306.3368],[149.5298,-27.2744,310.8809],[149.5231,-27.2809,311.9088],[149.5203,-27.2813,316.1889],[149.502,-27.2939,325.7654],[149.4865,-27.3158,335.9553],[149.4801,-27.3202,335.802],[149.4827,-27.3303,333.4412],[149.4581,-27.3684,354.2643],[149.4566,-27.3763,360.1133],[149.4669,-27.3937,369.936],[149.4806,-27.4093,362.4212],[149.4809,-27.4127,359.9262],[149.4965,-27.432,350.2474],[149.4935,-27.4507,342.1599],[149.4991,-27.4586,361.9562],[149.4655,-27.6737,275.9804],[149.5077,-27.6803,338.8211],[149.4731,-27.8881,220.138],[149.4574,-27.9929,241.6332]]]]}}