{"type": "Feature","bbox": [147.0117,-42.7187,147.8565,-42.117],"geometry": {"type": "MultiPolygon","coordinates": [[[[147.3856,-42.6844,288.0492],[147.4004,-42.6863,193.2119],[147.4008,-42.6845,150.2617],[147.4096,-42.6855,93.1568],[147.4109,-42.6813,110.6612],[147.4142,-42.6817,69.8486],[147.4152,-42.6777,67.4549],[147.4298,-42.6796,49.0936],[147.4275,-42.6752,49.8039],[147.4461,-42.6767,37.6302],[147.4646,-42.6789,124.4879],[147.4635,-42.6815,106.2122],[147.4926,-42.6858,236.6011],[147.49,-42.6958,118.6951],[147.5235,-42.7,97.5134],[147.5255,-42.6966,104.5079],[147.5241,-42.6912,124.9612],[147.5259,-42.6907,119.8462],[147.5298,-42.6831,162.3002],[147.545,-42.6753,388.574],[147.5498,-42.6804,239.8084],[147.5519,-42.6806,219.2067],[147.5518,-42.6838,196.2639],[147.5606,-42.6872,181.6115],[147.5608,-42.6899,164.5824],[147.565,-42.693,143.5843],[147.5658,-42.6903,188.8949],[147.575,-42.6917,309.9162],[147.5775,-42.6797,424.9716],[147.591,-42.6811,426.2404],[147.5925,-42.6742,427.9431],[147.595,-42.6742,410.6664],[147.5954,-42.6724,390.7564],[147.603,-42.6733,317.2091],[147.6043,-42.6676,309.5419],[147.5966,-42.6667,439.475],[147.5961,-42.6687,399.5123],[147.5912,-42.6688,427.2454],[147.5913,-42.6669,464.1697],[147.5868,-42.6669,485.1261],[147.5868,-42.6622,439.5298],[147.5923,-42.6629,470.7438],[147.5964,-42.6454,225.0783],[147.5916,-42.6448,222.923],[147.5932,-42.6369,221.2397],[147.6094,-42.6329,220.7709],[147.6229,-42.6324,339.2263],[147.6249,-42.6218,362.3163],[147.6197,-42.6211,396.1776],[147.6205,-42.6182,385.1159],[147.5859,-42.6138,251.3322],[147.5898,-42.5979,341.158],[147.5879,-42.5977,313.7812],[147.5903,-42.5854,382.9424],[147.5927,-42.5857,385.2504],[147.5935,-42.5823,361.9651],[147.591,-42.5798,363.123],[147.5948,-42.5643,265.2611],[147.5902,-42.5653,267.8077],[147.5818,-42.5635,272.4858],[147.5779,-42.5651,279.7065],[147.5743,-42.5613,278.0165],[147.5754,-42.5568,337.9926],[147.5815,-42.5562,316.5472],[147.5834,-42.5502,338.9055],[147.5869,-42.5506,392.1577],[147.5889,-42.5414,364.8572],[147.5962,-42.5422,353.4084],[147.5982,-42.5354,378.9817],[147.5901,-42.5359,400.1434],[147.5908,-42.532,426.0375],[147.5991,-42.5332,359.7669],[147.5994,-42.532,382.1801],[147.6016,-42.5322,378.7772],[147.602,-42.5301,396.2187],[147.6072,-42.5308,342.749],[147.6069,-42.5324,367.6618],[147.6093,-42.5312,336.1214],[147.6043,-42.5268,374.8636],[147.6055,-42.5246,401.9242],[147.6026,-42.5242,409.4905],[147.6032,-42.5215,435.4487],[147.6168,-42.5231,352.3167],[147.6194,-42.5072,395.0982],[147.6169,-42.5068,380.4009],[147.6192,-42.4981,430.5078],[147.6305,-42.4997,341.9213],[147.6284,-42.5084,393.5258],[147.6319,-42.5089,380.0842],[147.6678,-42.5035,263.9749],[147.6687,-42.5019,266.7054],[147.6664,-42.4998,282.3654],[147.6713,-42.4961,250.1822],[147.671,-42.4934,265.0148],[147.6673,-42.4894,257.7394],[147.6705,-42.4857,261.3561],[147.6668,-42.4847,271.2142],[147.67,-42.4836,279.8604],[147.6717,-42.4787,256.0537],[147.6787,-42.4749,264.0562],[147.6821,-42.4755,269.2642],[147.6841,-42.4698,269.3144],[147.6879,-42.4701,297.3684],[147.691,-42.4679,287.298],[147.6947,-42.4601,296.1808],[147.6933,-42.4591,312.4789],[147.6975,-42.4567,292.5857],[147.696,-42.4551,283.0518],[147.699,-42.4542,275.8071],[147.7026,-42.4565,295.6263],[147.7092,-42.4544,316.7693],[147.7107,-42.4554,304.0926],[147.7191,-42.4541,308.159],[147.7199,-42.4501,322.876],[147.7242,-42.448,300.7478],[147.7269,-42.4504,317.8541],[147.7296,-42.4502,326.4695],[147.7389,-42.4342,417.9515],[147.7421,-42.4352,468.9843],[147.7468,-42.427,406.3975],[147.7399,-42.4248,429.7648],[147.7487,-42.3921,356.3223],[147.7625,-42.3852,368.9108],[147.7645,-42.3872,385.4943],[147.7786,-42.3798,364.8022],[147.7584,-42.3587,270.7699],[147.7671,-42.3542,276.1957],[147.7687,-42.3557,291.899],[147.779,-42.3529,242.3512],[147.7805,-42.3465,227.0205],[147.7913,-42.3431,196.7238],[147.8049,-42.3499,161.579],[147.8084,-42.3481,178.3745],[147.8125,-42.3508,186.4136],[147.8147,-42.3495,184.9192],[147.8238,-42.3494,162.0925],[147.8272,-42.3485,146.8177],[147.8343,-42.3413,75.0538],[147.8376,-42.3416,82.5486],[147.8381,-42.3397,82.5983],[147.8407,-42.3426,106.0969],[147.8437,-42.3412,100.9599],[147.8462,-42.3353,55.4683],[147.8525,-42.3339,45.4424],[147.8565,-42.3287,75.2012],[147.8553,-42.3266,53.3669],[147.8467,-42.3293,65.4862],[147.8408,-42.3285,76.2079],[147.8354,-42.3251,75.8082],[147.834,-42.3259,75.8082],[147.8312,-42.3344,67.7835],[147.8296,-42.3349,95.3084],[147.8259,-42.3257,83.535],[147.8262,-42.3223,78.3033],[147.819,-42.3256,80.6287],[147.815,-42.3254,83.4649],[147.8152,-42.3204,92.7632],[147.8121,-42.32,104.3685],[147.8096,-42.3141,116.3315],[147.8065,-42.3134,99.3219],[147.8099,-42.2988,455.1885],[147.7913,-42.2964,399.0267],[147.7892,-42.2817,443.5262],[147.8109,-42.2813,464.9677],[147.8092,-42.2715,396.3672],[147.7824,-42.2723,389.4822],[147.7807,-42.2625,538.3981],[147.7538,-42.266,430.253],[147.7543,-42.2694,401.5202],[147.7121,-42.2731,369.56],[147.7091,-42.2521,387.8027],[147.7033,-42.2495,395.4516],[147.6719,-42.2458,466.5535],[147.6732,-42.2399,403.471],[147.5681,-42.23,287.141],[147.5685,-42.2286,287.505],[147.559,-42.2223,282.632],[147.56,-42.2194,287.1983],[147.5571,-42.2153,279.6381],[147.5582,-42.2135,291.9014],[147.5522,-42.2127,272.7574],[147.5505,-42.2096,271.6126],[147.5502,-42.2069,270.5051],[147.5557,-42.206,270.2095],[147.5565,-42.2026,269.8927],[147.5594,-42.2027,271.5391],[147.5607,-42.1973,332.6768],[147.5435,-42.1951,315.1489],[147.5467,-42.181,471.0093],[147.5296,-42.171,352.151],[147.5038,-42.1676,233.8206],[147.5062,-42.1579,299.9608],[147.5097,-42.1545,294.7353],[147.4489,-42.117,194.8452],[147.4462,-42.1219,195.4902],[147.4277,-42.1325,203.8724],[147.4246,-42.1386,208.0391],[147.4155,-42.1401,208.9856],[147.4056,-42.1405,208.3539],[147.4045,-42.1372,211.7718],[147.4013,-42.1358,212.6906],[147.3906,-42.1359,212.0525],[147.3852,-42.1388,212.8774],[147.3728,-42.133,216.4307],[147.3676,-42.1282,221.4493],[147.3572,-42.1226,230.4059],[147.3398,-42.1247,243.2517],[147.3346,-42.1234,247.7996],[147.3279,-42.1257,253.2872],[147.3266,-42.1271,255.9148],[147.3281,-42.1303,259.0485],[147.3251,-42.1354,276.0344],[147.2988,-42.1562,386.3068],[147.2826,-42.161,568.1582],[147.2756,-42.1612,673.9679],[147.2674,-42.1654,693.09],[147.2644,-42.1643,704.0342],[147.2594,-42.1653,714.59],[147.2755,-42.1821,818.5938],[147.2779,-42.1924,814.0162],[147.274,-42.2101,617.7867],[147.2721,-42.2099,629.5377],[147.2708,-42.2194,604.1864],[147.246,-42.2161,743.4264],[147.2206,-42.2057,951.2834],[147.2006,-42.2162,800.6312],[147.1965,-42.2116,856.9975],[147.1895,-42.2153,824.8531],[147.1884,-42.2195,773.0897],[147.1923,-42.2201,745.4285],[147.1904,-42.2276,725.139],[147.2144,-42.2343,665.1348],[147.2105,-42.234,664.059],[147.2029,-42.2365,656.2772],[147.2064,-42.2374,666.8565],[147.2108,-42.2353,660.0303],[147.2235,-42.2381,639.8057],[147.2313,-42.2367,619.8642],[147.2352,-42.2448,643.1548],[147.2071,-42.2486,769.3602],[147.194,-42.255,648.7885],[147.1828,-42.2628,634.7629],[147.185,-42.2674,568.4728],[147.1929,-42.2692,490.4621],[147.1927,-42.2713,475.4198],[147.2083,-42.2789,417.4008],[147.2108,-42.2843,401.2165],[147.2079,-42.2949,359.9714],[147.2104,-42.298,353.4133],[147.2121,-42.3063,353.4813],[147.2155,-42.31,345.5653],[147.2138,-42.3121,342.7298],[147.2184,-42.3129,361.505],[147.2165,-42.3156,325.1616],[147.2223,-42.3162,356.7092],[147.2279,-42.3251,302.3633],[147.2374,-42.3243,308.7122],[147.2366,-42.3278,327.1512],[147.2393,-42.3297,333.2273],[147.239,-42.3318,328.571],[147.2347,-42.3337,306.4913],[147.2299,-42.3304,297.5653],[147.2253,-42.3296,291.4027],[147.2243,-42.3314,315.1643],[147.2258,-42.3381,301.8236],[147.2219,-42.3349,293.0873],[147.216,-42.3362,287.7741],[147.2096,-42.3354,305.0564],[147.1992,-42.3416,279.2785],[147.1923,-42.3427,287.5829],[147.1906,-42.3501,272.9979],[147.1853,-42.3512,290.5934],[147.1837,-42.3499,287.0107],[147.1752,-42.3537,276.1552],[147.177,-42.3553,300.6116],[147.1803,-42.3533,276.2674],[147.1836,-42.3552,281.4467],[147.1791,-42.357,283.9974],[147.1832,-42.3619,267.2471],[147.1804,-42.3621,278.7144],[147.1749,-42.3901,365.6966],[147.1566,-42.3877,245.0648],[147.156,-42.3894,255.5714],[147.1514,-42.3885,283.444],[147.1482,-42.3931,254.9733],[147.1473,-42.3958,260.3868],[147.1574,-42.3971,240.153],[147.1531,-42.3997,247.3042],[147.161,-42.4008,283.0165],[147.1586,-42.4111,312.1214],[147.1707,-42.4126,388.2103],[147.1701,-42.4156,364.2785],[147.1791,-42.4167,496.8588],[147.1727,-42.4349,376.8978],[147.169,-42.4344,425.2572],[147.1668,-42.4435,372.5015],[147.1669,-42.4517,315.2166],[147.152,-42.4507,218.4608],[147.1489,-42.4481,216.0714],[147.1455,-42.4518,216.6948],[147.1255,-42.4492,482.313],[147.1141,-42.4656,398.7798],[147.1121,-42.4787,486.4691],[147.0827,-42.4752,584.288],[147.0805,-42.4851,551.1929],[147.0743,-42.4843,548.0651],[147.0702,-42.5058,509.8666],[147.0159,-42.4983,541.5226],[147.0129,-42.5113,456.0199],[147.0223,-42.5126,566.2932],[147.0189,-42.5259,478.2963],[147.0256,-42.5269,463.6478],[147.0221,-42.5413,596.2232],[147.0303,-42.5438,520.1528],[147.0298,-42.546,568.6666],[147.0349,-42.5467,538.2981],[147.034,-42.552,590.7788],[147.0389,-42.5544,509.1383],[147.0427,-42.5536,483.2034],[147.0469,-42.5653,260.7086],[147.049,-42.5649,282.947],[147.05,-42.5678,226.7347],[147.0474,-42.5683,296.3314],[147.0488,-42.5721,253.0984],[147.0517,-42.5715,234.5634],[147.0525,-42.5737,212.3615],[147.038,-42.5766,449.5411],[147.0408,-42.5781,403.1866],[147.0359,-42.5832,352.9406],[147.0277,-42.5834,378.6831],[147.0296,-42.5922,231.75],[147.0117,-42.6072,535.2242],[147.0319,-42.6188,439.5149],[147.0249,-42.6266,383.0977],[147.0397,-42.6345,413.2512],[147.0314,-42.6427,500.7599],[147.0337,-42.644,504.0256],[147.03,-42.6478,593.0073],[147.0326,-42.6491,634.1805],[147.0234,-42.6582,704.9581],[147.0359,-42.6654,701.0694],[147.0368,-42.6674,668.6722],[147.0443,-42.6658,736.2839],[147.0452,-42.6676,704.2174],[147.0512,-42.6663,709.9318],[147.0524,-42.6699,717.785],[147.0503,-42.6703,719.6741],[147.0527,-42.6761,670.5701],[147.0546,-42.6756,661.4757],[147.0576,-42.688,953.1824],[147.0719,-42.6959,775.5917],[147.0774,-42.6967,730.9256],[147.0758,-42.7029,637.8196],[147.0783,-42.7033,659.8232],[147.078,-42.7049,592.7529],[147.0829,-42.7055,685.3219],[147.0822,-42.7087,551.4009],[147.092,-42.7106,613.1003],[147.0914,-42.7133,624.7028],[147.0925,-42.713,624.7028],[147.0966,-42.7187,401.2715],[147.125,-42.711,649.4821],[147.1344,-42.7069,394.6203],[147.1381,-42.7105,357.463],[147.189,-42.6949,52.941],[147.1947,-42.6913,47.5311],[147.1976,-42.6916,50.5105],[147.2061,-42.6878,46.0996],[147.211,-42.6839,42.436],[147.2102,-42.6811,75.7087],[147.2174,-42.6769,86.3558],[147.2253,-42.6758,108.4716],[147.2272,-42.6797,37.1479],[147.2314,-42.6811,36.5355],[147.2359,-42.6786,40.1824],[147.2499,-42.6829,32.9581],[147.2563,-42.6796,32.1203],[147.2625,-42.6807,41.9263],[147.2726,-42.6779,51.1857],[147.28,-42.6685,74.0822],[147.3033,-42.6554,292.958],[147.3105,-42.6611,237.1329],[147.3145,-42.6673,182.4287],[147.3169,-42.6574,238.9978],[147.319,-42.6577,285.8967],[147.3179,-42.6619,198.6934],[147.3235,-42.6627,204.4309],[147.3212,-42.6704,153.9343],[147.3407,-42.6728,238.993],[147.3403,-42.6752,152.5149],[147.3382,-42.6758,162.222],[147.3388,-42.6773,137.7966],[147.3481,-42.6753,150.7941],[147.3555,-42.6806,154.5969],[147.3733,-42.6755,212.0311],[147.3716,-42.6827,216.7353],[147.3856,-42.6844,288.0492]]]]}
,"properties": {"GID_2": "AUS.9.26_1","GID_0": "AUS","country": "Australia","GID_1": "AUS.9_1","state": "Tasmania","NL_NAME_1": "NA","county": "SouthernMidlands","VARNAME_2": "NA","NL_NAME_2": "NA","TYPE_2": "Municipality","ENGTYPE_2": "Municipality","CC_2": "65010","HASC_2": "AU.TS.SM","name": "SouthernMidlands.county","area_km2": 2611.295,"hist_schema_id": "Elevation0-9000","hist_area_km2": {"25": 0.904,"50": 11.724,"75": 27.059,"100": 37.72,"125": 41.535,"150": 47.17,"175": 66.569,"200": 97.452,"225": 120.935,"250": 105.803,"275": 116.389,"300": 131.145,"325": 169.244,"350": 187.22,"375": 231.749,"400": 205.138,"425": 193.972,"450": 183.58,"475": 141.161,"500": 107.953,"525": 91.624,"550": 72.617,"575": 53.504,"600": 41.351,"625": 33.562,"650": 25.918,"675": 16.783,"700": 10.926,"725": 10.299,"750": 10.088,"775": 7.781,"800": 4.914,"825": 3.818,"850": 1.767,"875": 1.375,"900": 0.391,"925": 0.11,"975": 0.031}}}