{"type": "Feature","bbox": [145.7343,-34.5701,146.3116,-34.0989],"geometry": {"type": "MultiPolygon","coordinates": [[[[145.9493,-34.5532,121.8788],[145.9521,-34.5527,120.3579],[145.9555,-34.558,131.5002],[145.9598,-34.5554,118.1679],[145.9582,-34.5605,130.3625],[145.9642,-34.561,122.071],[145.9663,-34.5635,129.9213],[145.9681,-34.5618,122.8501],[145.9666,-34.5576,129.0714],[145.9702,-34.5565,120.6058],[145.9722,-34.5619,125.9764],[145.9775,-34.5636,130.151],[145.9786,-34.563,130.151],[145.9788,-34.5579,124.5858],[145.9846,-34.556,126.6005],[145.9866,-34.557,119.8077],[145.9901,-34.5513,124.9311],[145.9898,-34.5477,125.2837],[145.9976,-34.5447,124.9745],[146.0084,-34.5554,126.4866],[146.0359,-34.5701,126.1651],[146.0376,-34.5627,126.1511],[146.0754,-34.567,128.1318],[146.0902,-34.4838,126.8945],[146.1184,-34.491,128.5298],[146.1441,-34.5009,128.9303],[146.1467,-34.4916,128.9456],[146.1464,-34.4824,128.706],[146.1423,-34.4801,128.6376],[146.1346,-34.4805,128.6855],[146.1366,-34.4693,128.5225],[146.1445,-34.4523,127.8237],[146.1533,-34.4051,127.1418],[146.1429,-34.4013,126.7613],[146.1347,-34.3912,126.1307],[146.1491,-34.3897,126.5351],[146.1563,-34.3837,126.6039],[146.1772,-34.3737,127.3498],[146.2022,-34.3766,129.7124],[146.2065,-34.3542,133.504],[146.2162,-34.3651,135.5839],[146.2254,-34.3709,137.5306],[146.2299,-34.372,136.9185],[146.2363,-34.3369,179.3204],[146.2751,-34.3419,144.0142],[146.2765,-34.3345,135.4615],[146.2855,-34.3356,136.4138],[146.2861,-34.3459,137.6092],[146.3006,-34.3452,136.7107],[146.3002,-34.3343,137.9063],[146.3073,-34.3351,136.7587],[146.3116,-34.3115,136.5324],[146.3001,-34.2894,136.3553],[146.3048,-34.2607,138.8032],[146.2335,-34.2531,133.8802],[146.2468,-34.1812,248.1891],[146.2295,-34.1865,148.3074],[146.2288,-34.1841,154.4918],[146.2139,-34.1819,149.7798],[146.2121,-34.192,138.8654],[146.1936,-34.1977,132.097],[146.1969,-34.1788,141.4996],[146.1763,-34.1763,131.2065],[146.1801,-34.1543,147.7997],[146.1505,-34.1512,136.4114],[146.1535,-34.1338,144.9773],[146.0761,-34.1247,168.9723],[146.0775,-34.1389,163.6355],[146.0937,-34.1408,146.3297],[146.0822,-34.1454,170.5795],[146.0776,-34.1452,164.2826],[146.0447,-34.1409,127.7593],[146.0474,-34.1254,137.5817],[146.0253,-34.1227,123.8081],[146.0245,-34.1273,123.4936],[145.8598,-34.107,116.952],[145.8585,-34.115,114.2086],[145.8393,-34.1128,116.4327],[145.8409,-34.1047,114.4111],[145.7949,-34.0989,126.1806],[145.7916,-34.1178,122.9277],[145.7762,-34.1159,119.2653],[145.75,-34.2728,112.1061],[145.7522,-34.2746,112.334],[145.7496,-34.2892,111.6596],[145.7468,-34.2917,112.108],[145.7343,-34.3634,113.7605],[145.7608,-34.3666,114.8133],[145.7658,-34.3373,115.3334],[145.8325,-34.3453,117.194],[145.82,-34.4158,118.3936],[145.8307,-34.4173,119.3562],[145.8264,-34.4406,117.4892],[145.9023,-34.4387,121.7328],[145.918,-34.4411,122.5424],[145.9665,-34.4531,123.0847],[145.9493,-34.5532,121.8788]]]]}
,"properties": {"GID_2": "AUS.5.57_1","GID_0": "AUS","country": "Australia","GID_1": "AUS.5_1","state": "NewSouthWales","NL_NAME_1": "NA","county": "Griffith","VARNAME_2": "NA","NL_NAME_2": "NA","TYPE_2": "City","ENGTYPE_2": "City","CC_2": "13450","HASC_2": "AU.NS.GH","name": "Griffith.county","area_km2": 1640.909,"hist_schema_id": "Elevation0-9000","hist_area_km2": {"100": 115.5,"125": 1427.811,"150": 74.274,"175": 18.167,"200": 3.771,"225": 1.246,"250": 0.14}}}