{"type":"Feature","properties":{"GID_2":"AUS.11.73_1","GID_0":"AUS","country":"Australia","GID_1":"AUS.11_1","state":"WesternAustralia","NL_NAME_1":"NA","county":"Mandurah","VARNAME_2":"NA","NL_NAME_2":"NA","TYPE_2":"City","ENGTYPE_2":"City","CC_2":"55110","HASC_2":"AU.WA.MA","name":"Mandurah.county"},
"geometry":{"type": "MultiPolygon","coordinates": [[[[115.6286,-32.7933,4.8748],[115.6503,-32.7934,15.462],[115.6503,-32.8019,20.2999],[115.665,-32.8019,-0.6307],[115.6663,-32.8001,2.9364],[115.6654,-32.7973,0.1291],[115.6711,-32.7974,2.0259],[115.6673,-32.7876,-0.3498],[115.6688,-32.7865,-0.3498],[115.6673,-32.7827,1.32],[115.7029,-32.7828,1.7429],[115.7028,-32.775,1.4746],[115.6962,-32.7723,0.0],[115.6927,-32.7677,0.5785],[115.6927,-32.7594,3.1805],[115.6966,-32.7543,0.0],[115.6904,-32.7541,1.0074],[115.6835,-32.7506,0.4162],[115.6825,-32.7481,1.1653],[115.684,-32.7433,0.4247],[115.6775,-32.7369,0.0],[115.6794,-32.7319,0.0],[115.6726,-32.7281,5.7286],[115.6734,-32.7203,0.0],[115.6696,-32.7147,0.9114],[115.6693,-32.7115,0.0],[115.6716,-32.7003,0.4502],[115.6675,-32.6975,2.3069],[115.6627,-32.6822,0.0],[115.6555,-32.6723,1.7597],[115.6544,-32.6659,6.1919],[115.6568,-32.6612,0.0],[115.6501,-32.6538,15.331],[115.6471,-32.648,2.7834],[115.6482,-32.6441,7.2164],[115.6468,-32.642,0.7075],[115.6487,-32.635,1.0856],[115.6421,-32.6293,0.0],[115.641,-32.6185,6.7752],[115.6417,-32.6137,16.138],[115.6456,-32.6123,0.0],[115.6433,-32.6098,1.6508],[115.6452,-32.6082,0.0],[115.6492,-32.6103,0.0],[115.6535,-32.6056,0.6375],[115.6545,-32.6011,1.4108],[115.6676,-32.5975,1.8469],[115.6728,-32.5939,0.0],[115.6712,-32.5945,0.0],[115.6678,-32.5914,2.0985],[115.666,-32.5864,2.0709],[115.6711,-32.5752,0.0],[115.6743,-32.573,0.2247],[115.6887,-32.5711,1.4909],[115.6997,-32.5638,1.0091],[115.6951,-32.5657,2.8274],[115.6958,-32.5643,2.3375],[115.6982,-32.5635,1.5764],[115.7065,-32.5634,0.1392],[115.7102,-32.5601,0.5715],[115.7176,-32.5576,0.3539],[115.7158,-32.5534,0.1382],[115.7151,-32.5575,0.5116],[115.7142,-32.5564,0.5116],[115.7164,-32.545,0.0],[115.715,-32.5459,0.2894],[115.7155,-32.5482,3.1547],[115.7139,-32.5453,0.9282],[115.7175,-32.5384,1.4503],[115.7164,-32.5334,0.0],[115.7094,-32.5257,1.1358],[115.7075,-32.5267,3.3299],[115.7095,-32.5254,1.1358],[115.7104,-32.5205,0.0],[115.7075,-32.5215,4.4727],[115.7048,-32.5195,0.0],[115.7006,-32.5203,1.6595],[115.6712,-32.5623,9.5665],[115.6554,-32.5788,4.5007],[115.65,-32.5795,0.0],[115.6424,-32.5872,6.9381],[115.6402,-32.5915,5.1833],[115.633,-32.5946,0.0],[115.6308,-32.5997,0.0],[115.6313,-32.6028,0.3787],[115.6278,-32.5996,0.3302],[115.6296,-32.6026,0.5927],[115.6294,-32.6057,0.1676],[115.6238,-32.6165,10.536],[115.6234,-32.6229,0.0],[115.6165,-32.6413,3.148],[115.615,-32.6532,0.0],[115.6099,-32.6603,1.565],[115.6068,-32.6807,0.0],[115.6075,-32.6874,12.8357],[115.6138,-32.7057,3.7954],[115.6219,-32.7648,1.3209],[115.6286,-32.7933,4.8748]]],
[[[115.7605,-32.5746,0.0],[115.7661,-32.5709,1.3938],[115.7662,-32.5678,2.481],[115.7615,-32.5647,1.2705],[115.7605,-32.5623,1.07],[115.755,-32.5606,3.2849],[115.7543,-32.5584,3.0801],[115.7572,-32.5533,0.5024],[115.7654,-32.5483,0.5028],[115.7655,-32.5427,2.8673],[115.7691,-32.5417,2.0301],[115.7727,-32.5443,2.9355],[115.7748,-32.5436,6.0018],[115.7741,-32.5401,4.1252],[115.7759,-32.5344,4.5947],[115.774,-32.5305,3.17],[115.7785,-32.528,0.733],[115.7765,-32.5258,1.7581],[115.7818,-32.5116,0.5524],[115.785,-32.5086,2.7524],[115.7826,-32.4965,6.7027],[115.7882,-32.4672,7.9064],[115.7849,-32.4605,18.1491],[115.7844,-32.4556,15.8314],[115.7478,-32.4556,6.1281],[115.7463,-32.4756,0.0],[115.7369,-32.5038,1.681],[115.7239,-32.5199,4.0779],[115.7119,-32.5211,0.0],[115.7114,-32.5226,0.0],[115.7127,-32.5265,3.0566],[115.7168,-32.5297,0.0],[115.7209,-32.5272,3.6449],[115.7183,-32.5344,3.0035],[115.722,-32.5391,2.9527],[115.7225,-32.5425,3.7893],[115.7213,-32.5436,2.9796],[115.7196,-32.5385,0.0],[115.7189,-32.5536,0.2676],[115.7218,-32.5587,0.3558],[115.7187,-32.5615,0.4924],[115.7191,-32.5652,0.3313],[115.7253,-32.5678,0.4762],[115.7393,-32.5635,0.0],[115.7536,-32.5642,1.5721],[115.7613,-32.5704,0.0],[115.7605,-32.5746,0.0]]]]}}