{"type": "Feature","bbox": [140.0461,-36.7024,140.9689,-35.7422],"geometry": {"type": "MultiPolygon","coordinates": [[[[140.4314,-36.69,41.0299],[140.4314,-36.7024,36.5758],[140.4869,-36.6946,45.6254],[140.486,-36.6924,36.2855],[140.5166,-36.6945,36.5973],[140.5357,-36.6906,37.5585],[140.5469,-36.6906,39.7601],[140.5487,-36.6926,40.8845],[140.6119,-36.6925,53.04],[140.6121,-36.669,82.823],[140.9689,-36.669,105.9255],[140.9632,-35.7422,124.8936],[140.5203,-35.7467,103.9832],[140.5204,-35.8115,95.6721],[140.4549,-35.812,81.4363],[140.4548,-36.0335,80.9752],[140.0468,-36.0327,18.7896],[140.0463,-36.4409,20.6303],[140.0485,-36.4455,28.0233],[140.0461,-36.4516,50.1457],[140.0463,-36.4666,47.9766],[140.4318,-36.4665,79.0336],[140.4314,-36.69,41.0299]]]]}
,"properties": {"GID_2": "AUS.8.57_1","GID_0": "AUS","country": "Australia","GID_1": "AUS.8_1","state": "SouthAustralia","NL_NAME_1": "NA","county": "Tatiara","VARNAME_2": "NA","NL_NAME_2": "NA","TYPE_2": "DistrictCouncil","ENGTYPE_2": "DistrictCouncil","CC_2": "47630","HASC_2": "AU.SA.TA","name": "Tatiara.county","area_km2": 6525.892,"hist_schema_id": "Elevation0-9000","hist_area_km2": {"0": 0.343,"25": 1578.013,"50": 664.667,"75": 1387.753,"100": 1926.4,"125": 909.94,"150": 56.829,"175": 1.946}}}