{"type":"Feature","properties":{"GID_2":"AUS.11.47_1","GID_0":"AUS","country":"Australia","GID_1":"AUS.11_1","state":"WesternAustralia","NL_NAME_1":"NA","county":"Esperance","VARNAME_2":"NA","NL_NAME_2":"NA","TYPE_2":"Shire","ENGTYPE_2":"Shire","CC_2":"53290","HASC_2":"AU.WA.ES","name":"Esperance.county"},
"geometry":{"type": "MultiPolygon","coordinates": [[[[123.533,-34.3594,0.0],[123.5318,-34.3585,0.0],[123.531,-34.3587,0.0],[123.5314,-34.36,0.0],[123.533,-34.3594,0.0]]],
[[[123.5394,-34.3768,6.6368],[123.5431,-34.3736,23.5639],[123.5453,-34.3677,11.1531],[123.5488,-34.3653,16.8779],[123.5526,-34.3652,0.0],[123.5595,-34.36,14.0679],[123.5612,-34.3546,0.0],[123.5588,-34.3526,20.9985],[123.5575,-34.3451,24.7108],[123.562,-34.3391,1.4841],[123.5609,-34.3372,0.7394],[123.5583,-34.3381,0.7013],[123.5558,-34.3424,0.0],[123.5544,-34.3503,33.3629],[123.551,-34.3536,5.2673],[123.5428,-34.3569,0.0],[123.5455,-34.3601,10.8803],[123.5447,-34.3646,32.0439],[123.5383,-34.3657,3.9127],[123.5338,-34.3688,0.0],[123.5314,-34.3757,0.0],[123.534,-34.3781,0.0],[123.5394,-34.3768,6.6368]]],
[[[123.6019,-34.2369,0.5658],[123.617,-34.2234,0.3003],[123.6101,-34.2268,4.4748],[123.6073,-34.2267,0.3515],[123.6065,-34.2293,1.1738],[123.5953,-34.2397,0.0],[123.6019,-34.2369,0.5658]]],
[[[123.3468,-34.1641,22.0777],[123.3434,-34.1628,0.0],[123.3413,-34.1661,0.0],[123.3463,-34.1654,0.0],[123.3468,-34.1641,22.0777]]],
[[[123.8871,-34.1069,2.2714],[123.89,-34.1054,1.6772],[123.8913,-34.1025,2.4386],[123.8883,-34.1005,1.432],[123.8846,-34.1017,0.0],[123.8855,-34.1081,0.0],[123.8871,-34.1069,2.2714]]],
[[[123.8768,-34.0986,0.0],[123.8773,-34.0978,0.0],[123.8765,-34.0975,0.0],[123.876,-34.0981,0.0],[123.8768,-34.0986,0.0]]],
[[[123.9032,-34.0916,0.0],[123.9025,-34.0905,0.0],[123.9018,-34.0927,0.0],[123.9025,-34.0931,0.0],[123.9032,-34.0916,0.0]]],
[[[123.8973,-34.0899,0.0],[123.898,-34.089,0.0],[123.8969,-34.0887,0.0],[123.8966,-34.0896,0.0],[123.8973,-34.0899,0.0]]],
[[[123.2273,-34.0551,0.7271],[123.2253,-34.0557,0.8037],[123.2249,-34.0571,0.0],[123.2277,-34.0578,0.0],[123.2273,-34.0551,0.7271]]],
[[[123.1636,-34.0559,0.0],[123.1643,-34.055,0.0],[123.1629,-34.0546,0.0],[123.1624,-34.0553,0.0],[123.1636,-34.0559,0.0]]],
[[[123.2262,-34.0533,0.0],[123.2245,-34.0525,0.0],[123.223,-34.0527,0.0],[123.2247,-34.0537,0.0],[123.2262,-34.0533,0.0]]],
[[[123.2598,-34.0508,1.2391],[123.2579,-34.0509,1.2391],[123.2581,-34.0531,0.0],[123.2593,-34.0527,0.641],[123.2598,-34.0508,1.2391]]],
[[[123.2241,-34.051,0.0],[123.2239,-34.0498,0.0],[123.2231,-34.0496,0.0],[123.2227,-34.0508,0.0],[123.2241,-34.051,0.0]]],
[[[123.2367,-34.0428,0.0],[123.2416,-34.0425,0.0],[123.2422,-34.0413,0.0],[123.2403,-34.04,5.135],[123.2363,-34.0408,2.3693],[123.2333,-34.0377,0.0],[123.2307,-34.0379,0.0],[123.2309,-34.04,0.0],[123.2367,-34.0428,0.0]]],
[[[123.2396,-34.0286,0.2772],[123.2375,-34.0282,2.4065],[123.2349,-34.0311,0.0],[123.2367,-34.0312,0.0],[123.2396,-34.0286,0.2772]]],
[[[123.2495,-34.0277,1.7006],[123.2489,-34.0265,1.7006],[123.2515,-34.0245,9.0504],[123.2576,-34.0226,4.4943],[123.2576,-34.0188,1.2193],[123.2424,-34.0245,0.0],[123.244,-34.0268,1.8944],[123.2415,-34.0285,1.908],[123.2438,-34.0312,0.0],[123.2495,-34.0277,1.7006]]],
[[[123.1401,-34.1642,29.5227],[123.1429,-34.1671,0.0],[123.1464,-34.1668,0.0],[123.1421,-34.1627,0.0],[123.1385,-34.1618,6.0508],[123.1348,-34.1621,0.0],[123.1342,-34.1639,0.0],[123.1365,-34.1655,2.661],[123.1401,-34.1642,29.5227]]],
[[[122.8472,-34.1286,0.0],[122.8459,-34.1299,0.0],[122.8473,-34.131,0.0],[122.8483,-34.1301,0.0],[122.8472,-34.1286,0.0]]],
[[[123.0652,-34.1232,0.0],[123.0692,-34.1209,1.1217],[123.0724,-34.1208,0.0],[123.0666,-34.1175,0.0],[123.0652,-34.1232,0.0]]],
[[[123.0669,-34.1149,0.0],[123.0681,-34.1163,0.0],[123.0733,-34.1137,0.0],[123.0702,-34.1112,0.0],[123.0669,-34.1149,0.0]]],
[[[123.21,-34.1042,35.2716],[123.2083,-34.1029,47.5527],[123.2165,-34.0898,5.8307],[123.2152,-34.0809,0.7392],[123.2093,-34.0906,0.0],[123.2017,-34.0929,2.5846],[123.1937,-34.0908,2.8808],[123.1887,-34.0945,1.3728],[123.1868,-34.0946,13.868],[123.1856,-34.0925,0.2435],[123.181,-34.0957,23.4482],[123.1783,-34.0933,13.7152],[123.1761,-34.094,26.4583],[123.1738,-34.0898,51.9016],[123.1703,-34.0904,0.0],[123.167,-34.0953,0.0],[123.1673,-34.0991,13.7787],[123.1575,-34.1103,3.7751],[123.1611,-34.1169,0.0],[123.164,-34.1127,4.9426],[123.1706,-34.1137,0.0],[123.1733,-34.1176,0.0],[123.172,-34.1204,0.0],[123.1732,-34.1245,0.0],[123.1751,-34.1231,0.0],[123.1764,-34.1186,0.0],[123.1771,-34.1112,37.6282],[123.1826,-34.1068,0.0],[123.1938,-34.1086,0.0],[123.193,-34.1174,0.0],[123.1975,-34.1156,0.0],[123.2021,-34.1084,42.9501],[123.2059,-34.1077,0.0],[123.2067,-34.1119,32.9313],[123.2037,-34.114,0.0],[123.2065,-34.1194,0.0],[123.2099,-34.118,0.0],[123.2139,-34.1128,1.0317],[123.2154,-34.1076,0.0],[123.21,-34.1042,35.2716]]],
[[[123.1853,-34.0863,0.0],[123.1885,-34.0784,0.8239],[123.1805,-34.0772,0.0],[123.1787,-34.0798,0.0],[123.1803,-34.0838,0.0],[123.1832,-34.0872,0.0],[123.1853,-34.0863,0.0]]],
[[[123.2326,-34.0616,2.5328],[123.2297,-34.0636,0.8213],[123.23,-34.0689,0.0],[123.2343,-34.0721,0.0],[123.2372,-34.0716,0.0],[123.23779999999999,-34.0705,0.0],[123.2331,-34.0651,1.9493],[123.2339,-34.0622,0.0],[123.2326,-34.0616,2.5328]]],
[[[123.2276,-34.0623,0.0],[123.2274,-34.0611,0.0],[123.2257,-34.0614,0.0],[123.2265,-34.0623,0.0],[123.2276,-34.0623,0.0]]],
[[[123.0322,-34.1117,0.0],[123.0299,-34.1119,0.0],[123.0292,-34.1131,0.0],[123.0308,-34.1136,0.0],[123.0322,-34.1117,0.0]]],
[[[123.1046,-34.0999,0.0],[123.1091,-34.097,0.0],[123.107,-34.0957,6.6643],[123.1086,-34.0907,1.1789],[123.1045,-34.0935,15.3046],[123.1018,-34.0929,0.0],[123.1005,-34.0957,0.0],[123.1046,-34.0999,0.0]]],
[[[123.1039,-34.092,3.0875],[123.1048,-34.0914,3.0875],[123.1044,-34.0909,0.0],[123.1032,-34.0911,0.0],[123.1039,-34.092,3.0875]]],
[[[122.9696,-34.0788,12.4348],[122.9701,-34.0708,0.0],[122.9682,-34.0742,0.5393],[122.9633,-34.0753,0.0],[122.9624,-34.0796,0.0],[122.9636,-34.0814,5.2997],[122.9609,-34.0841,0.0],[122.9623,-34.0854,2.6432],[122.9662,-34.0846,0.0],[122.9696,-34.0788,12.4348]]],
[[[122.8306,-34.0879,0.0],[122.8317,-34.0902,0.0],[122.8349,-34.0896,0.9874],[122.8389,-34.084,0.0],[122.8371,-34.0844,0.0],[122.8306,-34.0879,0.0]]],
[[[122.7526,-34.0443,0.0],[122.7529,-34.045,0.0],[122.7568,-34.0442,0.0],[122.7547,-34.0433,0.0],[122.7526,-34.0443,0.0]]],
[[[122.7599,-34.0438,0.0],[122.7589,-34.0434,0.0],[122.7583,-34.0439,0.0],[122.7591,-34.0444,0.0],[122.7599,-34.0438,0.0]]],
[[[122.6818,-34.0169,3.2224],[122.6837,-34.0173,0.0],[122.6844,-34.0153,0.0],[122.6803,-34.0157,0.0],[122.6818,-34.0169,3.2224]]],
[[[123.2866,-34.0233,0.0],[123.2902,-34.0245,0.0],[123.2918,-34.0234,0.0],[123.2948,-34.0191,4.0338],[123.2936,-34.0154,2.1919],[123.2923,-34.0152,0.0],[123.2866,-34.0233,0.0]]],
[[[123.5367,-34.0106,1.1148],[123.5362,-34.0089,0.9629],[123.5275,-34.0073,5.7334],[123.5264,-34.0056,2.6446],[123.5237,-34.0069,0.0],[123.523,-34.0083,0.0],[123.5295,-34.0103,0.0],[123.531,-34.0165,0.0],[123.5276,-34.0233,0.0],[123.5318,-34.0214,0.0],[123.5337,-34.0109,24.9104],[123.5367,-34.0106,1.1148]]],
[[[123.5153,-34.0142,0.574],[123.5148,-34.0129,0.0],[123.5134,-34.0148,0.0],[123.5142,-34.0152,0.0],[123.5153,-34.0142,0.574]]],
[[[123.5367,-34.0077,0.0],[123.5379,-34.0075,0.0],[123.5376,-34.0064,0.0],[123.5363,-34.0066,0.0],[123.5367,-34.0077,0.0]]],
[[[123.2198,-34.0032,2.2394],[123.2181,-34.0034,0.0],[123.2174,-34.0043,0.0],[123.2216,-34.0049,0.0],[123.2198,-34.0032,2.2394]]],
[[[123.1611,-34.0025,0.0],[123.1608,-34.0014,0.0],[123.1599,-34.002,0.0],[123.1604,-34.0024,0.0],[123.1611,-34.0025,0.0]]],
[[[123.5405,-34.0004,0.7235],[123.5386,-34.0009,0.0],[123.5406,-34.0031,0.0],[123.5414,-34.0018,0.0],[123.5405,-34.0004,0.7235]]],
[[[123.1643,-33.9987,0.6363],[123.163,-33.9983,0.0],[123.1615,-34.0006,0.4497],[123.1634,-34.0006,0.0],[123.1643,-33.9987,0.6363]]],
[[[123.5533,-33.994,1.1074],[123.5525,-33.9932,1.1074],[123.5496,-33.9948,0.0],[123.5508,-33.9953,0.0],[123.5533,-33.994,1.1074]]],
[[[123.5543,-33.9924,0.0],[123.5547,-33.9912,0.0],[123.5528,-33.9918,1.5262],[123.5532,-33.9924,1.5262],[123.5543,-33.9924,0.0]]],
[[[123.5587,-33.9336,0.0],[123.5583,-33.9339,0.0],[123.5592,-33.9342,0.0],[123.5592,-33.9338,0.0],[123.5587,-33.9336,0.0]]],
[[[123.3399,-33.9201,0.4229],[123.3384,-33.92,0.4229],[123.337,-33.9228,0.141],[123.3396,-33.9218,0.2079],[123.3399,-33.9201,0.4229]]],
[[[123.3419,-33.9199,-0.0335],[123.3423,-33.9191,0.0],[123.3412,-33.9185,0.0],[123.3407,-33.919,0.0],[123.3419,-33.9199,-0.0335]]],
[[[123.6452,-33.8884,0.0687],[123.6534,-33.8848,2.1849],[123.6468,-33.8861,0.0],[123.6425,-33.8843,0.0],[123.636,-33.8855,0.0],[123.6338,-33.8875,0.0],[123.6411,-33.8873,2.0736],[123.6411,-33.8886,0.0171],[123.6445,-33.8868,1.2656],[123.6452,-33.8884,0.0687]]],
[[[123.6557,-33.8513,0.0],[123.6561,-33.8522,0.0],[123.6574,-33.8519,0.0],[123.6565,-33.8508,0.0],[123.6557,-33.8513,0.0]]],
[[[123.6675,-33.8488,0.0662],[123.6686,-33.8486,0.0662],[123.6686,-33.8472,0.0],[123.6671,-33.8483,0.0],[123.6675,-33.8488,0.0662]]],
[[[122.8091,-33.9206,0.2199],[122.809,-33.9214,0.0],[122.8129,-33.9238,0.0],[122.8127,-33.9223,1.7277],[122.8091,-33.9206,0.2199]]],
[[[122.6748,-33.922,0.0749],[122.6741,-33.9203,0.0],[122.6727,-33.9209,0.0],[122.6733,-33.9228,0.0],[122.6748,-33.922,0.0749]]],
[[[122.7121,-33.9146,9.5196],[122.7079,-33.9156,0.0],[122.7071,-33.9181,0.0],[122.7086,-33.9191,10.2135],[122.7118,-33.9178,5.0126],[122.713,-33.9158,0.0],[122.7121,-33.9146,9.5196]]],
[[[122.8277,-33.9142,0.0],[122.8237,-33.9168,8.9954],[122.8321,-33.9176,2.0855],[122.831,-33.9147,18.0197],[122.8277,-33.9142,0.0]]],
[[[123.1421,-33.9318,0.3799],[123.1434,-33.9299,0.0],[123.143,-33.9295,0.0],[123.1409,-33.9315,0.3799],[123.1421,-33.9318,0.3799]]],
[[[122.8711,-33.9237,4.24],[122.8746,-33.9228,22.0154],[122.8748,-33.9188,5.9862],[122.8719,-33.9183,7.2395],[122.8703,-33.9211,1.8516],[122.8711,-33.9237,4.24]]],
[[[122.9752,-33.9065,0.7837],[122.9748,-33.9056,0.4128],[122.9731,-33.9095,0.0],[122.9744,-33.909,0.0],[122.9752,-33.9065,0.7837]]],
[[[122.9923,-33.9034,0.1983],[122.9933,-33.9039,0.2035],[122.994,-33.9029,0.0],[122.9933,-33.9026,0.0],[122.9923,-33.9034,0.1983]]],
[[[122.6915,-33.914,0.0],[122.6923,-33.9136,0.0],[122.6921,-33.9128,0.0],[122.6908,-33.9133,0.0],[122.6915,-33.914,0.0]]],
[[[122.8182,-33.9103,0.0],[122.8193,-33.9107,0.0],[122.8233,-33.9077,0.0751],[122.8224,-33.9075,0.0751],[122.8182,-33.9103,0.0]]],
[[[122.7555,-33.8941,1.3293],[122.7513,-33.8992,0.0],[122.7531,-33.9038,0.0],[122.7562,-33.8999,0.0],[122.7568,-33.8962,0.9109],[122.7555,-33.8941,1.3293]]],
[[[122.7388,-33.8988,0.0],[122.7398,-33.8991,0.0],[122.7401,-33.8984,0.0],[122.7394,-33.898,0.0],[122.7388,-33.8988,0.0]]],
[[[122.9726,-33.9033,3.391],[122.9726,-33.9021,2.3427],[122.9717,-33.9009,0.0],[122.9721,-33.9056,0.3673],[122.9726,-33.9033,3.391]]],
[[[123.0171,-33.8636,0.0],[123.0176,-33.8631,0.0],[123.0168,-33.8622,0.0],[123.0166,-33.8632,0.0],[123.0171,-33.8636,0.0]]],
[[[122.3488,-34.2078,0.0],[122.3469,-34.2084,3.7357],[122.3461,-34.2098,0.0],[122.3499,-34.2097,6.1902],[122.3488,-34.2078,0.0]]],
[[[122.3485,-34.2021,1.6532],[122.3461,-34.2038,0.0],[122.3469,-34.2064,0.0],[122.3505,-34.2047,0.0],[122.3505,-34.2028,0.0],[122.3485,-34.2021,1.6532]]],
[[[122.4938,-34.1968,11.6597],[122.4972,-34.1976,12.7806],[122.4998,-34.1937,0.3798],[122.4932,-34.1943,0.0],[122.4926,-34.1964,11.6597],[122.4938,-34.1968,11.6597]]],
[[[122.5079,-34.1935,0.0],[122.5066,-34.1943,0.0],[122.5083,-34.1956,0.0],[122.5091,-34.1945,0.0],[122.5079,-34.1935,0.0]]],
[[[122.4889,-34.1932,0.0],[122.4873,-34.1935,0.0],[122.488,-34.1949,0.0],[122.4894,-34.1946,0.0],[122.4889,-34.1932,0.0]]],
[[[122.3183,-34.1447,0.0],[122.3171,-34.1438,0.3097],[122.3166,-34.1439,0.3097],[122.3172,-34.1459,1.398],[122.3183,-34.1447,0.0]]],
[[[122.3435,-34.1159,1.8791],[122.3447,-34.1152,0.0],[122.343,-34.1143,0.0],[122.3425,-34.1151,1.8791],[122.3435,-34.1159,1.8791]]],
[[[122.3419,-34.1098,0.0],[122.3443,-34.1074,0.0],[122.3432,-34.1063,1.1346],[122.3422,-34.1069,1.1346],[122.3419,-34.1098,0.0]]],
[[[122.3466,-34.1037,0.9378],[122.3478,-34.1016,13.4065],[122.3448,-34.1011,0.0],[122.3441,-34.1059,1.5055],[122.3458,-34.1055,1.511],[122.3466,-34.1037,0.9378]]],
[[[122.5434,-34.0882,8.6115],[122.5348,-34.0877,0.0],[122.5331,-34.0905,0.0],[122.5377,-34.0919,4.7864],[122.5461,-34.0897,0.0],[122.5462,-34.088,0.0],[122.5434,-34.0882,8.6115]]],
[[[122.5841,-34.0184,0.0],[122.5845,-34.0177,0.0],[122.5834,-34.0179,0.0],[122.5834,-34.0185,0.0],[122.5841,-34.0184,0.0]]],
[[[122.3141,-34.0135,8.8169],[122.3129,-34.0113,15.6588],[122.3089,-34.0116,23.6435],[122.3086,-34.0094,0.0],[122.3045,-34.0143,0.0],[122.3068,-34.0156,11.0346],[122.3141,-34.0135,8.8169]]],
[[[122.2422,-34.0268,2.7189],[122.2415,-34.0287,11.6143],[122.2431,-34.029,11.6143],[122.2438,-34.0271,3.2598],[122.2422,-34.0268,2.7189]]],
[[[122.3013,-34.0236,0.0],[122.3005,-34.0221,27.7718],[122.3027,-34.0215,11.3327],[122.299,-34.0197,13.5425],[122.2983,-34.0215,0.0],[122.3013,-34.0236,0.0]]],
[[[122.3058,-34.0182,0.0],[122.3064,-34.0199,0.0],[122.3095,-34.0206,0.0],[122.3092,-34.0196,0.0],[122.3058,-34.0182,0.0]]],
[[[122.3038,-34.0178,0.0],[122.3035,-34.0172,0.0],[122.3024,-34.0178,0.0],[122.303,-34.0187,1.0379],[122.3038,-34.0178,0.0]]],
[[[123.1267,-34.0765,0.0],[123.1286,-34.0748,0.0],[123.1281,-34.0741,0.4063],[123.1259,-34.0754,0.0],[123.1267,-34.0765,0.0]]],
[[[123.0724,-34.072,0.0],[123.0706,-34.0711,0.0],[123.069,-34.072,0.0],[123.0707,-34.0729,0.0],[123.0724,-34.072,0.0]]],
[[[123.156,-34.0234,0.0],[123.1639,-34.0245,0.0],[123.1605,-34.0224,0.0],[123.1555,-34.0219,0.0],[123.156,-34.0234,0.0]]],
[[[123.1447,-34.0043,0.0],[123.1458,-34.0041,0.0],[123.1463,-34.0033,0.0],[123.145,-34.0028,0.0],[123.1447,-34.0043,0.0]]],
[[[122.6588,-33.9936,0.0],[122.6573,-33.9928,0.0],[122.6519,-33.9953,0.2669],[122.6577,-33.9952,0.1228],[122.6588,-33.9936,0.0]]],
[[[122.8527,-33.9859,0.0],[122.8604,-33.9853,0.7611],[122.8627,-33.9835,1.664],[122.8612,-33.9823,0.0],[122.8554,-33.9822,7.5389],[122.8507,-33.9845,8.3612],[122.8433,-33.9831,30.4938],[122.8371,-33.9875,3.3126],[122.8366,-33.9899,35.8448],[122.834,-33.99,19.5929],[122.8344,-33.9926,23.4034],[122.8327,-33.9942,5.732],[122.8278,-33.9947,19.5227],[122.8232,-33.9931,0.0],[122.8243,-33.9974,21.162],[122.8169,-33.9998,0.0],[122.814,-34.003,0.0],[122.8161,-34.004,8.2511],[122.8189,-34.0016,9.5268],[122.8225,-34.0029,48.0651],[122.8262,-33.9987,8.9201],[122.8304,-33.9985,0.0],[122.8324,-33.9961,7.026],[122.848,-33.9931,0.0],[122.8532,-33.9893,2.1427],[122.8527,-33.9859,0.0]]],
[[[122.7139,-33.9896,0.0],[122.7127,-33.9918,0.0],[122.7157,-33.9954,0.0],[122.7173,-33.9901,0.0],[122.7152,-33.9885,0.0],[122.7139,-33.9896,0.0]]],
[[[122.6561,-33.9916,0.0],[122.6566,-33.9915,0.0],[122.6569,-33.9909,0.0],[122.6554,-33.9909,0.0],[122.6561,-33.9916,0.0]]],
[[[122.8709,-34.0001,0.0101],[122.8691,-33.9999,0.0101],[122.8683,-34.0014,0.0],[122.8702,-34.002,0.0],[122.8709,-34.0001,0.0101]]],
[[[122.8732,-33.9927,2.1288],[122.8737,-33.9916,2.1288],[122.8757,-33.9902,1.3119],[122.8713,-33.9899,6.3672],[122.8732,-33.9927,2.1288]]],
[[[123.1485,-33.9837,1.1947],[123.1469,-33.9844,1.1947],[123.1479,-33.9885,1.1502],[123.1501,-33.9865,0.0],[123.1485,-33.9837,1.1947]]],
[[[122.8991,-33.9789,0.0],[122.8992,-33.9797,0.0],[122.9001,-33.9792,0.0],[122.8995,-33.9789,0.0],[122.8991,-33.9789,0.0]]],
[[[122.9032,-33.9783,0.0797],[122.903,-33.9792,0.0797],[122.904,-33.9789,0.0],[122.9038,-33.9784,0.0797],[122.9032,-33.9783,0.0797]]],
[[[123.1356,-33.9805,0.0],[123.1379,-33.9789,0.0],[123.1397,-33.9809,0.3724],[123.1413,-33.9774,0.0],[123.1398,-33.9765,0.0],[123.1356,-33.9805,0.0]]],
[[[122.9009,-33.978,0.0],[122.9013,-33.9783,0.0],[122.9025,-33.9777,0.2293],[122.9017,-33.9773,0.0848],[122.9009,-33.978,0.0]]],
[[[122.8983,-33.9778,1.3428],[122.899,-33.9769,1.3428],[122.8973,-33.9761,0.5686],[122.8969,-33.9764,0.6169],[122.8983,-33.9778,1.3428]]],
[[[122.689,-34.0138,0.4482],[122.6882,-34.0126,0.0],[122.6875,-34.0145,0.0],[122.6887,-34.0148,0.4308],[122.689,-34.0138,0.4482]]],
[[[122.8131,-34.0086,32.2815],[122.8077,-34.0007,0.0],[122.8036,-34.0012,0.0],[122.7984,-34.0045,0.0],[122.7996,-34.0142,0.0],[122.8027,-34.0092,81.2497],[122.8071,-34.0082,26.1033],[122.8118,-34.0101,11.4117],[122.8131,-34.0086,32.2815]]],
[[[122.6546,-34.0049,4.842],[122.6558,-34.0033,1.5728],[122.6518,-34.0039,0.0],[122.6524,-34.0051,0.0],[122.6546,-34.0049,4.842]]],
[[[122.6538,-34.001,8.9325],[122.6544,-33.9967,1.2457],[122.6473,-33.9982,0.0],[122.6503,-34.0023,26.3396],[122.6538,-34.001,8.9325]]],
[[[122.5699,-34.0115,0.0],[122.5712,-34.0115,0.0],[122.572,-34.0106,0.0],[122.569,-34.0103,0.0],[122.5699,-34.0115,0.0]]],
[[[122.5744,-34.0086,0.0],[122.5765,-34.0093,3.5144],[122.5794,-34.0073,0.0],[122.5765,-34.0061,0.0],[122.5744,-34.0086,0.0]]],
[[[122.5832,-34.0036,0.0],[122.5891,-34.0064,0.0],[122.5913,-34.0034,0.0],[122.5884,-34.002,0.0],[122.5832,-34.0036,0.0]]],
[[[122.5378,-34.0042,0.0],[122.5369,-34.0055,0.0],[122.5391,-34.0073,15.2714],[122.5419,-33.9988,0.0],[122.5403,-34.0018,2.3209],[122.5378,-34.0042,0.0]]],
[[[122.1979,-34.0153,0.0],[122.1968,-34.0148,0.0],[122.1971,-34.0171,0.0],[122.1983,-34.0164,0.0],[122.1979,-34.0153,0.0]]],
[[[122.2357,-34.0125,3.9925],[122.2379,-34.0129,7.7906],[122.2389,-34.0114,7.7906],[122.2362,-34.0107,0.0],[122.2357,-34.0125,3.9925]]],
[[[122.2456,-34.0076,1.0795],[122.2466,-34.0058,18.9355],[122.2487,-34.0059,0.0],[122.246,-34.0029,0.0],[122.2436,-34.0039,0.0],[122.2435,-34.0062,13.1112],[122.2392,-34.008,0.0],[122.239,-34.0097,0.0],[122.2404,-34.0117,3.5219],[122.2456,-34.0076,1.0795]]],
[[[122.2833,-33.992,0.0],[122.2804,-33.993,2.7218],[122.2843,-33.9951,0.0],[122.2847,-33.9942,0.0],[122.2833,-33.992,0.0]]],
[[[122.6291,-33.9985,0.0],[122.633,-34.004,15.1933],[122.6347,-34.0038,1.3191],[122.6359,-33.9996,27.1913],[122.6314,-33.9978,0.0],[122.6291,-33.9985,0.0]]],
[[[122.5748,-34.0014,0.0],[122.5744,-33.9997,0.7506],[122.5725,-33.9995,0.0],[122.5737,-34.0016,1.1197],[122.5748,-34.0014,0.0]]],
[[[122.6246,-33.9956,0.1754],[122.626,-33.9957,0.1754],[122.6263,-33.995,0.0],[122.6252,-33.9944,0.0],[122.6246,-33.9956,0.1754]]],
[[[122.6316,-33.992,0.0],[122.6307,-33.9902,0.2097],[122.6292,-33.9907,0.0],[122.6297,-33.9917,0.0],[122.6316,-33.992,0.0]]],
[[[122.665,-33.9894,0.0],[122.6643,-33.99,0.0],[122.6647,-33.9903,0.0],[122.6655,-33.9899,0.0],[122.665,-33.9894,0.0]]],
[[[122.6612,-33.9874,0.0],[122.6573,-33.986,0.0],[122.655,-33.9883,0.0],[122.66,-33.9909,0.0],[122.6621,-33.989,0.0],[122.6612,-33.9874,0.0]]],
[[[122.6357,-33.9878,0.0],[122.6367,-33.9885,0.0],[122.6371,-33.9882,0.0],[122.6364,-33.987,0.0],[122.6357,-33.9878,0.0]]],
[[[122.7212,-33.9851,0.0],[122.7197,-33.9841,0.0],[122.7169,-33.9847,0.0],[122.7193,-33.987,0.0],[122.7212,-33.9851,0.0]]],
[[[122.3081,-33.9938,0.0],[122.3091,-33.9918,0.0],[122.3088,-33.9908,0.0],[122.3072,-33.9918,0.0],[122.3081,-33.9938,0.0]]],
[[[122.302,-33.9888,0.0],[122.3019,-33.9874,1.525],[122.2997,-33.9876,6.6443],[122.3004,-33.989,1.2757],[122.302,-33.9888,0.0]]],
[[[122.2984,-33.986,0.0],[122.2995,-33.9855,0.0],[122.2991,-33.9846,0.0],[122.2981,-33.9851,0.0],[122.2984,-33.986,0.0]]],
[[[122.2996,-33.9828,0.0],[122.3002,-33.9808,0.0],[122.2999,-33.9805,0.0],[122.2981,-33.9831,0.0],[122.2996,-33.9828,0.0]]],
[[[122.3417,-33.9845,0.0],[122.3427,-33.9846,0.0],[122.3434,-33.9832,0.0],[122.3429,-33.9829,0.0],[122.3417,-33.9845,0.0]]],
[[[122.439,-33.9804,0.0],[122.4335,-33.9801,8.084],[122.4314,-33.9833,0.0],[122.4335,-33.9832,0.0],[122.439,-33.9804,0.0]]],
[[[122.5113,-33.9644,0.0],[122.5126,-33.9642,0.0],[122.513,-33.9629,0.0],[122.5116,-33.9635,0.0],[122.5113,-33.9644,0.0]]],
[[[122.5267,-33.96,4.3337],[122.5206,-33.9576,0.0],[122.5166,-33.961,0.0],[122.5237,-33.9628,4.4211],[122.5297,-33.9612,0.0],[122.5267,-33.96,4.3337]]],
[[[122.2975,-33.9795,0.0],[122.2987,-33.9798,0.0],[122.2991,-33.9793,0.0],[122.2981,-33.9787,0.0],[122.2975,-33.9795,0.0]]],
[[[122.2755,-33.9771,0.0],[122.2757,-33.9758,0.0],[122.2743,-33.9762,0.0],[122.2748,-33.977,0.0],[122.2755,-33.9771,0.0]]],
[[[122.3067,-33.966,0.0],[122.3072,-33.9651,0.0],[122.306,-33.9644,0.0],[122.3057,-33.9649,0.0],[122.3067,-33.966,0.0]]],
[[[122.305,-33.9629,17.8617],[122.3018,-33.959,1.0831],[122.3032,-33.9634,1.6738],[122.3048,-33.9642,1.6738],[122.305,-33.9629,17.8617]]],
[[[124.1293,-33.8537,0.4679],[124.1242,-33.8515,3.032],[124.1247,-33.8566,5.7579],[124.1267,-33.8576,15.4773],[124.1297,-33.8565,9.0696],[124.1293,-33.8537,0.4679]]],
[[[124.1212,-33.8522,0.559],[124.1227,-33.8507,0.0],[124.1188,-33.8528,0.0],[124.1201,-33.8532,0.0],[124.1212,-33.8522,0.559]]],
[[[124.1458,-33.8446,2.1649],[124.1463,-33.8433,3.2423],[124.1408,-33.8417,2.4458],[124.1381,-33.8392,0.0],[124.1336,-33.8391,0.0],[124.1306,-33.8419,13.6085],[124.1301,-33.8448,0.0],[124.135,-33.8481,3.5879],[124.1351,-33.8512,0.5118],[124.1367,-33.8521,1.9145],[124.1346,-33.8566,6.046],[124.1317,-33.8578,0.0924],[124.1301,-33.8628,0.0],[124.1359,-33.8646,0.0],[124.1404,-33.862,49.6417],[124.1401,-33.8543,21.7988],[124.1458,-33.8446,2.1649]]],
[[[123.984,-33.8261,1.5139],[123.9833,-33.8243,0.0],[123.9815,-33.8264,0.0],[123.9827,-33.8268,1.4969],[123.984,-33.8261,1.5139]]],
[[[123.7345,-33.8298,0.55],[123.7354,-33.8292,0.4099],[123.7354,-33.8286,0.4099],[123.7341,-33.8292,0.25],[123.7345,-33.8298,0.55]]],
[[[123.746,-33.8146,0.0],[123.7432,-33.8161,0.0],[123.7406,-33.8206,0.1786],[123.7421,-33.8201,0.1899],[123.746,-33.8146,0.0]]],
[[[124.1735,-33.8146,0.0],[124.1741,-33.8139,0.0],[124.1731,-33.8136,0.0],[124.1727,-33.8145,0.0],[124.1735,-33.8146,0.0]]],
[[[124.043,-33.7645,0.0],[124.039,-33.7659,0.0],[124.039,-33.7682,0.0],[124.0425,-33.7668,15.1318],[124.043,-33.7645,0.0]]],
[[[124.1653,-33.7598,0.0],[124.1643,-33.7593,0.0],[124.1586,-33.7635,0.0],[124.1577,-33.7667,1.4601],[124.1653,-33.7609,0.0],[124.1653,-33.7598,0.0]]],
[[[124.0896,-33.7423,0.0],[124.0876,-33.7429,0.0],[124.0895,-33.7461,0.4755],[124.0903,-33.7439,0.0],[124.0896,-33.7423,0.0]]],
[[[124.1258,-33.7399,0.2759],[124.1266,-33.7398,0.1686],[124.1267,-33.739,0.0],[124.1251,-33.7391,0.0506],[124.1258,-33.7399,0.2759]]],
[[[124.0784,-33.7349,0.0],[124.0789,-33.7355,0.0],[124.0799,-33.7347,0.0],[124.0789,-33.7342,0.0],[124.0784,-33.7349,0.0]]],
[[[124.0936,-33.7352,0.0],[124.0912,-33.738,0.0],[124.0954,-33.7383,0.0],[124.0989,-33.7364,3.3625],[124.1004,-33.7314,0.0239],[124.0966,-33.733,4.5002],[124.0948,-33.7318,0.0],[124.0924,-33.7341,0.0],[124.0936,-33.7352,0.0]]],
[[[124.0789,-33.7276,0.0],[124.0772,-33.7295,0.0],[124.0803,-33.7305,0.9883],[124.0807,-33.7296,0.9883],[124.0789,-33.7276,0.0]]],
[[[124.1013,-33.7162,0.0],[124.0985,-33.7175,0.0],[124.0944,-33.7237,0.0],[124.0982,-33.7236,2.9308],[124.101,-33.7194,14.4792],[124.1013,-33.7162,0.0]]],
[[[124.1646,-33.7202,1.1069],[124.1654,-33.7186,0.0],[124.1628,-33.7196,0.0],[124.1631,-33.7202,0.0],[124.1646,-33.7202,1.1069]]],
[[[123.7982,-33.7155,0.0],[123.7992,-33.7154,0.0],[123.7989,-33.7147,0.0],[123.7981,-33.7149,0.0],[123.7982,-33.7155,0.0]]],
[[[123.9687,-33.6375,0.4066],[123.9679,-33.6365,0.4066],[123.9641,-33.64,1.259],[123.9669,-33.6412,4.7551],[123.9694,-33.6385,0.4499],[123.9687,-33.6375,0.4066]]],
[[[123.9997,-33.6353,0.0],[123.9989,-33.6343,0.0],[123.9974,-33.6349,0.0],[123.998,-33.6356,0.0],[123.9997,-33.6353,0.0]]],
[[[123.9618,-33.6337,0.0],[123.9612,-33.6344,0.0],[123.9621,-33.6348,0.0],[123.9626,-33.6341,0.0],[123.9618,-33.6337,0.0]]],
[[[123.949,-33.6338,0.0],[123.9493,-33.6341,0.0],[123.95,-33.6339,0.0],[123.9498,-33.6335,0.0],[123.949,-33.6338,0.0]]],
[[[123.9488,-33.6325,0.0],[123.9489,-33.633,0.0],[123.9497,-33.6328,0.0],[123.9493,-33.6323,0.0],[123.9488,-33.6325,0.0]]],
[[[123.9655,-33.6297,0.0],[123.9667,-33.6301,0.0],[123.9668,-33.6293,0.0],[123.9659,-33.6289,0.0],[123.9655,-33.6297,0.0]]],
[[[123.9586,-33.6267,0.0],[123.9591,-33.627,0.0],[123.9595,-33.6267,0.0],[123.9589,-33.6261,0.0],[123.9586,-33.6267,0.0]]],
[[[123.9523,-33.6249,0.0],[123.9536,-33.6248,0.0496],[123.9536,-33.6243,0.0],[123.9531,-33.6241,0.0],[123.9523,-33.6249,0.0]]],
[[[123.9552,-33.6209,0.0],[123.9555,-33.6212,0.0],[123.9562,-33.6204,0.0],[123.9556,-33.62,0.0],[123.9552,-33.6209,0.0]]],
[[[123.9578,-33.6199,0.0],[123.9579,-33.6193,0.0],[123.957,-33.6189,0.0523],[123.9571,-33.6202,0.0],[123.9578,-33.6199,0.0]]],
[[[122.2165,-34.3726,1.0126],[122.215,-34.3728,1.0126],[122.2151,-34.3739,0.0],[122.2168,-34.3738,0.0],[122.2165,-34.3726,1.0126]]],
[[[122.2168,-34.3662,0.0],[122.2156,-34.3665,0.0],[122.2157,-34.3677,0.0],[122.2172,-34.3673,0.0],[122.2168,-34.3662,0.0]]],
[[[122.2195,-34.2608,0.0],[122.2184,-34.2609,0.0],[122.2178,-34.2626,0.0],[122.2195,-34.2624,0.0],[122.2195,-34.2608,0.0]]],
[[[122.1497,-34.2233,0.0],[122.1483,-34.2237,0.0],[122.1483,-34.2244,0.0],[122.1499,-34.2244,0.0],[122.1497,-34.2233,0.0]]],
[[[122.0654,-34.2291,0.0],[122.0647,-34.2309,7.8677],[122.0658,-34.232,1.7195],[122.0664,-34.2309,0.0],[122.0654,-34.2291,0.0]]],
[[[122.0746,-34.2216,0.0],[122.0747,-34.2194,0.0],[122.0732,-34.2192,0.0],[122.0724,-34.2207,0.0],[122.0746,-34.2216,0.0]]],
[[[122.0776,-34.2158,0.0],[122.0762,-34.2159,0.0],[122.0767,-34.218,0.0],[122.0785,-34.2172,0.0],[122.0776,-34.2158,0.0]]],
[[[122.0821,-34.2153,8.5546],[122.0851,-34.2164,0.0],[122.0845,-34.2133,24.3729],[122.0798,-34.2115,8.0122],[122.0803,-34.2145,14.1528],[122.0821,-34.2153,8.5546]]],
[[[122.1482,-34.2049,0.0],[122.1493,-34.2053,0.0],[122.1499,-34.2038,0.0],[122.1482,-34.2039,0.0],[122.1482,-34.2049,0.0]]],
[[[122.1092,-34.1996,0.0],[122.1101,-34.1978,0.0],[122.108,-34.195,1.8675],[122.1014,-34.1962,0.0],[122.1026,-34.1996,0.0],[122.1092,-34.1996,0.0]]],
[[[122.0135,-34.1669,4.642],[122.0138,-34.169,3.4769],[122.016,-34.1687,4.2142],[122.0152,-34.1671,5.4793],[122.0135,-34.1669,4.642]]],
[[[122.0184,-34.1642,0.0],[122.0216,-34.1654,1.3822],[122.0222,-34.1624,0.0],[122.0207,-34.1637,5.7168],[122.0184,-34.1642,0.0]]],
[[[122.1535,-34.2158,0.0],[122.1529,-34.2158,0.0],[122.1516,-34.217,0.0],[122.1533,-34.2171,0.0],[122.1535,-34.2158,0.0]]],
[[[122.2147,-34.1513,0.0],[122.2141,-34.1526,0.0],[122.2154,-34.1536,0.0],[122.2162,-34.1523,0.0],[122.2147,-34.1513,0.0]]],
[[[122.2191,-34.1502,0.0],[122.2178,-34.1507,0.0],[122.2182,-34.152,0.0],[122.2194,-34.1515,0.0],[122.2191,-34.1502,0.0]]],
[[[122.2128,-34.1509,0.0],[122.2141,-34.1495,0.0],[122.2122,-34.1489,0.0],[122.2118,-34.1496,0.0],[122.2128,-34.1509,0.0]]],
[[[121.9962,-34.4737,11.3566],[121.9976,-34.4715,12.117],[121.9952,-34.4714,39.3996],[121.9908,-34.4674,12.0515],[121.9886,-34.4675,7.8408],[121.986,-34.4703,0.0],[121.9875,-34.4736,0.0],[121.9945,-34.4747,0.0],[121.9962,-34.4737,11.3566]]],
[[[121.9902,-34.4561,0.0],[121.9895,-34.458,0.0],[121.991,-34.4594,1.14],[121.9918,-34.458,1.14],[121.9902,-34.4561,0.0]]],
[[[121.944,-34.1781,2.5358],[121.9437,-34.1796,0.0],[121.9455,-34.1798,0.0],[121.9453,-34.179,0.6947],[121.944,-34.1781,2.5358]]],
[[[121.8904,-34.1431,0.0],[121.891,-34.1444,0.0],[121.8938,-34.1437,0.0],[121.8923,-34.143,0.0],[121.8904,-34.1431,0.0]]],
[[[121.8515,-34.3069,0.0],[121.8503,-34.3068,0.0],[121.8501,-34.3075,0.0],[121.8507,-34.308,0.0],[121.8515,-34.3069,0.0]]],
[[[121.6763,-34.1777,0.0],[121.6758,-34.1768,0.0],[121.6749,-34.1775,0.0],[121.675,-34.1779,0.0],[121.6763,-34.1777,0.0]]],
[[[121.6614,-34.1766,0.0],[121.6603,-34.1764,0.0],[121.6601,-34.1778,0.0],[121.6609,-34.1779,0.0],[121.6614,-34.1766,0.0]]],
[[[121.8653,-34.0564,0.0],[121.864,-34.0573,0.0],[121.8642,-34.0586,0.0],[121.8668,-34.0573,0.0],[121.8653,-34.0564,0.0]]],
[[[121.9244,-34.1389,1.3735],[121.924,-34.1402,0.7274],[121.9256,-34.1406,5.4151],[121.9258,-34.1396,5.4151],[121.9244,-34.1389,1.3735]]],
[[[121.9331,-34.1342,6.0185],[121.9336,-34.137,1.0613],[121.9368,-34.136,5.0149],[121.936,-34.1346,32.9322],[121.9331,-34.1342,6.0185]]],
[[[121.8979,-34.1343,0.0],[121.8972,-34.136,0.0],[121.8993,-34.1359,0.0],[121.8993,-34.1344,0.0],[121.8979,-34.1343,0.0]]],
[[[121.9811,-34.1275,0.0],[121.9817,-34.1257,0.0],[121.9798,-34.1252,0.0],[121.9796,-34.1268,0.0],[121.9811,-34.1275,0.0]]],
[[[122.0096,-34.1202,0.0],[122.0072,-34.1173,1.8352],[121.9944,-34.1126,1.4045],[121.9929,-34.1161,33.8466],[121.9872,-34.1156,3.9885],[121.9921,-34.1197,0.0],[121.998,-34.117,9.9258],[122.0073,-34.1208,37.3374],[122.008,-34.1227,7.0412],[122.0101,-34.1216,0.0],[122.0096,-34.1202,0.0]]],
[[[121.9932,-34.0626,0.0],[121.9887,-34.0603,3.5895],[121.984,-34.0604,0.0],[121.9758,-34.0643,0.9818],[121.9884,-34.0688,13.632],[121.9962,-34.0654,2.4112],[121.9932,-34.0626,0.0]]],
[[[121.9704,-34.0454,7.3145],[121.9676,-34.0437,1.9687],[121.963,-34.0456,8.3343],[121.9578,-34.045,13.7499],[121.9529,-34.0474,0.0],[121.9537,-34.0496,0.0],[121.9571,-34.0501,18.5366],[121.9572,-34.0524,11.5662],[121.9536,-34.0549,0.0],[121.9542,-34.0578,0.0],[121.957,-34.0567,2.5659],[121.9585,-34.0524,23.0381],[121.961,-34.0502,13.605],[121.9643,-34.05,1.1096],[121.9668,-34.0534,0.0],[121.9735,-34.05,23.6674],[121.9796,-34.0498,6.3985],[121.9749,-34.0451,0.6784],[121.9704,-34.0454,7.3145]]],
[[[121.8853,-34.0469,0.0],[121.8867,-34.0485,0.8316],[121.8881,-34.049,0.0],[121.8864,-34.0467,0.0],[121.8853,-34.0469,0.0]]],
[[[122.1121,-34.161,0.0],[122.11279999999999,-34.1605,0.0],[122.1124,-34.1598,0.0],[122.1116,-34.1607,0.0],[122.1121,-34.161,0.0]]],
[[[122.0313,-34.153,0.0],[122.0305,-34.1528,0.0],[122.0294,-34.154,0.0],[122.0309,-34.154,0.0],[122.0313,-34.153,0.0]]],
[[[122.0213,-34.1466,9.7782],[122.0157,-34.1463,6.0278],[122.0151,-34.1494,9.9881],[122.0233,-34.1511,1.5454],[122.0253,-34.1488,3.1872],[122.0294,-34.1504,0.0],[122.0263,-34.1466,1.3049],[122.0248,-34.1482,9.5703],[122.0213,-34.1466,9.7782]]],
[[[122.0562,-34.1432,9.2893],[122.0504,-34.1379,0.0],[122.0386,-34.142,18.0868],[122.0393,-34.1437,2.2314],[122.0423,-34.1435,2.6696],[122.0438,-34.1451,0.0],[122.0484,-34.1436,2.2952],[122.052,-34.1476,17.4764],[122.0544,-34.1479,11.2118],[122.0592,-34.1462,3.2396],[122.0562,-34.1432,9.2893]]],
[[[122.128,-34.1419,0.7949],[122.1265,-34.1425,0.7949],[122.1275,-34.1439,0.0],[122.1282,-34.1433,0.0],[122.128,-34.1419,0.7949]]],
[[[122.1239,-34.1034,0.0],[122.1224,-34.1034,0.0],[122.1226,-34.1048,0.0],[122.1235,-34.1045,0.0],[122.1239,-34.1034,0.0]]],
[[[122.1131,-34.0976,0.0],[122.1116,-34.0981,0.0],[122.1119,-34.0994,0.0],[122.113,-34.0991,0.0],[122.1131,-34.0976,0.0]]],
[[[122.1216,-34.097,30.0309],[122.1234,-34.0947,0.0],[122.1165,-34.0947,15.9741],[122.1152,-34.0977,1.7016],[122.1171,-34.1001,6.9705],[122.1142,-34.102,1.5476],[122.1215,-34.1006,13.744],[122.1216,-34.097,30.0309]]],
[[[121.9658,-34.1208,0.0],[121.9674,-34.124,6.2115],[121.9691,-34.1239,6.6198],[121.9686,-34.1218,3.0089],[121.9658,-34.1208,0.0]]],
[[[121.9964,-34.1212,0.0],[121.9948,-34.122,0.0],[121.9951,-34.1229,0.0],[121.9967,-34.1229,0.0],[121.9964,-34.1212,0.0]]],
[[[121.971,-34.1196,7.5456],[121.9699,-34.121,7.5456],[121.9725,-34.121,2.6905],[121.9721,-34.1201,2.6905],[121.971,-34.1196,7.5456]]],
[[[121.9839,-34.117,5.9615],[121.9804,-34.1135,12.5833],[121.9758,-34.1138,4.9402],[121.9736,-34.1158,0.0],[121.9735,-34.1202,2.6905],[121.982,-34.1231,0.0],[121.9839,-34.1224,4.3039],[121.9825,-34.1193,0.7461],[121.9839,-34.117,5.9615]]],
[[[122.2365,-34.1109,0.0],[122.2322,-34.1085,4.8342],[122.2307,-34.1116,0.0],[122.233,-34.1136,0.0],[122.2333,-34.1162,20.666],[122.2385,-34.1199,24.6789],[122.2334,-34.123,7.1583],[122.2312,-34.1265,1.5199],[122.2391,-34.1264,8.7135],[122.2374,-34.1345,48.2402],[122.2387,-34.1358,12.1703],[122.2364,-34.1383,0.0],[122.2389,-34.1416,17.0211],[122.237,-34.1496,30.6756],[122.2346,-34.1477,0.0],[122.2341,-34.1511,1.5799],[122.2357,-34.1589,0.0],[122.2385,-34.1578,20.0124],[122.2393,-34.1606,0.0],[122.2425,-34.1604,5.4372],[122.244,-34.1622,3.4307],[122.2463,-34.1613,0.0],[122.2461,-34.1588,0.0],[122.2495,-34.1545,0.0],[122.2492,-34.1451,19.3142],[122.2534,-34.1472,7.1035],[122.2562,-34.143,0.0],[122.2551,-34.1394,7.6745],[122.256,-34.1366,0.0],[122.2528,-34.1322,15.5508],[122.2526,-34.1279,23.9649],[122.2568,-34.1249,9.0844],[122.2597,-34.126,40.8325],[122.2611,-34.1241,19.9044],[122.2581,-34.1216,9.6562],[122.2577,-34.1193,0.0],[122.2558,-34.1219,18.2559],[122.2481,-34.1204,5.5573],[122.2458,-34.1155,0.0],[122.2467,-34.1123,0.0],[122.2454,-34.114,0.6381],[122.2385,-34.111,2.2181],[122.2381,-34.1095,0.0],[122.2365,-34.1109,0.0]]],
[[[122.2201,-34.131,0.0],[122.2196,-34.1328,0.0],[122.2214,-34.1332,0.0],[122.2213,-34.1319,0.0],[122.2201,-34.131,0.0]]],
[[[122.1655,-34.079,5.2383],[122.1671,-34.0781,5.2383],[122.1646,-34.0764,5.0987],[122.1678,-34.0736,0.0],[122.1635,-34.076,0.0],[122.1602,-34.0806,4.4647],[122.1647,-34.0812,26.5051],[122.1655,-34.079,5.2383]]],
[[[122.1622,-34.0754,0.0],[122.1611,-34.0755,0.0],[122.161,-34.0769,0.0],[122.1623,-34.0769,0.0],[122.1622,-34.0754,0.0]]],
[[[122.0259,-34.0663,0.0],[122.0248,-34.0668,0.0],[122.0248,-34.068,0.0],[122.0259,-34.0677,0.0],[122.0259,-34.0663,0.0]]],
[[[122.0177,-34.0652,12.8319],[122.0118,-34.0651,19.64],[122.0079,-34.0635,23.2376],[122.0078,-34.0617,3.8943],[121.9984,-34.0645,0.0],[121.9988,-34.0669,8.7709],[122.0041,-34.0688,7.9184],[122.023,-34.0662,3.0587],[122.0177,-34.0652,12.8319]]],
[[[122.1092,-34.0652,19.6477],[122.1042,-34.059,0.0],[122.1046,-34.0607,0.0],[122.1025,-34.0611,0.0],[122.1023,-34.0632,23.9316],[122.0977,-34.0642,7.1853],[122.1054,-34.0667,0.0],[122.1092,-34.0652,19.6477]]],
[[[122.0646,-34.06,0.0],[122.0653,-34.0584,0.0],[122.0631,-34.0581,0.0],[122.0631,-34.0594,0.0],[122.0646,-34.06,0.0]]],
[[[122.2083,-34.0454,0.0],[122.2065,-34.0458,0.0],[122.2071,-34.047,0.0],[122.2083,-34.0468,0.0],[122.2083,-34.0454,0.0]]],
[[[122.2533,-34.0351,0.0],[122.2529,-34.0343,0.0],[122.2519,-34.0345,0.0],[122.2524,-34.0357,0.0],[122.2533,-34.0351,0.0]]],
[[[122.2312,-34.0321,13.5683],[122.2336,-34.036,11.2209],[122.2371,-34.0341,41.1745],[122.2324,-34.0304,0.0],[122.2298,-34.0306,0.0],[122.2312,-34.0321,13.5683]]],
[[[122.155,-34.031,0.0],[122.1537,-34.0313,0.0],[122.1538,-34.0322,0.0],[122.1549,-34.0322,0.0],[122.155,-34.031,0.0]]],
[[[122.0917,-34.0438,5.6071],[122.0856,-34.041,0.0],[122.089,-34.0465,3.6334],[122.0927,-34.046,16.6151],[122.0917,-34.0438,5.6071]]],
[[[122.049,-34.0384,0.0],[122.0485,-34.0407,0.0],[122.0506,-34.0413,0.0],[122.0508,-34.0387,0.0],[122.049,-34.0384,0.0]]],
[[[122.1471,-34.0278,0.0],[122.1371,-34.0269,0.0],[122.1285,-34.0294,0.0],[122.1368,-34.0302,14.4321],[122.1368,-34.0329,19.1859],[122.1488,-34.0369,0.0],[122.1515,-34.0351,0.0],[122.1515,-34.0315,0.0],[122.1469,-34.0299,19.4456],[122.1471,-34.0278,0.0]]],
[[[122.1152,-34.0193,0.0],[122.1145,-34.0196,0.0],[122.1149,-34.0208,0.0],[122.1159,-34.02,0.0],[122.1152,-34.0193,0.0]]],
[[[122.0069,-34.0299,0.8838],[122.0071,-34.0265,7.1147],[122.0113,-34.0242,0.0],[122.0091,-34.0235,5.6264],[122.0091,-34.0216,0.0],[122.0061,-34.0223,0.0],[122.0015,-34.0264,24.5175],[121.9916,-34.0298,0.0],[121.9825,-34.0367,22.465],[121.9875,-34.0379,41.6442],[121.9875,-34.0407,11.1365],[121.9911,-34.0429,30.1167],[122.0027,-34.0381,0.0],[121.9972,-34.0361,26.3003],[122.0046,-34.0326,11.8238],[122.0037,-34.0317,11.8238],[122.0069,-34.0299,0.8838]]],
[[[121.9851,-33.9927,0.0346],[121.9861,-33.9921,0.0346],[121.9861,-33.9908,0.0],[121.985,-33.9914,0.0346],[121.9851,-33.9927,0.0346]]],
[[[121.9929,-33.9916,1.2544],[121.9977,-33.988,39.6492],[122.0048,-33.9873,0.0],[121.9966,-33.9827,0.0],[121.9954,-33.9805,0.0],[121.993,-33.9824,0.0],[121.9929,-33.9856,12.0246],[121.987,-33.9889,1.2468],[121.9929,-33.9916,1.2544]]],
[[[122.0075,-33.9863,0.0],[122.0081,-33.9856,0.0],[122.0077,-33.9852,0.0],[122.007,-33.9856,0.0],[122.0075,-33.9863,0.0]]],
[[[121.8727,-34.0417,0.0],[121.872,-34.0435,0.0],[121.8745,-34.0435,0.0],[121.8746,-34.0423,0.0],[121.8727,-34.0417,0.0]]],
[[[121.604,-34.0413,0.0],[121.604,-34.043,0.0],[121.6062,-34.0427,0.0],[121.6059,-34.0408,0.0],[121.604,-34.0413,0.0]]],
[[[121.6556,-34.0255,0.3176],[121.6544,-34.0263,0.0],[121.6539,-34.0274,0.0],[121.6558,-34.0268,0.0],[121.6556,-34.0255,0.3176]]],
[[[121.615,-34.0174,1.3941],[121.6162,-34.0132,0.0],[121.6144,-34.012,0.0],[121.6068,-34.0142,0.0],[121.6042,-34.0169,0.0],[121.6066,-34.0199,6.3331],[121.605,-34.0236,0.0],[121.6056,-34.0288,17.8034],[121.5945,-34.0278,0.0],[121.5931,-34.0289,6.3451],[121.5985,-34.0318,9.9461],[121.599,-34.0343,6.499],[121.6033,-34.039,0.0],[121.6069,-34.0389,1.6809],[121.6127,-34.0347,2.3978],[121.6123,-34.0295,0.904],[121.6087,-34.0246,1.9007],[121.6117,-34.0202,1.0399],[121.6164,-34.0194,0.0],[121.615,-34.0174,1.3941]]],
[[[121.6542,-34.0196,0.3758],[121.6552,-34.021,5.5004],[121.6571,-34.0195,0.0],[121.6555,-34.0192,0.6004],[121.6542,-34.0196,0.3758]]],
[[[121.6454,-34.0182,0.6739],[121.6471,-34.0184,1.4919],[121.6482,-34.0176,0.6607],[121.6461,-34.0173,0.1843],[121.6454,-34.0182,0.6739]]],
[[[121.642,-34.0161,0.0],[121.6409,-34.0159,0.0],[121.6404,-34.0164,0.0],[121.6413,-34.0169,0.0],[121.642,-34.0161,0.0]]],
[[[121.6397,-34.0143,0.4817],[121.6424,-34.0138,3.1594],[121.6428,-34.0119,0.0],[121.6395,-34.012,0.1553],[121.6386,-34.014,0.4817],[121.6397,-34.0143,0.4817]]],
[[[121.6867,-34.0016,8.8623],[121.6863,-33.9999,0.8759],[121.6826,-33.9991,6.2096],[121.68,-33.9944,0.0],[121.6697,-33.9948,5.6211],[121.6692,-34.0024,0.0],[121.677,-34.0024,24.2127],[121.6859,-34.0092,11.1929],[121.6895,-34.0063,10.6145],[121.6867,-34.0016,8.8623]]],
[[[121.6996,-33.9944,0.0],[121.6972,-33.9936,0.0],[121.6957,-33.9941,0.0],[121.6975,-33.9953,0.1552],[121.6996,-33.9944,0.0]]],
[[[121.6815,-33.9921,0.3181],[121.686,-33.9897,0.0],[121.6866,-33.9842,0.0],[121.6794,-33.9864,0.6083],[121.6815,-33.9921,0.3181]]],
[[[121.7665,-33.9232,0.0521],[121.7659,-33.9238,0.0689],[121.7666,-33.9244,0.0521],[121.7672,-33.9237,0.0521],[121.7665,-33.9232,0.0521]]],
[[[122.0082,-33.9844,0.0],[122.0087,-33.985,0.0],[122.0097,-33.9849,0.0],[122.0093,-33.9838,0.0],[122.0082,-33.9844,0.0]]],
[[[121.9911,-33.9753,8.5362],[121.9935,-33.9735,0.0],[121.9863,-33.9727,0.0],[121.9865,-33.9708,0.0],[121.984,-33.9715,0.0],[121.9846,-33.9737,9.6773],[121.9832,-33.9744,0.0],[121.9812,-33.9729,0.0],[121.9763,-33.9728,0.0],[121.9816,-33.9765,0.0],[121.9818,-33.9792,0.0],[121.9867,-33.9759,48.3052],[121.9911,-33.9753,8.5362]]],
[[[121.9762,-33.9752,0.0],[121.9762,-33.9742,2.0111],[121.9752,-33.9745,0.0],[121.9755,-33.9751,0.6319],[121.9762,-33.9752,0.0]]],
[[[121.8878,-33.929,0.0],[121.8873,-33.9282,0.0],[121.8855,-33.9282,0.0],[121.8862,-33.9292,0.0],[121.8878,-33.929,0.0]]],
[[[121.7906,-33.918,17.0568],[121.7884,-33.9205,0.0],[121.7892,-33.9243,35.2778],[121.7939,-33.9258,52.8307],[121.7959,-33.9286,0.3309],[121.8004,-33.926,17.2842],[121.8046,-33.9258,0.0],[121.7973,-33.9226,0.9533],[121.7979,-33.9187,3.1761],[121.7906,-33.918,17.0568]]],
[[[121.8765,-33.9188,2.4226],[121.8706,-33.9201,0.0],[121.8686,-33.9231,0.0],[121.8743,-33.9269,8.9229],[121.8816,-33.9252,1.2507],[121.8808,-33.9228,46.5893],[121.8838,-33.9202,2.3879],[121.8788,-33.9174,0.0],[121.8765,-33.9188,2.4226]]],
[[[121.821,-33.9215,0.0],[121.8217,-33.9217,0.0],[121.8223,-33.9207,0.0],[121.8213,-33.9206,0.0],[121.821,-33.9215,0.0]]],
[[[121.7696,-33.9182,0.0],[121.7691,-33.9186,0.0],[121.7694,-33.9191,0.0],[121.7702,-33.9185,0.0],[121.7696,-33.9182,0.0]]],
[[[121.9842,-33.9286,0.1696],[121.9853,-33.929,0.1696],[121.9857,-33.9283,0.1696],[121.9847,-33.928,0.1696],[121.9842,-33.9286,0.1696]]],
[[[121.9694,-33.9288,0.0],[121.9702,-33.9286,0.0],[121.97,-33.9271,0.0],[121.9692,-33.9275,0.0],[121.9694,-33.9288,0.0]]],
[[[121.9723,-33.9277,0.0],[121.9732,-33.9275,0.0],[121.9719,-33.9265,0.0],[121.9715,-33.9269,0.0],[121.9723,-33.9277,0.0]]],
[[[121.8971,-33.9193,0.0],[121.8991,-33.9224,14.2969],[121.9038,-33.9246,0.0],[121.9076,-33.9227,35.7968],[121.9102,-33.9177,0.0587],[121.909,-33.9166,0.3663],[121.9028,-33.9202,7.7096],[121.8994,-33.9186,3.1724],[121.8971,-33.9193,0.0]]],
[[[121.7767,-33.9175,0.0],[121.7735,-33.9149,0.0732],[121.771,-33.9165,0.0621],[121.7717,-33.918,0.0],[121.7767,-33.9175,0.0]]],
[[[121.863,-33.9152,0.0],[121.8636,-33.9157,0.0],[121.8644,-33.9149,0.0],[121.8637,-33.9142,0.0],[121.863,-33.9152,0.0]]],
[[[121.8774,-33.9145,0.0],[121.8786,-33.9148,0.0],[121.8791,-33.9142,0.0],[121.8781,-33.9137,0.0],[121.8774,-33.9145,0.0]]],
[[[121.8179,-33.9107,0.0809],[121.8187,-33.9108,0.0809],[121.82,-33.9097,0.2085],[121.8179,-33.9096,0.0809],[121.8179,-33.9107,0.0809]]],
[[[121.8164,-33.9088,0.0],[121.8157,-33.9086,0.0],[121.815,-33.9094,0.0],[121.8154,-33.9098,0.0372],[121.8164,-33.9088,0.0]]],
[[[121.6501,-33.8979,0.0],[121.6493,-33.8971,0.0],[121.6468,-33.8989,0.0578],[121.6475,-33.8994,0.0578],[121.6501,-33.8979,0.0]]],
[[[121.8281,-33.8971,0.0],[121.8285,-33.8966,0.0],[121.828,-33.8962,0.0],[121.8274,-33.8968,0.0],[121.8281,-33.8971,0.0]]],
[[[121.8262,-33.8958,0.4438],[121.827,-33.895,0.4438],[121.8254,-33.894,0.0],[121.825,-33.8945,0.0],[121.8262,-33.8958,0.4438]]],
[[[121.9872,-33.9211,24.1291],[121.9968,-33.9222,15.6039],[121.9994,-33.9172,0.0],[121.9949,-33.915,0.0],[121.9868,-33.9184,4.0236],[121.9854,-33.92,0.0],[121.9872,-33.9211,24.1291]]],
[[[121.896,-33.9121,0.0],[121.8925,-33.9128,0.0],[121.8921,-33.9157,3.8158],[121.8949,-33.9158,35.2934],[121.896,-33.9121,0.0]]],
[[[121.8925,-33.9033,3.7273],[121.8907,-33.9014,11.717],[121.8894,-33.9019,11.717],[121.8919,-33.9038,3.7273],[121.8925,-33.9033,3.7273]]],
[[[121.9718,-33.8772,3.1512],[121.9718,-33.8759,0.0],[121.9697,-33.8761,0.0],[121.9708,-33.8772,4.0213],[121.9718,-33.8772,3.1512]]],
[[[120.8109,-33.8929,0.5221],[120.8108,-33.893,0.0],[120.8108,-33.8931,0.0],[120.811,-33.8931,0.0],[120.8109,-33.8929,0.5221]]],
[[[120.815,-33.8907,0.0],[120.8147,-33.8906,0.0],[120.8148,-33.891,0.0],[120.8151,-33.8909,0.0],[120.815,-33.8907,0.0]]],
[[[120.8143,-33.8859,2.0452],[120.8142,-33.8859,2.0452],[120.8141,-33.8859,2.0452],[120.8142,-33.886,2.0452],[120.8143,-33.8859,2.0452]]],
[[[120.8197,-33.8834,0.0],[120.8195,-33.8833,0.0],[120.8192,-33.8834,0.0],[120.8199,-33.8835,0.0],[120.8197,-33.8834,0.0]]],
[[[121.3547,-33.8652,0.0],[121.3482,-33.8679,0.0],[121.3457,-33.873,0.0],[121.3503,-33.8728,0.0],[121.3547,-33.8652,0.0]]],
[[[121.508,-33.8398,0.0],[121.5071,-33.8392,0.0],[121.5065,-33.8398,0.0],[121.5075,-33.8401,0.0],[121.508,-33.8398,0.0]]],
[[[121.9658,-33.8544,0.0],[121.9662,-33.8547,0.0],[121.9668,-33.8541,0.0],[121.9661,-33.8538,0.0],[121.9658,-33.8544,0.0]]],
[[[121.9633,-33.8545,0.0],[121.9641,-33.8535,0.0578],[121.9619,-33.8538,0.0],[121.9623,-33.8542,0.0],[121.9633,-33.8545,0.0]]],
[[[122.6611,-33.9859,0.0],[122.6617,-33.9856,0.0],[122.6619,-33.9847,0.0],[122.6597,-33.9854,0.0],[122.6611,-33.9859,0.0]]],
[[[122.8221,-33.9784,0.1479],[122.8199,-33.9772,0.7802],[122.8183,-33.9777,2.4601],[122.8207,-33.9793,1.3731],[122.8221,-33.9784,0.1479]]],
[[[122.8472,-33.9643,0.7966],[122.8452,-33.9634,6.9371],[122.841,-33.9671,0.9128],[122.8417,-33.9707,0.0],[122.8473,-33.9683,0.0908],[122.8472,-33.9643,0.7966]]],
[[[122.8051,-33.9622,10.1855],[122.8029,-33.9659,0.0],[122.8075,-33.9631,0.0],[122.8064,-33.9609,0.0],[122.8051,-33.9622,10.1855]]],
[[[122.9012,-33.9701,0.0],[122.9016,-33.9703,0.0],[122.9026,-33.9694,0.3613],[122.9019,-33.9691,0.3613],[122.9012,-33.9701,0.0]]],
[[[122.9049,-33.966,0.3034],[122.9057,-33.9664,0.0],[122.9072,-33.9647,0.3784],[122.9065,-33.9646,0.3784],[122.9049,-33.966,0.3034]]],
[[[122.8568,-33.9655,3.2663],[122.8574,-33.9679,0.7579],[122.8591,-33.9682,0.0],[122.8613,-33.9635,0.0],[122.8596,-33.9623,0.4398],[122.856,-33.9638,0.0],[122.8568,-33.9655,3.2663]]],
[[[122.8982,-33.9632,0.0],[122.8965,-33.9636,3.365],[122.8961,-33.964,3.365],[122.8987,-33.9654,0.0],[122.8982,-33.9632,0.0]]],
[[[122.9397,-33.9606,0.0],[122.9387,-33.9597,0.3205],[122.936,-33.9615,0.0],[122.937,-33.9618,0.0],[122.9397,-33.9606,0.0]]],
[[[123.1229,-33.9513,0.0],[123.1222,-33.9511,0.0],[123.1189,-33.9541,0.0],[123.1219,-33.9531,0.0839],[123.1229,-33.9513,0.0]]],
[[[123.1513,-33.9487,0.0],[123.1485,-33.9492,0.0],[123.1479,-33.9499,0.0],[123.1503,-33.9499,0.0],[123.1513,-33.9487,0.0]]],
[[[123.1488,-33.9416,0.0],[123.1495,-33.9414,0.0],[123.1498,-33.94,0.0],[123.1483,-33.9404,0.0],[123.1488,-33.9416,0.0]]],
[[[122.8132,-33.9592,5.3004],[122.8112,-33.9601,0.0],[122.8125,-33.9673,3.134],[122.816,-33.9614,0.0],[122.8132,-33.9592,5.3004]]],
[[[122.713,-33.9512,0.0],[122.7138,-33.9518,0.0],[122.7142,-33.9503,0.0],[122.7137,-33.9501,0.0],[122.713,-33.9512,0.0]]],
[[[122.7166,-33.9485,0.0],[122.7179,-33.9465,4.5818],[122.7141,-33.9464,0.0],[122.7141,-33.9472,0.0],[122.7166,-33.9485,0.0]]],
[[[122.6891,-33.932,0.0],[122.6897,-33.9325,0.0],[122.6903,-33.9314,0.0],[122.6895,-33.9312,0.0],[122.6891,-33.932,0.0]]],
[[[122.4084,-33.9544,0.0],[122.4074,-33.9558,0.0],[122.4101,-33.9569,0.0],[122.4138,-33.9535,0.0],[122.4123,-33.953,0.0],[122.4084,-33.9544,0.0]]],
[[[122.4778,-33.9534,0.0],[122.4776,-33.9523,0.0],[122.4743,-33.9521,0.0],[122.475,-33.9527,0.0],[122.4778,-33.9534,0.0]]],
[[[122.5068,-33.9518,1.1439],[122.5037,-33.9498,6.3629],[122.5021,-33.9505,0.0],[122.5038,-33.9535,0.0],[122.5068,-33.9518,1.1439]]],
[[[122.3119,-33.9503,0.9461],[122.3081,-33.9478,0.0],[122.3104,-33.9548,0.0],[122.3116,-33.9538,0.0],[122.3119,-33.9503,0.9461]]],
[[[122.4686,-33.9483,0.0],[122.465,-33.9486,0.0],[122.4695,-33.9505,0.0],[122.472,-33.9486,0.0],[122.4686,-33.9483,0.0]]],
[[[122.5614,-33.948,0.0],[122.5631,-33.9499,0.0],[122.5677,-33.949,0.6846],[122.5648,-33.9481,3.148],[122.5614,-33.948,0.0]]],
[[[122.5283,-33.948,0.0],[122.5297,-33.9481,0.0],[122.5304,-33.947,0.0],[122.5295,-33.947,0.0],[122.5283,-33.948,0.0]]],
[[[122.5317,-33.9455,0.0],[122.531,-33.9455,0.0],[122.5309,-33.9462,0.0],[122.532,-33.9461,0.0],[122.5317,-33.9455,0.0]]],
[[[122.596,-33.9329,5.7055],[122.5953,-33.9318,5.7055],[122.5937,-33.9323,0.3737],[122.5951,-33.9336,0.7706],[122.596,-33.9329,5.7055]]],
[[[122.609,-33.9211,0.0],[122.6093,-33.9197,0.0],[122.6071,-33.9206,0.0],[122.6076,-33.9213,0.0],[122.609,-33.9211,0.0]]],
[[[122.7406,-33.8973,0.0],[122.7421,-33.8978,0.0],[122.7426,-33.8971,0.0],[122.7418,-33.8966,0.0],[122.7406,-33.8973,0.0]]],
[[[122.7214,-33.8976,0.7744],[122.7219,-33.8965,0.7744],[122.7207,-33.8956,0.0],[122.7203,-33.8968,0.0],[122.7214,-33.8976,0.7744]]],
[[[122.1396,-34.02,6.8624],[122.1478,-34.0176,3.8244],[122.1446,-34.016,0.0],[122.1373,-34.0185,0.5366],[122.1396,-34.02,6.8624]]],
[[[122.0829,-34.0177,0.0],[122.0853,-34.0187,12.5908],[122.0919,-34.016,0.0],[122.0873,-34.0169,9.3722],[122.0859,-34.0156,0.0],[122.0829,-34.0177,0.0]]],
[[[122.0202,-33.9922,0.0676],[122.0198,-33.9936,0.0414],[122.0236,-33.9941,4.4893],[122.025,-33.9902,0.1271],[122.0246,-33.9901,0.1271],[122.0202,-33.9922,0.0676]]],
[[[122.023,-33.9789,0.0],[122.0237,-33.9792,0.0],[122.0241,-33.9788,0.0],[122.0234,-33.9782,0.0],[122.023,-33.9789,0.0]]],
[[[122.0252,-33.9785,0.0],[122.0262,-33.9781,0.0],[122.0262,-33.9778,0.0],[122.0249,-33.9773,0.0],[122.0252,-33.9785,0.0]]],
[[[122.0248,-33.9631,0.4449],[122.0269,-33.9635,0.3506],[122.0174,-33.9576,0.0],[122.0149,-33.9583,53.4114],[122.0114,-33.9549,2.0802],[122.0023,-33.9581,2.5412],[122.0039,-33.9591,22.2961],[122.0031,-33.9601,2.8937],[122.0064,-33.9616,1.695],[122.0044,-33.9709,3.5616],[122.0098,-33.9677,29.8689],[122.0152,-33.9679,14.003],[122.0201,-33.9639,0.806],[122.0248,-33.9631,0.4449]]],
[[[122.0269,-33.8786,0.0],[122.0241,-33.8766,0.0],[122.0229,-33.881,0.0],[122.0248,-33.8811,0.0],[122.0269,-33.8786,0.0]]],
[[[122.0364,-33.8762,0.0],[122.037,-33.8759,0.0],[122.0367,-33.8748,0.0],[122.0358,-33.8755,0.0],[122.0364,-33.8762,0.0]]],
[[[122.0382,-33.8747,0.0],[122.0387,-33.8749,0.0],[122.0393,-33.8742,0.0],[122.0387,-33.8739,0.0],[122.0382,-33.8747,0.0]]],
[[[122.0371,-33.8741,0.0],[122.0378,-33.8736,0.0],[122.0374,-33.8732,0.0],[122.037,-33.8734,0.0],[122.0371,-33.8741,0.0]]],
[[[122.3065,-33.9475,0.0],[122.3076,-33.9474,0.0],[122.3073,-33.9466,0.0],[122.3065,-33.9468,0.0],[122.3065,-33.9475,0.0]]],
[[[121.5209,-32.569,261.8453],[121.3122,-32.569,287.9317],[121.0015,-32.5647,379.118],[120.7681,-32.5647,353.8611],[120.7556,-32.57,376.7861],[120.554,-32.569,314.0574],[120.554,-32.7652,348.0549],[120.5815,-32.7652,352.5555],[120.3528,-32.9294,273.5559],[120.352,-32.9321,278.5622],[120.3536,-32.9359,274.1783],[120.3334,-32.9504,272.5743],[120.3203,-32.9481,278.1196],[120.2552,-32.9952,298.3919],[120.217,-33.0749,328.0861],[120.0825,-33.0791,387.9163],[120.0884,-33.0816,389.5647],[120.1267,-33.1078,349.9293],[120.2096,-33.1496,381.2806],[120.2448,-33.162,358.6462],[120.2705,-33.163,392.6072],[120.2889,-33.1666,389.8683],[120.3922,-33.204,304.3583],[120.446,-33.2138,332.5012],[120.5103,-33.2447,313.2815],[120.6031,-33.2309,336.4938],[120.665,-33.2159,309.5369],[120.6869,-33.2161,325.8427],[120.7239,-33.2233,323.5733],[120.7388,-33.2336,315.568],[120.7494,-33.2468,311.1757],[120.7714,-33.2551,293.9358],[120.7707,-33.3702,215.6907],[120.7732,-33.3698,210.7401],[120.78,-33.4054,204.2773],[120.7446,-33.4218,237.6506],[120.7595,-33.4551,226.3175],[120.7655,-33.4533,230.2482],[120.7887,-33.5184,218.5076],[120.8025,-33.5429,204.2347],[120.7878,-33.5506,184.9828],[120.7968,-33.5536,178.9665],[120.7993,-33.5563,177.898],[120.8047,-33.5564,177.1457],[120.8153,-33.5598,170.6752],[120.8175,-33.5636,169.9642],[120.8171,-33.5698,168.9422],[120.822,-33.5715,162.0796],[120.8239,-33.5743,162.5074],[120.8217,-33.5789,159.5122],[120.8264,-33.5807,160.7127],[120.8246,-33.5823,163.0706],[120.8268,-33.586,156.0618],[120.8246,-33.5904,155.0972],[120.8262,-33.5996,145.4014],[120.826,-33.6028,142.2962],[120.8241,-33.6036,137.3191],[120.8236,-33.6097,134.6189],[120.8305,-33.6148,129.7606],[120.8304,-33.6179,128.3759],[120.8341,-33.6225,123.6873],[120.8326,-33.6238,118.0205],[120.8342,-33.6251,121.104],[120.8311,-33.6293,116.6164],[120.8336,-33.631,109.5757],[120.833,-33.6328,111.8427],[120.8368,-33.6343,111.0954],[120.8393,-33.6415,104.4812],[120.8445,-33.6445,108.0995],[120.8452,-33.6477,94.2809],[120.8489,-33.6479,104.5458],[120.8522,-33.6557,86.7132],[120.8542,-33.6568,85.5818],[120.8541,-33.663,82.3116],[120.8515,-33.6644,81.0259],[120.8533,-33.6677,80.8615],[120.8522,-33.6689,78.4867],[120.8569,-33.6704,76.6426],[120.8595,-33.6768,74.7318],[120.8585,-33.6784,74.3395],[120.862,-33.6803,73.7728],[120.8623,-33.6853,70.0933],[120.8597,-33.6873,75.0533],[120.8631,-33.6902,67.7527],[120.8629,-33.6946,65.0369],[120.8662,-33.6982,66.1436],[120.8664,-33.7065,62.2987],[120.8733,-33.7068,60.0039],[120.8704,-33.7102,57.3291],[120.8728,-33.7136,57.4984],[120.8701,-33.7126,56.479],[120.868,-33.7142,59.8544],[120.8713,-33.7177,53.9271],[120.8749,-33.7166,53.7381],[120.8759,-33.7188,53.41],[120.8723,-33.72,52.2284],[120.8712,-33.7233,53.4249],[120.8655,-33.7288,52.2938],[120.8667,-33.7304,52.0216],[120.8654,-33.7327,48.9959],[120.8621,-33.7332,49.3888],[120.8639,-33.7352,48.0057],[120.859,-33.7364,54.229],[120.8593,-33.7401,44.6058],[120.8561,-33.7411,60.1236],[120.8548,-33.7497,61.8682],[120.8514,-33.7532,40.7151],[120.8532,-33.7545,42.181399999999996],[120.8524,-33.7567,39.3558],[120.859,-33.7614,37.6079],[120.858,-33.7671,35.1831],[120.8503,-33.7679,35.1455],[120.8509,-33.7715,37.155],[120.8471,-33.778,31.912],[120.8419,-33.7837,26.7661],[120.8383,-33.7839,26.1987],[120.8347,-33.7925,25.9327],[120.8278,-33.7924,24.1179],[120.8271,-33.7957,22.168],[120.8237,-33.7961,22.7483],[120.825,-33.7997,18.6421],[120.8217,-33.8019,18.4199],[120.8192,-33.8063,21.3657],[120.8081,-33.8088,16.377],[120.8058,-33.8081,17.1859],[120.8059,-33.8121,15.2387],[120.8076,-33.8138,16.3901],[120.8054,-33.8161,14.0839],[120.8035,-33.8135,13.2846],[120.8003,-33.8137,13.0925],[120.7963,-33.8111,14.7921],[120.7937,-33.8178,10.1398],[120.7921,-33.8184,11.4271],[120.7916,-33.8252,8.6809],[120.7949,-33.8308,10.0847],[120.7945,-33.8349,5.3223],[120.7929,-33.8392,6.2078],[120.7869,-33.843,4.8003],[120.7846,-33.8517,4.9241],[120.7831,-33.8525,3.6778],[120.7848,-33.8556,4.035],[120.7819,-33.8574,3.3044],[120.7854,-33.8575,4.0499],[120.7873,-33.8593,4.7611],[120.7902,-33.8583,2.8161],[120.7885,-33.8565,3.0819],[120.7896,-33.8562,3.1764],[120.7923,-33.8589,3.2058],[120.7915,-33.8651,5.9357],[120.7862,-33.871,0.875],[120.79,-33.8724,0.7898],[120.7917,-33.8778,5.0073],[120.7915,-33.883,5.1283],[120.7887,-33.8867,0.0],[120.8072,-33.889,11.004],[120.81,-33.8924,0.5221],[120.8135,-33.8926,0.0],[120.8136,-33.8921,0.0],[120.8102,-33.8895,0.0],[120.8114,-33.8864,0.0],[120.8172,-33.8829,10.0114],[120.8236,-33.8826,0.0],[120.8216,-33.8799,0.0],[120.8244,-33.8779,8.9077],[120.8306,-33.8763,0.0],[120.8336,-33.8773,0.6232],[120.8343,-33.8751,0.0],[120.84,-33.8734,0.0],[120.8376,-33.8701,3.3104],[120.8411,-33.8657,3.8864],[120.8523,-33.8612,5.6257],[120.8639,-33.8602,0.0998],[120.8652,-33.8571,1.8514],[120.8687,-33.8562,11.1095],[120.8862,-33.8575,5.136],[120.9061,-33.8614,0.0],[120.9167,-33.866,7.5045],[120.9181,-33.8705,0.0],[120.9204,-33.8693,9.6332],[120.9246,-33.8709,0.0],[120.924,-33.8682,3.7877],[120.9267,-33.8655,2.1312],[120.9398,-33.8623,5.1042],[120.9536,-33.8657,5.3216],[120.9628,-33.8658,4.8142],[120.9688,-33.8681,0.0],[120.9737,-33.8674,7.6246],[120.9801,-33.8688,1.2077],[120.9866,-33.8668,4.4929],[120.99,-33.8685,0.0],[120.9958,-33.8679,11.7766],[121.0058,-33.8703,0.0],[121.0079,-33.8727,0.7609],[121.0087,-33.8709,0.0],[121.0071,-33.8681,6.6931],[121.0086,-33.8642,8.7256],[121.0139,-33.8609,5.3589],[121.0317,-33.8589,0.0],[121.036,-33.8597,0.9396],[121.0369,-33.8621,0.0],[121.0377,-33.8601,2.091],[121.0408,-33.8606,1.4665],[121.0417,-33.8576,6.559],[121.0489,-33.857,2.5353],[121.0728,-33.8601,2.8883],[121.0794,-33.8623,0.0],[121.079,-33.8595,0.2697],[121.081,-33.8559,3.0503999999999998],[121.0834,-33.8553,0.0287],[121.0822,-33.8532,6.1994],[121.0835,-33.8511,4.9289],[121.0882,-33.8493,10.3775],[121.0998,-33.8485,0.0],[121.1235,-33.8506,14.9991],[121.1281,-33.8538,0.0],[121.1406,-33.8557,15.7367],[121.1441,-33.8592,1.8035],[121.1519,-33.8596,0.0],[121.1586,-33.865,0.0],[121.1728,-33.8671,3.4495],[121.1773,-33.871,2.2764],[121.1759,-33.8763,0.2834],[121.1771,-33.8776,0.2834],[121.1827,-33.8715,1.0304],[121.1793,-33.8697,13.1721],[121.1805,-33.8661,11.2379],[121.1879,-33.8623,0.0],[121.1905,-33.8573,8.0636],[121.194,-33.8581,0.0],[121.196,-33.8563,0.0],[121.1954,-33.8549,1.9463],[121.1924,-33.8549,6.5145],[121.1916,-33.852,9.0867],[121.1938,-33.8479,16.8879],[121.1987,-33.8446,0.0],[121.2102,-33.8423,15.8224],[121.2256,-33.8427,17.5965],[121.2419,-33.8447,0.0],[121.2486,-33.8476,3.9003],[121.2554,-33.8468,0.0],[121.2656,-33.8503,0.9603],[121.2687,-33.8496,0.242],[121.2685,-33.8507,0.242],[121.2697,-33.8486,12.4979],[121.2744,-33.8479,0.0],[121.2743,-33.8438,0.0],[121.2759,-33.8422,7.0616],[121.2867,-33.8425,1.5251999999999999],[121.292,-33.8401,0.9232],[121.2963,-33.8402,1.2884],[121.2964,-33.8316,2.6536],[121.2943,-33.8296,8.3217],[121.299,-33.825,0.0],[121.3182,-33.8211,17.1414],[121.3238,-33.8216,0.0],[121.3482,-33.8278,9.4625],[121.3494,-33.8303,0.0],[121.3529,-33.8259,0.0],[121.3491,-33.8227,3.5272],[121.351,-33.8194,1.6406],[121.3569,-33.8164,0.0],[121.3637,-33.8155,9.4316],[121.3993,-33.8188,3.7526],[121.4267,-33.8266,0.0],[121.4285,-33.8276,8.0951],[121.4286,-33.8302,0.0],[121.431,-33.8266,0.0],[121.4292,-33.8231,8.5393],[121.4318,-33.8216,0.0],[121.4341,-33.8225,0.5335],[121.4355,-33.8201,0.0],[121.4594,-33.8257,14.766],[121.46,-33.8284,0.0],[121.4632,-33.8254,10.8117],[121.4629,-33.8236,21.9793],[121.4677,-33.8229,26.4906],[121.5009,-33.8353,20.4131],[121.5048,-33.8396,0.0],[121.5081,-33.8377,15.9391],[121.5104,-33.8396,0.0],[121.512,-33.8362,7.0504],[121.5158,-33.8338,1.5826],[121.5269,-33.833,0.538],[121.5301,-33.8297,0.0],[121.529,-33.8268,0.0],[121.5316,-33.8257,8.4985],[121.5466,-33.828,0.0],[121.5631,-33.8339,17.5893],[121.5855,-33.8448,0.0],[121.6277,-33.8693,1.3228],[121.6409,-33.8802,18.1149],[121.6466,-33.8874,8.3522],[121.6469,-33.8897,12.451599999999999],[121.6441,-33.8917,0.8892],[121.6447,-33.8982,0.0],[121.6481,-33.8968,8.3637],[121.6518,-33.8889,0.0],[121.6621,-33.884,2.3119],[121.6679,-33.8764,0.0],[121.6748,-33.8745,8.2506],[121.6755,-33.8726,0.0],[121.6727,-33.8722,0.0],[121.6717,-33.8697,0.0],[121.6767,-33.8631,0.0],[121.6854,-33.8611,4.5862],[121.6951,-33.8612,6.5394],[121.7308,-33.8733,0.0],[121.7424,-33.8782,0.0],[121.7526,-33.8849,0.0],[121.7537,-33.8845,3.1062],[121.7513,-33.8822,9.0969],[121.7631,-33.8869,5.7301],[121.7649,-33.8899,0.0],[121.7569,-33.886,0.0],[121.7751,-33.8972,15.5011],[121.7835,-33.9068,0.1696],[121.7942,-33.909,13.2746],[121.7958,-33.9076,1.9682],[121.7952,-33.9047,0.0],[121.8017,-33.9001,2.0972],[121.8086,-33.8981,0.0],[121.8237,-33.8973,6.386],[121.8238,-33.8938,0.0],[121.8293,-33.8889,1.0563],[121.8358,-33.8872,3.1277],[121.8508,-33.8884,11.8122],[121.8518,-33.891,3.2367],[121.8547,-33.8877,6.7628],[121.8566,-33.8876,14.1771],[121.8579,-33.8886,0.0],[121.8571,-33.8904,0.0],[121.8648,-33.8906,1.5306],[121.8665,-33.8885,5.8188],[121.862,-33.8867,1.1718],[121.8634,-33.882,1.8204],[121.8675,-33.8794,15.3742],[121.8724,-33.8795,14.0482],[121.8745,-33.8768,10.8161],[121.8845,-33.8793,4.8964],[121.8873,-33.8826,8.8288],[121.8901,-33.8811,28.0488],[121.8925,-33.8822,0.0],[121.8941,-33.8794,13.9879],[121.9005,-33.879,4.1988],[121.9006,-33.8764,9.4151],[121.9081,-33.8675,0.0],[121.9048,-33.8679,0.0],[121.9018,-33.8726,0.679],[121.8954,-33.8693,3.0119],[121.894,-33.8635,1.3046],[121.9008,-33.8551,0.0],[121.904,-33.8449,0.0],[121.9151,-33.8383,0.0],[121.9334,-33.8343,1.8635],[121.9561,-33.8335,1.8957],[121.9791,-33.8372,2.4216],[121.983,-33.8391,0.0],[121.9855,-33.8387,0.7311],[121.9868,-33.8364,0.0],[121.9835,-33.834,0.8391],[121.9849,-33.8303,0.763],[121.9882,-33.8283,0.9321],[121.9956,-33.8284,0.0],[122.0084,-33.8317,0.0],[122.0308,-33.845,0.0],[122.0401,-33.8531,0.836],[122.0461,-33.8625,3.0377],[122.059,-33.8716,0.0],[122.0787,-33.8933,0.0],[122.0854,-33.9028,2.4768],[122.1002,-33.9393,0.4856],[122.1139,-33.9649,7.3993],[122.119,-33.98,9.9274],[122.1148,-33.9838,38.1317],[122.1127,-33.9896,1.737],[122.1099,-33.9925,5.3491],[122.1036,-33.9908,13.4567],[122.0959,-33.9917,12.8522],[122.0932,-33.9939,18.3607],[122.0949,-33.9965,0.0],[122.0933,-34.0028,11.7639],[122.0946,-34.0031,3.5986],[122.0988,-33.9985,4.5296],[122.1032,-33.9992,27.1751],[122.1023,-34.0026,5.8408],[122.1078,-33.9988,17.1706],[122.1125,-34.0004,1.1076],[122.1137,-34.0046,54.7697],[122.1094,-34.0138,0.0],[122.1136,-34.0172,0.0],[122.1276,-34.0101,9.5874],[122.1293,-34.0113,0.0],[122.1329,-34.0103,7.7127],[122.1367,-34.0066,7.9446],[122.1417,-34.0089,6.3167],[122.1449,-34.0144,33.7309],[122.1512,-34.0127,56.9785],[122.1566,-34.0136,10.0168],[122.1582,-34.012,0.0],[122.1569,-34.0108,0.0],[122.1585,-34.0055,16.8351],[122.1611,-34.0029,4.0892],[122.1653,-34.0024,6.8152],[122.173,-34.0049,0.0],[122.1708,-34.0096,0.0],[122.1715,-34.0114,0.0],[122.182,-34.0104,23.8337],[122.1803,-34.0134,2.0368],[122.1933,-34.0172,1.2093],[122.1933,-34.0146,14.4465],[122.1902,-34.0123,0.8392],[122.189,-34.0082,7.3141],[122.1966,-34.0072,35.0494],[122.1978,-34.0092,1.8337],[122.2008,-34.0085,6.6977],[122.1993,-34.0047,17.0447],[122.197,-34.0044,1.0213],[122.1978,-34.0003,6.2978],[122.2026,-33.9985,2.1421],[122.2057,-34.0006,9.1287],[122.2094,-34.0008,16.0607],[122.21,-34.0041,0.0],[122.208,-34.0062,0.0],[122.2115,-34.0087,0.0],[122.2139,-34.005,8.3668],[122.2134,-34.002,10.5181],[122.216,-34.0013,3.3803],[122.2194,-33.9975,34.765],[122.2221,-33.9984,1.5734],[122.2246,-33.9943,4.3213],[122.2216,-33.9923,0.0],[122.227,-33.988,0.0],[122.2351,-33.9892,8.9711],[122.2438,-33.9941,7.9446],[122.2473,-33.9974,7.6086],[122.2473,-34.0029,0.0],[122.2494,-34.0046,0.0],[122.2565,-34.0014,0.0],[122.2576,-33.9988,21.0564],[122.2617,-33.9993,25.9337],[122.2614,-33.9973,13.8102],[122.2641,-33.9959,5.5859],[122.2753,-33.9988,10.8654],[122.276,-34.0008,1.8277],[122.2781,-34.0004,25.9703],[122.2789,-33.9994,0.0],[122.2756,-33.9932,9.5523],[122.2801,-33.9914,0.0],[122.2806,-33.9898,0.0],[122.2728,-33.9844,0.0],[122.2727,-33.9804,0.0],[122.27,-33.9774,30.8135],[122.2716,-33.9725,0.7105],[122.2685,-33.9713,1.7726],[122.2682,-33.9681,0.0],[122.2745,-33.9595,0.65],[122.2878,-33.949,3.4544],[122.3028,-33.9425,1.1646],[122.3106,-33.9363,0.0],[122.3263,-33.9289,0.0],[122.3414,-33.9266,0.0],[122.3444,-33.9295,26.0857],[122.3448,-33.9325,12.9149],[122.351,-33.9312,1.5091],[122.3541,-33.9331,0.0],[122.3548,-33.9315,0.0],[122.3504,-33.9289,0.0],[122.3508,-33.9234,0.0],[122.3493,-33.9218,4.4362],[122.3547,-33.917,0.0],[122.3642,-33.9135,0.0],[122.3753,-33.9116,0.0],[122.3993,-33.9119,0.0],[122.4444,-33.9192,0.4147],[122.4486,-33.924,1.122],[122.4505,-33.9223,0.5462],[122.4558,-33.9225,5.0946],[122.4754,-33.9305,5.1895],[122.4779,-33.9332,0.0],[122.4788,-33.9322,0.0],[122.4883,-33.9345,5.1874],[122.4911,-33.939,4.6117],[122.5007,-33.9365,0.2854],[122.5065,-33.9406,0.0],[122.5095,-33.9465,0.7666],[122.5086,-33.9524,1.1439],[122.5097,-33.9534,1.6911],[122.5125,-33.9536,1.0386],[122.5213,-33.9499,0.0],[122.5208,-33.9471,8.0708],[122.5252,-33.9478,2.6532],[122.5237,-33.9444,0.2149],[122.5271,-33.9399,0.0],[122.536,-33.9353,0.0],[122.5412,-33.9346,0.0],[122.5576,-33.9366,0.0],[122.5614,-33.9409,0.0],[122.5595,-33.9429,0.0],[122.5608,-33.9448,0.0],[122.5688,-33.9464,0.0],[122.5699,-33.9483,0.0],[122.5726,-33.9473,0.0],[122.575,-33.9483,11.3894],[122.5752,-33.9516,3.1074],[122.5689,-33.9532,0.0],[122.5753,-33.9545,1.0568],[122.5676,-33.9584,0.0],[122.5681,-33.9604,0.0],[122.5715,-33.9614,0.0],[122.5782,-33.9606,3.9485],[122.5826,-33.958,1.212],[122.5765,-33.9552,11.5516],[122.5769,-33.9522,0.9327],[122.5832,-33.9484,0.4749],[122.5806,-33.947,9.3404],[122.5807,-33.9452,2.9221],[122.5873,-33.9449,0.0],[122.5903,-33.9438,1.7799],[122.5902,-33.942,3.6182],[122.5959,-33.9417,0.0],[122.5945,-33.9389,20.2436],[122.5974,-33.9373,0.0],[122.5936,-33.9349,12.1678],[122.5878,-33.935,2.7127],[122.5856,-33.9329,0.9526],[122.5841,-33.9258,1.0606],[122.58,-33.9247,2.8556],[122.58,-33.9194,0.9178],[122.5817,-33.9163,0.0],[122.5881,-33.9102,0.0],[122.5917,-33.9097,0.0],[122.5952,-33.9117,0.0],[122.5957,-33.916,3.81],[122.6014,-33.9134,0.0],[122.5953,-33.9098,0.0368],[122.598,-33.9024,0.0],[122.6062,-33.8968,0.0],[122.6187,-33.8928,5.3932],[122.6414,-33.8918,0.7276],[122.647,-33.8933,0.0],[122.6493,-33.8974,0.2718],[122.6499,-33.8937,0.126],[122.6522,-33.8933,0.0],[122.6518,-33.8904,0.0],[122.6535,-33.8893,1.36],[122.6698,-33.8886,0.5702],[122.6899,-33.8903,0.0],[122.6957,-33.8925,1.8342],[122.7165,-33.8902,0.0],[122.7196,-33.891,18.088],[122.7237,-33.8956,1.7793],[122.7273,-33.8927,0.0],[122.7349,-33.8919,0.0],[122.7428,-33.8961,0.0],[122.7478,-33.8958,0.0],[122.7503,-33.8921,2.4184],[122.7484,-33.8876,0.3293],[122.7546,-33.8813,0.0],[122.7675,-33.8778,4.7226],[122.7738,-33.8777,3.0448],[122.7932,-33.8816,0.0],[122.8127,-33.8894,3.1783],[122.8239,-33.8996,0.6],[122.8265,-33.9039,0.4323],[122.8257,-33.9067,3.0743],[122.8294,-33.91,0.0],[122.839,-33.9048,0.0],[122.8478,-33.9052,0.0],[122.8498,-33.9023,1.4528],[122.8576,-33.9003,1.0476],[122.8672,-33.8995,3.426],[122.8748,-33.9026,0.2301],[122.8849,-33.8963,0.1681],[122.8928,-33.8941,3.3006],[122.8972,-33.8947,0.0],[122.8997,-33.8916,0.1132],[122.9057,-33.8892,0.3228],[122.9351,-33.8861,0.9542],[122.9435,-33.8858,1.3811],[122.97,-33.89,0.0],[122.9718,-33.8914,10.3964],[122.9726,-33.9001,0.0],[122.9759,-33.9023,1.5816],[122.9805,-33.8979,1.0664],[122.9786,-33.8954,5.242],[122.9811,-33.8919,3.317],[122.9789,-33.8906,16.3171],[122.9791,-33.8874,1.4461],[122.9861,-33.884,0.0],[122.9935,-33.8829,3.7412],[122.9976,-33.8827,2.397],[123.0023,-33.8855,0.0],[123.0058,-33.8815,0.0],[123.0034,-33.8767,2.8136],[123.006,-33.8743,5.5914],[123.0048,-33.8708,0.0],[123.0103,-33.8685,0.3297],[123.0168,-33.8578,0.0],[123.028,-33.8565,0.0],[123.0598,-33.8627,0.7928],[123.0831,-33.8715,0.0],[123.1143,-33.889,2.1488],[123.1267,-33.8977,1.7543],[123.1392,-33.9106,0.0],[123.1389,-33.9141,0.0],[123.1342,-33.9177,1.7251],[123.1366,-33.9185,0.0],[123.1396,-33.9169,0.0],[123.146,-33.9245,0.0],[123.1457,-33.9286,0.0],[123.1484,-33.9292,0.0],[123.1513,-33.9323,0.0],[123.148,-33.9368,0.0],[123.1516,-33.9367,0.0],[123.1611,-33.9459,1.1702],[123.1566,-33.9509,0.0],[123.1585,-33.9548,3.437],[123.1627,-33.9575,3.8694],[123.1633,-33.962,0.0],[123.1624,-33.9686,0.0],[123.1606,-33.9709,0.0],[123.1545,-33.97,0.0],[123.1497,-33.9727,2.3997],[123.1485,-33.9763,0.0],[123.1507,-33.9774,7.2382],[123.1556,-33.9747,0.0],[123.1598,-33.9789,0.3732],[123.1664,-33.9816,0.0],[123.1654,-33.9845,0.056],[123.1681,-33.9843,0.0],[123.1722,-33.9895,0.0],[123.1714,-33.9979,0.0],[123.1656,-34.0021,1.1841],[123.1676,-34.006,2.1043],[123.1654,-34.0084,21.7651],[123.152,-34.0106,0.0],[123.1601,-34.0126,8.3248],[123.1631,-34.0166,0.0],[123.1642,-34.0153,0.0],[123.1674,-34.0163,0.0],[123.1704,-34.0134,1.7753],[123.1818,-34.0116,0.0],[123.1821,-34.0083,7.0583],[123.1923,-34.0071,0.0],[123.2081,-34.0009,37.2828],[123.2129,-34.0019,0.0],[123.2157,-33.9984,7.4992],[123.2237,-33.9947,0.0],[123.2222,-33.9934,0.6243],[123.2263,-33.9916,0.0],[123.2273,-33.9889,11.1297],[123.2343,-33.9888,0.0],[123.2393,-33.9911,6.3432],[123.2405,-33.9955,1.691],[123.2429,-33.9919,6.3131],[123.2463,-33.9916,0.0],[123.2502,-33.9941,0.0],[123.252,-33.9975,0.0],[123.2634,-33.9893,0.3557],[123.2649,-33.9849,0.0],[123.2687,-33.9841,0.4372],[123.2754,-33.9759,5.526],[123.2837,-33.9755,0.0],[123.2856,-33.9769,0.0],[123.2841,-33.9788,0.0],[123.2869,-33.9799,0.6052],[123.2885,-33.978,5.1687],[123.2868,-33.9764,0.7888],[123.2907,-33.9762,7.5376],[123.2925,-33.974,6.8627],[123.2908,-33.9701,0.0],[123.294,-33.9708,2.2367],[123.2957,-33.9672,0.6522],[123.30029999999999,-33.9648,0.0],[123.2995,-33.9626,3.1145],[123.303,-33.9611,2.2284],[123.2995,-33.9565,0.0],[123.3,-33.9537,0.0],[123.3082,-33.9524,0.3854],[123.3185,-33.9427,1.6671],[123.3212,-33.938,6.3499],[123.3287,-33.9347,0.0],[123.3249,-33.9325,0.0],[123.3264,-33.9303,0.2087],[123.3308,-33.9285,0.0],[123.3287,-33.9255,0.7241],[123.3303,-33.9188,0.0],[123.3373,-33.9172,0.0],[123.3402,-33.9133,0.0],[123.3449,-33.9133,0.5874],[123.3511,-33.9093,1.1075],[123.3547,-33.9057,0.0],[123.3526,-33.9039,0.0],[123.3544,-33.901,2.8797],[123.3714,-33.8959,0.0],[123.3942,-33.8935,0.0],[123.4123,-33.8938,4.3282],[123.4275,-33.8976,2.4598],[123.4489,-33.9,0.0],[123.474,-33.9062,10.3883],[123.5042,-33.9188,0.8244],[123.508,-33.9221,0.0],[123.5069,-33.9267,0.1177],[123.5085,-33.9292,0.0],[123.5071,-33.933,0.0],[123.5092,-33.9345,22.368],[123.5121,-33.9425,0.6021],[123.5194,-33.9396,0.0],[123.5243,-33.9396,0.0],[123.5276,-33.9417,0.0],[123.5317,-33.9373,3.3329],[123.5343,-33.9401,0.0],[123.54,-33.9355,3.304],[123.5419,-33.9368,0.0],[123.5468,-33.935,0.4241],[123.553,-33.9278,0.0],[123.5566,-33.923,0.0],[123.5555,-33.9177,7.5521],[123.5592,-33.9093,1.8949],[123.558,-33.9061,9.7854],[123.5607,-33.9027,1.7032],[123.5693,-33.8993,4.8488],[123.5719,-33.8926,0.8281],[123.5712,-33.89,0.0],[123.5734,-33.8877,3.2815],[123.59,-33.8811,3.3843],[123.6038,-33.8808,2.8843],[123.6063,-33.883,0.6114],[123.6083,-33.8828,5.6592],[123.6098,-33.8821,0.5885],[123.6105,-33.8781,0.0],[123.6137,-33.8785,0.0],[123.6191,-33.8762,9.6421],[123.6301,-33.8781,0.0814],[123.6313,-33.8801,0.6164],[123.6356,-33.877,0.4824],[123.6391,-33.877,0.0],[123.6413,-33.8755,0.0],[123.64,-33.8732,3.325],[123.6413,-33.8669,0.4748],[123.6496,-33.8548,0.0],[123.6538,-33.8521,0.388],[123.6563,-33.847,3.4327],[123.6666,-33.8429,1.3809],[123.6759,-33.8366,0.0],[123.6937,-33.8315,0.0],[123.7018,-33.8224,7.0785],[123.7022,-33.8199,11.6388],[123.7076,-33.8164,2.0276],[123.7175,-33.8125,3.3482],[123.7424,-33.8092,2.7398],[123.7509,-33.801,3.4007],[123.7642,-33.7952,0.0],[123.7635,-33.7942,0.0],[123.7596,-33.7957,0.4851],[123.7555,-33.7931,0.7712],[123.7492,-33.7831,0.5789],[123.7468,-33.7745,0.0],[123.7475,-33.7653,0.2771],[123.7487,-33.7573,0.4218],[123.7506,-33.7545,0.3058],[123.7509,-33.7441,2.0074],[123.7569,-33.7231,0.0],[123.7744,-33.6982,0.0],[123.7965,-33.676,6.1762],[123.8102,-33.6648,1.4648],[123.8532,-33.6401,1.1966],[123.8725,-33.6338,0.0],[123.8754,-33.6351,0.8597],[123.8777,-33.6332,0.0],[123.8773,-33.6299,0.0],[123.8727,-33.629,0.3441],[123.8717,-33.6196,0.0],[123.8692,-33.619,0.0],[123.8687,-33.6203,0.4615],[123.8668,-33.6187,1.236],[123.8693,-33.6062,0.0],[123.8751,-33.599,3.3405],[123.8834,-33.5942,1.7348],[123.8926,-33.5913,0.0],[123.9008,-33.5919,0.0],[123.9049,-33.595,0.0605],[123.9054,-33.5914,0.0],[123.9096,-33.5893,5.8095],[123.9307,-33.5867,0.3258],[123.9326,-33.5854,1.1328],[123.9313,-33.5832,0.0],[123.9357,-33.5769,1.4571],[123.9503,-33.5756,1.0863],[123.9524,-33.5727,1.3366],[123.9621,-33.57,0.0768],[123.976,-33.5586,0.0],[123.9802,-33.5497,0.0],[123.9853,-33.5109,0.1182],[123.9867,-33.4794,2.0667],[123.998,-33.4264,1.7934],[124.0039,-33.4161,0.1387],[124.005,-33.409,0.648],[124.0133,-33.3851,0.384],[124.0245,-33.358,1.7295],[124.0527,-33.3067,0.0],[124.0791,-33.2492,0.0],[124.0845,-33.2323,0.9263],[124.0888,-33.2096,0.2862],[124.1012,-33.1762,0.7892],[124.1234,-33.1351,0.676],[124.1381,-33.115,1.2099],[124.1693,-33.0799,0.6873],[124.2264,-33.0281,0.659],[124.2293,-32.8628,134.4533],[123.47,-32.8598,158.2052],[123.4522,-32.8116,144.3109],[123.4522,-32.6982,178.7014],[123.4866,-32.6982,181.2619],[123.4866,-32.5647,171.028],[122.0015,-32.5647,295.741],[121.9034,-32.569,244.6969],[121.5209,-32.569,261.8453]]]]}}