{"type": "Feature","bbox": [147.87989,-22.35963,155.80104,-16.13299],"geometry": {"type": "MultiPolygon","coordinates": [[[[152.72486,-22.35963,0.0],[152.72462,-22.3563,0.0],[152.72397,-22.35963,0.0],[152.72486,-22.35963,0.0]]],
[[[152.73601,-22.34433,0.0],[152.73325,-22.34271,0.0],[152.73536,-22.34588,0.0],[152.73601,-22.34433,0.0]]],
[[[155.1705,-22.20029,0.0],[155.16896,-22.20119,0.0],[155.16993,-22.20273,0.0],[155.1705,-22.20029,0.0]]],
[[[155.46241,-22.17531,0.0],[155.46079,-22.17344,0.0],[155.45899,-22.17588,0.0],[155.45989,-22.17661,0.0],[155.46241,-22.17531,0.0]]],
[[[152.4769,-21.98203,0.0],[152.47495,-21.98292,0.0],[152.476,-21.98447,0.0],[152.47608,-21.98439,0.0],[152.47649,-21.98496,0.0],[152.47771,-21.98431,0.0],[152.47747,-21.9826,0.0],[152.47706,-21.98276,0.0],[152.4769,-21.98203,0.0]]],
[[[153.5525,-21.91115,0.0],[153.5525,-21.90919,0.0],[153.55161,-21.91115,0.0],[153.5525,-21.91115,0.0]]],
[[[153.55673,-21.90887,0.0],[153.55616,-21.91041,0.0],[153.55706,-21.91058,0.0],[153.55673,-21.90887,0.0]]],
[[[153.50864,-21.89186,0.0],[153.50864,-21.89121,0.0],[153.50766,-21.89056,0.0],[153.50668,-21.89121,0.0],[153.50766,-21.89186,0.0],[153.50864,-21.89186,0.0]]],
[[[153.64275,-21.85866,0.0],[153.64243,-21.85719,0.0],[153.64177,-21.85874,0.0],[153.64275,-21.85866,0.0]]],
[[[153.48854,-21.84677,0.0],[153.48658,-21.84767,0.0],[153.48764,-21.84914,0.0],[153.48772,-21.84914,0.0],[153.48813,-21.8497,0.0],[153.48935,-21.84905,0.0],[153.48911,-21.84726,0.0],[153.48862,-21.84751,0.0],[153.48854,-21.84677,0.0]]],
[[[152.41912,-21.79095,0.0],[152.41676,-21.78908,0.0],[152.4179,-21.7916,0.0],[152.41912,-21.79095,0.0]]],
[[[152.45151,-21.78908,0.0],[152.44996,-21.78786,0.0],[152.44915,-21.79013,0.0],[152.45151,-21.79038,0.0],[152.45151,-21.78908,0.0]]],
[[[153.76271,-21.63584,0.0],[153.7623,-21.63462,0.0],[153.76108,-21.63624,0.0],[153.76271,-21.63649,0.0],[153.76271,-21.63584,0.0]]],
[[[155.73276,-21.28436,0.0],[155.73064,-21.2833,0.0],[155.73064,-21.28484,0.0],[155.73097,-21.28574,0.0],[155.73276,-21.28436,0.0]]],
[[[155.79949,-21.27329,0.0],[155.80104,-21.27231,0.0],[155.79908,-21.2706,0.0],[155.79794,-21.27337,0.0],[155.79949,-21.27329,0.0]]],
[[[154.39129,-21.02874,0.0],[154.38852,-21.02907,0.0],[154.39129,-21.03004,0.0],[154.39129,-21.02874,0.0]]],
[[[148.51612,-17.86533,0.0],[148.51417,-17.86622,0.0],[148.51523,-17.86769,0.0],[148.51531,-17.86761,0.0],[148.51572,-17.86818,0.0],[148.51694,-17.86761,0.0],[148.51661,-17.86582,0.0],[148.51629,-17.86606,0.0],[148.51612,-17.86533,0.0]]],
[[[148.44337,-17.73211,0.0],[148.43946,-17.73406,0.0],[148.44068,-17.73594,0.0],[148.44337,-17.73211,0.0]]],
[[[148.43157,-17.65537,0.0],[148.43043,-17.65423,0.0],[148.42913,-17.65602,0.0],[148.43076,-17.65626,0.0],[148.43157,-17.65537,0.0]]],
[[[149.91993,-16.96274,0.0],[149.91798,-16.96364,0.0],[149.91904,-16.9651,0.0],[149.91912,-16.9651,0.0],[149.91961,-16.96559,0.0],[149.92083,-16.96502,0.0],[149.9205,-16.96323,0.0],[149.9201,-16.96347,0.0],[149.91993,-16.96274,0.0]]],
[[[149.99985,-16.93613,0.0],[149.99627,-16.9367,0.0],[149.99952,-16.93947,0.0],[149.99985,-16.93613,0.0]]],
[[[147.88185,-16.47934,0.0],[147.87989,-16.48024,0.0],[147.88095,-16.4817,0.0],[147.88103,-16.4817,0.0],[147.88144,-16.48227,0.0],[147.88266,-16.48162,0.0],[147.88233,-16.47991,0.0],[147.88201,-16.48008,0.0],[147.88185,-16.47934,0.0]]],
[[[149.97657,-16.29331,0.0],[149.97446,-16.29551,0.0],[149.97608,-16.29632,0.0],[149.97657,-16.29331,0.0]]],
[[[150.00082,-16.23081,0.0],[149.99985,-16.2304,0.0],[149.99863,-16.23048,0.0],[149.99985,-16.23211,0.0],[150.00082,-16.23081,0.0]]],
[[[150.00904,-16.13437,0.0],[150.004,-16.13511,0.0],[150.00099,-16.13437,0.0],[149.9983,-16.13527,0.0],[149.99985,-16.13567,0.0],[150.00733,-16.13673,0.0],[150.00904,-16.13437,0.0]]],
[[[149.99676,-16.13388,0.0],[149.99171,-16.13299,0.0],[149.99171,-16.13388,0.0],[149.99676,-16.13388,0.0]]]]}
,"properties": {"ISO3166-1-Alpha-3": "CSI","country": "Coral Sea Islands","name": "Coral Sea Islands","area_km2": 1.0014673,"hist_schema_id": "Elevation0-9000","hist_area_km2": {"0": 1.0014673}}}