{"type":"Feature","properties":{"GID_2":"AUS.11.107_1","GID_0":"AUS","country":"Australia","GID_1":"AUS.11_1","state":"WesternAustralia","NL_NAME_1":"NA","county":"Rockingham","VARNAME_2":"NA","NL_NAME_2":"NA","TYPE_2":"City","ENGTYPE_2":"City","CC_2":"57490","HASC_2":"AU.WA.RC","name":"Rockingham.county"},
"geometry":{"type": "MultiPolygon","coordinates": [[[[115.7552,-32.2516,0.0],[115.7394,-32.2675,1.0655],[115.7247,-32.2767,4.1928],[115.712,-32.2751,1.6497],[115.7056,-32.2758,1.2836],[115.6989,-32.2735,3.4079],[115.6996,-32.2684,0.0],[115.6982,-32.272,0.872],[115.6986,-32.2692,0.0],[115.6894,-32.2678,1.9407],[115.6861,-32.2644,0.0],[115.6847,-32.2661,0.0],[115.6864,-32.2694,9.1336],[115.6857,-32.2713,1.0211],[115.6888,-32.2727,3.0595],[115.6919,-32.2721,0.9916],[115.702,-32.2824,3.811],[115.7029,-32.2881,0.0],[115.701,-32.2932,0.0],[115.7036,-32.2986,0.0],[115.7016,-32.3053,0.0],[115.7136,-32.305,0.9437],[115.7298,-32.3098,0.0],[115.7386,-32.319,0.0],[115.7423,-32.3276,0.0],[115.7434,-32.3448,5.2366],[115.7391,-32.3588,6.8738],[115.7316,-32.366,1.6595],[115.7273,-32.3663,2.7407],[115.7208,-32.3694,1.3058],[115.7132,-32.3696,0.0],[115.7131,-32.3718,0.0],[115.7188,-32.375,0.3812],[115.7302,-32.3854,0.0],[115.7441,-32.404,2.5035],[115.7498,-32.4338,5.868],[115.7478,-32.4556,6.1281],[115.8014,-32.4556,-0.5],[115.8014,-32.4526,4.9729],[115.8275,-32.4582,7.3852],[115.8315,-32.4446,9.318],[115.8577,-32.4446,21.4426],[115.8577,-32.4062,10.8371],[115.8266,-32.4064,4.1581],[115.8303,-32.4048,4.477],[115.8311,-32.4003,2.9822],[115.8349,-32.3953,2.8406],[115.8353,-32.3781,3.4405],[115.8517,-32.3681,5.131],[115.8528,-32.3633,8.8207],[115.8517,-32.3527,8.6672],[115.8544,-32.3469,11.064],[115.8751,-32.3323,10.9441],[115.8896,-32.2919,11.8059],[115.8841,-32.2904,10.4565],[115.8723,-32.278,9.3899],[115.8466,-32.272,10.5014],[115.8424,-32.2724,8.9405],[115.8245,-32.2805,16.9568],[115.8128,-32.2873,18.2359],[115.7977,-32.2865,19.2979],[115.7883,-32.2771,7.1944],[115.7884,-32.2693,7.8147],[115.7852,-32.2691,6.816],[115.7853,-32.2491,7.9968],[115.7573,-32.2501,3.8093],[115.7552,-32.2516,0.0]]],
[[[115.6937,-32.3052,0.0],[115.691,-32.3046,6.5382],[115.6898,-32.3018,0.0],[115.69,-32.3091,0.0],[115.692,-32.3061,0.0],[115.6947,-32.3054,0.0],[115.6937,-32.3052,0.0]]],
[[[115.6909,-32.293,0.0],[115.6908,-32.2919,0.0],[115.6896,-32.2927,0.0],[115.6906,-32.2935,0.0],[115.6909,-32.293,0.0]]],
[[[115.6911,-32.2776,0.0],[115.6904,-32.2771,0.0],[115.6895,-32.278,0.0],[115.6899,-32.2782,0.0],[115.6911,-32.2776,0.0]]],
[[[115.6687,-32.1559,1.3384],[115.6605,-32.1563,0.0],[115.6618,-32.1648,6.7292],[115.66,-32.1736,0.0],[115.6616,-32.1738,9.9573],[115.6629,-32.1771,10.0496],[115.6653,-32.1896,0.0],[115.6698,-32.195,5.1517],[115.6706,-32.2107,0.0],[115.677,-32.2256,0.0],[115.6796,-32.2413,1.4798],[115.6819,-32.2449,0.0],[115.684,-32.2441,2.1223],[115.6914,-32.2462,4.8133],[115.691,-32.2438,6.6644],[115.6938,-32.2427,0.4107],[115.6999,-32.2446,0.0],[115.6986,-32.243,0.9144],[115.6925,-32.2408,0.8383],[115.6872,-32.234,2.5947],[115.6873,-32.2315,1.4069],[115.6895,-32.2315,0.0],[115.6898,-32.23,0.0],[115.6891,-32.2313,0.0],[115.6872,-32.2312,2.3485],[115.6873,-32.2301,2.3485],[115.6905,-32.2271,2.1911],[115.6925,-32.226,5.4763],[115.6979,-32.2282,0.0],[115.7004,-32.2264,0.0],[115.6953,-32.2199,7.3388],[115.6892,-32.2162,3.0033],[115.6833,-32.2059,0.0],[115.6823,-32.1974,0.8761],[115.6748,-32.1838,7.0425],[115.6771,-32.1718,0.0],[115.6746,-32.1652,6.077],[115.6694,-32.1602,0.0],[115.6687,-32.1559,1.3384]]]]}}