{"type": "Feature","bbox": [117.2396,-31.4392,117.654,-30.9513],"geometry": {"type": "MultiPolygon","coordinates": [[[[117.3768,-31.4338,250.0136],[117.3979,-31.4338,240.6309],[117.3979,-31.4392,242.6526],[117.4357,-31.4391,249.526],[117.4357,-31.4079,246.3316],[117.4675,-31.4078,251.1864],[117.4675,-31.3729,275.3272],[117.5206,-31.3738,285.9312],[117.5241,-31.3693,275.0068],[117.622,-31.3692,292.4845],[117.622,-31.3783,293.5939],[117.654,-31.3783,313.9146],[117.6535,-31.3693,301.4772],[117.6418,-31.3692,297.4919],[117.642,-31.3191,319.1913],[117.6043,-31.3191,315.4138],[117.6043,-31.3009,342.1458],[117.6,-31.3009,344.1132],[117.6,-31.2919,348.8605],[117.6042,-31.2919,342.7976],[117.6041,-31.2699,374.4521],[117.6025,-31.2699,377.1866],[117.6024,-31.2198,362.4593],[117.6096,-31.2198,365.0429],[117.6096,-31.1166,336.9679],[117.6165,-31.1166,350.0363],[117.6165,-31.0827,348.863],[117.6142,-31.0827,345.2009],[117.6142,-31.0375,332.8823],[117.5964,-31.0179,309.4193],[117.6211,-31.0064,332.2802],[117.621,-30.9513,301.3809],[117.6171,-30.9513,302.896],[117.6171,-30.9562,290.334],[117.6087,-30.9562,292.2086],[117.5923,-30.9601,287.4924],[117.5898,-30.9592,288.225],[117.5894,-30.9552,288.4062],[117.5892,-30.9567,288.2175],[117.5872,-30.9568,288.2819],[117.5879,-30.9588,288.0684],[117.583,-30.9576,288.0302],[117.5863,-30.9561,287.7835],[117.5835,-30.9538,290.4099],[117.5808,-30.954,289.6832],[117.5796,-30.9565,288.6668],[117.576,-30.9585,289.4489],[117.5765,-30.96,287.137],[117.5745,-30.9606,287.7379],[117.5573,-30.9541,288.2914],[117.5468,-30.9536,288.1413],[117.5455,-30.9553,287.2888],[117.5422,-30.9555,288.0168],[117.5426,-30.9596,286.6888],[117.5384,-30.9609,288.0708],[117.5402,-30.963,287.4305],[117.5372,-30.9639,291.4317],[117.5381,-30.9665,287.4977],[117.5359,-30.9656,289.4721],[117.5351,-30.9679,289.6255],[117.5324,-30.9677,292.2125],[117.532,-30.9705,288.2533],[117.5341,-30.9722,287.9319],[117.5251,-30.9718,287.2734],[117.5236,-30.975,287.596],[117.5182,-30.9794,287.561],[117.5189,-30.9745,288.8913],[117.5163,-30.9725,287.632],[117.5155,-30.9735,286.1986],[117.5144,-30.9708,290.0459],[117.5123,-30.9721,288.9064],[117.502,-30.9691,290.9758],[117.4956,-30.9695,288.2175],[117.4934,-30.9839,286.7499],[117.4646,-30.9792,289.0436],[117.4622,-30.9753,292.1272],[117.4382,-30.9751,294.491],[117.4383,-30.9634,285.4729],[117.4027,-30.9632,285.7306],[117.3962,-30.9669,285.9657],[117.3848,-30.9682,286.4126],[117.385,-30.966,283.2568],[117.3817,-30.9653,285.5468],[117.383,-30.964,283.9507],[117.3814,-30.9616,285.616],[117.3744,-30.9661,284.9807],[117.3781,-30.9652,285.7524],[117.3777,-30.9688,285.3656],[117.3794,-30.9706,285.762],[117.3838,-30.9698,285.444],[117.3857,-30.9718,285.9546],[117.3821,-30.973,285.2006],[117.3826,-30.9759,285.1046],[117.3773,-30.978,286.1675],[117.3717,-30.9778,285.8389],[117.3727,-30.9761,285.7526],[117.3682,-30.9754,285.7409],[117.3662,-30.9764,285.5806],[117.3673,-30.9793,285.8042],[117.3652,-30.9771,285.5806],[117.3633,-30.9777,285.4309],[117.366,-30.9817,286.6922],[117.3634,-30.9807,285.7389],[117.3602,-30.9823,284.8733],[117.3625,-30.9823,286.7322],[117.3655,-30.9848,285.7521],[117.3601,-30.9856,285.2837],[117.3643,-30.9891,285.5498],[117.3576,-30.9883,284.8463],[117.3591,-30.9906,285.8909],[117.3561,-30.9919,284.7562],[117.359,-30.9918,285.4896],[117.3608,-30.994,288.0478],[117.3593,-30.9936,285.562],[117.3588,-30.9958,285.7964],[117.3557,-30.997,286.4961],[117.3549,-31.0019,283.9092],[117.2478,-31.0019,284.9317],[117.2466,-31.0705,299.6481],[117.2485,-31.0703,297.9621],[117.2485,-31.0792,304.1961],[117.2574,-31.0792,304.2261],[117.2574,-31.0872,314.1826],[117.2485,-31.0873,315.8635],[117.2486,-31.102,323.5185],[117.2519,-31.1047,326.2333],[117.2424,-31.1131,344.4259],[117.2449,-31.1131,345.8599],[117.2449,-31.1247,329.7287],[117.2473,-31.1247,340.0852],[117.2473,-31.1296,333.3502],[117.241,-31.1296,324.8441],[117.2396,-31.1896,327.7711],[117.2504,-31.1858,335.5275],[117.2504,-31.1933,319.4911],[117.2569,-31.1933,319.9082],[117.2569,-31.1996,316.9429],[117.2682,-31.1996,340.0167],[117.2682,-31.2305,308.8219],[117.2725,-31.2305,304.1117],[117.2725,-31.2358,294.572],[117.2664,-31.2494,293.6903],[117.2486,-31.2494,291.7928],[117.2486,-31.2592,276.9758],[117.2618,-31.2592,283.3311],[117.2617,-31.2752,266.6402],[117.2533,-31.2753,264.1978],[117.2532,-31.2825,277.1874],[117.2542,-31.2881,280.1219],[117.2626,-31.2881,282.184],[117.2626,-31.2953,263.3192],[117.2601,-31.2953,263.7982],[117.259,-31.3115,245.3184],[117.2646,-31.3115,244.1681],[117.2646,-31.3277,245.6091],[117.2802,-31.3276,245.8758],[117.2802,-31.3533,254.4297],[117.2748,-31.3533,254.9159],[117.2749,-31.3697,260.4461],[117.2782,-31.3697,259.9214],[117.2737,-31.3747,262.9777],[117.2737,-31.3916,280.0327],[117.2703,-31.3916,280.1652],[117.2702,-31.4026,296.5565],[117.2904,-31.4038,288.7458],[117.2904,-31.3946,276.9856],[117.299,-31.3947,281.4985],[117.299,-31.3964,281.8017],[117.319,-31.3966,276.9345],[117.3231,-31.3984,282.6651],[117.3259,-31.4021,291.3271],[117.3318,-31.4021,297.3008],[117.3317,-31.4112,302.4623],[117.3382,-31.4112,289.5144],[117.3382,-31.4231,308.3643],[117.3351,-31.4232,313.8549],[117.3351,-31.4367,295.7562],[117.3682,-31.4366,255.5738],[117.3682,-31.4337,260.1038],[117.3768,-31.4338,250.0136]]]]}
,"properties": {"GID_2": "AUS.11.136_1","GID_0": "AUS","country": "Australia","GID_1": "AUS.11_1","state": "WesternAustralia","NL_NAME_1": "NA","county": "Wyalkatchem","VARNAME_2": "NA","NL_NAME_2": "NA","TYPE_2": "Shire","ENGTYPE_2": "Shire","CC_2": "59330","HASC_2": "AU.WA.WY","name": "Wyalkatchem.county","area_km2": 1596.968,"hist_schema_id": "Elevation0-9000","hist_area_km2": {"225": 0.38,"250": 181.451,"275": 365.446,"300": 463.286,"325": 353.758,"350": 206.76,"375": 25.506,"400": 0.381}}}