{"type": "Feature","bbox": [150.5912,-35.2009,150.7724,-35.1124],"geometry": {"type": "MultiPolygon","coordinates": [[[[150.6945,-35.1847,19.9877],[150.6956,-35.1834,5.9593],[150.6951,-35.1824,1.4127],[150.6936,-35.1835,0.0],[150.6945,-35.1847,19.9877]]],
[[[150.7023,-35.1232,2.6954],[150.6611,-35.1178,23.5232],[150.6606,-35.1245,2.2859],[150.6576,-35.129,0.0],[150.6513,-35.1322,12.4397],[150.6386,-35.1457,4.4726],[150.6334,-35.1492,6.1838],[150.6241,-35.1491,1.4153],[150.6153,-35.1428,0.0],[150.6212,-35.1479,0.0],[150.6147,-35.1486,3.2531],[150.6156,-35.1451,0.0],[150.6145,-35.1455,0.0],[150.6141,-35.1473,0.7467],[150.6123,-35.1472,2.084],[150.6075,-35.1438,0.6529],[150.6039,-35.1461,0.2254],[150.5995,-35.1464,2.9048],[150.5929,-35.1439,0.5333],[150.5963,-35.1522,0.0],[150.6026,-35.1532,0.4748],[150.6051,-35.1562,1.6897],[150.601,-35.1645,2.8927],[150.6013,-35.1701,11.207],[150.5912,-35.1725,0.0],[150.5925,-35.1843,0.0],[150.594,-35.185,0.0],[150.6007,-35.1781,0.0],[150.6107,-35.1728,4.8234],[150.6326,-35.1664,0.0],[150.655,-35.1631,0.0],[150.6614,-35.1632,0.0],[150.6638,-35.1654,0.0],[150.6679,-35.1633,0.0],[150.672,-35.1639,0.0],[150.6781,-35.1678,5.1725],[150.6826,-35.1654,5.1901],[150.6862,-35.1682,22.182],[150.6815,-35.1703,0.0],[150.6864,-35.1709,1.1658],[150.689,-35.1694,13.748],[150.6911,-35.1706,0.0],[150.6914,-35.1724,0.0],[150.6881,-35.1759,1.9226],[150.6893,-35.1779,0.0],[150.6916,-35.1764,6.1718],[150.6919,-35.178,0.0],[150.6958,-35.1772,38.5234],[150.6935,-35.1813,0.0],[150.6964,-35.1827,32.9554],[150.6944,-35.1865,12.6568],[150.6957,-35.1901,17.9385],[150.691,-35.1935,0.0],[150.6923,-35.1942,2.1782],[150.6918,-35.1975,5.4942],[150.6951,-35.2009,2.7883],[150.7079,-35.1911,27.4161],[150.7107,-35.1878,5.1442],[150.7104,-35.1857,10.2891],[150.7208,-35.1785,0.0],[150.7249,-35.173,0.0],[150.7287,-35.1732,13.2828],[150.7311,-35.1752,48.0919],[150.7308,-35.1788,29.5667],[150.7374,-35.1801,0.0],[150.7415,-35.1755,0.0],[150.7462,-35.1752,0.0],[150.751,-35.1701,0.8402],[150.7556,-35.1707,0.0],[150.7577,-35.1676,0.0],[150.7547,-35.1677,17.2509],[150.7577,-35.1672,0.0],[150.7605,-35.1623,0.0],[150.7604,-35.1592,0.0],[150.758,-35.1585,4.7825],[150.7581,-35.1556,0.0],[150.7626,-35.1527,3.8027],[150.7623,-35.1433,0.0],[150.7649,-35.1394,0.0],[150.7641,-35.1371,0.0],[150.7656,-35.1348,0.0],[150.7637,-35.1335,0.0],[150.7658,-35.128,0.0],[150.7649,-35.1241,0.0],[150.76,-35.1256,0.0],[150.7556,-35.1235,0.0],[150.753,-35.1243,0.0],[150.7479,-35.1315,12.0194],[150.7477,-35.1341,17.9305],[150.7455,-35.136,0.0],[150.7415,-35.1353,0.0],[150.7384,-35.1372,0.0],[150.7301,-35.1359,0.0],[150.7275,-35.134,0.0],[150.7219,-35.1357,0.0],[150.7175,-35.1332,7.809],[150.7087,-35.1224,1.0506],[150.7023,-35.1232,2.6954]]],
[[[150.7699,-35.1127,0.0],[150.7682,-35.1124,0.3659],[150.7644,-35.1177,4.6207],[150.7648,-35.1237,0.0],[150.7663,-35.1224,6.9867],[150.7705,-35.123,0.0],[150.7723,-35.121,1.9868],[150.7724,-35.1154,0.0],[150.7699,-35.1127,0.0]]]]}
,"properties": {"GID_1": "AUS.4_1","GID_0": "AUS","country": "Australia","state": "JervisBayTerritory","VARNAME_1": "NA","NL_NAME_1": "NA","TYPE_1": "Territory","ENGTYPE_1": "Territory","CC_1": "10","HASC_1": "AU.JB","ISO_1": "NA","name": "JervisBayTerritory.state","area_km2": 68.04153,"hist_schema_id": "Elevation0-9000","hist_area_km2": {"0": 9.63826,"25": 19.81477,"50": 17.99526,"75": 10.8865,"100": 5.00947,"125": 2.6866,"150": 1.872,"175": 0.13867}}}