{"type": "Feature","bbox": [137.7013,-34.1216,138.1448,-33.4681],"geometry": {"type": "MultiPolygon","coordinates": [[[[138.1184,-34.095,2.5414],[138.1184,-34.0929,2.8356],[138.1448,-34.0928,4.7799],[138.1447,-33.9912,109.5691],[138.0844,-33.9911,186.7064],[138.0853,-33.5182,44.2639],[138.0683,-33.5147,22.0409],[138.0686,-33.4703,28.6773],[137.922,-33.4681,1.6427],[137.9305,-33.4817,1.9816],[137.929,-33.49,1.3903],[137.9333,-33.5004,1.1446],[137.9391,-33.5064,1.2544],[137.9415,-33.5073,1.6868],[137.9412,-33.5057,1.9034],[137.945,-33.5076,1.8952],[137.9424,-33.5099,1.6697],[137.9432,-33.5123,1.3779],[137.9476,-33.514,1.6722],[137.9479,-33.5128,1.7976],[137.9469,-33.5115,1.7976],[137.9491,-33.5127,1.7637],[137.9478,-33.5152,1.713],[137.9428,-33.5161,1.1799],[137.9414,-33.5181,1.0301],[137.9398,-33.5401,4.3461],[137.9388,-33.5429,0.683],[137.9371,-33.5432,0.0],[137.9394,-33.5479,0.0],[137.9444,-33.5505,0.781],[137.9518,-33.5492,1.071],[137.963,-33.5508,0.1587],[137.9665,-33.5488,0.6659],[137.9681,-33.545,0.7299],[137.9694,-33.5455,0.6852],[137.969,-33.5426,0.5776],[137.9711,-33.5394,1.0508],[137.97,-33.5446,0.6852],[137.9763,-33.5497,0.7204],[137.9738,-33.553,0.7594],[137.979,-33.5539,1.0688],[137.9752,-33.5551,0.865],[137.9772,-33.5569,1.1954],[137.9772,-33.5596,1.8509],[137.9713,-33.5614,1.4542],[137.9715,-33.567,4.3184],[137.9681,-33.5675,0.5829],[137.9675,-33.5714,3.2903],[137.9648,-33.5743,3.1082],[137.9611,-33.5717,0.5834],[137.955,-33.5715,0.7388],[137.9518,-33.5733,5.3889],[137.95,-33.5719,6.3931],[137.9483,-33.5632,0.7845],[137.9491,-33.5596,1.0157],[137.9436,-33.5558,4.5557],[137.9469,-33.5556,1.0276],[137.9468,-33.5546,1.0276],[137.9353,-33.5527,0.101],[137.937,-33.5537,2.061],[137.9349,-33.5563,3.7234],[137.9366,-33.5735,4.7129],[137.9356,-33.5801,1.6782],[137.9292,-33.5913,0.4055],[137.9292,-33.6007,0.5385],[137.9261,-33.607,1.6295],[137.9275,-33.6115,5.2122],[137.9254,-33.6128,1.0099],[137.9252,-33.616,0.0],[137.9195,-33.624,0.3275],[137.9016,-33.6289,0.5618],[137.8932,-33.6256,0.3606],[137.8959,-33.6258,0.5056],[137.8938,-33.6243,0.9293],[137.8938,-33.6213,1.1705],[137.8975,-33.6166,1.3241],[137.901,-33.6004,0.0],[137.9051,-33.5969,0.2265],[137.9076,-33.5965,0.3684],[137.9095,-33.5988,0.499],[137.9063,-33.597,0.2265],[137.9031,-33.6011,0.4434],[137.9035,-33.6083,0.5196],[137.9065,-33.6099,0.7043],[137.9039,-33.6091,0.5196],[137.9053,-33.6106,0.7043],[137.904,-33.6101,0.5375],[137.9036,-33.6145,1.1797],[137.9056,-33.6162,0.6428],[137.9098,-33.6163,0.3123],[137.9133,-33.6136,0.7233],[137.911,-33.6147,0.8123],[137.9242,-33.5973,1.0393],[137.9197,-33.5873,0.737],[137.9049,-33.5859,0.6444],[137.8925,-33.5879,0.8386],[137.8899,-33.5916,2.5527],[137.8774,-33.5981,1.6818],[137.8761,-33.6048,11.3691],[137.8723,-33.6066,3.7772],[137.8653,-33.6219,3.509],[137.8573,-33.6313,2.4076],[137.847,-33.6393,0.2886],[137.8345,-33.6425,0.2841],[137.8278,-33.6488,0.9229],[137.8256,-33.6562,1.1477],[137.8188,-33.6579,0.1402],[137.8196,-33.6622,0.8006],[137.8151,-33.6626,0.3129],[137.813,-33.6647,0.6967],[137.8147,-33.6661,0.6108],[137.8139,-33.6677,0.9259],[137.8091,-33.6687,0.1129],[137.8068,-33.6751,0.8915],[137.8053,-33.6753,0.4941],[137.8062,-33.677,0.8961],[137.8006,-33.6831,0.6451],[137.7968,-33.6862,0.6396],[137.797,-33.6851,0.6396],[137.7934,-33.6852,0.2794],[137.7891,-33.6873,0.3792],[137.7839,-33.692,1.0632],[137.7763,-33.695,1.2549],[137.7529,-33.7169,3.8061],[137.7424,-33.733,2.2472],[137.7364,-33.7378,0.7235],[137.7332,-33.752,3.378],[137.7266,-33.7684,12.1068],[137.7157,-33.7786,20.6899],[137.7013,-33.7881,16.1804],[137.715,-33.7965,48.0815],[137.7237,-33.8794,27.1349],[137.8725,-33.8793,72.7755],[137.8725,-33.9908,75.6332],[137.9161,-33.9909,97.9503],[137.916,-34.0072,93.1676],[137.9182,-34.0138,101.4374],[137.9186,-34.0929,146.2209],[137.9929,-34.0929,116.5477],[138.0001,-34.0964,128.1705],[138.0125,-34.0929,141.7584],[138.0202,-34.0969,141.3804],[138.0217,-34.1004,133.7649],[138.0214,-34.1047,127.2438],[138.0249,-34.1082,127.6317],[138.0258,-34.114,110.1846],[138.0338,-34.1216,101.9683],[138.0362,-34.1196,96.6303],[138.0343,-34.1119,88.6361],[138.041,-34.1108,67.7606],[138.0514,-34.096,52.7791],[138.0611,-34.0938,40.9249],[138.0782,-34.0852,17.2635],[138.0852,-34.0864,11.1898],[138.0902,-34.093,3.832],[138.1157,-34.0931,2.7527],[138.1184,-34.095,2.5414]]]]}
,"properties": {"GID_2": "AUS.8.6_1","GID_0": "AUS","country": "Australia","GID_1": "AUS.8_1","state": "SouthAustralia","NL_NAME_1": "NA","county": "BarungaWest","VARNAME_2": "NA","NL_NAME_2": "NA","TYPE_2": "DistrictCouncil","ENGTYPE_2": "DistrictCouncil","CC_2": "40430","HASC_2": "AU.SA.BW","name": "BarungaWest.county","area_km2": 1592.501,"hist_schema_id": "Elevation0-9000","hist_area_km2": {"0": 160.118,"25": 177.582,"50": 359.531,"75": 282.514,"100": 362.954,"125": 144.31,"150": 70.715,"175": 23.653,"200": 4.429,"225": 2.812,"250": 1.599,"275": 1.283,"300": 0.756,"325": 0.246}}}