{"type": "Feature","bbox": [146.00711316426549,-36.055959426031876,146.21581733040182,-35.966472731383845],"geometry": {"type": "Polygon","coordinates": [[[146.17990490689175,-36.013865355852062,135.4366],[146.15665014084834,-35.9994415136226,131.7517],[146.12721372813519,-35.993848595207112,127.3985],[146.09807167954915,-36.000030241876857,124.0],[146.08511965795537,-36.000030241876857,124.0],[146.07923237541274,-35.990610589808654,131.6699],[146.07334509287011,-35.973537470435019,128.6431],[146.05833252238637,-35.966767095510988,127.7292],[146.0277186531647,-35.966472731383845,127.2857],[146.01211735442672,-35.971476921545104,125.8301],[146.00711316426549,-35.98354585075748,127.6103],[146.00976244140963,-35.997380964732685,124.0],[146.01741590871507,-36.007978073309431,128.7702],[146.030662294436,-36.013865355852062,128.2698],[146.06215925603908,-36.017397725377634,124.0],[146.07599437001426,-36.025051192683065,124.0],[146.09659985891352,-36.033587752369868,131.1125],[146.15871068973826,-36.037708850149727,131.5884],[146.18225981990884,-36.0421243120567,125.5737],[146.19874421102821,-36.050366507616388,126.664],[146.21581733040182,-36.055959426031876,128.5875],[146.19933293928244,-36.033587752369868,127.4914],[146.17990490689175,-36.013865355852062,135.4366]]]}
,"properties": {"featurecla": "Reservoir","scalerank": 7,"name": "Lake Mulwala","name_abb": "L. Mulwala","name_alt": null,"note": null,"delta": null,"dam_name": null,"year": 1939,"admin": null,"min_zoom": 5.7,"min_label": 6.7,"area_km2": 73.78442,"hist_schema_id": "Elevation0-9000","hist_area_km2": {"125": 73.63009,"150": 0.15432}}}