{"type":"Feature","properties":{"featurecla":"Lake Centerline","scalerank":7,"rivernum":476,"dissolve":"476Lake Centerline","name":"Lachlan3","name_alt":null,"note":null,"min_zoom":6.0,"strokeweig":0.2,"name_en":"Lachlan","min_label":7.0},
"geometry":{"type": "LineString","coordinates": [[149.04853515625,-34.003741143755889,394.9783],[149.0380859375,-33.997588800005886,541.8507],[149.03125,-33.98381926875588,373.0],[149.0244140625,-33.97039153438088,436.787],[149.01572265625003,-33.955596612505886,373.0],[149.007080078125,-33.938018487505886,373.0],[148.996337890625,-33.93157317500588,373.0],[148.984619140625,-33.934405206255889,463.2283],[148.97763671875003,-33.946123956255889,373.0],[148.973388671875,-33.965362237505886,373.0],[148.969482421875,-33.975420831255889,373.0],[148.96376953125002,-33.97966887813088,402.8516]]}}