{"type":"Feature","properties":{"featurecla":"River","scalerank":7,"rivernum":476,"dissolve":"476River","name":"Lachlan2","name_alt":null,"note":null,"min_zoom":6.0,"strokeweig":0.25,"name_en":"Lachlan","min_label":7.0},
"geometry":{"type": "LineString","coordinates": [[148.96376953125002,-33.97966887813088,402.8516],[148.95693359375002,-33.984893487505886,444.9399],[148.94716796875002,-33.990557550005889,531.2584],[148.935546875,-33.99407317500588,430.7919],[148.92333984375,-33.99334075313088,368.0439],[148.91259765625,-33.98479583125588,326.3059],[148.897216796875,-33.958038018755886,337.2113],[148.89169921875003,-33.95232512813088,322.44],[148.843994140625,-33.95232512813088,305.6503],[148.83095703125002,-33.95061614375588,338.8873],[148.8232421875,-33.94573333125588,320.2108],[148.81640625,-33.938995050005886,320.464],[148.720703125,-33.873565362505886,307.4274],[148.701171875,-33.854815362505889,290.5607],[148.689697265625,-33.84612395625588,303.0441],[148.679443359375,-33.84246184688088,289.0349],[148.66220703125003,-33.841143487505889,311.5157],[148.65,-33.837237237505889,294.6148],[148.6279296875,-33.822100518755889,282.5597],[148.6357421875,-33.81023528438088,283.9256],[148.63291015625003,-33.80046965938088,280.7859],[148.57568359375,-33.73088958125588,275.9732],[148.56904296875,-33.71892669063088,274.1138],[148.56640625,-33.708819268755889,274.5532],[148.56728515625002,-33.69500090938088,272.9325],[148.568359375,-33.689483331255886,272.6155],[148.56679687500002,-33.685870050005889,269.2039],[148.54736328125,-33.66326262813088,279.962],[148.52783203125,-33.645049737505886,272.0335],[148.50634765625,-33.629424737505886,269.4352],[148.488037109375,-33.62273528438088,268.1952],[148.46835937500003,-33.619952081255889,267.6922],[148.42031250000002,-33.604034112505886,262.7267],[148.40878906250003,-33.595538018755889,263.9448],[148.41259765625,-33.560381768755889,262.4659],[148.41064453125,-33.537920831255889,260.5286],[148.398681640625,-33.52776458125588,260.4581],[148.38681640625003,-33.52459075313088,259.6026],[148.36767578125,-33.510577081255889,256.8519],[148.35751953125003,-33.50725676875588,253.6403],[148.31904296875,-33.508819268755886,255.7494],[148.306396484375,-33.50725676875588,255.3705],[148.24277343750003,-33.47820403438088,254.0426],[148.230712890625,-33.47625090938088,249.6407],[148.226318359375,-33.470245050005886,250.3231],[148.20703125,-33.458038018755886,247.7576],[148.20273437500003,-33.44866301875588,249.0425],[148.19970703125,-33.43621184688088,248.3606],[148.19287109375,-33.42815520625588,245.6878],[148.1630859375,-33.409502862505889,245.1952],[148.15185546875,-33.40520598750588,242.9653],[148.140625,-33.403838800005886,243.905],[148.128173828125,-33.40374114375588,243.0353],[148.11533203125003,-33.40618255000588,242.9297],[148.10146484375002,-33.41082122188088,241.4143],[148.08798828125003,-33.412920831255889,241.8136],[148.055419921875,-33.40007903438088,241.476],[148.025390625,-33.401397393755886,239.6491],[147.99609375,-33.40837981563088,236.128],[147.97744140625002,-33.41790130000588,235.2285],[147.957763671875,-33.408233331255886,232.5194],[147.94052734375003,-33.40447356563088,232.5552],[147.92373046875002,-33.40837981563088,231.4544],[147.90537109375003,-33.42131926875588,231.8347],[147.89111328125,-33.42205169063088,231.0166],[147.82666015625,-33.39739348750588,226.9606],[147.78330078125003,-33.39739348750588,223.9562],[147.765380859375,-33.39373137813088,223.6429],[147.747802734375,-33.380401300005886,222.0798],[147.70654296875,-33.383819268755886,219.5345],[147.695556640625,-33.38054778438088,218.5074],[147.63232421875,-33.334014581255886,215.3351],[147.61289062500003,-33.325225518755886,213.8047],[147.58984375,-33.32170989375588,214.1791],[147.572265625,-33.315459893755886,213.2124],[147.50263671875,-33.25505950313088,208.2282],[147.48779296875,-33.246416925005889,207.056],[147.47011718750002,-33.241045831255889,206.5411],[147.37441406250002,-33.23626067500588,201.2789],[147.35361328125003,-33.23235442500588,201.7478],[147.33447265625,-33.21648528438088,200.8508],[147.30556640625002,-33.167510675005886,196.7043],[147.2890625,-33.157256768755886,196.4671],[147.26923828125,-33.154131768755889,195.7344],[147.253173828125,-33.14592864375588,195.522],[147.22324218750003,-33.123077081255886,191.7144],[147.18603515625,-33.10418059688088,191.1423],[147.146240234375,-33.09539153438088,190.6976],[146.9443359375,-33.09343840938088,181.7217],[146.912841796875,-33.08733489375588,180.4899],[146.84707031250002,-33.094268487505886,177.7563],[146.823974609375,-33.09050872188088,178.6286],[146.782958984375,-33.066924737505886,174.8054],[146.77138671875002,-33.06267669063088,175.4066],[146.76083984375003,-33.061065362505886,174.8087],[146.75,-33.05754973750588,174.479],[146.733642578125,-33.04021575313088,175.1553],[146.72304687500002,-33.033721612505886,172.4533],[146.695556640625,-33.03337981563088,171.7277],[146.67509765625005,-33.04583098750588,170.5747],[146.65712890625002,-33.06072356563088,170.2422],[146.6376953125,-33.067901300005886,169.1515],[146.62109375,-33.072100518755889,168.8032],[146.55849609375002,-33.10198333125588,168.431],[146.51669921875003,-33.11467864375588,167.2574],[146.498046875,-33.124541925005886,169.3445],[146.490234375,-33.13958098750588,165.6054],[146.48916015625002,-33.16399505000588,164.2378],[146.48486328125,-33.18352630000588,166.2259],[146.476318359375,-33.199053643755889,162.3211],[146.46230468750002,-33.21184661250588,162.0942],[146.44375,-33.222198175005886,160.6275],[146.42041015625,-33.230303643755889,160.4554],[146.3966796875,-33.23162200313088,157.3065],[146.376953125,-33.22210051875588,157.8159],[146.35390625000002,-33.20671965938088,159.7726],[146.33515625,-33.208330987505889,167.039],[146.29843750000003,-33.23235442500588,155.6889],[146.281494140625,-33.237627862505889,157.3909],[146.2125,-33.23919036250588,156.3848],[146.19228515625002,-33.242998956255889,152.6975],[146.173095703125,-33.251983331255886,150.677],[146.12568359375,-33.284502862505889,147.4329],[146.11259765625005,-33.298663018755889,146.7171],[146.10341796875002,-33.31658294063088,145.841],[146.09814453125,-33.362823175005886,163.5299],[146.09189453125003,-33.37932708125588,145.3626],[146.079296875,-33.390166925005886,143.9168],[146.058837890625,-33.39739348750588,143.6931],[146.017333984375,-33.401397393755886,141.1966],[145.97646484375002,-33.39495208125588,143.5961],[145.81416015625,-33.34539153438088,142.5939],[145.771484375,-33.342315362505886,132.1012],[145.72998046875,-33.34905364375588,135.0155],[145.68837890625002,-33.363311456255886,130.8973],[145.65380859375,-33.38128020625588,126.2293],[145.64394531250002,-33.383819268755886,126.1935],[145.618896484375,-33.384112237505889,125.5502],[145.60498046875,-33.387237237505886,125.3822],[145.59414062500002,-33.397295831255889,125.1273],[145.52792968750003,-33.49309661250588,119.4409],[145.51318359375,-33.50505950313088,118.5855],[145.44814453125002,-33.54143645625588,117.3039],[145.4384765625,-33.542803643755889,115.8847],[145.40771484375,-33.54143645625588,115.773],[145.3966796875,-33.54436614375588,114.9001],[145.353125,-33.560870050005889,112.7505],[145.338134765625,-33.574248956255886,111.9954],[145.29873046875002,-33.635284112505886,109.1615],[145.284423828125,-33.65056731563088,107.7861],[145.26718750000003,-33.65691497188088,107.0878],[145.220458984375,-33.69133880000588,104.9098],[145.21337890625,-33.692217706255889,104.8641],[145.20634765625005,-33.69011809688088,105.0577],[145.19482421875,-33.691729425005889,103.8324],[145.1611328125,-33.70647551875588,103.4656],[145.14580078125005,-33.71062590938088,102.1698],[145.12294921875002,-33.712237237505889,104.6444],[145.11289062500003,-33.714385675005886,101.469],[145.0927734375,-33.724151300005886,101.9218],[145.08193359375002,-33.726397393755889,101.5825],[145.07685546875,-33.72527434688088,103.0414],[145.06777343750002,-33.72014739375588,101.3932],[145.06171875,-33.71892669063088,102.338],[145.05380859375003,-33.720245050005886,101.3183],[145.05166015625002,-33.72356536250588,101.4524],[145.05029296875,-33.72795989375588,101.1021],[145.044677734375,-33.73259856563088,99.9378],[145.001953125,-33.75164153438088,97.4179],[144.983154296875,-33.76384856563088,96.7591],[144.97509765625,-33.777666925005889,96.5415],[144.97255859375002,-33.803741143755886,96.5093],[144.96484375,-33.819854425005886,96.0032],[144.9521484375,-33.83098723750588,95.3777],[144.934814453125,-33.84246184688088,95.2692],[144.899658203125,-33.87200286250588,93.8378],[144.83847656250003,-33.93840911250588,90.0964],[144.77597656250003,-33.984698175005889,88.2622],[144.7625,-33.99749114375588,88.9906],[144.756591796875,-34.01067473750588,88.3294],[144.7482421875,-34.02044036250588,87.9042],[144.70830078125005,-34.04753997188088,86.1794],[144.694580078125,-34.06218840938088,85.5411],[144.68671875,-34.089873956255886,84.9176],[144.681640625,-34.09636809688088,84.9433],[144.67236328125,-34.099639581255886,84.6532],[144.64609375000003,-34.104522393755886,84.1828],[144.640625,-34.10662200313088,84.3204],[144.62939453125,-34.11663176875588,83.3146],[144.576171875,-34.145342706255889,82.3853],[144.55810546875,-34.157745050005886,81.4946],[144.55712890625,-34.16204192500588,81.4018],[144.558837890625,-34.173858331255886,81.5444],[144.55810546875,-34.178252862505886,81.2595],[144.55517578125,-34.18010833125588,80.6091],[144.546875,-34.18279387813088,80.9995],[144.54375,-34.18450286250588,81.228],[144.52919921875002,-34.197100518755889,80.9926],[144.520263671875,-34.20305755000588,81.012],[144.5048828125,-34.208819268755889,81.0555],[144.49169921875,-34.222979425005889,80.8807],[144.48583984375,-34.226104425005886,80.4391],[144.433837890625,-34.226104425005886,79.5845],[144.390869140625,-34.23357512813088,78.6361],[144.37060546875,-34.24065520625588,78.1073],[144.355712890625,-34.250323175005889,77.989],[144.335693359375,-34.256182550005889,77.9875],[144.255859375,-34.239092706255889,75.6769],[144.245361328125,-34.241729425005886,75.6381],[144.23105468750003,-34.25066497188088,76.7836],[144.2216796875,-34.25408294063088,77.0349],[144.21044921875,-34.254424737505886,76.0197],[144.19619140625002,-34.248370050005889,77.7745],[144.183837890625,-34.246612237505886,75.5971],[144.1689453125,-34.23943450313088,75.0384],[144.157470703125,-34.224151300005886,76.0836],[144.14316406250003,-34.209795831255889,74.8974],[144.119873046875,-34.205596612505886,75.0331],[144.10488281250002,-34.21306731563088,75.5551],[144.08896484375003,-34.22918059688088,73.372],[144.07666015625,-34.24968840938088,73.1375],[144.07138671875003,-34.270830987505889,71.3385],[144.060546875,-34.27971770625588,72.4957],[144.03544921875005,-34.282061456255889,72.841],[143.98886718750003,-34.28069426875588,71.6032],[143.964111328125,-34.28386809688088,71.4712],[143.944580078125,-34.289092706255886,70.2617],[143.92744140625,-34.298174737505889,70.6019],[143.91015625,-34.312041925005886,69.299],[143.87109375,-34.35076262813088,68.8592],[143.7880859375,-34.393877862505889,68.2325],[143.773193359375,-34.397979425005886,73.093],[143.7568359375,-34.40471770625588,66.5376],[143.6923828125,-34.501006768755886,66.4984],[143.67275390625002,-34.52434661250588,67.5533],[143.65615234375002,-34.53460051875588,62.4336],[143.64902343750003,-34.54363372188088,64.8441],[143.646240234375,-34.60344817500588,63.7827],[143.63681640625003,-34.62200286250588,69.6322],[143.622314453125,-34.63762786250588,62.9722],[143.60361328125003,-34.648467706255886,62.9617],[143.58173828125,-34.65252044063088,58.3332],[143.55527343750003,-34.654131768755889,64.1773],[143.537109375,-34.65813567500588,62.7208],[143.468017578125,-34.681963800005889,60.7807],[143.44521484375002,-34.698077081255889,59.8273],[143.43710937500003,-34.69841887813088,60.1987],[143.42832031250003,-34.696612237505889,52.0211],[143.41347656250002,-34.699053643755889,59.7715],[143.39912109375,-34.705596612505886,58.7917],[143.38808593750002,-34.712237237505889,57.662],[143.37568359375,-34.71746184688088,60.0605],[143.35830078125002,-34.719561456255889,58.7665],[143.34248046875,-34.716631768755889,57.0618],[143.329833984375,-34.711748956255889,58.863],[143.31748046875003,-34.710772393755889,57.6197],[143.30361328125002,-34.719561456255889,57.0284],[143.281982421875,-34.69768645625588,52.556399999999996],[143.26992187500002,-34.688311456255889,57.9844],[143.25527343750002,-34.68596770625588,56.431],[143.24072265625,-34.694659112505889,59.1815],[143.23378906250002,-34.723663018755886,53.3618],[143.22119140625,-34.733233331255889,44.6973]]}}