{"type":"Feature","properties":{"featurecla":"River","scalerank":3,"rivernum":76,"dissolve":"76River","name":"Weir1","name_alt":null,"note":null,"min_zoom":3.0,"strokeweig":0.2,"name_en":"Weir","min_label":4.0},
"geometry":{"type": "LineString","coordinates": [[151.553955078125,-28.95525481563088,375.5107],[151.549072265625,-28.970049737505889,376.2153],[151.52626953125002,-29.00823333125588,384.8156],[151.51992187500002,-29.02727630000588,536.2808],[151.52080078125005,-29.05437590938088,425.8713],[151.51992187500002,-29.06145598750588,365.6922],[151.51376953125003,-29.066924737505886,364.1193],[151.49208984375002,-29.078155206255886,348.6519],[151.482421875,-29.08562590938088,345.9245],[151.46728515625,-29.10784270625588,343.5012],[151.46142578125,-29.12053801875588,341.3942],[151.45224609375003,-29.12639739375588,334.8726],[151.430419921875,-29.136553643755889,337.1381],[151.42626953125,-29.142120050005886,347.568],[151.42509765625005,-29.14885833125588,335.2271],[151.42236328125,-29.154620050005889,333.5111],[151.40478515625,-29.15911223750588,333.0642],[151.384033203125,-29.168487237505886,333.4284],[151.37587890625002,-29.170733331255889,329.223],[151.3505859375,-29.16545989375588,443.5844],[151.34326171875,-29.15300872188088,423.059],[151.34384765625003,-29.13738372188088,371.2249],[151.34228515625,-29.122881768755889,411.6235],[151.33544921875,-29.115069268755889,407.4451],[151.318359375,-29.10540130000588,392.2774],[151.31503906250003,-29.09929778438088,367.7599],[151.308837890625,-29.06145598750588,319.7462],[151.308837890625,-29.03069426875588,317.478],[151.30654296875002,-29.02434661250588,320.0616],[151.30244140625,-29.018389581255889,304.0712],[151.3017578125,-29.010772393755886,309.1157],[151.308837890625,-28.99993255000588,338.6404],[151.301513671875,-28.984405206255886,312.0673],[151.287109375,-28.92083098750588,332.1489],[151.21875,-28.883330987505886,306.22],[151.18154296875002,-28.856963800005886,301.2461],[151.16015625,-28.84612395625588,290.8915],[151.13974609375003,-28.84172942500588,276.6383],[151.10048828125002,-28.840850518755886,273.6274],[151.0771484375,-28.836944268755886,272.0474],[151.06171875,-28.82805755000588,273.7838],[151.05527343750003,-28.810577081255886,284.761],[151.05322265625,-28.78826262813088,272.8269],[151.05419921875,-28.754424737505886,306.8172],[151.045654296875,-28.734893487505886,290.7012],[151.02490234375,-28.728350518755889,272.1045],[151.0001953125,-28.727080987505886,265.6314],[150.97910156250003,-28.723663018755886,260.6391],[150.96259765625,-28.71282317500588,258.4861],[150.9484375,-28.69890715938088,256.9443],[150.93320312500003,-28.68718840938088,262.8042],[150.890625,-28.67864348750588,255.5135],[150.87109375,-28.67009856563088,251.4184],[150.83447265625,-28.647979425005886,255.4551],[150.793212890625,-28.635088800005889,246.4244],[150.752197265625,-28.636065362505889,239.391],[150.663818359375,-28.654815362505886,238.6794],[150.62089843750005,-28.659014581255889,234.8026],[150.49179687500003,-28.654815362505886,227.8531],[150.46962890625002,-28.650420831255886,228.6545]]}}