{"type":"Feature","properties":{"featurecla":"River","scalerank":3,"rivernum":86,"dissolve":"86River","name":"Darling2","name_alt":null,"note":null,"min_zoom":3.0,"strokeweig":0.45,"name_en":"Darling","min_label":4.0},
"geometry":{"type": "LineString","coordinates": [[142.92636718750003,-32.11565520625588,66.9265],[142.87919921875005,-32.108916925005886,67.732],[142.86582031250003,-32.109893487505886,68.7397],[142.858642578125,-32.11150481563088,67.1773],[142.84433593750003,-32.122588800005886,65.3074],[142.8375,-32.13152434688088,66.5478],[142.82724609375003,-32.152666925005889,62.9951],[142.82080078125,-32.15667083125588,64.8115],[142.810302734375,-32.15984465938088,64.7976],[142.7900390625,-32.17400481563088,65.5877],[142.779541015625,-32.17717864375588,67.7018],[142.75644531250003,-32.17888762813088,63.7666],[142.73505859375,-32.184600518755886,64.6254],[142.71728515625,-32.19304778438088,69.0042],[142.704296875,-32.20427825313088,71.0652],[142.6962890625,-32.22014739375588,61.4691],[142.693603515625,-32.24236419063088,62.681399999999996],[142.68886718750002,-32.259307550005886,61.4984],[142.67724609375,-32.270538018755886,61.9674],[142.61093750000003,-32.305987237505889,60.5079],[142.5908203125,-32.312530206255886,64.9152],[142.54179687500005,-32.31731536250588,62.0789],[142.52685546875,-32.32390715938088,60.0661],[142.462158203125,-32.391436456255889,58.2069],[142.45058593750002,-32.39690520625588,58.7802],[142.42490234375003,-32.398760675005889,60.962],[142.40878906250003,-32.40520598750588,58.587],[142.40087890625,-32.41790130000588,61.4534],[142.39931640625002,-32.438506768755886,66.4763],[142.40195312500003,-32.462237237505889,58.3921],[142.40195312500003,-32.47234465938088,58.8651],[142.39931640625002,-32.48503997188088,57.9948],[142.38720703125,-32.51140715938088,58.2731],[142.385498046875,-32.524248956255889,58.7489],[142.39248046875002,-32.540362237505889,58.8112],[142.39003906250002,-32.55535247188088,58.6209],[142.40234375,-32.60003020625588,57.675],[142.39589843750002,-32.619463800005889,56.4497],[142.3828125,-32.639971612505889,56.2331],[142.38222656250002,-32.659014581255889,57.0663],[142.39248046875002,-32.69793059688088,57.7217],[142.392333984375,-32.788409112505889,60.766],[142.39111328125,-32.79680755000588,57.992],[142.38818359375,-32.80388762813088,55.6636]]}}