{"type":"Feature","properties":{"featurecla":"River","scalerank":8,"rivernum":675,"dissolve":"675River","name":"Macquarie3","name_alt":null,"note":null,"min_zoom":7.0,"strokeweig":0.25,"name_en":"Macquarie","min_label":8.0},
"geometry":{"type": "LineString","coordinates": [[149.12001953125002,-32.65569426875588,341.5],[149.1005859375,-32.64812590938088,380.9741],[149.072509765625,-32.620147393755886,322.8432],[149.053125,-32.60857512813088,419.8631],[149.03466796875,-32.60857512813088,325.3446],[149.01669921875003,-32.612823175005886,349.3318],[149.003173828125,-32.60930755000588,310.3679],[148.997802734375,-32.584991143755886,326.4775],[148.9931640625,-32.575713800005886,306.2919],[148.9814453125,-32.574053643755889,323.1265],[148.96826171875,-32.575225518755886,365.5987],[148.95751953125,-32.57439544063088,333.6133],[148.94589843750003,-32.56707122188088,295.5265],[148.9423828125,-32.560381768755889,294.1047],[148.9404296875,-32.553057550005889,290.9528],[148.93320312500003,-32.543780206255889,283.7161],[148.92333984375,-32.535479425005889,293.5479],[148.91660156250003,-32.53215911250588,364.9271],[148.87294921875002,-32.52214934688088,337.9941],[148.86669921875,-32.51458098750588,300.1951],[148.875,-32.49871184688088,319.2734],[148.85878906250002,-32.486358331255886,302.9743],[148.8349609375,-32.44890715938088,304.4489],[148.8234375,-32.44817473750588,282.9408],[148.81630859375002,-32.45305755000588,282.695],[148.806396484375,-32.457061456255886,302.5877],[148.796630859375,-32.45842864375588,304.2043],[148.78896484375002,-32.45525481563088,288.4404],[148.77714843750005,-32.439971612505886,279.6462],[148.771484375,-32.43621184688088,276.9235],[148.75830078125,-32.43108489375588,278.3502],[148.719921875,-32.421221612505889,275.3022],[148.7080078125,-32.41228606563088,273.4813],[148.70361328125,-32.39324309688088,272.7755],[148.69765625000002,-32.385088800005889,300.2769],[148.683837890625,-32.38469817500588,272.575],[148.658935546875,-32.389483331255889,269.934],[148.64580078125005,-32.388018487505889,270.253],[148.64267578125003,-32.38323333125588,271.8397],[148.64345703125002,-32.375030206255886,268.3134],[148.6416015625,-32.36272551875588,272.9904],[148.609375,-32.279131768755889,271.302],[148.58447265625,-32.24480559688088,281.9657],[148.54599609375003,-32.218780206255886,266.753],[148.47431640625,-32.189776300005889,251.2814],[148.432373046875,-32.17986419063088,246.9819],[148.40195312500003,-32.184600518755886,239.0557],[148.391796875,-32.19719817500588,238.8074],[148.38662109375002,-32.21038176875588,242.224],[148.37978515625002,-32.22087981563088,246.3061],[148.36435546875003,-32.22503020625588,242.7316],[148.31513671875,-32.22625090938088,239.7487],[148.306396484375,-32.22869231563088,243.0643],[148.298828125,-32.23259856563088,255.3954],[148.2822265625,-32.23308684688088,243.4996],[148.265625,-32.229522393755886,235.1127],[148.25791015625003,-32.22185637813088,249.4359],[148.25791015625003,-32.167315362505889,234.0374],[148.25107421875003,-32.108916925005886,231.5083],[148.25107421875003,-32.05364348750588,229.481],[148.248779296875,-32.045733331255889,237.6924],[148.240234375,-32.028838800005886,229.0415],[148.24091796875,-32.022979425005886,225.1323],[148.24365234375,-32.017120050005886,225.7539],[148.245361328125,-32.00798919063088,231.9367],[148.24570312500003,-31.99846770625588,224.0278],[148.24423828125003,-31.99163176875588,222.5],[148.234619140625,-31.98186614375588,224.3846],[148.21962890625002,-31.975127862505886,222.3129],[148.203125,-31.973467706255889,223.066],[148.189697265625,-31.978545831255886,221.7985],[148.15029296875002,-31.95745208125588,219.4542],[148.134521484375,-31.94353606563088,218.2932],[148.128173828125,-31.927276300005886,218.5522],[148.11904296875002,-31.914092706255886,216.4781],[148.09736328125,-31.90398528438088,214.2126],[148.05322265625,-31.88982512813088,212.3928],[148.03115234375002,-31.87908294063088,209.8956],[148.0205078125,-31.871612237505886,210.9195],[148.01162109375002,-31.86248137813088,208.5243],[148.0068359375,-31.85320403438088,207.9159],[148.0,-31.83220794063088,206.1726],[147.98916015625002,-31.81560637813088,205.9135],[147.98603515625,-31.80535247188088,205.7484],[147.98056640625003,-31.79705169063088,206.3351],[147.96728515625,-31.79363372188088,203.7486],[147.92275390625002,-31.787432550005889,201.9313],[147.90810546875002,-31.775225518755889,200.4207],[147.874267578125,-31.729815362505889,197.4676],[147.859619140625,-31.69475676875588,194.8677],[147.841015625,-31.68328215938088,195.6603],[147.818359375,-31.67473723750588,194.288],[147.79931640625,-31.66326262813088,192.9238],[147.790283203125,-31.645538018755886,192.7775],[147.77138671875002,-31.59246184688088,189.202],[147.761474609375,-31.581377862505889,187.5478],[147.74609375,-31.572588800005889,193.8271],[147.73818359375002,-31.551592706255889,187.5386],[147.73046875,-31.505694268755889,186.2654],[147.724609375,-31.494952081255889,190.498],[147.70810546875003,-31.47503020625588,182.0036],[147.703125,-31.46404387813088,182.4024],[147.70263671875,-31.45183684688088,180.3934],[147.70849609375,-31.43084075313088,179.5495],[147.7099609375,-31.419952081255886,178.8405],[147.7060546875,-31.398272393755889,178.8651],[147.69677734375,-31.38103606563088,176.5746],[147.6611328125,-31.335479425005886,173.1313],[147.650390625,-31.31585051875588,173.1162],[147.6435546875,-31.29436614375588,173.9257],[147.6396484375,-31.24700286250588,172.1725],[147.63583984375003,-31.23113372188088,200.3181],[147.62119140625003,-31.20452239375588,168.7379],[147.59765625,-31.173370050005886,164.5352],[147.58964843750005,-31.15862395625588,163.3826],[147.58642578125,-31.13933684688088,162.7577],[147.57958984375,-31.123858331255889,164.7077],[147.54501953125003,-31.10027434688088,161.4549],[147.53115234375002,-31.08782317500588,159.401],[147.52724609375002,-31.07903411250588,158.5805],[147.5216796875,-31.056963800005889,159.2124],[147.517578125,-31.046905206255886,157.0227],[147.48818359375002,-31.018877862505889,154.8411],[147.4833984375,-31.00872161250588,154.4396],[147.478125,-30.98479583125588,153.4229],[147.477294921875,-30.97454192500588,153.0634],[147.47958984375003,-30.96306731563088,153.0521],[147.4970703125,-30.930205987505886,150.8363],[147.497802734375,-30.91253020625588,149.9405],[147.493359375,-30.86858489375588,147.3103],[147.503662109375,-30.841827081255886,146.2956],[147.50830078125,-30.81780364375588,145.373],[147.51435546875,-30.81292083125588,145.1227],[147.52138671875002,-30.80950286250588,144.8929],[147.52402343750003,-30.801104425005889,144.6323],[147.52490234375,-30.77947356563088,143.8852],[147.52353515625003,-30.767120050005886,148.8773],[147.52333984375002,-30.756182550005889,145.2326],[147.52490234375,-30.74529387813088,142.6634],[147.5283203125,-30.738604425005889,143.4421],[147.532958984375,-30.732745050005889,146.543],[147.53701171875002,-30.72551848750588,145.7075],[147.53857421875,-30.71428801875588,141.7963],[147.536376953125,-30.70256926875588,141.4972],[147.52714843750005,-30.683428643755889,140.8417],[147.52490234375,-30.67327239375588,144.3406],[147.52744140625003,-30.66301848750588,143.2011],[147.56484375000002,-30.58831145625588,137.6477],[147.5751953125,-30.57219817500588,136.6679],[147.60166015625003,-30.542803643755889,134.0414],[147.60898437500003,-30.52703215938088,133.5379],[147.61093750000003,-30.50969817500588,134.9705],[147.60693359375,-30.49138762813088,132.3475],[147.555419921875,-30.41570403438088,129.1683],[147.53662109375,-30.406768487505886,130.9453],[147.5302734375,-30.386260675005886,128.9708],[147.53115234375002,-30.34734465938088,125.5059],[147.521875,-30.321807550005886,125.0707],[147.520263671875,-30.310577081255886,124.3564],[147.528076171875,-30.30584075313088,124.3982],[147.541259765625,-30.30266692500588,124.7955],[147.55341796875,-30.29436614375588,123.9329],[147.56201171875,-30.28240325313088,123.8285],[147.56533203125002,-30.268584893755886,124.439],[147.56796875000003,-30.24773528438088,123.0974],[147.56650390625003,-30.24138762813088,123.9883],[147.55908203125,-30.231963800005886,125.0839],[147.5478515625,-30.22576262813088,124.6114],[147.53515625,-30.221221612505886,123.2819],[147.52939453125003,-30.213409112505886,124.6628],[147.53857421875,-30.19719817500588,123.9143],[147.52792968750003,-30.18743255000588,123.8719],[147.4833984375,-30.16985442500588,121.4586],[147.4345703125,-30.13591887813088,123.1996],[147.41181640625,-30.126983331255886,124.5756]]}}