{"type":"Feature","properties":{"featurecla":"River","scalerank":9,"rivernum":1090,"dissolve":"1090River","name":"Macintyre1","name_alt":null,"note":null,"min_zoom":7.1,"strokeweig":0.2,"name_en":"Macintyre","min_label":8.1},
"geometry":{"type": "LineString","coordinates": [[151.24257812500002,-29.80266692500588,624.5754],[151.22412109375,-29.794952081255886,663.0609],[151.173828125,-29.78875090938088,623.3412],[151.15664062500002,-29.77825286250588,684.6902],[151.15234375,-29.76726653438088,665.6763],[151.15371093750002,-29.748370050005889,607.1361],[151.150390625,-29.737823175005886,576.1193],[151.14101562500002,-29.727373956255889,590.6633],[151.13193359375003,-29.72161223750588,573.5248],[151.12509765625003,-29.714678643755889,577.6975],[151.12246093750002,-29.700030206255889,567.5724],[151.12021484375003,-29.64275481563088,574.5067],[151.131103515625,-29.57830169063088,546.0546],[151.13232421875,-29.553545831255889,548.224],[151.12587890625002,-29.53582122188088,531.9814],[151.12060546875,-29.527373956255886,529.3868],[151.11660156250002,-29.51726653438088,548.0704],[151.112060546875,-29.50872161250588,528.6072],[151.10546875,-29.505205987505889,537.3939],[151.09375,-29.50310637813088,518.0974],[151.083740234375,-29.49773528438088,515.8456],[151.06787109375,-29.484698175005889,515.9427],[151.06640625,-29.48113372188088,515.6346],[151.06435546875002,-29.46868255000588,514.9266],[151.06162109375003,-29.46355559688088,512.4485],[151.0576171875,-29.46160247188088,524.3608],[151.044921875,-29.458526300005886,509.9235],[151.04052734375,-29.45671965938088,506.9841],[151.02587890625,-29.44378020625588,505.4813],[151.009765625,-29.42595794063088,514.2623],[150.99941406250002,-29.40691497188088,509.2238],[150.9853515625,-29.340655206255889,512.3306],[150.97792968750002,-29.32244231563088,521.1863],[150.96718750000002,-29.304522393755889,493.6248],[150.95263671875,-29.290850518755889,456.2506],[150.914794921875,-29.278350518755886,429.0161],[150.9091796875,-29.26140715938088,450.6589],[150.91328125,-29.24065520625588,474.5898],[150.9501953125,-29.18914153438088,417.5249],[150.966796875,-29.15129973750588,364.1534],[150.96728515625,-29.111651300005889,359.6183],[150.9443359375,-29.073077081255889,276.8733],[150.9125,-29.048858331255886,324.4879],[150.892822265625,-29.037139581255886,266.9559],[150.87890625,-29.03215911250588,282.967],[150.865234375,-29.02459075313088,314.2827],[150.85205078125,-29.00750090938088,260.481],[150.734375,-28.80779387813088,243.9783],[150.68359375,-28.76409270625588,242.2756],[150.509033203125,-28.69329192500588,229.8529],[150.46689453125003,-28.64983489375588,228.2268]]}}