{"type":"Feature","properties":{"featurecla":"Lake Centerline","scalerank":8,"rivernum":675,"dissolve":"675Lake Centerline","name":"Macquarie","name_alt":null,"note":null,"min_zoom":7.0,"strokeweig":0.2,"name_en":"Macquarie","min_label":8.0},
"geometry":{"type": "LineString","coordinates": [[149.12001953125002,-32.65569426875588,341.5],[149.1298828125,-32.663116143755886,341.5],[149.13486328125003,-32.670733331255889,341.5],[149.15009765625,-32.688995050005886,341.5],[149.16464843750003,-32.70916106563088,341.5],[149.17431640625,-32.72576262813088,341.5],[149.17832031250003,-32.74138762813088,402.3169],[149.178955078125,-32.758330987505886,600.0598],[149.18701171875,-32.77239348750588,353.7136],[149.2021484375,-32.783038018755889,378.5538],[149.23496093750003,-32.796905206255886,341.5],[149.24169921875,-32.809600518755886,396.7208],[149.24267578125,-32.83220794063088,357.7899],[149.242919921875,-32.85564544063088,533.5787],[149.23974609375,-32.87420012813088,553.6232],[149.23046875,-32.89910247188088,390.3539],[149.23671875000002,-32.905303643755886,462.2639],[149.245361328125,-32.911455987505889,419.006]]}}