{"type":"Feature","properties":{"GID_2":"AUS.8.53_1","GID_0":"AUS","country":"Australia","GID_1":"AUS.8_1","state":"SouthAustralia","NL_NAME_1":"NA","county":"RoxbyDowns","VARNAME_2":"NA","NL_NAME_2":"NA","TYPE_2":"Municipality","ENGTYPE_2":"Municipality","CC_2":"46970","HASC_2":"AU.SA.RD","name":"RoxbyDowns.county"},
"geometry":{"type": "MultiPolygon","coordinates": [[[[136.8555,-30.5001,97.2052],[136.843,-30.5001,96.7871],[136.843,-30.6235,100.5262],[136.9152,-30.6235,106.8814],[136.9245,-30.5001,102.9785],[136.8979,-30.5001,102.9371],[136.8979,-30.4808,105.3703],[136.8952,-30.4743,103.954],[136.8524,-30.4874,96.1803],[136.8555,-30.5001,97.2052]]]]}}