{"type":"Feature","properties":{"GID_2":"AUS.5.17_1","GID_0":"AUS","country":"Australia","GID_1":"AUS.5_1","state":"NewSouthWales","NL_NAME_1":"NA","county":"Bombala","VARNAME_2":"NA","NL_NAME_2":"NA","TYPE_2":"Area","ENGTYPE_2":"Area","CC_2":"11000","HASC_2":"AU.NS.BO","name":"Bombala.county"},
"geometry":{"type": "MultiPolygon","coordinates": [[[[149.4101,-36.6422,1099.3367],[149.3436,-36.6344,1075.573],[149.3443,-36.6334,1097.4246],[149.3407,-36.6329,1085.0555],[149.3385,-36.6333,1072.3126],[149.3365,-36.637,1057.4755],[149.3346,-36.6368,1043.406],[149.3333,-36.6431,1033.3053],[149.3279,-36.6423,1024.4642],[149.3275,-36.6441,1031.6326],[149.3165,-36.6426,1000.4725],[149.3178,-36.6356,989.4775],[149.3134,-36.6375,988.5546],[149.3131,-36.6391,984.2998],[149.3018,-36.6425,940.7827],[149.3007,-36.6485,941.1324],[149.3027,-36.6545,922.8577],[149.3002,-36.6599,902.8529],[149.2942,-36.6649,891.9396],[149.2901,-36.6742,881.9029],[149.2898,-36.678,870.7502],[149.2911,-36.6798,865.3771],[149.289,-36.6855,856.8118],[149.2866,-36.6891,851.2248],[149.2824,-36.6899,849.4559],[149.286,-36.685,887.6726],[149.2849,-36.6775,906.8001],[149.2876,-36.6666,954.4871],[149.2864,-36.6627,972.8751],[149.2887,-36.6342,988.8492],[149.2907,-36.6282,1014.0423],[149.2949,-36.6251,1014.1226],[149.2993,-36.595,1023.6575],[149.2854,-36.5723,959.1013],[149.2784,-36.5672,948.6968],[149.2775,-36.5689,950.661],[149.2818,-36.571,936.9482],[149.2811,-36.5729,941.9386],[149.2742,-36.575,934.076],[149.268,-36.5746,920.1619],[149.2646,-36.5775,911.9167],[149.2538,-36.5748,904.081],[149.2465,-36.5773,898.2135],[149.2374,-36.576,916.724],[149.2337,-36.5776,894.6782],[149.2328,-36.5753,896.7169],[149.2291,-36.5732,887.6334],[149.2268,-36.5762,885.6956],[149.2272,-36.5725,884.1613],[149.2228,-36.5696,881.7311],[149.2211,-36.5713,882.6821],[149.2222,-36.5736,880.3336],[149.2195,-36.5775,872.1728],[149.2137,-36.5746,868.4844],[149.2113,-36.5762,880.0819],[149.2052,-36.5762,867.9595],[149.2034,-36.5825,862.0145],[149.1995,-36.5779,856.614],[149.1941,-36.5766,853.7681],[149.1917,-36.5736,850.175],[149.1838,-36.5732,853.875],[149.1836,-36.5713,841.8505],[149.1884,-36.5687,846.8398],[149.1854,-36.5645,877.4907],[149.1832,-36.5643,842.9302],[149.1795,-36.5673,832.0009],[149.1793,-36.5737,859.7111],[149.1777,-36.5747,851.1574],[149.1748,-36.5725,823.8199],[149.175,-36.5673,817.8076],[149.1738,-36.5661,850.2602],[149.1621,-36.5677,809.4416],[149.1588,-36.5668,810.4296],[149.1559,-36.569,808.5739],[149.1556,-36.5722,810.4087],[149.1515,-36.5716,797.769],[149.1514,-36.5743,798.5582],[149.1415,-36.5789,798.3725],[149.142,-36.5808,789.4987],[149.1339,-36.5834,817.2646],[149.1377,-36.5873,782.9481],[149.1389,-36.5921,780.9611],[149.125,-36.5903,872.6423],[149.1256,-36.5869,858.653],[149.1239,-36.5856,844.6046],[149.1204,-36.5852,923.1834],[149.12,-36.5876,927.7491],[149.1146,-36.5869,1001.5957],[149.114,-36.59,938.3088],[149.1111,-36.5896,905.6183],[149.1108,-36.5911,905.6183],[149.0981,-36.5893,937.0579],[149.0988,-36.5858,996.0164],[149.092,-36.5849,964.9691],[149.0906,-36.5914,938.5878],[149.0862,-36.5908,1005.1116],[149.0856,-36.5937,981.9935],[149.0818,-36.5932,992.0441],[149.0788,-36.6074,990.5208],[149.0697,-36.6061,970.0962],[149.0663,-36.5989,962.0115],[149.0585,-36.5958,977.2584],[149.0599,-36.5888,975.085],[149.0476,-36.5874,967.9619],[149.0397,-36.5755,950.5394],[149.0216,-36.566,896.1024],[149.0123,-36.5591,890.0906],[149.0095,-36.5721,894.5209],[149.0038,-36.5713,854.5197],[149.0044,-36.5687,867.4866],[148.9931,-36.5671,860.5333],[148.9925,-36.5697,837.646],[148.9862,-36.574,815.7059],[148.985,-36.5765,813.1421],[148.9721,-36.5743,802.3157],[148.9698,-36.5869,742.0847],[148.967,-36.5891,754.4057],[148.9682,-36.591,729.2012],[148.9667,-36.5955,716.7524],[148.9646,-36.5955,717.9557],[148.964,-36.5995,721.8439],[148.9678,-36.6064,732.9688],[148.9632,-36.6159,712.4218],[148.9664,-36.6188,712.2693],[148.9667,-36.6231,712.2341],[148.9602,-36.6299,708.1002],[148.9624,-36.633,709.641],[148.9613,-36.6348,720.4089],[148.957,-36.6326,745.4838],[148.9519,-36.6332,704.4401],[148.9517,-36.6363,709.7356],[148.9491,-36.6381,712.8743],[148.949,-36.6426,715.3201],[148.943,-36.6474,702.2625],[148.9491,-36.6611,715.0591],[148.9482,-36.6625,701.4838],[148.9445,-36.6629,719.47],[148.9441,-36.6666,699.5737],[148.9415,-36.6675,699.3412],[148.9409,-36.6702,708.4182],[148.9388,-36.6713,696.8925],[148.9384,-36.6782,712.7129],[148.9405,-36.6798,717.5508],[148.9408,-36.6873,704.6499],[148.9506,-36.6957,693.2892],[148.9476,-36.7017,689.6653],[148.9413,-36.7058,690.0037],[148.9453,-36.7111,688.1427],[148.9384,-36.7188,697.9241],[148.9442,-36.7217,676.5618],[148.9418,-36.7287,679.1302],[148.944,-36.731,668.6398],[148.9434,-36.7393,661.8672],[148.9565,-36.7519,658.8617],[148.9556,-36.7533,657.6495],[148.95,-36.753,666.3214],[148.9479,-36.7546,673.3625],[148.957,-36.7643,675.8312],[148.9523,-36.7778,616.9276],[148.9587,-36.7839,604.6977],[148.9631,-36.7853,611.3008],[148.9587,-36.7955,564.0099],[148.9652,-36.8017,560.1268],[148.97,-36.7992,570.5999],[148.9734,-36.8009,573.3923],[148.9762,-36.8078,541.2905],[148.9807,-36.8118,532.9453],[148.9816,-36.819,560.6353],[148.9793,-36.8222,529.1021],[148.9719,-36.826,541.8444],[148.9619,-36.8269,521.6494],[148.9602,-36.8291,519.5175],[148.9608,-36.8339,519.1578],[148.957,-36.8383,532.3096],[148.9514,-36.838,509.9138],[148.946,-36.8438,509.3544],[148.9369,-36.8439,503.4056],[148.9295,-36.836,515.3802],[148.9266,-36.8266,501.5276],[148.921,-36.8276,494.9558],[148.9166,-36.8236,498.0584],[148.9133,-36.8244,519.909],[148.9083,-36.8304,484.6986],[148.8913,-36.8432,464.7547],[148.8798,-36.8321,454.3623],[148.8704,-36.8329,430.0837],[148.8613,-36.8315,423.5325],[148.856,-36.8272,419.8552],[148.8562,-36.824,417.6041],[148.8606,-36.8219,446.9529],[148.8556,-36.8154,415.172],[148.8572,-36.8139,415.9786],[148.8569,-36.811,418.8291],[148.8537,-36.8078,432.9758],[148.8442,-36.8032,412.7793],[148.8414,-36.7994,420.4949],[148.8361,-36.801,410.5062],[148.8367,-36.8036,414.7943],[148.8336,-36.8057,407.8083],[148.8349,-36.8079,406.9415],[148.8291,-36.8115,405.822],[148.8263,-36.8076,406.12],[148.8266,-36.8032,401.9771],[148.8247,-36.8015,406.2544],[148.8147,-36.8025,392.8961],[148.8068,-36.8012,403.6844],[148.8023,-36.7964,394.5563],[148.7958,-36.7939,379.2565],[148.7941,-36.7904,382.0798],[148.79,-36.7892,386.4949],[148.7869,-36.7911,375.7231],[148.7622,-36.791,383.3984],[148.7532,-36.7957,377.5246],[148.7472,-36.7959,378.3306],[148.7419,-36.7941,363.1014],[148.7408,-36.792,363.5329],[148.742,-36.7804,350.4502],[148.747,-36.774,397.8033],[148.7464,-36.7712,350.2081],[148.7402,-36.7701,359.2953],[148.7291,-36.7739,343.7885],[148.7277,-36.7711,383.9885],[148.7323,-36.7654,345.0892],[148.7326,-36.7617,343.3589],[148.724,-36.7586,342.1936],[148.7181,-36.7596,337.3569],[148.7115,-36.7653,338.3729],[148.7077,-36.7659,330.3026],[148.7076,-36.7617,334.9622],[148.7109,-36.758,335.1935],[148.7127,-36.7526,394.448],[148.7056,-36.7462,326.5701],[148.7065,-36.7381,326.5381],[148.7036,-36.7375,408.5129],[148.6981,-36.7414,344.8472],[148.6945,-36.7408,330.4538],[148.6936,-36.7385,326.5415],[148.6954,-36.7333,358.8481],[148.691,-36.7317,323.9454],[148.6906,-36.7355,324.311],[148.6818,-36.7422,322.4674],[148.6727,-36.7359,320.5659],[148.6667,-36.7291,331.8099],[148.6602,-36.73,330.9744],[148.6518,-36.7289,319.4825],[148.645,-36.7259,334.3886],[148.6388,-36.7269,322.7455],[148.6336,-36.7255,346.4692],[148.6332,-36.724,350.4842],[148.6367,-36.7217,314.3483],[148.6371,-36.7192,317.827],[148.6252,-36.7163,324.2398],[148.6234,-36.7114,322.9381],[148.6271,-36.7089,305.3781],[148.6298,-36.7038,321.733],[148.629,-36.6906,301.8633],[148.6257,-36.6852,319.0434],[148.6204,-36.6821,301.3342],[148.6178,-36.6718,303.8221],[148.604,-36.6618,295.8461],[148.5975,-36.6601,294.1511],[148.593,-36.6612,299.36],[148.5851,-36.6756,292.9425],[148.579,-36.6791,297.3628],[148.5759,-36.6836,289.7823],[148.578,-36.6963,292.2882],[148.5748,-36.7011,284.734],[148.5696,-36.7052,299.4757],[148.5675,-36.711,285.7509],[148.5632,-36.7125,311.6215],[148.5584,-36.7191,278.2958],[148.5462,-36.7235,281.0784],[148.5337,-36.7337,276.4558],[148.5275,-36.7491,273.8369],[148.5078,-36.7567,279.4049],[148.5035,-36.756,277.064],[148.496,-36.7591,276.1898],[148.4874,-36.7659,273.3546],[148.4831,-36.7646,302.5953],[148.4776,-36.7597,267.54],[148.4715,-36.7605,267.1764],[148.4665,-36.7588,274.4993],[148.4555,-36.7583,272.4044],[148.4506,-36.7534,263.5555],[148.4437,-36.7541,266.6354],[148.4335,-36.7586,257.891],[148.4313,-36.7623,262.6266],[148.4231,-36.7687,258.8943],[148.4229,-36.7721,266.6293],[148.4268,-36.7748,262.5575],[148.4247,-36.7792,266.8332],[148.415,-36.7828,260.2556],[148.409,-36.7969,246.0145],[148.406,-36.8003,248.9685],[148.4051,-36.8039,250.7915],[148.4081,-36.8101,255.4824],[148.4047,-36.8143,244.5086],[148.3994,-36.8158,237.8042],[148.3952,-36.8198,237.0733],[148.3976,-36.8244,244.7259],[148.4065,-36.8296,230.9022],[148.4068,-36.8349,243.536],[148.4029,-36.845,242.8354],[148.4066,-36.8547,237.8916],[148.4198,-36.8595,224.8095],[148.42,-36.8611,229.7624],[148.4131,-36.8665,224.0227],[148.4102,-36.8728,220.6036],[148.4205,-36.8848,219.2211],[148.4221,-36.8886,228.9319],[149.0045,-37.1235,892.2161],[149.3564,-37.2629,290.7679],[149.4018,-37.1154,622.4542],[149.3979,-37.0206,904.6996],[149.4169,-37.0093,1065.1747],[149.4181,-37.0063,1005.1762],[149.4171,-37.0003,914.8397],[149.4093,-36.9997,875.6075],[149.3984,-37.0027,829.0284],[149.3948,-37.0018,806.8027],[149.3976,-36.9927,882.7404],[149.394,-36.984,1101.8588],[149.396,-36.982,1098.4099],[149.3992,-36.9818,1109.0956],[149.3922,-36.9779,1020.9813],[149.382,-36.9754,948.7751],[149.3824,-36.9709,888.8458],[149.3804,-36.9655,843.6957],[149.3779,-36.964,853.9362],[149.3751,-36.9587,901.0152],[149.3781,-36.952,855.9731],[149.3776,-36.9479,823.5053],[149.3816,-36.9435,829.3674],[149.3826,-36.9193,903.4728],[149.3855,-36.9148,897.7828],[149.3879,-36.914,907.8203],[149.3796,-36.9051,878.634],[149.3821,-36.8962,872.2234],[149.3799,-36.8957,880.0747],[149.3786,-36.893,884.7527],[149.3825,-36.8902,884.7778],[149.3799,-36.8873,894.5261],[149.3804,-36.8824,889.6647],[149.3825,-36.8794,902.2556],[149.377,-36.8748,950.0918],[149.3835,-36.8739,898.5984],[149.3859,-36.8719,896.0724],[149.3899,-36.8737,866.6133],[149.3965,-36.8733,823.183],[149.4,-36.8746,808.6805],[149.4043,-36.864,808.7132],[149.4074,-36.8621,808.6936],[149.4141,-36.8644,792.2604],[149.4164,-36.8609,796.1729],[149.4187,-36.8597,802.4368],[149.422,-36.8606,805.2291],[149.4259,-36.8582,823.1035],[149.4301,-36.8595,827.5101],[149.4406,-36.8585,848.3663],[149.445,-36.8618,892.848],[149.4481,-36.861,883.7682],[149.448,-36.8533,869.4863],[149.4618,-36.8477,930.9722],[149.4666,-36.8488,948.8586],[149.4707,-36.8542,980.9163],[149.4769,-36.8524,989.1312],[149.4771,-36.8481,983.7737],[149.4819,-36.8473,900.2008],[149.4877,-36.8484,879.5441],[149.4921,-36.8457,841.701],[149.4959,-36.8471,849.116],[149.5027,-36.8456,851.2477],[149.503,-36.84,861.976],[149.5103,-36.8308,923.2543],[149.5027,-36.8213,961.8468],[149.4984,-36.8204,962.2731],[149.4951,-36.8221,968.8799],[149.4914,-36.8184,962.61],[149.4865,-36.8204,971.3773],[149.4846,-36.8193,965.9103],[149.4805,-36.8094,937.5561],[149.4835,-36.8056,910.3788],[149.4839,-36.8008,926.3081],[149.4869,-36.7956,918.5519],[149.4847,-36.7936,911.0561],[149.4855,-36.7895,911.824],[149.4726,-36.7938,893.8184],[149.4678,-36.786,928.8837],[149.4666,-36.7798,953.8992],[149.4639,-36.7797,962.027],[149.461,-36.783,955.2639],[149.4505,-36.7797,988.945],[149.4416,-36.7803,955.189],[149.4375,-36.7744,951.5007],[149.4466,-36.768,980.0741],[149.4432,-36.766,976.6294],[149.4421,-36.7612,976.2275],[149.4387,-36.7568,969.0248],[149.4472,-36.7509,947.4641],[149.4463,-36.7493,949.337],[149.4476,-36.7455,976.4913],[149.4495,-36.7431,962.3807],[149.4532,-36.7421,951.6135],[149.4583,-36.7362,953.5475],[149.4574,-36.7302,941.1354],[149.4523,-36.7296,963.353],[149.452,-36.7215,953.5836],[149.4597,-36.7167,965.5483],[149.4595,-36.7111,933.9299],[149.4492,-36.7093,937.6925],[149.4452,-36.7032,959.5889],[149.4429,-36.7036,962.7144],[149.4388,-36.7011,961.8231],[149.4467,-36.6977,970.6801],[149.4507,-36.6894,971.8482],[149.458,-36.687,954.0579],[149.4549,-36.6835,946.0239],[149.4544,-36.6774,925.5826],[149.4585,-36.6722,960.8616],[149.4541,-36.6692,990.0107],[149.4597,-36.6618,984.9037],[149.4644,-36.661,1005.073],[149.462,-36.6565,1069.959],[149.4646,-36.6554,1056.9769],[149.4604,-36.6513,1018.7054],[149.4609,-36.6466,975.2654],[149.4521,-36.6458,973.6259],[149.4496,-36.6476,985.2197],[149.4449,-36.6461,959.9409],[149.4444,-36.6477,970.7794],[149.4402,-36.6491,987.8062],[149.4348,-36.6468,998.3958],[149.4352,-36.6448,1014.2805],[149.4333,-36.6449,1039.7947],[149.4198,-36.6478,1135.4364],[149.416,-36.6514,1168.3624],[149.4101,-36.6422,1099.3367]]]]}}