{"type":"Feature","properties":{"GID_2":"AUS.5.31_1","GID_0":"AUS","country":"Australia","GID_1":"AUS.5_1","state":"NewSouthWales","NL_NAME_1":"NA","county":"CentralDarling","VARNAME_2":"NA","NL_NAME_2":"NA","TYPE_2":"Area","ENGTYPE_2":"Area","CC_2":"11700","HASC_2":"AU.NS.CD","name":"CentralDarling.county"},
"geometry":{"type": "MultiPolygon","coordinates": [[[[144.3687,-33.2827,84.8608],[144.4142,-33.2865,86.2004],[144.4162,-33.2791,86.5494],[144.4335,-33.2805,87.16],[144.4336,-33.2877,86.4719],[144.4717,-33.2912,88.0665],[144.4718,-33.299,87.9865],[144.4887,-33.3005,88.7028],[144.4911,-33.293,88.7838],[144.5303,-33.2966,87.8671],[144.5308,-33.2983,88.1797],[144.5469,-33.3,88.6991],[144.5488,-33.2896,90.3074],[144.5516,-33.2859,90.454],[144.5775,-33.2887,90.9219],[144.5802,-33.2684,91.4355],[144.5957,-33.27,90.9233],[144.598,-33.2551,92.1296],[144.6094,-33.2563,92.6157],[144.6122,-33.2378,92.3849],[144.6427,-33.2411,93.9273],[144.6457,-33.2224,93.6657],[144.7334,-33.2314,97.06],[144.7419,-33.1737,96.2765],[144.7439,-33.1735,96.0135],[144.742,-33.1706,95.8215],[144.7496,-33.1709,95.8582],[144.7497,-33.1671,96.0737],[144.7478,-33.1658,96.6546],[144.7472,-33.1617,96.9706],[144.7524,-33.1608,97.4715],[144.7522,-33.1559,96.4084],[144.7545,-33.1531,96.253],[144.7572,-33.1525,97.0157],[144.7566,-33.1557,95.982],[144.7605,-33.1573,97.2291],[144.7601,-33.16,97.596],[144.7621,-33.1633,96.956],[144.7637,-33.1626,97.5169],[144.7638,-33.1602,97.4229],[144.7697,-33.1615,97.7655],[144.7693,-33.1585,97.0999],[144.7716,-33.1573,97.2243],[144.7757,-33.1579,96.7347],[144.778,-33.1636,97.6931],[144.7982,-33.0362,96.4248],[144.9131,-33.0491,100.5623],[144.9089,-33.0744,100.0923],[144.9423,-33.0783,100.1585],[144.9411,-33.0848,100.5603],[144.9628,-33.0873,101.7065],[144.9635,-33.082,101.6433],[144.9794,-33.0838,102.1229],[144.9809,-33.073,102.1539],[144.9859,-33.0705,102.2138],[144.9864,-33.0667,102.223],[144.9823,-33.0633,102.1339],[144.9875,-33.0264,101.4603],[144.9844,-33.0259,101.3534],[144.9849,-33.0216,101.1612],[144.9936,-33.0225,101.0284],[144.9917,-33.0337,101.6166],[145.008,-33.0355,102.0262],[145.0104,-33.0239,102.1589],[145.0272,-33.0259,102.7349],[145.0277,-33.0221,102.8865],[145.1087,-33.0342,106.0339],[145.1198,-32.9535,110.2197],[145.1273,-32.9541,110.7848],[145.1595,-32.7472,133.0532],[144.958,-32.7233,125.4339],[144.9884,-32.5283,131.5426],[144.948,-32.5234,113.2651],[144.8914,-32.5599,112.6664],[144.8762,-32.5429,113.5737],[144.8592,-32.5537,103.714],[144.8172,-32.5073,99.1209],[144.6646,-32.4901,98.0391],[144.6744,-32.4253,104.3156],[144.6149,-32.4555,98.1398],[144.6064,-32.4586,100.3888],[144.5982,-32.4589,105.0505],[144.5851,-32.4321,98.1778],[144.4376,-32.2748,142.851],[144.3788,-32.3138,100.2962],[144.2762,-32.1982,94.1846],[144.3158,-32.1724,96.2569],[144.2125,-32.0576,96.3056],[144.1437,-32.1018,87.9975],[144.0382,-31.9866,81.2974],[144.1082,-31.941,80.794],[144.1517,-31.99,82.5082],[144.215,-31.949,91.7929],[144.2278,-31.9635,99.3155],[144.3011,-31.9156,139.6757],[144.2432,-31.8527,146.5331],[144.5144,-31.6745,108.4988],[144.41,-31.5597,87.8058],[144.3269,-31.6137,86.0887],[144.0502,-31.3131,79.3508],[144.0498,-31.308,75.9066],[144.0446,-31.3024,80.2224],[144.0399,-31.3,79.5551],[144.0357,-31.294,76.698],[144.0362,-31.2925,80.0049],[144.0426,-31.2927,81.9907],[144.0432,-31.2911,84.0492],[144.0386,-31.2883,82.2166],[144.0416,-31.2858,77.1045],[144.0436,-31.2804,78.6633],[144.0488,-31.2778,79.5963],[144.0403,-31.2776,79.7605],[144.0357,-31.2759,77.2721],[144.035,-31.2705,78.1044],[144.0396,-31.2636,81.1257],[144.0357,-31.2582,81.7769],[144.03,-31.2567,78.3076],[144.0302,-31.2501,76.2434],[144.0265,-31.2504,79.7575],[144.0239,-31.2447,78.361],[144.0164,-31.243,79.5772],[144.0168,-31.2411,77.5876],[144.0251,-31.2381,80.8927],[144.0267,-31.2356,77.5148],[144.0261,-31.2344,80.1692],[144.017,-31.2327,84.0284],[144.0159,-31.231,79.5438],[144.0226,-31.2249,84.5707],[144.0321,-31.2212,80.4672],[144.0338,-31.2171,79.062],[144.0291,-31.2133,87.8238],[144.034,-31.2122,76.871],[144.0397,-31.2078,77.7346],[144.0432,-31.2016,82.3272],[144.0468,-31.2005,77.6031],[144.0534,-31.2021,81.4164],[144.0605,-31.2014,80.859],[144.062,-31.2,78.2858],[144.0623,-31.1946,77.5458],[144.0679,-31.1892,84.4289],[144.0717,-31.19,86.7242],[144.0781,-31.1953,78.1521],[144.0842,-31.1916,80.4611],[144.0955,-31.1942,81.3176],[144.1011,-31.1904,83.5319],[144.1111,-31.1893,77.5126],[144.1129,-31.1858,81.1039],[144.107,-31.1784,76.84],[144.1089,-31.1753,84.3042],[144.1092,-31.1699,88.1081],[144.1162,-31.1647,79.8311],[144.1253,-31.1669,85.0187],[144.1246,-31.1601,79.8957],[144.1332,-31.1609,83.9758],[144.1337,-31.1555,86.1377],[144.1378,-31.1511,84.4179],[144.1383,-31.1424,81.2594],[144.1514,-31.1412,82.6511],[144.1508,-31.1395,82.023],[144.1461,-31.1378,90.2496],[144.1461,-31.1363,90.2496],[144.1626,-31.1337,81.3656],[144.1679,-31.125,78.8601],[144.1757,-31.1245,82.4988],[144.1791,-31.1185,85.9647],[144.1849,-31.1154,80.014],[144.1871,-31.1168,84.0136],[144.1861,-31.1234,82.6853],[144.1914,-31.1247,83.0824],[144.2047,-31.122,79.9617],[144.2095,-31.1154,80.2855],[144.2183,-31.1151,85.0122],[144.2225,-31.1131,84.2189],[144.2257,-31.1097,79.8698],[144.2234,-31.1051,80.7589],[144.2265,-31.1022,84.0824],[144.2272,-31.0988,82.2656],[144.2327,-31.0963,86.3605],[144.2344,-31.0926,81.4288],[144.245,-31.0885,82.2412],[144.2444,-31.087,85.9795],[144.238,-31.0857,81.4966],[144.2332,-31.0801,79.9133],[144.2374,-31.077,86.4118],[144.2443,-31.0795,80.5242],[144.2477,-31.079,80.6642],[144.2406,-31.0668,85.4391],[144.2458,-31.0593,80.4799],[144.2497,-31.0624,84.5974],[144.2565,-31.06,90.7517],[144.2633,-31.0662,86.997],[144.2682,-31.0626,85.0251],[144.2684,-31.0661,84.8327],[144.2749,-31.0702,88.2841],[144.279,-31.0778,82.2751],[144.2854,-31.0765,83.9794],[144.2823,-31.0739,85.5155],[144.2829,-31.0724,83.9459],[144.287,-31.0729,88.0059],[144.2981,-31.0697,91.2775],[144.3018,-31.0761,88.7518],[144.3082,-31.075,88.6207],[144.3165,-31.077,89.4864],[144.3167,-31.0829,85.5783],[144.3183,-31.085,85.4543],[144.323,-31.0864,86.0318],[144.3273,-31.0853,86.5786],[144.3282,-31.0827,88.8619],[144.3331,-31.0789,83.401],[144.3351,-31.068,84.6732],[144.3449,-31.0677,89.1334],[144.3497,-31.065,85.0817],[144.3489,-31.0625,84.3134],[144.3405,-31.0617,84.3782],[144.3414,-31.0576,83.9199],[144.3471,-31.0533,83.2885],[144.3563,-31.0537,86.4312],[144.3633,-31.0475,84.3868],[144.359,-31.0443,82.2723],[144.357,-31.038,90.2127],[144.3642,-31.0386,85.8992],[144.3718,-31.0321,84.061],[144.3789,-31.0295,84.3857],[144.3788,-31.0272,84.124],[144.3741,-31.0243,85.3536],[144.3748,-31.0218,81.9969],[144.3701,-31.0175,88.6842],[144.3616,-31.0163,85.7959],[144.3618,-31.012,89.1387],[144.3574,-31.0106,85.6277],[144.3544,-31.0126,82.3092],[144.3495,-31.0098,88.0059],[144.3494,-31.007,81.9176],[144.3534,-31.0072,88.4731],[144.3547,-31.001,83.0896],[144.3611,-31.0052,87.609],[144.3677,-31.006,87.2693],[144.3669,-31.0012,84.3222],[144.3716,-30.9976,86.5523],[144.3686,-30.9937,85.8559],[144.3792,-30.9934,84.0957],[144.3824,-30.9891,84.5002],[144.3808,-30.987,86.1752],[144.3709,-30.9865,87.2863],[144.3694,-30.9854,86.6002],[144.37,-30.9828,86.1184],[144.3782,-30.9828,90.377],[144.383,-30.9751,87.8091],[144.3904,-30.9738,84.5701],[144.3846,-30.9673,86.8244],[144.3847,-30.9602,90.8959],[144.3932,-30.9593,86.2436],[144.3982,-30.9667,89.5685],[144.4007,-30.9676,91.0863],[144.4055,-30.9662,88.3139],[144.4057,-30.9638,88.2338],[144.3968,-30.9595,84.6045],[144.3967,-30.9547,85.3811],[144.3985,-30.9535,91.8469],[144.4041,-30.9574,91.3755],[144.4099,-30.9578,85.3821],[144.4146,-30.9504,85.2013],[144.4161,-30.9401,89.1521],[144.421,-30.935,90.4396],[144.4279,-30.9356,87.0417],[144.4329,-30.939,86.598],[144.4358,-30.9383,87.8388],[144.4479,-30.9316,84.2952],[144.4579,-30.9189,83.7307],[144.4735,-30.9189,86.5218],[144.4804,-30.9123,87.3624],[144.485,-30.912,89.4454],[144.4931,-30.9021,87.1925],[144.4962,-30.9034,87.8439],[144.4937,-30.9077,91.4435],[144.4954,-30.9121,86.5821],[144.5035,-30.905,89.1824],[144.5067,-30.9039,87.5638],[144.5098,-30.9061,86.7123],[144.5091,-30.9119,91.7203],[144.5131,-30.9117,89.0596],[144.5221,-30.905,86.939],[144.5162,-30.8977,86.5777],[144.5174,-30.8932,89.1735],[144.5201,-30.8903,87.479],[144.5238,-30.8919,86.9489],[144.5283,-30.8998,86.5269],[144.5421,-30.8982,88.1231],[144.5506,-30.9024,84.5221],[144.558,-30.8993,87.0364],[144.5631,-30.9046,88.0236],[144.5649,-30.9044,85.7489],[144.5697,-30.897,86.8101],[144.5732,-30.9041,87.6195],[144.5718,-30.9099,89.1332],[144.5754,-30.9123,87.9088],[144.5764,-30.9079,86.8999],[144.5793,-30.9055,88.9688],[144.5823,-30.8987,91.796],[144.5848,-30.8994,85.9162],[144.5825,-30.902,92.6454],[144.5823,-30.906,86.0047],[144.5879,-30.9018,88.404],[144.5977,-30.9086,85.6942],[144.6023,-30.901,87.9489],[144.597,-30.9002,86.217],[144.5965,-30.8986,86.2141],[144.5988,-30.8949,93.1479],[144.6048,-30.8925,87.7947],[144.6177,-30.8944,87.4863],[144.6301,-30.9075,89.3231],[144.6401,-30.9037,87.1016],[144.6358,-30.8996,91.2627],[144.6386,-30.8926,88.5224],[144.6561,-30.8918,90.0179],[144.6614,-30.8949,89.0038],[144.5897,-30.8154,88.0726],[144.5954,-30.8131,89.2051],[144.1977,-30.372,89.995],[144.16,-30.3997,93.5383],[144.1557,-30.3993,94.0794],[144.1553,-30.4029,92.1032],[144.1261,-30.424,89.4606],[144.0935,-30.3914,98.1882],[144.0924,-30.3866,96.9302],[144.1135,-30.3319,93.8655],[144.0268,-30.3244,91.8351],[144.0348,-30.3107,92.6561],[144.0396,-30.2814,93.6125],[143.9412,-30.2731,95.3197],[143.9441,-30.281,93.3764],[143.9422,-30.2897,92.3998],[143.509,-30.2426,168.6017],[143.4975,-30.3232,169.8263],[143.2921,-30.3018,149.421],[143.2902,-30.314,152.0611],[143.0204,-30.3159,131.4449],[143.0213,-30.4626,137.5648],[142.8535,-30.4636,122.7859],[142.8533,-30.6049,148.1607],[142.7637,-30.6052,178.1095],[142.7641,-30.7134,184.8268],[142.7393,-30.7134,199.9055],[142.7396,-30.975,194.244],[142.741,-31.0048,176.0819],[142.5853,-31.0041,274.932],[142.5848,-31.0704,349.0847],[142.7554,-31.0701,171.2362],[142.7559,-31.3356,188.5206],[142.726,-31.3358,195.5975],[142.7265,-31.5145,143.2833],[142.8235,-31.5896,141.5711],[142.803,-31.6021,202.3522],[142.7863,-31.6151,155.7041],[142.8141,-31.6371,129.1571],[142.8306,-31.6388,123.552],[142.8261,-31.6713,140.2366],[142.8318,-31.6781,134.2219],[142.8917,-31.7324,107.3798],[142.8639,-31.7539,104.9356],[142.8211,-31.7945,122.3569],[142.8576,-31.8234,119.9598],[142.8099,-31.8694,101.3039],[142.7871,-31.8518,108.6009],[142.785,-31.8386,112.8834],[142.7698,-31.8386,118.0758],[142.7465,-31.8212,137.6644],[142.7277,-31.8241,138.3343],[142.6802,-31.8568,140.446],[142.6942,-31.8681,140.5203],[142.5213,-32.0023,95.3943],[142.5258,-32.0067,93.2284],[142.3722,-32.1225,89.1084],[142.3705,-32.2075,68.2179],[142.3455,-32.2245,66.4149],[142.2954,-32.2142,71.7659],[142.2958,-32.2753,59.7879],[142.2796,-32.2792,60.6263],[142.2735,-32.2845,60.8117],[142.2667,-32.2988,65.1655],[142.2678,-32.3081,57.0],[142.2658,-32.3154,64.498],[142.2661,-32.3231,62.6245],[142.256,-32.3344,62.3225],[142.2572,-32.3408,57.0],[142.2537,-32.3522,58.4336],[142.2466,-32.3513,59.4928],[142.2458,-32.3498,60.292],[142.2452,-32.3513,59.4928],[142.2538,-32.3533,57.7039],[142.2603,-32.3682,59.5625],[142.241,-32.3797,59.0486],[142.1115,-32.3674,74.5264],[142.1074,-32.4185,67.5941],[142.0975,-32.4574,63.1248],[142.0918,-32.4679,66.1324],[142.1144,-32.4794,60.8424],[142.1098,-32.4985,66.4426],[142.116,-32.5149,62.7067],[142.1098,-32.5226,57.6421],[142.0986,-32.5235,53.0],[142.0982,-32.5251,53.0],[142.1062,-32.5308,61.5557],[142.1192,-32.5558,64.9008],[142.134,-32.5951,73.6201],[142.1319,-32.5963,69.2005],[142.1349,-32.5977,72.1614],[142.2485,-32.6105,57.7758],[142.2485,-32.6649,58.2517],[142.2365,-32.7548,57.7025],[142.388,-32.7697,54.8317],[142.3856,-32.7737,54.7041],[142.3868,-32.7769,52.5214],[142.3842,-32.7808,54.8159],[142.3882,-32.7805,53.8092],[142.389,-32.7832,57.1134],[142.3859,-32.7858,53.1951],[142.3857,-32.7927,54.7208],[142.3811,-32.7935,55.0172],[142.3768,-32.7856,53.8867],[142.375,-32.7857,53.1516],[142.3703,-32.7927,54.4339],[142.3752,-32.7952,54.2973],[142.3757,-32.7988,55.3981],[142.3697,-32.8026,57.6352],[142.3703,-32.806,53.644],[142.366,-32.8073,57.7],[142.3656,-32.8149,53.7079],[142.347,-32.8249,56.2202],[142.3435,-32.8282,53.5324],[142.3445,-32.8313,53.2814],[142.3494,-32.8344,54.7208],[142.3542,-32.8334,54.2642],[142.3606,-32.8406,54.1461],[142.3614,-32.8451,57.0649],[142.3648,-32.8458,53.3622],[142.3645,-32.8495,54.9167],[142.3585,-32.8539,52.6674],[142.3622,-32.8579,54.4682],[142.3591,-32.8629,52.9956],[142.3632,-32.8639,57.2101],[142.3622,-32.8674,53.8093],[142.3688,-32.8711,56.6686],[142.3702,-32.8774,52.8178],[142.3643,-32.8805,54.5081],[142.3561,-32.8779,52.6427],[142.3561,-32.8842,52.2366],[142.3536,-32.8886,56.9604],[142.3462,-32.8926,53.7079],[142.3553,-32.8964,54.2266],[142.3619,-32.8955,52.4985],[142.366,-32.8994,56.6704],[142.3719,-32.9003,55.8937],[142.3732,-32.9017,52.9568],[142.371,-32.9058,53.1974],[142.3753,-32.9061,55.5461],[142.3764,-32.9077,51.8153],[142.3743,-32.9134,52.5284],[142.3692,-32.9116,55.4734],[142.3664,-32.9124,51.6296],[142.3649,-32.9183,51.957],[142.3677,-32.9219,55.8113],[142.3613,-32.9215,53.8783],[142.3628,-32.9296,53.3979],[142.3655,-32.929,51.0538],[142.3655,-32.9254,52.7944],[142.3709,-32.9244,52.6448],[142.3774,-32.9281,52.3445],[142.3756,-32.9328,52.6125],[142.3697,-32.9317,53.8551],[142.365,-32.9341,52.5774],[142.3646,-32.9381,53.6557],[142.3607,-32.9415,52.0218],[142.3643,-32.9446,51.0448],[142.3622,-32.9505,50.6095],[142.3657,-32.9549,55.2539],[142.3586,-32.9574,50.4171],[142.3584,-32.9587,50.3232],[142.3724,-32.9608,50.8351],[142.3671,-32.9653,50.27],[142.3765,-32.9737,52.5697],[142.428,-32.979,81.1649],[142.4245,-33.0052,84.4295],[142.548,-33.0171,73.2346],[142.5519,-32.9916,76.344],[142.5499,-32.9914,75.1398],[142.5155,-32.8475,69.0411],[142.9444,-32.8905,73.4445],[142.9646,-32.7485,59.2449],[143.2712,-32.7802,82.278],[143.2696,-32.7914,86.7562],[143.4324,-32.8084,82.3492],[143.417,-32.9075,98.081],[143.4324,-32.9093,94.2556],[143.4352,-32.911,94.1993],[143.4996,-32.9184,93.0796],[143.5059,-32.876,97.2446],[143.592,-32.8851,79.1223],[143.5852,-32.931,73.506],[143.6718,-32.9408,73.8705],[143.6706,-32.9453,72.5425],[143.6615,-32.9553,71.7658],[143.6534,-33.0124,65.5654],[143.6028,-33.0071,73.3852],[143.5728,-33.0124,69.5135],[143.5525,-33.1405,76.8714],[143.6373,-33.1499,81.447],[143.6361,-33.1578,85.6336],[143.6485,-33.159,93.1223],[143.6649,-33.1789,113.3112],[143.6665,-33.1791,114.1921],[143.674,-33.1707,108.7756],[143.7148,-33.1546,116.0686],[143.7195,-33.1491,117.7042],[143.7209,-33.1405,103.6536],[143.7899,-33.1489,77.0631],[143.8167,-33.1374,77.5362],[143.839,-33.1546,78.4323],[143.8982,-33.1614,75.7846],[143.9059,-33.1157,77.9505],[144.2514,-33.1551,85.4751],[144.2363,-33.2498,88.8358],[144.2495,-33.2514,88.7708],[144.2689,-33.2445,90.8223],[144.2779,-33.2543,90.9846],[144.2643,-33.263,90.1896],[144.2626,-33.2729,92.1461],[144.3687,-33.2827,84.8608]]]]}}