{"type":"Feature","properties":{"GID_2":"AUS.8.58_1","GID_0":"AUS","country":"Australia","GID_1":"AUS.8_1","state":"SouthAustralia","NL_NAME_1":"NA","county":"TeaTreeGully","VARNAME_2":"NA","NL_NAME_2":"NA","TYPE_2":"City","ENGTYPE_2":"City","CC_2":"47700","HASC_2":"AU.SA.TT","name":"TeaTreeGully.county"},
"geometry":{"type": "MultiPolygon","coordinates": [[[[138.7802,-34.767,332.9521],[138.7739,-34.7598,334.8861],[138.77,-34.7579,279.4283],[138.7685,-34.7535,286.87],[138.7714,-34.7459,253.01],[138.7708,-34.7414,259.8413],[138.7757,-34.7348,224.4563],[138.7714,-34.7343,230.9937],[138.7664,-34.7402,251.2481],[138.766,-34.7435,213.8848],[138.7556,-34.7449,197.1072],[138.7562,-34.7487,204.8361],[138.7518,-34.7491,230.731],[138.7501,-34.7435,172.6866],[138.7441,-34.7414,165.5807],[138.7391,-34.7422,157.6561],[138.7373,-34.7408,155.2633],[138.7382,-34.7381,154.1559],[138.7368,-34.7358,150.8064],[138.7321,-34.736,154.5953],[138.7223,-34.7463,137.0],[138.7228,-34.7508,140.0372],[138.72,-34.7555,129.5083],[138.7131,-34.7559,104.3217],[138.7094,-34.7534,96.9149],[138.7076,-34.7556,102.2124],[138.7049,-34.7526,116.4419],[138.7008,-34.7562,84.8955],[138.6992,-34.7548,84.8955],[138.6976,-34.7596,181.7647],[138.6933,-34.7634,172.5504],[138.6939,-34.7659,159.6879],[138.6918,-34.7656,153.8378],[138.6874,-34.7719,134.2754],[138.69,-34.7755,131.3848],[138.6908,-34.7858,204.7481],[138.6845,-34.7861,165.5182],[138.6849,-34.7915,191.474],[138.6718,-34.7921,109.2657],[138.6731,-34.8078,140.244],[138.6663,-34.8082,108.8258],[138.6695,-34.845,91.8639],[138.6597,-34.8456,92.151],[138.6636,-34.8536,99.8851],[138.6657,-34.8536,103.0274],[138.6661,-34.8575,94.7449],[138.6676,-34.8574,95.0013],[138.6684,-34.8679,66.1493],[138.6709,-34.8681,61.4995],[138.6732,-34.8653,67.1327],[138.6774,-34.8685,64.3645],[138.6853,-34.866,68.7056],[138.6903,-34.866,73.328],[138.6953,-34.8604,79.1168],[138.6999,-34.8595,87.9773],[138.702,-34.8612,78.3742],[138.7049,-34.8593,92.8575],[138.708,-34.8607,85.9604],[138.7097,-34.857,94.6956],[138.7184,-34.8632,112.0938],[138.7184,-34.8591,98.9279],[138.7279,-34.8598,132.5853],[138.7313,-34.8559,150.1236],[138.7327,-34.8591,133.0953],[138.7363,-34.859,161.0609],[138.739,-34.8608,129.9608],[138.7404,-34.8591,189.2067],[138.7424,-34.8621,149.0941],[138.7477,-34.8615,145.8338],[138.745,-34.8636,157.5061],[138.752,-34.866,181.9977],[138.753,-34.869,144.0186],[138.7545,-34.8688,144.0186],[138.7565,-34.8656,215.4962],[138.7522,-34.8587,307.4514],[138.7485,-34.8568,371.6062],[138.7474,-34.8519,407.9899],[138.7449,-34.8496,412.9482],[138.7477,-34.8418,396.1066],[138.7462,-34.837,417.4136],[138.7561,-34.8211,384.0149],[138.7531,-34.8203,386.0378],[138.7534,-34.8171,377.8291],[138.749,-34.8145,413.3984],[138.7509,-34.807,393.5689],[138.7584,-34.801,377.5924],[138.7617,-34.7942,380.713],[138.7587,-34.7865,335.5598],[138.7593,-34.7847,343.9761],[138.7538,-34.7842,310.4191],[138.7638,-34.7785,240.0321],[138.7667,-34.7783,245.3687],[138.768,-34.7812,239.3937],[138.7696,-34.7809,259.6139],[138.7688,-34.7796,239.3937],[138.7729,-34.7735,329.3268],[138.7717,-34.7715,340.2166],[138.7726,-34.7703,338.9217],[138.7753,-34.7685,340.0017],[138.7802,-34.7682,333.856],[138.7802,-34.767,332.9521]]]]}}