{"type": "Feature","bbox": [119.1968,-27.2923,124.668,-23.4403],"geometry": {"type": "MultiPolygon","coordinates": [[[[120.671,-23.728,557.7155],[120.612,-23.8053,575.043],[120.61,-23.8123,578.3277],[120.5373,-23.8527,545.576],[120.5244,-23.8529,547.1279],[120.5127,-23.8481,549.0579],[120.5079,-23.8505,551.8198],[120.4931,-23.8662,560.4069],[120.4364,-23.9536,571.5356],[120.4101,-24.0172,597.8854],[120.3649,-24.072,577.1984],[120.3523,-24.0805,569.506],[120.3436,-24.0898,569.8051],[120.3211,-24.1086,589.7877],[120.30029999999999,-24.1347,614.4088],[120.2945,-24.1435,623.4937],[120.2878,-24.1592,606.9692],[120.2417,-24.2217,565.7511],[120.2196,-24.2461,568.905],[120.2129,-24.2858,590.9211],[120.1835,-24.3309,594.4845],[120.1786,-24.3323,600.5482],[120.1738,-24.3376,587.6094],[120.1584,-24.3445,578.4189],[120.1462,-24.3564,570.8035],[120.1376,-24.3675,569.6562],[120.1325,-24.3707,567.801],[120.1114,-24.4563,590.7096],[120.0781,-24.4761,618.1934],[120.0667,-24.493,631.0012],[120.0771,-24.5024,641.8176],[120.081,-24.5139,648.0657],[120.0823,-24.5256,654.9956],[120.0925,-24.5401,640.0267],[120.085,-24.5529,630.4669],[120.0768,-24.5958,603.9343],[120.07,-24.609,599.9315],[120.0428,-24.7074,600.4141],[120.053,-24.723,596.4657],[120.056,-24.7335,590.249],[120.057,-24.7581,578.8228],[120.0554,-24.7624,577.0422],[120.0553,-24.845,582.7508],[120.0608,-24.8536,582.5305],[120.0883,-24.9159,600.2346],[120.0987,-24.927,617.6965],[120.1054,-24.9402,602.4417],[120.1154,-24.9976,592.1604],[120.1897,-25.1423,646.3334],[120.195,-25.1487,644.5029],[120.1935,-25.1551,640.1796],[120.1985,-25.1629,635.6196],[120.2024,-25.1826,628.8181],[120.2022,-25.1921,629.0525],[120.1971,-25.1945,631.0645],[120.1912,-25.1945,633.8533],[120.1768,-25.2015,629.3389],[120.1673,-25.2003,637.3367],[120.1641,-25.2048,629.7727],[120.1621,-25.2123,626.53],[120.1542,-25.2173,622.6323],[120.137,-25.2324,619.7436],[120.085,-25.3386,574.2893],[120.0883,-25.5274,535.6125],[120.0864,-25.5519,534.1253],[120.0919,-25.5612,531.24],[120.0936,-25.5841,535.7293],[120.0994,-25.6219,538.3854],[120.1055,-25.6267,534.871],[120.1073,-25.6319,536.8278],[120.1083,-25.6564,536.5826],[120.1071,-25.6598,536.7878],[120.1122,-25.726,540.5908],[120.1189,-25.7544,541.5442],[120.0079,-26.027,575.5515],[119.977,-26.0605,583.9067],[119.9611,-26.0857,593.4301],[119.9556,-26.0994,597.1331],[119.955,-26.1066,599.8415],[119.9413,-26.1408,621.2589],[119.9336,-26.1492,625.3121],[119.9218,-26.1876,596.9576],[119.9163,-26.193,596.0217],[119.9129,-26.1996,595.1438],[119.8945,-26.2136,585.4087],[119.8872,-26.2266,587.2524],[119.883,-26.2406,588.5428],[119.8782,-26.2475,576.818],[119.8673,-26.2569,572.4216],[119.8142,-26.3648,534.6318],[119.808,-26.3708,533.6522],[119.8046,-26.3822,533.5332],[119.8046,-26.4403,525.7621],[119.7923,-26.4496,526.9526],[119.7765,-26.4529,527.1107],[119.77,-26.4585,534.9006],[119.7497,-26.4686,535.5518],[119.7377,-26.4809,530.1603],[119.6139,-26.5527,560.072],[119.6024,-26.5711,564.5811],[119.5956,-26.5712,565.8756],[119.5834,-26.5777,569.5304],[119.5825,-26.5922,573.3783],[119.5767,-26.6057,592.311],[119.5285,-26.6444,592.6568],[119.5019,-26.6809,603.1183],[119.4858,-26.722,620.6914],[119.4475,-26.7688,631.8835],[119.4114,-26.7851,616.9813],[119.3395,-26.8638,569.962],[119.3336,-26.8849,562.661],[119.332,-26.8994,557.1777],[119.2879,-27.0087,526.7845],[119.2732,-27.0149,524.0834],[119.2365,-27.0628,512.3906],[119.2014,-27.1694,532.325],[119.2041,-27.1815,518.5903],[119.1968,-27.2023,507.8722],[119.2011,-27.2311,508.969],[119.3325,-27.2422,569.6443],[119.585,-27.2422,548.6288],[119.585,-27.2903,568.7827],[120.8574,-27.2923,530.6944],[121.7791,-27.2903,575.8978],[121.7791,-26.8068,539.6724],[122.0655,-26.8068,548.3741],[122.0656,-26.8284,543.0653],[122.461,-26.8284,487.5804],[122.461,-26.7128,517.4883],[122.6892,-26.7128,471.2798],[122.6892,-26.6547,482.2051],[122.9639,-26.6547,440.4114],[122.9639,-26.6819,443.5562],[123.0467,-26.6819,437.0],[123.0467,-26.7455,444.0364],[123.9358,-26.7472,476.6798],[124.668,-26.745,466.037],[124.668,-23.4403,392.9488],[123.5586,-23.4442,388.3632],[122.4541,-23.4403,355.607],[121.0048,-23.4403,592.6386],[121.0048,-23.7279,521.2327],[120.671,-23.728,557.7155]]]]}
,"properties": {"GID_2": "AUS.11.133_1","GID_0": "AUS","country": "Australia","GID_1": "AUS.11_1","state": "WesternAustralia","NL_NAME_1": "NA","county": "Wiluna","VARNAME_2": "NA","NL_NAME_2": "NA","TYPE_2": "Shire","ENGTYPE_2": "Shire","CC_2": "59250","HASC_2": "AU.WA.WL","name": "Wiluna.county","area_km2": 181655.41,"hist_schema_id": "Elevation0-9000","hist_area_km2": {"325": 1052.22,"350": 2938.82,"375": 4020.67,"400": 11261.8,"425": 17816.61,"450": 30046.66,"475": 23123.38,"500": 20912.77,"525": 22401.2,"550": 22479.89,"575": 14628.01,"600": 7274.53,"625": 2820.26,"650": 645.97,"675": 135.3,"700": 49.02,"725": 25.59,"750": 11.02,"775": 5.11,"800": 3.02,"825": 1.88}}}