{"type": "Feature","bbox": [144.6007,-38.2923,144.7021,-38.2376],"geometry": {"type": "MultiPolygon","coordinates": [[[[144.6024,-38.286,9.4185],[144.6007,-38.2878,13.182],[144.6139,-38.2923,4.6056],[144.6162,-38.2877,7.6398],[144.6149,-38.2835,7.8495],[144.6202,-38.2759,5.326],[144.6299,-38.2731,0.0],[144.6443,-38.2717,3.309],[144.6598,-38.2739,5.7521],[144.6641,-38.2677,6.1309],[144.6722,-38.2653,0.5629],[144.6668,-38.2622,0.4024],[144.658,-38.2635,0.0],[144.6561,-38.2653,0.3309],[144.6485,-38.2666,1.1023],[144.6424,-38.2698,5.9169],[144.6333,-38.2698,1.1729],[144.6322,-38.2694,0.0],[144.6343,-38.2665,0.175],[144.637,-38.2661,0.0],[144.6261,-38.2575,0.0],[144.6024,-38.286,9.4185]]],
[[[144.6396,-38.2676,0.0588],[144.6399,-38.2675,0.0],[144.6393,-38.2673,0.0588],[144.6393,-38.2674,0.0588],[144.6396,-38.2676,0.0588]]],
[[[144.6385,-38.2675,0.0588],[144.6386,-38.2667,0.0588],[144.6376,-38.2668,0.0],[144.6378,-38.2672,0.0588],[144.6385,-38.2675,0.0588]]],
[[[144.6665,-38.2591,0.3035],[144.6663,-38.2571,0.0],[144.6619,-38.2589,0.072],[144.6645,-38.26,0.0732],[144.6665,-38.2591,0.3035]]],
[[[144.6788,-38.2504,0.1377],[144.6782,-38.2475,0.1544],[144.6812,-38.2402,0.0],[144.6793,-38.2376,0.0],[144.6665,-38.2499,0.2395],[144.6636,-38.2509,0.0935],[144.6636,-38.2543,0.8327],[144.6677,-38.2561,0.2442],[144.6685,-38.2594,0.1398],[144.6672,-38.2619,0.4024],[144.6719,-38.2644,0.0],[144.673,-38.2628,0.0],[144.6705,-38.2598,0.2538],[144.6699,-38.2629,2.638],[144.6677,-38.2621,0.4024],[144.6698,-38.2579,0.1678],[144.6688,-38.259,0.0],[144.6678,-38.255,0.2442],[144.6725,-38.2552,1.215],[144.6708,-38.2574,0.7957],[144.6801,-38.2529,0.9512],[144.6889,-38.2516,0.5055],[144.6979,-38.2481,0.0],[144.7021,-38.2434,0.0],[144.6966,-38.2412,0.0],[144.6897,-38.2428,0.0],[144.6885,-38.243899999999996,0.0679],[144.6899,-38.2446,0.8039],[144.6891,-38.2469,0.4206],[144.6823,-38.2478,0.0],[144.6788,-38.2504,0.1377]]],
[[[144.6851,-38.2455,0.5216],[144.6863,-38.2459,0.5216],[144.6877,-38.2454,0.0],[144.6842,-38.2446,0.0],[144.6851,-38.2455,0.5216]]]]}
,"properties": {"GID_2": "AUS.10.61_1","GID_0": "AUS","country": "Australia","GID_1": "AUS.10_1","state": "Victoria","NL_NAME_1": "NA","county": "Queenscliffe","VARNAME_2": "NA","NL_NAME_2": "NA","TYPE_2": "Borough","ENGTYPE_2": "Borough","CC_2": "26080","HASC_2": "AU.VI.QC","name": "Queenscliffe.county","area_km2": 8.68979,"hist_schema_id": "Elevation0-9000","hist_area_km2": {"0": 7.574626,"25": 1.115164}}}