{"type":"Feature","properties":{"GID_2":"AUS.10.62_1","GID_0":"AUS","country":"Australia","GID_1":"AUS.10_1","state":"Victoria","NL_NAME_1":"NA","county":"SouthGippsland","VARNAME_2":"NA","NL_NAME_2":"NA","TYPE_2":"Shire","ENGTYPE_2":"Shire","CC_2":"26170","HASC_2":"AU.VI.SL","name":"SouthGippsland.county"},
"geometry":{"type": "MultiPolygon","coordinates": [[[[145.7295,-38.6448,0.0],[145.7317,-38.6487,0.0],[145.7655,-38.6668,12.7482],[145.7941,-38.6886,1.4542],[145.8331,-38.7288,0.0],[145.8695,-38.7761,4.2443],[145.8831,-38.8032,8.4624],[145.8867,-38.8141,0.0],[145.8943,-38.8229,6.1317],[145.8981,-38.8359,13.5138],[145.8973,-38.8381,20.1762],[145.9001,-38.8432,31.7749],[145.8991,-38.8468,0.0],[145.9033,-38.849,25.5675],[145.9047,-38.8545,0.0],[145.9084,-38.8578,14.5279],[145.9149,-38.8721,0.0],[145.9166,-38.88,23.4693],[145.9135,-38.8827,0.0],[145.9144,-38.8856,0.0],[145.9126,-38.8867,0.0],[145.9134,-38.8876,0.0],[145.9106,-38.8928,0.3644],[145.9147,-38.8937,0.5331],[145.9142,-38.8967,12.6722],[145.912,-38.8986,0.4149],[145.9142,-38.8985,4.3999],[145.9163,-38.9008,44.4896],[145.9147,-38.9026,0.0],[145.9186,-38.9044,32.37],[145.9189,-38.9069,3.1801],[145.9212,-38.9072,15.0891],[145.9212,-38.9096,0.2052],[145.926,-38.9057,34.2026],[145.9275,-38.9065,0.0],[145.9369,-38.8974,11.4985],[145.94,-38.8961,67.9174],[145.9569,-38.8963,0.0],[145.9629,-38.8988,1.3549],[145.9655,-38.8962,25.9322],[145.9716,-38.897,2.5143],[145.9794,-38.8951,0.318],[145.9826,-38.8909,10.6595],[146.0016,-38.8816,1.8105],[146.0038,-38.8781,3.1019],[146.0063,-38.8779,0.7859],[146.0066,-38.8763,0.7859],[146.0043,-38.8743,0.0],[146.0011,-38.8669,23.5344],[146.0015,-38.8614,31.1144],[145.9977,-38.8597,33.689],[145.9966,-38.8523,0.0],[145.9981,-38.846,0.0],[146.009,-38.8263,9.1627],[146.0115,-38.8242,8.746],[146.0327,-38.8135,3.0984],[146.043,-38.8113,0.0],[146.0632,-38.8118,0.0],[146.0853,-38.8163,0.0],[146.1046,-38.823,0.0],[146.1231,-38.8315,0.0],[146.1842,-38.8695,0.0],[146.2199,-38.9028,1.4931],[146.2339,-38.9186,1.3946],[146.2469,-38.9385,7.4079],[146.2549,-38.9548,0.0],[146.2695,-38.973,0.0],[146.2673,-38.9769,0.0],[146.2708,-38.9812,3.0866],[146.2677,-38.9863,27.2177],[146.2689,-38.9882,9.6869],[146.2673,-38.9912,0.6872],[146.2611,-38.9904,0.0],[146.257,-38.9925,4.6959],[146.2533,-38.9923,0.0],[146.2529,-38.9935,16.1067],[146.2486,-38.9939,0.0],[146.249,-38.996,15.6778],[146.2573,-38.9939,26.4915],[146.2628,-38.9987,0.0],[146.2652,-38.9953,41.0392],[146.2743,-38.9964,17.4359],[146.2772,-39.001,3.5404],[146.2795,-39.002,0.0],[146.2816,-39.0067,0.0],[146.2919,-39.0131,2.3043],[146.2897,-39.0137,0.0],[146.2925,-39.0158,22.4159],[146.2919,-39.0192,1.0728],[146.2864,-39.0205,17.2247],[146.2839,-39.0248,0.0],[146.289,-39.0272,2.5057],[146.2917,-39.0225,50.8375],[146.2964,-39.0246,0.0],[146.2992,-39.0229,37.397],[146.3033,-39.0237,2.396],[146.3071,-39.0281,1.7455],[146.3069,-39.032,14.971],[146.3039,-39.0364,2.3699],[146.3047,-39.0394,29.5773],[146.3085,-39.0381,5.7863],[146.3121,-39.0329,29.8923],[146.3136,-39.0331,0.0],[146.3134,-39.0316,5.9428],[146.3167,-39.0288,44.5956],[146.3231,-39.0275,6.6999],[146.3257,-39.0277,5.197],[146.3253,-39.0282,3.0169],[146.3241,-39.0284,2.7006],[146.3232,-39.0277,6.6999],[146.3222,-39.0288,2.3382],[146.317,-39.0292,5.1707],[146.314,-39.0318,5.9428],[146.3217,-39.0362,8.5646],[146.3264,-39.0411,0.9169],[146.3169,-39.0523,0.0],[146.321,-39.0536,0.0],[146.3297,-39.0498,0.0],[146.3341,-39.0534,0.0],[146.335,-39.0587,0.0],[146.3439,-39.0604,3.0181],[146.3426,-39.0627,0.0],[146.3435,-39.0715,1.2607],[146.3422,-39.0717,1.2607],[146.3406,-39.0769,9.2212],[146.3388,-39.0764,18.0892],[146.335,-39.0791,8.2385],[146.3243,-39.0768,1.9728],[146.3214,-39.078,22.2442],[146.3207,-39.0805,0.0],[146.3224,-39.0824,7.0942],[146.3214,-39.0879,16.9295],[146.3247,-39.094,0.0],[146.3343,-39.1016,0.0],[146.3347,-39.1065,0.0],[146.3398,-39.1105,12.4411],[146.3426,-39.1106,11.6317],[146.3445,-39.1141,64.8499],[146.3439,-39.1218,64.7288],[146.3459,-39.1255,20.8836],[146.3517,-39.1251,0.0],[146.3633,-39.1322,10.6948],[146.3671,-39.132,13.3803],[146.3681,-39.134,0.0],[146.3745,-39.1338,17.128],[146.3738,-39.1367,0.0],[146.3793,-39.1333,0.0],[146.3811,-39.1296,0.0],[146.3842,-39.1296,0.0],[146.3878,-39.1251,33.2856],[146.3875,-39.1296,0.0],[146.3902,-39.1316,15.6483],[146.3893,-39.1339,19.4067],[146.395,-39.1344,40.8894],[146.3984,-39.1319,14.4306],[146.4066,-39.131,4.5449],[146.416,-39.1255,25.2],[146.4209,-39.1258,24.6206],[146.422,-39.1298,2.9749],[146.4248,-39.131,30.8246],[146.4266,-39.1299,0.0],[146.4265,-39.1271,0.0],[146.4219,-39.1227,8.1951],[146.4241,-39.1148,0.0],[146.4278,-39.1136,14.283],[146.4317,-39.1148,0.4961],[146.427,-39.1114,29.5973],[146.4269,-39.1083,1.8081],[146.4319,-39.1093,15.3152],[146.4348,-39.1077,0.0],[146.4374,-39.0937,22.179],[146.4416,-39.0898,0.0],[146.4386,-39.0873,0.0],[146.4378,-39.0898,17.4051],[146.4359,-39.09,30.3164],[146.4253,-39.0835,5.7199],[146.4259,-39.0755,4.0405],[146.4308,-39.0658,6.7555],[146.4442,-39.0639,12.8052],[146.447,-39.0573,10.7523],[146.4554,-39.0541,17.9378],[146.4644,-39.0618,0.0],[146.4738,-39.0652,7.1562],[146.4758,-39.063,20.7719],[146.4785,-39.0664,0.0],[146.4808,-39.0661,25.4404],[146.481,-39.0619,32.6453],[146.4834,-39.061,32.7342],[146.4826,-39.0582,33.4793],[146.4803,-39.0575,12.9117],[146.4791,-39.0527,0.0],[146.4745,-39.0549,32.0943],[146.4745,-39.0518,38.4272],[146.4773,-39.0489,7.1952],[146.4777,-39.0438,0.0],[146.475,-39.0439,0.0],[146.473,-39.0463,40.1484],[146.4707,-39.0442,28.6141],[146.4704,-39.0409,2.3073],[146.468,-39.0394,0.0],[146.4643,-39.0423,25.9979],[146.4604,-39.0369,16.3457],[146.463,-39.0346,1.2036],[146.4652,-39.0362,33.0314],[146.4708,-39.0357,19.983],[146.4711,-39.0343,8.1629],[146.464,-39.029,31.1419],[146.4701,-39.0264,0.0],[146.4733,-39.0289,4.8213],[146.4763,-39.0277,0.0],[146.4754,-39.0257,0.0],[146.4734,-39.0271,14.1818],[146.4692,-39.0232,0.0],[146.4646,-39.0223,26.3908],[146.4614,-39.0196,11.1178],[146.4525,-39.0199,37.1997],[146.4451,-39.0177,0.0],[146.4429,-39.0221,22.5309],[146.4372,-39.021,0.0],[146.4329,-39.0168,0.0],[146.4317,-39.011,15.0763],[146.4323,-39.0086,0.0],[146.4421,-39.0073,17.9732],[146.4457,-39.0037,13.9158],[146.4462,-38.998,22.6094],[146.4361,-38.981,21.4334],[146.451,-38.9478,0.0],[146.4621,-38.9309,3.3402],[146.4741,-38.9162,14.3079],[146.4772,-38.9171,6.5633],[146.4803,-38.9129,15.3003],[146.4844,-38.9116,0.0],[146.4865,-38.9128,21.2096],[146.4893,-38.9105,19.9074],[146.4858,-38.9086,7.083],[146.4874,-38.9065,1.1061],[146.486,-38.9035,0.0],[146.4874,-38.8943,6.7452],[146.4806,-38.8913,10.55],[146.4817,-38.8855,6.179],[146.4845,-38.8831,11.4261],[146.482,-38.8817,13.0481],[146.4791,-38.8827,2.7662],[146.4738,-38.8814,19.2171],[146.4727,-38.8779,0.0],[146.47,-38.8778,0.701],[146.4681,-38.8735,0.6837],[146.469,-38.8605,2.0426],[146.4747,-38.8428,33.1493],[146.476,-38.8425,0.0],[146.4714,-38.8365,7.7821],[146.4706,-38.8317,3.6227],[146.4734,-38.8231,1.5723],[146.4729,-38.8171,3.2529],[146.4789,-38.7993,0.0],[146.4791,-38.7935,0.0],[146.4772,-38.7896,0.0],[146.4749,-38.7886,0.0],[146.4747,-38.7903,1.4068],[146.4735,-38.7898,1.4068],[146.4671,-38.7809,0.0],[146.4603,-38.7824,2.6848],[146.4584,-38.781,0.0],[146.449,-38.7809,4.7809],[146.4443,-38.7779,0.0],[146.441,-38.7801,27.1757],[146.438,-38.7789,0.9352],[146.4362,-38.781,0.0],[146.4383,-38.7856,19.4087],[146.4373,-38.7901,13.0005],[146.4359,-38.7907,0.0],[146.437,-38.7928,16.989],[146.4356,-38.7959,1.8966],[146.4275,-38.7984,0.0],[146.427,-38.8022,10.0922],[146.4207,-38.8038,0.0],[146.4232,-38.8087,0.0],[146.4205,-38.811,1.0057],[146.4194,-38.8183,0.0],[146.4219,-38.8194,10.5339],[146.4212,-38.8335,0.0],[146.4184,-38.8458,2.4301],[146.4149,-38.8521,2.8326],[146.4126,-38.8533,0.9925],[146.4089,-38.8502,0.5252],[146.3961,-38.8522,1.0486],[146.3932,-38.8505,0.8542],[146.382,-38.8597,1.9375],[146.3687,-38.8601,5.695],[146.3625,-38.866,1.4953],[146.3526,-38.8682,1.026],[146.3472,-38.8721,0.3045],[146.3465,-38.8757,1.2356],[146.3363,-38.8802,0.8704],[146.3357,-38.8855,3.0359],[146.3322,-38.8874,0.2702],[146.3329,-38.889,0.0],[146.3306,-38.8947,2.6262],[146.3237,-38.9033,5.2343],[146.3157,-38.9057,1.2926],[146.2991,-38.9063,2.6634],[146.2913,-38.9038,4.1937],[146.2879,-38.8966,6.0851],[146.2881,-38.8846,0.0],[146.2933,-38.8784,0.0],[146.2871,-38.8701,6.0297],[146.2865,-38.8664,0.0],[146.2703,-38.8601,3.5221],[146.2639,-38.8234,1.7472],[146.2689,-38.8174,5.6557],[146.2678,-38.815,0.0],[146.2693,-38.8078,4.9273],[146.2728,-38.806,0.0],[146.264,-38.8055,1.5631],[146.2505,-38.8099,4.3781],[146.2409,-38.8111,0.0],[146.233,-38.809,0.0],[146.2277,-38.8008,10.2315],[146.223,-38.7781,0.0],[146.2198,-38.7767,13.5659],[146.2185,-38.7718,1.1973],[146.2037,-38.7654,0.0],[146.2006,-38.7594,0.6735],[146.2012,-38.7565,0.6133],[146.1972,-38.7541,0.4668],[146.1922,-38.7432,0.2362],[146.1905,-38.7423,0.0],[146.1906,-38.744,0.2904],[146.1856,-38.7434,6.2944],[146.1886,-38.7312,7.7731],[146.1926,-38.7287,1.1507],[146.1972,-38.731,0.8051],[146.1971,-38.7325,0.8217],[146.1943,-38.734,0.1747],[146.1954,-38.7359,0.1202],[146.1985,-38.7362,0.842],[146.1983,-38.7343,0.8319],[146.2003,-38.7337,0.81],[146.2014,-38.7363,0.1813],[146.2054,-38.7382,0.8322],[146.2048,-38.7406,0.1325],[146.2107,-38.7379,0.0],[146.2047,-38.7354,0.9269],[146.2079,-38.7349,0.7714],[146.2075,-38.7327,0.8081],[146.2099,-38.7315,0.3642],[146.2107,-38.7285,2.4767],[146.2006,-38.733,0.81],[146.2001,-38.7278,0.3819],[146.1982,-38.7293,0.7948],[146.192,-38.7262,4.1991],[146.1942,-38.7236,0.7904],[146.1959,-38.7246,0.7549],[146.1967,-38.7189,2.1652],[146.1995,-38.7161,2.2754],[146.2041,-38.7201,0.9248],[146.2078,-38.7201,0.7761],[146.2102,-38.7169,0.7636],[146.2132,-38.7197,0.0],[146.2141,-38.7167,0.0],[146.2119,-38.7174,0.7636],[146.2086,-38.7132,0.824],[146.2065,-38.7154,0.6682],[146.2027,-38.7133,0.1996],[146.2089,-38.7104,0.3582],[146.2179,-38.7103,0.5472],[146.2213,-38.707,0.7562],[146.2263,-38.7057,0.5782],[146.2261,-38.7041,1.0413],[146.229,-38.7017,0.2611],[146.2276,-38.697,0.4944],[146.2243,-38.6984,1.0764],[146.2123,-38.6973,1.0453],[146.2136,-38.6956,1.104],[146.2121,-38.6928,4.0221],[146.2129,-38.693,1.3536],[146.2135,-38.6934,1.3536],[146.2133,-38.6949,1.104],[146.215,-38.6957,1.0397],[146.2312,-38.6952,0.0],[146.2307,-38.692,0.7393],[146.2276,-38.6891,0.8571],[146.2384,-38.6888,0.4631],[146.2402,-38.685,0.8386],[146.2439,-38.6828,0.6973],[146.2454,-38.6837,0.6677],[146.2426,-38.6881,0.8607],[146.2444,-38.6959,0.2143],[146.2539,-38.6973,0.8421],[146.2558,-38.6955,1.0173],[146.2521,-38.6957,0.7882],[146.2539,-38.6898,0.736],[146.2583,-38.6921,0.8992],[146.2609,-38.69,0.4564],[146.2607,-38.6873,0.4228],[146.261,-38.6876,0.4228],[146.2616,-38.6885,0.225],[146.2612,-38.6909,0.4564],[146.2665,-38.691,0.8106],[146.2675,-38.6879,2.0256],[146.2919,-38.6953,0.6072],[146.3035,-38.6917,1.0558],[146.3193,-38.6895,1.0831],[146.3197,-38.6878,1.1676],[146.3289,-38.687,1.6383],[146.3318,-38.6892,1.3177],[146.3316,-38.6907,0.9975],[146.3391,-38.6906,0.0],[146.3305,-38.6872,1.0786],[146.3318,-38.6811,1.2243],[146.3382,-38.6803,1.0974],[146.3372,-38.6755,1.2061],[146.3384,-38.6739,1.4198],[146.3449,-38.6766,0.663],[146.3511,-38.673,1.308],[146.3578,-38.6762,1.32],[146.3609,-38.6809,1.2117],[146.37,-38.6841,1.3335],[146.3732,-38.6813,1.4465],[146.3773,-38.6815,1.4145],[146.3773,-38.6835,1.3053],[146.381,-38.6856,5.1684],[146.38,-38.6877,1.7172],[146.3773,-38.688,0.0],[146.3798,-38.6913,1.5147],[146.3793,-38.7018,1.9969],[146.3838,-38.7075,1.1925],[146.3842,-38.7152,0.4598],[146.3826,-38.7181,0.0],[146.3846,-38.7199,0.0],[146.391,-38.7211,0.0],[146.3929,-38.7207,0.0],[146.39,-38.7207,0.4471],[146.3932,-38.7196,0.0],[146.4068,-38.7224,0.543],[146.4117,-38.7209,0.4922],[146.4138,-38.7179,0.0],[146.41,-38.7194,0.6635],[146.4065,-38.7186,1.2982],[146.4103,-38.7119,1.0011],[146.4179,-38.7076,0.2489],[146.4185,-38.7057,1.1567],[146.4391,-38.6997,0.4184],[146.4393,-38.6971,0.9492],[146.4371,-38.6945,1.1808],[146.4451,-38.695,0.6957],[146.4469,-38.6968,1.9142],[146.4503,-38.694,1.449],[146.4491,-38.6998,0.0],[146.461,-38.6996,1.8152],[146.4631,-38.7021,1.1557],[146.4666,-38.7017,0.9787],[146.4708,-38.6985,0.2148],[146.4931,-38.6967,0.432],[146.4934,-38.6878,1.7827],[146.492,-38.6845,0.9365],[146.4947,-38.6798,1.5849],[146.4967,-38.6873,1.0425],[146.5046,-38.682,1.9536],[146.5052,-38.6862,1.2354],[146.5024,-38.6896,1.6569],[146.5032,-38.6916,1.1467],[146.5186,-38.6946,0.9153],[146.5257,-38.6924,0.9396],[146.5232,-38.692,1.0129],[146.5229,-38.6904,0.7037],[146.5224,-38.6916,1.171],[146.5195,-38.6904,0.8364],[146.5215,-38.689,1.1599],[146.5259,-38.6642,3.8679],[146.5204,-38.6635,4.2171],[146.5284,-38.6231,34.2809],[146.525,-38.6226,53.3816],[146.5256,-38.6193,141.2185],[146.4933,-38.6134,269.6706],[146.4927,-38.6159,231.2469],[146.4781,-38.614,233.1987],[146.4786,-38.6114,244.1097],[146.4755,-38.6113,260.2993],[146.4762,-38.6093,211.4289],[146.4615,-38.6074,202.0432],[146.4631,-38.5985,110.3818],[146.4497,-38.5968,111.2849],[146.4487,-38.6021,128.868],[146.4403,-38.6011,126.6686],[146.4398,-38.604,127.0785],[146.4281,-38.6026,113.1968],[146.4277,-38.605,142.8736],[146.4092,-38.6026,169.3114],[146.4101,-38.5985,163.8241],[146.4072,-38.5989,194.4297],[146.405,-38.597,190.3838],[146.3938,-38.5984,207.5037],[146.3866,-38.5951,218.4921],[146.3854,-38.592,228.9108],[146.3784,-38.5898,247.7021],[146.3761,-38.5925,237.1488],[146.371,-38.5908,192.3547],[146.3688,-38.5919,188.5781],[146.3673,-38.5893,212.9161],[146.3688,-38.588,197.0813],[146.368,-38.5866,232.1176],[146.3706,-38.5851,217.9666],[146.3702,-38.5821,279.1809],[146.3658,-38.5815,295.5759],[146.3643,-38.5795,305.0769],[146.3674,-38.5765,332.8301],[146.3619,-38.5759,354.1192],[146.3609,-38.574,351.4402],[146.3573,-38.5734,333.2228],[146.3529,-38.5738,358.0298],[146.3518,-38.5722,343.6602],[146.3479,-38.5745,358.2261],[146.3456,-38.5702,423.0735],[146.3374,-38.5703,417.9331],[146.3348,-38.5684,468.7095],[146.336,-38.567,391.9804],[146.3293,-38.566,458.4681],[146.3301,-38.564,471.8135],[146.3221,-38.5648,503.4411],[146.3172,-38.562,501.926],[146.3127,-38.5619,498.2802],[146.3148,-38.5598,515.4281],[146.3167,-38.56,510.6931],[146.3168,-38.5569,475.5847],[146.3149,-38.5553,458.5551],[146.3159,-38.5541,436.3219],[146.3113,-38.5513,463.20119999999997],[146.3119,-38.5494,473.8488],[146.3143,-38.5487,463.0406],[146.3124,-38.5439,487.9065],[146.3176,-38.5428,483.9234],[146.3194,-38.5393,474.7166],[146.3216,-38.5387,451.5656],[146.32,-38.5379,492.4608],[146.3211,-38.5352,524.3115],[146.3268,-38.5338,512.2281],[146.326,-38.532,517.3477],[146.3274,-38.5314,533.0771],[146.3186,-38.5229,451.5221],[146.3183,-38.5208,451.9117],[146.3138,-38.5208,475.3374],[146.3134,-38.5196,475.3374],[146.3072,-38.5215,463.6389],[146.3048,-38.5208,462.8157],[146.2978,-38.5264,455.5613],[146.2932,-38.5255,432.3011],[146.2903,-38.5279,392.2455],[146.2882,-38.524,379.1826],[146.2845,-38.5236,373.7933],[146.2856,-38.5209,391.7088],[146.2836,-38.517,363.2992],[146.2865,-38.5139,394.0674],[146.285,-38.5132,387.1864],[146.2853,-38.5064,370.8376],[146.291,-38.5047,384.1483],[146.2928,-38.5024,344.3232],[146.2918,-38.5001,367.9598],[146.2548,-38.4961,254.8283],[146.2575,-38.4834,249.2586],[146.2599,-38.4837,284.4324],[146.2626,-38.471,237.4753],[146.2384,-38.468,199.3383],[146.2399,-38.4608,174.5051],[146.2355,-38.4603,147.1698],[146.2372,-38.4529,211.3698],[146.2693,-38.457,243.5954],[146.2722,-38.4464,291.3145],[146.2232,-38.44,210.5446],[146.2265,-38.4248,169.0755],[146.2307,-38.4251,171.4132],[146.2328,-38.414,219.9993],[146.2287,-38.4135,293.2739],[146.2345,-38.3849,194.6015],[146.2359,-38.3847,161.9679],[146.2344,-38.3807,170.5169],[146.2409,-38.3792,115.2806],[146.2367,-38.3756,135.2989],[146.2199,-38.3744,135.3657],[146.2105,-38.3704,169.0103],[146.2235,-38.3659,191.5663],[146.2315,-38.3542,172.912],[146.2435,-38.3561,178.5224],[146.2474,-38.3379,254.1481],[146.2496,-38.3382,231.2183],[146.2505,-38.3267,244.1308],[146.2286,-38.3239,249.3603],[146.2302,-38.3217,253.9568],[146.2186,-38.3203,230.5548],[146.2168,-38.3213,229.7948],[146.2039,-38.3171,293.1185],[146.2018,-38.3281,250.2166],[146.1927,-38.327,301.7849],[146.1892,-38.3439,305.7513],[146.1622,-38.3406,309.837],[146.1605,-38.3493,363.4448],[146.148,-38.3478,233.0817],[146.1225,-38.3601,120.1298],[146.0968,-38.3258,278.8633],[146.0907,-38.3284,174.4565],[146.0744,-38.3143,297.8686],[146.0731,-38.3187,330.6326],[146.064,-38.3106,248.778],[146.0496,-38.3206,372.9625],[146.0542,-38.3236,374.3186],[146.0343,-38.3318,237.9536],[146.0266,-38.3313,267.5706],[146.0242,-38.3296,285.5748],[146.0115,-38.3328,155.8618],[146.0071,-38.3298,152.6426],[145.9866,-38.3277,408.3109],[145.9878,-38.3209,429.4256],[145.9768,-38.3197,425.1875],[145.9779,-38.3131,466.1004],[145.9675,-38.3121,441.8109],[145.9654,-38.3236,404.7037],[145.9542,-38.3224,335.7372],[145.9538,-38.3247,349.4518],[145.9419,-38.3234,174.1203],[145.9407,-38.3308,171.3749],[145.902,-38.3265,302.3116],[145.9024,-38.3307,305.9909],[145.9011,-38.3316,294.099],[145.9065,-38.339,342.5356],[145.8886,-38.3368,252.2029],[145.8898,-38.3294,217.042],[145.8844,-38.3288,215.3697],[145.8849,-38.3168,249.8248],[145.8775,-38.3162,270.031],[145.8763,-38.3235,201.464],[145.8628,-38.3219,229.2849],[145.8624,-38.3245,194.9032],[145.8277,-38.3205,139.1754],[145.8311,-38.3023,99.9266],[145.8272,-38.3006,97.5936],[145.8212,-38.2928,93.6273],[145.8221,-38.29,93.6386],[145.8201,-38.2899,92.64],[145.8167,-38.2857,100.091],[145.8154,-38.2825,90.6229],[145.8163,-38.281,89.0435],[145.8125,-38.2759,84.5577],[145.8143,-38.2745,88.415],[145.8123,-38.2713,86.0923],[145.8051,-38.2688,84.5602],[145.8015,-38.2693,81.3785],[145.8006,-38.2644,81.8525],[145.7729,-38.2612,80.6011],[145.7719,-38.2663,101.2257],[145.7596,-38.2649,76.613],[145.7622,-38.2683,70.7013],[145.759,-38.2726,68.482],[145.7588,-38.2761,74.1871],[145.7613,-38.2775,71.1091],[145.7354,-38.2746,77.92],[145.7327,-38.2894,109.8696],[145.6997,-38.2857,103.0314],[145.6987,-38.2911,112.3707],[145.6896,-38.2901,70.881],[145.6909,-38.2831,103.0521],[145.6815,-38.2822,66.7997],[145.6803,-38.2896,81.9782],[145.6381,-38.2849,38.3299],[145.6385,-38.2825,31.6826],[145.6306,-38.2865,25.8633],[145.625,-38.2861,23.0674],[145.6189,-38.2891,23.7809],[145.6147,-38.288,21.8993],[145.6124,-38.2856,22.5114],[145.6071,-38.3153,49.7268],[145.6093,-38.3147,50.3894],[145.6057,-38.3325,33.4043],[145.6239,-38.3363,87.4691],[145.6289,-38.3384,109.647],[145.6293,-38.3407,105.2382],[145.6345,-38.344,110.9558],[145.6448,-38.3425,124.2934],[145.6473,-38.3455,128.5164],[145.6499,-38.3551,123.654],[145.6631,-38.3664,65.8615],[145.6715,-38.3712,70.4915],[145.6918,-38.3733,132.6372],[145.6948,-38.3761,144.1405],[145.6957,-38.381,169.723],[145.6926,-38.386,266.1637],[145.6979,-38.3934,240.8789],[145.6858,-38.4572,120.8657],[145.6887,-38.4575,142.5005],[145.6883,-38.4644,105.2998],[145.6764,-38.4635,184.8111],[145.6758,-38.4671,161.8224],[145.6782,-38.4673,200.8235],[145.6756,-38.4829,202.6464],[145.6773,-38.4889,138.9529],[145.6802,-38.4916,162.1598],[145.688,-38.4941,151.604],[145.6897,-38.4968,144.3272],[145.6923,-38.4972,143.3652],[145.6935,-38.5014,129.7946],[145.6958,-38.5022,124.1128],[145.6946,-38.5057,139.8155],[145.6986,-38.5096,116.7646],[145.6995,-38.5154,90.08],[145.7008,-38.5159,98.5652],[145.6985,-38.5361,64.9132],[145.7183,-38.5383,41.6728],[145.7206,-38.5245,49.4494],[145.7301,-38.5255,53.4024],[145.7285,-38.5351,40.7661],[145.7618,-38.5385,43.7338],[145.7572,-38.5661,49.9556],[145.7757,-38.5679,52.8091],[145.7641,-38.5997,32.9857],[145.7681,-38.6041,16.4883],[145.8165,-38.5835,67.2906],[145.8082,-38.6266,6.3507999999999996],[145.8084,-38.628,5.7431],[145.8147,-38.6272,5.455],[145.815,-38.6361,1.3959],[145.8183,-38.6365,1.2923],[145.8152,-38.6372,1.1946],[145.8146,-38.6388,1.4679],[145.8178,-38.6416,1.1632],[145.8164,-38.6428,1.1599],[145.818,-38.6446,0.9394],[145.8166,-38.6475,0.0],[145.7387,-38.6411,0.0],[145.729,-38.6428,0.0],[145.7295,-38.6448,0.0]]]]}}