{"type":"Feature","properties":{"featurecla":"River","scalerank":9,"rivernum":1100,"dissolve":"1100River","name":"Burnett","name_alt":null,"note":null,"min_zoom":7.1,"strokeweig":0.15,"name_en":"Burnett","min_label":8.1},
"geometry":{"type": "LineString","coordinates": [[151.801513671875,-25.776690362505889,146.4366],[151.802001953125,-25.74553801875588,134.5194],[151.805908203125,-25.73308684688088,151.4038],[151.81513671875,-25.72210051875588,139.4848],[151.80771484375003,-25.715850518755886,130.965],[151.81298828125,-25.70916106563088,181.5064],[151.81416015625,-25.706084893755886,151.4261],[151.81513671875,-25.70159270625588,131.0869],[151.79648437500003,-25.69793059688088,149.0632],[151.78212890625002,-25.684405206255889,146.3808],[151.756591796875,-25.65032317500588,124.1424],[151.75048828125,-25.64690520625588,117.7793],[151.74609375,-25.648467706255886,115.4819],[151.74169921875,-25.651885675005886,115.8968],[151.73593750000003,-25.65374114375588,111.3121],[151.73281250000002,-25.65203215938088,102.4112],[151.73007812500003,-25.64788176875588,112.6689],[151.72792968750002,-25.64348723750588,103.8396],[151.72568359375003,-25.640655206255886,100.2376],[151.71640625000003,-25.633819268755886,106.4808],[151.70546875000002,-25.62029387813088,106.393],[151.696875,-25.614288018755886,100.0296]]}}