{"type":"Feature","properties":{"featurecla":"River","scalerank":6,"rivernum":314,"dissolve":"314River","name":"Mitchell","name_alt":null,"note":null,"min_zoom":5.0,"strokeweig":0.15,"name_en":"Mitchell","min_label":6.0},
"geometry":{"type": "LineString","coordinates": [[143.46875,-16.48430755000588,114.7382],[143.445068359375,-16.48552825313088,115.5007],[143.43271484375003,-16.49553801875588,117.4362],[143.422119140625,-16.500518487505886,111.5079],[143.387939453125,-16.476397393755889,107.6379],[143.3310546875,-16.450225518755886,107.1763],[143.3154296875,-16.45183684688088,107.1169],[143.28955078125,-16.44597747188088,107.3249],[143.262939453125,-16.436358331255889,89.4833],[143.245361328125,-16.426299737505886,104.1401],[143.238037109375,-16.424346612505886,100.5366],[143.20400390625002,-16.429717706255886,93.4856],[143.193603515625,-16.42693450313088,102.7993],[143.1826171875,-16.42034270625588,98.251],[143.16650390625,-16.408038018755889,94.8783],[143.138427734375,-16.38030364375588,94.3018]]}}