{"type":"Feature","properties":{"featurecla":"River","scalerank":6,"rivernum":314,"dissolve":"314River","name":"Mitchell2","name_alt":null,"note":null,"min_zoom":5.0,"strokeweig":0.25,"name_en":"Mitchell","min_label":6.0},
"geometry":{"type": "LineString","coordinates": [[142.27109375000003,-15.87420012813088,41.7678],[142.25537109375,-15.83318450313088,38.0516],[142.24853515625,-15.799151300005889,39.9618],[142.243896484375,-15.79338958125588,39.6677],[142.23085937500002,-15.780108331255889,36.717],[142.22802734375,-15.774932550005886,36.4713],[142.22236328125,-15.76946380000588,35.9632],[142.172119140625,-15.70281340938088,32.3363],[142.16591796875002,-15.697295831255886,32.3351],[142.157470703125,-15.69304778438088,30.9308],[142.13779296875003,-15.686358331255889,34.6119],[142.12841796875,-15.67962005000588,33.4045],[142.11123046875002,-15.65862395625588,31.154],[142.102294921875,-15.63909270625588,27.2396],[142.084228515625,-15.57537200313088,24.7222],[142.075439453125,-15.55803801875588,19.7414],[142.06494140625,-15.542315362505889,23.3012],[142.038818359375,-15.51213958125588,20.2018],[141.99814453125003,-15.441729425005889,16.2984],[141.9638671875,-15.40520598750588,13.5787],[141.95253906250002,-15.385088800005889,19.5716],[141.95830078125005,-15.37053801875588,15.2553],[141.96748046875,-15.356963800005886,10.9101],[141.96728515625,-15.33977630000588,11.1938],[141.95556640625,-15.32830169063088,10.3628],[141.920654296875,-15.308135675005886,8.139],[141.91328125,-15.295733331255889,8.0587],[141.90488281250003,-15.28557708125588,6.7391],[141.8857421875,-15.28533294063088,10.2233],[141.85117187500003,-15.29192473750588,9.479],[141.832763671875,-15.28923919063088,7.6809],[141.8125,-15.281280206255886,6.724],[141.79599609375003,-15.269366143755889,5.4677],[141.78916015625003,-15.25408294063088,5.1317],[141.78583984375,-15.24993255000588,0.5],[141.76914062500003,-15.234405206255886,0.3134],[141.761962890625,-15.22991301875588,1.4488],[141.74755859375,-15.226885675005889,1.017],[141.73974609375,-15.228545831255886,4.7247],[141.73291015625,-15.232745050005889,4.6556],[141.696533203125,-15.243682550005886,3.3864],[141.69013671875,-15.244170831255886,4.7236],[141.68408203125,-15.241045831255889,4.5724],[141.66552734375,-15.226885675005889,0.0],[141.655517578125,-15.223663018755886,0.0],[141.63632812500003,-15.221514581255889,2.8644],[141.61582031250003,-15.215362237505886,0.0],[141.60429687500005,-15.203155206255886,0.8201]]}}