{"type":"Feature","properties":{"featurecla":"River","scalerank":9,"rivernum":1100,"dissolve":"1100River","name":"Burnett1","name_alt":null,"note":null,"min_zoom":7.1,"strokeweig":0.2,"name_en":"Burnett","min_label":8.1},
"geometry":{"type": "LineString","coordinates": [[151.696875,-25.614288018755886,100.0296],[151.69169921875005,-25.61223723750588,104.7483],[151.685546875,-25.615557550005889,109.2411],[151.68125,-25.617022393755889,127.8051],[151.67050781250003,-25.61956145625588,113.6425],[151.67587890625003,-25.60662200313088,106.3025],[151.673095703125,-25.59612395625588,103.6885],[151.6640625,-25.588702081255889,85.5871],[151.65009765625,-25.58489348750588,104.6407],[151.655029296875,-25.571807550005886,79.0891],[151.666259765625,-25.55046965938088,101.2573],[151.67050781250003,-25.537627862505886,97.714],[151.67041015625,-25.527862237505886,97.1507],[151.6650390625,-25.50090911250588,114.4524],[151.66367187500003,-25.48552825313088,96.155],[151.666015625,-25.467803643755886,70.3391],[151.67138671875,-25.45745208125588,95.2586],[151.678125,-25.44988372188088,79.822],[151.68417968750003,-25.44085051875588,90.2657],[151.69082031250002,-25.41130950313088,129.7799],[151.69677734375,-25.397979425005886,89.9114],[151.708740234375,-25.39251067500588,84.8687],[151.76523437500003,-25.394561456255886,68.3935],[151.784912109375,-25.38738372188088,70.7201],[151.801513671875,-25.365752862505886,79.1981],[151.814453125,-25.34099700313088,78.1938],[151.82041015625003,-25.33855559688088,75.0939],[151.83193359375002,-25.338409112505886,66.0266],[151.84042968750003,-25.342803643755886,65.0],[151.84921875000003,-25.350127862505886,66.8144],[151.85898437500003,-25.351592706255886,65.0],[151.869873046875,-25.338409112505886,65.7243],[151.87919921875005,-25.357745050005889,65.5703],[151.89560546875003,-25.353545831255886,65.0],[151.912841796875,-25.33831145625588,60.7015],[151.939697265625,-25.30388762813088,91.508],[151.95693359375002,-25.28850676875588,34.5478],[151.9765625,-25.28411223750588,61.0102],[151.99951171875,-25.29680755000588,48.7918],[152.02412109375,-25.254229425005889,59.2827],[151.987060546875,-25.13225676875588,28.8947],[152.02001953125,-25.08513762813088,33.4224],[152.03515625,-25.087237237505889,28.2822],[152.04443359375,-25.07317473750588,65.3597],[152.0517578125,-25.055010675005889,39.6474],[152.06093750000002,-25.044268487505889,32.522],[152.07167968750002,-25.04461028438088,49.7072],[152.080322265625,-25.04924895625588,23.3552],[152.08701171875003,-25.05462005000588,13.594],[152.09228515625,-25.05730559688088,25.4688],[152.105712890625,-25.052764581255886,55.1012],[152.1103515625,-25.042315362505889,61.8809],[152.109375,-25.01970794063088,30.2773],[152.10683593750002,-25.00896575313088,31.9467],[152.10195312500002,-25.00237395625588,29.1517],[152.09912109375,-24.99504973750588,39.5763],[152.1025390625,-24.982256768755889,30.0374],[152.10605468750003,-24.97820403438088,22.0253],[152.11240234375003,-24.973663018755886,29.5364],[152.11972656250003,-24.970049737505889,19.8264],[152.12646484375,-24.96843840938088,11.7841],[152.13222656250002,-24.96892669063088,11.9076],[152.13730468750003,-24.96990325313088,25.747],[152.1416015625,-24.97161223750588,27.9372],[152.14541015625002,-24.97356536250588,22.7062]]}}