{"type":"Feature","properties":{"featurecla":"River","scalerank":8,"rivernum":746,"dissolve":"746River","name":"Burdekin","name_alt":null,"note":null,"min_zoom":7.0,"strokeweig":0.15,"name_en":"Burdekin","min_label":8.0},
"geometry":{"type": "LineString","coordinates": [[145.548095703125,-19.188311456255889,346.5809],[145.557373046875,-19.18303801875588,391.3379],[145.56992187500003,-19.178545831255889,349.9739],[145.5810546875,-19.171905206255886,361.061],[145.5859375,-19.160479425005889,356.238],[145.588134765625,-19.14666106563088,340.2365],[145.59423828125,-19.137237237505886,348.3659],[145.61328125,-19.122881768755889,349.7274],[145.67138671875,-19.105987237505886,346.1158],[145.68212890625,-19.105791925005889,340.343],[145.68740234375002,-19.100909112505889,325.243],[145.698974609375,-19.102569268755886,360.7186],[145.711669921875,-19.107745050005889,341.5451],[145.71933593750003,-19.112627862505889,351.0496],[145.72451171875002,-19.122393487505889,351.0152],[145.72900390625,-19.14544036250588,351.0774],[145.73603515625,-19.157061456255889,331.1687],[145.7501953125,-19.16668059688088,306.8803],[145.763671875,-19.172881768755886,328.7335],[145.77382812500002,-19.184112237505886,304.7225],[145.78037109375003,-19.22527434688088,323.2351],[145.78701171875002,-19.24163176875588,321.3476],[145.8251953125,-19.30559661250588,307.4404],[145.830078125,-19.321319268755886,317.3224],[145.83173828125,-19.34539153438088,312.8628]]}}