{"type":"Feature","properties":{"featurecla":"River","scalerank":8,"rivernum":746,"dissolve":"746River","name":"Burdekin2","name_alt":null,"note":null,"min_zoom":7.0,"strokeweig":0.25,"name_en":"Burdekin","min_label":8.0},
"geometry":{"type": "LineString","coordinates": [[146.85400390625,-20.328936456255889,188.1183],[146.85751953125003,-20.366534112505889,173.5755],[146.876220703125,-20.388506768755889,171.8349],[146.90576171875,-20.394366143755889,163.0614],[146.942138671875,-20.38347747188088,167.7013],[146.968017578125,-20.39983489375588,153.5],[146.9658203125,-20.41912200313088,162.1975],[146.95615234375003,-20.43865325313088,160.4119],[146.959228515625,-20.45549895625588,162.6801],[146.974609375,-20.475127862505886,158.8123],[146.997314453125,-20.541045831255886,152.0],[147.028076171875,-20.592608331255889,156.6506],[147.031494140625,-20.61345794063088,152.0],[147.034423828125,-20.619659112505886,152.0],[147.04179687500005,-20.62297942500588,152.0],[147.05166015625002,-20.62420012813088,152.0],[147.06162109375003,-20.624346612505889,152.0],[147.06748046875003,-20.62224700313088,152.0],[147.072021484375,-20.61858489375588,235.9126],[147.07666015625,-20.616729425005886,177.1822],[147.082763671875,-20.62053801875588,194.3429],[147.084228515625,-20.62542083125588,168.0425],[147.086181640625,-20.64153411250588,152.0],[147.086181640625,-20.644854425005889,152.0],[147.09794921875005,-20.64446380000588,152.0],[147.10517578125,-20.63933684688088,152.0],[147.10996093750003,-20.63347747188088,152.0],[147.11337890625003,-20.63054778438088,152.0],[147.12656250000003,-20.632842706255886,159.0194],[147.1466796875,-20.642608331255886,237.4887],[147.158203125,-20.644854425005889,211.874],[147.168212890625,-20.63713958125588,120.8017],[147.202880859375,-20.60100676875588,129.9125],[147.21640625000003,-20.58953215938088,161.4058],[147.25087890625002,-20.57048919063088,84.7311],[147.281982421875,-20.54485442500588,131.7757],[147.29287109375002,-20.52678801875588,101.324],[147.29375,-20.506866143755886,88.1212],[147.291259765625,-20.486163018755889,128.8333],[147.292236328125,-20.46599700313088,61.4047],[147.302734375,-20.447295831255886,75.9177],[147.35361328125003,-20.39714934688088,48.5],[147.34482421875003,-20.38005950313088,86.0724],[147.33349609375,-20.36419036250588,81.8809],[147.32373046875,-20.347002862505889,68.0207],[147.319580078125,-20.32512786250588,63.8983],[147.319580078125,-20.23943450313088,62.1298],[147.29941406250003,-20.11248137813088,50.2103],[147.30039062500003,-20.054522393755889,46.0731],[147.29833984375,-20.046905206255886,45.2048],[147.292236328125,-20.034014581255889,43.4761],[147.2783203125,-20.013702081255886,55.3679],[147.273681640625,-20.003936456255886,49.4142],[147.26718750000003,-19.966338800005886,39.1984],[147.24550781250002,-19.931670831255886,39.4386],[147.23759765625005,-19.911163018755886,35.2021],[147.23398437500003,-19.86712005000588,19.0],[147.23837890625003,-19.821807550005886,31.4356],[147.2490234375,-19.77996184688088,27.7941],[147.26425781250003,-19.74602630000588,8.8353],[147.295654296875,-19.708526300005886,15.3998],[147.30625,-19.70305755000588,14.4993],[147.3330078125,-19.699737237505886,9.7569],[147.34375,-19.69475676875588,19.8819],[147.41201171875002,-19.62004973750588,14.9582],[147.43359375,-19.61394622188088,10.9231],[147.46103515625003,-19.62200286250588,7.6836],[147.50390625,-19.64421965938088,9.0408],[147.59326171875,-19.677764581255886,0.0]]}}