{"type":"Feature","properties":{"featurecla":"River","scalerank":9,"rivernum":1100,"dissolve":"1100River","name":"Burnett2","name_alt":null,"note":null,"min_zoom":7.1,"strokeweig":0.25,"name_en":"Burnett","min_label":8.1},
"geometry":{"type": "LineString","coordinates": [[152.14541015625002,-24.97356536250588,22.7062],[152.16201171875002,-24.98967864375588,22.0679],[152.17128906250002,-24.995147393755886,21.5145],[152.18505859375,-24.995147393755886,53.3118],[152.17763671875002,-24.982256768755889,14.0104],[152.18427734375,-24.98162200313088,25.4141],[152.18896484375,-24.97966887813088,19.0474],[152.19326171875002,-24.97722747188088,23.0036],[152.19873046875,-24.97527434688088,17.8637],[152.18613281250003,-24.962432550005886,20.9208],[152.185791015625,-24.95281340938088,32.313],[152.193603515625,-24.945635675005889,21.4616],[152.20556640625,-24.94060637813088,3.3837],[152.22119140625,-24.93816497188088,16.9319],[152.231640625,-24.939288018755889,21.6722],[152.23935546875003,-24.93767669063088,19.9212],[152.24716796875003,-24.92693450313088,9.9325],[152.24746093750002,-24.91936614375588,19.3138],[152.24501953125002,-24.911944268755889,14.4706],[152.24677734375,-24.90349700313088,21.4265],[152.26025390625,-24.89275481563088,12.235],[152.271240234375,-24.88787200313088,18.6224],[152.29267578125,-24.882354425005886,0.0],[152.349609375,-24.85857512813088,9.384],[152.359375,-24.85198333125588,5.058],[152.36318359375002,-24.84563567500588,5.3103],[152.38242187500003,-24.78191497188088,0.0],[152.390869140625,-24.762530206255889,4.2711],[152.40478515625,-24.74871184688088,0.0]]}}