{"type":"Feature","properties":{"featurecla":"River","scalerank":3,"rivernum":76,"dissolve":"76River","name":"Weir","name_alt":null,"note":null,"min_zoom":3.0,"strokeweig":0.15,"name_en":"Weir","min_label":4.0},
"geometry":{"type": "LineString","coordinates": [[151.863037109375,-28.739288018755886,771.2268],[151.78408203125002,-28.76702239375588,686.5969],[151.72900390625,-28.774248956255889,734.3997],[151.71230468750002,-28.78020598750588,672.3582],[151.70400390625002,-28.78801848750588,634.2667],[151.634033203125,-28.89324309688088,777.4583],[151.61611328125002,-28.911163018755886,717.7877],[151.59726562500003,-28.921416925005886,507.9108],[151.57705078125002,-28.92913176875588,391.37],[151.56064453125003,-28.938995050005886,385.4666],[151.553955078125,-28.95525481563088,375.5107]]}}