{"type":"Feature","properties":{"featurecla":"River","scalerank":8,"rivernum":962,"dissolve":"962River","name":"Fitzroy","name_alt":null,"note":null,"min_zoom":7.0,"strokeweig":0.25,"name_en":"Fitzroy","min_label":8.0},
"geometry":{"type": "LineString","coordinates": [[149.67343750000003,-23.53289153438088,65.1413],[149.71709183170475,-23.551849943497011,65.7507],[149.73809765687102,-23.576123876076178,63.005],[149.75025590472077,-23.604493121058919,53.572],[149.76106323614277,-23.619353201764163,61.7373],[149.775923316848,-23.62205503461966,46.4412],[149.79078339755327,-23.615300452480913,58.6656],[149.80699439468626,-23.593685789636922,51.7669],[149.84617097109097,-23.580176625359428,52.4727],[149.873189299646,-23.582878458214925,63.3939],[149.888319948682,-23.599591347013522,56.6766],[149.91641862533396,-23.608545870342166,60.682],[149.92992778961144,-23.600440371775669,54.4649],[149.93262962246695,-23.577474792503928,41.8474],[149.94884061959993,-23.561263795370934,53.1961],[149.97720986458268,-23.559912878943184,47.1934],[150.00017544385443,-23.55180738037669,58.5892],[149.99477177814342,-23.534245466815946,57.629],[149.96910436601618,-23.523438135393949,50.9133],[149.95694611816643,-23.508578054688705,124.1534],[149.96502894151104,-23.493535816367451,55.4991],[149.99612269457117,-23.489665224700214,47.3575],[150.01773735741517,-23.476156060422717,50.9114],[150.00557910956542,-23.459945063289723,50.3007],[149.97585894815492,-23.453190481150976,44.7244],[149.96099886744969,-23.442383149728983,30.5439],[149.96099886744969,-23.416715737601741,52.7038],[149.94208603746119,-23.412662988318491,46.6033],[149.91506770890621,-23.415364821173991,35.8944],[149.90966404319522,-23.403206573324248,61.7188],[149.91641862533396,-23.378890077624757,48.2019],[149.91371679247845,-23.350520832642019,48.9581],[149.88940029677897,-23.338362584792272,44.3005],[149.88804938035122,-23.323502504087028,29.7514],[149.9015585446287,-23.318098838376031,33.7597],[149.92452412390045,-23.305940590526284,23.5533],[149.93533145532245,-23.276220429115796,28.7579],[149.94073512103344,-23.245149351277558,45.4167],[149.92992778961144,-23.222183772005817,44.5098],[149.91641862533396,-23.199218192734076,22.0641],[149.916259765625,-23.164092706255886,17.0],[149.9130859375,-23.159209893755886,28.9389],[149.8818359375,-23.128741143755889,41.4603],[149.87607421875003,-23.12127044063088,39.6222],[149.87998046875003,-23.094268487505886,36.7641],[149.890625,-23.08928801875588,17.1941],[149.90566406250002,-23.094268487505886,31.4012],[149.92333984375,-23.09710051875588,43.5247],[149.9298828125,-23.091338800005886,39.6487],[149.935302734375,-23.08147551875588,33.4669],[149.94248046875003,-23.07512786250588,31.1171],[149.95468750000003,-23.080108331255886,28.0099],[149.97314453125,-23.090655206255889,32.0356],[149.98876953125,-23.09710051875588,28.6655],[150.00927734375,-23.09172942500588,29.1945],[150.02509765625,-23.078155206255886,42.6798],[150.037353515625,-23.06047942500588,44.7512],[150.04677734375002,-23.042510675005886,25.8104],[150.06210937500003,-23.05706145625588,36.2129],[150.06884765625,-23.07512786250588,25.2001],[150.07724609375003,-23.090655206255889,78.2538],[150.12021484375003,-23.10442473750588,31.18],[150.1435546875,-23.13713958125588,17.8694],[150.16347656250002,-23.145538018755886,5.8516],[150.18369140625003,-23.14202239375588,27.2903],[150.21435546875,-23.12224700313088,24.2652],[150.23525390625002,-23.11760833125588,24.2699],[150.256103515625,-23.120635675005886,24.692],[150.313720703125,-23.145538018755886,19.1941],[150.37568359375,-23.15667083125588,16.0347],[150.39248046875002,-23.16912200313088,16.6089],[150.400634765625,-23.190948175005886,12.2576],[150.38730468750003,-23.204913018755889,13.8727],[150.367431640625,-23.219073175005889,14.056],[150.35517578125,-23.24114348750588,14.8057],[150.36103515625,-23.259795831255886,11.6608],[150.379638671875,-23.26043059688088,14.2877],[150.4201171875,-23.248565362505886,9.8717],[150.43017578125,-23.259795831255886,4.6508],[150.4650390625,-23.33049895625588,1.5],[150.47207031250002,-23.332354425005889,10.7459],[150.48095703125,-23.331084893755886,13.0964],[150.48867187500002,-23.33220794063088,8.9174],[150.4951171875,-23.34978606563088,10.2204],[150.509765625,-23.360870050005886,15.4898],[150.5205078125,-23.38201262813088,0.0],[150.53847656250002,-23.388702081255886,7.1582],[150.55898437500002,-23.38933684688088,5.6664],[150.575,-23.38518645625588,36.6491],[150.58642578125,-23.421905206255886,7.0415],[150.60781250000002,-23.448272393755886,0.0],[150.670654296875,-23.488799737505886,1.3777],[150.70654296875,-23.50310637813088,0.0],[150.82138671875003,-23.50920989375588,0.0]]}}