{"type":"Feature","properties":{"featurecla":"River","scalerank":8,"rivernum":785,"dissolve":"785River","name":"Mackenzie1","name_alt":null,"note":null,"min_zoom":7.0,"strokeweig":0.2,"name_en":"Mackenzie","min_label":8.0},
"geometry":{"type": "LineString","coordinates": [[148.75185546875002,-25.160967706255889,286.1714],[148.74589843750005,-25.128936456255886,279.0816],[148.74169921875,-25.070147393755889,267.7244],[148.73505859375,-25.05364348750588,265.4705],[148.72451171875002,-25.041827081255889,266.0005],[148.69140625,-25.01482512813088,261.0],[148.67373046875002,-24.99529387813088,261.0],[148.66044921875005,-24.973467706255889,271.3203],[148.6552734375,-24.95110442500588,269.8825],[148.658935546875,-24.928741143755886,291.7212],[148.70761718750003,-24.828643487505886,245.4596],[148.71464843750005,-24.80925872188088,241.8048],[148.71728515625,-24.786651300005886,239.4188],[148.71484375,-24.723174737505886,234.5474],[148.71728515625,-24.701006768755889,227.1185],[148.720458984375,-24.690459893755886,227.3266],[148.728759765625,-24.67131926875588,223.5252],[148.73095703125,-24.66008880000588,224.9669],[148.7294921875,-24.647002862505886,231.0117],[148.71962890625002,-24.62615325313088,219.298],[148.71728515625,-24.61565520625588,219.92],[148.70947265625,-24.59954192500588,216.6126],[148.6552734375,-24.563799737505889,211.4895],[148.63916015625,-24.53045012813088,208.8769],[148.63193359375003,-24.50652434688088,207.0562],[148.63876953125003,-24.49553801875588,207.4612],[148.642578125,-24.484405206255886,205.3946],[148.63046875000003,-24.460284112505889,230.3434],[148.607421875,-24.427276300005886,208.4977],[148.600341796875,-24.411944268755889,202.9367],[148.592041015625,-24.38616301875588,200.5065],[148.590576171875,-24.36223723750588,202.4786],[148.60400390625,-24.35149505000588,203.0587],[148.61474609375,-24.340362237505886,207.2258],[148.6181640625,-24.314971612505886,202.2042],[148.61708984375002,-24.287432550005889,197.512],[148.6142578125,-24.269561456255886,195.7393],[148.608154296875,-24.257354425005886,201.7362],[148.590576171875,-24.230791925005889,192.6248],[148.5869140625,-24.217803643755886,190.9429],[148.58652343750003,-24.20110442500588,189.4638],[148.5875,-24.19353606563088,188.6367],[148.607421875,-24.173370050005886,191.8545],[148.57470703125,-24.138506768755889,186.9977],[148.56416015625,-24.12127044063088,186.541],[148.560302734375,-24.101397393755889,188.73],[148.55712890625,-24.098955987505889,185.4283],[148.54443359375,-24.081866143755889,179.0592],[148.54287109375002,-24.07781340938088,178.0],[148.54531250000002,-24.07219817500588,181.8329],[148.503173828125,-23.971709893755886,173.101],[148.49658203125,-23.94207122188088,171.5336],[148.48681640625,-23.92180755000588,169.1595],[148.48447265625003,-23.90960051875588,173.4861],[148.48574218750002,-23.898272393755889,170.0771],[148.489013671875,-23.89006926875588,168.0771],[148.49892578125002,-23.87175872188088,166.1215],[148.505859375,-23.851104425005886,166.8751],[148.509765625,-23.830889581255889,162.9168],[148.51181640625003,-23.78606536250588,162.2725],[148.50751953125,-23.76751067500588,162.5],[148.49853515625,-23.752764581255889,159.2695],[148.49111328125002,-23.73674895625588,158.5974],[148.491455078125,-23.71404387813088,158.4304],[148.496337890625,-23.70476653438088,158.7949],[148.51865234375003,-23.686846612505889,156.4342],[148.53017578125002,-23.662920831255889,160.2496],[148.5419921875,-23.64739348750588,156.8502],[148.54501953125003,-23.637041925005889,168.8221],[148.54599609375003,-23.61443450313088,156.721],[148.5419921875,-23.60125090938088,161.6885],[148.53271484375,-23.597002862505889,152.261],[148.52138671875002,-23.595538018755889,151.2304],[148.51181640625003,-23.590655206255889,149.0779],[148.51513671875,-23.56878020625588,147.9705],[148.60585937500002,-23.540362237505889,139.9362],[148.6359375,-23.515459893755889,146.9204],[148.6279296875,-23.50920989375588,147.3528],[148.65185546875,-23.47722747188088,135.4856],[148.6552734375,-23.47112395625588,141.6549],[148.6591796875,-23.468780206255886,134.9725],[148.68310546875,-23.43352630000588,141.5831],[148.67568359375002,-23.42669036250588,138.4623],[148.68359375,-23.41838958125588,142.2744],[148.70263671875,-23.40276458125588,140.7936],[148.70986328125002,-23.392608331255886,129.4974],[148.710693359375,-23.381182550005889,127.1702],[148.707763671875,-23.36980559688088,132.1837],[148.708740234375,-23.36126067500588,135.4063],[148.720703125,-23.35784270625588,138.8536],[148.73193359375,-23.361163018755889,137.1163],[148.739501953125,-23.36834075313088,134.5004],[148.7443359375,-23.37566497188088,130.7072],[148.747802734375,-23.378936456255886,130.2312],[148.759521484375,-23.37664153438088,135.9998],[148.78554687500002,-23.36467864375588,134.3194],[148.80722656250003,-23.368975518755889,128.1012],[148.82685546875,-23.376299737505889,131.5873],[148.84560546875002,-23.37859465938088,130.6893],[148.86474609375,-23.36809661250588,130.0525],[148.871337890625,-23.34783294063088,136.6963],[148.853515625,-23.302276300005886,127.7555],[148.85390625000002,-23.282745050005886,126.3814],[148.863037109375,-23.272784112505889,83.0389],[148.87294921875002,-23.270538018755886,86.9458],[148.8837890625,-23.27092864375588,126.9216],[148.89541015625002,-23.269073175005886,124.5298],[148.9267578125,-23.251299737505889,126.7676],[148.93320312500003,-23.248565362505886,121.9256],[148.94375,-23.245635675005886,121.0706],[148.9484375,-23.23821380000588,121.9733],[148.95009765625002,-23.22820403438088,115.061],[148.95009765625002,-23.21721770625588,120.3289],[148.95449218750002,-23.210772393755889,119.6861],[148.97607421875,-23.200518487505889,114.7529],[148.98486328125,-23.193389581255886,114.9497],[148.993896484375,-23.167510675005886,116.2343],[148.98525390625002,-23.152862237505886,117.214],[148.97119140625,-23.14202239375588,117.215],[148.96376953125002,-23.128252862505889,121.9974],[148.96962890625002,-23.10735442500588,113.4495],[148.98447265625003,-23.097002862505889,113.9468],[149.02578125000002,-23.083526300005886,113.7234],[149.04375,-23.068194268755889,111.7208],[149.053125,-23.06292083125588,111.216],[149.08330078125005,-23.05632903438088,109.696],[149.09091796875003,-23.05242278438088,108.986],[149.10751953125003,-23.04656340938088,107.4446],[149.17666015625002,-23.049346612505886,101.548],[149.19619140625002,-23.04265715938088,106.2713],[149.21376953125002,-23.031084893755889,98.6291],[149.22646484375002,-23.01580169063088,102.0536],[149.23125,-22.99846770625588,89.3627],[149.23496093750003,-22.99089934688088,95.7806],[149.26621093750003,-22.96746184688088,90.4703],[149.271484375,-22.96648528438088,99.2445],[149.28281250000003,-22.966827081255886,100.037],[149.28681640625,-22.964385675005886,99.7665],[149.28662109375,-22.958819268755889,99.8868],[149.28525390625003,-22.95208098750588,99.0919],[149.28652343750002,-22.94695403438088,95.9653],[149.306396484375,-22.91961028438088,85.8988],[149.31875,-22.89006926875588,94.6277],[149.32373046875,-22.88176848750588,94.1245],[149.343017578125,-22.875518487505886,98.4126],[149.368896484375,-22.88372161250588,93.5098],[149.3935546875,-22.898467706255886,92.9809],[149.409423828125,-22.912139581255886,95.2726],[149.41660156250003,-22.92644622188088,86.9058],[149.42841796875,-22.97161223750588,93.6749],[149.430419921875,-22.991241143755886,86.4278],[149.436279296875,-23.013995050005889,93.2381],[149.45,-23.02556731563088,86.1666],[149.4658203125,-23.032745050005886,85.7231],[149.478271484375,-23.042510675005886,90.6139],[149.48232421875002,-23.052276300005886,88.6928],[149.48505859375,-23.083526300005886,87.9189],[149.50244140625,-23.117217706255886,86.1326],[149.50498046875003,-23.128252862505889,83.6246],[149.50283203125002,-23.13933684688088,88.3246],[149.493359375,-23.158233331255886,80.0125],[149.4912109375,-23.16912200313088,80.7415],[149.4931640625,-23.18425872188088,80.9981],[149.498779296875,-23.18865325313088,80.4733],[149.50771484375002,-23.18938567500588,82.7977],[149.53457031250002,-23.20012786250588,87.7053],[149.54179687500005,-23.20525481563088,91.5374],[149.54648437500003,-23.21379973750588,89.5883],[149.546875,-23.223663018755886,88.0267],[149.54355468750003,-23.237334893755886,77.3098],[149.53574218750003,-23.249541925005886,78.2847],[149.52265625,-23.25481536250588,85.8265],[149.514892578125,-23.259795831255886,89.4435],[149.511474609375,-23.271319268755889,78.3271],[149.511962890625,-23.28411223750588,78.1151],[149.515869140625,-23.29290130000588,78.5118],[149.5234375,-23.304522393755889,77.1332],[149.52412109375,-23.31511809688088,58.3144],[149.51923828125,-23.33733489375588,75.5554],[149.514892578125,-23.34856536250588,75.1747],[149.509521484375,-23.35466887813088,72.9508],[149.50888671875003,-23.36052825313088,72.4092],[149.51923828125,-23.37151458125588,74.7086],[149.52646484375003,-23.37590911250588,72.9206],[149.534912109375,-23.37810637813088,73.429],[149.55673828125003,-23.378936456255886,68.5923],[149.577392578125,-23.38567473750588,66.8466],[149.58964843750005,-23.402666925005889,71.4102],[149.6064453125,-23.471026300005889,64.9792],[149.61376953125,-23.49065520625588,67.2588],[149.6279296875,-23.504229425005889,67.3926],[149.653076171875,-23.50920989375588,62.7056],[149.65732421875003,-23.512237237505886,60.6167],[149.67343750000003,-23.53289153438088,65.1413]]}}