{"type": "Feature","bbox": [141.5832,-16.3645,145.4798,-10.9985],"geometry": {"type": "MultiPolygon","coordinates": [[[[145.4456,-15.7478,1.2916],[145.4443,-15.7455,3.6703],[145.4426,-15.7455,3.6703],[145.4439,-15.7538,0.2278],[145.4464,-15.7527,6.7764],[145.4456,-15.7478,1.2916]]],
[[[145.4579,-15.7303,0.0],[145.4586,-15.7297,0.0],[145.4585,-15.7282,0.0],[145.4567,-15.7294,0.0],[145.4579,-15.7303,0.0]]],
[[[145.3503,-15.5294,0.0],[145.3486,-15.5301,0.0],[145.3488,-15.5304,0.0],[145.35,-15.5301,0.0],[145.3503,-15.5294,0.0]]],
[[[145.4172,-15.1148,0.0],[145.4172,-15.1156,0.0],[145.4182,-15.1166,0.0],[145.4175,-15.1149,0.0],[145.4172,-15.1148,0.0]]],
[[[145.335,-15.6073,0.0],[145.336,-15.6064,0.0],[145.336,-15.6052,0.0],[145.3339,-15.6061,0.0],[145.335,-15.6073,0.0]]],
[[[145.1579,-15.3935,29.6232],[145.1566,-15.3913,32.7197],[145.1573,-15.3827,52.7098],[145.1509,-15.3822,42.1505],[145.1503,-15.3894,34.9771],[145.1523,-15.391,37.7807],[145.1519,-15.3926,40.5715],[145.1528,-15.3937,33.9805],[145.1562,-15.3926,32.943],[145.1552,-15.4057,22.6895],[145.2007,-15.4075,11.5209],[145.2016,-15.4032,13.4528],[145.1995,-15.4033,17.1386],[145.2,-15.4015,12.4258],[145.2014,-15.4017,12.4258],[145.2013,-15.3991,14.2245],[145.1989,-15.3989,16.3577],[145.195,-15.4026,19.8433],[145.1939,-15.4008,14.9284],[145.1875,-15.3997,18.4711],[145.1889,-15.385,50.1632],[145.177,-15.384,28.396],[145.176,-15.3944,23.372],[145.1743,-15.3951,24.721],[145.1698,-15.3947,25.8131],[145.1676,-15.3907,26.7106],[145.1635,-15.3925,31.3293],[145.1596,-15.3907,30.0807],[145.1594,-15.3937,29.2623],[145.1579,-15.3935,29.6232]]],
[[[145.0782,-15.2817,59.4028],[145.0765,-15.2971,98.8575],[145.0955,-15.2988,98.5949],[145.0974,-15.2774,50.8327],[145.0962,-15.2754,50.936],[145.0907,-15.2765,60.7075],[145.0894,-15.2751,55.7061],[145.0844,-15.2806,60.5683],[145.0819,-15.2796,57.4638],[145.0782,-15.2817,59.4028]]],
[[[145.3246,-15.139,0.0],[145.3255,-15.1392,0.3468],[145.3249,-15.1377,0.0],[145.3246,-15.1379,0.0],[145.3246,-15.139,0.0]]],
[[[145.4248,-15.1167,1.769],[145.4262,-15.1185,0.7497],[145.4276,-15.1149,5.0281],[145.4244,-15.1117,1.4707],[145.4238,-15.1122,1.4707],[145.4248,-15.1167,1.769]]],
[[[145.418,-15.1123,4.5009],[145.4217,-15.1135,1.8166],[145.4228,-15.1121,3.618],[145.4175,-15.1098,0.6376],[145.418,-15.1123,4.5009]]],
[[[145.385,-15.094,1.5412],[145.3839,-15.092,3.6463],[145.3734,-15.0905,0.5879],[145.3785,-15.096,2.6877],[145.3833,-15.0957,2.671],[145.385,-15.094,1.5412]]],
[[[145.3712,-15.0893,0.0],[145.3711,-15.0903,0.0],[145.3716,-15.0907,0.0],[145.3716,-15.089,0.0],[145.3712,-15.0893,0.0]]],
[[[145.4461,-15.0217,0.0],[145.4458,-15.0241,0.0],[145.4466,-15.025,1.0792],[145.4469,-15.0228,1.317],[145.4461,-15.0217,0.0]]],
[[[145.4357,-15.019,0.7308],[145.4376,-15.0211,6.6849],[145.4419,-15.0194,0.0],[145.4385,-15.0182,8.4877],[145.4357,-15.019,0.7308]]],
[[[145.4701,-14.865,0.0],[145.4703,-14.8657,0.0],[145.4708,-14.8654,0.0],[145.4708,-14.8649,0.0],[145.4701,-14.865,0.0]]],
[[[145.4767,-14.8554,0.0],[145.4746,-14.8572,0.0],[145.4795,-14.8594,0.0],[145.4798,-14.8584,0.0],[145.4767,-14.8554,0.0]]],
[[[145.3041,-15.1316,0.0],[145.3048,-15.1329,0.0],[145.3058,-15.1328,0.0],[145.3055,-15.1323,0.0],[145.3041,-15.1316,0.0]]],
[[[145.0834,-14.7364,2.6288],[145.0848,-14.7364,0.0],[145.0848,-14.736,0.0],[145.0842,-14.7356,0.0],[145.0834,-14.7364,2.6288]]],
[[[145.1998,-14.7355,-0.5],[145.1974,-14.7348,1.0031],[145.1993,-14.7362,2.117],[145.2054,-14.7359,0.3227],[145.2023,-14.7334,1.1127],[145.2009,-14.7337,2.0618],[145.2017,-14.7358,3.9428],[145.1998,-14.7355,-0.5]]],
[[[145.1881,-14.7337,0.0],[145.1865,-14.7323,1.277],[145.1835,-14.733,2.2184],[145.1881,-14.7354,0.9523],[145.1893,-14.7349,0.0],[145.1881,-14.7337,0.0]]],
[[[145.1005,-14.7309,0.0],[145.1005,-14.7319,1.5705],[145.1018,-14.7308,0.0],[145.1008,-14.7304,0.0],[145.1005,-14.7309,0.0]]],
[[[145.1788,-14.7297,0.0],[145.1798,-14.729,0.0],[145.1795,-14.7285,0.0],[145.1787,-14.729,0.0],[145.1788,-14.7297,0.0]]],
[[[145.1997,-14.7209,0.7267],[145.201,-14.7212,0.7267],[145.202,-14.7203,0.4636],[145.1998,-14.7202,0.7267],[145.1997,-14.7209,0.7267]]],
[[[145.1937,-14.7136,1.3973],[145.1947,-14.7126,0.2576],[145.1932,-14.7122,0.0],[145.1923,-14.714,0.9091],[145.1937,-14.7136,1.3973]]],
[[[145.4563,-14.6999,43.1688],[145.4526,-14.6994,0.0],[145.4516,-14.7029,35.2714],[145.4532,-14.7043,4.7054],[145.4539,-14.7033,4.7054],[145.4583,-14.7043,5.4365],[145.4563,-14.6999,43.1688]]],
[[[145.3762,-14.6968,0.0],[145.3771,-14.6971,1.1124],[145.3791,-14.6954,0.158],[145.3765,-14.6963,1.1124],[145.3762,-14.6968,0.0]]],
[[[145.4503,-14.6909,24.5879],[145.4477,-14.6893,0.0],[145.4419,-14.6918,12.7126],[145.4453,-14.696,20.5822],[145.4502,-14.695,0.0],[145.4503,-14.6909,24.5879]]],
[[[145.4661,-14.6909,0.0],[145.4653,-14.6907,0.0],[145.465,-14.6911,0.0],[145.466,-14.6913,0.0],[145.4661,-14.6909,0.0]]],
[[[145.4681,-14.6579,0.0],[145.4668,-14.6546,60.5584],[145.4584,-14.6474,13.033],[145.4553,-14.6464,13.7084],[145.4543,-14.6487,16.3745],[145.4507,-14.6478,3.741],[145.452,-14.6524,17.9183],[145.451,-14.6559,36.7906],[145.4547,-14.6619,9.3918],[145.4516,-14.6656,1.5727],[145.4489,-14.665,3.5654],[145.4424,-14.6708,6.1804],[145.4482,-14.6814,0.0],[145.4621,-14.6794,14.1814],[145.4627,-14.6822,0.9166],[145.4657,-14.6814,0.0],[145.4717,-14.6868,0.0],[145.469,-14.6826,5.393],[145.4692,-14.6793,0.0],[145.4709,-14.677,3.4332],[145.4745,-14.6765,0.9997],[145.4785,-14.671,0.0],[145.4776,-14.668,0.0],[145.4744,-14.6654,34.156],[145.4747,-14.661,2.4175],[145.4713,-14.6605,7.8653],[145.4681,-14.6579,0.0]]],
[[[145.2031,-14.7048,0.0],[145.2045,-14.7048,0.4573],[145.2061,-14.7035,0.0],[145.2025,-14.7029,0.2181],[145.2031,-14.7048,0.0]]],
[[[145.2506,-14.6571,0.1718],[145.2541,-14.6578,-1.738],[145.2562,-14.6564,1.8511],[145.257,-14.6551,-3.3333],[145.2544,-14.6494,0.0],[145.2501,-14.6505,1.2353],[145.2489,-14.6547,-0.9106],[145.2495,-14.6563,0.1718],[145.2504,-14.6546,-0.9106],[145.2548,-14.6533,2.8525],[145.2561,-14.6538,-1.2345],[145.2555,-14.6565,1.8511],[145.253,-14.6573,-3.6093],[145.2515,-14.6567,-3.6093],[145.2478,-14.6575,0.0],[145.2487,-14.6587,0.0],[145.2506,-14.6571,0.1718]]],
[[[144.9297,-14.6105,0.0],[144.9332,-14.6123,11.6589],[144.9345,-14.6096,0.0],[144.9247,-14.6007,0.0],[144.9232,-14.602,0.0],[144.9242,-14.6053,6.8162],[144.9297,-14.6105,0.0]]],
[[[144.9059,-14.5532,1.201],[144.9068,-14.5545,1.201],[144.9074,-14.5542,0.0],[144.9062,-14.5524,0.0],[144.9059,-14.5532,1.201]]],
[[[144.889,-14.5644,0.0],[144.8908,-14.5613,3.9601],[144.8841,-14.558,0.0],[144.8844,-14.5611,0.0],[144.889,-14.5644,0.0]]],
[[[144.7106,-14.5592,14.0718],[144.7132,-14.559,15.2298],[144.7137,-14.5565,14.9652],[144.706,-14.5549,0.0],[144.7089,-14.5585,12.1353],[144.7106,-14.5592,14.0718]]],
[[[144.8703,-14.5479,0.0],[144.8684,-14.5461,0.0],[144.8669,-14.5466,1.3542],[144.8669,-14.5478,1.3542],[144.8703,-14.5479,0.0]]],
[[[144.7679,-14.4999,0.0],[144.7661,-14.5003,0.0],[144.7654,-14.5027,5.6469],[144.7681,-14.506,0.0],[144.7698,-14.5059,0.0],[144.7696,-14.5013,0.0],[144.7679,-14.4999,0.0]]],
[[[144.902,-14.5527,0.0],[144.9033,-14.5532,0.0],[144.9041,-14.5527,0.4514],[144.9035,-14.5519,0.4514],[144.902,-14.5527,0.0]]],
[[[144.9872,-14.5394,0.0],[144.9873,-14.5418,0.7589],[144.9948,-14.542,0.634],[144.9973,-14.5376,0.5394],[144.9963,-14.536,0.0],[144.994,-14.5376,1.3352],[144.9961,-14.5388,1.8615],[144.9953,-14.5398,3.7166],[144.9872,-14.5394,0.0]]],
[[[144.9706,-14.527,2.4314],[144.9768,-14.5268,2.4766],[144.9809,-14.5226,1.3013],[144.9794,-14.5216,1.3013],[144.9649,-14.5228,0.0],[144.9706,-14.527,2.4314]]],
[[[144.9565,-14.5072,0.0],[144.9572,-14.5067,2.354],[144.9557,-14.5056,0.0],[144.9559,-14.5065,0.0],[144.9565,-14.5072,0.0]]],
[[[144.7617,-14.5,0.0],[144.764,-14.5003,0.0],[144.7641,-14.4996,0.0],[144.7617,-14.5,0.0]]],
[[[144.6994,-14.4755,0.0],[144.6981,-14.4755,0.0],[144.698,-14.4765,0.0],[144.6991,-14.4762,0.0],[144.6994,-14.4755,0.0]]],
[[[144.6958,-14.4738,0.0],[144.6969,-14.4748,0.0],[144.6988,-14.4737,0.0],[144.6979,-14.4728,0.0],[144.6958,-14.4738,0.0]]],
[[[144.8925,-14.4624,0.0],[144.8908,-14.4642,0.0],[144.895,-14.4662,0.0],[144.8947,-14.4643,1.0305],[144.8925,-14.4624,0.0]]],
[[[144.9153,-14.5034,3.6007],[144.9101,-14.5031,0.3837],[144.9122,-14.5084,0.0],[144.9163,-14.5095,1.5679],[144.9194,-14.5054,1.0538],[144.9153,-14.5034,3.6007]]],
[[[144.9896,-14.5019,1.8994],[144.9787,-14.493,2.0641],[144.9749,-14.4934,0.0],[144.9717,-14.4964,0.9964],[144.9581,-14.4983,0.7164],[144.9582,-14.4997,5.7399],[144.9541,-14.4982,0.0],[144.9506,-14.4993,0.6855],[144.9569,-14.5053,3.3396],[144.9562,-14.5032,2.2129],[144.9579,-14.5026,7.4447],[144.9664,-14.5076,3.155],[144.971,-14.5091,4.3289],[144.9727,-14.508,2.0903],[144.9788,-14.5115,3.8087],[144.9896,-14.5088,38.4698],[144.988,-14.5054,5.5503],[144.9896,-14.5049,5.5503],[144.9896,-14.5019,1.8994]]],
[[[144.901,-14.4003,0.4133],[144.9017,-14.4007,1.8512],[144.9038,-14.4,0.0],[144.9019,-14.3999,1.8512],[144.901,-14.4003,0.4133]]],
[[[144.8925,-14.4353,0.0],[144.8923,-14.4353,0.0],[144.8923,-14.4354,0.0],[144.8924,-14.4354,0.0],[144.8925,-14.4353,0.0]]],
[[[144.8923,-14.4348,0.0],[144.8922,-14.4348,0.0],[144.8922,-14.4349,0.0],[144.8924,-14.4348,0.0],[144.8923,-14.4348,0.0]]],
[[[144.891,-14.4351,0.0],[144.8919,-14.4349,0.0],[144.89,-14.434,0.6587],[144.8898,-14.4344,0.6587],[144.891,-14.4351,0.0]]],
[[[144.8138,-14.4346,3.6105],[144.8159,-14.4359,1.1434],[144.818,-14.4322,5.2931],[144.8156,-14.4255,0.7284],[144.8087,-14.428,3.4617],[144.8034,-14.4333,0.4017],[144.8095,-14.4385,0.2225],[144.8144,-14.4376,3.3079],[144.8138,-14.4346,3.6105]]],
[[[144.8877,-14.4331,1.6733],[144.8829,-14.4306,0.9238],[144.8884,-14.4337,1.6733],[144.8881,-14.4333,1.6733],[144.8877,-14.4331,1.6733]]],
[[[144.8805,-14.429,0.0],[144.8813,-14.4296,0.0],[144.8817,-14.4295,0.0],[144.8811,-14.4288,0.0],[144.8805,-14.429,0.0]]],
[[[144.8801,-14.4155,0.0],[144.879,-14.4184,1.1671],[144.8809,-14.4187,0.0],[144.8823,-14.4154,1.2084],[144.8801,-14.4155,0.0]]],
[[[144.6531,-14.3471,0.0],[144.6523,-14.3446,0.0],[144.6511,-14.3448,0.0],[144.6522,-14.3466,0.0],[144.6531,-14.3471,0.0]]],
[[[144.65,-14.3441,10.3048],[144.6465,-14.3423,4.9066],[144.6487,-14.345,3.5556],[144.6504,-14.3453,0.0],[144.65,-14.3441,10.3048]]],
[[[144.8492,-14.3188,0.0],[144.8507,-14.3194,1.7191],[144.8526,-14.3185,0.0],[144.8513,-14.3185,1.7191],[144.8492,-14.3188,0.0]]],
[[[144.5787,-14.2332,0.0],[144.5779,-14.2319,0.0],[144.5768,-14.2333,0.0],[144.5772,-14.2339,0.0],[144.5787,-14.2332,0.0]]],
[[[144.8813,-14.1987,0.0],[144.884,-14.1987,0.0],[144.8848,-14.198,0.0],[144.8818,-14.1977,0.0],[144.8813,-14.1987,0.0]]],
[[[144.2524,-14.2113,1.5851],[144.2514,-14.2087,0.6082],[144.248,-14.2096,0.0],[144.2487,-14.2106,0.0],[144.2524,-14.2113,1.5851]]],
[[[144.2432,-14.208,0.0],[144.2429,-14.2083,0.0],[144.2431,-14.2086,0.0],[144.2435,-14.2082,0.0],[144.2432,-14.208,0.0]]],
[[[144.2774,-14.1742,12.6284],[144.2766,-14.1641,0.0],[144.2727,-14.1582,8.6951],[144.271,-14.1599,4.2331],[144.2577,-14.1633,3.7372],[144.2504,-14.1603,0.0],[144.2496,-14.1636,4.7038],[144.2516,-14.1663,5.4835],[144.2525,-14.1719,3.4401],[144.2503,-14.1748,0.8969],[144.2512,-14.1758,6.6617],[144.2435,-14.1732,5.6791],[144.2321,-14.1751,0.515],[144.2312,-14.184,20.7929],[144.2405,-14.1917,0.0],[144.2543,-14.1929,17.2986],[144.2608,-14.1964,0.0],[144.2723,-14.1958,31.2844],[144.2767,-14.1985,4.8523],[144.2785,-14.1964,5.8927],[144.2833,-14.1951,46.9536],[144.2789,-14.1848,29.5356],[144.2774,-14.1742,12.6284]]],
[[[144.487,-14.1645,0.478],[144.4872,-14.1649,0.0],[144.4875,-14.1649,0.0],[144.4875,-14.1645,0.478],[144.487,-14.1645,0.478]]],
[[[144.5374,-14.1841,0.0],[144.5378,-14.1841,0.0],[144.5377,-14.1827,0.0],[144.5373,-14.1831,0.0],[144.5374,-14.1841,0.0]]],
[[[144.5414,-14.1824,0.0],[144.5407,-14.1824,0.0],[144.5408,-14.1833,0.0],[144.5414,-14.1829,0.0],[144.5414,-14.1824,0.0]]],
[[[144.5295,-14.1142,0.0],[144.529,-14.1214,6.8004],[144.5309,-14.1239,1.9173],[144.5334,-14.1187,0.0],[144.5295,-14.1142,0.0]]],
[[[144.5143,-14.1223,0.0],[144.5145,-14.1215,0.0],[144.5135,-14.1219,0.561],[144.5135,-14.1223,0.561],[144.5143,-14.1223,0.0]]],
[[[144.3405,-14.0899,2.7866],[144.3379,-14.086,0.0],[144.3346,-14.0852,1.4492],[144.3315,-14.0862,0.7888],[144.3303,-14.0894,0.0],[144.3323,-14.0866,1.3155],[144.3356,-14.086,1.1814],[144.3294,-14.0916,2.3619],[144.3313,-14.0929,6.636],[144.328,-14.0931,1.9993],[144.3271,-14.0958,6.1153],[144.3288,-14.0973,5.3732],[144.3259,-14.0963,1.9617],[144.3248,-14.0979,0.0],[144.326,-14.1021,0.4169],[144.3305,-14.1048,0.0],[144.3364,-14.1016,0.3596],[144.3396,-14.096,0.9503],[144.3405,-14.0899,2.7866]]],
[[[144.2557,-14.0771,5.0222],[144.2557,-14.0754,2.9298],[144.2536,-14.0755,0.9784],[144.2541,-14.0768,0.9313],[144.2557,-14.0771,5.0222]]],
[[[144.2549,-14.0728,1.3643],[144.2579,-14.0735,0.0],[144.2563,-14.0709,2.2033],[144.2539,-14.0708,1.6312],[144.2549,-14.0728,1.3643]]],
[[[144.3587,-14.2724,0.0],[144.3588,-14.271,0.0],[144.357,-14.2707,0.0],[144.3574,-14.2732,0.0],[144.3587,-14.2724,0.0]]],
[[[144.3553,-14.2522,2.2015],[144.354,-14.2522,2.2015],[144.3511,-14.2549,0.0],[144.3548,-14.2541,0.0],[144.3553,-14.2522,2.2015]]],
[[[144.2768,-14.2333,7.4832],[144.2786,-14.2251,10.8374],[144.2777,-14.2178,0.0],[144.2759,-14.2164,9.2008],[144.2728,-14.2225,0.5998],[144.2683,-14.223,22.203],[144.2654,-14.2251,8.0501],[144.2611,-14.2246,18.3725],[144.2536,-14.2198,13.6696],[144.2452,-14.221,1.1473],[144.2471,-14.2233,2.4418],[144.2535,-14.2253,13.9627],[144.257,-14.2315,0.0],[144.2639,-14.2333,7.9644],[144.2678,-14.2377,72.1866],[144.2707,-14.2383,16.7122],[144.2768,-14.2333,7.4832]]],
[[[144.2093,-14.2221,5.3921],[144.2025,-14.2304,1.366],[144.2102,-14.2226,12.4812],[144.2289,-14.2155,11.0063],[144.2313,-14.2099,0.0],[144.2288,-14.2061,0.0],[144.2224,-14.2063,64.903],[144.2174,-14.2172,9.7215],[144.2093,-14.2221,5.3921]]],
[[[144.4873,-14.1642,0.478],[144.4883,-14.164,0.0],[144.4883,-14.1635,0.0],[144.4872,-14.1636,0.478],[144.4873,-14.1642,0.478]]],
[[[144.2365,-14.1352,1.5691],[144.236,-14.1361,18.3601],[144.237,-14.133,1.3274],[144.2396,-14.1316,7.1602],[144.2374,-14.1296,10.8902],[144.2305,-14.1332,12.9296],[144.2263,-14.1457,33.317],[144.2264,-14.1497,9.5776],[144.2291,-14.1516,2.4987],[144.2292,-14.1538,1.4905],[144.2199,-14.1636,6.9276],[144.218,-14.1635,6.9276],[144.219,-14.1657,9.5581],[144.2109,-14.1731,8.6777],[144.2094,-14.1848,0.3391],[144.2141,-14.1794,0.0],[144.2157,-14.1744,10.2251],[144.2185,-14.1754,5.2172],[144.221,-14.1744,9.9188],[144.2211,-14.1672,7.842],[144.2249,-14.1688,7.7515],[144.2312,-14.1619,4.6218],[144.2389,-14.1637,7.8581],[144.245,-14.1516,2.399],[144.2508,-14.1501,1.839],[144.2573,-14.1516,0.0],[144.2603,-14.1494,51.891],[144.2676,-14.1499,0.0],[144.2671,-14.1477,0.0],[144.2589,-14.1427,0.0],[144.2525,-14.1465,13.6459],[144.2469,-14.1415,8.8108],[144.2426,-14.1429,1.6679],[144.2417,-14.1395,0.0],[144.239,-14.1388,6.2967],[144.2365,-14.1352,1.5691]]],
[[[144.4842,-14.151,1.2933],[144.4834,-14.1504,0.0],[144.4834,-14.152,0.0],[144.4838,-14.1519,0.0],[144.4842,-14.151,1.2933]]],
[[[144.4856,-14.15,0.0],[144.4858,-14.1496,0.0],[144.4855,-14.1493,0.0],[144.4853,-14.1495,0.0],[144.4856,-14.15,0.0]]],
[[[144.4834,-14.1402,0.0],[144.4839,-14.1404,0.0],[144.4845,-14.14,0.0],[144.4839,-14.1396,0.0],[144.4834,-14.1402,0.0]]],
[[[144.5273,-14.1285,0.0],[144.5272,-14.1279,0.0],[144.5265,-14.1281,0.0],[144.5268,-14.1284,0.0],[144.5273,-14.1285,0.0]]],
[[[144.5282,-14.1271,0.0],[144.5285,-14.1277,0.0],[144.529,-14.1271,0.0],[144.5288,-14.1267,0.0],[144.5282,-14.1271,0.0]]],
[[[144.0069,-14.1234,0.0],[144.005,-14.1244,0.0],[144.0058,-14.1261,0.0],[144.0075,-14.1251,0.1409],[144.0069,-14.1234,0.0]]],
[[[143.7925,-14.2266,0.0],[143.795,-14.2269,0.0],[143.795,-14.2253,3.2168],[143.7911,-14.2268,0.0836],[143.7925,-14.2266,0.0]]],
[[[143.7781,-14.224,1.2006],[143.7787,-14.2224,1.6895],[143.7735,-14.214,3.5572],[143.7716,-14.2203,1.3185],[143.7742,-14.2206,0.7863],[143.7781,-14.224,1.2006]]],
[[[143.623,-13.966,0.2044],[143.6235,-13.9662,0.7891],[143.6231,-13.9652,0.2044],[143.6228,-13.9655,0.2044],[143.623,-13.966,0.2044]]],
[[[143.8379,-13.9568,0.0],[143.8388,-13.9575,0.0],[143.8392,-13.9565,0.0],[143.8387,-13.9563,0.0],[143.8379,-13.9568,0.0]]],
[[[143.7553,-13.9387,-0.4267],[143.758,-13.9387,0.4727],[143.7561,-13.9334,3.1672],[143.7507,-13.9387,1.692],[143.7525,-13.9409,1.0553],[143.7553,-13.9387,-0.4267]]],
[[[143.8359,-13.9099,2.2262],[143.8353,-13.9081,0.7716],[143.8335,-13.9084,0.803],[143.8357,-13.9116,0.3361],[143.8359,-13.9099,2.2262]]],
[[[143.715,-13.8602,0.0],[143.7137,-13.8669,0.0],[143.7185,-13.8697,1.3897],[143.7206,-13.8676,4.9385],[143.7207,-13.8632,11.4268],[143.7183,-13.8595,0.6418],[143.715,-13.8602,0.0]]],
[[[143.6407,-13.7743,4.4731],[143.6395,-13.7765,0.0],[143.6431,-13.7773,0.0],[143.6461,-13.771,0.0],[143.6443,-13.7703,0.0],[143.6407,-13.7743,4.4731]]],
[[[141.8957,-12.7975,6.9029],[141.9077,-12.7628,10.7991],[141.9059,-12.7599,2.9118],[141.9115,-12.745,4.9472],[141.9145,-12.7431,1.4645],[141.9122,-12.7495,4.8937],[142.0086,-12.8589,16.3063],[142.0694,-12.7873,60.3703],[142.0547,-12.7676,21.9563],[142.0501,-12.7425,19.105],[142.0139,-12.7384,5.6812],[142.0005,-12.7755,20.9027],[141.964,-12.7111,18.0837],[142.0954,-12.6853,12.7128],[142.1619,-12.6354,37.1372],[142.1934,-12.618,46.974],[142.1842,-12.6144,38.5089],[142.1822,-12.607,37.1349],[142.1287,-12.567,5.6097],[142.1208,-12.5759,9.0474],[142.1188,-12.575,14.1571],[142.1176,-12.5687,5.2955],[142.1088,-12.5697,11.0456],[142.1052,-12.5647,6.1595],[142.1009,-12.5633,7.1165],[142.097,-12.5676,5.3702],[142.0847,-12.5643,2.8622],[142.0813,-12.5701,5.6767],[142.0729,-12.57,7.2858],[142.0713,-12.5752,2.8599],[142.0634,-12.5702,6.9959],[142.0578,-12.5739,2.3638],[142.049,-12.5737,1.471],[142.0405,-12.5811,8.2622],[142.0349,-12.5806,2.5707],[142.0313,-12.5751,4.4229],[142.0258,-12.5743,5.544],[142.0197,-12.5764,2.6981],[142.0164,-12.5842,12.0467],[142.0103,-12.5873,3.8162],[142.0077,-12.5905,8.5694],[142.006,-12.597,8.8534],[142.002,-12.5998,2.3355],[141.9932,-12.5869,15.2872],[141.988,-12.589,11.2971],[141.9796,-12.5896,0.0],[141.9681,-12.5855,2.3051],[141.9553,-12.5843,8.6793],[141.9424,-12.5691,7.8886],[141.94,-12.5626,0.75],[141.9384,-12.562,0.75],[141.9299,-12.5616,0.5],[141.9223,-12.5634,5.6321],[141.9157,-12.5726,0.25],[141.91,-12.5753,3.0467],[141.9221,-12.5572,24.5248],[141.9515,-12.5535,6.3303],[141.9632,-12.5332,2.569],[141.969,-12.542,7.5786],[141.9671,-12.5704,2.9956],[141.9965,-12.5726,8.5772],[142.0413,-12.4984,15.4586],[142.0421,-12.283,5.4867],[142.2213,-12.2791,59.6912],[142.1316,-12.3903,10.4518],[142.1276,-12.3957,10.4086],[142.1274,-12.4008,11.8848],[142.132,-12.4041,13.4995],[142.1471,-12.4036,18.4935],[142.1495,-12.4011,11.4086],[142.1462,-12.3964,5.4955],[142.1475,-12.3939,16.346],[142.1632,-12.3971,12.2049],[142.1727,-12.3886,13.939],[142.179,-12.3871,20.0394],[142.1912,-12.3875,13.033],[142.1928,-12.383,9.5977],[142.196,-12.3812,12.4121],[142.199,-12.3758,18.8891],[142.206,-12.377,16.9591],[142.2103,-12.3806,11.3545],[142.2204,-12.3789,16.7162],[142.2231,-12.3795,15.8037],[142.2243,-12.3818,14.2745],[142.228,-12.3779,14.4261],[142.2327,-12.3761,17.0833],[142.2457,-12.3783,18.5352],[142.2522,-12.3707,17.8581],[142.2552,-12.3739,17.4367],[142.259,-12.3703,16.4124],[142.2629,-12.3694,21.7595],[142.2663,-12.3775,18.4596],[142.2778,-12.3801,15.6417],[142.2773,-12.3896,23.3854],[142.287,-12.3895,16.8925],[142.2883,-12.3911,21.9513],[142.2875,-12.3948,22.7099],[142.2946,-12.3969,18.3071],[142.2981,-12.4041,21.526],[142.305,-12.4085,20.4448],[142.3041,-12.4238,20.6728],[142.3085,-12.4293,20.0421],[142.3051,-12.4343,21.9217],[142.3079,-12.4337,24.6605],[142.3098,-12.4358,20.3491],[142.3094,-12.4448,25.1628],[142.3139,-12.4479,21.5883],[142.3174,-12.4482,19.843],[142.32,-12.4461,18.2705],[142.3223,-12.4395,25.1188],[142.3244,-12.4388,21.8635],[142.3277,-12.4405,20.9951],[142.3297,-12.4439,19.1493],[142.344,-12.4498,21.6199],[142.345,-12.4526,21.4056],[142.3431,-12.4591,25.0253],[142.3454,-12.4651,24.5478],[142.3448,-12.4712,23.3992],[142.3482,-12.4728,24.9825],[142.3506,-12.4715,24.5583],[142.3585,-12.477,22.3116],[142.3622,-12.4816,21.6656],[142.3727,-12.4865,30.3004],[142.3763,-12.4916,25.3067],[142.3747,-12.4983,23.092],[142.3798,-12.4988,23.4369],[142.3809,-12.5028,28.0945],[142.3924,-12.5135,25.0545],[142.3972,-12.5146,24.5051],[142.406,-12.5205,29.6314],[142.411,-12.5211,25.7295],[142.4119,-12.517,27.2085],[142.4141,-12.5153,25.9623],[142.415,-12.5038,27.2403],[142.427,-12.5068,29.1442],[142.4303,-12.4954,29.4997],[142.4329,-12.4943,28.0175],[142.4362,-12.4952,28.2416],[142.446,-12.505,34.7464],[142.4478,-12.5045,30.118],[142.4497,-12.4996,29.8115],[142.4539,-12.5035,37.7312],[142.4588,-12.5017,31.694],[142.4563,-12.495,31.7079],[142.4672,-12.4974,34.0426],[142.4727,-12.4936,31.8222],[142.4793,-12.4943,32.1903],[142.4854,-12.4914,30.1341],[142.5712,-12.621,56.6069],[142.5711,-12.6661,71.9815],[142.1958,-12.6385,62.587],[142.1982,-12.6476,69.4529],[142.1708,-12.7683,26.072],[142.1622,-12.7824,23.0839],[142.0815,-13.1387,24.7278],[142.1158,-13.2846,62.6541],[142.0445,-13.5709,98.2318],[141.9595,-13.708,19.6609],[141.9339,-13.7308,18.2741],[141.9191,-13.8187,49.1064],[141.9807,-13.9905,38.6363],[141.967,-14.1948,21.9519],[141.9714,-14.1916,23.1008],[141.9796,-14.1933,24.1404],[141.9812,-14.3512,43.9491],[142.0088,-14.3527,46.2331],[142.0054,-14.4058,48.5976],[141.9938,-14.5012,37.116],[142.0355,-14.7087,35.4225],[142.1153,-14.8214,42.8174],[142.1415,-14.9045,45.1638],[142.1242,-15.0966,31.278199999999998],[142.0925,-15.1892,24.7803],[142.2401,-15.4231,25.4995],[142.5365,-15.4502,52.9622],[142.6513,-15.4592,61.8183],[142.6723,-15.3122,72.0722],[142.8333,-15.3275,68.0462],[142.9618,-15.3364,96.2968],[142.9497,-15.4823,89.1082],[142.8931,-15.4779,81.5036],[142.8812,-15.6211,84.8245],[142.7798,-15.6131,69.6493],[142.7699,-15.7547,62.6598],[142.7047,-15.7504,56.8503],[142.6958,-15.8966,65.1972],[142.6281,-15.9506,61.4779],[142.6236,-16.0194,54.8354],[142.6297,-16.02,59.7993],[142.6342,-16.0224,53.7233],[142.6396,-16.0322,52.9118],[142.6421,-16.0423,53.0],[142.6473,-16.0522,53.5],[142.6562,-16.0613,57.0886],[142.6675,-16.0677,54.0],[142.6828,-16.0706,54.5],[142.6965,-16.0678,56.8253],[142.7098,-16.0717,67.7154],[142.7114,-16.0737,59.6856],[142.7108,-16.0755,58.2206],[142.7306,-16.0895,67.6536],[142.7391,-16.0833,69.6268],[142.743,-16.0825,68.9755],[142.7455,-16.0784,72.0058],[142.7722,-16.0746,73.72],[142.7853,-16.0775,74.6003],[142.7922,-16.0809,73.6717],[142.8031,-16.0793,75.6723],[142.8371,-16.0801,79.1833],[142.8557,-16.0849,80.7397],[142.8744,-16.0865,82.7021],[142.9046,-16.0847,84.7589],[142.9247,-16.0769,87.3589],[142.9557,-16.0766,97.7833],[142.9859,-16.0833,93.1568],[143.004,-16.095,98.0102],[143.0114,-16.0966,99.0294],[143.0155,-16.0932,99.2912],[143.0207,-16.0919,100.8624],[143.0427,-16.113,101.6122],[143.0543,-16.1134,103.7247],[143.0608,-16.1099,104.1197],[143.1043,-16.1021,108.8973],[143.1131,-16.1051,113.3258],[143.1406,-16.1029,114.0841],[143.1483,-16.1043,112.4047],[143.1686,-16.1015,114.9233],[143.1843,-16.0964,117.0762],[143.1933,-16.102,119.5083],[143.2126,-16.1059,125.0747],[143.2231,-16.1075,121.0628],[143.2355,-16.1056,121.7246],[143.2486,-16.1008,124.4483],[143.2553,-16.094,125.1453],[143.2755,-16.0923,127.4133],[143.2903,-16.084,126.8214],[143.2987,-16.0832,130.0267],[143.3033,-16.0762,127.9126],[143.3407,-16.0552,128.457],[143.3658,-16.0445,140.6974],[143.3902,-16.0425,149.4008],[143.402,-16.0455,154.6007],[143.4121,-16.0558,154.6385],[143.421,-16.0546,157.1997],[143.4272,-16.0514,160.564],[143.4308,-16.0447,164.5597],[143.4371,-16.046,169.0251],[143.4398,-16.0506,167.9145],[143.4463,-16.0548,164.51],[143.4568,-16.0562,172.0035],[143.4694,-16.0555,162.9993],[143.4703,-16.0584,162.0137],[143.4654,-16.0633,163.141],[143.4654,-16.0686,165.6191],[143.4747,-16.071,166.5141],[143.4805,-16.0744,170.0754],[143.4843,-16.0792,181.2375],[143.489,-16.0809,185.8783],[143.4946,-16.0806,187.2628],[143.5013,-16.0867,171.3779],[143.5176,-16.0888,171.4213],[143.528,-16.0943,177.7795],[143.5397,-16.0884,184.3125],[143.5455,-16.0887,185.6896],[143.5471,-16.0859,183.5959],[143.5596,-16.0792,203.3831],[143.573,-16.0811,195.6241],[143.5843,-16.0772,201.7515],[143.5888,-16.0796,203.8228],[143.5948,-16.0791,202.6363],[143.601,-16.0752,207.7931],[143.6124,-16.0781,218.3364],[143.6157,-16.0723,242.3692],[143.6177,-16.0726,231.3445],[143.6217,-16.0773,229.2402],[143.6258,-16.0776,218.2256],[143.6318,-16.0755,217.9803],[143.6384,-16.0765,216.5648],[143.6421,-16.0791,214.7949],[143.6436,-16.0855,214.2148],[143.6389,-16.0944,212.9651],[143.6422,-16.0954,217.5249],[143.6451,-16.103,219.8623],[143.6525,-16.1067,205.088],[143.6574,-16.118,224.9871],[143.6599,-16.1197,227.6891],[143.666,-16.1164,229.8833],[143.6699,-16.1183,225.7934],[143.6725,-16.1234,215.199],[143.68,-16.1265,211.9439],[143.6826,-16.1245,208.3878],[143.6871,-16.128,206.2615],[143.6895,-16.1276,209.0911],[143.692,-16.1307,211.1832],[143.6953,-16.1298,212.2209],[143.7037,-16.1343,214.134],[143.7124,-16.1334,220.9003],[143.7145,-16.1351,222.2451],[143.7175,-16.1448,234.4014],[143.7217,-16.1491,266.7949],[143.7223,-16.152,257.8428],[143.7257,-16.154,247.1401],[143.7386,-16.1555,229.8094],[143.742,-16.1578,226.4428],[143.7465,-16.1572,232.297],[143.7513,-16.1596,235.2393],[143.7522,-16.1633,237.5636],[143.7557,-16.1631,233.9647],[143.7581,-16.1653,238.386],[143.7646,-16.1608,237.9424],[143.7666,-16.1628,238.2276],[143.7736,-16.1644,244.9177],[143.776,-16.1617,235.3588],[143.7757,-16.1583,237.9528],[143.7789,-16.1568,235.0083],[143.7861,-16.1585,236.7696],[143.7909,-16.1572,240.5229],[143.7937,-16.1593,244.9353],[143.7974,-16.1564,250.2596],[143.8028,-16.1576,304.7987],[143.8088,-16.1542,282.4782],[143.8136,-16.1458,236.4865],[143.8184,-16.1442,236.906],[143.8221,-16.1375,227.2038],[143.8317,-16.1324,213.486],[143.8425,-16.1351,208.1717],[143.8438,-16.1367,210.9026],[143.8513,-16.1372,219.7001],[143.854,-16.1357,211.8003],[143.8534,-16.1296,213.6191],[143.8669,-16.1198,222.0116],[143.8693,-16.1167,227.9081],[143.8713,-16.1081,245.5994],[143.874,-16.1061,264.8717],[143.8799,-16.1063,251.3232],[143.8804,-16.1109,282.0478],[143.8905,-16.1159,297.4955],[143.8913,-16.1197,278.9159],[143.8982,-16.1165,265.8474],[143.8994,-16.1208,279.6992],[143.9027,-16.1223,267.3594],[143.9028,-16.1273,247.1589],[143.9096,-16.128,255.6061],[143.9108,-16.1321,257.9225],[143.9149,-16.1364,254.6529],[143.9338,-16.1266,239.4158],[143.9344,-16.1204,244.8788],[143.9406,-16.1144,245.2811],[143.9489,-16.1122,246.0094],[143.9501,-16.1085,250.1624],[143.9597,-16.1117,245.3889],[143.9656,-16.1162,254.8803],[143.9662,-16.1194,280.3827],[143.9735,-16.1161,258.3096],[143.9912,-16.1241,254.8533],[143.9967,-16.1245,259.6671],[144.0061,-16.1285,261.1728],[144.016,-16.1387,264.4739],[144.0317,-16.1419,274.711],[144.0441,-16.148,273.8037],[144.0515,-16.1426,275.7289],[144.0573,-16.143,275.7951],[144.0601,-16.1413,279.0748],[144.0635,-16.1373,281.9692],[144.0683,-16.1353,285.317],[144.0712,-16.1311,285.3426],[144.0826,-16.1307,295.6929],[144.0848,-16.1275,291.1657],[144.0942,-16.1349,322.4272],[144.0957,-16.1349,334.1054],[144.0971,-16.1319,345.0666],[144.1034,-16.1347,334.9258],[144.107,-16.137,389.4795],[144.1094,-16.1422,479.5296],[144.117,-16.1414,481.287],[144.1167,-16.1493,461.82619999999997],[144.1204,-16.1811,478.5786],[144.1245,-16.1849,443.8441],[144.1363,-16.1867,417.5009],[144.1364,-16.1946,426.9678],[144.1428,-16.2025,495.0736],[144.1464,-16.2168,437.5117],[144.153,-16.2213,438.7196],[144.1552,-16.2274,448.3184],[144.1597,-16.2319,447.34],[144.162,-16.2411,457.7216],[144.1617,-16.2482,424.3203],[144.1685,-16.2498,429.7713],[144.1777,-16.2583,409.4788],[144.1789,-16.2616,385.3865],[144.1823,-16.2638,385.0878],[144.1856,-16.2688,458.1848],[144.1932,-16.2619,390.0194],[144.1994,-16.2622,372.0814],[144.213,-16.2711,404.223],[144.2133,-16.2729,401.3278],[144.2164,-16.2741,392.0726],[144.2232,-16.2814,417.1144],[144.2228,-16.2835,405.0177],[144.2206,-16.2827,394.9764],[144.22,-16.2852,405.4529],[144.2183,-16.2853,405.4529],[144.2198,-16.2887,408.2426],[144.2283,-16.2902,442.9121],[144.2262,-16.2939,502.1371],[144.2283,-16.3084,405.8484],[144.2256,-16.3101,412.9946],[144.2254,-16.3153,423.9776],[144.2287,-16.319,419.4174],[144.2326,-16.3203,420.5303],[144.2371,-16.3286,413.2668],[144.2426,-16.3304,409.8256],[144.2467,-16.3432,328.7464],[144.2536,-16.3411,372.429],[144.2595,-16.3353,432.9849],[144.263,-16.3365,413.6584],[144.2664,-16.3354,415.3106],[144.2679,-16.3288,397.0202],[144.2728,-16.3249,394.9998],[144.278,-16.3249,419.0034],[144.2875,-16.3345,413.2968],[144.2928,-16.3377,410.5777],[144.2983,-16.3385,417.2626],[144.3026,-16.3364,414.0759],[144.3027,-16.3335,411.9851],[144.3065,-16.3294,408.1776],[144.3126,-16.3273,405.3367],[144.3176,-16.3308,429.9114],[144.3173,-16.3209,417.3142],[144.3237,-16.3137,420.1655],[144.3281,-16.2987,430.7004],[144.3338,-16.2913,424.1982],[144.34,-16.2902,448.7142],[144.3445,-16.2858,423.0441],[144.3542,-16.2902,425.8072],[144.3631,-16.3004,440.0042],[144.3683,-16.304,425.746],[144.3782,-16.3104,449.5098],[144.3824,-16.3104,473.6961],[144.3868,-16.3132,491.3957],[144.3899,-16.3246,489.8383],[144.4037,-16.3346,515.0488],[144.4068,-16.3412,546.3674],[144.4059,-16.3463,524.2685],[144.4152,-16.3499,540.8253],[144.4284,-16.3452,518.1035],[144.4321,-16.3406,513.4861],[144.4381,-16.3422,520.8439],[144.4507,-16.3315,521.3893],[144.4573,-16.3358,548.3335],[144.4662,-16.3382,544.2379],[144.4709,-16.3367,523.3395],[144.476,-16.3448,557.8041],[144.4861,-16.3493,537.3819],[144.4885,-16.3474,539.6847],[144.4941,-16.3486,562.2622],[144.4957,-16.3521,567.455],[144.5,-16.3554,568.6124],[144.5037,-16.3532,549.0657],[144.5068,-16.3546,580.0808],[144.5093,-16.3537,591.2028],[144.5129,-16.3501,569.7573],[144.5189,-16.3497,572.4944],[144.5251,-16.3404,580.7684],[144.5246,-16.3358,598.0895],[144.5211,-16.3338,599.7518],[144.5184,-16.326,603.9821],[144.5189,-16.3235,626.2469],[144.5155,-16.3239,605.2919],[144.5114,-16.3216,556.0253],[144.5097,-16.3168,555.8081],[144.5104,-16.3148,582.5323],[144.5141,-16.3143,588.2224],[144.5146,-16.3091,581.4956],[144.5294,-16.2983,520.2735],[144.5392,-16.2982,537.2972],[144.5458,-16.3033,589.4786],[144.5576,-16.2999,769.5635],[144.5577,-16.2957,797.4142],[144.5616,-16.2917,756.127],[144.5757,-16.2897,780.0978],[144.5782,-16.2906,793.0692],[144.5819,-16.2988,767.022],[144.5848,-16.3007,592.4271],[144.6129,-16.3114,612.2128],[144.6203,-16.319,595.4703],[144.6276,-16.3218,529.0335],[144.6344,-16.3185,538.4911],[144.6427,-16.3172,530.2117],[144.6448,-16.32,539.7023],[144.653,-16.323,531.8168],[144.655,-16.3255,534.1749],[144.6788,-16.3326,602.8415],[144.6897,-16.324,551.1513],[144.691,-16.3212,549.5078],[144.6934,-16.3064,500.1761],[144.6897,-16.295,531.9196],[144.6953,-16.2788,496.6131],[144.695,-16.27,495.629],[144.6976,-16.2657,510.3076],[144.7052,-16.2676,501.9823],[144.7104,-16.2663,495.5732],[144.7123,-16.2602,501.7843],[144.7123,-16.253,497.8245],[144.7172,-16.2513,504.2713],[144.7316,-16.2605,549.5476],[144.7617,-16.2625,820.8401],[144.7647,-16.2671,844.1946],[144.7649,-16.2718,975.9383],[144.7709,-16.2755,945.6274],[144.7724,-16.279,911.8666],[144.7733,-16.2837,1004.9545],[144.7714,-16.2939,984.8799],[144.7888,-16.3062,990.1562],[144.8013,-16.3223,957.3589],[144.8093,-16.3383,925.3719],[144.815,-16.3431,884.541],[144.819,-16.3564,921.8397],[144.827,-16.3622,896.462],[144.832,-16.3636,903.9741],[144.8393,-16.3645,860.312],[144.8457,-16.3577,723.6306],[144.8524,-16.3542,727.3569],[144.8619,-16.3448,643.8646],[144.8736,-16.3285,719.0165],[144.8775,-16.3266,751.0405],[144.8805,-16.3266,767.0154],[144.8829,-16.3291,789.7213],[144.8888,-16.348,809.9853],[144.891,-16.35,801.6945],[144.8943,-16.3496,778.8412],[144.9037,-16.3383,721.5316],[144.9168,-16.335,761.1177],[144.9242,-16.3366,751.5834],[144.9344,-16.3443,732.8024],[144.9385,-16.3453,740.3953],[144.9424,-16.3446,764.6274],[144.947,-16.3375,834.1815],[144.9558,-16.3371,841.2346],[144.9607,-16.3389,849.9702],[144.9662,-16.3336,897.5333],[144.9706,-16.3328,985.6862],[144.9718,-16.3269,940.9446],[144.9805,-16.3247,1064.944],[144.9835,-16.321,1106.0171],[144.9923,-16.3165,1189.3132],[144.9938,-16.3133,1152.8698],[144.9925,-16.3036,1264.5844],[144.9879,-16.301,1269.2465],[144.9846,-16.2947,1227.0194],[144.9843,-16.2874,1251.2161],[144.9784,-16.2853,1269.7506],[144.9758,-16.2796,1230.9319],[144.9829,-16.2702,1234.7057],[144.9863,-16.269,1250.2837],[144.9866,-16.2663,1242.3187],[144.9949,-16.2637,1287.0831],[144.9982,-16.2588,1320.7465],[144.9921,-16.2562,1274.0548],[144.9925,-16.2531,1294.0852],[144.9983,-16.2495,1244.2993],[145.0004,-16.246,1288.3617],[145.0008,-16.2397,1298.505],[145.0043,-16.2379,1282.7048],[145.0116,-16.2249,1257.641],[145.021,-16.2209,1318.2837],[145.0095,-16.2098,1243.5834],[145.0136,-16.2077,1271.5953],[145.0159,-16.2032,1326.9795],[145.0119,-16.2009,1283.9131],[145.0041,-16.2004,1306.5647],[145.0049,-16.195,1264.6135],[145.0024,-16.193,1255.936],[144.9906,-16.1938,1258.4272],[144.9872,-16.1912,1212.1754],[144.9843,-16.1801,1182.7986],[144.9852,-16.1749,1150.145],[144.99,-16.1709,1171.6748],[144.9904,-16.1684,1144.9768],[144.9951,-16.1678,1162.6464],[144.9875,-16.1613,1117.8903],[144.9908,-16.1581,1127.2505],[144.9979,-16.1566,1084.3604],[145.0089,-16.1462,996.7416],[145.0152,-16.1483,991.4445],[145.0174,-16.1507,974.6006],[145.0228,-16.151,952.4089],[145.0347,-16.1575,970.3276],[145.0382,-16.1577,957.5273],[145.0394,-16.1608,951.465],[145.0448,-16.1628,948.5982],[145.0486,-16.1591,935.3954],[145.0478,-16.1556,945.4031],[145.0525,-16.1562,914.9077],[145.0562,-16.1499,911.8837],[145.0594,-16.1507,932.5744],[145.0562,-16.1441,661.031],[145.0571,-16.1411,591.3805],[145.063,-16.1372,585.2356],[145.0667,-16.1383,573.7165],[145.0686,-16.1368,568.6526],[145.071,-16.1383,575.3569],[145.0738,-16.1339,594.6938],[145.0735,-16.1292,688.3582],[145.0761,-16.1274,697.2556],[145.0772,-16.1234,658.4999],[145.0795,-16.1234,626.0263],[145.0836,-16.1201,569.4306],[145.0849,-16.117,557.2437],[145.0823,-16.1047,492.6953],[145.0866,-16.1003,400.9979],[145.0914,-16.0916,461.7851],[145.0913,-16.0849,470.8291],[145.0895,-16.0808,465.7625],[145.093,-16.076,463.6902],[145.0905,-16.0695,414.042],[145.0913,-16.062,433.4231],[145.0874,-16.057,391.8984],[145.0906,-16.0523,354.9125],[145.0896,-16.0492,365.7107],[145.0914,-16.047,422.8794],[145.0911,-16.0443,396.3891],[145.0874,-16.0387,429.0698],[145.0848,-16.0374,414.9059],[145.0806,-16.0281,415.2531],[145.0744,-16.0289,342.3277],[145.0715,-16.027,301.299],[145.0704,-16.0239,330.4127],[145.0714,-16.0223,329.9369],[145.0706,-16.0148,351.0509],[145.0721,-16.0131,346.1489],[145.0684,-16.0022,338.749],[145.07,-15.9935,288.2484],[145.0764,-15.9854,282.6649],[145.0781,-15.9773,296.1607],[145.0766,-15.9718,296.296],[145.0732,-15.9673,324.6953],[145.0741,-15.966,311.6976],[145.1015,-15.9527,396.0308],[145.1026,-15.9468,411.0235],[145.1045,-15.946,392.4366],[145.1168,-15.946,575.7141],[145.1264,-15.9509,871.9086],[145.1293,-15.9506,853.3206],[145.13,-15.9521,845.137],[145.1358,-15.9534,802.4433],[145.1364,-15.9439,949.9272],[145.1346,-15.9376,845.2678],[145.1388,-15.934,653.2704],[145.1403,-15.9304,595.1697],[145.1457,-15.9274,706.05],[145.1536,-15.9296,698.6057],[145.1611,-15.9234,841.908],[145.1629,-15.9233,832.5323],[145.1773,-15.9327,554.9007],[145.1848,-15.9293,506.9539],[145.1947,-15.9324,611.6292],[145.1956,-15.9347,633.2896],[145.2019,-15.9348,594.4259],[145.2061,-15.9331,507.2515],[145.2078,-15.9299,493.9759],[145.2115,-15.9319,507.2905],[145.2143,-15.9244,528.7791],[145.2135,-15.9227,521.7668],[145.2156,-15.9217,543.6996],[145.2176,-15.9223,537.2012],[145.2227,-15.919,603.2744],[145.2275,-15.9189,609.7838],[145.2307,-15.9201,620.9042],[145.23,-15.9232,650.8556],[145.2375,-15.9194,600.7153],[145.2463,-15.9175,611.1513],[145.2486,-15.9283,590.8571],[145.2551,-15.933,583.298],[145.2833,-15.9029,201.4041],[145.2856,-15.903,182.5321],[145.2876,-15.9063,194.718],[145.2826,-15.9106,191.3568],[145.2837,-15.9121,184.916],[145.2822,-15.9133,192.8356],[145.2844,-15.9136,193.0097],[145.2854,-15.9158,178.9359],[145.2828,-15.9165,175.5933],[145.2873,-15.9229,170.4372],[145.2909,-15.922,164.9431],[145.2888,-15.9259,169.6393],[145.2932,-15.9246,159.5662],[145.2944,-15.9263,199.4862],[145.2925,-15.9284,152.9075],[145.2943,-15.9299,174.2758],[145.3012,-15.9276,174.3775],[145.3023,-15.9297,133.3825],[145.3008,-15.9305,133.3825],[145.3033,-15.9311,166.2543],[145.3032,-15.9325,128.7347],[145.3069,-15.9326,154.696],[145.3084,-15.9347,148.4352],[145.3079,-15.9373,129.4876],[145.3118,-15.9364,127.6395],[145.3118,-15.933,82.1957],[145.3166,-15.9335,64.9075],[145.3159,-15.929,66.4561],[145.3182,-15.9286,39.7753],[145.3202,-15.9318,34.2574],[145.318,-15.9325,55.7525],[145.3188,-15.9362,137.3556],[145.3158,-15.941,116.3287],[145.3189,-15.9433,16.5151],[145.3247,-15.9428,16.8905],[145.3324,-15.9464,8.0459],[145.3363,-15.9505,21.616],[145.3361,-15.9429,2.5],[145.3437,-15.9395,8.4908],[145.3502,-15.9289,1.375],[145.3624,-15.9211,0.0],[145.3624,-15.918,0.0],[145.3566,-15.9085,1.4462],[145.3564,-15.8901,0.0],[145.3658,-15.8622,7.8352],[145.3768,-15.8431,0.0],[145.3752,-15.8352,11.0618],[145.3717,-15.8323,0.0],[145.3628,-15.8329,0.0],[145.3583,-15.8304,3.7145],[145.356,-15.8216,0.0],[145.3561,-15.8121,0.0],[145.3518,-15.8067,0.0],[145.3562,-15.789,0.0],[145.3673,-15.769,37.9727],[145.3686,-15.7621,3.0611],[145.3657,-15.7577,19.9979],[145.3671,-15.7482,13.0884],[145.3657,-15.7362,1.8285],[145.3613,-15.7196,15.3252],[145.3521,-15.7028,0.0],[145.3509,-15.6973,0.0],[145.3444,-15.693,9.358],[145.3381,-15.6829,0.0],[145.3355,-15.6815,0.0],[145.3336,-15.6752,2.593],[145.3344,-15.6703,8.5561],[145.3321,-15.6663,8.0535],[145.3331,-15.6626,0.0],[145.3175,-15.6532,3.0867],[145.3127,-15.6468,0.0],[145.3122,-15.6421,8.4163],[145.3191,-15.6323,0.0],[145.3178,-15.6221,35.3846],[145.3145,-15.613,25.4179],[145.3164,-15.6054,7.9316],[145.32,-15.6058,5.2676],[145.3192,-15.6021,11.8839],[145.3242,-15.6029,11.0246],[145.3275,-15.6056,0.0],[145.327,-15.6028,10.0882],[145.3289,-15.601,0.0],[145.327,-15.5991,30.1935],[145.3295,-15.5955,0.0],[145.3287,-15.5921,4.0413],[145.3222,-15.5904,9.0958],[145.3194,-15.587,0.0],[145.3191,-15.583,0.0],[145.3215,-15.5816,4.968],[145.3218,-15.5796,9.707],[145.3185,-15.5779,37.2779],[145.3174,-15.5737,6.6456],[145.3228,-15.5703,2.5648],[145.3186,-15.5687,54.4463],[145.3177,-15.5656,3.1374],[145.3092,-15.5577,0.0],[145.3081,-15.5535,12.8959],[145.3042,-15.5514,2.5458],[145.3018,-15.5516,1.3617],[145.3009,-15.5551,6.366],[145.2959,-15.5588,0.0],[145.2873,-15.5591,1.4219],[145.2834,-15.5548,10.2619],[145.2795,-15.5445,0.0],[145.272,-15.5413,11.6857],[145.2696,-15.536,1.3079],[145.2694,-15.5305,0.0],[145.2719,-15.5276,0.8641],[145.2725,-15.5179,8.5988],[145.2755,-15.51,2.786],[145.2837,-15.4972,80.3085],[145.2819,-15.4936,2.9599],[145.2774,-15.4946,8.8516],[145.2751,-15.4927,3.0428],[145.2725,-15.4862,50.1352],[145.2717,-15.4737,4.1545],[145.2673,-15.4708,0.0],[145.2637,-15.472,0.0],[145.2635,-15.466,3.4845],[145.2616,-15.4624,14.4698],[145.2628,-15.4611,3.0586],[145.2563,-15.4566,7.4556],[145.2494,-15.4586,3.9485],[145.2477,-15.4643,0.0],[145.2442,-15.4659,0.0],[145.2339,-15.4652,5.0483],[145.2291,-15.4626,6.1987],[145.2379,-15.458,0.0],[145.2406,-15.4601,5.4074],[145.2382,-15.4496,15.7789],[145.2384,-15.4415,15.0663],[145.2148,-15.4149,97.4348],[145.2024,-15.4247,10.8105],[145.198,-15.4251,10.6942],[145.1967,-15.4234,11.771],[145.1934,-15.4231,10.2178],[145.1925,-15.4207,9.7703],[145.194,-15.4201,12.7245],[145.1938,-15.4177,12.3713],[145.1959,-15.4174,9.0088],[145.1972,-15.419,12.0348],[145.1973,-15.4169,9.0088],[145.1774,-15.4168,11.639],[145.1769,-15.4227,9.8787],[145.1848,-15.4234,10.7083],[145.1826,-15.4256,9.0606],[145.1726,-15.4248,9.9778],[145.172,-15.4312,23.6558],[145.1658,-15.4307,14.6935],[145.1668,-15.418,12.9785],[145.1548,-15.4171,16.2177],[145.155,-15.4146,15.9397],[145.1382,-15.4134,22.0932],[145.1378,-15.4171,23.5061],[145.1127,-15.4162,37.5777],[145.1124,-15.4191,31.7623],[145.1004,-15.4181,38.1152],[145.1017,-15.403,66.7281],[145.1113,-15.4039,59.6757],[145.1114,-15.4019,63.5663],[145.1511,-15.4052,26.4127],[145.1514,-15.4014,26.979],[145.1472,-15.401,28.9552],[145.1454,-15.399,30.1792],[145.1484,-15.3623,208.7334],[145.1247,-15.3604,119.1086],[145.1218,-15.3945,220.9586],[145.0813,-15.3914,77.0559],[145.0807,-15.3985,57.7813],[145.0637,-15.3971,46.4907],[145.065,-15.3817,137.0051],[145.05,-15.3805,70.9681],[145.0487,-15.396,51.1829],[145.0436,-15.395,49.084],[145.0377,-15.3874,55.5533],[145.04,-15.3835,53.976],[145.0393,-15.3816,53.0299],[145.035,-15.3767,70.0839],[145.0325,-15.376,63.0812],[145.0312,-15.3716,64.845],[145.0334,-15.3697,92.6675],[145.0321,-15.3671,73.4682],[145.0366,-15.365,76.5354],[145.0345,-15.3616,79.8179],[145.0395,-15.356,89.3368],[145.0408,-15.3423,145.694],[145.0579,-15.3438,109.1724],[145.061,-15.3116,142.9132],[145.0401,-15.3098,214.238],[145.0397,-15.3145,201.9571],[145.0386,-15.3144,205.6378],[145.0392,-15.3093,229.0688],[145.036,-15.3089,199.8126],[145.0376,-15.2956,181.5222],[145.0292,-15.2947,234.1163],[145.0282,-15.2931,218.7989],[145.0309,-15.2688,256.1704],[145.0571,-15.2714,193.1928],[145.0583,-15.2609,277.7119],[145.0802,-15.2598,55.2789],[145.0863,-15.1394,37.0],[145.0892,-15.1402,34.6243],[145.0872,-15.1448,33.5345],[145.0889,-15.1526,31.0262],[145.0914,-15.152,32.2486],[145.0926,-15.1484,32.8],[145.0948,-15.1507,31.4789],[145.0996,-15.1482,33.5225],[145.1046,-15.1506,31.0831],[145.1091,-15.1489,30.2248],[145.1111,-15.1508,28.4061],[145.1142,-15.1481,29.38],[145.1178,-15.1504,27.5039],[145.1183,-15.1489,29.777],[145.1254,-15.1477,28.6777],[145.1253,-15.1496,24.8932],[145.129,-15.1516,27.8491],[145.1324,-15.1443,23.5881],[145.1357,-15.1461,26.7098],[145.1391,-15.1436,26.0697],[145.1417,-15.1447,28.2673],[145.1415,-15.147,24.0709],[145.1436,-15.1485,22.3396],[145.147,-15.1455,24.4915],[145.1468,-15.1438,23.861],[145.1557,-15.1441,20.2617],[145.1611,-15.1417,18.8007],[145.1685,-15.1423,20.0664],[145.1698,-15.1411,18.2638],[145.1721,-15.1446,16.1387],[145.1735,-15.142,16.8473],[145.1774,-15.141,15.3164],[145.1761,-15.1373,16.3498],[145.1779,-15.1327,17.4856],[145.1766,-15.1306,11.9152],[145.1845,-15.1288,19.6693],[145.1875,-15.1252,35.7338],[145.1867,-15.1229,13.5242],[145.1838,-15.1229,13.3298],[145.1836,-15.1195,13.6274],[145.1623,-15.1175,20.0224],[145.1655,-15.0853,22.4484],[145.1637,-15.0834,21.1843],[145.1613,-15.0834,20.0789],[145.1615,-15.0816,23.1073],[145.1515,-15.0854,23.8902],[145.1505,-15.0934,25.2143],[145.1467,-15.0937,24.0402],[145.1451,-15.0974,23.0618],[145.1419,-15.0967,24.5165],[145.1417,-15.0948,27.6383],[145.1391,-15.0948,23.6936],[145.1385,-15.0934,28.5149],[145.1378,-15.0759,42.229],[145.1352,-15.0697,68.3157],[145.1365,-15.0568,52.4732],[145.1612,-15.0593,21.6019],[145.1691,-14.9852,41.259],[145.129,-14.9809,20.5806],[145.1443,-14.8393,3.3821],[145.1413,-14.8326,2.8383],[145.1366,-14.8328,0.0],[145.1351,-14.835,7.4673],[145.1352,-14.8333,2.2663],[145.1309,-14.833,3.9098],[145.13,-14.8295,0.0],[145.1229,-14.8262,0.0],[145.1197,-14.8258,0.0],[145.1177,-14.8273,2.8636],[145.1168,-14.8256,0.0],[145.1139,-14.8256,0.0],[145.1125,-14.8225,0.0],[145.1058,-14.819,6.6804],[145.0983,-14.809,7.8112],[145.0959,-14.8098,7.4983],[145.0969,-14.8079,0.0],[145.0902,-14.8028,0.0],[145.0882,-14.8035,0.0],[145.0892,-14.805,10.9084],[145.0804,-14.8045,0.0],[145.0768,-14.8015,3.2591],[145.076,-14.8058,2.5084],[145.0747,-14.8055,2.5084],[145.075,-14.7992,0.0],[145.0735,-14.7985,1.4913],[145.0657,-14.7975,0.0],[145.065,-14.799,7.3093],[145.0585,-14.7995,0.0],[145.0467,-14.7986,0.0],[145.0372,-14.7957,0.0],[145.0241,-14.7951,1.3427],[145.0216,-14.79,0.0],[145.0226,-14.7862,0.0],[145.0216,-14.7827,0.0],[145.0076,-14.7759,0.0],[145.0047,-14.7724,0.0],[145.0025,-14.7671,0.0],[145.0022,-14.7603,11.1481],[145.0069,-14.7601,4.0888],[145.009,-14.757,0.0],[145.0043,-14.7517,0.0],[145.0021,-14.7511,0.0],[144.9971,-14.7534,2.1956],[144.9999,-14.7559,18.7185],[144.9949,-14.7582,8.3946],[144.9953,-14.763,6.0488],[144.994,-14.7636,6.0488],[144.9896,-14.7629,3.6557],[144.9921,-14.7616,5.6181],[144.9943,-14.7626,7.0045],[144.9938,-14.7575,10.9368],[144.9958,-14.7549,7.276],[144.9938,-14.752,0.0],[144.9836,-14.7507,0.0],[144.98,-14.7551,5.5669],[144.982,-14.7496,5.7652],[144.9733,-14.75,13.6855],[144.9727,-14.7481,7.4649],[144.9682,-14.7474,2.6887],[144.9611,-14.7389,0.0],[144.9595,-14.7438,5.5596],[144.9561,-14.7448,3.5098],[144.9594,-14.7425,8.6787],[144.9596,-14.7387,0.0],[144.9584,-14.7365,6.3204],[144.9532,-14.7361,2.1392],[144.9486,-14.71,6.613],[144.9481,-14.6958,19.8546],[144.9518,-14.686,3.8316],[144.9502,-14.6772,16.0444],[144.948,-14.6723,8.9167],[144.9443,-14.6693,7.676],[144.9427,-14.6637,0.0],[144.93,-14.6659,0.0],[144.9238,-14.6632,0.0],[144.9222,-14.6477,1.3154],[144.9239,-14.6388,0.0],[144.911,-14.6225,5.1071],[144.9123,-14.6206,1.0268],[144.9102,-14.6181,2.4183],[144.9102,-14.614,0.4142],[144.9013,-14.6109,0.5202],[144.8967,-14.6122,11.8191],[144.8969,-14.6105,5.5594],[144.8883,-14.6094,0.0],[144.8837,-14.6097,1.9356],[144.881,-14.6133,10.52],[144.8721,-14.6127,0.0],[144.8715,-14.6159,5.2594],[144.8729,-14.617,4.8261],[144.8701,-14.6164,2.6833],[144.87,-14.6114,7.1886],[144.8533,-14.6129,0.0],[144.8513,-14.6133,6.6697],[144.8512,-14.6151,13.0048],[144.8497,-14.6134,6.6697],[144.8388,-14.6143,0.0],[144.8321,-14.6127,1.257],[144.8302,-14.6073,4.4911],[144.8281,-14.6059,0.0],[144.82,-14.607,0.0],[144.8181,-14.6088,5.5777],[144.8163,-14.6081,12.2566],[144.8095,-14.5987,3.9283],[144.8061,-14.6001,7.8065],[144.7962,-14.5993,1.419],[144.7933,-14.5964,1.8012],[144.7827,-14.5936,4.4954],[144.778,-14.5833,2.2927],[144.7768,-14.5577,5.8263],[144.7781,-14.5565,0.0],[144.7751,-14.5551,15.3949],[144.7743,-14.5455,0.0],[144.7704,-14.5472,0.0],[144.7692,-14.5503,2.5325],[144.7628,-14.5523,0.0],[144.7565,-14.5504,19.1589],[144.7543,-14.5483,0.5938],[144.7493,-14.5538,5.6768],[144.7455,-14.5549,10.37],[144.7471,-14.553,3.6346],[144.7389,-14.5556,4.5173],[144.7272,-14.5567,5.2664],[144.7268,-14.559,11.6018],[144.7259,-14.5567,7.4127],[144.716,-14.5559,0.0],[144.7151,-14.561,1.7413],[144.7094,-14.5606,2.2198],[144.6952,-14.5554,1.4755],[144.6902,-14.5601,7.3285],[144.6932,-14.5639,6.3706],[144.693,-14.5671,7.6714],[144.6893,-14.5593,7.8366],[144.6916,-14.5584,4.1885],[144.6933,-14.5533,0.7091],[144.6844,-14.5528,1.716],[144.6793,-14.5467,0.0],[144.6717,-14.5256,0.0],[144.6681,-14.5215,18.5251],[144.6651,-14.511,0.0],[144.6635,-14.5122,4.3559],[144.6613,-14.5112,0.0],[144.6557,-14.5037,2.7661],[144.6443,-14.4993,0.0],[144.6359,-14.4918,0.2263],[144.6259,-14.4862,0.0],[144.623,-14.4824,7.4044],[144.6223,-14.4783,2.2709],[144.6188,-14.4754,5.7864],[144.6189,-14.4645,1.9834],[144.6174,-14.4629,4.1978],[144.6194,-14.4624,0.0],[144.6222,-14.4533,1.3543],[144.6219,-14.4458,1.2109],[144.6186,-14.4424,3.765],[144.6189,-14.4344,4.7463],[144.6147,-14.4307,2.4979],[144.6198,-14.4336,5.5429],[144.6192,-14.4376,4.0282],[144.6207,-14.4375,5.6294],[144.6219,-14.4349,1.237],[144.621,-14.4299,4.824],[144.6238,-14.4202,1.8377],[144.6257,-14.4186,0.0],[144.6403,-14.3809,2.8153],[144.6426,-14.3795,22.7814],[144.6456,-14.3724,6.1506],[144.6493,-14.3726,8.5005],[144.6499,-14.3655,32.2422],[144.6523,-14.3646,0.0],[144.6511,-14.3584,10.8006],[144.6474,-14.3553,9.2715],[144.6472,-14.3514,6.8611],[144.6442,-14.3483,0.0],[144.6384,-14.3561,4.6202],[144.6224,-14.362,0.7071],[144.6155,-14.3602,1.7478],[144.6123,-14.3577,0.0],[144.6086,-14.3584,0.0],[144.607,-14.3619,7.9542],[144.6042,-14.3635,2.3198],[144.5949,-14.3653,5.4243],[144.5889,-14.3632,4.9411],[144.587,-14.3607,2.0643],[144.5857,-14.3502,3.706],[144.5867,-14.3305,1.9278],[144.5884,-14.3286,0.0],[144.5837,-14.3273,5.5529],[144.5857,-14.3145,3.4789],[144.5819,-14.3124,23.0461],[144.5811,-14.3061,3.933],[144.5963,-14.2606,11.5661],[144.5914,-14.2588,0.0],[144.5824,-14.2477,0.0],[144.5765,-14.2474,0.0],[144.5775,-14.2351,1.5233],[144.5737,-14.2352,2.2023],[144.5716,-14.2319,17.151],[144.5654,-14.2287,4.1571],[144.5581,-14.2285,0.4814],[144.5548,-14.2228,4.8712],[144.5562,-14.2222,0.0],[144.5536,-14.2198,2.3755],[144.5529,-14.2155,1.0247],[144.5448,-14.2098,9.9473],[144.5417,-14.2034,0.0],[144.5387,-14.201,0.7653],[144.536,-14.1882,5.074],[144.5246,-14.1769,0.0],[144.5237,-14.1699,4.0631],[144.5162,-14.1666,13.3215],[144.5075,-14.1678,0.0],[144.4957,-14.1645,0.0],[144.4915,-14.166,0.0],[144.4856,-14.1904,29.2441],[144.4813,-14.1962,0.0],[144.4784,-14.2039,4.1763],[144.4702,-14.215,3.7366],[144.4654,-14.2277,3.1045],[144.4466,-14.2498,2.8488],[144.4392,-14.2542,0.0],[144.4361,-14.2586,1.4762],[144.4186,-14.2671,1.5207],[144.4069,-14.2702,0.0],[144.4072,-14.2734,2.0596],[144.3968,-14.2731,2.1119],[144.3887,-14.2788,0.0],[144.3808,-14.2878,8.0169],[144.3747,-14.2911,3.5821],[144.3598,-14.2911,0.0],[144.3602,-14.2931,22.4528],[144.355,-14.2981,2.332],[144.3398,-14.3063,3.2317],[144.343,-14.3079,3.6408],[144.339,-14.3075,0.8529],[144.3376,-14.305,0.0],[144.3282,-14.3082,6.5747],[144.3156,-14.3086,3.2859],[144.2978,-14.3016,7.5235],[144.2934,-14.298,6.9093],[144.2902,-14.2981,20.4506],[144.285,-14.3035,6.269],[144.2819,-14.3026,0.8145],[144.2721,-14.2964,27.46],[144.2675,-14.2957,0.8165],[144.2623,-14.2908,7.1273],[144.2525,-14.2707,2.3984],[144.2446,-14.2642,3.3063],[144.2403,-14.2624,0.0],[144.2383,-14.2639,0.0],[144.2371,-14.2683,8.3012],[144.2319,-14.2691,0.9772],[144.2231,-14.2615,5.0515],[144.2224,-14.2579,0.0],[144.2163,-14.2541,0.0],[144.2142,-14.2564,13.0916],[144.2119,-14.2562,0.0],[144.2089,-14.2625,1.6099],[144.2031,-14.2594,0.0],[144.1961,-14.261,0.0],[144.1936,-14.2653,2.2498],[144.1983,-14.2673,18.1618],[144.1965,-14.2739,15.6114],[144.2009,-14.2759,7.5157],[144.1971,-14.2917,3.139],[144.199,-14.2959,0.0],[144.2009,-14.2968,0.0],[144.2014,-14.3038,0.824],[144.1985,-14.3234,5.382],[144.1944,-14.335,0.0],[144.1944,-14.3374,0.0],[144.1967,-14.3394,5.0805],[144.1938,-14.3393,0.0],[144.1846,-14.3545,0.0],[144.1704,-14.3722,1.6212],[144.1682,-14.3766,0.0],[144.1683,-14.3814,8.3521],[144.1586,-14.3847,9.0576],[144.1511,-14.3897,2.4326],[144.1474,-14.3956,0.0],[144.1477,-14.4003,0.0],[144.1417,-14.405,9.914],[144.1372,-14.4012,0.0],[144.1308,-14.402,0.0],[144.1225,-14.4115,0.0],[144.1125,-14.4276,0.0],[144.0952,-14.4451,0.8068],[144.0608,-14.4653,0.0],[144.0374,-14.4741,0.0],[144.0293,-14.4813,0.0],[144.0177,-14.4812,0.0],[143.9847,-14.4884,7.702],[143.9603,-14.4849,0.0],[143.9483,-14.4956,0.0],[143.9417,-14.4943,4.0876],[143.939,-14.4885,0.0],[143.9323,-14.4835,0.0],[143.8916,-14.4837,0.0],[143.872,-14.4777,0.0],[143.8569,-14.4693,0.0],[143.8092,-14.4337,0.0],[143.7984,-14.4228,0.0],[143.7769,-14.3932,0.0],[143.7661,-14.376,0.0],[143.7524,-14.3486,0.2351],[143.7429,-14.3246,0.0],[143.7345,-14.2859,0.0],[143.7324,-14.2846,0.7868],[143.7304,-14.2664,0.0],[143.7259,-14.2537,0.0],[143.7246,-14.2544,0.0],[143.7235,-14.253,1.4776],[143.7101,-14.2266,0.5161],[143.7038,-14.2086,0.0],[143.6985,-14.1801,0.3591],[143.7014,-14.1675,1.9335],[143.7027,-14.1513,1.3414],[143.701,-14.145,4.5706],[143.7025,-14.1379,0.0],[143.7018,-14.1322,0.1303],[143.7037,-14.1266,0.0],[143.7003,-14.1189,0.0],[143.6979,-14.1188,3.0123],[143.6993,-14.1129,0.0],[143.6965,-14.1104,0.0034],[143.6964,-14.0974,0.0],[143.6931,-14.0951,3.2279],[143.6918,-14.0913,2.0402],[143.6944,-14.0851,1.1139],[143.6934,-14.0674,0.0],[143.6903,-14.0624,0.0],[143.6852,-14.0463,0.5844],[143.6811,-14.0146,0.0],[143.6754,-14.0059,0.0],[143.6734,-14.0051,0.0],[143.6741,-14.0072,0.5065],[143.6727,-14.0075,0.5065],[143.6671,-14.0025,0.0],[143.6636,-14.0015,0.0],[143.6672,-14.0034,0.0],[143.6669,-14.0045,0.0],[143.6628,-14.0023,0.0],[143.6537,-13.9903,0.0],[143.6504,-13.9894,0.0],[143.6573,-13.9957,0.0],[143.648,-13.9883,1.389],[143.6364,-13.9819,1.3608],[143.6345,-13.9826,5.9837],[143.6315,-13.98,4.5927],[143.6318,-13.9778,0.0],[143.6268,-13.9686,0.0],[143.6224,-13.9675,6.8595],[143.6227,-13.9634,0.0],[143.618,-13.9533,0.0],[143.6125,-13.9314,0.0],[143.6126,-13.9392,3.226],[143.6083,-13.9189,0.9758],[143.6034,-13.9117,0.5554],[143.6016,-13.9142,7.2429],[143.6013,-13.9041,0.0],[143.5998,-13.9015,0.0317],[143.6006,-13.8828,0.0],[143.5999,-13.8817,0.0],[143.5981,-13.8973,8.3467],[143.5988,-13.8782,0.0],[143.5914,-13.8576,0.0],[143.5812,-13.8495,3.8455],[143.5772,-13.8366,0.0],[143.5722,-13.8286,0.494],[143.5642,-13.8221,0.0],[143.5594,-13.8204,7.2285],[143.5574,-13.8126,0.0],[143.5544,-13.811,0.0],[143.5585,-13.8179,0.1857],[143.553,-13.8121,2.2229],[143.5456,-13.8003,5.3946],[143.5421,-13.7911,2.3309],[143.5427,-13.7906,2.3309],[143.5464,-13.7992,1.988],[143.5465,-13.7983,1.988],[143.542,-13.7872,0.0],[143.5412,-13.7755,0.0],[143.5389,-13.7713,5.6429],[143.5393,-13.7765,2.7173],[143.5348,-13.7661,0.0],[143.5377,-13.7691,1.6858],[143.5321,-13.7567,0.2249],[143.532,-13.7492,0.0],[143.534,-13.7441,0.0],[143.5314,-13.7466,0.0],[143.5321,-13.7428,4.623],[143.5336,-13.7428,0.0],[143.5413,-13.7256,0.0],[143.5441,-13.7125,0.0],[143.5471,-13.6793,3.6778],[143.5465,-13.6545,3.7697],[143.5482,-13.6485,0.0],[143.5466,-13.6521,6.0862],[143.5465,-13.6478,7.378],[143.5502,-13.6312,0.0],[143.547,-13.6388,4.3089],[143.5435,-13.6389,6.1336],[143.5462,-13.6383,4.3089],[143.5494,-13.6304,0.0],[143.5601,-13.5868,0.1009],[143.5611,-13.5852,0.9037],[143.5623,-13.5863,0.0],[143.5672,-13.5744,0.9651],[143.574,-13.5648,0.0],[143.5696,-13.5638,3.4121],[143.5744,-13.5635,0.0],[143.5779,-13.5592,0.7415],[143.5801,-13.5588,0.0],[143.5868,-13.545,0.0],[143.5863,-13.5414,0.0],[143.5911,-13.5246,0.0],[143.5875,-13.5178,0.0],[143.5852,-13.5172,0.0],[143.5893,-13.5229,0.0],[143.5878,-13.5227,0.0],[143.5897,-13.5255,0.0],[143.5878,-13.5324,1.099],[143.5863,-13.5265,0.0],[143.5858,-13.5301,9.8606],[143.5829,-13.5265,12.5252],[143.5827,-13.5207,0.0],[143.5852,-13.5244,0.0],[143.5823,-13.5132,0.0],[143.5796,-13.5103,6.2416],[143.5803,-13.494,0.0],[143.5843,-13.4843,0.0],[143.5849,-13.4787,0.0],[143.5817,-13.4875,5.7558],[143.5799,-13.4857,8.4359],[143.5815,-13.4859,6.156],[143.596,-13.4442,1.0634],[143.5982,-13.4223,1.7649],[143.5954,-13.4187,1.7072],[143.5961,-13.4138,17.3835],[143.5862,-13.4154,13.651],[143.5767,-13.4141,68.3725],[143.5661,-13.4157,40.5656],[143.562,-13.4172,55.7152],[143.5501,-13.4268,60.5162],[143.5423,-13.4219,115.5496],[143.5357,-13.4221,123.8463],[143.5308,-13.4262,143.022],[143.5197,-13.442,355.375],[143.516,-13.4386,337.5043],[143.5118,-13.4394,366.8689],[143.5088,-13.4332,378.2486],[143.5052,-13.4324,344.2025],[143.4996,-13.4337,375.7098],[143.4967,-13.4382,383.8482],[143.4975,-13.4515,409.1815],[143.315,-13.4859,332.1595],[143.3115,-13.4779,352.6979],[143.3125,-13.471,361.4377],[143.3156,-13.4646,350.1411],[143.3224,-13.4574,368.5269],[143.326,-13.4508,358.1446],[143.3253,-13.4472,369.4313],[143.322,-13.4451,377.2166],[143.3222,-13.442,373.1225],[143.3284,-13.4403,351.3354],[143.3421,-13.4271,311.7583],[143.3483,-13.4148,286.7099],[143.3569,-13.4111,286.4623],[143.3652,-13.3988,283.058],[143.3664,-13.3877,272.4544],[143.371,-13.3822,260.6094],[143.3764,-13.3707,229.3048],[143.3784,-13.3611,225.7508],[143.3873,-13.3418,216.6403],[143.388,-13.3316,218.7578],[143.3863,-13.3288,227.0172],[143.3815,-13.3262,215.6622],[143.3815,-13.3118,181.2682],[143.3783,-13.3041,200.0373],[143.3583,-13.2878,213.2007],[143.3533,-13.2851,220.0681],[143.3466,-13.2866,221.7282],[143.3369,-13.2816,247.4563],[143.3307,-13.2838,267.3799],[143.3279,-13.2892,288.7222],[143.3198,-13.2878,308.498],[143.3181,-13.2774,308.557],[143.3286,-13.2721,312.4876],[143.3335,-13.2716,267.0488],[143.3451,-13.2611,282.1318],[143.3453,-13.2565,278.1483],[143.3429,-13.2512,303.1154],[143.3439,-13.2481,298.5405],[143.2573,-13.2408,169.007],[143.2411,-13.2511,161.1674],[143.2516,-13.1382,211.4515],[143.2479,-13.1368,204.8401],[143.2422,-13.1377,203.9133],[143.2347,-13.1335,190.0277],[143.2283,-13.132,189.4481],[143.2238,-13.1358,184.0592],[143.2132,-13.1388,184.0322],[143.2105,-13.1388,184.8256],[143.2068,-13.1357,180.6364],[143.1969,-13.1358,178.9217],[143.196,-13.1388,177.4827],[143.1899,-13.1369,174.9995],[143.1886,-13.1402,175.7939],[143.1824,-13.1378,173.0883],[143.1812,-13.1397,176.0674],[143.1772,-13.1389,173.6314],[143.171,-13.1447,170.5574],[143.1637,-13.1435,168.6865],[143.1522,-13.146,167.0289],[143.1438,-13.1449,164.4619],[143.1387,-13.1393,160.5555],[143.1337,-13.1407,160.0926],[143.1279,-13.1398,159.9646],[143.1222,-13.1415,156.5171],[143.1137,-13.1497,155.0058],[143.1097,-13.1504,153.0201],[143.1,-13.1467,155.2018],[143.0953,-13.1493,153.6117],[143.0885,-13.1466,150.1113],[143.0808,-13.1361,148.6144],[143.0752,-13.132,147.0702],[143.0571,-13.1252,139.3004],[143.0452,-13.1272,135.8827],[143.0394,-13.1263,137.1174],[143.0323,-13.129,132.904],[143.0278,-13.1276,135.3287],[143.024,-13.1311,136.2513],[143.0201,-13.1323,135.7056],[143.0135,-13.1287,135.9683],[143.0058,-13.1292,130.2777],[142.9919,-13.1195,126.1748],[142.9805,-13.1205,128.0195],[142.9781,-13.1174,126.99],[142.9799,-13.1162,125.107],[142.8936,-12.9929,121.8225],[142.9581,-12.9469,241.8479],[142.9518,-12.9462,217.6883],[142.9505,-12.9392,209.394],[142.9524,-12.9362,228.5433],[142.9522,-12.9329,232.6329],[142.9491,-12.9269,218.2108],[142.9517,-12.9253,230.228],[142.952,-12.9195,224.333],[142.9547,-12.9169,212.3794],[142.9568,-12.9086,214.1265],[142.9598,-12.9061,211.9446],[142.9613,-12.8981,208.1778],[142.9487,-12.8897,189.6502],[142.9458,-12.8793,192.8182],[142.9334,-12.8769,166.4984],[142.9342,-12.8715,183.6772],[142.922,-12.863,144.189],[142.9188,-12.8622,162.271],[142.9208,-12.8507,161.0817],[142.9161,-12.8433,163.5403],[142.9162,-12.8374,148.9653],[142.9125,-12.8341,150.4876],[142.9101,-12.8281,142.3915],[142.9013,-12.8223,149.3555],[142.8993,-12.8191,148.3011],[142.8831,-12.8106,147.3752],[142.8853,-12.8038,149.8697],[142.8905,-12.7985,141.4955],[142.8939,-12.7892,148.8082],[142.8971,-12.7857,141.8201],[142.9127,-12.7868,78.6972],[142.9268,-12.7839,91.1315],[142.9321,-12.7747,119.2961],[142.929,-12.7673,97.0572],[142.9227,-12.7611,125.3035],[142.9242,-12.7532,121.0428],[142.9225,-12.7476,126.4835],[142.93,-12.7344,157.8744],[142.9309,-12.7274,169.7191],[142.9306,-12.7232,180.7179],[142.9216,-12.7048,185.8904],[142.922,-12.6971,183.984],[142.9268,-12.6929,202.1886],[142.9341,-12.6945,204.9602],[142.9418,-12.6909,213.4571],[143.0281,-12.6978,49.3425],[143.0313,-12.6927,33.8795],[143.0325,-12.686,37.7191],[143.0385,-12.6833,32.3729],[143.0376,-12.681,43.3183],[143.0415,-12.6743,35.0909],[143.0411,-12.666,39.6542],[143.0447,-12.6608,36.253],[143.0501,-12.6585,32.7434],[143.0562,-12.6583,39.1446],[143.0575,-12.6563,32.6931],[143.0569,-12.6502,28.3273],[143.0637,-12.6491,46.5044],[143.0668,-12.6417,31.329],[143.0753,-12.6411,26.5313],[143.073,-12.6292,31.2],[143.0709,-12.6265,29.5673],[143.0692,-12.6139,28.0111],[143.0704,-12.6086,23.7201],[143.0755,-12.6039,23.6989],[143.078,-12.5883,27.1055],[143.0817,-12.5836,29.4976],[143.0813,-12.5799,29.715],[143.0839,-12.5784,25.4193],[143.0862,-12.5661,25.4317],[143.0943,-12.5681,27.5635],[143.1003,-12.5677,25.8707],[143.1173,-12.5751,27.8629],[143.1204,-12.5728,22.6229],[143.1271,-12.5716,25.9639],[143.132,-12.5654,18.8616],[143.1429,-12.5689,17.7598],[143.1487,-12.5613,22.7238],[143.1553,-12.5638,13.8839],[143.1626,-12.5569,10.4898],[143.1637,-12.5601,17.5389],[143.1681,-12.5611,15.665],[143.1689,-12.5659,14.1103],[143.1715,-12.5695,14.9265],[143.1762,-12.571,16.0146],[143.1788,-12.5666,28.8277],[143.1796,-12.5566,22.8064],[143.1863,-12.5518,15.8155],[143.1877,-12.5632,25.1632],[143.1869,-12.569,54.6149],[143.1832,-12.5761,58.3401],[143.184,-12.5809,198.3155],[143.1812,-12.5827,113.205],[143.1787,-12.5922,121.4008],[143.174,-12.5949,143.8816],[143.1802,-12.6002,207.1498],[143.1802,-12.6063,257.8878],[143.1844,-12.6113,313.4065],[143.1861,-12.6124,345.7435],[143.1897,-12.6099,313.2756],[143.1956,-12.6155,358.3467],[143.196,-12.6217,353.6512],[143.1999,-12.6285,374.5057],[143.2003,-12.6395,353.7726],[143.203,-12.6442,408.2659],[143.2056,-12.6412,422.2833],[143.2104,-12.644,403.4628],[143.2187,-12.6419,363.0719],[143.2219,-12.6444,353.5359],[143.2226,-12.6471,375.1904],[143.2173,-12.6627,316.5073],[143.2198,-12.6702,453.5685],[143.2192,-12.6755,454.0933],[143.2222,-12.6792,326.6944],[143.2219,-12.6835,356.1448],[143.2071,-12.6943,140.707],[143.2115,-12.7088,308.5857],[143.2059,-12.7092,176.3967],[143.2023,-12.7077,271.4229],[143.2,-12.7089,346.2984],[143.1941,-12.7188,118.5161],[143.1916,-12.7269,130.4574],[143.1881,-12.7287,218.3397],[143.188,-12.7313,292.1329],[143.1899,-12.7408,407.1722],[143.1931,-12.7467,377.2869],[143.2014,-12.7541,355.4232],[143.2031,-12.7618,415.8494],[143.2059,-12.7647,445.771],[143.2113,-12.7651,452.0872],[143.2134,-12.7688,493.012],[143.2167,-12.7702,467.5065],[143.2162,-12.7812,449.6614],[143.2187,-12.784,440.3428],[143.2171,-12.7905,429.6406],[143.2222,-12.7962,319.4317],[143.2202,-12.8008,367.9126],[143.2224,-12.8075,334.7352],[143.2208,-12.8107,314.6035],[143.2295,-12.8126,288.3568],[143.2304,-12.8148,274.0251],[143.2291,-12.8272,337.1001],[143.2333,-12.8316,251.4546],[143.2295,-12.8391,249.8508],[143.2296,-12.8526,262.4977],[143.2332,-12.8624,361.4265],[143.2304,-12.8681,315.9864],[143.2323,-12.8712,294.6951],[143.2355,-12.8726,258.9067],[143.2466,-12.8693,270.5692],[143.2495,-12.8699,283.3005],[143.2573,-12.8535,91.3307],[143.2824,-12.8338,22.6442],[143.3145,-12.8368,7.4246],[143.3141,-12.8314,7.7032],[143.307,-12.8207,19.1148],[143.3123,-12.8187,14.9484],[143.3077,-12.817,11.0446],[143.3093,-12.8138,17.6574],[143.2958,-12.7968,22.7475],[143.2942,-12.7753,22.2627],[143.2949,-12.7762,22.2627],[143.2996,-12.7724,28.0596],[143.3031,-12.773,37.5582],[143.3074,-12.7786,28.6033],[143.3093,-12.7839,22.2083],[143.304,-12.7818,19.2689],[143.3028,-12.7834,14.3725],[143.2969,-12.7793,13.7081],[143.2951,-12.7818,16.4207],[143.3024,-12.7868,15.8153],[143.3012,-12.7884,20.6565],[143.3035,-12.79,19.2843],[143.3047,-12.7884,18.6354],[143.3137,-12.7945,23.0664],[143.3155,-12.7921,24.9237],[143.3068,-12.7861,19.5057],[143.3074,-12.7842,18.9197],[143.3142,-12.7869,34.9265],[143.3195,-12.7916,40.3443],[143.3323,-12.7925,14.7619],[143.3333,-12.7847,31.446],[143.3388,-12.7811,27.4197],[143.3361,-12.7763,23.8324],[143.3381,-12.7737,22.1255],[143.3545,-12.7799,15.5514],[143.3525,-12.7871,29.7882],[143.3568,-12.7881,15.1091],[143.3575,-12.7912,16.1913],[143.3618,-12.7916,5.2219],[143.3639,-12.7804,3.5903],[143.3707,-12.7638,6.1839],[143.3821,-12.75,3.2847],[143.3852,-12.7248,0.5772],[143.39,-12.7148,0.0],[143.3949,-12.7112,1.6091],[143.3995,-12.698,0.0],[143.4189,-12.6817,0.0],[143.4187,-12.676,0.0],[143.4154,-12.6782,3.4993],[143.4047,-12.6798,4.6684],[143.4029,-12.6786,4.3551],[143.4025,-12.6623,5.8235],[143.4258,-12.6332,0.0],[143.4339,-12.6245,4.4869],[143.4382,-12.6233,0.7797],[143.4373,-12.6198,8.8309],[143.4389,-12.6134,2.9271],[143.4378,-12.6113,8.4917],[143.4351,-12.6136,9.0332],[143.4266,-12.6132,6.3748],[143.4188,-12.616,0.9048],[143.4174,-12.6106,3.5066],[143.4218,-12.6062,0.0],[143.4142,-12.5932,10.4189],[143.4059,-12.5976,0.0],[143.3934,-12.5956,1.0471],[143.3783,-12.5805,7.6669],[143.3592,-12.5705,5.3006],[143.3553,-12.5641,0.0],[143.3492,-12.5654,0.0],[143.348,-12.567,11.1497],[143.3367,-12.5661,0.0],[143.3281,-12.5571,0.0],[143.3159,-12.5566,0.0],[143.3106,-12.5549,0.0],[143.3055,-12.5507,0.0],[143.3004,-12.5422,0.0],[143.2985,-12.5307,0.0],[143.2934,-12.5316,5.3569],[143.2912,-12.5301,0.0],[143.2895,-12.5202,0.0],[143.2843,-12.516,0.0],[143.2774,-12.5135,0.0],[143.2748,-12.5088,0.0],[143.2759,-12.4964,0.0],[143.2719,-12.4975,0.0],[143.2711,-12.4964,5.2191],[143.274,-12.4933,0.7034],[143.2773,-12.483,0.0],[143.2756,-12.4803,0.0],[143.2761,-12.4746,0.0],[143.2741,-12.4729,0.0],[143.2724,-12.4671,0.0],[143.2776,-12.4525,0.0],[143.2776,-12.4404,0.0],[143.2762,-12.4379,0.0],[143.2712,-12.4378,0.0],[143.2701,-12.4331,0.0],[143.2721,-12.4283,0.0],[143.2725,-12.4112,3.3399],[143.2739,-12.4071,8.5524],[143.2719,-12.4047,22.7213],[143.2674,-12.4039,5.1911],[143.2656,-12.4003,0.0],[143.2661,-12.3944,0.0],[143.2554,-12.3906,0.0],[143.2514,-12.3917,15.6385],[143.2498,-12.3901,0.0],[143.2474,-12.3791,0.0],[143.2453,-12.3791,0.0],[143.2399,-12.3833,1.9987],[143.2301,-12.382,4.3342],[143.2205,-12.3722,0.0],[143.215,-12.3627,0.0],[143.2052,-12.3606,3.0094],[143.2024,-12.3572,0.0],[143.1952,-12.3531,4.4782],[143.1949,-12.3491,1.3135],[143.1932,-12.3504,6.8222],[143.1826,-12.3504,1.9687],[143.1806,-12.348,10.3172],[143.1817,-12.3446,0.0],[143.1803,-12.3431,5.6562],[143.1763,-12.3445,1.8971],[143.1725,-12.343,11.9632],[143.1718,-12.3455,5.0595],[143.1685,-12.3473,6.1083],[143.1654,-12.3454,6.7184],[143.1577,-12.3474,0.0],[143.138,-12.3451,0.0],[143.128,-12.3474,2.9479],[143.1216,-12.3439,0.0],[143.1182,-12.3449,3.7989],[143.1164,-12.3438,1.2756],[143.1156,-12.3387,2.9943],[143.1032,-12.3442,0.0],[143.091,-12.3431,10.8922],[143.0897,-12.3474,2.0346],[143.0881,-12.3461,1.9153],[143.0846,-12.3482,14.6013],[143.0786,-12.3375,0.4887],[143.0771,-12.3131,1.1132],[143.0813,-12.2889,7.8991],[143.0869,-12.2766,0.0],[143.0899,-12.2638,15.2236],[143.0927,-12.2597,0.0],[143.0949,-12.2591,0.0],[143.0943,-12.2537,18.9317],[143.0866,-12.2503,4.6702],[143.086,-12.2421,3.3151],[143.0916,-12.2256,0.4128],[143.097,-12.2183,0.0],[143.0957,-12.2134,8.3761],[143.0929,-12.2113,1.057],[143.093,-12.2051,0.0],[143.0951,-12.204,0.0],[143.0886,-12.2026,4.5469],[143.0875,-12.1999,4.0953],[143.0898,-12.1913,4.4298],[143.0937,-12.1859,0.0],[143.093,-12.1784,0.0],[143.0949,-12.1735,0.0],[143.0924,-12.1725,11.6503],[143.0884,-12.1749,5.0593],[143.0849,-12.1728,0.0],[143.0839,-12.1685,2.982],[143.0781,-12.1646,5.9231],[143.0787,-12.1592,0.0],[143.093,-12.1576,0.0],[143.1012,-12.1456,0.0],[143.112,-12.1219,2.6267],[143.1181,-12.1138,3.2836],[143.1211,-12.1138,3.4812],[143.1191,-12.1119,8.7704],[143.1194,-12.1096,0.0],[143.1365,-12.087,0.0],[143.1359,-12.0842,0.0],[143.1429,-12.0749,1.9703],[143.1496,-12.0623,7.9207],[143.1517,-12.0537,13.6178],[143.1619,-12.0436,0.0],[143.1664,-12.0301,8.9703],[143.1806,-12.0065,0.0],[143.1807,-12.0023,5.8971],[143.1856,-11.9908,7.7654],[143.2101,-11.9752,6.2856],[143.2166,-11.9748,7.5052],[143.2211,-11.9805,4.4204],[143.2217,-11.9838,0.3938],[143.2281,-11.9891,4.2138],[143.2285,-11.9867,1.3769],[143.2324,-11.985,0.9611],[143.2367,-11.9852,2.8284],[143.2366,-11.9822,0.6076],[143.2404,-11.977,16.5459],[143.2426,-11.9773,0.0],[143.2449,-11.9746,0.0],[143.2434,-11.9678,0.0],[143.2411,-11.9659,0.0],[143.2325,-11.9653,4.7292],[143.2319,-11.9599,0.9821],[143.2296,-11.9595,0.0],[143.2246,-11.9541,0.0],[143.2203,-11.9541,0.0],[143.2172,-11.9589,0.7807],[143.2138,-11.9575,0.0],[143.2132,-11.9544,0.0],[143.2098,-11.9622,10.3564],[143.18,-11.9713,4.5353],[143.1727,-11.9749,6.8088],[143.1692,-11.9725,0.0],[143.1675,-11.9733,6.2037],[143.1676,-11.9704,3.1235],[143.1634,-11.9643,0.0],[143.1616,-11.9583,0.0],[143.162,-11.9544,0.9977],[143.1526,-11.9467,0.0],[143.1495,-11.9489,6.7536],[143.1507,-11.9462,0.0],[143.1484,-11.9416,1.1112],[143.1475,-11.9194,0.0],[143.145,-11.9174,0.0],[143.141,-11.9185,5.9469],[143.1371,-11.911,0.0],[143.1356,-11.9101,0.0],[143.1318,-11.9116,5.5492],[143.1221,-11.9051,3.0891],[143.1177,-11.9068,3.233],[143.1133,-11.9034,3.9611],[143.1095,-11.9061,0.5435],[143.1061,-11.9012,5.772],[143.1059,-11.8971,1.484],[143.0983,-11.8922,3.2533],[143.097,-11.8933,6.7146],[143.0977,-11.8977,1.4089],[143.0932,-11.9041,2.0567],[143.0665,-11.9201,4.9016],[143.0648,-11.9235,8.4096],[143.0661,-11.9283,7.0748],[143.0609,-11.9237,2.0923],[143.0519,-11.9289,4.672],[143.0374,-11.9342,1.2559],[143.0221,-11.9355,0.0],[143.0154,-11.9376,0.0],[142.9973,-11.9362,2.1271],[142.9881,-11.9334,18.0296],[142.984,-11.9302,1.666],[142.9807,-11.9307,0.0],[142.9796,-11.9334,2.6032],[142.9746,-11.9329,6.6407],[142.9664,-11.9274,9.5534],[142.9648,-11.9227,0.0],[142.9601,-11.9223,4.076],[142.961,-11.9177,0.0],[142.9554,-11.9134,3.9846],[142.9539,-11.9087,4.9997],[142.9486,-11.9033,11.5836],[142.9472,-11.9031,4.799],[142.9477,-11.905,7.6766],[142.9455,-11.9039,5.3718],[142.9459,-11.9004,4.8236],[142.9288,-11.8927,2.8006],[142.9225,-11.8927,4.674],[142.9224,-11.8963,0.25],[142.9262,-11.8977,7.7515],[142.929,-11.9044,7.361],[142.9245,-11.8987,4.6799],[142.9215,-11.8984,7.842],[142.9093,-11.8901,2.0383],[142.9011,-11.8721,0.0],[142.889,-11.8741,5.2209],[142.8818,-11.8719,6.2963],[142.88,-11.8687,1.3661],[142.8761,-11.8678,3.284],[142.8731,-11.8638,1.1936],[142.8715,-11.8547,1.1375],[142.8564,-11.8455,3.7592],[142.8531,-11.8251,10.9283],[142.8475,-11.8239,7.1176],[142.8542,-11.8227,0.0],[142.8545,-11.8156,0.0],[142.8504,-11.8061,3.15],[142.8519,-11.805,0.0],[142.854,-11.7842,0.0],[142.8605,-11.767,1.7609],[142.8596,-11.7565,7.1037],[142.8574,-11.7541,9.5762],[142.8597,-11.7522,4.647],[142.8615,-11.753,0.0],[142.8624,-11.751,0.0],[142.858,-11.7165,0.0],[142.8586,-11.7123,2.9587],[142.8602,-11.7137,0.0],[142.861,-11.696,7.3579],[142.8613,-11.6745,7.7249],[142.8592,-11.6714,22.3099],[142.8588,-11.6668,2.6659],[142.86,-11.663,0.0],[142.86,-11.6507,0.0],[142.8584,-11.649,3.3658],[142.8595,-11.6359,8.505],[142.8564,-11.6326,0.0],[142.8564,-11.6278,0.0],[142.8523,-11.6204,16.3511],[142.8522,-11.5864,3.9291],[142.8496,-11.5836,0.0],[142.8496,-11.5807,0.0],[142.8445,-11.5781,28.6474],[142.8401,-11.5674,0.0],[142.8343,-11.5597,8.1686],[142.8372,-11.5337,10.9292],[142.8367,-11.5129,14.0955],[142.8403,-11.5056,0.0],[142.8397,-11.4926,0.0],[142.8342,-11.4898,2.2939],[142.8268,-11.479,10.7102],[142.8268,-11.4765,8.4784],[142.8284,-11.4552,2.9311],[142.833,-11.4335,6.115],[142.8372,-11.4254,8.6512],[142.8683,-11.3844,0.0],[142.8687,-11.3816,3.4658],[142.8646,-11.3791,0.0],[142.8618,-11.3708,11.9252],[142.8635,-11.3587,0.7755],[142.8566,-11.3538,0.0],[142.8548,-11.3428,0.0],[142.8512,-11.3367,10.3691],[142.8493,-11.3364,22.288],[142.8404,-11.3195,0.0],[142.8289,-11.3144,3.4538],[142.8198,-11.2918,1.623],[142.8171,-11.2912,0.0],[142.8115,-11.2945,1.4208],[142.8024,-11.2915,2.7225],[142.7987,-11.2871,0.0],[142.7965,-11.281,0.0],[142.7935,-11.2785,3.0488],[142.7946,-11.2582,0.0],[142.7932,-11.2498,0.0],[142.7913,-11.2465,3.9105],[142.7902,-11.2487,4.7841],[142.7884,-11.247,0.6517],[142.7871,-11.2263,2.0438],[142.7832,-11.2227,9.9282],[142.7884,-11.2158,0.0],[142.7886,-11.2108,1.1014],[142.7947,-11.1932,0.0],[142.7994,-11.1572,14.5109],[142.7986,-11.1535,0.0],[142.7952,-11.1508,0.0],[142.7953,-11.1453,2.2927],[142.7922,-11.1434,1.441],[142.7914,-11.1397,7.3459],[142.7928,-11.132,0.0],[142.7906,-11.1314,16.5566],[142.7903,-11.1287,1.8662],[142.7886,-11.1289,5.4995],[142.7877,-11.1268,3.1947],[142.79,-11.1154,0.0],[142.7884,-11.1087,0.0],[142.7902,-11.1033,0.0],[142.7885,-11.1011,6.4404],[142.7894,-11.0974,1.7231],[142.7867,-11.0905,0.0],[142.7883,-11.0822,0.0],[142.7857,-11.0777,2.7021],[142.7861,-11.0742,0.0],[142.7829,-11.0728,18.1033],[142.7829,-11.07,12.4757],[142.7801,-11.069,0.0],[142.7797,-11.0626,0.0],[142.7757,-11.0657,10.7354],[142.7685,-11.0604,2.4722],[142.7652,-11.0559,1.562],[142.7687,-11.0535,0.0],[142.7675,-11.0473,0.0],[142.7639,-11.0466,15.1846],[142.7619,-11.0434,0.7407],[142.7599,-11.0446,27.1461],[142.7564,-11.0421,8.4545],[142.7552,-11.0335,0.0],[142.7495,-11.0268,0.0],[142.7526,-11.0071,1.4789],[142.7477,-11.0044,3.3048],[142.7457,-10.9985,7.4179],[142.4036,-10.9985,8.1627],[142.4055,-10.9992,10.5311],[142.4033,-11.0022,8.1652],[142.4009,-11.0025,5.7148],[142.4021,-11.0039,7.0544],[142.4005,-11.0069,6.987],[142.3964,-11.0102,7.6052],[142.3925,-11.0104,8.6185],[142.3937,-11.0127,7.1132],[142.3889,-11.0156,15.1896],[142.3925,-11.02,28.0429],[142.3662,-11.0427,53.5609],[142.3662,-11.0537,47.652],[142.3688,-11.0709,37.663],[142.3742,-11.088,27.7128],[142.3727,-11.1203,21.802],[142.3572,-11.1416,13.2799],[142.3558,-11.1523,13.5584],[142.3638,-11.1678,15.1369],[142.3735,-11.1966,43.2902],[142.1203,-11.2254,2.0917],[142.1192,-11.2236,0.0],[142.1162,-11.2247,0.0],[142.1193,-11.2265,27.9419],[142.1182,-11.2357,6.772],[142.12,-11.2349,19.1005],[142.1234,-11.2375,13.9262],[142.1256,-11.2475,12.2659],[142.1268,-11.2753,7.2695],[142.1257,-11.3031,17.8391],[142.1268,-11.3058,15.9252],[142.1198,-11.3501,6.2281],[142.12,-11.3685,0.0],[142.1169,-11.3738,0.0],[142.0973,-11.445,0.0],[142.0982,-11.4528,3.9992],[142.1004,-11.4526,6.495],[142.1005,-11.4632,1.4179],[142.0906,-11.4627,0.0],[142.0886,-11.4647,3.4036],[142.0672,-11.5248,0.0],[142.0574,-11.5402,0.6957],[142.0513,-11.5548,2.9945],[142.0432,-11.5915,4.7027],[142.0247,-11.6515,4.3358],[142.0242,-11.659,1.8252],[142.026,-11.6623,4.5832],[142.0241,-11.6681,0.0],[142.0159,-11.6731,0.0],[142.0121,-11.6985,8.8877],[142.003,-11.7311,0.0],[142.0019,-11.7533,0.5975],[141.9981,-11.7603,5.5443],[141.9844,-11.7684,0.0],[141.9792,-11.7743,0.0],[141.9679,-11.8021,0.0],[141.962,-11.8208,0.0],[141.952,-11.8694,2.6106],[141.9478,-11.9143,1.0962],[141.9422,-11.9455,8.0792],[141.9411,-11.9601,0.0],[141.9428,-11.9765,4.2321],[141.9501,-11.98,0.0],[141.9601,-11.9755,6.2373],[141.9717,-11.9801,10.8898],[141.9886,-11.9969,8.5791],[141.9948,-12.0071,0.0],[142.0014,-12.0139,0.0],[142.0052,-12.0237,4.0839],[142.0057,-12.0305,0.0],[142.0122,-12.0391,6.2115],[141.9942,-12.0597,7.9351],[141.9935,-12.0623,11.5353],[141.9944,-12.0681,9.9509],[142.001,-12.0751,6.6388],[142.0074,-12.0793,10.5061],[142.0158,-12.0769,3.8498],[142.0201,-12.0784,2.6107],[142.0209,-12.0721,10.5893],[142.0262,-12.0628,0.0],[142.0356,-12.038,0.375],[142.0387,-12.0219,0.5],[142.039,-11.9978,0.5],[142.0478,-11.9849,5.7863],[142.0645,-11.9797,0.5],[142.0799,-11.9836,0.5],[142.0965,-11.9834,15.5364],[142.1021,-11.985,13.3797],[142.0876,-11.9969,13.6249],[142.0651,-12.0075,4.781],[142.071,-12.0403,10.2469],[142.0427,-12.0636,3.9015],[142.0465,-12.1127,6.5152],[142.0221,-12.0808,5.8402],[142.006,-12.0932,9.5023],[142.0114,-12.1219,12.5941],[142.0042,-12.1282,17.1493],[141.9864,-12.0594,3.5544],[141.9683,-12.066,5.2602],[141.9493,-12.0859,7.6304],[141.9676,-12.1527,11.8811],[141.9611,-12.1805,14.3988],[141.9105,-12.1635,9.2083],[141.8701,-12.1868,18.47],[141.8487,-12.1939,16.0951],[141.8494,-12.2674,14.8808],[141.8461,-12.3187,16.7543],[141.7385,-12.2909,11.7823],[141.7296,-12.3074,13.7419],[141.7379,-12.3049,15.6122],[141.8448,-12.3331,19.6513],[141.841,-12.3837,7.0865],[141.7992,-12.4316,8.5325],[141.7763,-12.4664,1.756],[141.7298,-12.4411,9.3393],[141.7061,-12.4533,5.7547],[141.6828,-12.4552,5.4716],[141.6573,-12.4417,11.7116],[141.5918,-12.5639,2.1932],[141.5984,-12.5683,0.0],[141.6007,-12.5718,2.597],[141.6081,-12.5716,0.0],[141.6142,-12.5738,2.9655],[141.6257,-12.5833,0.7086],[141.6302,-12.5779,13.9273],[141.6432,-12.5776,9.651],[141.6455,-12.52,10.1198],[141.6541,-12.4615,5.965],[141.6587,-12.4635,1.3237],[141.6579,-12.467,6.1476],[141.6614,-12.4909,6.2504],[141.6566,-12.5004,10.9059],[141.6506,-12.5028,4.0402],[141.6564,-12.5081,0.375],[141.6525,-12.5214,12.0783],[141.6565,-12.5228,0.5],[141.6619,-12.5289,7.632],[141.6619,-12.5311,11.1219],[141.6737,-12.5294,1.2596],[141.6798,-12.5325,5.6382],[141.6867,-12.532,5.9046],[141.6895,-12.535,7.266],[141.6969,-12.5356,5.3196],[141.6958,-12.5338,0.9906],[141.702,-12.5196,0.7352],[141.6933,-12.5183,0.0],[141.6906,-12.512,0.0],[141.6995,-12.4972,4.6758],[141.7065,-12.4953,10.9803],[141.7152,-12.4968,4.5838],[141.7184,-12.4932,0.0],[141.7218,-12.484,0.0],[141.7314,-12.4807,0.0],[141.7387,-12.4808,2.0305],[141.7365,-12.4814,13.4301],[141.7185,-12.4993,9.5319],[141.7705,-12.5341,3.2243],[141.7958,-12.5759,9.1405],[141.8375,-12.5926,9.3178],[141.8733,-12.5884,3.9548],[141.8723,-12.5598,5.6968],[141.8843,-12.5673,4.5223],[141.8946,-12.5841,4.0727],[141.8938,-12.6019,0.7885],[141.8969,-12.605,3.5857],[141.892,-12.6156,7.3252],[141.89,-12.6401,15.2993],[141.8801,-12.6402,21.0843],[141.8718,-12.643,18.956],[141.8656,-12.6424,9.9911],[141.8642,-12.6506,19.852],[141.8546,-12.6571,9.6747],[141.8557,-12.6596,10.1239],[141.8614,-12.6639,7.3514],[141.86,-12.6652,1.5004],[141.8651,-12.666,8.3514],[141.8682,-12.6706,5.4504],[141.8777,-12.6713,0.0],[141.8631,-12.6934,3.0481],[141.8545,-12.6862,0.0],[141.8467,-12.6897,6.3557],[141.839,-12.6877,0.5],[141.8032,-12.7474,12.5867],[141.8008,-12.8359,13.339],[141.7533,-12.8314,9.4502],[141.7497,-12.835,3.5013],[141.7399,-12.8535,0.0],[141.7334,-12.8585,5.7813],[141.7278,-12.8586,0.0],[141.7231,-12.864,2.1604],[141.7207,-12.8641,0.0],[141.7119,-12.8776,0.0],[141.6954,-12.8831,12.6049],[141.6858,-12.8835,0.0],[141.6768,-12.8921,1.1184],[141.6699,-12.8945,0.0],[141.6654,-12.9044,2.6852],[141.6591,-12.9123,1.9453],[141.6528,-12.9168,9.8331],[141.6445,-12.9192,0.0],[141.641,-12.9184,8.9742],[141.6391,-12.9166,5.5365],[141.6392,-12.9127,0.5324],[141.636,-12.9088,0.0],[141.6335,-12.913,7.2517],[141.6287,-12.9161,1.9895],[141.6218,-12.9291,6.9725],[141.6098,-12.9465,11.1784],[141.6061,-12.9503,1.0174],[141.5997,-12.9521,0.0],[141.6008,-12.9543,9.3468],[141.5982,-12.9624,0.0],[141.5832,-12.9967,4.9968],[141.588,-13.004,0.0],[141.5887,-13.0172,0.9875],[141.5903,-13.0186,0.0],[141.5956,-13.0154,11.8482],[141.6045,-13.0204,3.4195],[141.6136,-13.0298,3.5363],[141.6178,-13.04,6.6257],[141.6188,-13.0461,0.0],[141.6173,-13.0562,0.0],[141.6191,-13.0621,4.3881],[141.6191,-13.0716,5.3685],[141.6168,-13.0847,0.0],[141.6139,-13.0919,0.0],[141.6217,-13.1113,0.0],[141.6232,-13.1318,8.2696],[141.6273,-13.1376,14.0054],[141.6294,-13.1451,5.7584],[141.6295,-13.1594,8.8495],[141.6345,-13.1595,12.6746],[141.6431,-13.1661,0.0],[141.6479,-13.1744,7.2571],[141.6504,-13.1892,1.6609],[141.6558,-13.1965,0.0],[141.6572,-13.2035,0.0],[141.6637,-13.2053,9.472],[141.6657,-13.2098,0.0],[141.6696,-13.2131,0.0],[141.6743,-13.2123,14.514],[141.6782,-13.2152,0.0],[141.684,-13.2251,4.694],[141.6865,-13.2331,0.0],[141.6893,-13.2341,19.0525],[141.6917,-13.2399,5.6075],[141.7533,-13.2871,1.8311],[141.7524,-13.357,22.819],[141.8135,-13.357,29.7894],[141.8414,-13.3072,34.2672],[141.7439,-12.9992,53.7441],[141.8469,-12.9428,66.3152],[141.801,-12.9138,76.6777],[141.8271,-12.874,41.1715],[141.8701,-12.8737,36.0443],[141.8957,-12.7975,6.9029]],
[[141.6841,-12.4742,0.0],[141.6866,-12.4753,1.1623],[141.6995,-12.4746,5.3533],[141.6955,-12.4622,7.0605],[141.7169,-12.4585,3.4657],[141.733,-12.4681,0.0],[141.7203,-12.4689,0.0],[141.7169,-12.4638,10.1913],[141.714,-12.4633,10.1749],[141.7006,-12.4672,8.5112],[141.7012,-12.4749,5.3533],[141.7002,-12.4768,1.9428],[141.6887,-12.4775,4.1622],[141.6841,-12.4742,0.0]],
[[141.7406,-12.4751,0.0],[141.7396,-12.4721,0.0],[141.749,-12.4777,10.6038],[141.7468,-12.4784,10.2832],[141.7406,-12.4751,0.0]],
[[141.9036,-12.5878,0.0],[141.9011,-12.5914,0.0],[141.8995,-12.5918,0.0],[141.9036,-12.5849,0.0],[141.9036,-12.5878,0.0]],
[[141.902,-12.6097,0.0],[141.9056,-12.6111,0.0],[141.8972,-12.6175,13.0136],[141.8982,-12.6067,10.0586],[141.902,-12.6097,0.0]],
[[141.9289,-12.6829,18.4282],[141.9258,-12.6874,16.487],[141.9214,-12.6844,13.8204],[141.923,-12.6821,17.2874],[141.9203,-12.6804,17.608],[141.9218,-12.6782,18.3441],[141.9147,-12.6735,14.2136],[141.9158,-12.6719,17.7211],[141.9229,-12.6766,17.9422],[141.9277,-12.6696,19.3188],[141.9294,-12.6707,19.3188],[141.9245,-12.6777,20.5396],[141.9348,-12.6846,19.6793],[141.9337,-12.6862,17.8672],[141.9289,-12.6829,18.4282]],
[[141.883,-12.6742,8.8548],[141.8822,-12.6728,5.1582],[141.8937,-12.6733,9.8327],[141.8916,-12.68,13.4872],[141.8954,-12.685,15.1794],[141.8988,-12.6857,14.9754],[141.8996,-12.6908,11.8643],[141.8899,-12.69,0.0],[141.8853,-12.6866,0.0],[141.883,-12.6742,8.8548]],
[[141.9101,-12.6923,12.1376],[141.9109,-12.6949,11.2892],[141.909,-12.6953,13.4899],[141.9077,-12.6937,15.379],[141.9101,-12.6923,12.1376]],
[[141.8944,-12.7565,11.614],[141.8939,-12.7662,4.0091],[141.8823,-12.7436,18.2316],[141.878,-12.7141,0.0],[141.8814,-12.7253,4.091],[141.8922,-12.7319,3.6553],[141.8914,-12.7414,7.7772],[141.8936,-12.7462,2.1229],[141.8944,-12.7565,11.614]],
[[141.9084,-12.7512,9.3247],[141.9057,-12.7517,2.4857],[141.9057,-12.746,1.0471],[141.9086,-12.7471,5.4022],[141.9084,-12.7512,9.3247]],
[[143.3027,-12.8157,10.8059],[143.3087,-12.8191,14.618],[143.2899,-12.821,15.5987],[143.2861,-12.8235,23.5489],[143.2776,-12.8128,19.9623],[143.2895,-12.8036,12.5632],[143.2748,-12.7912,14.3401],[143.2776,-12.7807,22.3841],[143.2889,-12.7938,15.8085],[143.2914,-12.7991,14.1875],[143.2986,-12.8035,7.6735],[143.3016,-12.808,13.5875],[143.3027,-12.8157,10.8059]]],
[[[143.6888,-13.6705,4.9537],[143.6898,-13.674,1.95],[143.6921,-13.6744,0.0],[143.6954,-13.6685,0.0],[143.695,-13.6662,0.0],[143.6911,-13.6683,4.1893],[143.6937,-13.6678,4.8011],[143.6933,-13.6689,4.9942],[143.6888,-13.6705,4.9537]]],
[[[143.7215,-13.6531,0.5194],[143.7175,-13.653,0.3131],[143.7175,-13.6544,0.3131],[143.7193,-13.6552,0.4876],[143.7215,-13.6531,0.5194]]],
[[[143.7245,-13.4916,0.0],[143.7218,-13.4938,0.0],[143.722,-13.4947,0.0],[143.7239,-13.4936,2.0455],[143.7245,-13.4916,0.0]]],
[[[143.598,-13.2744,0.0313],[143.5967,-13.2735,0.0313],[143.5963,-13.2738,0.0123],[143.5972,-13.2757,0.0995],[143.598,-13.2744,0.0313]]],
[[[143.5717,-13.2165,0.0],[143.5723,-13.2162,0.0487],[143.5713,-13.2158,0.0],[143.5713,-13.2162,0.0],[143.5717,-13.2165,0.0]]],
[[[143.5762,-13.1796,-0.2047],[143.5742,-13.1897,2.2757],[143.575,-13.1926,0.1214],[143.58,-13.182,1.1344],[143.5789,-13.1727,0.0],[143.5758,-13.1762,0.1817],[143.5762,-13.1796,-0.2047]]],
[[[143.4626,-12.6213,1.9498],[143.4635,-12.6216,0.0],[143.4637,-12.6211,0.0],[143.4631,-12.6206,0.0],[143.4626,-12.6213,1.9498]]],
[[[144.2617,-14.0508,3.2288],[144.2626,-14.0549,0.0],[144.2674,-14.0573,0.0],[144.2678,-14.0512,0.0],[144.2617,-14.0508,3.2288]]],
[[[144.0375,-11.5892,0.0],[144.0336,-11.5878,0.0],[144.0321,-11.5889,1.39],[144.0322,-11.5917,0.0],[144.0383,-11.5933,0.0],[144.0375,-11.5892,0.0]]],
[[[144.0192,-11.41,0.0],[144.0217,-11.4119,0.0],[144.0231,-11.4108,0.0],[144.0203,-11.4069,0.0],[144.0186,-11.4083,0.0],[144.0192,-11.41,0.0]]],
[[[141.8596,-12.639,7.229],[141.8456,-12.6386,4.9324],[141.8412,-12.6438,0.4141],[141.8378,-12.6452,4.2569],[141.8316,-12.642,2.1571],[141.8273,-12.6485,4.2757],[141.8281,-12.6531,2.5745],[141.8271,-12.654,2.5745],[141.8303,-12.6552,1.3319],[141.8326,-12.6602,0.7404],[141.8381,-12.6642,4.8072],[141.8399,-12.6683,0.0],[141.8461,-12.665,0.6644],[141.8464,-12.6616,8.643],[141.8498,-12.6577,11.7297],[141.8543,-12.658,9.5032],[141.855,-12.6514,12.6806],[141.8622,-12.6475,9.1005],[141.8516,-12.6442,5.9885],[141.8521,-12.6405,11.7156],[141.8596,-12.639,7.229]]],
[[[141.7885,-12.2482,13.2023],[141.7942,-12.2481,6.7182],[141.802,-12.2532,11.1205],[141.8073,-12.2526,12.8901],[141.8095,-12.25,13.1938],[141.8134,-12.2488,12.8847],[141.8139,-12.2468,11.0899],[141.811,-12.2441,4.0105],[141.8011,-12.2423,0.5],[141.7951,-12.2378,0.5],[141.7853,-12.2354,0.0],[141.7847,-12.2308,5.5254],[141.774,-12.2284,0.0],[141.7632,-12.2326,0.0],[141.746,-12.2264,0.0],[141.7394,-12.2286,0.0],[141.7273,-12.2277,0.0],[141.7162,-12.2336,0.0],[141.7143,-12.2365,3.4664],[141.7199,-12.2342,2.6214],[141.7344,-12.2327,0.0],[141.7382,-12.2342,2.7683],[141.7401,-12.2404,7.6661],[141.7432,-12.2421,0.0],[141.7556,-12.2437,0.0],[141.7658,-12.2418,1.5765],[141.7655,-12.2389,0.0],[141.7682,-12.2386,0.0],[141.774,-12.2428,3.2441],[141.777,-12.2411,7.0178],[141.7809,-12.243,13.2985],[141.7885,-12.2482,13.2023]]],
[[[142.9917,-11.7375,0.0],[142.9936,-11.7433,0.0],[142.9956,-11.74,0.0],[142.9919,-11.7283,0.0],[142.9855,-11.7233,0.0],[142.9848,-11.7245,0.0],[142.9883,-11.7264,0.0],[142.9908,-11.7303,0.0],[142.9917,-11.7375,0.0]]],
[[[142.9785,-11.729,0.0],[142.9796,-11.729,0.0],[142.9797,-11.7288,0.0],[142.9774,-11.7285,0.0],[142.9785,-11.729,0.0]]],
[[[143.3015,-12.0357,0.0],[143.2998,-12.0356,0.0],[143.2966,-12.0398,27.5562],[143.2967,-12.0419,18.5296],[143.2996,-12.0427,35.8292],[143.3035,-12.0412,0.0],[143.3042,-12.0366,0.0],[143.3015,-12.0357,0.0]]],
[[[143.2433,-11.9947,3.5923],[143.2413,-11.9938,0.0],[143.24,-11.9954,0.0],[143.2441,-11.9969,5.975],[143.2433,-11.9947,3.5923]]],
[[[143.2487,-11.9856,6.7092],[143.2471,-11.9841,0.0],[143.2442,-11.9878,0.0],[143.2487,-11.9905,4.463],[143.2498,-11.9937,17.7031],[143.2483,-11.9944,0.0],[143.2514,-11.9961,2.8197],[143.2528,-11.9932,3.4361],[143.2487,-11.9856,6.7092]]],
[[[143.2657,-11.9751,1.0403],[143.2621,-11.9763,4.3899],[143.2647,-11.9793,2.1272],[143.2672,-11.9884,8.6696],[143.2717,-11.99,3.3734],[143.2754,-11.9882,1.7371],[143.2767,-11.9858,0.0],[143.2685,-11.9762,0.255],[143.2657,-11.9751,1.0403]]],
[[[143.2891,-11.9693,0.0],[143.2867,-11.9676,0.0],[143.2848,-11.9691,0.4129],[143.2872,-11.9743,3.7384],[143.2904,-11.9711,0.3873],[143.2891,-11.9693,0.0]]],
[[[143.256,-11.9693,0.0],[143.2534,-11.9675,0.0],[143.253,-11.9678,0.0],[143.2532,-11.9698,2.2841],[143.256,-11.9693,0.0]]],
[[[143.2631,-11.9668,0.0],[143.2629,-11.9676,0.0],[143.2634,-11.9694,2.2066],[143.2639,-11.966,0.0],[143.2631,-11.9668,0.0]]],
[[[143.2679,-11.9505,0.3514],[143.2687,-11.9497,0.3514],[143.2668,-11.9493,0.0],[143.2666,-11.9503,2.4416],[143.2679,-11.9505,0.3514]]],
[[[143.2117,-11.9312,15.8415],[143.211,-11.9277,0.0],[143.2076,-11.9293,0.0],[143.2082,-11.9308,6.987],[143.2117,-11.9312,15.8415]]],
[[[143.1086,-11.8899,2.9236],[143.1083,-11.8882,0.0],[143.1073,-11.891,2.9236],[143.1079,-11.8912,2.9236],[143.1086,-11.8899,2.9236]]],
[[[143.2818,-11.8564,0.5815],[143.2805,-11.8577,0.0],[143.2806,-11.8603,0.0],[143.2832,-11.857,0.5815],[143.2818,-11.8564,0.5815]]],
[[[143.3041,-11.8491,0.0],[143.3036,-11.8502,1.685],[143.3048,-11.8505,3.1805],[143.3053,-11.8493,3.221],[143.3041,-11.8491,0.0]]],
[[[143.4463,-12.6163,5.2638],[143.4439,-12.6182,0.4567],[143.4456,-12.624,12.359],[143.4505,-12.6206,0.0],[143.4496,-12.6147,47.0759],[143.448,-12.6141,0.0],[143.4463,-12.6163,5.2638]]],
[[[143.4828,-12.5239,0.0],[143.4918,-12.5271,0.0],[143.5019,-12.5269,0.0],[143.4882,-12.5256,0.0],[143.4752,-12.5205,0.0],[143.4564,-12.5069,0.0],[143.4548,-12.5036,0.0],[143.4553,-12.5071,0.0],[143.4616,-12.5127,0.0],[143.4734,-12.5205,0.0],[143.4828,-12.5239,0.0]]],
[[[143.4438,-12.4929,0.0],[143.4497,-12.4981,0.0],[143.4345,-12.4825,0.0],[143.4338,-12.4842,0.0],[143.4438,-12.4929,0.0]]],
[[[143.4189,-12.2932,15.1196],[143.4169,-12.2925,2.9557],[143.4156,-12.2944,28.4571],[143.4198,-12.2975,0.0],[143.4203,-12.2959,0.0],[143.4189,-12.2932,15.1196]]],
[[[143.4172,-12.5903,6.7418],[143.4178,-12.5889,0.0],[143.4157,-12.5891,7.4009],[143.4156,-12.5909,6.7418],[143.4172,-12.5903,6.7418]]],
[[[143.4029,-12.2989,24.1691],[143.4058,-12.2968,1.3653],[143.4043,-12.2937,0.0],[143.4,-12.2975,0.0],[143.4001,-12.2997,0.0],[143.4021,-12.3003,0.0],[143.4029,-12.2989,24.1691]]],
[[[143.4148,-12.2842,8.4612],[143.4126,-12.2825,0.0],[143.4098,-12.2829,0.0],[143.4072,-12.288,12.5181],[143.4041,-12.2867,7.3646],[143.4032,-12.2887,3.3555],[143.4054,-12.2894,12.5181],[143.407,-12.2925,0.0],[143.4086,-12.2916,0.447],[143.4141,-12.2929,3.8181],[143.4159,-12.2898,0.0],[143.4148,-12.2842,8.4612]]],
[[[143.2253,-12.2436,0.625],[143.226,-12.2448,0.0],[143.2278,-12.2447,0.6907],[143.2276,-12.2433,2.4794],[143.2253,-12.2436,0.625]]],
[[[143.4762,-11.9198,0.0],[143.4802,-11.9217,2.4276],[143.4857,-11.9212,0.0],[143.4841,-11.9144,3.3497],[143.4819,-11.9133,13.1643],[143.4771,-11.9153,0.0],[143.4762,-11.9198,0.0]]],
[[[143.4725,-11.9011,4.6289],[143.4703,-11.8978,0.0],[143.4663,-11.9002,0.0],[143.4636,-11.9047,0.0],[143.4693,-11.9076,7.2592],[143.4712,-11.9072,0.0],[143.4725,-11.9011,4.6289]]],
[[[143.8133,-11.3219,0.0],[143.8122,-11.3186,0.0],[143.8108,-11.3175,0.0],[143.8124,-11.3248,0.0],[143.8133,-11.3219,0.0]]],
[[[143.3004,-11.8476,2.8286],[143.3018,-11.8484,0.0],[143.302,-11.8464,2.8286],[143.3012,-11.8463,2.8286],[143.3004,-11.8476,2.8286]]],
[[[143.314,-11.8372,0.0],[143.3152,-11.8383,0.0],[143.3171,-11.837,3.3808],[143.3156,-11.8354,4.1168],[143.314,-11.8372,0.0]]],
[[[143.0886,-11.7925,0.0],[143.0908,-11.7917,0.0],[143.0908,-11.7897,0.0],[143.0846,-11.7856,0.0],[143.0889,-11.7906,0.0],[143.0828,-11.7894,0.0],[143.0886,-11.7925,0.0]]],
[[[143.0894,-11.7677,9.7489],[143.0949,-11.7703,1.9995],[143.0952,-11.7721,3.0045],[143.0956,-11.7696,1.9995],[143.0935,-11.7672,1.2449],[143.0897,-11.7657,1.175],[143.0877,-11.7668,5.4308],[143.0894,-11.7677,9.7489]]],
[[[142.9408,-11.5897,0.0],[142.935,-11.5889,0.0],[142.9311,-11.5922,0.0],[142.9333,-11.5942,0.0],[142.937,-11.5928,0.0],[142.9472,-11.5936,0.0],[142.9408,-11.5897,0.0]]],
[[[143.0145,-11.5517,0.0],[143.0103,-11.5506,0.0],[143.0125,-11.5553,0.0],[143.0117,-11.5569,0.0],[143.0161,-11.5628,0.0],[143.0192,-11.5633,0.0],[143.0231,-11.5583,0.0],[143.0211,-11.5544,0.0],[143.0145,-11.5517,0.0]]],
[[[143.0833,-11.5233,0.0],[143.0783,-11.5217,0.0],[143.0836,-11.5267,0.0],[143.0875,-11.5264,0.0],[143.0833,-11.5233,0.0]]],
[[[143.0284,-11.4867,1.5542],[143.0222,-11.4843,0.0],[143.0188,-11.4871,2.2821],[143.0295,-11.4882,0.0],[143.0284,-11.4867,1.5542]]],
[[[143.1792,-11.7013,1.2647],[143.1811,-11.705,0.0],[143.1821,-11.7024,0.5352],[143.1807,-11.6991,0.0],[143.1792,-11.7013,1.2647]]],
[[[143.1086,-11.1672,0.0],[143.105,-11.1653,0.0],[143.1036,-11.1672,0.0],[143.1086,-11.1692,0.0],[143.1086,-11.1672,0.0]]],
[[[143.1011,-11.1633,0.0],[143.1022,-11.165,0.0],[143.1036,-11.165,0.0],[143.1025,-11.1628,0.0],[143.1011,-11.1633,0.0]]],
[[[143.0322,-11.4813,0.0],[143.0334,-11.4805,0.0],[143.0327,-11.4798,0.0],[143.0313,-11.4804,0.0],[143.0322,-11.4813,0.0]]],
[[[143.0342,-11.448,0.0],[143.0342,-11.4465,0.0],[143.0333,-11.4465,0.0],[143.0332,-11.4494,0.0],[143.0342,-11.448,0.0]]],
[[[142.9669,-11.3796,2.2818],[142.9687,-11.3805,2.2818],[142.9705,-11.3825,0.0],[142.9696,-11.3788,0.0],[142.9669,-11.3796,2.2818]]],
[[[143.0339,-11.3797,0.0],[143.0281,-11.3786,0.0],[143.0303,-11.3808,0.0],[143.0339,-11.3808,0.0],[143.0339,-11.3797,0.0]]],
[[[142.8764,-11.2517,0.0],[142.8748,-11.2473,0.0],[142.8711,-11.2483,0.0],[142.8747,-11.2514,0.0],[142.8755,-11.2547,0.0],[142.8764,-11.2517,0.0]]],
[[[142.9299,-11.2434,0.0],[142.9204,-11.2399,10.1816],[142.9206,-11.2418,3.0723],[142.93,-11.2439,0.0],[142.9335,-11.2483,0.0],[142.933,-11.2465,0.0],[142.9314,-11.2446,0.0],[142.9299,-11.2434,0.0]]],
[[[142.9939,-11.2349,0.0],[142.9926,-11.2349,0.0],[142.9916,-11.2357,0.0],[142.9937,-11.2373,0.0],[142.9939,-11.2349,0.0]]],
[[[143.0426,-11.1953,0.0],[143.0443,-11.1945,0.0],[143.0394,-11.1924,0.0],[143.0405,-11.1946,1.0742],[143.0426,-11.1953,0.0]]],
[[[143.0109,-11.1647,0.0],[143.0148,-11.1684,13.8039],[143.0152,-11.1706,8.4842],[143.0194,-11.1693,0.0],[143.0152,-11.1655,0.0],[143.0109,-11.1647,0.0]]],
[[[143.0756,-11.1595,0.0],[143.0766,-11.1612,0.6327],[143.0777,-11.1602,0.6327],[143.0765,-11.1578,0.0],[143.0756,-11.1595,0.0]]],
[[[143.0176,-11.1078,0.0],[143.0205,-11.107,0.0],[143.0151,-11.1069,0.0],[143.0166,-11.1091,0.0],[143.0176,-11.1078,0.0]]],
[[[142.7559,-11.0249,2.9438],[142.7565,-11.0245,1.1919],[142.7561,-11.024,1.1919],[142.7554,-11.0242,1.1919],[142.7559,-11.0249,2.9438]]],
[[[142.9941,-11.0088,0.0],[142.9909,-11.0079,0.0],[142.9916,-11.0104,0.0],[142.9937,-11.0103,0.0],[142.9941,-11.0088,0.0]]],
[[[142.9892,-11.0062,0.0],[142.9895,-11.0048,0.0],[142.9892,-11.0045,0.0],[142.9884,-11.0054,0.0],[142.9892,-11.0062,0.0]]],
[[[142.4027,-10.9989,7.2893],[142.4031,-10.9985,8.1627],[142.4016,-10.9985,7.2893],[142.4022,-10.9989,7.2893],[142.4027,-10.9989,7.2893]]]]}
,"properties": {"GID_2": "AUS.7.20_1","GID_0": "AUS","country": "Australia","GID_1": "AUS.7_1","state": "Queensland","NL_NAME_1": "NA","county": "Cook","VARNAME_2": "NA","NL_NAME_2": "NA","TYPE_2": "Shire","ENGTYPE_2": "Shire","CC_2": "32500","HASC_2": "AU.QL.CK","name": "Cook.county","area_km2": 106171.06,"hist_schema_id": "Elevation0-9000","hist_area_km2": {"0": 4646.51,"25": 12854.02,"50": 16860.17,"75": 15850.35,"100": 13106.37,"125": 10093.44,"150": 8037.02,"175": 6077.95,"200": 4450.78,"225": 3167.35,"250": 2143.88,"275": 1312.33,"300": 918.63,"325": 764.69,"350": 699.43,"375": 666.08,"400": 656.33,"425": 643.29,"450": 566.7,"475": 509.55,"500": 477.45,"525": 389.28,"550": 280.71,"575": 195.76,"600": 135.15,"625": 99.77,"650": 78.26,"675": 67.58,"700": 54.86,"725": 44.78,"750": 38.99,"775": 32.6,"800": 26.92,"825": 19.14,"850": 15.11,"875": 11.56,"900": 11.87,"925": 10.32,"950": 8.98,"975": 8.18,"1000": 8.71,"1025": 10.12,"1050": 11.85,"1075": 17.84,"1100": 15.64,"1125": 18.0,"1150": 17.87,"1175": 12.6,"1200": 10.5,"1225": 7.96,"1250": 4.32,"1275": 2.38,"1300": 0.96}}}