{"type":"Feature","properties":{"GID_2":"AUS.5.19_1","GID_0":"AUS","country":"Australia","GID_1":"AUS.5_1","state":"NewSouthWales","NL_NAME_1":"NA","county":"BotanyBay","VARNAME_2":"NA","NL_NAME_2":"NA","TYPE_2":"City","ENGTYPE_2":"City","CC_2":"11100","HASC_2":"AU.NS.BB","name":"BotanyBay.county"},
"geometry":{"type": "MultiPolygon","coordinates": [[[[151.1757,-33.955,0.5207],[151.1789,-33.9665,0.0],[151.1835,-33.9678,4.7832],[151.1862,-33.9662,0.0],[151.1866,-33.9637,0.0],[151.1861,-33.9621,0.0],[151.1823,-33.9614,2.6283],[151.1808,-33.9556,1.8264],[151.1823,-33.9523,2.2599],[151.1863,-33.9526,2.4885],[151.1927,-33.9739,0.5862],[151.1956,-33.9727,1.1583],[151.1914,-33.9578,4.0545],[151.1924,-33.9542,1.8857],[151.2063,-33.9611,3.7929],[151.2088,-33.9644,0.0],[151.2109,-33.9621,2.3858],[151.2123,-33.9633,3.4644],[151.2081,-33.9649,2.5868],[151.2058,-33.9645,1.2146],[151.2075,-33.9698,0.4833],[151.2182,-33.9673,2.4478],[151.2209,-33.9684,4.0794],[151.2211,-33.9591,11.3876],[151.2303,-33.9556,24.9855],[151.2317,-33.9521,23.7469],[151.23,-33.9476,22.4331],[151.2268,-33.9453,26.4288],[151.2305,-33.9353,29.3297],[151.2281,-33.9247,26.3047],[151.222,-33.9255,23.3711],[151.1808,-33.9192,1.9405],[151.1713,-33.9279,1.3034],[151.1719,-33.9292,1.4112],[151.1658,-33.938,8.6247],[151.1703,-33.9422,2.8905],[151.181,-33.9397,3.3947],[151.1857,-33.9419,5.2051],[151.1858,-33.9444,4.2576],[151.18,-33.954,3.1099],[151.1757,-33.955,0.5207]]]]}}