{"type": "Feature","bbox": [152.6797,-27.6603,153.4682,-27.022],"geometry": {"type": "MultiPolygon","coordinates": [[[[153.1879,-27.4949,4.8387],[153.1924,-27.4947,1.2551],[153.1912,-27.4922,2.6077],[153.1873,-27.4913,2.9899],[153.1862,-27.4872,1.3937],[153.1872,-27.4846,1.3343],[153.1925,-27.4811,3.4083],[153.1919,-27.4791,2.0523],[153.1924,-27.479,2.0523],[153.193,-27.4811,3.4083],[153.1969,-27.4802,0.7006],[153.196,-27.4753,0.0],[153.1917,-27.4774,2.0011],[153.1886,-27.4758,1.925],[153.192,-27.4759,2.0837],[153.1944,-27.472,0.0],[153.1901,-27.462,9.8298],[153.1945,-27.459,0.0],[153.1947,-27.4564,0.0],[153.1938,-27.4524,0.0],[153.1923,-27.4522,0.0],[153.1931,-27.4576,0.0],[153.1908,-27.4561,0.0],[153.1905,-27.4596,2.9243],[153.1893,-27.4599,9.0166],[153.1888,-27.4534,0.9531],[153.1913,-27.4509,0.0],[153.1867,-27.4513,2.6628],[153.1872,-27.4465,3.9067],[153.1815,-27.4454,1.6674],[153.1754,-27.4404,0.0],[153.1715,-27.4319,1.4551],[153.1722,-27.4295,1.6769],[153.1691,-27.4246,10.096],[153.1708,-27.4221,4.982],[153.1699,-27.417,7.0184],[153.1738,-27.4157,3.8546],[153.1741,-27.4074,3.4938],[153.1707,-27.4019,3.4453],[153.1658,-27.4012,2.5551],[153.1654,-27.3989,2.315],[153.1684,-27.3938,0.7651],[153.1723,-27.3957,1.0438],[153.1789,-27.3958,4.9437],[153.1781,-27.3969,2.4172],[153.1875,-27.403199999999998,0.0],[153.1886,-27.4023,2.1011],[153.1866,-27.3965,3.0018],[153.1838,-27.3934,5.0512],[153.1815,-27.3938,5.795],[153.1835,-27.3933,5.795],[153.1793,-27.3857,6.6523],[153.2022,-27.3529,0.0],[153.1888,-27.3455,0.0],[153.1787,-27.36,0.9791],[153.1777,-27.3595,0.0],[153.1719,-27.3658,0.0],[153.1739,-27.3669,0.6459],[153.1678,-27.3762,4.64],[153.1608,-27.3832,0.0],[153.1565,-27.3924,0.0],[153.1583,-27.3946,0.0],[153.1578,-27.3992,0.0],[153.1639,-27.3982,0.7502],[153.164,-27.4017,2.4099],[153.1547,-27.4018,0.0],[153.1559,-27.4033,1.9257],[153.14,-27.4235,1.0288],[153.1228,-27.4321,0.6729],[153.1106,-27.4432,3.6038],[153.0989,-27.4482,5.4707],[153.0845,-27.4501,8.5571],[153.0643,-27.4434,2.4924],[153.0517,-27.443,0.0],[153.0507,-27.4449,0.0],[153.0535,-27.4544,0.0],[153.0537,-27.4615,0.0],[153.0573,-27.4704,3.0975],[153.0532,-27.4748,4.3265],[153.0462,-27.4778,3.6447],[153.0429,-27.4775,9.9651],[153.0399,-27.475,7.5465],[153.0371,-27.4661,2.0903],[153.0354,-27.4647,2.0903],[153.0339,-27.4663,3.9591],[153.0343,-27.4767,2.3135],[153.0317,-27.4819,23.0154],[153.0256,-27.4808,3.2489],[153.0162,-27.4695,0.0],[153.0044,-27.477,1.1914],[152.9965,-27.4889,6.3709],[153.0154,-27.4909,25.0346],[153.021,-27.495,27.055],[153.0233,-27.5004,13.8663],[153.0203,-27.5045,1.649],[153.0056,-27.506,0.0],[153.0012,-27.5099,13.6379],[153.0003,-27.5145,5.1471],[153.0111,-27.5173,14.3469],[153.0115,-27.52,10.8622],[153.0097,-27.523,9.8202],[152.9949,-27.5237,3.3183],[152.9952,-27.5247,6.6444],[152.9725,-27.506,0.0],[152.9687,-27.5099,8.0619],[152.9678,-27.5151,16.1042],[152.9729,-27.5263,0.0],[152.9714,-27.5325,0.0],[152.9751,-27.5397,23.1896],[152.9742,-27.5446,31.539],[152.9646,-27.5444,7.1319],[152.9601,-27.5367,1.3389],[152.9534,-27.5308,1.2149],[152.9473,-27.5285,6.4949],[152.9406,-27.5281,13.707],[152.9288,-27.529,1.1172],[152.927,-27.5401,21.989],[152.9245,-27.5425,6.3485],[152.9043,-27.5449,15.3378],[152.9033,-27.5475,5.3815],[152.9071,-27.5561,7.7706],[152.8955,-27.5609,0.0],[152.9024,-27.5666,0.0],[152.8956,-27.5749,13.7754],[152.8948,-27.58,2.2156],[152.897,-27.586,1.5347],[152.9016,-27.5894,0.0],[152.9067,-27.599,14.8117],[152.9064,-27.6017,20.6081],[152.901,-27.6033,8.7076],[152.9031,-27.6056,11.3072],[152.9071,-27.6043,14.2883],[152.909,-27.6065,9.0444],[152.9155,-27.605,21.8555],[152.9214,-27.6062,22.4934],[152.9348,-27.6148,41.0028],[152.9409,-27.6238,48.6518],[152.9407,-27.6287,51.8192],[152.9444,-27.6292,63.4394],[152.9499,-27.633,74.1986],[152.9702,-27.6369,35.6711],[152.9787,-27.6463,68.0208],[152.9972,-27.6544,37.5859],[153.0378,-27.6603,37.6457],[153.0405,-27.6541,59.0947],[153.0588,-27.6568,52.7746],[153.068,-27.6509,38.345],[153.0695,-27.6529,29.4763],[153.0721,-27.651,22.3805],[153.0774,-27.652,25.485],[153.0838,-27.6499,27.7115],[153.0954,-27.645,27.3728],[153.0945,-27.6429,31.024],[153.0968,-27.642,33.9261],[153.0965,-27.6396,30.1999],[153.0946,-27.6393,37.7128],[153.0962,-27.6303,68.6236],[153.0949,-27.63,69.9271],[153.0946,-27.6318,58.8555],[153.091,-27.6289,69.4254],[153.0915,-27.6263,61.0894],[153.0967,-27.6272,54.4352],[153.0975,-27.6229,54.5389],[153.0937,-27.6208,39.3241],[153.0947,-27.6175,36.4206],[153.101,-27.6182,35.7582],[153.1058,-27.5932,46.0495],[153.122,-27.5954,57.3511],[153.1233,-27.5873,74.464],[153.1402,-27.5897,56.5524],[153.1423,-27.5912,43.9954],[153.1562,-27.5918,72.2857],[153.1732,-27.6061,79.2845],[153.1785,-27.6055,65.7412],[153.1761,-27.6017,81.1015],[153.1721,-27.6011,61.5948],[153.1716,-27.5988,65.8199],[153.1744,-27.5946,58.713],[153.1718,-27.5911,53.2772],[153.1774,-27.5871,60.4161],[153.1771,-27.5839,44.715],[153.1792,-27.5813,47.7144],[153.1777,-27.5783,46.23],[153.1825,-27.5738,43.1093],[153.1798,-27.5699,38.5742],[153.1819,-27.5623,33.1748],[153.1864,-27.5605,28.8595],[153.1913,-27.5609,18.9491],[153.1917,-27.5588,18.5],[153.1891,-27.552,21.7036],[153.1822,-27.5497,21.7449],[153.183,-27.5416,18.5],[153.1745,-27.5423,18.5],[153.1718,-27.5367,18.5],[153.1802,-27.5297,18.5],[153.1859,-27.528,15.1096],[153.1841,-27.5226,11.7856],[153.1863,-27.5199,8.3812],[153.1895,-27.5176,18.2522],[153.1947,-27.5179,10.6184],[153.1935,-27.5152,9.7452],[153.1975,-27.5166,9.6291],[153.2017,-27.5126,7.532],[153.1972,-27.5098,5.6066],[153.1941,-27.5111,6.9552],[153.1951,-27.5088,9.5748],[153.1902,-27.5082,8.7132],[153.1914,-27.5063,7.0133],[153.1857,-27.5041,5.6503],[153.1881,-27.503,4.1452],[153.187,-27.5012,2.3385],[153.1859,-27.5027,3.1764],[153.1843,-27.502,8.5175],[153.1879,-27.4949,4.8387]]],
[[[152.7315,-27.4951,23.9669],[152.73,-27.4949,15.6081],[152.7306,-27.4972,21.2487],[152.7397,-27.5046,27.6916],[152.7444,-27.5148,34.0068],[152.7513,-27.518,40.254],[152.7602,-27.5181,22.4669],[152.7627,-27.5218,23.1708],[152.7607,-27.525,12.3132],[152.7543,-27.5224,25.5336],[152.7478,-27.5263,23.6799],[152.7446,-27.5343,25.791],[152.7403,-27.5606,10.3184],[152.7404,-27.5644,7.5],[152.7432,-27.5671,14.7647],[152.7467,-27.567,21.5114],[152.7484,-27.5649,23.1886],[152.7538,-27.5683,71.3013],[152.7546,-27.5662,75.48],[152.7566,-27.5664,86.5822],[152.7672,-27.556,95.6582],[152.7706,-27.5565,84.9661],[152.7727,-27.5595,72.8768],[152.7816,-27.5593,74.572],[152.7827,-27.5566,78.8158],[152.7851,-27.5568,75.9777],[152.7827,-27.5522,47.7802],[152.7851,-27.5503,7.3463],[152.7906,-27.5553,6.6003],[152.7984,-27.5551,4.9007],[152.8053,-27.5578,1.8049],[152.8207,-27.5559,6.3282],[152.8239,-27.55,4.4142],[152.8413,-27.5447,4.0814],[152.8406,-27.5405,1.6536],[152.8317,-27.5371,0.0],[152.8316,-27.5331,9.4116],[152.8402,-27.5309,13.8956],[152.848,-27.5322,7.8832],[152.8534,-27.5434,15.5391],[152.8497,-27.5563,9.7274],[152.8495,-27.5645,0.0],[152.8554,-27.5787,9.707],[152.8575,-27.5968,3.1608],[152.862,-27.597,0.0],[152.8686,-27.5817,11.91],[152.8741,-27.5786,7.1326],[152.8893,-27.5897,9.8526],[152.8966,-27.6012,0.0],[152.9032,-27.6016,1.0118],[152.9056,-27.6005,2.1551],[152.9052,-27.5982,1.6027],[152.9017,-27.5921,2.0839],[152.8959,-27.5864,0.0],[152.8932,-27.5769,11.541],[152.901,-27.5669,4.3327],[152.8953,-27.5637,15.6299],[152.8943,-27.5603,13.5682],[152.9061,-27.5544,14.2322],[152.9019,-27.5481,7.2509],[152.9034,-27.5443,34.9534],[152.9249,-27.5408,1.7519],[152.9268,-27.5291,2.6355],[152.9386,-27.5254,11.7792],[152.95,-27.5273,8.7699],[152.9547,-27.5296,1.2149],[152.9622,-27.5359,9.192],[152.966,-27.5433,5.2983],[152.9733,-27.5427,14.3617],[152.9733,-27.5402,13.9025],[152.9698,-27.5349,2.7885],[152.9709,-27.5259,5.7361],[152.9667,-27.5191,1.9537],[152.9657,-27.5144,0.0],[152.9681,-27.5073,1.8185],[152.9706,-27.5046,0.0],[152.9769,-27.506,26.6032],[152.9865,-27.5126,12.5803],[152.9903,-27.518,1.1573],[152.9969,-27.5217,2.7804],[153.0084,-27.521,10.3705],[153.0096,-27.5194,0.0],[153.0089,-27.5175,2.0755],[153.001,-27.5168,5.1111],[152.9979,-27.5149,14.0493],[153.0004,-27.5067,9.1934],[153.0206,-27.5006,5.6313],[153.0188,-27.4959,7.9915],[153.0151,-27.4925,0.0],[152.9996,-27.4925,0.0],[152.9947,-27.49,4.2406],[152.9951,-27.4852,5.8085],[153.0036,-27.4748,2.43],[153.0114,-27.4688,4.2594],[153.0167,-27.4676,16.5329],[153.0226,-27.4718,3.2175],[153.0272,-27.4786,14.6842],[153.0301,-27.4794,11.6052],[153.0318,-27.4766,2.3451],[153.0306,-27.4689,13.087],[153.0315,-27.4652,1.0449],[153.0339,-27.4627,22.7682],[153.0369,-27.4624,26.4746],[153.0399,-27.4663,12.9561],[153.0429,-27.475,0.0],[153.0491,-27.4741,6.6166],[153.0547,-27.4688,0.0],[153.0508,-27.4623,6.5886],[153.0507,-27.4554,5.9435],[153.0462,-27.4462,0.0],[153.0472,-27.4416,2.8295],[153.0498,-27.4402,2.4849],[153.0626,-27.4398,1.4698],[153.0901,-27.4457,1.0292],[153.1097,-27.4389,1.8734],[153.1184,-27.4295,3.2928],[153.1358,-27.4205,2.1875],[153.1415,-27.4159,0.0],[153.1463,-27.4056,4.4989],[153.1451,-27.4052,4.4989],[153.1471,-27.3983,1.785],[153.1504,-27.3946,0.0],[153.1462,-27.3879,3.0027],[153.1528,-27.3846,0.0],[153.1605,-27.3773,0.0],[153.1571,-27.3745,2.272],[153.1556,-27.3629,0.0],[153.1502,-27.3609,2.0167],[153.1386,-27.3612,0.9658],[153.1224,-27.3524,0.0],[153.1093,-27.349,0.0],[153.1005,-27.343,2.7648],[153.0943,-27.343,1.7207],[153.0936,-27.3389,0.6886],[153.0826,-27.3338,0.0],[153.083,-27.3305,2.0125],[153.0881,-27.3289,10.5584],[153.0875,-27.3265,13.1851],[153.0837,-27.3222,2.5726],[153.0752,-27.3205,6.4079],[153.0696,-27.314,4.8292],[153.07,-27.3123,3.4529],[153.0664,-27.3066,0.3936],[153.0637,-27.2833,2.8262],[153.0662,-27.2813,0.0],[153.0496,-27.2787,0.0],[153.0408,-27.2795,0.0],[153.0363,-27.2832,0.0],[153.0351,-27.2867,0.9575],[153.0363,-27.2948,1.4813],[153.0342,-27.2982,0.0],[153.0292,-27.2979,0.0],[153.0158,-27.2875,0.0],[153.0121,-27.2966,1.1395],[153.0086,-27.2979,2.0506],[153.014,-27.3022,0.9616],[153.0073,-27.3024,0.449],[153.0074,-27.3013,0.449],[153.0048,-27.3012,2.2305],[153.0062,-27.2998,2.2305],[153.0049,-27.2992,2.3066],[153.0021,-27.302,2.7406],[152.9971,-27.3023,4.3721],[152.9959,-27.3106,5.4122],[152.9995,-27.3123,2.9002],[152.9991,-27.3083,3.6916],[153.0025,-27.3195,8.4705],[153.0007,-27.3201,3.4146],[153.0018,-27.3216,3.8443],[153.0001,-27.3211,1.5756],[153.0,-27.323,3.132],[152.9973,-27.324,6.2811],[152.9935,-27.335,13.9314],[152.9883,-27.3363,11.6294],[152.9832,-27.34,16.7044],[152.9805,-27.344,18.3577],[152.9811,-27.346,19.1048],[152.9789,-27.3467,21.6302],[152.9804,-27.3486,22.3432],[152.9791,-27.3497,25.6063],[152.9822,-27.3512,33.5262],[152.9823,-27.3532,35.0366],[152.9871,-27.3541,35.9415],[152.9885,-27.3576,32.2172],[152.9878,-27.3595,37.5678],[152.9817,-27.3586,41.5519],[152.9807,-27.3641,44.7812],[152.9836,-27.3651,42.8083],[152.9831,-27.3681,53.4392],[152.9806,-27.3678,39.1339],[152.9803,-27.3752,60.2807],[152.9839,-27.3847,66.4414],[152.9752,-27.3917,80.6724],[152.978,-27.3946,81.4221],[152.9763,-27.4014,40.0305],[152.972,-27.3983,41.7613],[152.9655,-27.3969,47.1757],[152.9606,-27.3987,43.5141],[152.9589,-27.4028,49.1916],[152.9488,-27.4087,55.8187],[152.9478,-27.4065,54.459],[152.941,-27.4045,72.4672],[152.9373,-27.4,59.824],[152.9341,-27.3996,60.292],[152.9269,-27.3935,71.3417],[152.9169,-27.3942,85.8379],[152.915,-27.4057,149.9567],[152.8993,-27.4036,112.8396],[152.8972,-27.4173,224.0675],[152.8721,-27.4131,287.1787],[152.8631,-27.4177,189.7694],[152.8626,-27.422,334.8801],[152.8611,-27.4224,367.2178],[152.853,-27.4206,389.031],[152.8493,-27.4219,394.6601],[152.8441,-27.418,366.7203],[152.8368,-27.4189,375.6901],[152.8312,-27.4169,411.4545],[152.8188,-27.409,404.315],[152.8142,-27.4022,447.5085],[152.8061,-27.401,508.8775],[152.8021,-27.3987,491.6401],[152.7997,-27.4001,514.2568],[152.7986,-27.4051,460.2568],[152.7755,-27.4017,538.6022],[152.7744,-27.393,509.305],[152.7764,-27.3887,501.7971],[152.7724,-27.383,558.3315],[152.7729,-27.3791,536.4495],[152.7665,-27.377,544.9494],[152.762,-27.3711,532.594],[152.7629,-27.3673,500.417],[152.76,-27.3639,515.034],[152.7623,-27.3599,501.103],[152.7629,-27.3546,470.0421],[152.7667,-27.3514,473.1095],[152.772,-27.3497,495.2472],[152.7709,-27.3473,565.8798],[152.7721,-27.3437,522.8608],[152.7676,-27.335,649.2011],[152.7641,-27.3353,643.6176],[152.7557,-27.3282,691.142],[152.7547,-27.3331,539.0076],[152.7488,-27.3323,526.8024],[152.7505,-27.3204,716.2276],[152.7485,-27.3188,710.8963],[152.7449,-27.319,628.3147],[152.7392,-27.3233,540.22],[152.7301,-27.3241,621.3512],[152.7233,-27.3221,630.9759],[152.7195,-27.3235,617.3617],[152.7173,-27.3306,531.3745],[152.7102,-27.3326,350.6357],[152.6957,-27.3429,330.8248],[152.692,-27.3428,363.0351],[152.6861,-27.3491,368.6359],[152.6842,-27.3488,348.4039],[152.6797,-27.3723,159.0424],[152.6864,-27.3732,115.6883],[152.687,-27.3697,108.3006],[152.6905,-27.3701,133.9974],[152.6922,-27.36,224.6434],[152.6995,-27.361,165.5519],[152.7003,-27.3561,211.7922],[152.7069,-27.357,153.2664],[152.7078,-27.3518,157.9459],[152.7239,-27.354,144.2946],[152.722,-27.3651,212.7127],[152.7332,-27.3666,192.2505],[152.7322,-27.3727,158.0827],[152.7368,-27.3733,213.0132],[152.7329,-27.3962,316.6602],[152.7415,-27.3909,466.1343],[152.7436,-27.3947,429.5971],[152.7426,-27.3982,417.0803],[152.7408,-27.3989,405.261],[152.741,-27.4038,372.6825],[152.7416,-27.4062,338.021],[152.7472,-27.4071,324.1939],[152.7458,-27.4152,344.7178],[152.7481,-27.4155,343.899],[152.748,-27.4218,289.8067],[152.741,-27.4274,197.086],[152.7442,-27.4278,151.8118],[152.7427,-27.4364,225.2751],[152.746,-27.4369,178.3974],[152.7454,-27.4406,148.7033],[152.7474,-27.4409,141.0328],[152.7441,-27.4601,137.4063],[152.7383,-27.4593,76.6647],[152.7379,-27.461,74.0262],[152.7393,-27.4673,63.5964],[152.738,-27.4725,62.2854],[152.7426,-27.4714,88.1193],[152.7406,-27.4758,58.2509],[152.7434,-27.4762,84.9031],[152.7426,-27.4798,115.5945],[152.7403,-27.4795,77.9658],[152.7395,-27.483,59.6463],[152.7423,-27.4881,34.0584],[152.7393,-27.4876,26.4304],[152.738,-27.4946,30.2099],[152.7315,-27.4951,23.9669]]],
[[[153.2286,-27.4204,1.4328],[153.2264,-27.4203,0.0],[153.2335,-27.43,0.0],[153.2357,-27.43,1.3123],[153.2371,-27.4272,0.0],[153.2361,-27.422,4.7263],[153.2286,-27.4204,1.4328]]],
[[[153.2363,-27.4031,0.0],[153.2409,-27.3992,0.0],[153.2441,-27.3915,0.0],[153.2394,-27.3741,0.0],[153.2356,-27.3713,0.0],[153.2281,-27.3785,0.0],[153.2224,-27.3908,0.0],[153.2234,-27.394,0.0],[153.2363,-27.4031,0.0]]],
[[[153.2678,-27.3393,0.0],[153.271,-27.3381,0.0],[153.2676,-27.3323,0.0],[153.2562,-27.3282,0.0],[153.2527,-27.3234,0.0],[153.2483,-27.3208,0.0],[153.2383,-27.3252,0.0],[153.2352,-27.3292,0.0],[153.2361,-27.3426,0.0],[153.2413,-27.3477,0.0],[153.2477,-27.3503,0.0],[153.2564,-27.3497,0.0],[153.2611,-27.3458,0.0],[153.2633,-27.3416,0.0],[153.2678,-27.3393,0.0]]],
[[[153.4565,-27.0244,3.7817],[153.4545,-27.022,3.2875],[153.4493,-27.027,7.2899],[153.4369,-27.0322,4.2282],[153.4122,-27.0331,0.0],[153.4175,-27.033,0.9231],[153.4197,-27.0354,0.5522],[153.4242,-27.0331,0.0],[153.4271,-27.0331,0.0],[153.4282,-27.0349,1.3826],[153.4315,-27.0337,3.8543],[153.4287,-27.0357,7.8714],[153.4122,-27.0397,39.8681],[153.3887,-27.0503,15.8063],[153.4023,-27.0412,3.7438],[153.4047,-27.0418,2.9863],[153.4052,-27.0399,2.0639],[153.4071,-27.0401,0.7247],[153.4071,-27.0373,4.1831],[153.4039,-27.0379,4.0683],[153.3878,-27.0476,2.7159],[153.3984,-27.0378,0.0],[153.406,-27.0351,0.0],[153.4024,-27.0353,0.0],[153.3901,-27.0422,2.7906],[153.3844,-27.0481,3.9947],[153.3742,-27.0519,1.9626],[153.3614,-27.061,0.0],[153.3672,-27.0742,4.6879],[153.3701,-27.103,1.8405],[153.3688,-27.1129,5.5382999999999996],[153.3616,-27.1357,5.4001],[153.3692,-27.1572,31.6569],[153.3733,-27.1763,11.9347],[153.3666,-27.1932,0.0],[153.3655,-27.2012,10.8098],[153.3746,-27.218,0.0],[153.3788,-27.2395,8.7531],[153.3882,-27.2583,17.7779],[153.3977,-27.2729,40.1268],[153.4057,-27.2949,4.7193],[153.4053,-27.3006,5.9557],[153.4149,-27.3213,3.3529],[153.4212,-27.3311,2.6556],[153.4227,-27.3435,8.5152],[153.419,-27.3495,0.0],[153.4186,-27.355,1.9],[153.4264,-27.3603,4.3929],[153.428,-27.3636,0.0],[153.4372,-27.3418,0.0],[153.4373,-27.334,4.6873],[153.4344,-27.3179,0.0],[153.4238,-27.3031,3.4971],[153.4179,-27.2769,11.4399],[153.4166,-27.2611,6.7999],[153.4172,-27.2273,10.5444],[153.4242,-27.1723,12.8043],[153.4296,-27.148,9.6749],[153.4513,-27.0723,1.8599],[153.4615,-27.0442,3.2259],[153.4641,-27.0387,5.6169],[153.4663,-27.039,1.469],[153.4661,-27.0362,6.7736],[153.4677,-27.0347,0.0],[153.4682,-27.0278,0.0],[153.4619,-27.0283,31.5809],[153.4565,-27.0244,3.7817]]]]}
,"properties": {"GID_2": "AUS.7.8_1","GID_0": "AUS","country": "Australia","GID_1": "AUS.7_1","state": "Queensland","NL_NAME_1": "NA","county": "Brisbane","VARNAME_2": "NA","NL_NAME_2": "NA","TYPE_2": "City","ENGTYPE_2": "City","CC_2": "31000","HASC_2": "AU.QL.BR","name": "Brisbane.county","area_km2": 1339.912,"hist_schema_id": "Elevation0-9000","hist_area_km2": {"0": 279.553,"25": 364.446,"50": 263.345,"75": 132.723,"100": 68.805,"125": 45.542,"150": 33.642,"175": 25.148,"200": 19.028,"225": 15.885,"250": 12.703,"275": 11.423,"300": 10.276,"325": 9.429,"350": 8.413,"375": 8.037,"400": 6.268,"425": 5.76,"450": 5.158,"475": 4.763,"500": 3.521,"525": 3.012,"550": 1.488,"575": 0.584,"600": 0.358,"625": 0.226,"650": 0.17,"675": 0.132,"700": 0.057,"725": 0.019}}}