{"type":"Feature","properties":{"GID_2":"AUS.10.26_1","GID_0":"AUS","country":"Australia","GID_1":"AUS.10_1","state":"Victoria","NL_NAME_1":"NA","county":"GreaterDandenong","VARNAME_2":"NA","NL_NAME_2":"NA","TYPE_2":"City","ENGTYPE_2":"City","CC_2":"22670","HASC_2":"AU.VI.GD","name":"GreaterDandenong.county"},
"geometry":{"type": "MultiPolygon","coordinates": [[[[145.2296,-37.9523,35.966],[145.2262,-37.9501,37.4682],[145.2265,-37.9482,34.987],[145.2195,-37.9402,38.4798],[145.1567,-37.9331,61.491],[145.1432,-37.9248,67.1395],[145.1366,-37.9605,41.1034],[145.1319,-37.9599,37.7477],[145.1296,-37.9616,32.0509],[145.1327,-37.9634,31.1782],[145.1459,-37.9836,23.8555],[145.1393,-38.0188,4.3261],[145.1335,-38.0254,3.4491],[145.1378,-38.0324,2.9329],[145.1503,-38.0673,5.5387],[145.2396,-38.0777,21.3192],[145.2465,-38.0423,16.6074],[145.2468,-38.0253,18.5867],[145.2518,-38.0036,41.2648],[145.2273,-38.0007,23.289],[145.2287,-37.9938,25.2879],[145.2265,-37.9935,23.9595],[145.2319,-37.9855,28.4558],[145.2319,-37.981,27.4025],[145.235,-37.9783,27.5843],[145.2357,-37.9743,27.5677],[145.2329,-37.97,27.8029],[145.2336,-37.9548,34.8327],[145.2322,-37.9525,35.7497],[145.2296,-37.9523,35.966]]]]}}