{"type": "Feature","bbox": [147.0829,-34.6598,147.8755,-34.1066],"geometry": {"type": "MultiPolygon","coordinates": [[[[147.1077,-34.3172,228.4769],[147.105,-34.3326,236.7632],[147.1006,-34.3321,237.914],[147.098,-34.3469,248.4951],[147.1071,-34.348,247.1846],[147.0991,-34.3909,282.6553],[147.0862,-34.3892,271.7795],[147.0831,-34.4067,287.0389],[147.0898,-34.4077,289.1732],[147.088,-34.4171,302.7167],[147.0837,-34.4166,305.462],[147.0829,-34.4209,312.8697],[147.1289,-34.4265,291.1632],[147.1169,-34.4888,246.8396],[147.1148,-34.4976,242.6433],[147.1134,-34.4981,242.7345],[147.1143,-34.5003,240.3567],[147.108,-34.5365,232.6008],[147.2003,-34.5487,264.558],[147.2001,-34.5497,264.39],[147.2213,-34.5527,283.3678],[147.2217,-34.5507,281.2402],[147.3352,-34.5655,310.6837],[147.3333,-34.5756,298.8727],[147.3744,-34.6584,318.3608],[147.3851,-34.6595,337.5523],[147.3858,-34.6559,336.5536],[147.4165,-34.6598,360.9061],[147.4297,-34.6505,347.7732],[147.4371,-34.6397,350.1297],[147.4414,-34.6369,354.026],[147.4585,-34.6289,392.8381],[147.4635,-34.6299,396.9355],[147.4644,-34.6253,380.3128],[147.4729,-34.6262,385.2158],[147.4768,-34.6244,392.4302],[147.4814,-34.626,395.0409],[147.4885,-34.6231,402.2851],[147.4927,-34.6167,413.3626],[147.4989,-34.6131,400.7108],[147.5066,-34.614,369.4013],[147.5059,-34.6184,365.9049],[147.6108,-34.6307,286.6942],[147.6152,-34.6057,292.5945],[147.6238,-34.6067,289.8768],[147.6259,-34.5953,292.4067],[147.6465,-34.566,306.4003],[147.6507,-34.5675,307.1746],[147.6604,-34.5649,317.0739],[147.6718,-34.5692,326.7767],[147.6726,-34.5742,335.3131],[147.6761,-34.578,350.1459],[147.681,-34.5792,360.824],[147.6839,-34.5761,358.0339],[147.6881,-34.5766,364.7816],[147.6924,-34.5793,360.3035],[147.7017,-34.5795,374.3736],[147.7025,-34.5816,384.8791],[147.7049,-34.5819,382.2097],[147.7098,-34.5776,382.4034],[147.7277,-34.572,396.072],[147.7293,-34.5665,387.331],[147.7266,-34.5577,391.7043],[147.7301,-34.5556,381.1103],[147.7302,-34.5535,379.7803],[147.7358,-34.5531,394.7981],[147.7383,-34.5509,414.2851],[147.7607,-34.5535,476.6002],[147.762,-34.544,452.2378],[147.7607,-34.5404,481.5201],[147.7635,-34.5395,484.7463],[147.7696,-34.5332,480.0123],[147.7728,-34.5168,396.4965],[147.7655,-34.5159,362.8786],[147.786,-34.4941,351.3796],[147.7832,-34.4912,330.1915],[147.7852,-34.4897,337.0025],[147.7787,-34.4888,322.1828],[147.7817,-34.4856,317.0605],[147.7798,-34.4853,317.5271],[147.781,-34.4797,312.6078],[147.7831,-34.4799,312.2029],[147.7848,-34.4724,307.3891],[147.7864,-34.4632,299.3323],[147.7842,-34.4629,299.6672],[147.7855,-34.4561,305.3557],[147.7873,-34.4563,308.8244],[147.788,-34.4524,301.9537],[147.7893,-34.4525,305.7764],[147.7904,-34.4468,302.4531],[147.8379,-34.4539,313.6738],[147.8388,-34.4491,298.889],[147.8354,-34.4487,287.7312],[147.836,-34.4456,288.779],[147.8497,-34.4473,288.9203],[147.8487,-34.4526,289.342],[147.8642,-34.4547,282.1433],[147.8638,-34.4569,282.731],[147.8655,-34.4559,280.8235],[147.8755,-34.4571,282.1598],[147.8723,-34.4501,278.2499],[147.872,-34.445,278.6201],[147.8674,-34.438,284.4435],[147.8615,-34.4348,281.3561],[147.8626,-34.4317,277.1452],[147.8611,-34.4318,273.9016],[147.8605,-34.4283,278.7672],[147.8566,-34.4294,277.293],[147.8574,-34.4279,274.6833],[147.856,-34.4266,274.7983],[147.8537,-34.427,274.5177],[147.8556,-34.4233,277.808],[147.8523,-34.4226,277.7208],[147.8555,-34.4212,277.2469],[147.8564,-34.4163,273.9073],[147.8549,-34.4154,277.6235],[147.8573,-34.4138,274.3698],[147.855,-34.4103,274.9023],[147.8565,-34.4083,269.4671],[147.855,-34.4089,275.5953],[147.8528,-34.407,273.1103],[147.8552,-34.4045,268.6832],[147.8517,-34.4029,273.967],[147.8499,-34.4037,275.3543],[147.8482,-34.3996,273.6099],[147.8428,-34.3994,271.7085],[147.8432,-34.3978,266.5764],[147.8418,-34.3985,271.7085],[147.8376,-34.3952,271.5047],[147.8392,-34.3938,270.0507],[147.8374,-34.3924,271.8698],[147.8371,-34.387,270.47],[147.8382,-34.3861,265.0259],[147.8358,-34.3846,267.4746],[147.8365,-34.3827,267.1903],[147.8348,-34.3826,268.5685],[147.8421,-34.3792,266.2516],[147.8443,-34.3719,262.137],[147.8396,-34.368,262.653],[147.8366,-34.3689,264.2647],[147.8343,-34.3654,264.5541],[147.8338,-34.3607,260.661],[147.8352,-34.3595,260.6976],[147.8331,-34.3601,259.813],[147.8321,-34.3572,260.5873],[147.8309,-34.3591,261.0017],[147.8258,-34.3562,262.6356],[147.8253,-34.3527,263.2648],[147.8267,-34.3514,263.2648],[147.8238,-34.3388,259.8481],[147.8253,-34.3382,257.8924],[147.8235,-34.3371,260.9059],[147.824,-34.3344,259.9894],[147.8214,-34.3302,261.265],[147.8234,-34.3282,255.2818],[147.8226,-34.3254,258.8349],[147.8209,-34.3252,256.6213],[147.8215,-34.3233,254.8714],[147.817,-34.3156,252.7219],[147.8142,-34.3142,254.8869],[147.8149,-34.3122,254.9637],[147.8057,-34.3031,253.1232],[147.8069,-34.3011,255.0831],[147.8048,-34.3012,254.0105],[147.806,-34.2993,253.5208],[147.8033,-34.2976,255.7743],[147.8017,-34.2924,252.3348],[147.7989,-34.2922,253.3283],[147.7985,-34.2894,250.3219],[147.7967,-34.2905,254.5904],[147.7969,-34.2876,250.4884],[147.7942,-34.2862,249.5729],[147.7961,-34.2862,252.4919],[147.7945,-34.2846,252.4919],[147.7976,-34.2827,253.3171],[147.7955,-34.2769,250.8638],[147.7982,-34.2768,250.6968],[147.7993,-34.2747,250.9087],[147.7965,-34.2689,251.7217],[147.7994,-34.2688,250.4469],[147.7964,-34.266,247.5608],[147.7971,-34.2619,250.0144],[147.7935,-34.2631,247.3909],[147.7915,-34.2606,247.7082],[147.7922,-34.2587,249.1592],[147.7874,-34.257,247.2181],[147.7848,-34.2515,247.5841],[147.7871,-34.2498,246.2542],[147.787,-34.2444,244.6801],[147.789,-34.2443,245.5257],[147.789,-34.2416,246.2903],[147.7865,-34.2409,245.2665],[147.7874,-34.2391,244.5922],[147.7821,-34.2383,243.4386],[147.7818,-34.2303,240.864],[147.7753,-34.2226,240.6665],[147.7835,-34.2236,242.4451],[147.7852,-34.2188,241.4064],[147.7812,-34.216,240.7516],[147.7806,-34.213,243.7419],[147.7776,-34.2124,241.5167],[147.7791,-34.2076,240.3157],[147.7769,-34.2058,240.3237],[147.768,-34.206,239.7305],[147.7641,-34.2025,238.495],[147.7591,-34.2042,240.1032],[147.7593,-34.1992,238.7349],[147.757,-34.1969,236.9252],[147.7588,-34.1931,239.3474],[147.7544,-34.1904,236.5477],[147.7552,-34.1885,237.5592],[147.7528,-34.1875,236.3069],[147.7551,-34.1854,237.7005],[147.7512,-34.1835,237.5323],[147.7461,-34.1859,237.0696],[147.7434,-34.1836,237.1759],[147.7451,-34.1805,237.2276],[147.7423,-34.1802,235.4697],[147.7419,-34.1782,236.3743],[147.7341,-34.1849,235.6015],[147.7286,-34.1865,234.5632],[147.7229,-34.1831,234.8922],[147.7228,-34.1813,235.3672],[147.7207,-34.1827,235.5873],[147.7184,-34.1804,235.0738],[147.7192,-34.1776,234.1582],[147.7126,-34.1768,235.1477],[147.7113,-34.1753,235.0558],[147.711,-34.174,235.2901],[147.7132,-34.1736,234.5926],[147.712,-34.1709,234.8919],[147.7135,-34.1689,234.5805],[147.7119,-34.1667,234.0385],[147.713,-34.1653,233.5293],[147.7108,-34.1628,233.9768],[147.7137,-34.1613,236.1323],[147.7105,-34.1586,234.0007],[147.7074,-34.159,234.7144],[147.7075,-34.1578,232.6729],[147.7006,-34.1588,234.1991],[147.6995,-34.1579,232.3064],[147.7005,-34.1565,234.0818],[147.698,-34.1541,233.4104],[147.6992,-34.1523,232.8029],[147.6961,-34.1489,232.5568],[147.6938,-34.151,233.2565],[147.6927,-34.1468,232.9759],[147.6843,-34.1453,232.4498],[147.6797,-34.1467,231.2857],[147.6762,-34.1453,230.3655],[147.6748,-34.1422,231.0744],[147.671,-34.1411,231.2492],[147.6699,-34.1331,231.5178],[147.6666,-34.1325,229.2346],[147.666,-34.1301,230.2653],[147.6612,-34.1333,229.0694],[147.6598,-34.1315,228.5657],[147.6507,-34.1303,229.1237],[147.6504,-34.1318,229.2557],[147.6329,-34.1296,228.6217],[147.63,-34.1442,229.7342],[147.5804,-34.138,229.8446],[147.584,-34.1179,226.9205],[147.516,-34.111,235.7894],[147.4962,-34.1066,223.3204],[147.4948,-34.1117,221.5948],[147.4896,-34.1118,221.6969],[147.4807,-34.154,296.8171],[147.4724,-34.153,273.2153],[147.4703,-34.1642,256.1383],[147.4693,-34.164,256.1383],[147.4673,-34.1752,288.4738],[147.4763,-34.1764,270.7547],[147.4704,-34.2087,295.6711],[147.4218,-34.2024,237.8644],[147.4204,-34.2086,237.9906],[147.4193,-34.2084,237.5163],[147.416,-34.2036,237.2635],[147.398,-34.2012,234.2431],[147.3984,-34.1991,233.1474],[147.3888,-34.1978,233.4876],[147.3908,-34.1873,232.4263],[147.3009,-34.1762,264.7461],[147.2962,-34.2027,258.8669],[147.3062,-34.2043,255.5286],[147.2846,-34.2206,269.4248],[147.3016,-34.2287,260.4208],[147.297,-34.2544,275.2973],[147.2916,-34.2537,300.2214],[147.2857,-34.2505,280.8151],[147.2831,-34.2449,281.5217],[147.2713,-34.2449,283.7501],[147.2685,-34.2409,287.9753],[147.2688,-34.2354,294.9964],[147.2648,-34.2354,292.8829],[147.255,-34.2913,261.4875],[147.1293,-34.2765,237.7],[147.128,-34.2846,238.5446],[147.1248,-34.2842,233.6859],[147.12,-34.3118,237.8881],[147.1172,-34.3125,249.6772],[147.1084,-34.3085,231.1461],[147.1077,-34.3172,228.4769]]]]}
,"properties": {"GID_2": "AUS.5.124_1","GID_0": "AUS","country": "Australia","GID_1": "AUS.5_1","state": "NewSouthWales","NL_NAME_1": "NA","county": "Temora","VARNAME_2": "NA","NL_NAME_2": "NA","TYPE_2": "Area","ENGTYPE_2": "Area","CC_2": "17350","HASC_2": "AU.NS.TE","name": "Temora.county","area_km2": 2802.569,"hist_schema_id": "Elevation0-9000","hist_area_km2": {"225": 153.758,"250": 668.844,"275": 795.52,"300": 599.883,"325": 342.149,"350": 161.674,"375": 53.655,"400": 16.808,"425": 6.223,"450": 2.919,"475": 1.084,"500": 0.052}}}