{"type":"Feature","properties":{"GID_2":"AUS.5.134_1","GID_0":"AUS","country":"Australia","GID_1":"AUS.5_1","state":"NewSouthWales","NL_NAME_1":"NA","county":"Urana","VARNAME_2":"NA","NL_NAME_2":"NA","TYPE_2":"Area","ENGTYPE_2":"Area","CC_2":"17700","HASC_2":"AU.NS.UN","name":"Urana.county"},
"geometry":{"type": "MultiPolygon","coordinates": [[[[146.5601,-35.67,160.6626],[146.5728,-35.6066,155.6129],[146.5818,-35.619,159.9088],[146.5849,-35.6057,160.9921],[146.5863,-35.6066,159.0981],[146.5932,-35.5674,152.9546],[146.5981,-35.5681,153.0582],[146.6023,-35.5465,158.4148],[146.591,-35.545,155.046],[146.5928,-35.535,158.7068],[146.6043,-35.5365,162.6278],[146.606,-35.528,175.1747],[146.6026,-35.5194,179.4456],[146.6051,-35.5058,188.7641],[146.5604,-35.4965,171.5926],[146.5543,-35.4944,172.1665],[146.5548,-35.4916,171.8899],[146.5397,-35.4905,164.4847],[146.5403,-35.4872,164.2899],[146.5135,-35.485,148.6231],[146.5074,-35.483,146.941],[146.4696,-35.4784,138.9341],[146.47,-35.4763,139.5962],[146.4319,-35.4714,135.0956],[146.4312,-35.475,135.4407],[146.4055,-35.4445,131.8844],[146.4038,-35.4396,132.8156],[146.399,-35.4344,130.3383],[146.3915,-35.4304,130.3246],[146.3912,-35.426,129.5375],[146.3797,-35.4114,128.3574],[146.3808,-35.4057,127.3378],[146.3745,-35.4049,127.6284],[146.3684,-35.3973,127.48],[146.3683,-35.3937,127.821],[146.3651,-35.3893,129.0495],[146.3542,-35.3878,139.6353],[146.3622,-35.3464,122.9963],[146.3642,-35.3374,121.8133],[146.3699,-35.3372,122.1881],[146.3721,-35.3209,127.3911],[146.3888,-35.3228,124.2725],[146.3925,-35.303,129.1085],[146.4038,-35.3045,124.3622],[146.4137,-35.2505,139.1676],[146.3864,-35.2474,144.1516],[146.3893,-35.2317,146.5669],[146.4468,-35.1941,133.5298],[146.4483,-35.1872,132.5352],[146.452,-35.1877,129.3084],[146.4513,-35.1912,129.6088],[146.5646,-35.1186,142.5874],[146.5722,-35.1166,144.2701],[146.5913,-35.1171,145.3633],[146.5958,-35.1155,145.6909],[146.5996,-35.1168,146.5851],[146.6,-35.1135,147.7616],[146.604,-35.1142,148.0351],[146.604,-35.112,147.7728],[146.6147,-35.1144,147.7497],[146.6152,-35.112,148.2037],[146.6169,-35.1122,149.1192],[146.626,-35.1017,152.6302],[146.6252,-35.1007,150.7837],[146.6493,-35.0912,153.7238],[146.6616,-35.0893,160.3638],[146.6878,-35.0707,177.0278],[146.6913,-35.056,168.2937],[146.6779,-35.0541,162.0756],[146.672,-35.0599,160.0393],[146.3692,-34.9147,131.6335],[146.3556,-34.9131,131.0319],[146.3559,-34.9114,131.5021],[146.3341,-34.9087,130.2856],[146.3346,-34.9059,130.8414],[146.3163,-34.9037,131.0979],[146.3173,-34.8982,131.1271],[146.3086,-34.8972,130.9372],[146.309,-34.8953,131.0695],[146.2795,-34.8853,132.0047],[146.27,-34.8847,131.8049],[146.263,-34.8807,130.6262],[146.258,-34.8869,131.2085],[146.2335,-34.8734,131.146],[146.1924,-34.9236,126.672],[146.1456,-34.898,128.4486],[146.1377,-34.9078,127.6422],[146.0748,-34.8982,127.563],[146.069,-34.9158,126.6863],[146.0806,-34.9172,125.9904],[146.0809,-34.9184,125.7703],[146.0736,-34.9286,125.3775],[146.0686,-34.9259,125.098],[146.0659,-34.9274,125.4931],[146.061,-34.9417,124.2278],[146.0652,-34.9479,123.8968],[146.0528,-34.9946,122.4978],[146.0593,-35.0015,121.504],[146.0491,-35.0179,121.0873],[146.0577,-35.0328,120.8217],[146.0426,-35.0564,120.3578],[146.0368,-35.0576,120.3589],[146.0304,-35.0543,120.4393],[146.0179,-35.1237,121.5418],[146.0143,-35.1241,118.3422],[146.0145,-35.129,115.7373],[146.0108,-35.1334,119.5097],[146.0064,-35.1332,121.1424],[146.0076,-35.1353,122.0372],[146.0124,-35.1349,116.4102],[146.0141,-35.1363,119.6022],[146.0117,-35.1392,119.815],[146.0081,-35.1394,116.8602],[146.01,-35.1414,122.392],[146.0146,-35.1419,115.4059],[146.0097,-35.1667,115.6949],[146.0394,-35.1952,119.7146],[146.0402,-35.1992,118.503],[146.0338,-35.1989,120.2914],[146.032,-35.1972,118.4263],[146.0288,-35.1988,119.3763],[146.0304,-35.2016,118.6463],[146.0289,-35.2041,118.7423],[146.0323,-35.2044,117.7279],[146.0295,-35.2069,117.7459],[146.0241,-35.2035,119.4152],[146.0199,-35.2036,117.0005],[146.0205,-35.2086,116.6006],[146.0291,-35.214,115.2556],[146.0251,-35.2182,117.3006],[146.0219,-35.2165,117.2184],[146.018,-35.219,117.1162],[146.0181,-35.2126,119.4831],[146.015,-35.2087,117.1764],[146.0094,-35.2112,116.0475],[146.0108,-35.2136,116.1791],[146.0062,-35.2137,119.1883],[146.0056,-35.2115,120.2249],[146.0009,-35.2143,116.5139],[145.9951,-35.2132,115.5755],[145.9969,-35.21,115.7446],[145.9952,-35.2095,114.6611],[145.9895,-35.2166,114.9833],[145.995,-35.2202,114.8538],[145.9955,-35.2266,115.6508],[145.99,-35.2275,116.5436],[145.9855,-35.2228,115.3457],[145.983,-35.2243,115.1033],[145.9829,-35.2283,115.4503],[145.9852,-35.2288,116.5555],[145.9856,-35.2312,116.1393],[145.9805,-35.2338,114.8864],[145.9796,-35.2383,119.0737],[145.9776,-35.2356,116.2757],[145.9762,-35.2361,117.7034],[145.9749,-35.2387,113.8816],[145.9767,-35.2408,115.3831],[145.9745,-35.2419,114.4995],[145.9747,-35.2442,116.5335],[145.9722,-35.2438,113.5994],[145.9728,-35.2469,114.4165],[145.9772,-35.2485,114.7374],[145.9754,-35.2498,118.486],[145.9762,-35.254,115.1511],[145.968,-35.2482,118.3689],[145.9642,-35.2513,115.8094],[145.9671,-35.2524,114.5794],[145.9674,-35.2547,114.5357],[145.9623,-35.253,117.6637],[145.9653,-35.2571,117.297],[145.9645,-35.2595,120.4983],[145.9598,-35.2602,115.7555],[145.9627,-35.2616,115.3549],[145.9572,-35.2636,114.7993],[145.9591,-35.2663,114.1624],[145.9626,-35.2664,114.5729],[145.9629,-35.268,116.215],[145.9669,-35.2671,114.0193],[145.9676,-35.27,116.5245],[145.9699,-35.271,113.9423],[145.9651,-35.2729,114.6707],[145.962,-35.2714,114.7177],[145.9599,-35.2722,115.9564],[145.9569,-35.2792,113.8476],[145.959,-35.2795,113.781],[145.9606,-35.283,115.1055],[145.9643,-35.2833,114.8254],[145.9671,-35.2816,113.9501],[145.9709,-35.2826,113.7888],[145.9764,-35.2797,113.8075],[145.9839,-35.2855,114.6031],[145.9875,-35.285,115.8973],[145.9847,-35.2878,112.2249],[145.9868,-35.2891,113.8044],[145.9836,-35.2895,112.3074],[145.9857,-35.2923,112.8994],[145.9847,-35.2948,111.9763],[145.9873,-35.2954,113.9986],[145.9852,-35.2977,112.2247],[145.9858,-35.3002,113.4779],[145.9893,-35.301,113.5605],[145.9863,-35.3044,113.3612],[145.9934,-35.3115,112.1343],[145.998,-35.3116,112.61],[146.0003,-35.3084,113.7296],[146.009,-35.3054,113.1339],[146.0213,-35.312,113.4064],[146.0214,-35.3149,113.5633],[146.0229,-35.3153,113.2379],[146.0221,-35.3168,113.3657],[146.0243,-35.3172,113.9921],[146.0239,-35.3184,113.2246],[146.0304,-35.3144,114.3241],[146.0347,-35.3143,114.2],[146.0379,-35.317,114.9286],[146.0399,-35.3144,114.2893],[146.0419,-35.3192,116.1689],[146.045,-35.3194,115.256],[146.0465,-35.3236,115.6843],[146.0527,-35.3191,115.0162],[146.0568,-35.321,115.9719],[146.0582,-35.3182,116.4342],[146.0602,-35.3176,114.5353],[146.065,-35.3224,114.7537],[146.0272,-35.5272,120.0887],[146.0192,-35.5262,120.1498],[146.0151,-35.5491,120.9296],[146.0195,-35.5497,120.574],[146.0183,-35.5567,120.8001],[146.0089,-35.5554,120.6523],[146.0077,-35.5633,121.0762],[146.0165,-35.5645,121.3024],[146.0157,-35.5689,121.4778],[146.0181,-35.5695,121.4971],[146.0171,-35.5754,120.7686],[146.0136,-35.5749,120.8943],[146.0105,-35.5833,121.8213],[146.0474,-35.5875,122.4992],[146.0464,-35.5928,122.6022],[146.0707,-35.5892,123.7127],[146.0878,-35.5925,124.175],[146.2586,-35.6146,131.0202],[146.2591,-35.6122,131.1077],[146.3405,-35.6226,136.6528],[146.3409,-35.6203,136.5323],[146.3433,-35.6206,137.049],[146.3417,-35.6293,135.5469],[146.345,-35.6245,136.2338],[146.3512,-35.6237,137.416],[146.3576,-35.6259,136.9189],[146.3629,-35.6256,138.7451],[146.3624,-35.6278,138.4698],[146.3712,-35.6289,137.9106],[146.3718,-35.6255,138.4609],[146.3887,-35.6277,140.2203],[146.3862,-35.6418,144.6212],[146.3835,-35.6415,145.3621],[146.381,-35.6547,169.0315],[146.3922,-35.6523,153.2037],[146.4128,-35.6523,142.3947],[146.4473,-35.6554,146.1835],[146.4478,-35.6528,145.225],[146.449,-35.6529,145.2053],[146.5058,-35.6607,152.5395],[146.5087,-35.6636,152.5814],[146.5601,-35.67,160.6626]]]]}}