{"type": "Feature","bbox": [146.0217,-34.725,146.5167,-34.3343],"geometry": {"type": "MultiPolygon","coordinates": [[[[146.0282,-34.5657,126.1455],[146.0277,-34.5682,123.5349],[146.0241,-34.5675,122.9711],[146.0217,-34.584,121.3347],[146.0276,-34.5876,119.8564],[146.0235,-34.5889,120.4212],[146.0232,-34.5945,123.5371],[146.03,-34.5988,126.5328],[146.0322,-34.5884,123.9426],[146.0349,-34.5911,126.5917],[146.0367,-34.5906,121.3626],[146.0423,-34.5794,125.5214],[146.0488,-34.5776,125.6788],[146.0507,-34.5822,125.454],[146.0449,-34.5839,123.8836],[146.0436,-34.5879,125.6634],[146.0486,-34.5882,125.2539],[146.051,-34.5864,121.2973],[146.0531,-34.5893,120.9259],[146.0574,-34.5882,123.2797],[146.0616,-34.5902,124.8451],[146.063,-34.594,119.8507],[146.0599,-34.5976,126.1372],[146.0632,-34.6025,125.5823],[146.069,-34.6018,122.8479],[146.071,-34.6079,125.1309],[146.0804,-34.61,125.7147],[146.0831,-34.6075,123.6931],[146.0857,-34.6077,127.256],[146.0855,-34.611,122.1936],[146.0952,-34.6202,123.8002],[146.0924,-34.6268,123.2308],[146.098,-34.6324,127.483],[146.0993,-34.6316,130.3301],[146.097,-34.6286,122.7599],[146.1048,-34.627,129.0029],[146.1064,-34.6276,128.091],[146.1048,-34.6306,125.9783],[146.1061,-34.6314,127.8618],[146.1127,-34.6309,125.0581],[146.12,-34.6266,133.1704],[146.1301,-34.6279,125.9751],[146.1323,-34.6251,126.707],[146.1287,-34.622,124.5085],[146.1316,-34.6198,126.4116],[146.1346,-34.6225,128.7317],[146.1401,-34.6207,129.3334],[146.1409,-34.628,142.0307],[146.1534,-34.6283,130.1424],[146.1567,-34.6241,130.8641],[146.1552,-34.6192,129.7711],[146.1578,-34.619,129.2476],[146.1594,-34.6226,128.3],[146.1653,-34.621,128.637],[146.1673,-34.6158,128.5424],[146.17,-34.6137,132.3294],[146.169,-34.6107,142.857],[146.1703,-34.6089,131.2096],[146.1761,-34.6108,134.3935],[146.1804,-34.609,129.513],[146.1835,-34.6099,131.5199],[146.1854,-34.6121,130.4212],[146.184,-34.6158,129.6366],[146.1873,-34.6183,133.0958],[146.1859,-34.6226,130.3435],[146.1893,-34.6249,136.0273],[146.1928,-34.6222,129.7347],[146.1991,-34.6213,134.9962],[146.2109,-34.6238,128.5808],[146.2119,-34.623,128.5808],[146.2104,-34.6199,128.0289],[146.2149,-34.62,135.0709],[146.2234,-34.6115,137.8113],[146.2264,-34.6113,131.6374],[146.2277,-34.6127,131.6374],[146.2269,-34.6172,129.9225],[146.2297,-34.617,133.54],[146.2188,-34.6751,133.5181],[146.3324,-34.689,137.9593],[146.3359,-34.6903,138.019],[146.3449,-34.6993,138.0893],[146.3574,-34.7004,138.7943],[146.3762,-34.6947,141.6999],[146.3828,-34.696,139.4143],[146.3873,-34.6988,142.7751],[146.3942,-34.6982,140.6282],[146.4026,-34.7047,141.7791],[146.4027,-34.7013,142.8558],[146.4081,-34.7023,143.7736],[146.4084,-34.7053,139.272],[146.4104,-34.706,141.9629],[146.4198,-34.7056,136.0393],[146.4217,-34.7037,139.9078],[146.4205,-34.7019,133.7332],[146.4252,-34.7,133.8218],[146.4283,-34.7029,137.893],[146.427,-34.7079,134.198],[146.432,-34.7076,133.7818],[146.4368,-34.7101,135.966],[146.4409,-34.7148,136.8293],[146.4447,-34.7152,135.391],[146.4463,-34.7177,136.731],[146.45,-34.7153,135.4711],[146.4545,-34.7207,136.3379],[146.4592,-34.7181,137.0255],[146.4618,-34.7197,133.75],[146.4622,-34.7228,134.0],[146.4662,-34.725,145.7048],[146.4778,-34.7169,139.6874],[146.4823,-34.7147,138.6864],[146.4842,-34.7154,136.5742],[146.4854,-34.7088,144.0435],[146.4874,-34.709,145.0795],[146.5167,-34.5536,166.8862],[146.5103,-34.5528,162.4289],[146.5142,-34.5311,177.5559],[146.4706,-34.5256,143.0778],[146.4788,-34.4798,175.6303],[146.4725,-34.4791,174.0823],[146.4731,-34.4753,205.5041],[146.4818,-34.4763,176.1629],[146.4827,-34.4631,202.9998],[146.4681,-34.4614,252.3833],[146.4685,-34.4594,307.8883],[146.439,-34.4552,155.1635],[146.4413,-34.4426,169.306],[146.4214,-34.4401,160.9069],[146.4207,-34.4442,153.7413],[146.4003,-34.4416,165.5478],[146.401,-34.4376,148.4252],[146.3975,-34.4371,147.3094],[146.4001,-34.4225,203.9048],[146.3876,-34.421,202.7054],[146.3895,-34.4105,173.0694],[146.3925,-34.4109,202.7075],[146.3969,-34.3867,147.1224],[146.3868,-34.3853,140.8841],[146.389,-34.3731,140.2994],[146.3858,-34.3727,140.0781],[146.3907,-34.3449,142.3863],[146.3002,-34.3343,137.9063],[146.3006,-34.3452,136.7107],[146.2861,-34.3459,137.6092],[146.2855,-34.3356,136.4138],[146.2765,-34.3345,135.4615],[146.2751,-34.3419,144.0142],[146.2363,-34.3369,179.3204],[146.2299,-34.372,136.9185],[146.2254,-34.3709,137.5306],[146.2162,-34.3651,135.5839],[146.2065,-34.3542,133.504],[146.2022,-34.3766,129.7124],[146.1772,-34.3737,127.3498],[146.1563,-34.3837,126.6039],[146.1491,-34.3897,126.5351],[146.1347,-34.3912,126.1307],[146.1429,-34.4013,126.7613],[146.1533,-34.4051,127.1418],[146.1445,-34.4523,127.8237],[146.1366,-34.4693,128.5225],[146.1346,-34.4805,128.6855],[146.1423,-34.4801,128.6376],[146.1464,-34.4824,128.706],[146.1467,-34.4916,128.9456],[146.1441,-34.5009,128.9303],[146.1184,-34.491,128.5298],[146.0902,-34.4838,126.8945],[146.0754,-34.567,128.1318],[146.0376,-34.5627,126.1511],[146.0359,-34.5701,126.1651],[146.0282,-34.5657,126.1455]]]]}
,"properties": {"GID_2": "AUS.5.80_1","GID_0": "AUS","country": "Australia","GID_1": "AUS.5_1","state": "NewSouthWales","NL_NAME_1": "NA","county": "Leeton","VARNAME_2": "NA","NL_NAME_2": "NA","TYPE_2": "Area","ENGTYPE_2": "Area","CC_2": "14750","HASC_2": "AU.NS.LE","name": "Leeton.county","area_km2": 1167.0238,"hist_schema_id": "Elevation0-9000","hist_area_km2": {"125": 783.5912,"150": 335.1513,"175": 37.2144,"200": 8.1997,"225": 1.9406,"250": 0.4546,"275": 0.2622,"300": 0.2098}}}