{"type":"Feature","properties":{"GID_2":"AUS.5.140_1","GID_0":"AUS","country":"Australia","GID_1":"AUS.5_1","state":"NewSouthWales","NL_NAME_1":"NA","county":"Warringah","VARNAME_2":"NA","NL_NAME_2":"NA","TYPE_2":"Area","ENGTYPE_2":"Area","CC_2":"18000","HASC_2":"AU.NS.WR","name":"Warringah.county"},
"geometry":{"type": "MultiPolygon","coordinates": [[[[151.2029,-33.7735,11.3496],[151.2044,-33.7725,42.9347],[151.2121,-33.7765,1.5],[151.2152,-33.7806,30.2195],[151.2144,-33.7822,5.5776],[151.2248,-33.7838,3.1902],[151.2294,-33.7825,0.5],[151.2307,-33.7775,8.0952],[151.2291,-33.7745,0.5],[151.2307,-33.7727,14.9894],[151.2331,-33.7768,37.4092],[151.2323,-33.7778,3.9631],[151.2391,-33.7789,118.3238],[151.2431,-33.7814,114.8011],[151.2422,-33.786,78.0243],[151.2519,-33.7923,45.0763],[151.2594,-33.7886,26.617],[151.2655,-33.7886,14.7146],[151.2666,-33.7867,12.0947],[151.2747,-33.7877,2.9134],[151.2744,-33.7818,5.0201],[151.2753,-33.7823,5.0201],[151.2765,-33.7847,2.2217],[151.2795,-33.7828,4.9104],[151.2817,-33.7848,2.8404],[151.2909,-33.7864,0.0],[151.2906,-33.7816,0.0],[151.2926,-33.7807,18.0075],[151.2959,-33.7818,1.2495],[151.2932,-33.7732,0.0],[151.2987,-33.7674,5.8981],[151.3025,-33.7681,0.0],[151.3018,-33.7601,0.0],[151.2974,-33.7536,3.7948],[151.3032,-33.7469,0.1993],[151.2996,-33.7474,2.4997],[151.2967,-33.751,2.2549],[151.2917,-33.7472,7.2097],[151.2975,-33.7453,3.2949],[151.3042,-33.7465,0.1993],[151.3111,-33.7431,0.0],[151.3177,-33.742,0.0],[151.3132,-33.7386,5.2429],[151.3069,-33.7382,3.8236],[151.3002,-33.727,1.6132],[151.3007,-33.7163,1.134],[151.3076,-33.7031,0.0],[151.3,-33.705,2.9077],[151.2994,-33.7093,8.232],[151.2968,-33.712,1.9479],[151.2936,-33.7213,8.7596],[151.2843,-33.7167,4.9257],[151.2825,-33.7136,0.0],[151.2748,-33.7237,8.4303],[151.2715,-33.7202,20.4503],[151.2738,-33.7181,0.0],[151.2707,-33.7177,0.8525],[151.2697,-33.7154,28.9541],[151.272,-33.7126,3.8092],[151.2752,-33.7121,1.838],[151.2748,-33.7088,21.8411],[151.2714,-33.706,33.1357],[151.2621,-33.7053,19.8456],[151.259,-33.7032,19.4774],[151.2623,-33.6832,185.1077],[151.2585,-33.6868,196.5079],[151.2496,-33.6853,136.4331],[151.2452,-33.6883,154.6111],[151.2387,-33.6878,175.8965],[151.2402,-33.6849,140.65],[151.2483,-33.6813,103.9149],[151.254,-33.6695,71.5009],[151.2547,-33.6648,72.8391],[151.2536,-33.6635,70.9251],[151.2563,-33.6607,75.4215],[151.2554,-33.6575,134.6016],[151.2586,-33.6561,143.4046],[151.2592,-33.6537,153.7724],[151.2504,-33.6493,98.7866],[151.2485,-33.6496,108.1476],[151.2477,-33.6522,111.3039],[151.2438,-33.652,72.7309],[151.2451,-33.6452,52.684],[151.241,-33.6447,66.0008],[151.2316,-33.6395,14.1396],[151.2285,-33.6362,3.0],[151.2199,-33.6326,2.5],[151.21,-33.6145,0.5],[151.2045,-33.6157,13.0578],[151.2006,-33.6184,10.5556],[151.2001,-33.6205,31.2164],[151.1983,-33.6199,25.1771],[151.1962,-33.6222,46.5247],[151.1856,-33.6223,27.2816],[151.1822,-33.6281,43.8222],[151.1799,-33.6259,1.0],[151.1758,-33.6272,12.6697],[151.1732,-33.6264,27.6946],[151.1734,-33.632,48.9764],[151.1704,-33.6336,13.619],[151.1692,-33.637,64.4305],[151.1722,-33.6403,33.2259],[151.1669,-33.6378,1.0],[151.1654,-33.6387,11.6546],[151.1647,-33.6482,1.5],[151.1667,-33.651,20.1542],[151.1631,-33.6494,1.5],[151.1608,-33.6511,37.2079],[151.1613,-33.6542,42.2415],[151.1641,-33.6562,32.5612],[151.1615,-33.6605,6.82],[151.1687,-33.6674,1.5],[151.1672,-33.6732,21.2135],[151.1686,-33.676,7.6307],[151.1718,-33.6775,29.34],[151.1657,-33.6859,41.5186],[151.1738,-33.6918,35.7529],[151.1726,-33.6931,68.8556],[151.1746,-33.6968,60.1688],[151.1885,-33.6986,72.5707],[151.1914,-33.7027,86.5989],[151.1877,-33.7206,64.6459],[151.1889,-33.7257,55.3222],[151.1913,-33.7264,51.8713],[151.1917,-33.7283,44.6486],[151.1875,-33.7282,41.481],[151.1826,-33.7324,51.5775],[151.1803,-33.7406,29.384],[151.185,-33.744,33.2324],[151.1884,-33.7436,27.9934],[151.1938,-33.7502,82.8473],[151.1936,-33.7527,58.1751],[151.1958,-33.754,20.6664],[151.191,-33.757,18.2365],[151.1933,-33.7601,44.5957],[151.1983,-33.7623,6.354],[151.1985,-33.7682,23.5333],[151.2026,-33.7704,2.7807],[151.2017,-33.7723,49.2666],[151.2029,-33.7735,11.3496]]]]}}