{"type":"Feature","properties":{"GID_2":"AUS.11.82_1","GID_0":"AUS","country":"Australia","GID_1":"AUS.11_1","state":"WesternAustralia","NL_NAME_1":"NA","county":"MosmanPark","VARNAME_2":"NA","NL_NAME_2":"NA","TYPE_2":"Town","ENGTYPE_2":"Town","CC_2":"55740","HASC_2":"AU.WA.MP","name":"MosmanPark.county"},
"geometry":{"type": "MultiPolygon","coordinates": [[[[115.7513,-32.0161,10.0368],[115.7509,-32.0216,0.0],[115.7575,-32.0212,40.84],[115.7589,-32.024,9.6724],[115.7663,-32.0224,17.9604],[115.7738,-32.0251,0.0],[115.7814,-32.0164,9.247],[115.7717,-32.0097,42.0168],[115.7718,-32.0034,3.1248],[115.7592,-32.0038,19.5947],[115.7534,-32.0161,21.3139],[115.7513,-32.0161,10.0368]]]]}}