{"type": "Feature","bbox": [118.5037,-32.2064,120.0139,-29.6123],"geometry": {"type": "MultiPolygon","coordinates": [[[[120.0139,-30.1611,454.357],[120.0023,-30.1584,466.5202],[119.9882,-30.1585,468.9833],[119.4199,-29.9501,500.51],[119.4199,-29.9447,498.9691],[119.0809,-29.8204,498.7698],[119.0809,-29.8261,507.0407],[118.5037,-29.6123,372.1291],[118.5082,-29.6369,383.6701],[118.5082,-30.2133,492.6871],[118.7552,-30.6309,461.5677],[118.7552,-30.721,411.0357],[118.7729,-30.721,429.2491],[118.7729,-30.7579,412.6215],[118.7586,-30.7577,395.4337],[118.7618,-30.7701,389.4306],[118.7849,-30.7704,415.8982],[118.7849,-30.8112,376.1468],[118.8255,-30.8112,376.2222],[118.8255,-30.8175,368.9914],[118.8596,-30.8175,383.0622],[118.8596,-30.8273,371.0206],[118.8772,-30.8273,362.8238],[118.8772,-30.8375,354.8005],[118.8951,-30.8375,342.2985],[118.9173,-30.8472,332.3744],[118.9118,-30.8566,328.1384],[118.9118,-30.8626,327.3517],[118.9283,-30.8626,327.5631],[118.9297,-30.8853,328.7406],[118.9439,-30.8952,322.6638],[118.9449,-30.9031,325.1641],[118.9537,-30.9153,321.1556],[118.9575,-30.9263,323.2028],[118.9456,-30.9338,321.4786],[118.9302,-30.9327,324.0499],[118.9198,-30.9344,328.3008],[118.9184,-30.9676,326.3232],[118.8914,-30.9676,327.7988],[118.8914,-30.9621,325.9225],[118.8634,-30.9621,337.3782],[118.8634,-31.0073,384.902],[118.8677,-31.0066,380.1837],[118.8743,-31.0207,389.6879],[118.8743,-31.05,357.6573],[118.8705,-31.05,358.1486],[118.8704,-31.0749,341.8676],[118.8439,-31.0749,337.3427],[118.8439,-31.101,328.8575],[118.8485,-31.101,330.1395],[118.8485,-31.121,337.627],[118.8235,-31.121,338.5082],[118.8236,-31.149,368.8686],[118.8111,-31.149,359.2332],[118.8101,-31.2183,413.7343],[118.7729,-31.2181,422.5928],[118.7721,-31.2436,381.1534],[118.7592,-31.2436,375.1254],[118.7388,-31.2595,360.5277],[118.7386,-31.3002,355.0731],[118.7425,-31.3002,360.6225],[118.7425,-31.3192,357.8817],[118.7395,-31.3192,356.413],[118.7395,-31.3285,357.2731],[118.7628,-31.3285,368.3192],[118.7628,-31.353,384.5542],[118.7388,-31.353,373.2764],[118.7388,-31.3887,392.7024],[118.7452,-31.3917,404.2372],[118.7453,-31.3944,405.4019],[118.7401,-31.3947,398.248],[118.7398,-31.4065,400.2727],[118.7363,-31.4272,377.0328],[118.7363,-31.4827,436.0514],[118.7409,-31.4827,431.7939],[118.741,-31.5553,426.795],[118.7551,-31.5554,444.4969],[118.7551,-31.6185,404.7549],[118.8042,-31.6185,452.2586],[118.8044,-31.6955,427.7288],[118.739,-31.6956,395.1812],[118.871,-31.8564,412.3036],[118.8825,-31.8674,396.8019],[118.9116,-31.9053,388.5397],[118.9225,-31.917,390.8398],[118.958,-31.9447,387.0793],[118.9792,-31.9678,401.6877],[119.0417,-31.968,385.6873],[119.0417,-31.9629,389.3482],[119.0916,-31.9629,456.739],[119.0916,-31.9758,430.7122],[119.1028,-31.9758,427.9667],[119.1028,-31.9716,437.7223],[119.1347,-31.9716,459.722],[119.1347,-32.0005,444.4126],[119.1367,-32.0005,448.3896],[119.1349,-32.0041,442.0609],[119.1349,-32.0137,430.7758],[119.1759,-32.0137,423.491],[119.1759,-32.0816,364.1674],[119.1851,-32.0814,370.2209],[119.1852,-32.1004,362.638],[119.0889,-32.1004,395.4164],[119.1792,-32.2035,345.8159],[119.5773,-32.2035,420.238],[119.5773,-32.2061,420.2849],[119.6137,-32.2061,415.5992],[119.6137,-32.2034,414.6541],[119.7006,-32.2034,414.2267],[119.7006,-32.2064,413.5225],[119.7324,-32.2064,394.2565],[119.7322,-32.2034,392.8266],[120.0097,-32.2036,455.7],[120.0098,-31.2689,469.0062],[120.0139,-30.1611,454.357]]]]}
,"properties": {"GID_2": "AUS.11.139_1","GID_0": "AUS","country": "Australia","GID_1": "AUS.11_1","state": "WesternAustralia","NL_NAME_1": "NA","county": "Yilgarn","VARNAME_2": "NA","NL_NAME_2": "NA","TYPE_2": "Shire","ENGTYPE_2": "Shire","CC_2": "59360","HASC_2": "AU.WA.YI","name": "Yilgarn.county","area_km2": 30415.67,"hist_schema_id": "Elevation0-9000","hist_area_km2": {"325": 820.7,"350": 2858.29,"375": 4755.89,"400": 6609.04,"425": 6948.0,"450": 5131.7,"475": 2352.15,"500": 849.37,"525": 68.38,"550": 10.02,"575": 5.15,"600": 2.82,"625": 2.12,"650": 1.1,"675": 0.35}}}