{"type":"Feature","properties":{"GID_2":"AUS.8.13_1","GID_0":"AUS","country":"Australia","GID_1":"AUS.8_1","state":"SouthAustralia","NL_NAME_1":"NA","county":"Cleve","VARNAME_2":"NA","NL_NAME_2":"NA","TYPE_2":"DistrictCouncil","ENGTYPE_2":"DistrictCouncil","CC_2":"41190","HASC_2":"AU.SA.CL","name":"Cleve.county"},
"geometry":{"type": "MultiPolygon","coordinates": [[[[136.6708,-33.8774,4.2608],[136.6705,-33.6158,347.0357],[136.4974,-33.6156,338.0213],[136.4975,-33.5723,334.5893],[136.5,-33.5659,357.1199],[136.4977,-33.5628,366.8744],[136.4975,-33.5585,366.5392],[136.498,-33.3286,300.8131],[135.9081,-33.3312,87.4944],[135.9069,-33.4877,99.0604],[135.9076,-33.8502,97.6129],[135.9306,-33.8502,96.745],[135.9304,-33.9867,108.2387],[136.4956,-33.986,4.4883],[136.4956,-33.993,0.0],[136.5038,-33.9894,2.5527],[136.5122,-33.9807,3.2672],[136.5368,-33.9645,4.8931],[136.5525,-33.9565,0.0],[136.5561,-33.9497,1.5819],[136.5713,-33.9453,3.5167],[136.577,-33.9417,0.9793],[136.578,-33.9386,0.0],[136.5762,-33.9367,0.0],[136.5781,-33.9318,0.0],[136.5732,-33.9296,1.8526],[136.5722,-33.923,0.5751],[136.5746,-33.918,1.5641],[136.5802,-33.9131,0.0],[136.5832,-33.9123,2.7949],[136.586,-33.9139,0.0],[136.586,-33.9081,0.0],[136.5927,-33.8996,0.0],[136.6114,-33.8954,0.0],[136.6252,-33.8891,5.0037],[136.6447,-33.8873,4.4019],[136.6534,-33.8824,6.2386],[136.6645,-33.8803,0.0],[136.6708,-33.8774,4.2608]]]]}}