{"type":"Feature","properties":{"GID_2":"AUS.7.14_1","GID_0":"AUS","country":"Australia","GID_1":"AUS.7_1","state":"Queensland","NL_NAME_1":"NA","county":"Carpentaria","VARNAME_2":"NA","NL_NAME_2":"NA","TYPE_2":"Shire","ENGTYPE_2":"Shire","CC_2":"32250","HASC_2":"AU.QL.CA","name":"Carpentaria.county"},
"geometry":{"type": "MultiPolygon","coordinates": [[[[139.9115,-19.0265,58.3592],[139.998,-19.0326,60.8479],[139.9988,-19.0236,58.8611],[140.3058,-19.0452,73.5032],[140.3025,-19.0876,76.2659],[140.5108,-19.1021,51.2358],[140.5096,-19.1016,51.7507],[140.5103,-19.0723,51.6514],[140.5152,-19.0484,56.9118],[140.6335,-19.0566,46.6027],[140.6698,-19.0984,48.181],[140.7112,-19.0666,47.8885],[140.8174,-19.1873,53.5767],[140.9066,-19.1167,52.514],[140.913,-19.1224,52.6657],[140.9152,-19.1206,52.8569],[140.9154,-19.1163,53.4567],[140.9196,-19.118,51.7759],[140.9214,-19.1353,54.237],[141.1063,-19.1479,54.8506],[141.1049,-19.1624,55.8109],[141.0984,-19.1754,56.1149],[141.0957,-19.1991,57.1651],[141.3094,-19.2256,65.6616],[141.3588,-19.2392,65.023],[141.4185,-19.2429,67.4067],[141.4116,-19.3136,72.4827],[141.6103,-19.331,85.6066],[141.6416,-19.3069,85.444],[141.6435,-19.3121,86.5265],[141.6506,-19.3173,86.7108],[141.6613,-19.3166,86.5221],[141.6681,-19.3232,87.3594],[141.6816,-19.3283,89.6866],[141.6848,-19.3376,90.5895],[141.6929,-19.346,91.1546],[141.6921,-19.3573,90.2837],[141.753,-19.3048,93.7086],[141.8104,-19.3688,100.9557],[141.908,-19.3718,112.1307],[141.9047,-19.4105,111.4376],[142.0365,-19.422,126.6545],[142.0343,-19.4427,125.7964],[142.1596,-19.4551,141.5249],[142.1679,-19.3832,144.9615],[142.3743,-19.4002,171.7561],[142.4008,-19.1226,169.7593],[142.3478,-19.1188,162.3739],[142.346,-19.1469,164.9067],[142.2364,-19.1361,148.4781],[142.2351,-19.1495,148.8169],[142.1594,-19.142,137.0547],[142.1766,-18.9722,128.0129],[142.1291,-18.9695,122.4845],[142.1267,-18.9934,122.0861],[141.9415,-18.9785,100.6749],[141.9311,-19.0897,106.7887],[141.7717,-19.0782,88.355],[141.7617,-19.1919,91.9639],[141.7462,-19.1927,89.9925],[141.7391,-19.1851,89.1446],[141.7345,-19.184,88.8348],[141.729,-19.1791,87.794],[141.7155,-19.1791,86.4291],[141.7111,-19.1763,86.152],[141.709,-19.1727,85.5251],[141.7041,-19.1707,85.2902],[141.6973,-19.16,83.9002],[141.6916,-19.1564,83.7046],[141.6861,-19.1573,83.0377],[141.6787,-19.1555,82.0309],[141.669,-19.1591,80.4553],[141.6644,-19.1584,79.8833],[141.6618,-19.1597,79.6476],[141.6582,-19.1572,78.8638],[141.6461,-19.1577,77.3845],[141.6396,-19.1547,76.6662],[141.6331,-19.1547,76.7549],[141.6312,-19.1518,76.0592],[141.6237,-19.1505,76.0508],[141.6237,-19.1487,76.0031],[141.6207,-19.1482,75.6347],[141.6211,-19.1456,75.7192],[141.618,-19.1437,75.2916],[141.6171,-19.1448,76.1177],[141.6153,-19.1427,75.2548],[141.6167,-19.1385,75.1503],[141.6128,-19.1378,74.7385],[141.6113,-19.1352,74.8345],[141.6128,-19.1322,74.4017],[141.6114,-19.1285,73.9128],[141.6132,-19.1242,74.9582],[141.6093,-19.12,73.9824],[141.6089,-19.1134,73.1204],[141.6201,-19.1146,74.3966],[141.6362,-18.9671,67.1375],[141.6681,-18.9697,70.5112],[141.692,-18.7136,63.2183],[141.364,-18.6814,38.7564],[141.3699,-18.6255,36.6654],[141.315,-18.6204,33.4437],[141.3037,-18.6126,31.0835],[141.2987,-18.6114,31.6418],[141.3027,-18.6066,31.5985],[141.3022,-18.5952,31.2361],[141.3001,-18.5932,30.6308],[141.2995,-18.588,30.7554],[141.2961,-18.5873,30.8075],[141.2946,-18.5852,31.0659],[141.2921,-18.5779,30.1658],[141.2936,-18.5752,30.3245],[141.2932,-18.5703,30.2646],[141.2908,-18.5686,30.1049],[141.2935,-18.5659,29.9848],[141.2967,-18.5659,29.6445],[141.2981,-18.5678,30.0126],[141.3003,-18.5633,29.7963],[141.2987,-18.5565,30.1132],[141.2959,-18.5523,29.8289],[141.2881,-18.5464,29.3895],[141.2855,-18.53,28.3989],[141.2862,-18.5229,28.1556],[141.2836,-18.5187,27.8652],[141.2863,-18.5169,28.1897],[141.2851,-18.5122,28.1044],[141.2864,-18.5095,27.7438],[141.2849,-18.5086,27.6696],[141.2848,-18.5054,28.0744],[141.2902,-18.5024,27.2269],[141.2904,-18.5002,27.5378],[141.2977,-18.4996,26.8444],[141.299,-18.4965,27.0945],[141.2993,-18.4929,27.4063],[141.2929,-18.4851,27.0739],[141.2945,-18.484,26.7005],[141.2928,-18.48,26.1845],[141.2986,-18.4755,26.6321],[141.2968,-18.4704,26.3666],[141.2938,-18.4676,26.2204],[141.2965,-18.4634,25.8456],[141.295,-18.4598,26.0299],[141.301,-18.4558,25.6195],[141.3008,-18.4503,25.48],[141.3048,-18.4478,24.639],[141.3013,-18.4375,24.3973],[141.302,-18.4277,23.8209],[141.2924,-18.4251,23.6871],[141.2894,-18.4215,23.8594],[141.281,-18.4175,24.4622],[141.2839,-18.4081,22.7848],[141.2825,-18.4052,23.4561],[141.2838,-18.3982,22.8079],[141.2815,-18.3912,23.0399],[141.2726,-18.3868,23.3878],[141.2674,-18.3779,23.2291],[141.2661,-18.3688,21.5928],[141.2618,-18.3653,21.4819],[141.2545,-18.364,21.9124],[141.2523,-18.3618,21.1613],[141.253,-18.3601,21.9532],[141.2498,-18.3505,20.8432],[141.241,-18.3453,22.0603],[141.2384,-18.3367,21.0069],[141.2309,-18.335,21.7367],[141.23,-18.3325,21.168],[141.2264,-18.3313,20.9075],[141.2256,-18.3294,20.563],[141.2233,-18.3301,20.5563],[141.223,-18.3249,20.6957],[141.2202,-18.3219,20.9532],[141.2215,-18.3206,20.5478],[141.2192,-18.3151,20.2742],[141.2198,-18.3077,19.9941],[141.2183,-18.3034,19.9094],[141.2202,-18.3012,19.4059],[141.2178,-18.2964,19.6423],[141.2196,-18.2949,18.7326],[141.2187,-18.292,18.2527],[141.2133,-18.2871,19.3792],[141.2158,-18.2811,18.7356],[141.2144,-18.2776,18.357],[141.2103,-18.2745,18.3332],[141.2113,-18.2707,18.2604],[141.21,-18.2645,17.5074],[141.2091,-18.2628,17.4904],[141.2059,-18.2623,18.4331],[141.2047,-18.2551,18.0947],[141.2018,-18.2532,17.9814],[141.193,-18.2542,17.756],[141.1886,-18.2531,19.4693],[141.1868,-18.2501,21.6254],[141.1876,-18.242,16.448],[141.1908,-18.2326,15.8645],[141.1877,-18.2296,16.9713],[141.187,-18.2246,16.7964],[141.1817,-18.2167,16.6978],[141.1811,-18.2134,15.4989],[141.1749,-18.2086,16.2063],[141.1705,-18.2074,15.8369],[141.1668,-18.2034,16.1088],[141.1623,-18.2043,14.9725],[141.1567,-18.1959,14.8408],[141.1471,-18.1928,16.0873],[141.1431,-18.1934,13.5785],[141.1379,-18.1889,16.7204],[141.1387,-18.1782,14.5288],[141.1437,-18.1688,16.1779],[141.1431,-18.1568,15.8084],[141.1378,-18.1505,14.8338],[141.1397,-18.1455,14.9073],[141.1348,-18.1374,14.9201],[141.1359,-18.1323,14.7316],[141.1318,-18.1232,14.0825],[141.1378,-18.1195,14.9931],[141.1411,-18.1144,13.6795],[141.1444,-18.1134,12.5707],[141.1916,-18.1194,15.7749],[141.1999,-18.0154,16.504],[141.2838,-18.0232,21.6302],[141.2817,-18.0467,21.464],[141.3952,-18.0571,27.1155],[141.4004,-18.0016,26.2505],[141.3884,-18.0047,23.6002],[141.3931,-17.9348,26.0902],[141.4673,-17.939,31.5341],[141.4697,-17.9098,32.6756],[141.305,-17.8916,20.6238],[141.3224,-17.7352,17.635],[141.3257,-17.7328,18.391],[141.3284,-17.7333,18.1683],[141.3306,-17.7386,18.4068],[141.3368,-17.7447,19.7793],[141.3501,-17.7433,19.3719],[141.3574,-17.7451,19.558],[141.3594,-17.7496,20.7289],[141.359,-17.7538,20.3632],[141.3606,-17.7553,20.8562],[141.3864,-17.7516,22.356],[141.398,-17.7565,23.5556],[141.4051,-17.7639,24.0066],[141.4102,-17.7638,24.2263],[141.4148,-17.7618,24.725],[141.422,-17.7555,24.9885],[141.4329,-17.7511,26.4976],[141.4357,-17.6813,25.547],[141.3772,-17.677,21.4336],[141.3829,-17.6081,22.7487],[141.4058,-17.61,23.5499],[141.4217,-17.4438,24.3139],[141.5727,-17.4584,33.5443],[141.5764,-17.4204,33.1816],[141.7287,-17.4329,44.0218],[141.7256,-17.4695,42.7984],[141.8367,-17.4825,53.5863],[141.7853,-17.4224,47.8604],[141.8977,-17.3308,52.8026],[142.0123,-17.4712,65.8789],[142.0578,-17.4343,68.5252],[142.1784,-17.5662,81.3669],[142.2672,-17.4922,87.0676],[142.2656,-17.4861,73.4128],[142.2592,-17.4766,77.2351],[142.2517,-17.4713,84.0191],[142.2491,-17.4651,76.2741],[142.2294,-17.4524,76.1198],[142.2259,-17.4458,77.9291],[142.2052,-17.4428,76.0696],[142.2022,-17.4436,75.7065],[142.1975,-17.4409,76.3441],[142.1918,-17.4413,78.466],[142.188,-17.4385,71.6823],[142.1823,-17.4378,68.732],[142.175,-17.4324,68.6489],[142.3406,-17.2862,79.1388],[142.4016,-17.3553,89.492],[142.5407,-17.1755,89.3356],[142.5351,-17.1768,88.536],[142.5219,-17.1753,88.1575],[142.5196,-17.1717,87.7414],[142.513,-17.1705,87.0313],[142.5083,-17.1622,85.4389],[142.4967,-17.1513,85.6079],[142.4892,-17.1476,83.3996],[142.4859,-17.1423,85.205],[142.4778,-17.139,84.7708],[142.4684,-17.1307,84.6633],[142.4667,-17.1262,81.0784],[142.4617,-17.1223,80.179],[142.4623,-17.1182,80.9131],[142.4588,-17.1161,79.9388],[142.4559,-17.1083,80.8506],[142.4513,-17.1059,77.1685],[142.4452,-17.105,78.1522],[142.4402,-17.1013,78.7611],[142.4359,-17.1009,76.6448],[142.4339,-17.0982,76.5752],[142.4287,-17.096,76.2673],[142.4275,-17.0923,75.1107],[142.4214,-17.0874,74.2992],[142.508,-16.9722,79.1908],[142.5466,-16.5585,53.1147],[142.5961,-16.1907,62.231],[142.637,-16.1253,62.2619],[142.6932,-16.173,69.8141],[142.7466,-16.1142,66.5381],[142.7465,-16.1124,60.1767],[142.7304,-16.0987,57.5],[142.7213,-16.0854,58.8716],[142.7184,-16.0835,59.9698],[142.7166,-16.0846,61.2126],[142.7136,-16.0822,60.1281],[142.7098,-16.0717,67.7154],[142.6965,-16.0678,56.8253],[142.6828,-16.0706,54.5],[142.6675,-16.0677,54.0],[142.6562,-16.0613,57.0886],[142.6473,-16.0522,53.5],[142.6421,-16.0423,53.0],[142.6396,-16.0322,52.9118],[142.6342,-16.0224,53.7233],[142.6297,-16.02,59.7993],[142.6236,-16.0194,54.8354],[142.6281,-15.9506,61.4779],[142.6958,-15.8966,65.1972],[142.7047,-15.7504,56.8503],[142.7699,-15.7547,62.6598],[142.7798,-15.6131,69.6493],[142.8812,-15.6211,84.8245],[142.8931,-15.4779,81.5036],[142.9497,-15.4823,89.1082],[142.9618,-15.3364,96.2968],[142.8333,-15.3275,68.0462],[142.6723,-15.3122,72.0722],[142.6513,-15.4592,61.8183],[142.5365,-15.4502,52.9622],[142.2401,-15.4231,25.4995],[142.0925,-15.1892,24.7803],[142.027,-15.3801,13.6137],[142.0237,-15.3788,9.1382],[142.0185,-15.3798,14.9822],[142.0131,-15.3734,15.4346],[141.9974,-15.3653,14.7351],[141.9847,-15.3626,15.9371],[141.9755,-15.3573,10.1916],[141.9679,-15.3552,7.8974],[141.9571,-15.3793,13.6117],[141.9433,-15.3862,10.1011],[141.9401,-15.3926,12.1183],[141.941,-15.3995,13.9434],[141.9441,-15.404,16.0672],[141.9543,-15.4082,18.2564],[141.958,-15.4177,15.2068],[141.9684,-15.4214,17.5744],[141.9744,-15.4299,16.9107],[141.9818,-15.4367,14.4561],[141.9837,-15.4421,19.5909],[141.9938,-15.45,18.1672],[141.9981,-15.4582,12.0],[141.9742,-15.5685,21.2571],[141.6497,-15.545,6.9905],[141.6499,-15.5425,5.8517],[141.6474,-15.5407,4.0056],[141.6342,-15.5416,6.6052],[141.6278,-15.5439,3.8769],[141.6262,-15.5399,3.6913],[141.6176,-15.5362,5.8169],[141.6148,-15.5375,8.5993],[141.6106,-15.5353,6.1469],[141.6107,-15.5384,7.3008],[141.6084,-15.5403,7.8591],[141.602,-15.5397,5.6582],[141.5985,-15.5258,4.4334],[141.595,-15.525,2.8683],[141.5921,-15.5207,3.0324],[141.5887,-15.5236,0.7371],[141.5887,-15.5217,0.9645],[141.586,-15.5224,0.8776],[141.5857,-15.5209,5.7173],[141.5827,-15.5209,2.3484],[141.5833,-15.525,1.5348],[141.5812,-15.5243,3.6952],[141.5793,-15.5266,2.7652],[141.5757,-15.5267,2.3406],[141.573,-15.5255,3.9026],[141.573,-15.5233,2.4678],[141.5765,-15.5209,3.3258],[141.5723,-15.5195,4.288],[141.5692,-15.5261,1.1731],[141.5715,-15.5278,4.9682],[141.5688,-15.5319,5.6562],[141.5658,-15.5304,2.3765],[141.5638,-15.5354,4.4844],[141.56,-15.5349,5.3738],[141.5593,-15.5303,6.2918],[141.5572,-15.5295,3.9393],[141.5554,-15.5348,7.2979],[141.557,-15.5356,7.2979],[141.5587,-15.5344,3.0503999999999998],[141.5592,-15.5373,7.7458],[141.5554,-15.5387,2.2408],[141.5524,-15.5349,2.9836],[141.5525,-15.532,2.8516],[141.558,-15.5274,1.779],[141.556,-15.5211,5.5017],[141.5591,-15.5207,6.4749],[141.5607,-15.5181,5.313],[141.5598,-15.517,1.4881],[141.5543,-15.5175,1.726],[141.552,-15.5202,6.1797],[141.552,-15.5128,3.2674],[141.5503,-15.5114,7.2019],[141.5415,-15.513,1.2405],[141.5386,-15.5107,1.0791],[141.5362,-15.5148,3.164],[141.5341,-15.5116,3.7527],[141.5367,-15.5081,7.7764],[141.5345,-15.5065,5.008],[141.5307,-15.5094,5.4976],[141.5337,-15.513,3.9176],[141.5329,-15.514,3.9176],[141.5294,-15.514099999999999,4.3498],[141.523,-15.5106,1.9592],[141.522,-15.5127,3.1835],[141.5232,-15.5219,3.6382],[141.5286,-15.5202,2.5432],[141.5298,-15.525,7.139],[141.5284,-15.5273,3.3463],[141.522,-15.5268,2.8791],[141.514,-15.5196,4.7111],[141.5101,-15.5228,2.6475],[141.5038,-15.5205,2.357],[141.5017,-15.5163,0.9029],[141.5076,-15.5127,1.421],[141.5028,-15.5058,0.9799],[141.4963,-15.5101,3.7994],[141.4974,-15.516,3.8176],[141.4946,-15.517,2.5868],[141.4926,-15.5158,1.3467],[141.4921,-15.5075,2.4325],[141.5,-15.501,0.5322],[141.505,-15.4943,4.5354],[141.5018,-15.4912,2.9572],[141.4995,-15.4853,2.4437],[141.4941,-15.4848,6.3702],[141.4884,-15.4912,3.5602],[141.4863,-15.4987,3.44],[141.4834,-15.5015,2.2167],[141.4811,-15.5019,0.0],[141.4825,-15.5002,0.0],[141.4795,-15.4988,0.0],[141.4617,-15.5598,3.622],[141.441,-15.6442,0.0],[141.4347,-15.6576,0.0],[141.4358,-15.6589,0.0],[141.4348,-15.669,1.2291],[141.4239,-15.7263,0.0],[141.4202,-15.7807,0.7948],[141.4213,-15.7833,0.0],[141.42,-15.7851,0.7398],[141.4157,-15.8378,4.0804],[141.4093,-15.8713,3.8684],[141.3965,-15.9002,0.244],[141.3976,-15.9096,2.192],[141.3928,-15.9132,2.6897],[141.3868,-15.9113,0.0],[141.3809,-15.9117,0.0],[141.3734,-15.9169,0.0],[141.3853,-15.9362,2.2465],[141.3909,-15.9505,3.3665],[141.3927,-15.9512,1.6194],[141.3951,-15.9602,2.4143],[141.3949,-15.9658,1.3626],[141.399,-15.9816,2.8928],[141.4003,-15.9815,2.8928],[141.3996,-15.9842,2.2421],[141.4039,-15.9964,2.8032],[141.4097,-16.0239,2.0282],[141.4126,-16.0273,0.0],[141.4139,-16.0321,2.7005],[141.4156,-16.0321,2.4062],[141.4174,-16.0398,3.3815],[141.4204,-16.0416,2.5737],[141.4233,-16.0494,3.1253],[141.4252,-16.049,3.5934],[141.4247,-16.0516,2.0519],[141.4275,-16.054,3.911],[141.4328,-16.0748,1.6776],[141.4301,-16.0857,5.3322],[141.4124,-16.1228,1.0081],[141.4004,-16.1437,3.7459],[141.3878,-16.1611,0.0],[141.3511,-16.2189,0.0],[141.3458,-16.2351,2.0315],[141.3478,-16.2484,0.5967],[141.3435,-16.2703,0.3161],[141.3362,-16.2895,0.0],[141.3368,-16.2946,0.0],[141.3352,-16.2949,0.0],[141.3333,-16.2987,0.0],[141.3339,-16.3008,0.466],[141.3278,-16.3169,0.0],[141.3208,-16.3425,0.7728],[141.3173,-16.3525,0.4673],[141.3013,-16.3828,0.0],[141.2965,-16.3972,0.476],[141.2938,-16.3984,0.5906],[141.2917,-16.3967,0.0],[141.2897,-16.398,0.0],[141.2889,-16.4004,0.269],[141.2908,-16.4028,3.0986],[141.2894,-16.406,3.1207],[141.2882,-16.4043,2.7405],[141.2861,-16.4082,0.9169],[141.2859,-16.4104,0.8614],[141.2882,-16.4093,2.5229],[141.2872,-16.4257,0.0],[141.2929,-16.4346,0.0],[141.3017,-16.4438,0.0],[141.3049,-16.4571,0.5119],[141.3037,-16.4741,0.0],[141.297,-16.4915,0.0],[141.2965,-16.4962,0.0],[141.2828,-16.5241,0.0],[141.2832,-16.5289,0.2138],[141.2806,-16.5305,0.0],[141.2739,-16.5427,0.0],[141.2744,-16.5503,0.0],[141.2707,-16.5578,0.0],[141.2671,-16.5567,2.5199],[141.2639,-16.5533,3.36],[141.2595,-16.553,2.9754],[141.2514,-16.5577,0.4195],[141.248,-16.5619,0.0],[141.2435,-16.5757,2.5604],[141.2379,-16.5795,0.0],[141.233,-16.588,0.0],[141.2322,-16.5937,0.0],[141.2335,-16.6012,0.6348],[141.2297,-16.612,0.0],[141.2306,-16.6174,1.0348],[141.2265,-16.6192,0.0],[141.225,-16.6396,0.4271],[141.2212,-16.6561,0.0],[141.2045,-16.692,0.5782],[141.2013,-16.6931,0.0],[141.1845,-16.7207,1.1586],[141.1615,-16.7477,0.0],[141.1288,-16.7798,2.1287],[141.1144,-16.7913,3.1653],[141.0939,-16.8038,0.0],[141.0823,-16.8032,0.0],[141.0779,-16.8176,0.0],[141.0771,-16.8286,1.461],[141.0792,-16.825,3.7475],[141.0787,-16.8363,3.8274],[141.0735,-16.8529,0.0],[141.0648,-16.8702,0.0],[141.0395,-16.9066,5.393],[141.0112,-16.9407,1.4277],[140.9836,-16.9634,1.7508],[140.9815,-16.9671,3.3955],[140.9736,-16.9698,0.0],[140.9689,-16.9774,0.0],[140.9703,-16.9815,1.3347],[140.9675,-16.9793,0.0],[140.958,-16.9981,0.0],[140.9531,-17.0128,1.5818],[140.9469,-17.0406,4.806],[140.9486,-17.0469,3.0143],[140.9507,-17.0481,2.2958],[140.9511,-17.0596,1.4253],[140.9546,-17.0678,1.9293],[140.9552,-17.0862,2.8046],[140.9613,-17.0905,1.7422],[140.9622,-17.0928,1.49],[140.9608,-17.0935,1.6304],[140.9569,-17.0911,4.3981],[140.9539,-17.0985,1.3871],[140.9532,-17.1221,2.4932],[140.9491,-17.1454,3.3137],[140.9504,-17.1508,3.7613],[140.9456,-17.1587,1.3096],[140.9385,-17.1773,1.8801],[140.9385,-17.182,0.0],[140.9404,-17.1846,2.3175],[140.9321,-17.1899,2.6501],[140.9255,-17.1986,0.0],[140.9243,-17.2027,0.4826],[140.9253,-17.2133,0.8642],[140.9219,-17.2147,0.7592],[140.9126,-17.2331,0.1218],[140.9089,-17.2532,0.2002],[140.9089,-17.267,1.1197],[140.906,-17.2683,0.0],[140.9087,-17.2688,1.4276],[140.9075,-17.2762,2.91],[140.9097,-17.2774,4.4661],[140.9052,-17.2794,0.5448],[140.9046,-17.2861,0.0],[140.9071,-17.2888,2.4451],[140.9043,-17.2962,0.9543],[140.8994,-17.3028,0.2593],[140.8992,-17.315,3.4416],[140.905,-17.3162,2.8811],[140.8996,-17.318,3.0651],[140.9003,-17.3235,2.3285],[140.8989,-17.3276,2.6035],[140.9003,-17.3288,5.336],[140.8973,-17.3298,0.2257],[140.8937,-17.3423,3.6669],[140.8943,-17.3468,0.5872],[140.9008,-17.3486,4.8173],[140.8934,-17.3494,0.9808],[140.884,-17.3741,0.0],[140.8874,-17.3823,1.6859],[140.8837,-17.3818,0.7704],[140.8797,-17.3853,0.0],[140.846,-17.4343,2.7828],[140.8454,-17.438,5.3601],[140.8288,-17.4552,0.0],[140.8273,-17.4585,2.422],[140.8284,-17.4653,0.0],[140.812,-17.4649,0.5166],[140.7863,-17.474,3.204],[140.7694,-17.4777,3.0895],[140.7467,-17.4958,0.0],[140.7355,-17.5122,0.9046],[140.7262,-17.515,6.6205],[140.7098,-17.5099,0.1308],[140.7023,-17.518,1.203],[140.6772,-17.5327,1.4955],[140.6746,-17.5329,0.5572],[140.6702,-17.538,1.2078],[140.6733,-17.5371,2.072],[140.6743,-17.5382,1.7888],[140.6625,-17.5476,1.5071],[140.6572,-17.5549,2.9258],[140.6529,-17.5554,2.738],[140.6443,-17.5647,2.8521],[140.6357,-17.571,3.255],[140.6041,-17.5908,0.2544],[140.5988,-17.5926,0.1486],[140.5965,-17.5964,2.511],[140.5659,-17.6015,1.7524],[140.5296,-17.6242,0.0],[140.4996,-17.6378,1.062],[140.4792,-17.6449,1.5502],[140.468,-17.6448,2.4784],[140.4622,-17.6489,2.8387],[140.4543,-17.6462,2.2974],[140.4541,-17.6419,2.3119],[140.4479,-17.6417,0.301],[140.4386,-17.6461,0.0],[140.4301,-17.6531,1.0277],[140.4021,-17.6706,1.4712],[140.3782,-17.6797,1.1711],[140.338,-17.6873,1.4553],[140.3088,-17.6889,0.076],[140.2968,-17.6928,1.3507],[140.2868,-17.6934,1.8181],[140.2838,-17.6959,1.4293],[140.2793,-17.6948,1.8844],[140.2684,-17.6965,1.728],[140.263,-17.6992,2.0043],[140.259,-17.6975,1.9095],[140.2473,-17.6985,2.4459],[140.2335,-17.7023,2.6896],[140.2315,-17.7043,1.8555],[140.2303,-17.7029,3.5198],[140.2249,-17.7042,2.7541],[140.2183,-17.7069,2.2665],[140.2167,-17.7092,2.0566],[140.2144,-17.7087,0.0],[140.2104,-17.7035,1.3529],[140.1999,-17.703,1.8689],[140.1885,-17.7054,3.6324],[140.1844,-17.7079,1.7929],[140.1719,-17.7083,2.3557],[140.1598,-17.7124,1.5715],[140.1521,-17.7117,2.5682],[140.141,-17.7136,3.1405],[140.1247,-17.7189,1.3697],[140.1066,-17.7198,3.115],[140.0918,-17.7227,3.3068],[140.0471,-17.7219,2.6031],[140.0069,-17.7154,1.9215],[139.9829,-17.7048,0.909],[139.9653,-17.6909,0.237],[139.9524,-17.6782,0.203],[139.9408,-17.6599,1.428],[139.939,-17.6531,2.7792],[139.9398,-17.6477,1.2924],[139.9364,-17.6444,0.6856],[139.9413,-17.6375,3.8495],[139.936,-17.6297,0.0],[139.91,-17.619,0.0],[139.8775,-17.6097,3.3414],[139.8472,-17.596,0.0],[139.8431,-17.5961,0.0],[139.8418,-17.6002,1.1209],[139.8451,-17.6047,2.0282],[139.8339,-17.6054,2.3597],[139.8325,-17.6024,1.6036],[139.8331,-17.5989,1.1107],[139.8381,-17.5933,1.7357],[139.8392,-17.5898,1.471],[139.8342,-17.5836,10.8291],[139.832,-17.5841,9.0868],[139.8262,-17.5738,8.7855],[139.8218,-17.5706,5.5856],[139.8165,-17.5706,0.0],[139.8114,-17.5742,1.8416],[139.8089,-17.5781,9.7115],[139.8069,-17.5772,4.2177],[139.8043,-17.5783,10.9003],[139.8022,-17.5748,5.8987],[139.7946,-17.5793,0.0],[139.7909,-17.5922,0.0],[139.7909,-17.6001,0.0],[139.7937,-17.6034,0.0],[139.812,-17.6128,0.0],[139.8151,-17.6166,0.0],[139.819,-17.6297,0.0],[139.8177,-17.6387,2.9384],[139.8143,-17.6444,1.6058],[139.8092,-17.6462,1.4125],[139.7995,-17.6398,2.2864],[139.7887,-17.6436,0.0],[139.7798,-17.6446,6.2024],[139.7775,-17.6461,6.3078],[139.7768,-17.6506,4.6538],[139.7788,-17.6536,0.8949],[139.792,-17.66,0.0],[139.7915,-17.6635,0.3971],[139.7879,-17.6689,3.4411],[139.7909,-17.6749,0.0],[139.8128,-17.682,0.0],[139.8163,-17.6856,0.0],[139.8168,-17.6915,0.0],[139.8148,-17.6979,0.7317],[139.811,-17.701,2.2624],[139.8054,-17.7009,2.2855],[139.7941,-17.6926,0.6483],[139.7878,-17.6905,1.7391],[139.7839,-17.6909,0.6603],[139.7792,-17.6963,0.0],[139.7773,-17.7082,1.1063],[139.7787,-17.7127,2.5839],[139.7847,-17.7155,0.0],[139.7955,-17.7152,3.7028],[139.7985,-17.7187,0.0],[139.7988,-17.7221,1.9095],[139.7944,-17.7262,0.0],[139.7834,-17.7288,0.6325],[139.7757,-17.7401,3.6958],[139.7725,-17.751,1.7712],[139.7736,-17.7544,0.0],[139.783,-17.7598,0.0],[139.7859,-17.7646,2.6761],[139.7753,-17.782,0.0],[139.7742,-17.7888,0.7977],[139.7583,-17.7955,1.6177],[139.7511,-17.8066,0.0],[139.7514,-17.8085,2.1897],[139.761,-17.8147,0.0],[139.7627,-17.8234,4.0852],[139.7597,-17.8301,2.0155],[139.7511,-17.8339,0.9085],[139.7467,-17.8382,2.9846],[139.7444,-17.8436,0.0],[139.7454,-17.8473,0.0],[139.7541,-17.8549,1.0525],[139.7676,-17.8596,2.4372],[139.7712,-17.8635,0.0],[139.7727,-17.8681,3.9874],[139.7703,-17.8788,0.0],[139.7547,-17.8981,1.33],[139.751,-17.9121,5.4043],[139.7551,-17.9198,1.8975],[139.7613,-17.9224,0.5],[139.775,-17.9118,1.5574],[139.784,-17.9094,0.5],[139.7998,-17.917,7.258],[139.8157,-17.9331,12.3857],[139.8166,-17.9371,1.7661],[139.8146,-17.9424,1.94],[139.8099,-17.9469,4.5672],[139.8024,-17.9486,2.1783],[139.7951,-17.9478,8.6802],[139.7908,-17.9458,8.2012],[139.7869,-17.9409,5.3227],[139.7821,-17.94,8.7588],[139.7768,-17.9427,5.0682],[139.774,-17.9534,7.8318],[139.7894,-17.9583,6.9699],[139.8135,-17.9778,2.6781],[139.8152,-17.983,2.8454],[139.8131,-17.9985,9.7838],[139.8159,-18.0021,11.7847],[139.8187,-18.0148,4.9098],[139.817,-18.0388,5.06],[139.8138,-18.0498,5.2462],[139.8146,-18.0594,1.0],[139.8239,-18.074,2.3979],[139.8354,-18.0841,1.0],[139.8446,-18.0887,10.3056],[139.8459,-18.0954,7.7432],[139.845,-18.1131,11.6739],[139.8472,-18.1185,5.9855],[139.8626,-18.133,14.7288],[139.875,-18.1417,4.6417],[139.8847,-18.1546,7.1949],[139.8857,-18.1602,13.232],[139.8801,-18.174,13.4844],[139.8847,-18.1824,13.4504],[139.8921,-18.1893,3.6196],[139.8932,-18.1929,7.1198],[139.8929,-18.1993,2.0],[139.889,-18.2118,6.4853],[139.8843,-18.2166,3.9699],[139.8784,-18.2184,3.0],[139.8766,-18.2218,4.7127],[139.8769,-18.225,8.1658],[139.8794,-18.2273,7.3915],[139.88,-18.2382,20.848],[139.8842,-18.2462,8.8199],[139.8843,-18.2502,12.5931],[139.8754,-18.2683,6.4082],[139.8761,-18.2771,14.161],[139.8796,-18.2825,16.4562],[139.8756,-18.2936,12.5626],[139.8779,-18.3055,23.1899],[139.8747,-18.3125,10.1791],[139.8678,-18.3202,14.3754],[139.8685,-18.3309,14.9262],[139.8762,-18.337,13.6514],[139.8767,-18.3474,13.3799],[139.8797,-18.3544,19.7205],[139.8733,-18.3748,15.3925],[139.8733,-18.3798,13.5192],[139.8769,-18.3857,13.3582],[139.8751,-18.4008,16.8433],[139.878,-18.4147,20.4237],[139.8748,-18.4327,17.7948],[139.874,-18.4567,20.048],[139.8624,-18.4583,14.5168],[139.859,-18.4631,15.2983],[139.8603,-18.4675,22.5889],[139.867,-18.4771,19.9869],[139.8671,-18.4964,17.6547],[139.865,-18.5009,18.4726],[139.8593,-18.506,27.1981],[139.858,-18.5102,19.3474],[139.8533,-18.5136,26.2312],[139.8524,-18.5178,27.0857],[139.8479,-18.5211,29.2443],[139.8506,-18.5256,26.0455],[139.8509,-18.5311,20.3537],[139.8484,-18.5393,21.3471],[139.8435,-18.546,21.9105],[139.8425,-18.5574,24.6815],[139.8456,-18.5634,31.6135],[139.8457,-18.5697,31.4365],[139.838,-18.5867,21.4088],[139.8339,-18.5936,30.6085],[139.8169,-18.609,29.7374],[139.8054,-18.6228,34.9805],[139.8037,-18.6275,28.5201],[139.8055,-18.6348,26.8096],[139.804,-18.6388,35.1332],[139.7957,-18.6438,35.9353],[139.7851,-18.6593,41.1348],[139.7763,-18.6658,37.3629],[139.7745,-18.6704,39.2229],[139.7747,-18.6768,38.2861],[139.772,-18.6827,35.7343],[139.7625,-18.6899,32.0531],[139.7633,-18.6975,39.3811],[139.7799,-18.7096,36.4349],[139.784,-18.7159,30.5128],[139.782,-18.725,33.8179],[139.778,-18.732,31.6427],[139.777,-18.7446,33.5636],[139.7642,-18.754,41.9874],[139.7634,-18.7593,35.4452],[139.7657,-18.7629,43.4193],[139.7747,-18.7674,39.7253],[139.7799,-18.7728,43.8521],[139.777,-18.7866,34.7652],[139.7777,-18.798,37.2188],[139.7809,-18.804,34.1661],[139.7918,-18.8094,44.2443],[139.789,-18.8191,34.4666],[139.7839,-18.8242,35.8933],[139.7844,-18.8288,38.3424],[139.7895,-18.8315,42.3881],[139.7994,-18.8293,43.5469],[139.8037,-18.83,36.1905],[139.8047,-18.8344,44.0606],[139.7975,-18.8409,40.0229],[139.797,-18.8454,36.5448],[139.8001,-18.8483,41.3448],[139.8064,-18.8496,42.2044],[139.8124,-18.8534,47.9346],[139.8192,-18.861,43.0844],[139.8223,-18.8684,38.4746],[139.8229,-18.8779,49.7747],[139.8199,-18.8837,42.4068],[139.8159,-18.8853,41.8546],[139.8054,-18.8836,37.1855],[139.8036,-18.8858,40.0724],[139.8036,-18.8899,41.1406],[139.8051,-18.8946,39.9004],[139.8153,-18.9088,40.3829],[139.8242,-18.9159,42.4166],[139.8234,-18.9284,42.9258],[139.8252,-18.9335,40.6921],[139.8292,-18.9359,48.5599],[139.8393,-18.9373,50.1469],[139.8489,-18.9435,42.9055],[139.8575,-18.9581,46.0218],[139.859,-18.9682,48.2383],[139.866,-18.9732,46.813],[139.8764,-18.9761,49.3998],[139.8844,-18.9675,53.018],[139.8893,-18.9682,45.6849],[139.8902,-18.9802,46.7358],[139.886,-18.9886,46.4539],[139.8811,-18.9941,51.1945],[139.8815,-18.9985,49.5692],[139.8983,-19.0114,56.7623],[139.9099,-19.0226,59.6278],[139.9115,-19.0265,58.3592]]]]}}