{"type":"Feature","properties":{"GID_2":"AUS.11.79_1","GID_0":"AUS","country":"Australia","GID_1":"AUS.11_1","state":"WesternAustralia","NL_NAME_1":"NA","county":"Mingenew","VARNAME_2":"NA","NL_NAME_2":"NA","TYPE_2":"Shire","ENGTYPE_2":"Shire","CC_2":"55530","HASC_2":"AU.WA.MI","name":"Mingenew.county"},
"geometry":{"type": "MultiPolygon","coordinates": [[[[115.2533,-29.3647,210.7591],[115.2982,-29.3625,140.8711],[115.2982,-29.3657,141.9879],[115.3064,-29.3657,144.6666],[115.3064,-29.3611,159.9776],[115.3545,-29.346,185.0632],[115.5715,-29.3472,281.8756],[115.5715,-29.3574,286.9031],[115.6293,-29.3562,257.4538],[115.6396,-29.3521,293.8711],[115.6506,-29.3732,316.5741],[115.6632,-29.3663,293.0037],[115.6632,-29.3562,287.2435],[115.7499,-29.3562,287.0632],[115.7497,-29.2883,307.6468],[115.752,-29.2885,305.8645],[115.7523,-29.215699999999998,287.7504],[115.6736,-29.2159,257.9427],[115.6734,-29.0699,281.0496],[115.7353,-29.069,288.5486],[115.7353,-29.0354,316.1795],[115.6714,-29.0354,347.8665],[115.6714,-29.0245,319.5463],[115.6595,-29.0312,329.6263],[115.6595,-29.03,329.6263],[115.6468,-29.0289,330.6413],[115.6468,-29.0088,294.5469],[115.6219,-29.0088,273.0366],[115.6219,-28.9661,305.4321],[115.6039,-28.9661,280.7164],[115.6039,-28.9497,298.8965],[115.5937,-28.9497,290.4113],[115.5936,-28.9171,274.2448],[115.3736,-28.9172,291.3675],[115.3736,-28.9481,290.5988],[115.3407,-28.9481,277.8489],[115.3407,-29.0005,270.3476],[115.2645,-29.0005,264.2194],[115.2645,-29.1503,189.0661],[115.2584,-29.1504,197.5836],[115.2584,-29.1724,140.9974],[115.2502,-29.1724,157.1779],[115.2502,-29.1923,130.6924],[115.2549,-29.1923,125.0222],[115.2548,-29.2278,95.4631],[115.2527,-29.2297,95.3745],[115.2526,-29.2363,99.2409],[115.2511,-29.2363,99.0328],[115.2512,-29.2414,99.0102],[115.2533,-29.2414,104.2225],[115.2533,-29.3647,210.7591]]]]}}