{"type": "Feature","bbox": [130.9416,-12.5472,131.0143,-12.4454],"geometry": {"type": "MultiPolygon","coordinates": [[[[130.9424,-12.5293,5.1892],[130.9434,-12.5279,0.7022],[130.9419,-12.5269,0.7022],[130.9416,-12.5286,5.1892],[130.9424,-12.5293,5.1892]]],
[[[130.9444,-12.5263,1.6439],[130.9448,-12.5268,1.6439],[130.9452,-12.5258,1.8595],[130.9448,-12.5258,1.8595],[130.9444,-12.5263,1.6439]]],
[[[130.9534,-12.4454,32.185],[130.9459,-12.4569,12.4663],[130.961,-12.4661,22.8611],[130.9636,-12.4762,11.599],[130.9622,-12.4829,11.5504],[130.9563,-12.494,7.3415],[130.9468,-12.4941,6.44],[130.9472,-12.5007,5.0104],[130.9431,-12.5063,2.1086],[130.9424,-12.5236,5.0678],[130.9431,-12.5249,1.7103],[130.9451,-12.524,4.1977],[130.9458,-12.5282,4.3453],[130.9552,-12.5294,4.5424],[130.9559,-12.5341,0.0],[130.9603,-12.5333,0.0],[130.9669,-12.5346,0.0],[130.9872,-12.5472,0.0],[130.9916,-12.5387,1.5606],[130.9986,-12.5376,2.803],[131.0001,-12.535,4.4317],[131.0058,-12.5325,4.7016],[131.0074,-12.5338,4.5076],[131.0119,-12.5315,6.3982],[131.0122,-12.5286,4.8871],[131.0143,-12.5272,7.668],[131.0132,-12.4871,35.558],[130.9981,-12.4731,45.1492],[130.9903,-12.468,36.5572],[130.9776,-12.4675,29.931],[130.9731,-12.4609,32.3305],[130.9534,-12.4454,32.185]]]]}
,"properties": {"GID_2": "AUS.6.11_1","GID_0": "AUS","country": "Australia","GID_1": "AUS.6_1","state": "NorthernTerritory","NL_NAME_1": "NA","county": "Palmerston","VARNAME_2": "NA","NL_NAME_2": "NA","TYPE_2": "City","ENGTYPE_2": "City","CC_2": "72800","HASC_2": "AU.NT.PA","name": "Palmerston.county","area_km2": 52.82496,"hist_schema_id": "Elevation0-9000","hist_area_km2": {"0": 20.8016,"25": 28.15229,"50": 3.87106}}}