{"type": "Feature","bbox": [140.8222,-23.7063,144.5018,-21.3087],"geometry": {"type": "MultiPolygon","coordinates": [[[[144.5005,-22.1857,253.9777],[144.5018,-22.1651,263.4456],[144.3978,-22.1571,229.2418],[144.4028,-22.1133,238.03],[144.4139,-22.0984,238.1485],[144.4172,-22.0617,251.1947],[144.2685,-22.0479,230.4258],[144.2701,-22.0326,230.5362],[144.2633,-21.9968,236.7069],[144.1803,-21.9896,248.5068],[144.186,-21.9137,237.8019],[144.188,-21.9138,236.9931],[144.1885,-21.9084,237.217],[144.1866,-21.9081,237.6239],[144.1843,-21.9133,238.0347],[144.1114,-21.9063,244.2026],[144.1117,-21.9018,242.8221],[144.0925,-21.899,244.5866],[144.0574,-21.8983,247.5369],[144.0388,-21.8947,248.9108],[144.0446,-21.8303,267.1218],[143.9342,-21.8221,289.8821],[143.9294,-21.82,285.3648],[143.7821,-21.8111,314.2142],[143.7818,-21.8141,312.0963],[143.6538,-21.7998,292.8553],[143.6515,-21.7985,290.8388],[143.6308,-21.7974,280.6177],[143.6493,-21.6412,311.9131],[143.4501,-21.6229,264.0648],[143.4484,-21.6245,263.91],[143.358,-21.616,273.0897],[143.3577,-21.6142,273.2006],[143.3288,-21.6119,276.38869999999997],[143.3595,-21.322,276.0041],[143.2366,-21.3112,259.4261],[143.2365,-21.313,261.1841],[143.188,-21.3087,249.3729],[143.0078,-21.4485,239.8192],[143.009,-21.45,240.9306],[143.002,-21.4554,240.3708],[143.0001,-21.4545,239.4853],[142.9533,-21.4938,222.1702],[142.9424,-21.4817,218.5183],[142.8621,-21.5451,225.1196],[142.8154,-21.4931,207.7481],[142.694,-21.5879,208.5625],[142.7185,-21.6149,211.5623],[142.6514,-21.6675,213.5795],[142.6565,-21.6104,214.2368],[142.4952,-21.5971,205.368],[142.4912,-21.6442,209.0277],[142.3326,-21.6363,212.2676],[142.3315,-21.6362,212.2485],[142.3329,-21.6205,205.7581],[142.3352,-21.6071,201.0526],[142.2282,-21.5963,204.7163],[142.2318,-21.5509,220.7226],[142.1613,-21.5428,213.932],[142.072,-21.5408,204.0706],[142.0694,-21.6047,191.8462],[142.0647,-21.6043,191.9943],[142.0645,-21.6084,191.8303],[142.0692,-21.6104,191.7124],[142.0657,-21.6936,211.5209],[142.0488,-21.815,204.8073],[141.7408,-21.791,248.1981],[141.7386,-21.8063,256.6804],[141.58,-21.7932,273.4276],[141.5832,-21.756,249.637],[141.5078,-21.7505,265.9468],[141.4832,-21.9472,242.5349],[141.3097,-21.9397,271.4636],[141.2884,-21.9839,257.1322],[141.2845,-21.9888,257.3059],[141.2842,-22.01,271.5495],[141.2908,-22.0239,249.1677],[141.2886,-22.0263,250.1752],[141.2927,-22.0309,249.6796],[141.2914,-22.0324,253.2039],[141.2902,-22.0451,274.5621],[141.2937,-22.054,283.6795],[141.2943,-22.0619,242.7973],[141.1986,-22.0552,256.535],[141.1828,-22.2496,263.1503],[141.2285,-22.298,231.3836],[141.2535,-22.3214,213.1827],[141.2458,-22.3354,206.9369],[141.0797,-22.4656,242.095],[141.1989,-22.5976,189.0298],[141.1456,-22.6334,210.7555],[141.1339,-22.6213,218.7555],[141.0909,-22.6182,230.8708],[141.0896,-22.6282,224.806],[141.0919,-22.6372,222.6203],[141.0949,-22.6419,233.5989],[141.1028,-22.6901,210.3725],[141.1172,-22.7027,212.959],[141.1229,-22.7492,221.39],[141.1204,-22.7522,208.4391],[141.1145,-22.7745,198.5093],[141.1223,-22.8045,211.1137],[141.0005,-22.9003,179.9039],[140.9867,-22.899,177.0666],[140.9857,-22.9116,175.0593],[141.0214,-22.9219,178.764],[141.0464,-22.9477,166.8744],[140.9246,-23.0444,172.4955],[140.947,-23.0678,159.6866],[140.8222,-23.1615,188.0922],[140.9998,-23.352,143.3096],[141.0314,-23.3838,123.0725],[141.0338,-23.3841,122.9997],[141.0471,-23.375,125.0932],[141.1551,-23.2908,127.2137],[141.2414,-23.3854,117.3228],[141.2613,-23.4043,113.5943],[141.2967,-23.4416,109.7185],[141.3003,-23.4473,108.3006],[141.306,-23.4515,107.6892],[141.377,-23.5276,105.2369],[141.3841,-23.5264,117.1161],[141.3926,-23.53,112.6795],[141.3882,-23.5334,120.8022],[141.4558,-23.6048,112.21],[141.531,-23.6894,125.2617],[141.6794,-23.7055,132.8171],[141.6804,-23.6909,126.7827],[141.8288,-23.6918,161.2436],[141.9879,-23.7063,146.4297],[141.9892,-23.6924,144.6231],[142.145,-23.7008,172.6092],[142.1596,-23.5707,169.0629],[142.3973,-23.586,178.3479],[142.3954,-23.6138,181.2859],[142.457,-23.6172,189.5455],[142.4548,-23.6662,192.6122],[142.6308,-23.677,261.1708],[142.7878,-23.6951,285.5075],[142.8779,-23.7021,239.6738],[142.8867,-23.6486,221.2297],[142.8087,-23.6371,305.6826],[142.8283,-23.5096,262.6055],[142.8377,-23.5037,270.61],[142.8472,-23.5087,235.6847],[142.8495,-23.4938,241.0313],[142.8354,-23.4926,244.9135],[142.8515,-23.3473,218.0844],[142.9063,-23.3515,210.1439],[142.9047,-23.3477,210.9603],[142.9005,-23.3445,210.5023],[142.8992,-23.3384,212.1209],[142.9028,-23.3355,212.5365],[142.9074,-23.3274,211.9057],[142.9098,-23.3188,212.8848],[142.9161,-23.3157,213.4147],[142.9227,-23.3096,215.5077],[142.9463,-23.3344,220.1792],[143.0696,-23.239,250.6576],[142.9795,-23.1368,250.737],[142.9871,-23.1015,262.4038],[142.9901,-23.07,274.5388],[143.0035,-23.0205,299.6798],[143.0064,-22.9894,274.1924],[143.1082,-22.9975,269.2075],[143.2062,-22.9194,286.4627],[143.2393,-22.8953,283.2565],[143.2435,-22.8901,284.0595],[143.2523,-22.811,276.3917],[143.2504,-22.8108,278.4757],[143.2526,-22.8082,276.8881],[143.2536,-22.7993,297.5419],[143.2625,-22.7912,308.2095],[143.265,-22.7941,292.4971],[143.2988,-22.7548,281.4293],[143.2924,-22.731,305.677],[143.2995,-22.7235,283.9844],[143.3974,-22.7286,236.3683],[143.4001,-22.6703,245.438],[143.4797,-22.6718,256.5554],[143.4923,-22.6601,259.912],[143.4982,-22.6584,254.3781],[143.6317,-22.5576,275.3929],[143.5832,-22.505,252.4852],[143.5854,-22.483,243.3274],[143.5959,-22.4844,243.1131],[143.6933,-22.4113,278.9709],[143.6982,-22.4169,280.3809],[143.8332,-22.3148,271.5066],[143.844,-22.203,279.1027],[144.0195,-22.2183,269.9808],[144.02,-22.2136,271.3731],[144.1663,-22.2236,254.1517],[144.1595,-22.2971,247.6377],[144.3036,-22.3066,228.5327],[144.3194,-22.3458,227.3603],[144.3575,-22.3485,224.6267],[144.3774,-22.3282,218.3339],[144.3786,-22.3294,218.0473],[144.389,-22.3207,218.3615],[144.3926,-22.3139,217.6372],[144.4179,-22.2866,224.4374],[144.4913,-22.185,248.481],[144.5005,-22.1857,253.9777]]]]}
,"properties": {"GID_2": "AUS.7.71_1","GID_0": "AUS","country": "Australia","GID_1": "AUS.7_1","state": "Queensland","NL_NAME_1": "NA","county": "Winton","VARNAME_2": "NA","NL_NAME_2": "NA","TYPE_2": "Shire","ENGTYPE_2": "Shire","CC_2": "37400","HASC_2": "AU.QL.WI","name": "Winton.county","area_km2": 53949.16,"hist_schema_id": "Elevation0-9000","hist_area_km2": {"100": 481.24,"125": 3739.35,"150": 6247.76,"175": 9034.58,"200": 10706.03,"225": 10338.49,"250": 8181.89,"275": 3851.32,"300": 1144.84,"325": 111.06,"350": 101.76,"375": 10.07,"400": 0.76}}}