{"type":"Feature","properties":{"GID_2":"AUS.10.47_1","GID_0":"AUS","country":"Australia","GID_1":"AUS.10_1","state":"Victoria","NL_NAME_1":"NA","county":"Mitchell","VARNAME_2":"NA","NL_NAME_2":"NA","TYPE_2":"Shire","ENGTYPE_2":"Shire","CC_2":"24850","HASC_2":"AU.VI.MC","name":"Mitchell.county"},
"geometry":{"type": "MultiPolygon","coordinates": [[[[144.5443,-37.0602,257.2791],[144.5459,-37.0634,253.0327],[144.5443,-37.0676,259.0695],[144.5392,-37.0675,273.0891],[144.5369,-37.0699,312.4741],[144.5399,-37.0756,293.1702],[144.5377,-37.0763,300.4898],[144.5365,-37.0836,340.8565],[144.5382,-37.0841,331.1428],[144.5384,-37.0863,321.1089],[144.5427,-37.0882,317.1271],[144.5383,-37.088,316.5225],[144.5393,-37.0903,356.1971],[144.5379,-37.0899,323.9134],[144.5379,-37.0923,353.0269],[144.5341,-37.0942,345.2467],[144.5358,-37.0959,334.5505],[144.5346,-37.1,334.847],[144.5304,-37.1003,334.6646],[144.5324,-37.1031,349.1158],[144.534,-37.1029,354.4487],[144.532,-37.1053,345.913],[144.5352,-37.1072,349.1616],[144.5349,-37.1108,346.966],[144.5413,-37.1148,355.6125],[144.5492,-37.1109,382.9652],[144.552,-37.1071,365.8627],[144.5619,-37.1049,376.7716],[144.5739,-37.0991,367.6409],[144.5803,-37.0993,382.3656],[144.5946,-37.1061,435.3985],[144.6022,-37.1072,440.4138],[144.6913,-37.1079,494.8361],[144.6917,-37.1045,552.9131],[144.6973,-37.1036,534.1331],[144.6974,-37.1002,586.701],[144.7154,-37.1003,585.0154],[144.7137,-37.1049,576.434],[144.7171,-37.1111,545.6985],[144.7153,-37.1155,525.3359],[144.7163,-37.118,514.6174],[144.728,-37.1256,505.346],[144.7352,-37.1265,459.4736],[144.7311,-37.1445,461.5082],[144.7257,-37.1439,425.7655],[144.7265,-37.1596,439.8865],[144.7103,-37.1595,434.6161],[144.7118,-37.1764,573.0613],[144.7141,-37.1765,553.3916],[144.7145,-37.1836,537.3503],[144.7161,-37.1836,536.8055],[144.7161,-37.2088,552.0066],[144.7115,-37.2101,562.5714],[144.7095,-37.2124,570.0212],[144.7068,-37.2129,576.8229],[144.7058,-37.2112,578.0487],[144.7038,-37.213,602.5614],[144.7295,-37.2181,625.2581],[144.7314,-37.2205,611.1368],[144.7688,-37.2207,581.048],[144.7696,-37.2151,565.9337],[144.7776,-37.2151,561.1793],[144.7777,-37.2198,527.3343],[144.7857,-37.2131,542.6571],[144.8026,-37.2148,640.7679],[144.8035,-37.2121,596.5878],[144.8123,-37.2139,574.0206],[144.8112,-37.2174,590.2946],[144.8201,-37.2192,559.951],[144.8167,-37.2302,578.9113],[144.8257,-37.2314,583.5446],[144.829,-37.2357,588.3079],[144.8223,-37.272,484.3497],[144.8252,-37.2841,479.1758],[144.8457,-37.2901,401.9752],[144.853,-37.288,399.4183],[144.8557,-37.2854,388.601],[144.8492,-37.3223,346.9333],[144.8563,-37.323,334.4312],[144.8584,-37.3267,339.8526],[144.8645,-37.3242,330.1212],[144.8663,-37.3291,327.9722],[144.8691,-37.33,321.9406],[144.8704,-37.3282,317.114],[144.8741,-37.3307,304.1215],[144.8748,-37.3342,298.1049],[144.8763,-37.334,298.1049],[144.8778,-37.3371,306.4519],[144.8833,-37.3366,302.9748],[144.8832,-37.3347,288.5301],[144.8851,-37.3347,287.8118],[144.8875,-37.3372,282.9316],[144.8875,-37.3413,293.355],[144.8932,-37.343,296.1107],[144.8922,-37.3452,275.4674],[144.9178,-37.348,414.0388],[144.9151,-37.3624,352.6418],[144.9212,-37.3633,379.9625],[144.9193,-37.365,364.8427],[144.9185,-37.3722,323.7935],[144.9157,-37.3749,321.6324],[144.9142,-37.3807,290.6138],[144.9117,-37.3816,289.3163],[144.9068,-37.4021,282.7775],[144.9033,-37.4048,245.2953],[144.9041,-37.4066,241.0604],[144.8985,-37.4075,248.435],[144.9014,-37.4085,243.0569],[144.9019,-37.4125,236.3168],[144.9037,-37.4134,238.938],[144.8985,-37.4159,234.6609],[144.9015,-37.4165,235.5669],[144.9013,-37.4185,233.3358],[144.9041,-37.4202,233.9065],[144.9028,-37.4232,233.8395],[144.8951,-37.4244,235.0709],[144.8954,-37.4282,236.2543],[144.8994,-37.4276,249.9551],[144.9015,-37.4303,242.2906],[144.8982,-37.4312,233.437],[144.9016,-37.4332,233.2952],[144.9,-37.4339,229.6768],[144.9014,-37.4362,233.2735],[144.8973,-37.4389,225.9529],[144.8976,-37.4407,224.6856],[144.9,-37.4405,236.2006],[144.8992,-37.4446,248.2754],[144.8956,-37.4453,225.6551],[144.8987,-37.4469,224.2692],[144.8943,-37.45,234.9205],[144.8978,-37.4508,233.995],[144.8967,-37.4579,218.8864],[144.8979,-37.459,226.0092],[144.8918,-37.4609,216.4813],[144.8965,-37.4626,218.8738],[144.8963,-37.4641,228.5125],[144.8988,-37.4656,221.0436],[144.9056,-37.4647,238.4306],[144.9051,-37.4683,216.7512],[144.9032,-37.4677,222.2376],[144.8999,-37.4697,213.4375],[144.9003,-37.4751,211.2063],[144.8968,-37.475,221.5151],[144.8987,-37.4758,209.28],[144.8969,-37.4766,217.9171],[144.8987,-37.4786,221.943],[144.8935,-37.4778,211.8333],[144.8941,-37.4803,209.9528],[144.8914,-37.4864,203.8111],[144.896,-37.4887,196.805],[144.8913,-37.4905,198.0207],[144.8946,-37.4911,201.1183],[144.8951,-37.4936,192.2081],[144.8872,-37.4934,188.6795],[144.8876,-37.497,185.4356],[144.8831,-37.4989,182.7726],[144.8833,-37.5015,181.1018],[144.8811,-37.5004,191.7943],[144.8808,-37.5022,182.2759],[144.8871,-37.505,219.9431],[144.8904,-37.504,233.3765],[144.9919,-37.5154,250.4671],[144.9971,-37.5117,256.9468],[144.9971,-37.5085,258.2085],[145.002,-37.5097,265.1845],[145.0043,-37.5065,265.9305],[145.0037,-37.5038,263.5408],[145.0072,-37.5022,265.3958],[144.987,-37.4999,259.2433],[144.994,-37.4812,279.3351],[145.0008,-37.4424,295.4906],[145.0729,-37.4506,263.1669],[145.0679,-37.4461,266.3776],[145.0678,-37.4386,261.0635],[145.0808,-37.4398,347.8528],[145.0824,-37.4354,354.6906],[145.0789,-37.4324,394.8152],[145.0793,-37.4263,402.38],[145.0855,-37.425,436.4301],[145.1046,-37.4124,588.1367],[145.1077,-37.4083,591.7497],[145.1051,-37.4056,596.1885],[145.1107,-37.4032,605.4459],[145.1111,-37.4017,609.472],[145.1129,-37.4022,609.472],[145.1153,-37.4102,638.0485],[145.125,-37.4103,682.3265],[145.1298,-37.419,703.8152],[145.1412,-37.4282,775.2374],[145.1463,-37.4282,739.7242],[145.1469,-37.422,726.905],[145.1498,-37.4196,712.3171],[145.1503,-37.4149,717.3539],[145.1546,-37.4129,735.9338],[145.1618,-37.415,729.2283],[145.1659,-37.4131,727.932],[145.1714,-37.42,723.4543],[145.1785,-37.4236,707.2097],[145.1866,-37.4222,695.9222],[145.1887,-37.4368,686.0433],[145.1856,-37.4438,672.5469],[145.1905,-37.4449,699.4418],[145.2002,-37.444,602.9309],[145.2096,-37.4594,525.5272],[145.2164,-37.4644,519.3096],[145.2223,-37.4726,512.1746],[145.2248,-37.4582,492.1538],[145.2294,-37.4587,486.5626],[145.2277,-37.4545,468.1573],[145.234,-37.4472,435.9816],[145.2338,-37.4422,417.3273],[145.2363,-37.4359,412.3044],[145.2656,-37.4194,333.3871],[145.2658,-37.3727,341.508],[145.262,-37.3726,341.5165],[145.2605,-37.3708,356.5175],[145.2579,-37.3715,342.1469],[145.2565,-37.368,364.8611],[145.2865,-37.368,287.9732],[145.2829,-37.3675,299.1279],[145.2825,-37.3661,284.2935],[145.2714,-37.3661,482.9612],[145.2714,-37.3598,452.6455],[145.2742,-37.3598,410.3571],[145.2742,-37.3555,464.6205],[145.2701,-37.3555,453.1588],[145.2702,-37.3474,338.6971],[145.2729,-37.3466,330.8773],[145.276,-37.3398,339.7864],[145.2704,-37.3407,356.6342],[145.2705,-37.3389,337.9155],[145.2793,-37.338,320.6649],[145.2793,-37.3324,288.4446],[145.2769,-37.3326,307.4277],[145.2703,-37.3273,311.2368],[145.2733,-37.3272,298.2624],[145.2706,-37.3269,311.2368],[145.2661,-37.3275,338.5754],[145.262,-37.3297,471.6752],[145.2619,-37.3174,332.6913],[145.2567,-37.3174,437.7168],[145.2567,-37.3111,427.0275],[145.2519,-37.3111,455.5746],[145.2519,-37.305,472.8476],[145.2274,-37.3051,388.6526],[145.2273,-37.2943,539.5801],[145.1954,-37.2941,441.1113],[145.1956,-37.2783,321.1236],[145.1926,-37.2793,327.7576],[145.1869,-37.2782,350.3286],[145.187,-37.2717,473.1085],[145.1806,-37.2718,481.9125],[145.1806,-37.2644,340.1508],[145.1718,-37.2663,494.3403],[145.1719,-37.2785,514.6292],[145.1681,-37.2814,550.5851],[145.163,-37.2776,561.8204],[145.1655,-37.2693,533.8265],[145.1685,-37.2666,525.9419],[145.1677,-37.2635,509.6172],[145.1706,-37.2637,495.8015],[145.1731,-37.2612,469.8237],[145.1723,-37.2575,460.913],[145.1658,-37.2538,484.5591],[145.1659,-37.2517,474.7832],[145.1707,-37.2498,368.6171],[145.17,-37.2479,419.4957],[145.1716,-37.247,388.5963],[145.1678,-37.2402,438.3729],[145.1772,-37.2359,482.7148],[145.1695,-37.2266,522.3093],[145.1638,-37.2158,467.9447],[145.172,-37.2168,433.8657],[145.1745,-37.214,444.1889],[145.176,-37.2082,455.4795],[145.1749,-37.2049,456.9356],[145.1911,-37.2038,323.8544],[145.1964,-37.2061,272.0678],[145.1964,-37.1999,330.696],[145.2022,-37.1998,295.9543],[145.202,-37.1872,561.2133],[145.2075,-37.1871,466.3976],[145.2075,-37.1911,445.1375],[145.2194,-37.1911,374.8027],[145.2195,-37.1861,437.4937],[145.2254,-37.1861,403.3062],[145.2254,-37.183,431.2015],[145.2278,-37.183,437.1544],[145.2273,-37.1815,462.4289],[145.2295,-37.1801,447.8307],[145.2411,-37.177,218.5687],[145.2411,-37.1686,316.4292],[145.2317,-37.1675,586.5654],[145.2317,-37.1573,431.8398],[145.235,-37.1573,379.2991],[145.2321,-37.1528,363.4867],[145.231,-37.1474,332.5929],[145.2325,-37.1458,314.1657],[145.2286,-37.1346,190.6342],[145.2299,-37.1336,181.4628],[145.2313,-37.1379,164.6862],[145.2432,-37.1446,208.2895],[145.2432,-37.1415,146.6856],[145.2441,-37.1434,163.054],[145.252,-37.1413,149.8299],[145.2572,-37.135,148.6864],[145.2677,-37.1362,183.0465],[145.2729,-37.1418,151.5618],[145.2789,-37.1431,149.2427],[145.2791,-37.1397,165.3781],[145.2846,-37.1387,178.8704],[145.2846,-37.1291,230.8811],[145.2904,-37.1149,310.6833],[145.2883,-37.0996,464.7355],[145.3031,-37.0996,487.8121],[145.3044,-37.1037,489.3632],[145.321,-37.1038,368.8707],[145.3207,-37.1004,402.6716],[145.3229,-37.1019,370.2671],[145.3315,-37.0997,416.2344],[145.3528,-37.1014,482.6407],[145.3558,-37.0995,475.7602],[145.3559,-37.0977,468.8332],[145.3662,-37.0976,480.7626],[145.3664,-37.0911,482.8587],[145.3722,-37.0939,450.1119],[145.3723,-37.085,434.4862],[145.3747,-37.085,420.3343],[145.3747,-37.0762,425.4839],[145.3927,-37.0763,567.316],[145.3928,-37.0436,375.3223],[145.4054,-37.0385,391.2384],[145.4089,-37.0356,359.0346],[145.4111,-37.0306,340.4816],[145.4256,-37.0249,383.3815],[145.4296,-37.0205,342.7932],[145.4277,-37.006,317.5935],[145.4227,-37.0045,329.1811],[145.4259,-36.9991,321.7794],[145.4164,-36.9942,273.4564],[145.4119,-36.9954,271.2265],[145.4074,-36.9941,284.5157],[145.404,-36.9899,270.7115],[145.4054,-36.985,280.4839],[145.4007,-36.9819,264.6073],[145.3942,-36.9809,261.8275],[145.3884,-36.9833,261.5096],[145.3872,-36.977,256.7868],[145.3767,-36.9772,256.415],[145.3729,-36.9753,255.4173],[145.3653,-36.985,254.2278],[145.3642,-36.992,257.3118],[145.3582,-36.9922,253.1354],[145.3581,-36.9856,247.0477],[145.3517,-36.9841,245.1406],[145.3483,-36.9812,243.059],[145.3441,-36.9835,242.38],[145.3401,-36.9834,241.7263],[145.3321,-36.9944,237.5316],[145.3316,-37.0027,240.7996],[145.3253,-37.0,240.8747],[145.3225,-37.0005,257.8004],[145.3238,-37.0038,237.8987],[145.3207,-37.0071,240.0191],[145.323,-37.011,233.2963],[145.3196,-37.0111,234.4475],[145.3187,-37.0135,226.331],[145.3125,-37.0169,218.2357],[145.304,-37.016,210.4072],[145.3024,-37.0118,207.4012],[145.308,-37.0094,214.08],[145.3085,-37.0078,209.3145],[145.3028,-37.0064,208.4403],[145.3022,-37.0021,207.8671],[145.2915,-37.005,222.6535],[145.2903,-37.0019,198.9931],[145.2923,-36.9996,227.8316],[145.2909,-36.9959,195.7336],[145.2861,-36.9941,193.473],[145.2876,-36.9866,202.4284],[145.2846,-36.9795,177.5348],[145.2862,-36.9747,177.9272],[145.2856,-36.967,173.5295],[145.2932,-36.9608,172.4626],[145.2924,-36.9523,166.3836],[145.2885,-36.9506,166.4169],[145.2786,-36.952,163.7401],[145.2642,-36.9467,161.5577],[145.2611,-36.9409,160.1181],[145.2625,-36.9386,156.101],[145.2605,-36.9358,158.6848],[145.2489,-36.9286,157.3865],[145.2465,-36.9292,152.0015],[145.2408,-36.9245,150.8442],[145.241,-36.92,161.1555],[145.2349,-36.9124,147.5851],[145.2348,-36.9099,150.9271],[145.2268,-36.9141,154.776],[145.2098,-36.9444,226.7602],[145.1984,-36.9419,189.6854],[145.1269,-36.9416,127.9191],[145.1276,-36.9325,129.2152],[145.1327,-36.9284,128.6362],[145.1308,-36.9273,129.912],[145.127,-36.9286,130.9577],[145.1214,-36.928,132.2912],[145.1208,-36.9247,129.636],[145.1178,-36.9234,128.2725],[145.1222,-36.9193,127.2353],[145.1177,-36.9189,129.1512],[145.116,-36.9165,133.8657],[145.1179,-36.9135,130.4805],[145.1277,-36.9097,128.3655],[145.126,-36.9073,127.9824],[145.1207,-36.9076,125.4136],[145.123,-36.9054,128.4735],[145.1221,-36.9029,127.7078],[145.1241,-36.9009,124.8767],[145.1205,-36.8962,128.2447],[145.1213,-36.894,131.805],[145.1179,-36.8963,132.5651],[145.1174,-36.8946,130.2208],[145.1191,-36.8931,134.5999],[145.1067,-36.893,136.7781],[145.0971,-36.884,149.8273],[145.0857,-36.8775,150.797],[145.087,-36.869,141.4877],[145.066,-36.8661,133.678],[145.0535,-36.8603,141.3221],[145.0439,-36.8537,142.958],[145.0298,-36.8534,138.589],[145.0193,-36.8506,141.6975],[145.0114,-36.8463,140.5015],[144.9982,-36.8464,144.7361],[144.987,-36.8361,146.8455],[144.9332,-36.8355,148.2155],[144.932,-36.8369,147.5482],[144.932,-36.8498,146.7325],[144.9339,-36.8495,145.8273],[144.9332,-36.8511,146.7325],[144.9354,-36.8516,145.3324],[144.9424,-36.8512,146.5973],[144.9439,-36.8523,147.874],[144.944,-36.8572,150.6682],[144.9373,-36.8573,152.7238],[144.9295,-36.8605,159.6034],[144.9256,-36.8586,151.4948],[144.9099,-36.8586,146.6641],[144.8815,-36.8662,163.6394],[144.8743,-36.8758,171.3427],[144.8717,-36.8745,163.1006],[144.8584,-36.8812,159.3254],[144.8536,-36.8802,163.3288],[144.8372,-36.8927,167.2936],[144.8224,-36.8997,180.3125],[144.8166,-36.9116,182.2748],[144.8043,-36.9259,198.2642],[144.8002,-36.9394,222.0354],[144.8063,-36.9556,244.9538],[144.8024,-36.9568,253.9467],[144.7913,-36.952,230.5835],[144.7966,-36.9655,257.1695],[144.7805,-36.9696,330.7905],[144.7805,-36.9713,347.2566],[144.771,-36.9713,275.0026],[144.766,-36.9736,265.6787],[144.7534,-36.963,261.3504],[144.7485,-36.9678,285.53],[144.7506,-36.9753,278.9889],[144.7478,-36.9781,282.0063],[144.734,-36.9821,334.2926],[144.7345,-36.98,325.8008],[144.7189,-36.9762,316.132],[144.7183,-36.9747,316.132],[144.7115,-36.9814,310.9078],[144.7094,-36.9887,306.702],[144.6986,-36.9942,283.0272],[144.6914,-36.9932,273.0815],[144.6882,-36.9946,276.315],[144.6913,-37.0057,262.0156],[144.6884,-37.011,263.9078],[144.6623,-37.0087,251.4988],[144.6567,-37.01,278.837],[144.6505,-37.0153,275.6802],[144.6472,-37.0127,268.3424],[144.6437,-37.0054,299.3983],[144.6385,-37.0023,302.8416],[144.6322,-37.002,316.1695],[144.6281,-37.0039,312.3994],[144.5971,-37.004,293.9376],[144.597,-37.0084,281.8594],[144.5937,-37.01,291.1555],[144.5891,-37.0065,279.1992],[144.5836,-37.0057,268.5083],[144.5835,-37.0101,308.8508],[144.5604,-37.01,308.5795],[144.5561,-37.014,297.1708],[144.5454,-37.0132,252.0003],[144.5412,-37.0158,234.8591],[144.5397,-37.0205,224.8968],[144.5423,-37.0226,230.3072],[144.5401,-37.0248,238.201],[144.544,-37.0282,237.2339],[144.5452,-37.0343,235.665],[144.5468,-37.0357,233.1418],[144.5466,-37.0396,262.0416],[144.5492,-37.0417,237.498],[144.5429,-37.0434,248.2436],[144.5451,-37.0476,255.984],[144.5449,-37.0528,272.0688],[144.5491,-37.0523,249.9233],[144.5506,-37.0538,244.6638],[144.5497,-37.056399999999996,286.3126],[144.5455,-37.0568,249.4519],[144.5443,-37.0602,257.2791]]]]}}