{"type":"Feature","properties":{"GID_2":"AUS.11.78_1","GID_0":"AUS","country":"Australia","GID_1":"AUS.11_1","state":"WesternAustralia","NL_NAME_1":"NA","county":"Merredin","VARNAME_2":"NA","NL_NAME_2":"NA","TYPE_2":"Shire","ENGTYPE_2":"Shire","CC_2":"55460","HASC_2":"AU.WA.ME","name":"Merredin.county"},
"geometry":{"type": "MultiPolygon","coordinates": [[[[118.3783,-31.7813,320.5346],[118.67,-31.7803,381.3932],[118.67,-31.7834,380.2988],[118.7084,-31.7833,356.4055],[118.7085,-31.7742,368.7047],[118.7211,-31.7741,367.1218],[118.7211,-31.7651,365.6161],[118.7339,-31.7651,364.5201],[118.734,-31.7577,369.2509],[118.7894,-31.7576,398.4582],[118.7586,-31.718,421.2318],[118.739,-31.6956,395.1812],[118.8044,-31.6955,427.7288],[118.8042,-31.6185,452.2586],[118.7551,-31.6185,404.7549],[118.7551,-31.5554,444.4969],[118.6755,-31.5554,375.844],[118.6755,-31.5499,367.6459],[118.6516,-31.5499,365.1826],[118.6434,-31.5382,350.6156],[118.6311,-31.545,356.2462],[118.6179,-31.5277,341.1044],[118.6019,-31.5367,337.3145],[118.502,-31.4049,351.8322],[118.502,-31.3753,340.9296],[118.509,-31.3317,341.9831],[118.5088,-31.2936,371.6231],[118.5135,-31.2707,365.8605],[118.5097,-31.2586,347.8861],[118.5092,-31.1962,353.1229],[118.5054,-31.1888,335.1412],[118.5054,-31.1377,287.6919],[118.4335,-31.1397,280.5568],[118.393,-31.1531,280.8111],[118.3667,-31.1479,280.2805],[118.3552,-31.1514,281.1202],[118.352,-31.1509,279.0645],[118.3227,-31.1938,309.7615],[118.3175,-31.2124,341.1668],[118.3093,-31.2107,336.5739],[118.3093,-31.2178,354.3448],[118.3193,-31.2287,334.8967],[118.2969,-31.2376,379.1889],[118.2969,-31.245,375.5224],[118.2827,-31.245,380.2734],[118.2827,-31.2632,346.2635],[118.1798,-31.2633,332.8271],[118.1816,-31.2665,328.3193],[118.1879,-31.2702,320.136],[118.1728,-31.2705,322.1324],[118.1494,-31.2774,332.2995],[118.1118,-31.2774,324.3504],[118.1119,-31.2939,343.2043],[118.117,-31.3064,324.7915],[118.1173,-31.3131,310.0996],[118.12,-31.319,305.907],[118.0791,-31.331,320.4169],[118.0773,-31.3332,314.1754],[118.0151,-31.3338,258.9725],[118.0334,-31.3614,259.2325],[118.032,-31.365,258.5859],[118.0335,-31.3704,256.2394],[118.0335,-31.4066,289.0339],[118.0077,-31.4067,274.9615],[118.0077,-31.4248,311.6972],[118.0055,-31.425,310.6641],[118.0056,-31.443,325.7895],[118.002,-31.4431,325.0549],[118.002,-31.4523,329.9476],[118.0092,-31.4523,324.5999],[118.0092,-31.465699999999998,297.4991],[118.0356,-31.4658,303.3182],[118.0356,-31.4863,259.071],[118.0293,-31.4892,264.3627],[118.0413,-31.4892,256.8837],[118.0413,-31.5297,254.3835],[118.0371,-31.5297,256.9805],[118.0362,-31.5339,259.8452],[118.0362,-31.5397,271.4124],[118.0391,-31.5392,267.5358],[118.0391,-31.5625,282.2552],[118.0208,-31.572,275.6995],[118.0152,-31.5775,265.2862],[118.0099,-31.58,256.6739],[118.0002,-31.582,249.7956],[117.9853,-31.5813,245.6864],[117.9853,-31.5862,244.9577],[117.9747,-31.5862,244.9832],[117.9743,-31.5819,245.2773],[117.9657,-31.5816,245.3773],[117.9692,-31.5933,246.3106],[117.9682,-31.6145,246.4977],[117.9694,-31.7009,297.2624],[117.9931,-31.7008,329.8238],[117.9986,-31.6975,335.9566],[118.0061,-31.7013,352.5892],[118.0193,-31.7005,329.4606],[118.0196,-31.7095,313.3141],[118.0272,-31.7098,308.493],[118.0272,-31.7148,302.538],[118.0532,-31.7148,296.1475],[118.0532,-31.72,299.3001],[118.1107,-31.7199,273.1776],[118.1147,-31.7199,270.4924],[118.1131,-31.7134,267.9104],[118.1645,-31.7032,268.3457],[118.1665,-31.7102,269.0739],[118.2356,-31.6964,279.4362],[118.3781,-31.6965,354.421],[118.3783,-31.7813,320.5346]]]]}}