{"type":"Feature","properties":{"GID_2":"AUS.7.18_1","GID_0":"AUS","country":"Australia","GID_1":"AUS.7_1","state":"Queensland","NL_NAME_1":"NA","county":"Cherbourg","VARNAME_2":"NA","NL_NAME_2":"NA","TYPE_2":"Shire","ENGTYPE_2":"Shire","CC_2":"32330","HASC_2":"AU.QL.CG","name":"Cherbourg.county"},
"geometry":{"type": "MultiPolygon","coordinates": [[[[151.9448,-26.261,285.1472],[151.9398,-26.2563,286.0112],[151.9365,-26.2592,291.6635],[151.9369,-26.2624,287.61],[151.9313,-26.2648,286.5456],[151.9253,-26.2625,281.1439],[151.9244,-26.2585,289.0816],[151.9209,-26.2575,283.5185],[151.9157,-26.2656,280.9839],[151.9142,-26.2656,280.9839],[151.9177,-26.274,288.8157],[151.9166,-26.2801,288.2808],[151.9143,-26.2809,294.012],[151.9061,-26.2762,300.0212],[151.9037,-26.2762,301.8316],[151.9008,-26.2796,297.8299],[151.8981,-26.2933,298.9781],[151.8911,-26.2954,295.0338],[151.8864,-26.3014,313.8619],[151.9674,-26.3117,409.8002],[151.9692,-26.3187,437.1657],[151.9791,-26.3148,319.3443],[151.9766,-26.3142,322.5389],[151.9779,-26.3129,310.4688],[151.9718,-26.3122,325.9921],[151.975,-26.3071,306.5],[151.9706,-26.3068,332.2234],[151.9705,-26.3054,350.6379],[151.9786,-26.2926,291.9485],[151.972,-26.2891,296.0681],[151.9666,-26.295,294.0105],[151.9614,-26.2927,291.6207],[151.9587,-26.288,288.36],[151.964,-26.2772,338.9943],[151.969,-26.2759,367.5013],[151.9704,-26.2689,389.5356],[151.9672,-26.2671,368.9767],[151.9594,-26.2673,332.5065],[151.9539,-26.2621,288.4614],[151.9541,-26.2717,302.3602],[151.9451,-26.2751,288.6117],[151.938,-26.2719,292.8633],[151.9429,-26.2651,284.7466],[151.9476,-26.2622,285.9709],[151.9448,-26.261,285.1472]]]]}}