{"type":"Feature","properties":{"GID_2":"AUS.11.105_1","GID_0":"AUS","country":"Australia","GID_1":"AUS.11_1","state":"WesternAustralia","NL_NAME_1":"NA","county":"Quairading","VARNAME_2":"NA","NL_NAME_2":"NA","TYPE_2":"Shire","ENGTYPE_2":"Shire","CC_2":"57350","HASC_2":"AU.WA.QR","name":"Quairading.county"},
"geometry":{"type": "MultiPolygon","coordinates": [[[[117.2396,-32.2283,212.0067],[117.2628,-32.2283,211.6572],[117.2668,-32.2262,212.7024],[117.2717,-32.2285,214.7986],[117.2731,-32.2341,227.381],[117.2776,-32.2341,213.6606],[117.2753,-32.2325,212.7041],[117.2754,-32.2303,212.5331],[117.2806,-32.2268,212.2956],[117.2828,-32.2269,211.4731],[117.2828,-32.2298,211.0065],[117.3103,-32.2298,212.2396],[117.3103,-32.2332,214.1032],[117.3166,-32.2297,214.5733],[117.3163,-32.2207,214.4298],[117.3348,-32.2203,239.1618],[117.3351,-32.2276,252.4417],[117.3456,-32.2274,238.3906],[117.3456,-32.2254,242.4625],[117.3612,-32.2252,230.0214],[117.3653,-32.2253,225.5269],[117.3653,-32.2283,224.2148],[117.3718,-32.2282,222.1027],[117.3745,-32.2273,221.9164],[117.3747,-32.2219,222.7003],[117.3916,-32.2215,225.0145],[117.3915,-32.2182,224.5998],[117.3953,-32.2181,226.165],[117.3953,-32.2215,226.728],[117.4119,-32.2213,237.8268],[117.4121,-32.2261,241.4554],[117.4284,-32.226,242.8202],[117.4284,-32.2012,228.2568],[117.4331,-32.2012,228.6059],[117.4331,-32.2028,228.564],[117.4632,-32.2028,231.7499],[117.4632,-32.1972,231.7587],[117.4815,-32.1972,234.2099],[117.4814,-32.2031,233.4821],[117.5118,-32.2025,236.9204],[117.5118,-32.1995,236.8755],[117.5278,-32.1995,239.2818],[117.5279,-32.2031,239.0775],[117.5435,-32.2031,240.863],[117.5435,-32.2051,240.9804],[117.5536,-32.2051,241.6971],[117.5534,-32.1977,243.425],[117.5566,-32.1977,243.389],[117.5566,-32.1959,243.9258],[117.5803,-32.1958,246.1618],[117.5801,-32.1889,247.8922],[117.6222,-32.1885,280.0794],[117.6222,-32.1753,261.6307],[117.6294,-32.1763,272.0542],[117.6295,-32.1671,267.096],[117.6393,-32.1681,293.1289],[117.6331,-32.1622,277.3321],[117.6754,-32.1621,306.0302],[117.6752,-32.1512,320.593],[117.6838,-32.1512,328.7196],[117.6838,-32.1439,323.7783],[117.67529999999999,-32.1439,310.7023],[117.67529999999999,-32.1199,321.938],[117.6692,-32.1199,319.8259],[117.6692,-32.1061,330.0011],[117.6763,-32.1061,331.7197],[117.6763,-32.0971,303.3268],[117.6795,-32.0971,314.5039],[117.6796,-32.0948,314.2905],[117.702,-32.0948,293.8035],[117.702,-32.0888,290.8234],[117.7058,-32.0888,288.6462],[117.7058,-32.075,280.3691],[117.7091,-32.075,285.7449],[117.7091,-32.0664,275.9507],[117.6998,-32.0664,287.8514],[117.6999,-32.0079,259.4652],[117.6978,-32.0079,259.5074],[117.6978,-32.0042,260.7296],[117.7042,-32.0042,261.3897],[117.7042,-31.9895,269.4806],[117.6956,-31.9895,271.2421],[117.6939,-31.9682,288.3284],[117.6863,-31.9682,284.4861],[117.6863,-31.9499,307.4387],[117.6733,-31.9499,321.2827],[117.6733,-31.9431,320.9526],[117.6783,-31.9319,360.3927],[117.6781,-31.819,227.8993],[117.6625,-31.8193,228.2142],[117.6508,-31.8141,226.7941],[117.6485,-31.8139,227.8335],[117.6468,-31.8158,228.6274],[117.6342,-31.8152,228.6363],[117.6288,-31.8162,227.447],[117.6266,-31.8192,229.0965],[117.6095,-31.8192,226.854],[117.6095,-31.822,227.2208],[117.5978,-31.822,226.1034],[117.5978,-31.8255,228.6292],[117.5872,-31.8255,227.3066],[117.5872,-31.8311,231.7914],[117.5841,-31.8311,230.5271],[117.5841,-31.8265,227.8504],[117.5739,-31.8265,225.6932],[117.5739,-31.8295,226.2702],[117.55,-31.8296,225.4732],[117.55,-31.8377,225.4222],[117.5389,-31.8377,224.8997],[117.5389,-31.841,225.0016],[117.4966,-31.8405,233.8474],[117.4966,-31.8388,234.3524],[117.4845,-31.8388,238.7889],[117.4846,-31.8286,247.9435],[117.4719,-31.8286,247.9014],[117.4717,-31.8197,253.0964],[117.4625,-31.8197,255.8358],[117.4625,-31.8255,253.4157],[117.4454,-31.8257,266.4201],[117.4454,-31.8207,269.2515],[117.428,-31.8207,300.0037],[117.428,-31.8079,295.3278],[117.4049,-31.8064,305.996],[117.3947,-31.8039,296.1372],[117.3887,-31.8051,305.4544],[117.3911,-31.814,322.6931],[117.3271,-31.8418,346.7469],[117.3284,-31.8441,345.602],[117.3265,-31.8448,331.5065],[117.3251,-31.8423,349.1212],[117.3183,-31.8451,341.1641],[117.3155,-31.8395,345.3799],[117.3088,-31.8423,349.0724],[117.3113,-31.8468,355.6451],[117.2886,-31.8562,328.967],[117.2874,-31.8541,330.9457],[117.2861,-31.8547,326.0619],[117.2806,-31.8459,315.0417],[117.2716,-31.85,307.174],[117.2656,-31.8403,300.8702],[117.2619,-31.842,294.5298],[117.2558,-31.8322,300.5712],[117.2605,-31.83,308.6024],[117.2566,-31.8236,296.1908],[117.2544,-31.8246,293.5643],[117.2544,-31.8264,298.6835],[117.2491,-31.8265,290.4729],[117.2491,-31.8285,293.4818],[117.2437,-31.8285,296.8556],[117.2437,-31.8221,280.92],[117.2358,-31.8251,277.4234],[117.2358,-31.8178,295.34],[117.2279,-31.8178,315.8026],[117.2286,-31.7951,321.5472],[117.1854,-31.7955,285.4323],[117.1854,-31.798,301.6077],[117.1755,-31.798,302.2736],[117.1755,-31.8012,308.0418],[117.1543,-31.8012,264.7555],[117.1542,-31.8086,270.3385],[117.1342,-31.8173,241.4717],[117.1583,-31.8566,251.1459],[117.1474,-31.8616,241.4505],[117.1356,-31.8626,241.3404],[117.1414,-31.8718,260.6844],[117.111,-31.8853,275.5862],[117.1184,-31.8946,273.9929],[117.1262,-31.891,271.7077],[117.136,-31.9069,295.756],[117.1387,-31.9057,285.4046],[117.1418,-31.9106,301.0667],[117.0964,-31.9305,294.9747],[117.1051,-31.945,304.5846],[117.0963,-31.9488,309.5111],[117.0996,-31.9544,290.1531],[117.0876,-31.9595,281.3787],[117.092,-31.967,283.0221],[117.0882,-31.9686,267.1327],[117.0897,-31.971,269.3835],[117.0934,-31.971,277.7845],[117.0996,-31.9818,258.9181],[117.1057,-31.9792,259.2906],[117.1089,-31.9841,275.209],[117.115,-31.9815,277.3772],[117.1194,-31.9864,264.8174],[117.1259,-31.9836,278.6503],[117.1248,-31.9817,283.8017],[117.1282,-31.9802,294.0591],[117.1291,-31.9817,286.4352],[117.1326,-31.9802,292.2294],[117.1338,-31.9822,286.6082],[117.1376,-31.9806,291.0456],[117.1396,-31.9839,279.0175],[117.1438,-31.9821,285.0909],[117.1509,-31.9934,277.515],[117.1579,-31.9904,305.2415],[117.1607,-31.9949,287.5646],[117.1658,-31.9927,298.512],[117.1679,-31.9962,294.3073],[117.1723,-31.9947,303.5863],[117.1772,-32.0029,314.4792],[117.1952,-32.0068,300.3866],[117.1987,-32.0145,291.1763],[117.2044,-32.0217,281.6958],[117.2073,-32.0206,283.2377],[117.2096,-32.0244,282.2677],[117.2115,-32.0236,284.1971],[117.2143,-32.0282,281.124],[117.2107,-32.0299,276.5997],[117.2164,-32.0358,271.7525],[117.2278,-32.0308,283.8799],[117.2313,-32.0372,282.8562],[117.2275,-32.0389,269.4212],[117.2355,-32.052,276.9781],[117.2303,-32.0542,270.3725],[117.2384,-32.0678,285.2668],[117.2309,-32.0728,261.3289],[117.2328,-32.0926,259.976],[117.2292,-32.0932,252.3075],[117.2293,-32.0972,252.7503],[117.2271,-32.0972,247.4799],[117.2271,-32.1103,243.254],[117.2196,-32.1104,242.1528],[117.2255,-32.1196,244.0202],[117.2388,-32.1195,254.2978],[117.2385,-32.1458,234.5788],[117.2441,-32.1547,244.1876],[117.2382,-32.1547,248.011],[117.2381,-32.165,234.2143],[117.247,-32.1793,251.1384],[117.2411,-32.1819,243.7608],[117.2456,-32.1892,224.101],[117.2413,-32.191,218.0905],[117.2442,-32.1958,217.2394],[117.2392,-32.198,217.3799],[117.2472,-32.211,214.2617],[117.2396,-32.2144,214.4298],[117.2396,-32.2283,212.0067]]]]}}