{"type": "Feature","id": "2652","bbox": [105.5818,-10.56601,105.71469,-10.43084],"geometry": {"type": "Polygon","coordinates": [[[105.70411,-10.43084,17.1572],[105.68523,-10.44036,296.1654],[105.66928,-10.45623,303.0295],[105.65455,-10.4699,285.9081],[105.62713,-10.46893,211.3508],[105.60719,-10.45843,0.0],[105.59425,-10.45403,0.0],[105.59425,-10.46673,129.5343],[105.59962,-10.48056,310.9945],[105.5923,-10.49847,178.5392],[105.5818,-10.50482,0.0],[105.58497,-10.51637,0.0],[105.60499,-10.51002,23.656],[105.62818,-10.50897,136.0358],[105.64926,-10.51312,202.0737],[105.66407,-10.51849,321.0626],[105.66725,-10.5333,86.7061],[105.67351,-10.54909,0.0],[105.67872,-10.56601,0.0],[105.69459,-10.56487,0.0],[105.69988,-10.5534,0.0],[105.69793,-10.52899,0.0],[105.70631,-10.51426,0.0],[105.70631,-10.49424,0.0],[105.71144,-10.4699,0.0],[105.71266,-10.45094,0.0],[105.71469,-10.43719,0.0],[105.70411,-10.43084,17.1572]]]}
,"properties": {"ISO3166-1-Alpha-3": "IOA","country": "Indian Ocean Territories","fill": "#F0F","name": "Christmas Island","area_km2": 99.36,"hist_schema_id": "Elevation0-9000","hist_area_km2": {"0": 34.12557,"25": 2.08478,"50": 2.08479,"75": 1.54277,"100": 2.37671,"125": 3.1898,"150": 3.08547,"175": 5.58717,"200": 5.62885,"225": 10.96604,"250": 14.3438,"275": 8.92344,"300": 4.79538,"325": 0.62543}}}