{"type":"Feature","properties":{"GID_2":"AUS.11.111_1","GID_0":"AUS","country":"Australia","GID_1":"AUS.11_1","state":"WesternAustralia","NL_NAME_1":"NA","county":"Serpentine-Jarrahdale","VARNAME_2":"NA","NL_NAME_2":"NA","TYPE_2":"Shire","ENGTYPE_2":"Shire","CC_2":"57700","HASC_2":"AU.WA.SJ","name":"Serpentine-Jarrahdale.county"},
"geometry":{"type": "MultiPolygon","coordinates": [[[[115.8986,-32.1802,31.062],[115.9007,-32.182,34.5556],[115.9007,-32.1931,27.9401],[115.8987,-32.1941,27.3523],[115.8971,-32.2021,29.3232],[115.8929,-32.2051,26.5676],[115.8828,-32.2048,24.4737],[115.8842,-32.2088,29.1778],[115.8845,-32.2408,25.499],[115.8871,-32.2446,25.2162],[115.8871,-32.2589,24.9764],[115.8837,-32.2618,24.7393],[115.8858,-32.2657,28.1507],[115.8796,-32.2697,15.7903],[115.8818,-32.2754,18.4337],[115.8775,-32.2798,8.933],[115.8722,-32.2782,9.3899],[115.8841,-32.2904,10.4565],[115.8896,-32.2919,11.8059],[115.8751,-32.3323,10.9441],[115.8544,-32.3469,11.064],[115.8517,-32.3527,8.6672],[115.8528,-32.3633,8.8207],[115.8517,-32.3681,5.131],[115.8353,-32.3781,3.4405],[115.8349,-32.3953,2.8406],[115.8311,-32.4003,2.9822],[115.8303,-32.4048,4.477],[115.8266,-32.4064,4.1581],[115.8577,-32.4062,10.8371],[115.8577,-32.4549,18.4377],[115.9105,-32.4549,22.4057],[115.9105,-32.4694,23.0634],[115.9762,-32.4695,58.5493],[115.976,-32.4608,59.6721],[115.9907,-32.4596,86.6167],[115.9907,-32.4545,106.9735],[115.9971,-32.4545,204.1161],[115.9971,-32.4594,177.0978],[116.0015,-32.4594,205.0773],[116.0015,-32.4544,184.3728],[116.0075,-32.4543,202.575],[116.0075,-32.4586,233.2142],[116.0345,-32.4587,288.03],[116.0345,-32.4563,270.8654],[116.0414,-32.4563,284.4464],[116.0414,-32.4587,278.0041],[116.2636,-32.4584,254.2759],[116.2633,-32.3925,323.3737],[116.2521,-32.3817,322.1249],[116.231,-32.3561,327.1677],[116.227,-32.3495,337.6694],[116.2255,-32.343,333.2829],[116.2139,-32.3233,320.3904],[116.1957,-32.2946,300.5989],[116.1896,-32.2874,322.5687],[116.1122,-32.2875,314.6554],[116.1123,-32.2316,268.5387],[116.1096,-32.2316,284.6009],[116.1097,-32.2124,380.7695],[116.0675,-32.2126,189.0],[116.0681,-32.2086,189.0],[116.0668,-32.2068,189.0],[116.0623,-32.2068,250.9582],[116.0623,-32.204,220.9133],[116.0539,-32.2047,241.7287],[116.0539,-32.2075,241.9196],[116.04,-32.2075,275.7745],[116.04,-32.2051,229.4948],[116.0238,-32.2051,192.1291],[116.0238,-32.1966,61.592],[116.0181,-32.1947,48.624],[116.0174,-32.1923,71.0311],[116.0159,-32.1923,58.1508],[116.0158,-32.1866,68.8619],[116.0015,-32.1867,40.6132],[116.0001,-32.1852,36.3881],[115.9986,-32.1869,42.5654],[115.9957,-32.1859,37.6005],[115.9923,-32.1802,34.1164],[115.9903,-32.1816,34.2031],[115.9784,-32.1817,28.4573],[115.9781,-32.1796,30.4321],[115.9723,-32.1796,26.3622],[115.9726,-32.1948,29.5599],[115.968,-32.1949,29.333],[115.968,-32.1969,26.9038],[115.9628,-32.1969,26.3101],[115.9639,-32.1797,25.6601],[115.8986,-32.1802,31.062]]]]}}