{"type": "Feature","bbox": [148.7969,-32.3047,150.1104,-30.6056],"geometry": {"type": "MultiPolygon","coordinates": [[[[149.0629,-31.2893,851.7907],[149.0597,-31.2926,863.3338],[149.0501,-31.2958,955.5699],[149.048,-31.3056,988.0026],[149.0495,-31.3068,990.8311],[149.0449,-31.308,905.235],[149.0456,-31.3097,877.3514],[149.0438,-31.3132,892.6641],[149.0487,-31.3212,936.5813],[149.0461,-31.328,848.4794],[149.0481,-31.3344,830.7701],[149.0434,-31.3415,1015.0856],[149.0351,-31.3431,963.2641],[149.024,-31.3426,1153.4746],[149.0228,-31.3413,1153.4746],[149.0196,-31.3436,1109.5916],[149.0141,-31.344,1039.8174],[149.0108,-31.3368,1048.6987],[149.0046,-31.3405,921.2805],[149.0028,-31.3439,922.1121],[149.0057,-31.3466,1004.3373],[149.0037,-31.3532,1027.5178],[149.0003,-31.3543,953.9312],[148.9985,-31.3609,990.9612],[148.9938,-31.3636,938.2714],[148.9954,-31.3737,865.3502],[148.9865,-31.3734,910.3994],[148.9863,-31.3751,918.6387],[148.9837,-31.3753,876.0177],[148.9842,-31.3792,773.7949],[148.9821,-31.3823,728.3259],[148.9771,-31.3835,740.0503],[148.9745,-31.3868,783.5688],[148.9778,-31.3889,745.6112],[148.9749,-31.3917,765.7734],[148.9768,-31.3931,782.2152],[148.9718,-31.3971,831.1976],[148.9713,-31.4029,822.1985],[148.968,-31.4058,803.6553],[148.9689,-31.409,759.4395],[148.9639,-31.4115,666.9166],[148.9636,-31.4173,663.6483],[148.9659,-31.4178,670.9285],[148.9665,-31.4196,672.7515],[148.9637,-31.4237,677.0418],[148.9676,-31.4296,649.4655],[148.96,-31.4369,663.7875],[148.9575,-31.4444,667.0558],[148.9588,-31.4497,688.4958],[148.955,-31.4529,669.5927],[148.9574,-31.4533,653.0361],[148.965,-31.4481,682.6733],[148.9825,-31.4442,514.7013],[148.9899,-31.4446,506.4969],[149.0012,-31.4428,544.6306],[149.0096,-31.4444,549.6269],[149.0253,-31.4422,630.0718],[149.047,-31.4445,636.1602],[149.0469,-31.4482,625.0475],[149.0434,-31.4499,611.7723],[149.0444,-31.4562,606.6658],[149.0387,-31.4605,585.2922],[149.0365,-31.47,558.2874],[149.0329,-31.4713,548.2521],[149.0326,-31.4748,537.6249],[149.0308,-31.4764,553.8257],[149.0319,-31.4782,533.5964],[149.1295,-31.4906,568.0593],[149.1292,-31.5018,548.8811],[149.1308,-31.504,535.7836],[149.1285,-31.5109,532.9305],[149.1328,-31.5138,521.0287],[149.1319,-31.5161,521.1618],[149.1337,-31.5183,518.7744],[149.1338,-31.524,536.3549],[149.1369,-31.5243,523.5552],[149.1367,-31.5277,508.2436],[149.1391,-31.5279,508.8953],[149.1363,-31.5336,503.3005],[149.1382,-31.5364,510.6282],[149.1365,-31.5367,503.5205],[149.1339,-31.5415,499.6151],[149.1324,-31.5411,510.2687],[149.1284,-31.5441,499.5879],[149.1294,-31.5452,497.2815],[149.1283,-31.5473,497.3452],[149.1237,-31.5509,494.886],[149.1249,-31.5541,493.7509],[149.1261,-31.5519,493.4627],[149.1288,-31.5548,491.8178],[149.126,-31.5568,491.1479],[149.1286,-31.562,489.8257],[149.1308,-31.5627,489.0768],[149.1273,-31.5675,487.6376],[149.1293,-31.5688,487.1943],[149.1255,-31.5728,486.3325],[149.1187,-31.5674,490.141],[149.1166,-31.5703,483.2918],[149.1185,-31.5702,484.092],[149.1192,-31.5737,482.4436],[149.118,-31.5759,482.886],[149.1133,-31.5786,480.3323],[149.1143,-31.5819,479.3215],[149.1096,-31.5832,479.4243],[149.1117,-31.5874,479.7327],[149.1072,-31.5881,477.4512],[149.1085,-31.5917,476.8963],[149.1076,-31.595,484.209],[149.1044,-31.5952,476.1571],[149.1022,-31.5908,479.468],[149.0966,-31.5956,469.4038],[149.097,-31.6017,473.7984],[149.1044,-31.6036,469.4005],[149.1083,-31.609,467.7465],[149.1131,-31.6111,463.7987],[149.1128,-31.6129,464.2858],[149.1079,-31.6137,461.295],[149.111,-31.6196,460.5124],[149.1107,-31.6224,459.4009],[149.1074,-31.6239,459.5363],[149.1045,-31.6291,457.1041],[149.0961,-31.6236,456.4389],[149.0964,-31.6307,453.1844],[149.0926,-31.6325,449.9863],[149.0953,-31.6366,450.133],[149.0896,-31.6409,446.9175],[149.0915,-31.6425,446.7567],[149.0918,-31.6452,447.1326],[149.091,-31.6481,453.1095],[149.0871,-31.6507,446.8307],[149.0883,-31.6544,443.603],[149.083,-31.656,439.4284],[149.0835,-31.6586,439.5158],[149.0822,-31.6598,442.0753],[149.08,-31.6572,437.6803],[149.0759,-31.6573,436.6413],[149.0748,-31.6614,439.1357],[149.0697,-31.6624,437.1819],[149.0724,-31.6658,435.2023],[149.0699,-31.6666,428.3329],[149.0662,-31.6718,425.8544],[149.0686,-31.6769,426.8234],[149.0677,-31.6859,422.0428],[149.0659,-31.6881,420.8944],[149.0688,-31.6944,418.9765],[149.0727,-31.6951,419.035],[149.0747,-31.7003,421.6491],[149.0737,-31.7016,416.9364],[149.0672,-31.7013,422.8276],[149.0693,-31.7044,407.0288],[149.0639,-31.7102,402.1613],[149.0651,-31.7115,396.6412],[149.0688,-31.7107,399.1682],[149.0693,-31.7121,389.3411],[149.0648,-31.7154,382.9651],[149.0672,-31.7182,392.4134],[149.073,-31.7157,402.4473],[149.0741,-31.7214,372.2119],[149.0773,-31.724,370.4285],[149.0766,-31.7252,369.8009],[149.0795,-31.7294,367.1022],[149.0808,-31.7282,369.2316],[149.0872,-31.7318,364.9786],[149.0878,-31.7342,363.83],[149.0917,-31.7352,364.1791],[149.0916,-31.74,363.9578],[149.0885,-31.7406,364.597],[149.0831,-31.7452,358.0589],[149.0839,-31.7466,357.2797],[149.0867,-31.7462,358.9839],[149.0866,-31.7519,360.3842],[149.0842,-31.7531,354.689],[149.0861,-31.7535,354.5767],[149.0871,-31.7571,354.5859],[149.0848,-31.7581,353.2891],[149.084,-31.7623,352.0659],[149.0797,-31.762,350.233],[149.0794,-31.7657,350.3394],[149.084,-31.7674,348.9989],[149.0853,-31.7694,348.3659],[149.0837,-31.7707,346.9453],[149.0854,-31.773,347.5799],[149.0926,-31.7691,347.2457],[149.0943,-31.7769,345.9819],[149.0897,-31.7809,344.6069],[149.0992,-31.7851,341.3774],[149.0851,-31.7916,340.2391],[149.0706,-31.8052,338.3728],[149.0587,-31.8047,344.106],[149.0459,-31.7944,336.4894],[149.0357,-31.7977,336.9525],[149.0286,-31.8077,331.3792],[149.0255,-31.8173,332.3349],[149.0197,-31.8275,333.3225],[149.006,-31.8331,328.9632],[149.004,-31.8352,327.4699],[149.0067,-31.8417,327.7544],[149.0225,-31.8439,340.4597],[149.0159,-31.8843,388.8607],[148.9931,-31.8815,358.0923],[148.9881,-31.9093,349.8378],[148.9702,-31.9075,349.4685],[148.978,-31.9158,355.5495],[148.9812,-31.9271,364.0362],[148.9885,-31.9279,364.9034],[148.9924,-31.9302,368.6838],[148.9933,-31.9326,368.0106],[148.9969,-31.9325,369.7147],[149.0031,-31.936,374.7125],[149.0208,-31.9219,389.273],[149.0316,-31.9234,396.9301],[149.0113,-32.0386,399.2676],[148.9971,-32.0367,384.861],[149.0025,-32.0443,380.7801],[149.0032,-32.0529,373.8745],[149.0074,-32.0583,369.284],[149.0085,-32.0649,366.0747],[149.0125,-32.0685,361.1753],[149.0167,-32.0781,349.6305],[149.0236,-32.0874,343.9767],[149.0197,-32.1091,320.688],[149.0259,-32.1088,320.5931],[149.0293,-32.1065,321.8766],[149.0284,-32.1052,321.2486],[149.0311,-32.1011,322.0959],[149.0344,-32.0994,324.7767],[149.0458,-32.1042,323.2732],[149.0515,-32.1007,325.0882],[149.0552,-32.1006,325.5515],[149.0594,-32.0966,325.3989],[149.0567,-32.0888,327.5001],[149.0596,-32.087,328.268],[149.0711,-32.0946,326.1896],[149.0715,-32.1033,330.0394],[149.0782,-32.1018,328.818],[149.082,-32.1056,327.6069],[149.0934,-32.1085,334.0786],[149.093,-32.1118,330.6075],[149.0968,-32.1148,336.6881],[149.1012,-32.1146,330.7329],[149.1024,-32.1077,355.2047],[149.1047,-32.108,339.9552],[149.1064,-32.1045,352.825],[149.1107,-32.1111,333.4144],[149.1154,-32.1072,334.5638],[149.1192,-32.1084,334.7744],[149.1221,-32.1053,333.5157],[149.1209,-32.1007,334.9573],[149.1227,-32.0998,335.741],[149.1312,-32.112,335.9526],[149.1394,-32.117,336.847],[149.1462,-32.1179,339.0133],[149.1551,-32.1161,343.3387],[149.1537,-32.1182,339.2631],[149.1545,-32.1212,339.895],[149.1629,-32.124,340.683],[149.1673,-32.1243,340.6881],[149.1686,-32.1229,342.9309],[149.1709,-32.1242,340.9212],[149.1747,-32.1218,339.7593],[149.1658,-32.1143,342.0097],[149.1662,-32.1067,351.2762],[149.1698,-32.1018,347.6504],[149.1725,-32.1063,343.8929],[149.1782,-32.1047,349.7809],[149.1776,-32.1003,344.7117],[149.1821,-32.0997,344.7484],[149.1855,-32.1039,346.8358],[149.1937,-32.1044,352.067],[149.1944,-32.1082,349.111],[149.198,-32.1094,350.3014],[149.1979,-32.1121,351.305],[149.1955,-32.1131,351.287],[149.2002,-32.117,352.0527],[149.2003,-32.1189,352.3657],[149.1958,-32.1241,353.7894],[149.2001,-32.129,356.5254],[149.2015,-32.1332,355.9076],[149.1978,-32.145,358.5506],[149.2025,-32.1437,359.4749],[149.2051,-32.1484,361.9071],[149.2091,-32.1485,362.5876],[149.2121,-32.1506,363.1092],[149.212,-32.1608,369.1628],[149.2102,-32.1617,366.7486],[149.2126,-32.1683,377.8444],[149.2111,-32.17,369.7071],[149.2151,-32.1728,375.7651],[149.2206,-32.1826,384.4033],[149.2188,-32.1848,377.2327],[149.206,-32.1831,396.7003],[149.2054,-32.1862,397.9738],[149.1988,-32.1868,387.1333],[149.1991,-32.1949,393.8745],[149.1965,-32.2023,400.3748],[149.1924,-32.2018,412.8648],[149.1907,-32.212,419.4019],[149.2031,-32.2136,444.6917],[149.1988,-32.236,432.3027],[149.1962,-32.2362,436.4429],[149.1921,-32.2583,498.6223],[149.195,-32.2587,511.3199],[149.1892,-32.2906,469.6838],[149.2283,-32.2954,542.5844],[149.235,-32.2934,573.4035],[149.2341,-32.2969,570.502],[149.2397,-32.2993,557.1705],[149.2499,-32.2966,545.2875],[149.2506,-32.2952,551.6503],[149.2599,-32.2956,519.3066],[149.2646,-32.294,531.6891],[149.2652,-32.2919,535.6718],[149.2683,-32.2915,566.7797],[149.2732,-32.2949,572.8896],[149.2791,-32.2885,575.1086],[149.2854,-32.2886,590.0576],[149.2933,-32.3027,646.6837],[149.3051,-32.3047,614.7061],[149.308,-32.3025,610.9234],[149.3073,-32.3003,602.9963],[149.3127,-32.2993,572.5258],[149.3152,-32.2926,600.1671],[149.321,-32.2868,580.233],[149.3274,-32.2897,575.7816],[149.3352,-32.2851,600.9385],[149.3314,-32.2778,542.7577],[149.3271,-32.2735,533.053],[149.3254,-32.2661,559.1317],[149.3265,-32.2604,587.0975],[149.3297,-32.2583,564.0646],[149.3398,-32.2564,611.042],[149.3459,-32.2461,590.9193],[149.3464,-32.2381,601.644],[149.3564,-32.2348,603.2197],[149.361,-32.2204,588.8076],[149.3638,-32.2202,575.0867],[149.3668,-32.2166,576.7872],[149.3737,-32.2158,566.8285],[149.3754,-32.2049,571.417],[149.3732,-32.2036,559.9341],[149.3731,-32.1899,580.5775],[149.3847,-32.1932,551.989],[149.3885,-32.1913,557.6951],[149.3886,-32.1835,566.3464],[149.394,-32.1801,559.259],[149.3963,-32.1804,557.8094],[149.3968,-32.1768,550.4254],[149.4074,-32.1781,524.8156],[149.4081,-32.1743,534.4055],[149.4133,-32.1755,521.4899],[149.4174,-32.1555,540.9634],[149.4118,-32.1382,512.2518],[149.4129,-32.1355,498.7372],[149.4279,-32.1372,532.1978],[149.4291,-32.1354,548.2827],[149.4279,-32.1336,544.4188],[149.4283,-32.124,514.1028],[149.4216,-32.1168,508.0519],[149.4171,-32.1152,532.5787],[149.4169,-32.1115,529.9501],[149.4123,-32.1061,519.5975],[149.4131,-32.0977,512.9103],[149.415,-32.0956,497.4233],[149.427,-32.097,478.7093],[149.4273,-32.0959,489.6813],[149.4323,-32.0965,468.3413],[149.4325,-32.095,477.9005],[149.4476,-32.0968,440.2072],[149.447,-32.1006,445.4217],[149.4707,-32.1035,425.5031],[149.4725,-32.0933,416.723],[149.4801,-32.0942,417.2602],[149.4787,-32.102,426.657],[149.4797,-32.1088,428.9227],[149.4949,-32.1021,415.9442],[149.5003,-32.0732,401.8072],[149.5121,-32.0754,405.4865],[149.5156,-32.0816,404.159],[149.5167,-32.0811,404.2567],[149.5184,-32.0839,404.7278],[149.5203,-32.0835,404.8968],[149.52,-32.0853,405.2034],[149.5272,-32.0873,406.1654],[149.5288,-32.0864,406.1654],[149.5321,-32.0894,406.9054],[149.5368,-32.0895,407.1105],[149.5398,-32.0878,407.6743],[149.5446,-32.0888,408.4984],[149.545,-32.0868,408.2458],[149.5471,-32.0866,409.2324],[149.5519,-32.0892,409.338],[149.5566,-32.0865,409.6376],[149.5605,-32.0867,410.2109],[149.5608,-32.0845,415.5656],[149.5628,-32.0839,411.8505],[149.5692,-32.0855,412.343],[149.5698,-32.0878,411.3105],[149.5735,-32.0861,412.0553],[149.5743,-32.0896,412.6881],[149.5766,-32.0904,412.4316],[149.5749,-32.095,412.6841],[149.5784,-32.0993,414.0395],[149.5771,-32.1014,416.2703],[149.578,-32.1061,415.9586],[149.5815,-32.1069,415.6755],[149.5815,-32.1109,415.2499],[149.5921,-32.1165,416.5489],[149.5938,-32.1218,417.8554],[149.6024,-32.1272,418.9259],[149.6076,-32.1254,420.1406],[149.609,-32.1227,419.6929],[149.6159,-32.1234,420.7891],[149.6187,-32.1177,422.939],[149.6216,-32.1182,421.6819],[149.6279,-32.1151,425.7207],[149.6324,-32.1168,422.8015],[149.6351,-32.1155,423.2479],[149.6367,-32.1169,423.5242],[149.6362,-32.1142,424.2664],[149.6387,-32.1125,426.444],[149.6435,-32.1146,424.5483],[149.645,-32.1182,425.1794],[149.6463,-32.1162,425.4792],[149.6524,-32.1144,426.0784],[149.6594,-32.1194,426.6677],[149.6619,-32.1176,427.5862],[149.666,-32.1179,428.3189],[149.6653,-32.1205,427.6984],[149.6695,-32.1223,428.2847],[149.6745,-32.1213,428.7905],[149.6751,-32.1165,430.3645],[149.6792,-32.1149,430.495],[149.6819,-32.111,436.2007],[149.6812,-32.1149,431.0527],[149.6921,-32.1164,433.4303],[149.6928,-32.1124,432.601],[149.7508,-32.1198,571.572],[149.7533,-32.1063,531.8608],[149.7508,-32.1046,542.7808],[149.751,-32.1024,541.9631],[149.7527,-32.1017,550.4447],[149.7518,-32.0996,548.7884],[149.7556,-32.0965,534.5775],[149.7571,-32.093,545.7216],[149.7629,-32.0893,548.5039],[149.768,-32.0911,525.6416],[149.7776,-32.0916,526.7792],[149.7785,-32.0775,516.9709],[149.7825,-32.0711,536.3793],[149.7855,-32.0705,536.4636],[149.7882,-32.0665,538.5459],[149.7925,-32.0661,533.4384],[149.7921,-32.0628,539.7561],[149.7943,-32.0587,530.6028],[149.7976,-32.0576,530.3502],[149.8024,-32.0584,533.8759],[149.8023,-32.0548,542.8984],[149.8053,-32.0552,527.3083],[149.8081,-32.0395,510.8759],[149.822,-32.0388,550.6956],[149.8258,-32.0375,561.9466],[149.8277,-32.0343,568.9651],[149.8402,-32.0311,578.0858],[149.8495,-32.0258,550.7201],[149.8584,-32.0304,547.4205],[149.8598,-32.0225,569.4781],[149.8697,-32.0238,553.0338],[149.8685,-32.0302,541.0953],[149.8748,-32.0311,574.0557],[149.873,-32.0135,589.6444],[149.8797,-31.9999,623.0067],[149.8826,-31.9969,618.6872],[149.8738,-31.9959,536.912],[149.8756,-31.9845,525.8055],[149.8589,-31.9826,478.8611],[149.8578,-31.9895,481.0609],[149.8391,-31.9874,477.6212],[149.8424,-31.985,474.332],[149.8426,-31.9819,477.0071],[149.8462,-31.9808,477.6483],[149.8469,-31.9778,477.5267],[149.8457,-31.9761,483.3282],[149.8489,-31.9753,477.4454],[149.8484,-31.9727,481.2658],[149.8566,-31.97,480.4049],[149.8556,-31.9679,485.4434],[149.8573,-31.9662,491.7092],[149.8615,-31.9648,484.1842],[149.8635,-31.9614,486.4324],[149.8661,-31.9616,486.121],[149.8662,-31.9569,487.5925],[149.8692,-31.9534,489.8416],[149.8695,-31.9504,490.7856],[149.8728,-31.9483,492.8478],[149.8723,-31.9448,494.7638],[149.8768,-31.942,496.0532],[149.878,-31.9392,497.324],[149.8835,-31.9378,499.1324],[149.884,-31.9364,499.1324],[149.8823,-31.9355,499.8314],[149.8866,-31.934,500.8091],[149.8882,-31.9263,506.045],[149.891,-31.9268,507.2109],[149.8981,-31.9195,510.9389],[149.8969,-31.9132,512.7281],[149.9041,-31.9066,516.7974],[149.9023,-31.9047,520.9313],[149.9066,-31.904,519.1144],[149.9099,-31.8989,523.0297],[149.913,-31.9003,522.4354],[149.9141,-31.8963,525.4495],[149.9203,-31.8933,529.2732],[149.9186,-31.891,529.8112],[149.9205,-31.8885,531.4697],[149.9196,-31.8866,532.0458],[149.922,-31.885,534.6633],[149.9244,-31.8863,534.4067],[149.9285,-31.8816,538.2454],[149.9345,-31.8815,542.163],[149.9413,-31.8788,561.5844],[149.9471,-31.874,552.8943],[149.9463,-31.8724,556.1945],[149.9487,-31.8689,556.8797],[149.9514,-31.8697,556.7117],[149.9545,-31.8658,567.8828],[149.9592,-31.8644,568.371],[149.9589,-31.8633,566.6067],[149.9686,-31.8615,578.571],[149.9703,-31.8595,581.5183],[149.973,-31.8595,580.7189],[149.9732,-31.8577,586.5877],[149.9774,-31.8574,587.689],[149.9794,-31.8521,598.0084],[149.9809,-31.8513,595.4793],[149.9824,-31.8526,597.6362],[149.9856,-31.8499,600.8279],[149.9875,-31.8503,603.7559],[149.9935,-31.8425,620.9562],[149.9961,-31.8434,616.7774],[150.0056,-31.8358,641.0891],[150.0109,-31.8372,649.942],[150.0133,-31.8345,647.3527],[150.0154,-31.8346,655.5491],[150.0186,-31.8311,695.6816],[150.024,-31.8288,662.9987],[150.0257,-31.825,669.053],[150.0358,-31.8145,693.4526],[150.041,-31.8047,715.6216],[150.0412,-31.7986,744.3257],[150.0461,-31.7967,777.6956],[150.0497,-31.7865,766.0026],[150.0686,-31.7729,822.7344],[150.0701,-31.7651,892.1705],[150.0996,-31.7491,1124.5854],[150.1103,-31.7489,1154.3898],[150.1104,-31.7459,1193.6781],[150.1041,-31.743,1202.0217],[150.105,-31.7396,1216.3671],[150.0871,-31.7423,1183.1746],[150.0787,-31.7417,1159.4111],[150.0751,-31.7399,1198.4617],[150.0576,-31.7197,1153.6794],[150.0541,-31.7218,1154.0681],[150.0515,-31.7212,1142.7443],[150.0458,-31.7142,1116.303],[150.0447,-31.7109,1112.6782],[150.0502,-31.7044,1101.5831],[150.052,-31.7044,1010.4675],[150.0506,-31.7007,1054.1576],[150.0522,-31.698,1003.4612],[150.0476,-31.6977,904.342],[150.04,-31.691,963.5892],[150.0402,-31.6931,1036.6918],[150.0385,-31.6943,996.6416],[150.0309,-31.6915,1037.7957],[150.0283,-31.6852,945.8992],[150.0275,-31.6933,1059.2065],[150.0137,-31.6976,1071.0072],[150.0139,-31.7048,1071.2689],[150.01,-31.707,1122.3398],[150.0044,-31.7026,1103.5341],[150.0027,-31.7076,1111.3817],[149.9958,-31.7147,872.0473],[149.9905,-31.714,741.0815],[149.9937,-31.7218,795.1215],[149.9841,-31.7279,1030.8043],[149.9802,-31.7277,1046.0653],[149.9797,-31.7259,1043.0763],[149.9819,-31.7231,1051.8463],[149.9809,-31.7188,1064.8378],[149.9716,-31.7095,1023.9097],[149.9718,-31.7061,1060.3606],[149.9655,-31.701,1052.8806],[149.9583,-31.7002,1024.6199],[149.947,-31.7023,1066.2242],[149.9444,-31.7064,1093.9844],[149.9452,-31.709,1109.2926],[149.9417,-31.711,1092.9722],[149.9394,-31.7097,1102.3054],[149.9393,-31.7065,1111.3538],[149.9319,-31.7037,1007.0523],[149.9322,-31.7019,998.032],[149.9293,-31.6982,1067.2837],[149.9194,-31.7063,934.2719],[149.9048,-31.7068,887.4792],[149.8992,-31.6996,925.7034],[149.8926,-31.6985,999.0864],[149.8901,-31.6956,995.7539],[149.8837,-31.6946,1030.7687],[149.8788,-31.6918,990.0514],[149.8797,-31.6892,901.7987],[149.8778,-31.6833,951.8439],[149.8702,-31.683,973.5955],[149.8663,-31.679,1031.5187],[149.8636,-31.6674,990.9152],[149.8647,-31.6551,771.7784],[149.8665,-31.6515,783.2939],[149.8631,-31.6434,886.28],[149.8656,-31.638,890.2587],[149.8582,-31.6318,776.6074],[149.8514,-31.6287,797.3639],[149.8497,-31.624,831.1398],[149.8436,-31.6204,855.1737],[149.8409,-31.6161,743.0499],[149.8633,-31.6198,571.2038],[149.8636,-31.6178,582.5905],[149.8721,-31.6189,545.5634],[149.9011,-31.6244,462.8347],[149.8966,-31.6201,457.6523],[149.899,-31.6178,454.7618],[149.8954,-31.6133,451.6978],[149.8971,-31.6111,449.4904],[149.8952,-31.6093,451.0217],[149.8972,-31.608,449.0246],[149.8959,-31.6052,445.2268],[149.8968,-31.6025,442.5168],[149.8927,-31.5961,436.4932],[149.8929,-31.5926,434.3188],[149.8992,-31.5845,427.9774],[149.9017,-31.5842,427.6359],[149.9042,-31.5793,423.4625],[149.907,-31.5791,422.1773],[149.9081,-31.5767,420.3076],[149.9117,-31.5775,420.1196],[149.9113,-31.5727,416.1405],[149.9137,-31.5729,417.6248],[149.9147,-31.5711,414.613],[149.9123,-31.5665,412.7322],[149.9128,-31.5636,411.1176],[149.9148,-31.5629,410.1562],[149.9132,-31.5611,409.4627],[149.9149,-31.5601,409.3277],[149.9108,-31.5516,405.2056],[149.9032,-31.5456,402.8639],[149.9061,-31.5433,401.7967],[149.9036,-31.5386,399.4205],[149.9044,-31.5369,399.003],[149.8904,-31.5353,403.6631],[149.8926,-31.5371,403.4606],[149.876,-31.535,419.014],[149.8745,-31.5383,431.868],[149.8669,-31.5373,439.7816],[149.8829,-31.452,403.9288],[149.8965,-31.4511,379.7852],[149.913,-31.4534,369.886],[149.9138,-31.4481,368.4351],[149.9086,-31.4415,365.9603],[149.9083,-31.4351,363.834],[149.91,-31.4305,363.4258],[149.8995,-31.4251,360.8267],[149.897,-31.4223,359.4135],[149.8978,-31.4191,359.4099],[149.8941,-31.4144,356.5313],[149.8935,-31.4024,354.1922],[149.8889,-31.4004,353.0666],[149.8916,-31.3963,352.8787],[149.886,-31.3931,352.0758],[149.8843,-31.3879,349.067],[149.8806,-31.3859,350.2477],[149.8811,-31.3823,348.2258],[149.8833,-31.3818,347.9879],[149.8836,-31.3802,347.5441],[149.8831,-31.3759,347.138],[149.8809,-31.3754,346.5968],[149.8842,-31.3743,346.5946],[149.8827,-31.3726,349.1646],[149.8854,-31.3705,348.4151],[149.8804,-31.3717,349.0989],[149.8781,-31.3751,351.5424],[149.8717,-31.3759,350.6588],[149.8669,-31.38,355.0145],[149.8484,-31.3777,360.5229],[149.8481,-31.3793,359.5148],[149.8049,-31.3731,463.4768],[149.8032,-31.372,496.1757],[149.8131,-31.3166,416.1906],[149.8033,-31.3151,419.6757],[149.7908,-31.3157,431.3836],[149.7886,-31.3087,435.6215],[149.7905,-31.2922,427.7688],[149.7891,-31.2873,476.5836],[149.79,-31.2798,487.3724],[149.7889,-31.2699,458.4153],[149.7917,-31.2673,477.5038],[149.7928,-31.262,477.0536],[149.7903,-31.2501,444.0024],[149.7945,-31.2356,439.2115],[149.7959,-31.2239,443.1736],[149.8259,-31.2283,440.7249],[149.8307,-31.2098,416.4285],[149.8415,-31.2115,385.2275],[149.8444,-31.1967,331.0423],[149.8509,-31.1989,327.8229],[149.8808,-31.2024,312.8456],[149.8799,-31.1991,312.6343],[149.8756,-31.1959,311.1677],[149.8788,-31.194,311.7235],[149.8806,-31.1952,310.9419],[149.8802,-31.1913,311.0101],[149.8834,-31.19,309.9116],[149.8817,-31.1883,310.44],[149.8846,-31.1878,309.7832],[149.8837,-31.1862,309.9751],[149.8854,-31.1845,308.3868],[149.8849,-31.1828,309.402],[149.8883,-31.1795,307.3789],[149.8854,-31.1755,307.0421],[149.8875,-31.1731,307.1949],[149.8876,-31.1696,306.4632],[149.8934,-31.1657,305.1046],[149.8875,-31.1569,304.0676],[149.8938,-31.1523,302.5294],[149.8947,-31.1483,302.4297],[149.8937,-31.1466,301.8131],[149.8891,-31.1455,301.6259],[149.8903,-31.1376,300.6361],[149.8937,-31.1371,298.9199],[149.8898,-31.1339,298.6245],[149.8907,-31.129,298.0089],[149.888,-31.1271,297.3679],[149.8939,-31.1212,296.7358],[149.8925,-31.1184,295.9568],[149.8905,-31.1195,296.1289],[149.8877,-31.1184,296.1042],[149.8885,-31.1165,295.9349],[149.8929,-31.1142,294.9479],[149.8897,-31.1083,293.1482],[149.896,-31.1018,292.5696],[149.9045,-31.0973,291.5657],[149.8198,-31.0845,368.9601],[149.824,-31.0621,327.6584],[149.8265,-31.0589,292.2704],[149.8295,-31.0386,285.8012],[149.8252,-31.038,288.1108],[149.8229,-31.0336,288.412],[149.8299,-31.0344,285.111],[149.8468,-30.9388,277.1064],[149.8353,-30.9372,281.6221],[149.8382,-30.921,281.6323],[149.8272,-30.9196,290.6665],[149.8237,-30.9392,289.6645],[149.7577,-30.9304,317.0619],[149.7515,-30.9328,320.7167],[149.7434,-30.9299,324.7343],[149.742,-30.9389,320.6003],[149.7108,-30.9344,335.8317],[149.7093,-30.9332,336.1058],[149.7104,-30.9167,342.0269],[149.6968,-30.9145,344.8409],[149.6891,-30.923,353.4512],[149.6316,-30.9161,423.697],[149.6371,-30.9099,434.433],[149.6339,-30.9027,418.3722],[149.6367,-30.8886,419.906],[149.6411,-30.8869,425.2552],[149.6469,-30.8872,423.2411],[149.6517,-30.8902,409.6109],[149.6558,-30.8891,420.4993],[149.6558,-30.8862,429.0398],[149.6586,-30.884,435.9164],[149.5235,-30.8665,337.6981],[149.522,-30.8643,336.7213],[149.5185,-30.8632,338.9293],[149.4952,-30.8929,395.1896],[149.408,-30.8816,372.0992],[149.4062,-30.8757,357.139],[149.3112,-30.8635,397.7157],[149.2074,-30.9063,353.9231],[149.1549,-30.7849,289.1911],[149.1219,-30.7975,277.9132],[149.1228,-30.7855,272.6354],[149.1215,-30.7807,272.4535],[149.1272,-30.7777,271.4422],[149.1281,-30.7743,269.8974],[149.1209,-30.7564,264.9897],[149.1129,-30.755,262.4106],[149.1114,-30.7518,260.8832],[149.1171,-30.7416,257.1769],[149.1126,-30.7275,254.2459],[149.1151,-30.7226,256.3081],[149.1199,-30.7185,250.5837],[149.1197,-30.7162,255.2158],[149.117,-30.7135,249.1948],[149.0478,-30.7132,246.0375],[149.0362,-30.6561,228.7697],[149.0514,-30.6465,232.8736],[149.0525,-30.6398,231.7805],[149.0257,-30.6056,221.7044],[149.0068,-30.6132,217.174],[148.992,-30.6221,220.0516],[148.9695,-30.6194,213.3311],[148.9707,-30.6297,219.358],[148.9747,-30.6348,223.8977],[148.9483,-30.6547,225.9977],[148.9228,-30.6243,218.4359],[148.8111,-30.6734,213.3175],[148.7969,-30.7582,222.2369],[148.8329,-30.7994,234.2658],[148.8794,-30.8269,244.9229],[148.8201,-30.8716,237.9252],[148.8226,-30.8742,239.3218],[148.8425,-30.8783,242.0326],[148.8461,-30.8821,245.1902],[148.8568,-30.884,245.4108],[148.862,-30.8986,245.9197],[148.8668,-30.9043,248.8335],[148.8665,-30.9073,249.7989],[148.8731,-30.9137,252.4813],[148.8706,-30.9153,252.6107],[148.8716,-30.9176,253.2203],[148.8579,-30.9384,258.1883],[148.841,-30.9853,257.1659],[148.8396,-30.9947,259.6039],[148.8492,-30.9959,271.7839],[148.848,-31.004,267.5846],[148.8383,-31.0029,263.9426],[148.834,-31.0286,299.5033],[148.8418,-31.0316,311.968],[148.8437,-31.0358,324.6708],[148.9011,-31.0473,339.0699],[148.9027,-31.0538,380.8013],[148.9061,-31.0571,418.9001],[148.9075,-31.061,441.4592],[148.9033,-31.0683,441.6523],[148.9037,-31.0756,453.8269],[148.9084,-31.0798,455.0642],[148.9095,-31.0826,456.7266],[148.9143,-31.0842,456.0944],[148.9185,-31.0897,428.6848],[148.9174,-31.0945,424.6945],[148.9212,-31.0976,429.6698],[148.9173,-31.1014,429.4426],[148.9191,-31.1029,422.9174],[148.9169,-31.1098,443.1796],[148.9198,-31.1183,455.2885],[148.9193,-31.1281,561.9634],[148.9212,-31.1321,571.1211],[148.9201,-31.1349,567.1166],[148.9223,-31.1394,532.3544],[148.926,-31.1426,534.7001],[148.9238,-31.1453,532.7594],[148.9274,-31.1493,498.2072],[148.9268,-31.1529,511.6322],[148.9339,-31.1601,623.1156],[148.9358,-31.1723,694.2104],[148.941,-31.1764,650.9507],[148.9411,-31.179,648.9778],[148.9363,-31.185,742.162],[148.9345,-31.1957,912.8234],[148.9472,-31.2111,722.6766],[148.9552,-31.2136,728.1849],[148.951,-31.2213,650.3483],[148.9545,-31.2285,786.2891],[148.9635,-31.2311,768.2318],[148.9706,-31.2365,862.38],[148.9723,-31.2332,841.3858],[148.9801,-31.2305,824.9538],[148.9877,-31.2347,732.0222],[148.9948,-31.2411,787.5385],[148.9986,-31.2388,746.7082],[149.0014,-31.2411,723.9225],[149.0065,-31.241,634.9033],[149.0094,-31.2426,654.5561],[149.0195,-31.2405,911.8309],[149.0215,-31.2466,842.1729],[149.0261,-31.2511,816.9475],[149.0283,-31.2606,748.7075],[149.0318,-31.2634,763.3275],[149.0445,-31.266,764.0714],[149.0502,-31.2698,799.6887],[149.0542,-31.2689,871.6038],[149.0662,-31.2758,1131.9377],[149.0658,-31.2778,1089.9895],[149.0672,-31.2786,1060.5989],[149.064,-31.2835,987.1291],[149.0629,-31.2893,851.7907]]]]}
,"properties": {"GID_2": "AUS.5.141_1","GID_0": "AUS","country": "Australia","GID_1": "AUS.5_1","state": "NewSouthWales","NL_NAME_1": "NA","county": "Warrumbungle","VARNAME_2": "NA","NL_NAME_2": "NA","TYPE_2": "Shire","ENGTYPE_2": "Shire","CC_2": "18020","HASC_2": "NA","name": "Warrumbungle.county","area_km2": 12379.651,"hist_schema_id": "Elevation0-9000","hist_area_km2": {"225": 257.23,"250": 302.897,"275": 350.717,"300": 369.171,"325": 329.3,"350": 420.031,"375": 664.323,"400": 938.208,"425": 1067.128,"450": 1085.256,"475": 1053.489,"500": 1066.895,"525": 1051.37,"550": 870.564,"575": 712.225,"600": 516.354,"625": 282.063,"650": 195.465,"675": 137.875,"700": 113.647,"725": 96.353,"750": 76.153,"775": 65.706,"800": 53.16,"825": 42.736,"850": 37.146,"875": 31.103,"900": 27.836,"925": 24.44,"950": 16.648,"975": 17.565,"1000": 17.415,"1025": 16.366,"1050": 14.508,"1075": 17.982,"1100": 18.702,"1125": 11.182,"1150": 6.366,"1175": 3.011,"1200": 0.884,"1225": 0.162}}}