{"type": "Feature","bbox": [148.96370645717593,-34.003652731669888,149.08792811882552,-33.897092917648223],"geometry": {"type": "Polygon","coordinates": [[[149.02993838578061,-33.920347683691631,451.7544],[149.00874416862712,-33.925057509725718,373.0],[148.99696960354186,-33.923585689090061,373.0],[148.99019922861783,-33.921230776073,391.5748],[148.9851950384566,-33.920642047818745,373.0],[148.97813029940539,-33.925057509725718,373.0],[148.96370645717593,-33.965974123397018,373.0],[148.96694446257442,-33.991583802457484,385.3784],[148.97665847876976,-33.995116171983057,377.6358],[148.98696122321934,-33.98128105800788,549.1037],[148.99490905465194,-33.942719357353639,428.5473],[149.0022681578302,-33.950667188786184,373.0],[149.02081309783949,-33.990700710076084,375.5819],[149.02522855974649,-33.996882356745857,373.0],[149.03317639117904,-34.000709090398573,498.3756],[149.0484833257899,-34.003652731669888,394.9783],[149.0431847715015,-33.990700710076084,373.0],[149.03111584228913,-33.970389585303991,489.2213],[149.02581728800072,-33.952433373548956,394.8238],[149.03729748895887,-33.933299705285407,561.3892],[149.07674228199454,-33.913871672894714,434.9002],[149.08792811882552,-33.897092917648223,487.9506],[149.06467335278211,-33.900330923046653,400.0743],[149.02993838578061,-33.920347683691631,451.7544]]]}
,"properties": {"featurecla": "Reservoir","scalerank": 7,"name": "Wyangala Reservoir","name_abb": "Wyangala Res.","name_alt": null,"note": null,"delta": null,"dam_name": null,"year": 1971,"admin": null,"min_zoom": 5.7,"min_label": 6.7,"area_km2": 46.01031,"hist_schema_id": "Elevation0-9000","hist_area_km2": {"375": 27.66613,"400": 5.7692,"425": 3.64078,"450": 2.62057,"475": 2.07522,"500": 1.63559,"525": 1.17827,"550": 0.80898,"575": 0.38694,"600": 0.17589,"625": 0.05273}}}