{"type": "Feature","bbox": [151.3358,-25.4323,152.633,-24.5144],"geometry": {"type": "MultiPolygon","coordinates": [[[[152.049,-24.5264,0.0],[152.03,-24.53,0.0],[152.0268,-24.5283,0.0],[152.0143,-24.5144,0.0],[151.9995,-24.5155,0.0],[151.993,-24.522,1.4072],[151.9928,-24.5248,5.0921],[151.9906,-24.527,0.8473],[151.9964,-24.535,8.6827],[151.9942,-24.5365,9.8766],[151.9885,-24.5353,6.6266],[151.9865,-24.5363,7.2062],[151.9868,-24.538,9.7638],[151.9907,-24.5385,5.6975],[151.9929,-24.5404,4.574],[151.992,-24.5414,10.8674],[151.9881,-24.5404,6.9382],[151.9851,-24.5422,6.3198],[151.9852,-24.5435,6.6276],[151.9877,-24.544,4.443],[151.9869,-24.5495,5.6029],[151.9844,-24.5507,4.493],[151.9821,-24.5496,5.4305],[151.984,-24.5535,7.6304],[151.9776,-24.5563,6.2521],[151.9753,-24.5619,5.7788],[151.9692,-24.5687,6.7276],[151.9685,-24.5706,7.588],[151.9702,-24.5736,9.396],[151.9683,-24.5763,10.2196],[151.9687,-24.5802,9.2608],[151.9661,-24.581,8.3913],[151.9638,-24.5851,7.6595],[151.9592,-24.587,12.6847],[151.9886,-24.5915,30.4225],[151.9857,-24.6112,35.1218],[151.96,-24.6082,35.347],[151.9613,-24.6128,31.48],[151.9583,-24.6141,40.4921],[151.9585,-24.6162,39.2577],[151.9613,-24.6165,45.5809],[151.9659,-24.6247,48.6913],[151.9646,-24.6329,48.1545],[151.9605,-24.6308,34.7199],[151.9592,-24.6413,58.0785],[151.9696,-24.6412,55.495],[151.9813,-24.6448,72.4047],[151.9961,-24.6449,51.2675],[151.9954,-24.6495,48.4147],[151.9875,-24.6485,58.7274],[151.9864,-24.6557,51.9865],[151.9943,-24.6567,73.9806],[151.9908,-24.681,62.3087],[151.9607,-24.6765,146.0154],[151.9616,-24.679,126.7089],[151.9598,-24.6892,216.1414],[151.9621,-24.7029,365.4832],[151.9535,-24.702,228.4704],[151.9529,-24.7046,197.428],[151.9476,-24.7051,173.1935],[151.9423,-24.7077,121.6163],[151.9286,-24.7087,153.3511],[151.9193,-24.7282,279.0832],[151.919,-24.7326,268.1749],[151.9231,-24.7387,316.8769],[151.8988,-24.7442,157.7881],[151.8944,-24.7417,181.2557],[151.8924,-24.7425,181.7553],[151.8901,-24.7459,163.7382],[151.8933,-24.7497,139.0801],[151.894,-24.7537,154.2262],[151.8884,-24.7583,133.3255],[151.8844,-24.7687,109.3273],[151.8757,-24.7762,111.2386],[151.8721,-24.7755,112.283],[151.8707,-24.7773,116.3769],[151.8672,-24.7777,123.3462],[151.8654,-24.7801,128.5324],[151.8654,-24.784,129.4965],[151.8629,-24.7861,121.1342],[151.8494,-24.7864,149.2529],[151.8464,-24.7906,150.0559],[151.843,-24.7919,146.9087],[151.8399,-24.79,153.9137],[151.8417,-24.7792,148.508],[151.8317,-24.7733,149.6697],[151.8284,-24.7736,152.0669],[151.8264,-24.7719,150.3195],[151.8256,-24.7684,146.4071],[151.8143,-24.766,133.5217],[151.8114,-24.7592,133.052],[151.806,-24.7558,129.6307],[151.8008,-24.7462,133.4491],[151.7888,-24.7407,122.5584],[151.7509,-24.7359,148.1592],[151.7457,-24.7714,75.0],[151.7417,-24.764,75.2034],[151.7324,-24.7582,76.3551],[151.7259,-24.7518,75.0],[151.7189,-24.7356,76.1645],[151.7099,-24.7288,81.6996],[151.7062,-24.7206,83.5355],[151.7003,-24.7166,75.5],[151.6976,-24.7121,79.6823],[151.6863,-24.71,78.1158],[151.6812,-24.6987,76.9546],[151.6779,-24.6961,86.2193],[151.6734,-24.6967,82.9268],[151.6639,-24.7059,89.199],[151.6595,-24.7071,90.2428],[151.6544,-24.7063,85.6181],[151.6506,-24.7079,88.3202],[151.6442,-24.7144,118.7173],[151.6462,-24.7163,94.333],[151.6488,-24.715,90.556],[151.6509,-24.7162,105.8706],[151.6513,-24.7235,92.0111],[151.646,-24.7281,93.761],[151.6391,-24.7303,98.0311],[151.6345,-24.7248,165.1088],[151.6266,-24.7218,309.2947],[151.6257,-24.7192,311.3627],[151.6144,-24.7083,484.7853],[151.6115,-24.7085,497.8744],[151.6088,-24.7066,528.5537],[151.6088,-24.7044,545.2278],[151.606,-24.7048,526.6869],[151.5954,-24.6994,198.6466],[151.5802,-24.7038,226.5981],[151.5763,-24.7015,205.6823],[151.5693,-24.7097,248.485],[151.5654,-24.71,242.259],[151.5609,-24.7026,235.5953],[151.5528,-24.6977,201.8246],[151.5439,-24.6999,210.6859],[151.5336,-24.6956,256.3346],[151.5318,-24.6962,285.8184],[151.5273,-24.6919,452.6936],[151.5248,-24.6848,473.0486],[151.5212,-24.6815,532.9727],[151.5204,-24.6761,645.2707],[151.5167,-24.6739,682.24],[151.5149,-24.6692,693.9896],[151.5167,-24.6651,728.0778],[151.519,-24.6639,560.66],[151.5274,-24.6671,700.1339],[151.5283,-24.6611,616.68],[151.5331,-24.6605,536.1061],[151.5339,-24.6557,451.7933],[151.5421,-24.6457,563.3167],[151.5398,-24.6425,464.4291],[151.5399,-24.6394,366.489],[151.5434,-24.6326,558.2679],[151.5432,-24.6287,565.4594],[151.5412,-24.6268,581.6259],[151.5437,-24.6189,541.4444],[151.5377,-24.6147,609.7076],[151.5375,-24.6113,569.2785],[151.5346,-24.6083,538.3637],[151.5263,-24.602,694.7574],[151.52,-24.6013,672.7886],[151.5181,-24.5995,723.4705],[151.5146,-24.6012,697.21],[151.5087,-24.5959,694.876],[151.5051,-24.5948,704.2275],[151.5095,-24.5875,722.7518],[151.5087,-24.5827,696.9337],[151.5013,-24.5764,681.2715],[151.4979,-24.5758,688.0554],[151.4966,-24.5717,714.6983],[151.4983,-24.5695,687.1522],[151.4893,-24.5642,672.324],[151.4901,-24.5615,690.5013],[151.4853,-24.5524,663.6869],[151.4884,-24.5477,667.0865],[151.4888,-24.544,627.9178],[151.4836,-24.5384,546.2729],[151.4775,-24.536,571.0834],[151.4706,-24.5367,608.5278],[151.4663,-24.5395,587.2361],[151.4686,-24.5434,550.6251],[151.4659,-24.5514,489.9847],[151.4664,-24.554,475.4316],[151.4573,-24.5707,264.9698],[151.453,-24.5706,247.1169],[151.4388,-24.5631,271.5442],[151.4335,-24.5635,319.4305],[151.4355,-24.571,284.1848],[151.4419,-24.5777,260.7586],[151.4371,-24.5861,262.6939],[151.4303,-24.5935,261.0177],[151.4243,-24.5953,272.9397],[151.4113,-24.5952,335.0106],[151.4102,-24.605,378.0748],[151.4069,-24.6096,383.1162],[151.4078,-24.6129,363.8147],[151.4061,-24.6152,374.4473],[151.3972,-24.6168,315.9159],[151.3942,-24.6145,299.757],[151.3903,-24.6143,296.1334],[151.384,-24.6079,350.1366],[151.3809,-24.6117,303.1584],[151.3756,-24.6125,343.1803],[151.3718,-24.6083,402.9205],[151.367,-24.6122,389.4498],[151.3612,-24.6236,334.46],[151.3585,-24.6253,369.5145],[151.3577,-24.6307,387.6161],[151.3465,-24.6411,470.6929],[151.3448,-24.6467,595.4272],[151.3416,-24.6496,674.04],[151.3358,-24.6458,641.8619],[151.3407,-24.6534,594.5223],[151.3457,-24.6565,563.7605],[151.3491,-24.6677,492.4387],[151.355,-24.6725,505.1909],[151.3596,-24.6792,522.9984],[151.3521,-24.6837,496.3227],[151.346,-24.6967,459.5074],[151.3441,-24.7077,501.4756],[151.3491,-24.7148,535.2369],[151.3432,-24.7208,549.7155],[151.3482,-24.7285,527.737],[151.357,-24.7307,519.7016],[151.3677,-24.719,356.1152],[151.3663,-24.7107,400.2296],[151.3723,-24.7121,382.5699],[151.3812,-24.7073,389.2674],[151.3918,-24.7042,321.9959],[151.3931,-24.7021,285.5908],[151.3969,-24.7026,289.1183],[151.4015,-24.6987,274.3384],[151.4116,-24.6947,220.4408],[151.4203,-24.6988,197.0559],[151.4245,-24.6979,193.8004],[151.4289,-24.7023,212.0975],[151.4307,-24.7067,182.2592],[151.4296,-24.7119,213.2462],[151.4407,-24.729,263.4788],[151.4396,-24.7309,285.6219],[151.4411,-24.7329,237.2686],[151.4405,-24.7353,273.5637],[151.4432,-24.7386,258.084],[151.4415,-24.7399,260.5603],[151.4533,-24.7753,253.0569],[151.4509,-24.7792,323.3159],[151.4459,-24.7777,344.69],[151.4383,-24.7792,376.2354],[151.4366,-24.7777,368.2778],[151.4282,-24.7803,422.6201],[151.4262,-24.7783,434.7914],[151.4187,-24.7783,484.6718],[151.4205,-24.7837,477.6353],[151.427,-24.7911,472.4294],[151.4226,-24.7934,444.7632],[151.4242,-24.7996,482.8547],[151.4306,-24.803,447.366],[151.4303,-24.807,449.9992],[151.426,-24.8146,439.3054],[151.4271,-24.8203,452.2311],[151.4321,-24.8239,458.5318],[151.434,-24.8273,456.4174],[151.4337,-24.8355,482.6786],[151.4426,-24.8396,464.5006],[151.4458,-24.8393,478.9737],[151.4509,-24.8461,460.3],[151.4571,-24.8504,449.4872],[151.4605,-24.8489,402.8915],[151.4623,-24.851,404.9566],[151.4658,-24.8499,400.2716],[151.4683,-24.8514,402.6134],[151.4696,-24.8497,395.8101],[151.4728,-24.8506,395.1841],[151.4746,-24.8463,406.3364],[151.4787,-24.8442,452.8478],[151.4798,-24.8411,430.6408],[151.4845,-24.8424,424.7112],[151.486,-24.8478,400.9299],[151.4904,-24.8503,425.28],[151.4955,-24.8501,425.3652],[151.5121,-24.8427,493.866],[151.5154,-24.8394,453.902],[151.52,-24.8412,471.5783],[151.5212,-24.8392,484.3741],[151.5254,-24.8382,491.5399],[151.5253,-24.8359,506.1373],[151.5287,-24.8317,492.2784],[151.5365,-24.8358,449.316],[151.541,-24.8332,501.7457],[151.5461,-24.8329,463.583],[151.5507,-24.8358,507.8688],[151.5498,-24.8428,440.6776],[151.5584,-24.8514,467.9902],[151.5571,-24.8596,471.5175],[151.5658,-24.8626,443.5316],[151.5691,-24.8704,433.9261],[151.5661,-24.8736,441.6513],[151.566,-24.8758,435.336],[151.5697,-24.8816,429.4607],[151.5745,-24.881,443.296],[151.5764,-24.8834,505.5971],[151.5765,-24.893,524.7026],[151.5733,-24.8973,474.266],[151.5752,-24.9016,427.9449],[151.5753,-24.9116,502.8192],[151.5707,-24.9162,521.3994],[151.5695,-24.9248,506.2912],[151.5726,-24.9315,525.3502],[151.5679,-24.933,517.5039],[151.5673,-24.9375,488.0489],[151.5626,-24.9394,481.6391],[151.5473,-24.9416,495.9646],[151.5451,-24.945,487.4247],[151.5419,-24.9459,498.577],[151.5399,-24.9501,453.0706],[151.5328,-24.9452,445.5965],[151.5305,-24.9453,442.8819],[151.5252,-24.9522,487.9579],[151.5267,-24.9565,469.265],[151.5238,-24.9609,489.5181],[151.5239,-24.9631,501.4042],[151.534,-24.9734,463.6118],[151.5304,-24.9815,436.02],[151.5321,-24.9838,425.33],[151.5322,-24.9885,426.8053],[151.5356,-24.9921,433.4188],[151.5421,-24.9929,428.448],[151.5479,-24.9998,465.8985],[151.5513,-25.0016,459.9774],[151.5518,-25.005,474.2033],[151.556,-25.0097,422.3394],[151.555,-25.0142,466.5797],[151.5593,-25.0182,472.0178],[151.558,-25.0214,461.9116],[151.5593,-25.0244,474.6819],[151.556,-25.0374,502.2606],[151.5573,-25.0443,499.1341],[151.5563,-25.0475,501.6058],[151.5646,-25.0497,478.4655],[151.5612,-25.0591,516.4751],[151.5528,-25.0724,509.2911],[151.5502,-25.0819,483.6537],[151.5411,-25.0896,458.8344],[151.5401,-25.0921,478.4731],[151.5439,-25.0957,465.4359],[151.555,-25.0988,480.1357],[151.5592,-25.103,465.6306],[151.5616,-25.0992,449.9964],[151.5708,-25.1024,449.4814],[151.5787,-25.099,419.9819],[151.5844,-25.1002,370.8708],[151.5883,-25.0986,358.1133],[151.5988,-25.1027,393.5605],[151.5995,-25.1005,358.8161],[151.6092,-25.1031,255.0644],[151.6098,-25.1158,279.9413],[151.6176,-25.1149,243.2201],[151.619,-25.1174,251.3698],[151.6212,-25.1177,276.0258],[151.622,-25.1126,367.0764],[151.6496,-25.116,287.634],[151.6532,-25.0917,246.7939],[151.6573,-25.0943,250.4696],[151.6627,-25.0945,236.4582],[151.6632,-25.0887,284.414],[151.6715,-25.0877,275.4468],[151.6745,-25.084,270.685],[151.6769,-25.0838,323.348],[151.6778,-25.0879,356.3798],[151.6828,-25.0902,354.7952],[151.6918,-25.0833,244.9938],[151.6952,-25.0867,292.7179],[151.6946,-25.0921,470.5408],[151.7005,-25.093,467.1816],[151.7102,-25.0915,450.1819],[151.7139,-25.0903,384.9216],[151.7123,-25.0872,282.9505],[151.7187,-25.0829,206.3169],[151.7266,-25.0839,170.5683],[151.7293,-25.0789,164.6325],[151.7372,-25.0815,235.5536],[151.7378,-25.0755,164.4352],[151.7429,-25.0739,163.2031],[151.7733,-25.1103,391.083],[151.7777,-25.1089,448.9174],[151.7799,-25.114,435.5941],[151.7834,-25.1153,443.2635],[151.7849,-25.123,487.214],[151.782,-25.1307,434.8064],[151.7848,-25.1348,412.3149],[151.7849,-25.1452,427.1269],[151.7876,-25.1498,425.812],[151.7867,-25.1581,461.4891],[151.7944,-25.1592,467.1895],[151.7945,-25.1624,471.6518],[151.8008,-25.1646,385.0004],[151.8042,-25.1755,591.135],[151.8066,-25.1753,580.0633],[151.8094,-25.1726,523.0792],[151.8125,-25.1729,489.8136],[151.8235,-25.1868,533.1796],[151.8275,-25.1827,337.5685],[151.8306,-25.1818,309.9351],[151.8355,-25.1837,282.0263],[151.8387,-25.1826,195.2737],[151.8433,-25.1842,181.35],[151.8486,-25.1836,249.706],[151.8527,-25.1767,202.0007],[151.8505,-25.1746,198.9207],[151.8521,-25.1691,213.5138],[151.8487,-25.16,287.0966],[151.8562,-25.1444,309.0332],[151.8601,-25.1424,293.4581],[151.8648,-25.1448,346.013],[151.8645,-25.1477,338.4524],[151.8689,-25.1476,271.637],[151.87,-25.1506,298.2111],[151.8781,-25.1525,154.6044],[151.8855,-25.1497,132.3561],[151.8896,-25.1429,124.3502],[151.8953,-25.1418,143.1482],[151.9019,-25.1415,149.1755],[151.9064,-25.1466,108.6973],[151.9167,-25.1491,155.9545],[151.9154,-25.1541,130.6745],[151.9201,-25.1596,89.5134],[151.9242,-25.1592,94.8656],[151.9314,-25.1752,45.239],[151.9266,-25.1749,47.44],[151.9252,-25.1791,49.6878],[151.9233,-25.1802,53.1141],[151.918,-25.1754,55.8977],[151.9155,-25.1801,47.3928],[151.9103,-25.1844,51.5374],[151.9076,-25.1918,53.9331],[151.9146,-25.1948,57.4235],[151.9157,-25.1987,52.2419],[151.9107,-25.2011,53.6817],[151.9036,-25.1982,61.8995],[151.9025,-25.2024,58.7544],[151.8971,-25.2101,62.6735],[151.9048,-25.2139,98.8483],[151.9042,-25.2205,112.1162],[151.9017,-25.2245,115.2235],[151.9036,-25.2288,81.2354],[151.9001,-25.2306,83.7033],[151.9004,-25.2324,80.8328],[151.8921,-25.2342,85.6746],[151.8813,-25.2437,92.4571],[151.8835,-25.2518,94.8022],[151.8799,-25.2538,93.6519],[151.8811,-25.2571,97.2363],[151.8792,-25.266,100.8204],[151.8741,-25.2688,104.0801],[151.8725,-25.2732,104.397],[151.8806,-25.2761,112.0537],[151.8831,-25.2809,120.7526],[151.8914,-25.2881,185.0691],[151.8848,-25.2951,157.4737],[151.876,-25.2917,161.7732],[151.8711,-25.2937,159.0804],[151.8713,-25.2977,142.243],[151.8739,-25.3013,140.0602],[151.8727,-25.3022,129.3544],[151.8624,-25.3004,82.7991],[151.8612,-25.302,82.2751],[151.8648,-25.3055,81.6785],[151.8637,-25.3071,71.5438],[151.8651,-25.3097,73.8343],[151.8643,-25.3135,66.2673],[151.8683,-25.3212,67.2444],[151.8669,-25.3272,66.5924],[151.8642,-25.3311,65.677],[151.86,-25.3313,65.5],[151.8609,-25.3372,65.5],[151.866,-25.3389,65.782],[151.8686,-25.3431,65.3227],[151.8739,-25.3394,65.0],[151.8805,-25.3415,65.0],[151.8811,-25.3459,65.0],[151.8785,-25.3547,65.5015],[151.8806,-25.3603,65.0],[151.8837,-25.3613,65.0],[151.8881,-25.3602,65.0],[151.899,-25.3528,65.0],[151.9117,-25.3561,65.0],[151.9159,-25.3543,65.0],[151.9356,-25.3235,32.3699],[151.9427,-25.3042,41.221],[151.9473,-25.2959,35.9672],[151.9653,-25.2808,43.1302],[151.9736,-25.2793,41.9597],[151.9804,-25.2811,32.1879],[151.9969,-25.2909,32.3805],[152.0036,-25.2929,32.9719],[152.01,-25.2896,54.1622],[152.0124,-25.2857,31.3557],[152.0137,-25.279,26.05],[152.0126,-25.2741,27.1377],[152.0188,-25.2754,85.9005],[152.0252,-25.2735,120.9735],[152.0304,-25.2752,129.8557],[152.0363,-25.2797,128.8655],[152.0381,-25.2819,143.1503],[152.0375,-25.2843,139.6672],[152.0485,-25.2878,144.3578],[152.0509,-25.2958,156.066],[152.0532,-25.2959,161.0739],[152.0553,-25.2985,170.7742],[152.0593,-25.3083,155.5176],[152.0677,-25.3153,138.0691],[152.0733,-25.3155,158.5821],[152.0759,-25.3219,168.6081],[152.0798,-25.3192,155.1453],[152.0848,-25.3184,152.4457],[152.0854,-25.3147,158.1655],[152.0897,-25.3126,163.2114],[152.0975,-25.3224,163.6666],[152.106,-25.3281,143.0015],[152.1242,-25.3273,130.8566],[152.1317,-25.3344,118.1646],[152.1397,-25.3367,127.2522],[152.1412,-25.3386,115.7113],[152.1433,-25.3372,126.5792],[152.1672,-25.3366,141.7975],[152.1718,-25.3444,142.9337],[152.1705,-25.3522,152.1434],[152.1731,-25.3603,158.0009],[152.1693,-25.3661,146.1881],[152.1714,-25.3699,150.9931],[152.1807,-25.3779,152.3143],[152.1811,-25.3801,154.832],[152.1884,-25.3832,169.0781],[152.1991,-25.3957,121.5961],[152.2021,-25.3961,127.8389],[152.2051,-25.3928,133.0823],[152.2167,-25.3911,100.9503],[152.2206,-25.392,112.4484],[152.2229,-25.3949,117.8479],[152.2269,-25.3947,111.6823],[152.2281,-25.3974,106.1558],[152.2337,-25.4012,95.1832],[152.2387,-25.4001,89.3808],[152.248,-25.4031,121.5501],[152.2535,-25.403,106.3091],[152.2614,-25.4129,119.9854],[152.2715,-25.4192,113.0432],[152.2731,-25.4323,129.018],[152.2986,-25.4102,94.6688],[152.2989,-25.4084,94.4616],[152.3114,-25.4071,88.1711],[152.3123,-25.4058,84.1601],[152.3157,-25.4078,100.82],[152.32,-25.408,114.9021],[152.3212,-25.4047,105.5306],[152.3241,-25.4022,104.2469],[152.327,-25.4023,98.9265],[152.3361,-25.392,92.501],[152.3345,-25.3892,87.9537],[152.3372,-25.3857,85.6239],[152.3347,-25.3814,79.0867],[152.348,-25.3749,87.0139],[152.3544,-25.3659,75.5304],[152.3589,-25.3663,64.076],[152.3642,-25.3634,64.3871],[152.373,-25.363,60.799],[152.3735,-25.3572,59.243],[152.3703,-25.3558,58.229],[152.3722,-25.3531,56.2567],[152.3791,-25.3567,53.2183],[152.3795,-25.3554,60.0024],[152.3846,-25.3562,67.103],[152.4061,-25.3344,71.0438],[152.4095,-25.3126,44.5465],[152.4157,-25.2906,30.0832],[152.4512,-25.2306,24.1898],[152.4508,-25.2283,15.6336],[152.4632,-25.2204,13.9722],[152.466,-25.2163,22.39],[152.4688,-25.2152,15.6792],[152.4828,-25.2171,6.6941],[152.494,-25.2097,5.4537],[152.5019,-25.2108,3.99],[152.5039,-25.2089,5.4328],[152.5088,-25.2089,11.096],[152.5122,-25.2129,5.9272],[152.5103,-25.2158,1.5998],[152.512,-25.2188,3.3346],[152.5182,-25.2212,12.8258],[152.5243,-25.2154,4.7665],[152.5259,-25.2105,3.6764],[152.5335,-25.2127,5.8901],[152.5384,-25.2122,0.0],[152.5472,-25.2068,0.6103],[152.5479,-25.2049,4.1025],[152.5404,-25.1934,1.6846],[152.5403,-25.19,0.8532],[152.5428,-25.1853,2.8091],[152.5538,-25.1766,4.7139],[152.5555,-25.1717,1.1683],[152.5586,-25.1724,1.5286],[152.567,-25.1681,0.0],[152.578,-25.1669,1.1587],[152.5884,-25.1715,0.0],[152.6009,-25.1696,0.0],[152.6095,-25.1734,0.0],[152.6177,-25.1733,0.0],[152.624,-25.1701,0.0],[152.633,-25.1546,0.0],[152.633,-25.1518,0.0],[152.6162,-25.1414,4.7856],[152.5943,-25.1309,1.9417],[152.5771,-25.119,1.7007],[152.5583,-25.0985,1.4791],[152.5462,-25.0738,0.0],[152.543,-25.0774,0.0648],[152.5444,-25.0789,2.6748],[152.5435,-25.0807,8.0783],[152.5445,-25.0803,2.3551],[152.5455,-25.081,2.3551],[152.5446,-25.0812,2.3551],[152.5445,-25.0805,2.3551],[152.5437,-25.0809,2.3551],[152.5433,-25.0806,8.0783],[152.5432,-25.0801,8.0783],[152.5441,-25.079,2.6748],[152.5425,-25.0774,0.0648],[152.5379,-25.0793,1.5355],[152.536,-25.083,1.7643],[152.5369,-25.0846,1.83],[152.5369,-25.0854,1.83],[152.5344,-25.0864,2.6281],[152.5339,-25.0878,2.6281],[152.5351,-25.0874,2.6281],[152.5352,-25.0875,2.6281],[152.5344,-25.0881,2.7393],[152.5337,-25.0878,2.6281],[152.5344,-25.0861,7.8005],[152.5352,-25.0852,7.8005],[152.5368,-25.0851,1.83],[152.5358,-25.0832,1.7643],[152.5361,-25.0811,1.6337],[152.531,-25.0808,6.5448],[152.5274,-25.0731,1.4709],[152.5253,-25.0728,1.4783],[152.5233,-25.0695,2.3971],[152.5208,-25.0729,2.3882],[152.5153,-25.0741,3.1621],[152.5138,-25.0721,4.9599],[152.5127,-25.0724,8.4154],[152.5135,-25.0744,3.976],[152.5115,-25.0748,4.9736],[152.5115,-25.0743,4.9086],[152.5118,-25.074,4.9086],[152.5134,-25.0742,3.976],[152.5125,-25.0726,8.4154],[152.5127,-25.0722,8.4154],[152.5137,-25.0718,4.9599],[152.5154,-25.0722,3.0177],[152.5154,-25.0738,3.1621],[152.5177,-25.0725,2.2793],[152.5202,-25.0728,2.3882],[152.5238,-25.0688,2.3971],[152.5295,-25.0739,2.946],[152.5315,-25.08,0.0],[152.5368,-25.0772,0.9999],[152.5421,-25.0693,2.0223],[152.5472,-25.0688,0.0],[152.5507,-25.0737,0.0],[152.5489,-25.0694,0.0],[152.5392,-25.0597,6.387],[152.5109,-25.0177,0.0],[152.4967,-24.9925,0.0],[152.4914,-24.9799,11.3023],[152.4899,-24.9722,3.9061],[152.488,-24.97,1.1883],[152.4861,-24.9706,1.1883],[152.4865,-24.9654,3.2204],[152.4888,-24.9664,1.2109],[152.4857,-24.9462,3.506],[152.4868,-24.9304,0.0],[152.4946,-24.9163,0.0],[152.4921,-24.9112,11.1502],[152.4905,-24.899,1.2312],[152.4877,-24.8923,5.1519],[152.4876,-24.8868,4.6281],[152.4897,-24.8826,0.7818],[152.4879,-24.8822,11.9228],[152.4827,-24.8712,6.6952],[152.4834,-24.8574,8.5858],[152.4776,-24.8475,2.2167],[152.4789,-24.8405,3.1492],[152.4739,-24.8372,0.0],[152.4683,-24.8298,1.8609],[152.466,-24.8223,0.0],[152.4682,-24.8161,0.0],[152.4644,-24.8144,3.8615],[152.4608,-24.8079,0.8052],[152.4573,-24.8065,1.8507],[152.4559,-24.8026,0.9077],[152.4443,-24.7992,2.2686],[152.4342,-24.784,3.0768],[152.4212,-24.7753,7.8071],[152.4126,-24.7577,0.0],[152.4079,-24.7615,3.2573],[152.4016,-24.7607,3.2837],[152.4013,-24.7576,0.0],[152.3963,-24.7599,2.7055],[152.3907,-24.7587,1.7273],[152.3885,-24.76,1.0339],[152.3896,-24.76,4.3396],[152.3887,-24.7623,4.6285],[152.3844,-24.7631,1.7828],[152.3824,-24.7707,1.7924],[152.3868,-24.7779,0.0],[152.3869,-24.7806,0.0],[152.3844,-24.7914,0.344],[152.3855,-24.7924,7.0473],[152.3844,-24.7917,0.344],[152.3834,-24.7969,2.0883],[152.3813,-24.7966,0.0],[152.3817,-24.7831,0.0],[152.3776,-24.7683,0.0],[152.3836,-24.7561,5.2763],[152.3949,-24.7506,4.6499],[152.3912,-24.7477,3.8928],[152.3944,-24.7493,3.701],[152.3951,-24.7499,4.6499],[152.3956,-24.7534,1.8344],[152.3967,-24.7506,0.0],[152.3956,-24.7469,0.0],[152.3788,-24.732,0.0],[152.3663,-24.7305,0.0],[152.3466,-24.7325,0.0],[152.3438,-24.7352,0.0],[152.3493,-24.7328,0.0],[152.3601,-24.7331,0.0],[152.3628,-24.7318,0.0],[152.365,-24.7367,2.6518],[152.3534,-24.741,0.7747],[152.3455,-24.7397,1.6998],[152.3436,-24.7411,1.3192],[152.3385,-24.7395,0.6091],[152.3336,-24.7436,2.6668],[152.3332,-24.7428,3.0783],[152.3376,-24.7383,2.1024],[152.3398,-24.7387,0.6091],[152.3431,-24.7403,1.3192],[152.3445,-24.7378,0.0],[152.3477,-24.7381,0.0],[152.3037,-24.7267,1.7413],[152.269,-24.7087,2.1617],[152.2491,-24.6943,0.6348],[152.2288,-24.6727,0.0],[152.2063,-24.6572,0.0],[152.1995,-24.6535,5.7868],[152.1934,-24.6537,0.0],[152.1781,-24.6475,1.2615],[152.1514,-24.6292,0.0],[152.1363,-24.6144,0.0],[152.1114,-24.5844,0.0],[152.0962,-24.5709,4.7181],[152.0775,-24.5449,9.4158],[152.0661,-24.5236,9.0306],[152.0604,-24.5205,0.0],[152.0586,-24.5178,0.0],[152.0555,-24.522,0.0],[152.049,-24.5264,0.0]],
[[152.5352,-25.0875,2.6281],[152.5355,-25.0878,2.1654],[152.535,-25.0886,2.7393],[152.5342,-25.0884,2.7393],[152.5337,-25.0896,3.4734],[152.5341,-25.0883,2.7393],[152.5353,-25.0881,2.7393],[152.5352,-25.0875,2.6281]]],
[[[152.4924,-24.9265,0.0],[152.4922,-24.925,0.0],[152.491,-24.9264,0.0],[152.4957,-24.9316,0.0],[152.4944,-24.9279,0.0],[152.4924,-24.9265,0.0]]]]}
,"properties": {"GID_2": "AUS.7.10_1","GID_0": "AUS","country": "Australia","GID_1": "AUS.7_1","state": "Queensland","NL_NAME_1": "NA","county": "Bundaberg","VARNAME_2": "NA","NL_NAME_2": "NA","TYPE_2": "Region","ENGTYPE_2": "Region","CC_2": "31820","HASC_2": "AU.QL.BB","name": "Bundaberg.county","area_km2": 6450.325,"hist_schema_id": "Elevation0-9000","hist_area_km2": {"0": 545.829,"25": 1327.632,"50": 1053.342,"75": 892.623,"100": 761.744,"125": 521.615,"150": 293.861,"175": 209.591,"200": 162.548,"225": 128.341,"250": 104.218,"275": 86.065,"300": 66.391,"325": 50.504,"350": 42.195,"375": 36.27,"400": 34.031,"425": 31.734,"450": 28.056,"475": 23.715,"500": 15.278,"525": 7.721,"550": 5.857,"575": 5.319,"600": 4.568,"625": 3.99,"650": 3.315,"675": 2.313,"700": 1.349,"725": 0.27}}}