{"type": "Feature","bbox": [149.4705,-35.2562,150.3335,-34.5487],"geometry": {"type": "MultiPolygon","coordinates": [[[[150.0519,-35.0073,235.8403],[150.0545,-35.008,273.6286],[150.067,-35.0042,234.0397],[150.0858,-34.989,230.6231],[150.0788,-34.9759,235.2095],[150.0589,-34.9697,230.5045],[150.0558,-34.9677,262.8166],[150.0555,-34.9653,206.3009],[150.0611,-34.9512,244.3208],[150.0677,-34.9454,209.8618],[150.0678,-34.9365,205.7276],[150.0756,-34.9337,200.3696],[150.0882,-34.9249,187.9463],[150.0862,-34.914,195.8134],[150.0875,-34.9118,181.8414],[150.0918,-34.9113,216.426],[150.0853,-34.9089,177.9069],[150.0816,-34.905,171.4419],[150.0809,-34.9017,173.5164],[150.0876,-34.8962,172.9784],[150.0869,-34.8938,176.2708],[150.0822,-34.8935,164.9383],[150.0786,-34.8974,170.9994],[150.0757,-34.8976,163.2457],[150.0744,-34.8948,171.6479],[150.0658,-34.8901,175.8893],[150.0585,-34.8822,165.4696],[150.0528,-34.8822,165.5295],[150.0533,-34.8767,163.9662],[150.0516,-34.8703,173.1996],[150.0467,-34.868,155.1156],[150.0462,-34.8627,216.4329],[150.0406,-34.8602,144.6745],[150.0422,-34.8514,161.9919],[150.0374,-34.8439,179.9036],[150.0438,-34.8278,151.5155],[150.0395,-34.8216,141.9849],[150.0361,-34.8086,142.8457],[150.0383,-34.8049,136.7888],[150.0431,-34.8065,141.1362],[150.0467,-34.8047,152.5987],[150.0457,-34.8011,241.683],[150.0403,-34.7956,122.9478],[150.042,-34.7932,122.9364],[150.0529,-34.7851,121.7834],[150.0631,-34.7848,140.3513],[150.0669,-34.7828,117.7809],[150.0669,-34.7783,122.1284],[150.0618,-34.7746,118.8982],[150.0551,-34.7737,112.203],[150.0562,-34.7705,111.9079],[150.0679,-34.7672,119.687],[150.0742,-34.7681,108.6947],[150.0758,-34.7733,121.9442],[150.0817,-34.7739,120.1329],[150.0876,-34.7793,102.6088],[150.0929,-34.7808,121.3026],[150.1051,-34.7886,117.1641],[150.1093,-34.7985,95.2341],[150.1155,-34.7994,145.9901],[150.1214,-34.8037,101.3318],[150.1253,-34.808,92.6315],[150.1254,-34.8139,97.5753],[150.1274,-34.8176,89.1112],[150.1627,-34.8231,91.857],[150.1777,-34.8182,87.4376],[150.1937,-34.8197,109.2311],[150.2094,-34.8146,83.0095],[150.218,-34.8048,64.6168],[150.234,-34.8007,63.8564],[150.2367,-34.7936,79.5146],[150.2432,-34.7916,73.661],[150.2564,-34.7911,60.6936],[150.2679,-34.7744,56.5],[150.2765,-34.7692,56.5],[150.2842,-34.768,76.6812],[150.2878,-34.7647,56.5],[150.3056,-34.7673,56.0],[150.3102,-34.7721,56.0],[150.3147,-34.7742,33.331],[150.3136,-34.7699,56.0],[150.3289,-34.7608,56.0],[150.3335,-34.7524,56.0],[150.3256,-34.7442,108.109],[150.3143,-34.7408,58.9303],[150.3035,-34.7339,66.5559],[150.2945,-34.7366,85.1303],[150.2685,-34.7317,401.4479],[150.2704,-34.7329,335.6219],[150.2673,-34.7336,423.7364],[150.2688,-34.7347,378.5525],[150.2675,-34.7365,380.706],[150.2642,-34.7364,386.9499],[150.2628,-34.7389,410.3015],[150.258,-34.739,424.2076],[150.2567,-34.7414,377.4254],[150.2504,-34.7391,439.5482],[150.2433,-34.7405,437.0279],[150.2415,-34.7449,409.0054],[150.2343,-34.7457,467.8434],[150.2288,-34.7421,500.5548],[150.2268,-34.7467,431.3527],[150.2193,-34.7475,470.1437],[150.2159,-34.7454,483.8458],[150.2172,-34.7487,382.3437],[150.2145,-34.7502,388.9495],[150.2148,-34.7515,411.2897],[150.2038,-34.7558,452.4423],[150.2033,-34.7572,430.8439],[150.1978,-34.7557,439.5642],[150.194,-34.7513,449.8241],[150.1917,-34.7528,455.1615],[150.1926,-34.7547,464.407],[150.1893,-34.7546,472.7691],[150.191,-34.7572,456.3889],[150.1859,-34.7575,472.1947],[150.187,-34.7586,466.6268],[150.186,-34.7613,501.9866],[150.1835,-34.7616,481.721],[150.1806,-34.7647,494.4415],[150.1768,-34.763,491.053],[150.1738,-34.7677,502.1482],[150.1692,-34.7692,510.2354],[150.1729,-34.7487,554.8679],[150.1764,-34.7492,542.5184],[150.1781,-34.74,631.2902],[150.1795,-34.7402,619.1886],[150.1779,-34.7391,630.9204],[150.1785,-34.7354,603.7788],[150.1772,-34.7352,603.7788],[150.1785,-34.7281,608.7193],[150.1702,-34.7268,626.311],[150.1707,-34.7196,669.7911],[150.1411,-34.7153,665.3702],[150.1434,-34.7027,667.4105],[150.1249,-34.7004,636.7827],[150.1204,-34.6981,637.7114],[150.1167,-34.6996,636.8237],[150.118,-34.6932,672.2432],[150.1143,-34.6927,657.1739],[150.1152,-34.6879,625.4504],[150.1117,-34.6874,630.9047],[150.1126,-34.6836,632.1094],[150.0927,-34.6805,618.5034],[150.0985,-34.6551,622.4576],[150.0883,-34.6536,592.8456],[150.0815,-34.6493,590.4988],[150.0788,-34.6456,590.7434],[150.0779,-34.6404,594.1249],[150.0805,-34.6377,586.7],[150.0881,-34.6362,594.0145],[150.094,-34.6297,583.8173],[150.0996,-34.6273,582.2228],[150.097,-34.6214,580.6681],[150.1008,-34.6165,580.7546],[150.0901,-34.6143,578.2495],[150.0927,-34.6058,582.8234],[150.0953,-34.603,583.4368],[150.0953,-34.5999,580.3688],[150.0974,-34.5986,592.4557],[150.0933,-34.5877,581.2212],[150.099,-34.585,588.9639],[150.0976,-34.5799,588.3806],[150.0919,-34.5801,578.1735],[150.0921,-34.5829,579.1495],[150.0885,-34.5866,580.6933],[150.0829,-34.5823,582.2992],[150.0822,-34.5861,575.4558],[150.0895,-34.5954,605.4387],[150.0814,-34.5982,595.6928],[150.0815,-34.6021,590.2219],[150.0849,-34.6035,599.951],[150.0847,-34.6049,606.9144],[150.0809,-34.6065,590.7065],[150.0747,-34.6034,585.3388],[150.0663,-34.6029,612.9178],[150.0634,-34.6161,617.9912],[150.0582,-34.6172,636.6926],[150.0548,-34.6103,637.1174],[150.0514,-34.6098,614.3767],[150.0497,-34.6187,608.8892],[150.048,-34.6184,602.2204],[150.0476,-34.6202,603.3116],[150.0443,-34.6198,606.2098],[150.0447,-34.6172,590.6493],[150.0315,-34.6165,595.8706],[150.0202,-34.6199,594.308],[150.0093,-34.6187,592.4196],[150.0053,-34.6208,595.9285],[150.0041,-34.6263,597.3123],[149.9942,-34.6224,594.24],[149.9897,-34.6246,594.7059],[149.9832,-34.6314,602.1597],[149.9778,-34.6288,597.338],[149.9725,-34.6304,599.9239],[149.9687,-34.6229,601.8419],[149.9661,-34.6211,604.0077],[149.9629,-34.6226,615.2603],[149.9629,-34.6299,602.8409],[149.9574,-34.6292,620.8594],[149.957,-34.631,623.0466],[149.9494,-34.6301,619.2048],[149.949,-34.6326,611.6174],[149.9426,-34.6239,601.6021],[149.9403,-34.6253,604.4808],[149.8965,-34.6193,708.3367],[149.8954,-34.6251,775.0928],[149.886,-34.6238,698.7843],[149.8843,-34.6325,737.6358],[149.8821,-34.6322,722.4117],[149.8842,-34.6213,679.3862],[149.8779,-34.62,682.9487],[149.8689,-34.6143,779.8175],[149.8681,-34.6169,733.0891],[149.8649,-34.6177,717.6921],[149.866,-34.6122,750.241],[149.8617,-34.6116,705.2549],[149.86,-34.6062,722.766],[149.833,-34.6012,773.7095],[149.8299,-34.5985,778.0199],[149.8317,-34.6014,771.9877],[149.8276,-34.601,793.3103],[149.8241,-34.6186,744.3181],[149.8302,-34.6195,697.7865],[149.8317,-34.6145,719.5444],[149.8394,-34.6175,695.9697],[149.8396,-34.6135,696.1541],[149.8431,-34.6157,694.7814],[149.8501,-34.6158,692.4293],[149.8487,-34.6116,691.8257],[149.8572,-34.6119,690.0433],[149.8575,-34.615,695.4832],[149.8601,-34.6157,689.5364],[149.855,-34.6435,760.5048],[149.82,-34.6385,757.7129],[149.8172,-34.6532,873.9399],[149.7932,-34.6501,747.3377],[149.7939,-34.645,731.9921],[149.7976,-34.6401,723.8289],[149.799,-34.6353,730.3054],[149.8025,-34.6357,748.0892],[149.8043,-34.6254,726.7032],[149.7992,-34.6249,726.4558],[149.7997,-34.6164,711.9519],[149.8049,-34.6171,703.5982],[149.8106,-34.621,704.9086],[149.8137,-34.6051,731.0439],[149.8081,-34.6028,732.1408],[149.8025,-34.6055,712.8909],[149.7944,-34.6054,716.7805],[149.7904,-34.6038,725.2632],[149.7834,-34.6061,715.0246],[149.7818,-34.6051,751.5346],[149.7821,-34.6009,749.9792],[149.7711,-34.6041,717.0945],[149.7691,-34.6015,718.2808],[149.7605,-34.5975,726.9519],[149.7607,-34.5961,725.1465],[149.7592,-34.5989,729.8013],[149.7517,-34.5967,765.8464],[149.7523,-34.5936,751.1447],[149.7489,-34.5932,791.3089],[149.7493,-34.5854,750.8404],[149.7561,-34.5862,736.4562],[149.7551,-34.5838,737.8],[149.7591,-34.5832,790.0876],[149.7598,-34.5799,846.9327],[149.754,-34.5791,728.1903],[149.7548,-34.5765,733.2733],[149.7614,-34.5773,866.5751],[149.7567,-34.5692,798.1747],[149.7537,-34.5688,817.6712],[149.7528,-34.5728,736.2203],[149.7492,-34.572,731.004],[149.7487,-34.5702,733.5017],[149.7427,-34.5694,757.7689],[149.7431,-34.5672,746.9298],[149.7403,-34.5668,755.4165],[149.737,-34.5671,754.0765],[149.7356,-34.5699,764.8087],[149.7234,-34.5682,782.8142],[149.723,-34.5703,789.5312],[149.7187,-34.5697,801.4955],[149.72,-34.5625,778.2347],[149.7242,-34.5631,748.0748],[149.726,-34.5569,777.9863],[149.7309,-34.5576,741.4191],[149.7318,-34.5533,760.3658],[149.6996,-34.5487,797.9438],[149.6976,-34.5634,833.0336],[149.6859,-34.5617,812.0524],[149.6865,-34.5591,803.5674],[149.6602,-34.5556,866.6483],[149.6554,-34.5859,852.0757],[149.6475,-34.585,837.5134],[149.6459,-34.5927,826.0018],[149.637,-34.5915,841.3632],[149.6335,-34.6062,828.5937],[149.6284,-34.6055,820.1818],[149.6269,-34.6149,850.859],[149.6223,-34.6205,846.9584],[149.6235,-34.624,824.5676],[149.6194,-34.6266,824.0341],[149.6213,-34.6284,822.6121],[149.6181,-34.6447,795.6829],[149.6053,-34.643,835.8331],[149.6059,-34.6395,822.2119],[149.6026,-34.6338,806.0505],[149.6038,-34.6295,825.3152],[149.59,-34.6272,783.5824],[149.5854,-34.6288,787.178],[149.5883,-34.6131,786.002],[149.5701,-34.6107,778.5554],[149.5709,-34.6077,776.8035],[149.5572,-34.6045,729.2271],[149.5555,-34.6073,728.567],[149.5582,-34.61,734.3596],[149.5554,-34.6123,727.0696],[149.5538,-34.6194,732.9801],[149.5496,-34.6202,725.6589],[149.549,-34.6255,719.0781],[149.5443,-34.6271,716.5892],[149.5377,-34.6251,713.1027],[149.5375,-34.6297,718.0797],[149.534,-34.6311,716.4351],[149.5347,-34.6344,720.7402],[149.5313,-34.6364,714.5435],[149.527,-34.6345,706.0423],[149.529,-34.6363,712.0249],[149.5282,-34.6398,710.9744],[149.5271,-34.6408,710.9744],[149.5254,-34.6397,703.8185],[149.5202,-34.6454,699.1465],[149.5244,-34.6509,697.1384],[149.5239,-34.6535,693.2216],[149.5209,-34.6559,695.7044],[149.5228,-34.6577,690.6756],[149.5236,-34.6651,690.3379],[149.519,-34.6643,680.678],[149.5151,-34.6665,680.9353],[149.5124,-34.6637,674.9225],[149.5068,-34.6618,673.1644],[149.5089,-34.657,671.735],[149.5038,-34.6543,673.7751],[149.4997,-34.6555,668.3986],[149.5,-34.6603,667.6679],[149.4954,-34.6676,665.7592],[149.4962,-34.6716,666.6635],[149.5042,-34.6798,670.1008],[149.5157,-34.6805,662.0465],[149.5149,-34.6852,661.8707],[149.5199,-34.6864,660.1841],[149.5213,-34.6884,665.6899],[149.5202,-34.6933,660.752],[149.5278,-34.693,663.7065],[149.5256,-34.6958,659.641],[149.5276,-34.704,657.6577],[149.5297,-34.7051,657.8755],[149.528,-34.7079,657.3679],[149.5335,-34.7111,656.2393],[149.5324,-34.7132,659.0204],[149.5202,-34.7118,680.8286],[149.5161,-34.7332,709.0437],[149.5079,-34.732,730.5383],[149.5072,-34.7433,738.3434],[149.5012,-34.7752,776.9194],[149.5079,-34.7763,702.5752],[149.5052,-34.7899,697.7586],[149.4987,-34.7904,696.6973],[149.4977,-34.7955,705.8829],[149.4992,-34.7974,710.6544],[149.4953,-34.8063,778.0418],[149.5022,-34.8073,767.6475],[149.5011,-34.8133,788.7009],[149.5035,-34.8136,790.0919],[149.5027,-34.8172,772.6154],[149.5079,-34.8179,789.6072],[149.5026,-34.8312,778.6226],[149.4989,-34.8307,799.4106],[149.4969,-34.8403,811.8256],[149.4912,-34.8395,780.6069],[149.4894,-34.8487,768.5656],[149.4721,-34.8494,721.7601],[149.4705,-34.8583,712.9948],[149.4879,-34.8616,746.2084],[149.4889,-34.8501,756.6385],[149.498,-34.8514,784.4152],[149.4983,-34.8542,780.0127],[149.5039,-34.858,779.9236],[149.5049,-34.8655,792.4769],[149.5223,-34.8681,730.455],[149.5212,-34.8736,737.3027],[149.5363,-34.8757,730.7218],[149.5374,-34.8706,735.8145],[149.5426,-34.8713,729.0555],[149.5282,-34.8861,741.0027],[149.5199,-34.8914,758.3325],[149.5201,-34.8928,758.3325],[149.5234,-34.8929,748.0441],[149.5213,-34.9071,752.7283],[149.5264,-34.9079,756.714],[149.5247,-34.9179,760.3732],[149.541,-34.9208,760.8214],[149.541,-34.9249,764.1898],[149.5406,-34.9268,755.1016],[149.5368,-34.9262,779.1547],[149.5356,-34.9326,763.3658],[149.5264,-34.931399999999996,780.1622],[149.526,-34.9332,775.1824],[149.5284,-34.9335,782.3382],[149.5271,-34.9391,770.4613],[149.5236,-34.9395,767.3188],[149.5299,-34.9432,765.9642],[149.5286,-34.9523,773.0023],[149.525,-34.9623,803.947],[149.519,-34.9662,811.7896],[149.5248,-34.9669,836.0654],[149.5247,-34.9697,852.5602],[149.5408,-34.9719,838.7514],[149.5405,-34.9733,842.0925],[149.5512,-34.9756,895.3844],[149.5469,-34.9928,887.9651],[149.5523,-34.9937,859.7957],[149.5493,-35.0092,881.6791],[149.5505,-35.0094,896.6505],[149.5383,-35.0686,720.756],[149.5567,-35.0712,789.3856],[149.5499,-35.1043,778.4471],[149.5446,-35.1035,764.5364],[149.5431,-35.1108,736.5446],[149.5451,-35.1111,744.2955],[149.5442,-35.1136,733.9818],[149.5598,-35.1155,769.7499],[149.5574,-35.1273,773.1389],[149.5534,-35.1267,784.475],[149.5492,-35.1405,789.3978],[149.5424,-35.1524,836.8448],[149.56,-35.1548,814.581],[149.5591,-35.1593,830.2156],[149.5635,-35.1599,822.4744],[149.5689,-35.1598,806.7157],[149.5725,-35.1535,778.5274],[149.591,-35.1567,786.8093],[149.5929,-35.1448,752.565],[149.5998,-35.1436,751.2256],[149.6018,-35.1362,739.6069],[149.6071,-35.1297,737.0462],[149.6108,-35.1302,748.858],[149.6119,-35.1333,748.7315],[149.6151,-35.1337,754.7307],[149.6153,-35.1324,754.4538],[149.6315,-35.1346,823.8265],[149.6348,-35.1169,787.637],[149.6413,-35.1177,766.1755],[149.6427,-35.1128,743.891],[149.6447,-35.1145,727.4172],[149.6528,-35.1156,710.3677],[149.6531,-35.1236,701.8458],[149.6607,-35.1379,684.7894],[149.6635,-35.1383,682.5392],[149.6645,-35.1418,685.6259],[149.6686,-35.1432,678.872],[149.6718,-35.1422,673.9348],[149.6721,-35.1453,671.1818],[149.6758,-35.1465,668.6687],[149.6793,-35.1511,671.1497],[149.6861,-35.1527,664.6038],[149.6886,-35.159,661.7593],[149.6997,-35.1602,654.1345],[149.6992,-35.1628,655.9901],[149.7094,-35.1696,647.9145],[149.7077,-35.175,640.9337],[149.7184,-35.1782,633.8171],[149.7201,-35.1805,630.6091],[149.731,-35.1828,618.6494],[149.7326,-35.1798,617.7322],[149.7388,-35.1761,647.739],[149.7446,-35.1795,615.7972],[149.7458,-35.1769,621.1053],[149.7493,-35.1772,613.2169],[149.7534,-35.1748,614.1458],[149.7562,-35.1708,605.4953],[149.7593,-35.1704,605.1107],[149.7626,-35.173,605.8949],[149.766,-35.171,608.4638],[149.7715,-35.1752,604.0846],[149.7707,-35.1767,614.5734],[149.7729,-35.1786,609.5716],[149.7703,-35.1795,612.7653],[149.7713,-35.1852,604.4061],[149.7699,-35.1875,605.9466],[149.7715,-35.1893,604.4194],[149.7692,-35.1912,605.5668],[149.7712,-35.192,598.21],[149.7678,-35.1962,592.4188],[149.7759,-35.1965,589.2269],[149.7806,-35.1931,584.6528],[149.7842,-35.1951,584.136],[149.7867,-35.1953,585.3185],[149.79,-35.1928,584.333],[149.7959,-35.1948,581.1459],[149.7984,-35.2005,580.1324],[149.7943,-35.2014,579.7699],[149.794,-35.203,578.9916],[149.7989,-35.2078,602.428],[149.8071,-35.2108,593.6637],[149.815,-35.2107,583.7219],[149.8231,-35.2062,585.8573],[149.8355,-35.207,573.6444],[149.8393,-35.2109,575.2048],[149.8461,-35.2143,580.3174],[149.8431,-35.2216,571.8051],[149.8497,-35.2226,568.3469],[149.848,-35.2264,566.3006],[149.8494,-35.2287,565.9744],[149.8473,-35.2309,565.5909],[149.8497,-35.2321,565.7026],[149.8458,-35.2402,562.7398],[149.8489,-35.2465,573.4339],[149.852,-35.2482,584.9458],[149.8584,-35.2484,562.9426],[149.8649,-35.2528,566.4638],[149.875,-35.2533,561.6658],[149.8828,-35.2562,569.6684],[149.8928,-35.2471,564.6046],[149.8916,-35.2453,559.2047],[149.8873,-35.2452,561.6371],[149.8823,-35.2417,566.0001],[149.8807,-35.2388,562.3464],[149.8827,-35.2353,556.7979],[149.8951,-35.2315,558.6431],[149.8973,-35.2269,555.4798],[149.9005,-35.2247,566.0778],[149.9109,-35.2263,571.1396],[149.9176,-35.2249,559.8844],[149.9203,-35.2277,553.174],[149.9141,-35.2335,576.4949],[149.9094,-35.2348,567.2369],[149.8974,-35.2343,559.0798],[149.8974,-35.2392,565.0024],[149.9018,-35.2429,553.6556],[149.9049,-35.2428,552.0954],[149.9156,-35.241,550.7841],[149.919,-35.2354,548.9374],[149.922,-35.2373,557.4487],[149.9269,-35.2375,552.2168],[149.9332,-35.2329,550.0824],[149.9382,-35.2234,561.2374],[149.9447,-35.2201,565.5668],[149.9475,-35.2139,543.9333],[149.9521,-35.2096,554.6138],[149.9531,-35.2033,550.2968],[149.9513,-35.1923,539.2007],[149.954,-35.1842,538.665],[149.9525,-35.1785,537.9465],[149.9495,-35.1755,540.8407],[149.9413,-35.1722,536.8792],[149.934,-35.1656,534.4366],[149.9309,-35.1524,546.7017],[149.9316,-35.15,544.2457],[149.9532,-35.1513,537.4814],[149.9609,-35.1502,528.891],[149.9668,-35.1603,537.9351],[149.9734,-35.1649,530.1287],[149.9784,-35.1662,559.8519],[149.9922,-35.162,536.6896],[149.9933,-35.1578,523.7946],[149.9912,-35.1497,522.8005],[149.9961,-35.1428,534.4038],[150.0108,-35.1398,556.5456],[150.0141,-35.1314,512.1107],[150.0183,-35.1321,501.8782],[150.0239,-35.1299,499.5529],[150.0309,-35.1313,506.9254],[150.0351,-35.1285,526.9421],[150.0359,-35.1246,480.979],[150.0315,-35.123,483.984],[150.0313,-35.1197,502.6568],[150.0204,-35.1217,472.7149],[150.018,-35.1191,488.1784],[150.017,-35.1137,456.6649],[150.0186,-35.108,527.7106],[150.0203,-35.1058,461.3979],[150.0265,-35.1044,496.7998],[150.0278,-35.1002,493.9902],[150.0267,-35.0953,450.7728],[150.0144,-35.0987,439.2736],[150.011,-35.1016,479.4089],[149.9971,-35.1024,418.3582],[149.9912,-35.0996,431.6302],[149.9887,-35.0947,383.0069],[149.9863,-35.0959,380.7758],[149.9806,-35.095,372.6539],[149.9805,-35.089,369.2216],[149.9837,-35.0885,359.7885],[149.9843,-35.0844,466.2413],[149.9803,-35.0794,382.6219],[149.9774,-35.0661,353.4622],[149.9806,-35.065,339.9448],[149.9863,-35.0659,466.3642],[149.9906,-35.0683,368.3757],[149.9921,-35.0739,472.0584],[149.9968,-35.0758,301.0792],[150.0062,-35.0683,300.0083],[150.0113,-35.0674,295.2988],[150.0227,-35.0555,297.028],[150.0286,-35.0542,269.8648],[150.0291,-35.0518,323.8944],[150.0242,-35.0458,268.8574],[150.0254,-35.0415,277.4345],[150.0292,-35.0384,320.1464],[150.0298,-35.0319,294.9973],[150.0281,-35.0267,272.5448],[150.0247,-35.0252,282.6418],[150.0223,-35.0214,254.7521],[150.0244,-35.0121,268.1229],[150.0241,-35.0035,253.0508],[150.036,-35.0034,250.4421],[150.0382,-35.0005,241.2642],[150.0431,-34.9995,252.2189],[150.0519,-35.0073,235.8403]]]]}
,"properties": {"GID_2": "AUS.5.53_1","GID_0": "AUS","country": "Australia","GID_1": "AUS.5_1","state": "NewSouthWales","NL_NAME_1": "NA","county": "GoulburnMulwaree","VARNAME_2": "NA","NL_NAME_2": "NA","TYPE_2": "Area","ENGTYPE_2": "Area","CC_2": "13310","HASC_2": "NA","name": "GoulburnMulwaree.county","area_km2": 3220.107,"hist_schema_id": "Elevation0-9000","hist_area_km2": {"25": 0.052,"50": 2.038,"75": 1.254,"100": 2.194,"125": 3.03,"150": 3.795,"175": 4.056,"200": 4.316,"225": 4.734,"250": 5.55,"275": 5.272,"300": 5.933,"325": 6.368,"350": 6.698,"375": 8.334,"400": 9.658,"425": 10.511,"450": 11.433,"475": 12.354,"500": 15.568,"525": 28.578,"550": 68.432,"575": 174.287,"600": 315.854,"625": 400.772,"650": 412.122,"675": 473.076,"700": 403.095,"725": 263.714,"750": 184.253,"775": 128.545,"800": 86.61,"825": 62.94,"850": 48.992,"875": 24.562,"900": 11.623,"925": 5.004,"950": 2.762,"975": 1.285,"1000": 0.434}}}