{"type":"Feature","properties":{"GID_2":"AUS.11.34_1","GID_0":"AUS","country":"Australia","GID_1":"AUS.11_1","state":"WesternAustralia","NL_NAME_1":"NA","county":"Cue","VARNAME_2":"NA","NL_NAME_2":"NA","TYPE_2":"Shire","ENGTYPE_2":"Shire","CC_2":"52380","HASC_2":"AU.WA.CU","name":"Cue.county"},
"geometry":{"type": "MultiPolygon","coordinates": [[[[118.8433,-27.3132,500.5232],[118.8009,-27.3129,526.4435],[118.801,-27.2267,489.5966],[118.5753,-27.227,491.9525],[118.5753,-27.1399,470.8834],[118.5889,-27.1399,467.7458],[118.5889,-27.0158,455.1942],[118.5079,-27.0158,452.797],[118.5073,-26.9991,450.1798],[118.3277,-26.999,444.327],[118.3277,-26.9897,443.6264],[118.1579,-26.9897,494.4328],[118.1579,-26.9927,487.8882],[117.9987,-26.9927,462.5898],[117.9992,-26.8574,490.5733],[117.9947,-26.8574,492.6563],[117.9738,-26.808,502.4933],[117.9724,-26.7973,513.3835],[117.9733,-26.776,498.5895],[117.6216,-26.776,529.6945],[117.6216,-26.6261,469.7193],[117.5411,-26.6261,460.8206],[117.5411,-26.7709,486.6583],[117.4117,-26.771,496.0325],[117.4117,-26.7002,462.2627],[117.3467,-26.7002,464.8509],[117.3467,-26.7598,483.313],[117.3265,-26.7598,474.1339],[117.3265,-26.8049,477.8307],[117.294,-26.8049,492.8904],[117.2942,-26.9186,507.0882],[117.3075,-26.9185,518.0875],[117.3075,-26.969,515.2097],[117.303,-26.9691,521.3288],[117.3017,-27.2296,462.1575],[117.334,-27.2306,444.7076],[117.334,-27.2652,423.3609],[117.256,-27.2652,428.6021],[117.256,-27.2938,413.7225],[117.1772,-27.2938,404.2214],[117.1772,-27.4645,384.8215],[117.1666,-27.4645,381.8814],[117.1666,-27.6087,425.1695],[117.3409,-27.6087,456.7236],[117.3409,-27.687,495.2992],[117.3858,-27.687,504.3768],[117.3857,-27.7596,480.9547],[117.4329,-27.7596,473.0993],[117.4329,-27.687,493.8798],[117.5672,-27.687,444.1825],[117.5672,-27.5749,453.6108],[117.5911,-27.5749,438.2407],[117.5911,-27.5783,437.9054],[117.6746,-27.5783,413.6717],[117.6745,-27.6419,421.1783],[117.623,-27.6424,440.7554],[117.6232,-27.7829,425.9198],[117.6861,-27.7833,429.0923],[117.6864,-27.7008,411.8764],[117.8501,-27.701,416.2815],[117.8486,-27.7366,424.0027],[117.965,-27.7372,408.9841],[117.965,-27.8265,412.5508],[118.005,-27.8265,409.7742],[118.0033,-27.7646,411.1011],[118.116,-27.7617,408.9518],[118.116,-27.7635,409.1554],[118.1364,-27.7635,409.1873],[118.1364,-27.782,409.1053],[118.2019,-27.782,408.6601],[118.2019,-27.799,409.2535],[118.386,-27.7979,415.1048],[118.3865,-27.7797,419.4012],[118.5566,-27.7798,435.5921],[118.5566,-27.7612,436.7134],[118.6318,-27.7612,451.5134],[118.6317,-27.7788,452.7754],[118.7381,-27.7786,496.0323],[118.737,-27.6866,511.2846],[118.6789,-27.6873,474.3393],[118.6793,-27.5448,503.8755],[118.682,-27.5448,505.736],[118.682,-27.4889,546.6532],[118.6794,-27.488,544.1375],[118.6778,-27.4332,549.3998],[118.6796,-27.4331,550.8088],[118.6819,-27.3733,545.5057],[118.8433,-27.3733,497.2022],[118.8433,-27.3132,500.5232]]]]}}