{"type": "Feature","bbox": [116.7848,-34.8512,118.4103,-34.3989],"geometry": {"type": "MultiPolygon","coordinates": [[[[118.4103,-34.405,129.8919],[117.6858,-34.4058,204.7919],[117.6829,-34.4047,206.3616],[117.6757,-34.4057,209.1737],[117.6757,-34.4113,213.9952],[117.6494,-34.4114,237.499],[117.6495,-34.4139,240.6896],[117.633,-34.4139,248.8193],[117.633,-34.408,249.5028],[117.6245,-34.408,255.7676],[117.6244,-34.3996,251.5446],[117.6061,-34.3996,258.6699],[117.606,-34.4029,256.1476],[117.5778,-34.4028,264.7576],[117.5762,-34.3991,267.6468],[117.5642,-34.3989,276.6241],[117.5641,-34.4017,281.6816],[117.5584,-34.4017,262.5241],[117.5577,-34.3995,263.0607],[117.5559,-34.4013,263.6085],[117.5319,-34.4014,272.446],[117.5319,-34.4083,263.2156],[117.52,-34.4083,261.6891],[117.52,-34.4016,268.2365],[117.5074,-34.4017,275.0155],[117.5074,-34.4291,244.7934],[117.4837,-34.4291,252.2668],[117.4836,-34.4435,255.2461],[117.4737,-34.4377,242.8293],[117.4738,-34.4628,274.7737],[117.4222,-34.4632,254.4872],[117.4222,-34.4766,250.3652],[117.3526,-34.4766,219.9299],[117.3527,-34.4498,219.5011],[117.3193,-34.4494,236.5651],[117.3191,-34.4538,235.2966],[117.2918,-34.4538,214.9067],[117.2918,-34.4554,214.4402],[117.2851,-34.4569,214.0564],[117.2859,-34.4613,216.648],[117.2876,-34.4615,215.5392],[117.2869,-34.4641,215.0699],[117.2665,-34.4641,225.4927],[117.2675,-34.4502,214.8745],[117.2657,-34.4491,214.9464],[117.2657,-34.4405,215.5735],[117.224,-34.4404,226.5724],[117.224,-34.4549,237.2882],[117.1916,-34.4548,219.9863],[117.1894,-34.4558,223.0148],[117.189,-34.4645,221.2756],[117.151,-34.4646,246.5243],[117.151,-34.4484,223.9508],[117.0645,-34.4526,231.0246],[116.9636,-34.4522,235.8006],[116.9636,-34.4543,224.7688],[116.9498,-34.4543,207.0323],[116.9497,-34.444,194.3131],[116.8935,-34.444,205.017],[116.8932,-34.4846,161.3178],[116.8888,-34.4835,162.1367],[116.8831,-34.4886,163.6531],[116.8832,-34.491,163.246],[116.8856,-34.4929,162.7478],[116.8824,-34.4987,159.3394],[116.8781,-34.4969,162.5103],[116.8755,-34.4981,159.7465],[116.8757,-34.5001,162.1209],[116.8713,-34.5004,158.6396],[116.8715,-34.5032,168.3444],[116.8667,-34.5029,163.9375],[116.8656,-34.5069,159.8075],[116.8617,-34.5063,157.8834],[116.8627,-34.5109,160.3505],[116.8669,-34.5112,173.81],[116.8688,-34.5132,158.8326],[116.8653,-34.5175,162.3013],[116.8669,-34.5213,164.5763],[116.8632,-34.52,157.9552],[116.845,-34.5247,155.0789],[116.8458,-34.5265,159.9239],[116.8484,-34.527,153.1835],[116.848,-34.531,154.3112],[116.8508,-34.5309,157.2005],[116.8513,-34.533,154.5057],[116.8434,-34.5327,167.9814],[116.8444,-34.5423,163.309],[116.8349,-34.5432,163.1432],[116.8346,-34.5456,156.8547],[116.84,-34.5469,155.858],[116.8405,-34.5527,152.407],[116.8392,-34.5541,151.3979],[116.8356,-34.5532,157.33],[116.834,-34.5556,153.6905],[116.8349,-34.5693,160.1405],[116.8289,-34.571,153.6691],[116.8328,-34.5746,152.2971],[116.8205,-34.5732,146.153],[116.8181,-34.5771,148.2226],[116.8112,-34.5743,150.3129],[116.8136,-34.5786,148.5676],[116.809,-34.5798,148.6718],[116.8097,-34.5839,151.6862],[116.807,-34.5844,147.0346],[116.8061,-34.5864,148.3823],[116.8084,-34.5867,147.7976],[116.8089,-34.5888,152.3328],[116.8058,-34.5887,144.7072],[116.8002,-34.5935,149.3536],[116.7972,-34.5902,144.0966],[116.7956,-34.5911,153.146],[116.7967,-34.5942,146.3173],[116.7934,-34.5958,143.7363],[116.7973,-34.5981,146.9621],[116.7949,-34.5993,142.434],[116.7956,-34.601,143.306],[116.8012,-34.6042,161.9593],[116.7999,-34.608,153.0623],[116.8052,-34.6109,151.9044],[116.8061,-34.6164,157.2154],[116.8072,-34.617,146.1661],[116.8085,-34.6154,145.6368],[116.8105,-34.6167,145.5453],[116.8105,-34.619,143.7718],[116.8136,-34.62,145.7693],[116.8157,-34.6236,146.5187],[116.8136,-34.6255,144.3734],[116.8099,-34.6229,145.9795],[116.8036,-34.626,151.1408],[116.7977,-34.6318,141.7717],[116.7973,-34.6341,141.4419],[116.7998,-34.636,142.7529],[116.8048,-34.6344,158.0002],[116.8079,-34.6395,140.4724],[116.8028,-34.6417,150.7883],[116.7941,-34.6379,158.4791],[116.7919,-34.6468,146.3253],[116.7872,-34.65,146.176],[116.7885,-34.6527,141.0617],[116.7848,-34.6533,140.1104],[116.7864,-34.6585,139.7485],[116.791,-34.66,160.8055],[116.7926,-34.6682,137.6362],[116.7975,-34.6661,134.956],[116.7994,-34.6682,134.6101],[116.8077,-34.6687,133.0281],[116.8096,-34.6709,132.2094],[116.8205,-34.6733,130.5867],[116.8269,-34.6705,130.9131],[116.8288,-34.6722,128.8478],[116.8349,-34.6728,130.8783],[116.8397,-34.668,130.4424],[116.8451,-34.6703,130.3451],[116.8479,-34.6754,131.008],[116.852,-34.6769,134.0252],[116.852,-34.6797,136.7738],[116.8566,-34.6817,130.0149],[116.856,-34.6834,129.8529],[116.8536,-34.6828,129.9544],[116.8542,-34.6848,129.0924],[116.8515,-34.6859,146.1888],[116.8528,-34.6903,146.5666],[116.849,-34.6908,137.7615],[116.8469,-34.6932,136.1342],[116.8416,-34.6929,140.8694],[116.8416,-34.6958,125.3927],[116.8399,-34.6963,126.3144],[116.8407,-34.6998,136.2296],[116.8371,-34.6993,128.7242],[116.8394,-34.7041,125.937],[116.8392,-34.7082,129.8719],[116.8412,-34.7099,122.4212],[116.8398,-34.7107,122.4212],[116.8391,-34.7154,126.0322],[116.8438,-34.7233,133.3819],[116.8365,-34.7207,133.2102],[116.8348,-34.7273,138.5143],[116.8382,-34.7318,133.4792],[116.8388,-34.7366,126.5047],[116.8431,-34.7356,123.3951],[116.841,-34.739,125.3513],[116.8433,-34.7404,117.8357],[116.8422,-34.742,116.2826],[116.8443,-34.7464,139.536],[116.8414,-34.7488,126.2229],[116.8438,-34.7513,125.0781],[116.8425,-34.7533,120.5334],[117.3229,-34.7536,194.5935],[117.3231,-34.7644,185.0495],[117.3404,-34.7657,193.6442],[117.3634,-34.7644,180.1878],[117.3761,-34.7697,152.6207],[117.408,-34.7695,187.5644],[117.4243,-34.767,147.4128],[117.429,-34.7672,137.4506],[117.4291,-34.7692,132.0562],[117.4467,-34.7691,148.8841],[117.4466,-34.7679,133.3648],[117.4563,-34.7675,152.0547],[117.4497,-34.7642,125.5026],[117.447,-34.7604,114.1955],[117.4488,-34.759,112.7387],[117.474,-34.7575,111.726],[117.474,-34.7611,145.4297],[117.4824,-34.7611,87.4288],[117.4825,-34.7636,83.3225],[117.4881,-34.7636,71.7893],[117.4882,-34.8306,97.9542],[117.5646,-34.8299,54.4927],[117.5646,-34.835,48.8896],[117.5677,-34.835,56.8757],[117.5678,-34.8424,44.7003],[117.5704,-34.8424,45.8923],[117.5704,-34.8374,74.9316],[117.5851,-34.8374,85.8278],[117.5851,-34.8424,42.2604],[117.593,-34.8424,78.8528],[117.593,-34.8392,91.3432],[117.6073,-34.8392,83.5478],[117.6073,-34.8348,103.1186],[117.6183,-34.8348,110.1709],[117.6183,-34.8428,88.4034],[117.6238,-34.8428,79.3454],[117.6238,-34.8402,91.1843],[117.6791,-34.8397,98.3359],[117.6791,-34.8362,99.2655],[117.6892,-34.8362,103.9496],[117.6895,-34.8401,100.4229],[117.6997,-34.8401,96.387],[117.6997,-34.849,96.3349],[117.706,-34.849,94.5731],[117.706,-34.8435,95.0387],[117.7293,-34.8426,99.9645],[117.7293,-34.8405,103.5815],[117.7427,-34.8406,112.518],[117.744,-34.8438,117.5082],[117.7564,-34.8389,116.0365],[117.7564,-34.8454,108.5071],[117.8092,-34.8454,89.7581],[117.8092,-34.8512,97.1317],[117.8233,-34.8512,76.5579],[117.8233,-34.8476,77.1619],[117.8538,-34.8476,77.2668],[117.8538,-34.8512,93.6231],[117.8699,-34.8512,91.7481],[117.8693,-34.8343,85.3536],[117.8566,-34.8294,94.9909],[117.8551,-34.8183,96.8974],[117.909,-34.8181,80.5488],[117.909,-34.7665,120.2677],[117.9346,-34.7665,112.3316],[117.9346,-34.7465,167.0677],[117.9526,-34.7465,149.3445],[117.953,-34.7499,145.2393],[117.9563,-34.7499,149.7188],[117.9574,-34.7632,116.3773],[117.9662,-34.7623,123.9224],[117.966,-34.7375,141.4773],[117.9678,-34.7375,141.0762],[117.9678,-34.7202,154.1149],[117.9697,-34.7202,154.2764],[117.9697,-34.696,217.804],[117.9627,-34.696,211.9962],[117.9626,-34.6947,211.9962],[117.9894,-34.6934,165.2897],[117.9945,-34.6805,170.0012],[118.0058,-34.6649,151.1066],[118.0268,-34.6582,144.8269],[118.0311,-34.6582,146.3966],[118.0311,-34.6459,147.1349],[118.0477,-34.6458,114.6078],[118.0497,-34.6398,104.5986],[118.0746,-34.6397,145.2182],[118.0746,-34.6471,127.5915],[118.0812,-34.6471,145.5213],[118.0812,-34.6595,140.0274],[118.0915,-34.6594,141.688],[118.0915,-34.6637,133.2429],[118.2088,-34.6638,136.2651],[118.2087,-34.5475,165.8084],[118.262,-34.5473,173.0182],[118.3135,-34.5345,151.4441],[118.3214,-34.5307,151.3554],[118.3203,-34.5299,151.1927],[118.3203,-34.4975,150.2815],[118.3242,-34.4975,150.6013],[118.3234,-34.4863,152.4603],[118.338,-34.4684,149.2883],[118.346,-34.4684,160.1179],[118.346,-34.4626,134.7693],[118.3511,-34.4602,136.0351],[118.3535,-34.4485,132.336],[118.3535,-34.434,152.3064],[118.41,-34.4083,130.177],[118.4103,-34.405,129.8919]]]]}
,"properties": {"GID_2": "AUS.11.103_1","GID_0": "AUS","country": "Australia","GID_1": "AUS.11_1","state": "WesternAustralia","NL_NAME_1": "NA","county": "Plantagenet","VARNAME_2": "NA","NL_NAME_2": "NA","TYPE_2": "Shire","ENGTYPE_2": "Shire","CC_2": "57210","HASC_2": "AU.WA.PL","name": "Plantagenet.county","area_km2": 4877.675,"hist_schema_id": "Elevation0-9000","hist_area_km2": {"25": 1.445,"50": 18.889,"75": 43.511,"100": 135.328,"125": 311.523,"150": 679.784,"175": 807.503,"200": 881.944,"225": 893.56,"250": 743.986,"275": 212.261,"300": 54.839,"325": 30.409,"350": 19.352,"375": 12.785,"400": 7.738,"425": 5.589,"450": 4.435,"475": 3.753,"500": 3.282,"525": 2.025,"550": 1.728,"575": 0.907,"600": 0.593,"625": 0.314,"650": 0.105,"700": 0.07}}}