{"type": "Feature","bbox": [141.3907,-32.0191,141.5657,-31.8838],"geometry": {"type": "MultiPolygon","coordinates": [[[[141.5482,-31.925,244.7962],[141.5493,-31.9137,250.9365],[141.5464,-31.9135,248.874],[141.5657,-31.9076,236.4584],[141.5565,-31.9027,238.0134],[141.5636,-31.885,239.4348],[141.5585,-31.8838,240.7854],[141.413,-31.8868,301.7695],[141.413,-31.9715,285.3122],[141.3907,-31.9769,276.754],[141.4121,-32.0026,270.9837],[141.463,-32.0025,279.0015],[141.4639,-32.0045,277.9597],[141.458,-32.0094,277.3275],[141.4599,-32.0118,273.6364],[141.4683,-32.0091,275.1925],[141.4784,-32.0191,286.0367],[141.4815,-32.0169,290.2334],[141.4735,-32.0091,277.6126],[141.4798,-32.009,283.3534],[141.483,-32.0025,286.2394],[141.5426,-32.0024,331.1095],[141.5428,-31.9461,257.9259],[141.5454,-31.9253,245.8845],[141.5482,-31.925,244.7962]]]]}
,"properties": {"GID_2": "AUS.5.22_1","GID_0": "AUS","country": "Australia","GID_1": "AUS.5_1","state": "NewSouthWales","NL_NAME_1": "NA","county": "BrokenHill","VARNAME_2": "NA","NL_NAME_2": "NA","TYPE_2": "City","ENGTYPE_2": "City","CC_2": "11250","HASC_2": "AU.NS.BH","name": "BrokenHill.county","area_km2": 171.1346,"hist_schema_id": "Elevation0-9000","hist_area_km2": {"225": 0.18,"250": 25.412,"275": 59.4345,"300": 59.4041,"325": 23.7524,"350": 2.6996,"375": 0.252}}}