{"type": "Feature","bbox": [115.9145,-32.1311,116.0896,-32.0042],"geometry": {"type": "MultiPolygon","coordinates": [[[[116.0896,-32.0851,323.1554],[116.0896,-32.0728,332.3632],[116.0685,-32.0728,326.4819],[116.0687,-32.0593,277.6364],[116.0653,-32.0593,283.606],[116.0652,-32.0506,213.3069],[116.0563,-32.0506,254.1396],[116.0561,-32.0404,192.2326],[116.0495,-32.0405,251.3158],[116.0403,-32.0314,126.4621],[116.0416,-32.0304,96.0613],[116.0332,-32.0232,124.0458],[116.0294,-32.0263,69.596],[116.0144,-32.0135,43.8848],[116.0025,-32.0236,29.6772],[115.9947,-32.0095,21.7721],[115.9894,-32.014,15.1695],[115.9765,-32.0042,14.4469],[115.9707,-32.0091,11.5978],[115.968,-32.0068,12.9153],[115.9359,-32.0339,10.4312],[115.9302,-32.0543,16.3797],[115.9364,-32.0598,15.9894],[115.9234,-32.0697,24.1684],[115.9145,-32.1014,33.3397],[115.9159,-32.1145,29.0163],[115.9277,-32.1053,30.0491],[115.9308,-32.1001,27.9198],[115.9609,-32.1271,23.3831],[115.9594,-32.1283,23.7123],[115.963,-32.1311,24.5432],[115.9748,-32.1228,23.398],[116.012,-32.0906,24.5609],[116.0127,-32.0977,21.0412],[116.0162,-32.0949,20.0056],[116.0157,-32.0933,21.0888],[116.033,-32.0932,215.7046],[116.033,-32.0947,210.5719],[116.05,-32.0955,293.885],[116.05,-32.0982,283.2108],[116.0745,-32.0982,242.3259],[116.0745,-32.0882,279.9763],[116.0896,-32.0871,326.1732],[116.0896,-32.0851,323.1554]]]]}
,"properties": {"GID_2": "AUS.11.54_1","GID_0": "AUS","country": "Australia","GID_1": "AUS.11_1","state": "WesternAustralia","NL_NAME_1": "NA","county": "Gosnells","VARNAME_2": "NA","NL_NAME_2": "NA","TYPE_2": "City","ENGTYPE_2": "City","CC_2": "53780","HASC_2": "AU.WA.GS","name": "Gosnells.county","area_km2": 126.67088,"hist_schema_id": "Elevation0-9000","hist_area_km2": {"0": 19.41125,"25": 71.8991,"50": 5.10396,"75": 2.12041,"100": 1.85084,"125": 1.43751,"150": 1.54532,"175": 1.61716,"200": 1.74295,"225": 2.67728,"250": 4.90528,"275": 4.63507,"300": 4.81445,"325": 2.47913,"350": 0.32338,"375": 0.10779}}}