{"type": "Feature","bbox": [115.7662,-31.9935,115.7927,-31.969],"geometry": {"type": "MultiPolygon","coordinates": [[[[115.7869,-31.9915,4.7847],[115.7927,-31.9916,18.9995],[115.7927,-31.9888,23.7923],[115.7883,-31.9887,19.5984],[115.7911,-31.9864,21.9476],[115.7916,-31.969,17.4053],[115.7728,-31.97,20.9382],[115.7717,-31.9739,19.2981],[115.767,-31.9737,34.3833],[115.7668,-31.9846,33.1388],[115.7718,-31.9825,28.7582],[115.7718,-31.9866,39.0577],[115.7693,-31.988,40.2925],[115.7662,-31.9934,29.4873],[115.7729,-31.9935,23.3301],[115.7734,-31.9895,45.543],[115.7774,-31.9884,5.3288],[115.7869,-31.9915,4.7847]]]]}
,"properties": {"GID_2": "AUS.11.25_1","GID_0": "AUS","country": "Australia","GID_1": "AUS.11_1","state": "WesternAustralia","NL_NAME_1": "NA","county": "Claremont","VARNAME_2": "NA","NL_NAME_2": "NA","TYPE_2": "Town","ENGTYPE_2": "Town","CC_2": "51750","HASC_2": "AU.WA.CL","name": "Claremont.county","area_km2": 5.017633,"hist_schema_id": "Elevation0-9000","hist_area_km2": {"0": 1.294895,"25": 3.363073,"50": 0.359665}}}