{"type":"Feature","properties":{"GID_2":"AUS.5.58_1","GID_0":"AUS","country":"Australia","GID_1":"AUS.5_1","state":"NewSouthWales","NL_NAME_1":"NA","county":"Gundagai","VARNAME_2":"NA","NL_NAME_2":"NA","TYPE_2":"Area","ENGTYPE_2":"Area","CC_2":"13500","HASC_2":"AU.NS.GU","name":"Gundagai.county"},
"geometry":{"type": "MultiPolygon","coordinates": [[[[147.9394,-34.837,565.8981],[147.9342,-34.8443,558.4935],[147.9288,-34.848,662.1243],[147.927,-34.8523,675.0042],[147.915,-34.8507,442.0855],[147.9139,-34.8568,421.5452],[147.9035,-34.8555,447.2203],[147.9012,-34.869,377.16],[147.9047,-34.8694,342.5107],[147.9051,-34.8719,337.4111],[147.9004,-34.8772,333.0714],[147.8986,-34.8829,326.9254],[147.894,-34.8823,331.8162],[147.8937,-34.8843,317.2253],[147.8878,-34.8833,333.1262],[147.8871,-34.8874,318.7528],[147.884,-34.887,313.5051],[147.8814,-34.901,304.9867],[147.8732,-34.9018,292.5982],[147.8724,-34.9063,294.7656],[147.8649,-34.9053,284.3521],[147.8637,-34.9112,291.9135],[147.8609,-34.9109,293.2164],[147.8587,-34.9226,299.4298],[147.8549,-34.9221,299.0759],[147.8504,-34.9489,255.5628],[147.8446,-34.9482,254.9582],[147.8425,-34.9586,237.7922],[147.84,-34.9583,236.3518],[147.8377,-34.971,235.0041],[147.8424,-34.9716,243.7934],[147.8404,-34.9817,219.1141],[147.8361,-34.9811,223.356],[147.8409,-34.9846,218.2881],[147.8395,-34.9879,217.3635],[147.8408,-34.9881,218.6141],[147.8399,-34.9934,220.4953],[147.8437,-34.9962,218.3965],[147.8429,-34.9992,215.6419],[147.8455,-34.9992,218.5428],[147.8446,-35.002,216.9693],[147.8477,-35.0062,215.3927],[147.8448,-35.0055,217.0804],[147.845,-35.0077,216.5706],[147.8488,-35.0089,216.1232],[147.846,-35.0133,212.4062],[147.8522,-35.0182,215.9302],[147.8494,-35.0205,211.6223],[147.8495,-35.0265,211.968],[147.8472,-35.0275,210.387],[147.845,-35.0328,215.3374],[147.8427,-35.0342,208.009],[147.8457,-35.0379,208.1014],[147.846,-35.041,212.5908],[147.8401,-35.0452,205.8208],[147.8401,-35.0472,206.3802],[147.8417,-35.0469,206.4324],[147.8431,-35.0491,205.8519],[147.84,-35.0513,205.0739],[147.8419,-35.0524,204.4017],[147.8411,-35.0546,204.4688],[147.843,-35.0563,202.7391],[147.8414,-35.0561,204.4688],[147.8399,-35.0642,199.7727],[147.8372,-35.0633,199.2891],[147.832,-35.0659,202.5035],[147.8312,-35.0731,197.6411],[147.8154,-35.0825,197.7525],[147.8167,-35.0884,197.1642],[147.8016,-35.0908,196.8976],[147.7975,-35.0897,198.1112],[147.7962,-35.0863,199.9604],[147.788,-35.085,195.2068],[147.7871,-35.089,195.0029],[147.7911,-35.0937,195.9922],[147.7883,-35.0973,194.4998],[147.7795,-35.0925,195.5564],[147.7591,-35.0893,194.5619],[147.7561,-35.0871,194.0287],[147.7559,-35.0823,194.2416],[147.7523,-35.0754,194.1254],[147.7541,-35.0722,192.8318],[147.7534,-35.07,193.5942],[147.7419,-35.0705,192.8011],[147.7335,-35.065,193.3495],[147.7261,-35.0636,193.0493],[147.7073,-35.0675,193.9546],[147.7055,-35.0745,191.086],[147.6966,-35.0741,191.7265],[147.6928,-35.078,193.9692],[147.6884,-35.0783,191.5025],[147.6867,-35.0813,190.7501],[147.6863,-35.0859,190.6018],[147.6917,-35.0861,192.666],[147.6949,-35.0888,191.1307],[147.6938,-35.0914,200.9071],[147.708,-35.0934,280.8911],[147.7197,-35.0905,318.5799],[147.7327,-35.0914,373.6212],[147.7329,-35.0942,356.752],[147.7366,-35.0958,364.6115],[147.7354,-35.102,347.106],[147.7327,-35.1036,355.7133],[147.7345,-35.1045,355.7133],[147.7357,-35.1101,381.4879],[147.7406,-35.1106,375.9151],[147.7454,-35.1149,422.4263],[147.7527,-35.117,448.0794],[147.7541,-35.1193,448.9998],[147.751,-35.1253,448.3006],[147.7539,-35.1295,428.2556],[147.7669,-35.1353,413.8408],[147.7625,-35.1413,399.6024],[147.765,-35.1437,374.6401],[147.762,-35.1476,366.2868],[147.7647,-35.1564,352.3329],[147.7636,-35.1612,336.7082],[147.7667,-35.1634,334.8897],[147.7716,-35.1845,329.4671],[147.7771,-35.1855,356.5432],[147.78,-35.1904,351.93],[147.7793,-35.194,303.5938],[147.7865,-35.1962,354.6458],[147.7885,-35.1989,393.6187],[147.7951,-35.1992,439.4534],[147.7957,-35.2029,430.9292],[147.7988,-35.2057,428.2642],[147.7978,-35.2109,353.3344],[147.8093,-35.2124,355.6884],[147.8107,-35.2156,408.561],[147.8206,-35.2198,442.0549],[147.834,-35.2217,539.1439],[147.8335,-35.2262,527.2085],[147.8369,-35.2347,516.2893],[147.8403,-35.2381,544.4287],[147.8367,-35.244,557.0754],[147.8399,-35.2477,551.9489],[147.8383,-35.2498,555.8599],[147.8419,-35.2538,549.9263],[147.8421,-35.2568,555.9375],[147.8521,-35.2595,507.1842],[147.8531,-35.264,527.4846],[147.8557,-35.2659,530.7776],[147.8544,-35.2692,534.4385],[147.8566,-35.2758,531.6932],[147.8543,-35.2781,554.6104],[147.8562,-35.2795,547.4211],[147.8621,-35.2784,559.3837],[147.8636,-35.2805,562.9235],[147.8724,-35.2817,572.8568],[147.8739,-35.278,562.1742],[147.8846,-35.2773,592.7847],[147.884,-35.2729,577.5838],[147.8798,-35.2679,546.4886],[147.8842,-35.2592,455.2424],[147.8918,-35.2581,446.8299],[147.8942,-35.2487,340.8946],[147.8991,-35.2448,278.5886],[147.8999,-35.2415,285.354],[147.894,-35.2397,283.2273],[147.8962,-35.2369,271.4838],[147.8948,-35.2334,275.5371],[147.897,-35.2312,270.4824],[147.9,-35.2304,261.7801],[147.9278,-35.2332,284.3894],[147.9283,-35.2308,365.9208],[147.9341,-35.2311,300.1144],[147.935,-35.2259,326.4813],[147.9586,-35.2291,483.5583],[147.961,-35.2173,499.6122],[147.9655,-35.2179,526.0764],[147.9665,-35.212,582.5911],[147.9742,-35.213,613.6249],[147.9776,-35.2088,610.4249],[147.9758,-35.2041,585.6397],[147.9708,-35.1991,587.2605],[147.9662,-35.1978,550.9596],[147.9617,-35.1874,565.9433],[147.9935,-35.1914,344.3402],[147.9931,-35.1934,373.1256],[147.9968,-35.1939,282.3095],[147.9972,-35.192,278.2462],[148.0135,-35.1953,323.1872],[148.0142,-35.1916,297.9872],[148.0156,-35.1938,313.7761],[148.0181,-35.1926,302.7027],[148.0199,-35.195,293.6788],[148.0236,-35.1931,299.153],[148.0255,-35.1957,282.528],[148.0292,-35.1938,267.8478],[148.0326,-35.1967,243.9624],[148.0376,-35.1942,237.3898],[148.0389,-35.1988,237.0964],[148.0445,-35.1998,247.4964],[148.0448,-35.1983,253.8443],[148.0593,-35.2009,339.2746],[148.0641,-35.2005,381.5918],[148.0644,-35.1986,387.4954],[148.0774,-35.2004,441.0284],[148.0781,-35.1969,445.3251],[148.0821,-35.1974,406.4412],[148.0826,-35.1947,447.0266],[148.0878,-35.1954,459.6181],[148.0872,-35.1989,402.8948],[148.112,-35.2038,460.9341],[148.1125,-35.2016,441.2648],[148.1198,-35.2026,405.7176],[148.1222,-35.19,413.5105],[148.1479,-35.1958,311.1539],[148.1476,-35.1973,315.8122],[148.149,-35.1974,306.877],[148.1555,-35.1971,294.7586],[148.1578,-35.1863,421.2766],[148.1614,-35.1868,431.0605],[148.1601,-35.1929,302.3336],[148.1644,-35.1936,285.2718],[148.1838,-35.1894,250.5016],[148.1863,-35.1865,245.0101],[148.1835,-35.1849,249.2263],[148.1915,-35.1789,243.6954],[148.1916,-35.1734,247.5131],[148.1968,-35.1749,242.3357],[148.1981,-35.1739,242.201],[148.1975,-35.1707,263.7214],[148.2065,-35.171,241.0536],[148.2106,-35.1695,240.8876],[148.2121,-35.1664,240.3142],[148.2144,-35.1685,240.9129],[148.2215,-35.1662,239.7633],[148.2236,-35.1628,239.4506],[148.2222,-35.1583,239.6204],[148.2164,-35.1579,238.3767],[148.2175,-35.156,238.646],[148.2143,-35.1547,238.9689],[148.2138,-35.1527,237.4972],[148.2168,-35.1482,239.516],[148.2117,-35.1435,236.4108],[148.211,-35.1362,236.5989],[148.2061,-35.1286,238.6208],[148.2077,-35.1269,235.053],[148.2048,-35.1226,235.0587],[148.2063,-35.1215,241.0253],[148.2019,-35.1181,233.3887],[148.1991,-35.1186,233.3162],[148.1986,-35.1166,233.087],[148.2009,-35.1152,232.735],[148.1986,-35.1148,232.2017],[148.1999,-35.1109,235.4056],[148.2151,-35.113,347.5547],[148.2157,-35.1104,386.1869],[148.2277,-35.112,377.9754],[148.251,-35.1171,399.4834],[148.2507,-35.119,364.3902],[148.2567,-35.1198,410.006],[148.2572,-35.1178,470.6622],[148.2616,-35.1184,401.4856],[148.2619,-35.1171,441.3762],[148.276,-35.119,351.9102],[148.2762,-35.1173,342.672],[148.2838,-35.1182,454.6399],[148.2832,-35.1211,525.8685],[148.293,-35.1224,458.9236],[148.2933,-35.1251,434.3799],[148.3065,-35.1273,454.1222],[148.3103,-35.1265,504.0811],[148.31,-35.1283,489.9415],[148.3148,-35.129,554.207],[148.3142,-35.1323,571.6591],[148.3229,-35.1336,693.0168],[148.3234,-35.1314,675.5482],[148.3303,-35.1324,725.114],[148.33,-35.1341,729.5608],[148.3343,-35.1348,737.6146],[148.3336,-35.1383,701.4384],[148.3379,-35.139,753.6373],[148.3375,-35.1412,738.724],[148.3419,-35.1419,762.3777],[148.3415,-35.1392,758.0755],[148.347,-35.1399,778.6515],[148.3476,-35.1371,774.602],[148.3895,-35.1416,824.1871],[148.3968,-35.1399,813.9112],[148.3947,-35.1505,769.4731],[148.4137,-35.153,658.4319],[148.4119,-35.156,622.7386],[148.4158,-35.1624,649.8063],[148.4227,-35.1643,692.9791],[148.4568,-35.1545,697.0991],[148.4584,-35.1466,671.8037],[148.456,-35.1467,670.5903],[148.4595,-35.1285,717.5447],[148.4606,-35.1285,717.5447],[148.4624,-35.117,731.5528],[148.4664,-35.1174,729.6364],[148.4719,-35.0888,669.692],[148.4677,-35.0882,648.1219],[148.4692,-35.0801,706.7847],[148.5247,-35.0877,820.3649],[148.5243,-35.0903,820.5737],[148.5258,-35.0905,811.0591],[148.5242,-35.1001,855.1773],[148.5291,-35.1011,876.8331],[148.5268,-35.1195,911.7987],[148.5239,-35.1224,907.1823],[148.5418,-35.1354,883.6326],[148.5455,-35.1321,882.0389],[148.5483,-35.1322,888.3636],[148.5442,-35.1204,855.4122],[148.545,-35.1159,834.577],[148.5509,-35.1076,848.87],[148.5559,-35.1052,823.1185],[148.5608,-35.098,848.1116],[148.567,-35.095,831.5602],[148.5686,-35.0916,828.088],[148.5649,-35.0884,839.1023],[148.566,-35.0853,829.7494],[148.5647,-35.0836,828.4387],[148.567,-35.0829,817.0573],[148.5666,-35.0803,817.1895],[148.5688,-35.0784,816.6725],[148.5733,-35.0772,831.4095],[148.5727,-35.074,808.4485],[148.5681,-35.0744,808.0936],[148.5674,-35.0723,805.8555],[148.5709,-35.0673,810.7672],[148.565,-35.0683,799.9637],[148.5642,-35.0662,794.6948],[148.565,-35.0614,798.2638],[148.5674,-35.0607,817.8029],[148.5646,-35.0572,793.4598],[148.565,-35.0544,796.3352],[148.5719,-35.0496,751.7841],[148.5755,-35.0416,752.0192],[148.5733,-35.0389,816.4405],[148.5764,-35.0244,903.3445],[148.5755,-35.0207,887.8599],[148.5722,-35.0186,873.4679],[148.5831,-35.0026,348.2518],[148.5737,-35.0015,313.2349],[148.5641,-35.005,309.137],[148.5604,-35.0046,308.7811],[148.5589,-35.0012,296.6177],[148.5613,-34.9993,291.373],[148.5634,-34.9941,306.5138],[148.5615,-34.9897,348.1307],[148.5584,-34.9877,292.4902],[148.541,-34.9948,287.9686],[148.5349,-34.9937,284.8065],[148.5311,-34.9887,284.8693],[148.5328,-34.9734,284.5735],[148.5383,-34.9658,286.5292],[148.5433,-34.9527,278.6418],[148.5422,-34.9447,272.1847],[148.5362,-34.9338,274.017],[148.5362,-34.9291,275.9543],[148.5382,-34.9255,272.5163],[148.546,-34.9194,271.9924],[148.5501,-34.9108,269.8224],[148.5486,-34.9085,267.004],[148.5437,-34.9081,266.3216],[148.5411,-34.914,271.2309],[148.5358,-34.9158,266.0042],[148.5325,-34.9128,263.2425],[148.5285,-34.9039,266.9914],[148.5209,-34.9011,273.7593],[148.5154,-34.9033,284.4379],[148.503,-34.9026,262.8545],[148.486,-34.8986,262.3116],[148.4597,-34.9028,266.3223],[148.4494,-34.9025,272.8117],[148.4382,-34.8982,254.8782],[148.429,-34.8995,262.2759],[148.4205,-34.8987,254.8096],[148.4188,-34.8982,256.4484],[148.4184,-34.8955,262.1025],[148.4126,-34.8963,255.9828],[148.3975,-34.9063,260.5345],[148.3898,-34.9066,254.1238],[148.3847,-34.8981,264.0576],[148.3852,-34.8926,250.7348],[148.3906,-34.8855,249.3417],[148.3992,-34.8781,250.7383],[148.4002,-34.8712,250.8076],[148.3987,-34.8654,248.3157],[148.3872,-34.8586,251.3576],[148.373,-34.8583,246.9435],[148.3628,-34.8526,249.0768],[148.3568,-34.8519,246.2632],[148.3534,-34.8631,242.1717],[148.3466,-34.8684,239.5091],[148.3327,-34.8716,237.4452],[148.326,-34.8688,239.8638],[148.3225,-34.8715,241.4626],[148.3208,-34.8678,243.8728],[148.3158,-34.8669,245.4659],[148.3104,-34.8626,246.0222],[148.3114,-34.8593,245.5731],[148.3146,-34.8572,245.4085],[148.3142,-34.8552,246.4329],[148.3111,-34.8537,251.3642],[148.3068,-34.8553,252.1511],[148.3063,-34.8522,251.0973],[148.298,-34.8453,257.7031],[148.2984,-34.8302,262.6981],[148.2896,-34.8254,267.1333],[148.2897,-34.8226,266.7953],[148.288,-34.8211,269.59],[148.2897,-34.8178,270.897],[148.2857,-34.8167,274.2448],[148.281,-34.8119,276.7999],[148.2793,-34.8042,275.9808],[148.2738,-34.7988,281.6359],[148.264,-34.8043,288.5168],[148.2594,-34.7986,289.0075],[148.2573,-34.7993,292.4158],[148.2536,-34.7975,294.8926],[148.2449,-34.7994,328.1566],[148.2418,-34.8017,308.6542],[148.2362,-34.8012,310.1931],[148.2323,-34.7958,330.2885],[148.1792,-34.789,523.1345],[148.1787,-34.7913,507.1613],[148.1666,-34.7896,433.1378],[148.1674,-34.785,446.4721],[148.1533,-34.783,452.2501],[148.1528,-34.7855,441.7371],[148.1448,-34.7845,402.5823],[148.1452,-34.7824,388.6306],[148.1403,-34.7818,349.0272],[148.1405,-34.7805,351.9917],[148.1274,-34.7789,324.3589],[148.1223,-34.7732,360.6065],[148.1211,-34.7739,343.6266],[148.1215,-34.7712,356.8022],[148.1179,-34.7708,351.626],[148.1169,-34.7762,313.4227],[148.1058,-34.7824,272.9471],[148.1036,-34.78,272.8665],[148.1019,-34.7889,293.2296],[148.0919,-34.7875,302.3969],[148.0916,-34.7889,307.9064],[148.0888,-34.7886,317.4179],[148.087,-34.7984,316.168],[148.0794,-34.7975,330.7436],[148.0782,-34.8039,330.4831],[148.0658,-34.8023,322.5939],[148.0632,-34.8153,342.0439],[148.0501,-34.8135,344.4684],[148.0485,-34.8221,388.3553],[148.0441,-34.8223,406.1367],[148.0351,-34.8175,412.5237],[148.0229,-34.8197,468.8302],[148.0212,-34.8251,469.2487],[148.0154,-34.8286,510.8822],[148.0167,-34.8287,494.4565],[148.0147,-34.8386,457.4406],[147.9895,-34.8351,491.9658],[147.9896,-34.8309,513.9672],[147.9857,-34.8282,513.2394],[147.984,-34.8363,497.8833],[147.9783,-34.8348,517.5147],[147.9713,-34.8371,513.3785],[147.9653,-34.8331,494.3577],[147.9621,-34.8331,514.1432],[147.9394,-34.837,565.8981]]]]}}