{"type": "Feature","bbox": [145.215,-38.2485,145.4306,-37.9419],"geometry": {"type": "MultiPolygon","coordinates": [[[[145.3791,-37.975,92.4464],[145.3169,-37.966,70.467],[145.3166,-37.9678,68.708],[145.2912,-37.9646,122.9112],[145.2886,-37.9611,113.4029],[145.2899,-37.9576,122.0261],[145.2836,-37.9551,119.2644],[145.2796,-37.9476,136.6934],[145.2332,-37.9419,37.6243],[145.23,-37.9504,34.2091],[145.2296,-37.9523,35.966],[145.2322,-37.9525,35.7497],[145.234,-37.9565,33.1549],[145.2324,-37.961,30.5727],[145.2329,-37.97,27.8029],[145.2357,-37.9743,27.5677],[145.235,-37.9783,27.5843],[145.2319,-37.981,27.4025],[145.2319,-37.9855,28.4558],[145.2265,-37.9935,23.9595],[145.2287,-37.9938,25.2879],[145.2273,-38.0007,23.289],[145.2518,-38.0036,41.2648],[145.2466,-38.0266,19.1549],[145.2465,-38.0423,16.6074],[145.215,-38.2071,21.5189],[145.2265,-38.219,11.2015],[145.2299,-38.2206,13.529],[145.2548,-38.2231,1.258],[145.2591,-38.2257,1.3061],[145.2603,-38.2234,1.1036],[145.259,-38.2223,1.1729],[145.261,-38.2229,1.0391],[145.2615,-38.2245,1.2043],[145.2614,-38.2224,1.2375],[145.2629,-38.2221,1.2375],[145.2679,-38.2247,1.368],[145.2716,-38.223,1.1431],[145.2736,-38.2292,1.2944],[145.2786,-38.2341,1.488],[145.2737,-38.2422,1.2864],[145.2741,-38.2441,1.4335],[145.2774,-38.2447,1.5657],[145.2773,-38.2459,1.5657],[145.2983,-38.2485,1.1845],[145.3127,-38.2481,0.0753],[145.3113,-38.2465,1.5041],[145.3221,-38.2411,1.381],[145.3229,-38.2426,1.509],[145.325,-38.242,1.5965],[145.324,-38.2405,1.3207],[145.3264,-38.2351,1.4526],[145.3326,-38.2361,1.4192],[145.3352,-38.2323,1.5637],[145.337,-38.2331,1.2381],[145.3413,-38.2296,1.414],[145.343,-38.2263,1.4254],[145.3396,-38.2231,1.6942],[145.3403,-38.2186,2.8459],[145.3438,-38.2164,0.959],[145.3421,-38.2159,4.8824],[145.3429,-38.215,4.8824],[145.3471,-38.2136,2.4022],[145.3534,-38.2147,0.1647],[145.3656,-38.2221,1.7542],[145.3844,-38.221,1.527],[145.3897,-38.2224,1.6095],[145.3877,-38.2187,1.7064],[145.3898,-38.2207,1.4831],[145.3919,-38.2195,2.4025],[145.3907,-38.221,1.4831],[145.3919,-38.2241,1.7534],[145.4109,-38.2281,0.876],[145.4161,-38.2259,2.3131],[145.4227,-38.2169,2.2203],[145.4306,-38.2164,2.0236],[145.4306,-38.2144,3.0291],[145.427,-38.2112,2.0403],[145.4218,-38.2097,1.8522],[145.4167,-38.2038,1.8072],[145.4183,-38.1985,1.9928],[145.3952,-38.1955,1.7164],[145.3957,-38.1934,2.1072],[145.3889,-38.1925,3.4221],[145.3995,-38.143,7.1673],[145.3834,-38.1256,13.0915],[145.3885,-38.1205,15.5688],[145.4018,-38.1191,15.7287],[145.399,-38.1132,17.74],[145.4006,-38.1078,20.6702],[145.3985,-38.1049,22.5389],[145.3978,-38.0999,24.0496],[145.3823,-38.0908,31.0892],[145.3804,-38.0816,33.2535],[145.376,-38.0787,36.6128],[145.3778,-38.0709,38.6159],[145.3818,-38.0698,39.0621],[145.3799,-38.0687,39.8215],[145.3808,-38.0669,39.6441],[145.3762,-38.0648,43.5372],[145.3752,-38.0595,46.8146],[145.3718,-38.0591,47.1611],[145.3705,-38.0574,46.1752],[145.3716,-38.0564,46.1752],[145.364,-38.0518,51.7738],[145.3667,-38.0473,53.1123],[145.3648,-38.0445,54.5191],[145.3671,-38.041,54.9666],[145.3659,-38.0388,56.6299],[145.3772,-38.0263,63.3186],[145.3775,-38.0226,73.2628],[145.3799,-38.0192,71.6512],[145.3787,-38.0175,70.837],[145.3839,-38.0143,74.3297],[145.3827,-38.0123,71.0377],[145.3852,-38.0089,84.6835],[145.3779,-38.0013,91.4386],[145.3798,-37.9969,83.9435],[145.3775,-37.9953,84.3496],[145.3758,-37.9897,89.1442],[145.3825,-37.9846,99.123],[145.3791,-37.975,92.4464]]]]}
,"properties": {"GID_2": "AUS.10.14_1","GID_0": "AUS","country": "Australia","GID_1": "AUS.10_1","state": "Victoria","NL_NAME_1": "NA","county": "Casey","VARNAME_2": "NA","NL_NAME_2": "NA","TYPE_2": "City","ENGTYPE_2": "City","CC_2": "21610","HASC_2": "AU.VI.CS","name": "Casey.county","area_km2": 408.2184,"hist_schema_id": "Elevation0-9000","hist_area_km2": {"0": 101.2604,"25": 138.8618,"50": 96.9703,"75": 38.428,"100": 13.297,"125": 7.9547,"150": 5.3306,"175": 4.3278,"200": 1.7879}}}