{"type": "Feature","bbox": [140.0838,-37.3218,140.9719,-36.669],"geometry": {"type": "MultiPolygon","coordinates": [[[[140.0845,-37.0325,17.5469],[140.0838,-37.176,7.2395],[140.2429,-37.1762,24.0239],[140.2435,-37.3213,27.2818],[140.61,-37.3218,57.0777],[140.6119,-37.3097,56.6702],[140.612,-37.176,54.0242],[140.9715,-37.1785,114.8183],[140.9719,-37.0361,100.4696],[140.9689,-36.669,105.9255],[140.6121,-36.669,82.823],[140.6119,-36.6925,53.04],[140.5487,-36.6926,40.8845],[140.5469,-36.6906,39.7601],[140.5357,-36.6906,37.5585],[140.5166,-36.6945,36.5973],[140.486,-36.6924,36.2855],[140.4869,-36.6946,45.6254],[140.4314,-36.7024,36.5758],[140.4314,-36.69,41.0299],[140.2522,-36.6893,23.4341],[140.2517,-36.894,23.3369],[140.085,-36.8941,21.0504],[140.0845,-37.0325,17.5469]]]]}
,"properties": {"GID_2": "AUS.8.39_1","GID_0": "AUS","country": "Australia","GID_1": "AUS.8_1","state": "SouthAustralia","NL_NAME_1": "NA","county": "NaracoorteandLucindale","VARNAME_2": "NA","NL_NAME_2": "NA","TYPE_2": "DistrictCouncil","ENGTYPE_2": "DistrictCouncil","CC_2": "45090","HASC_2": "NA","name": "NaracoorteandLucindale.county","area_km2": 4520.129,"hist_schema_id": "Elevation0-9000","hist_area_km2": {"0": 23.663,"25": 1597.557,"50": 1597.176,"75": 655.298,"100": 621.684,"125": 21.878,"150": 2.839}}}