{"type":"Feature","properties":{"featurecla":"River","scalerank":8,"rivernum":896,"dissolve":"896River","name":"Derwent1","name_alt":null,"note":null,"min_zoom":7.0,"strokeweig":0.2,"name_en":"Derwent","min_label":8.0},
"geometry":{"type": "LineString","coordinates": [[146.55322265625,-42.427276300005886,414.524],[146.578857421875,-42.43254973750588,313.0409],[146.60048828125002,-42.434112237505886,275.6199],[146.619873046875,-42.440459893755886,358.0021],[146.63857421875002,-42.46038176875588,299.5526],[146.65712890625002,-42.486163018755875,245.1086],[146.668212890625,-42.49627044063088,226.291],[146.81494140625,-42.580108331255886,74.3715],[146.85400390625,-42.61345794063088,141.3643],[146.87216796875003,-42.63884856563088,79.1615],[146.880615234375,-42.648272393755875,48.395]]}}