{"type":"Feature","properties":{"featurecla":"River","scalerank":8,"rivernum":786,"dissolve":"786River","name":"Tamar","name_alt":null,"note":null,"min_zoom":7.0,"strokeweig":0.15,"name_en":"Tamar","min_label":8.0},
"geometry":{"type": "LineString","coordinates": [[147.69179687500002,-42.177764581255886,336.2554],[147.624267578125,-42.175811456255886,330.5138],[147.6044921875,-42.166534112505886,258.5785],[147.580322265625,-42.145538018755886,434.8185],[147.56015625000003,-42.123370050005875,229.8366],[147.55166015625002,-42.110381768755886,201.9281],[147.48593750000003,-42.07195403438088,186.7774],[147.47031250000003,-42.059112237505886,326.4503],[147.479736328125,-42.042510675005886,183.2123],[147.479736328125,-42.02605559688088,178.5197],[147.47236328125,-42.00969817500588,175.8391],[147.459716796875,-41.993682550005886,175.3753],[147.45107421875002,-41.977569268755886,172.9406],[147.44492187500003,-41.94085051875588,196.2775],[147.43613281250003,-41.921905206255886,185.6365]]}}