{"type":"Feature","properties":{"featurecla":"River","scalerank":8,"rivernum":786,"dissolve":"786River","name":"Tamar2","name_alt":null,"note":null,"min_zoom":7.0,"strokeweig":0.25,"name_en":"Tamar","min_label":8.0},
"geometry":{"type": "LineString","coordinates": [[147.06728515625002,-41.482256768755875,146.852],[147.06455078125003,-41.469756768755886,176.0219],[147.06406250000003,-41.45745208125588,130.6415],[147.06669921875005,-41.445635675005875,181.4405],[147.072509765625,-41.43474700313088,128.762],[147.082275390625,-41.441436456255886,164.4884],[147.09873046875003,-41.447784112505886,224.1087],[147.114013671875,-41.450225518755886,65.5965],[147.12089843750005,-41.445342706255886,25.8427],[147.11972656250003,-41.43181731563088,18.9299],[147.11464843750002,-41.410674737505886,2.1791],[147.11337890625003,-41.397491143755886,1.3084],[147.108154296875,-41.386748956255886,11.2058],[147.0517578125,-41.33196380000588,9.2533],[147.00234375000002,-41.307940362505875,91.7828],[146.99355468750002,-41.29949309688088,37.6751],[146.98984375000003,-41.28826262813088,0.3406],[146.9892578125,-41.27385833125588,0.0],[146.98603515625,-41.256866143755886,0.0],[146.978759765625,-41.24260833125588,24.2093],[146.966015625,-41.23674895625588,0.0],[146.953125,-41.23381926875588,0.0],[146.93886718750002,-41.225909112505875,0.0],[146.927001953125,-41.214873956255886,34.8102],[146.921630859375,-41.20256926875588,0.0],[146.92509765625005,-41.18889739375588,6.5865],[146.94404296875,-41.17351653438088,24.0429],[146.94960937500002,-41.16106536250588,92.1607]]}}