{"type":"Feature","properties":{"featurecla":"River","scalerank":8,"rivernum":896,"dissolve":"896River","name":"Derwent2","name_alt":null,"note":null,"min_zoom":7.0,"strokeweig":0.25,"name_en":"Derwent","min_label":8.0},
"geometry":{"type": "LineString","coordinates": [[146.880615234375,-42.648272393755875,48.395],[146.903515625,-42.668780206255875,67.8981],[146.90859375000002,-42.675616143755875,77.7078],[146.92333984375,-42.681670831255886,56.7043],[146.9580078125,-42.72625090938088,48.3336],[146.97294921875005,-42.73699309688088,16.6067],[146.98935546875003,-42.74089934688088,84.1714],[147.016796875,-42.759112237505875,43.9371],[147.031982421875,-42.764678643755886,21.784],[147.07041015625003,-42.76531340938088,174.2772],[147.0830078125,-42.767413018755875,187.4084],[147.096435546875,-42.77337005000588,79.7787],[147.10898437500003,-42.781280206255886,4.4405],[147.1220703125,-42.787627862505886,42.2496],[147.13671875,-42.78875090938088,166.8495],[147.14755859375003,-42.785479425005875,280.6984],[147.1591796875,-42.77922942500588,436.9082],[147.178955078125,-42.76433684688088,372.8423],[147.18984375000002,-42.75383880000588,151.3717],[147.195556640625,-42.74944426875588,59.1615],[147.202392578125,-42.74578215938088,43.4546],[147.22451171875002,-42.74212005000588,0.0],[147.24423828125003,-42.749053643755886,0.0],[147.261962890625,-42.762530206255875,4.7643],[147.27792968750003,-42.778643487505875,15.8589]]}}