{"type":"Feature","properties":{"GID_2":"AUS.10.78_1","GID_0":"AUS","country":"Australia","GID_1":"AUS.10_1","state":"Victoria","NL_NAME_1":"NA","county":"Yarra","VARNAME_2":"NA","NL_NAME_2":"NA","TYPE_2":"City","ENGTYPE_2":"City","CC_2":"27350","HASC_2":"AU.VI.YA","name":"Yarra.county"},
"geometry":{"type": "MultiPolygon","coordinates": [[[[145.036,-37.7789,21.9154],[145.0123,-37.7842,35.6217],[145.0042,-37.7844,34.8489],[145.0018,-37.7831,26.1223],[144.9978,-37.7856,28.8436],[144.9921,-37.7826,30.7924],[144.9885,-37.7764,36.0613],[144.9789,-37.7753,43.9853],[144.9781,-37.7802,37.7988],[144.9615,-37.7782,44.9554],[144.964,-37.7824,42.2267],[144.9636,-37.785,47.4776],[144.9695,-37.7856,39.0997],[144.9684,-37.7923,39.0244],[144.9757,-37.793,26.9263],[144.9732,-37.8079,47.9032],[144.9913,-37.8097,20.4278],[144.9879,-37.8296,3.3609],[144.9915,-37.8332,17.8071],[145.0034,-37.8345,3.625],[145.0046,-37.8312,8.726],[145.0096,-37.8335,8.9469],[145.0131,-37.8305,6.3628],[145.021,-37.8321,6.1925],[145.0243,-37.8345,7.7411],[145.0284,-37.8311,5.3187],[145.0231,-37.828,7.1547],[145.0218,-37.8254,8.7323],[145.0183,-37.8262,6.0701],[145.0162,-37.8246,15.7936],[145.0144,-37.8163,10.4353],[145.0157,-37.8106,11.0876],[145.0095,-37.8105,10.5257],[145.0084,-37.8075,26.4381],[145.0,-37.8066,11.863],[145.0002,-37.8043,15.1929],[145.0046,-37.8053,18.814],[145.0077,-37.8035,7.1056],[144.9993,-37.7971,10.4338],[145.0034,-37.7958,13.7227],[145.0048,-37.7981,26.444],[145.0093,-37.7963,10.3565],[145.0066,-37.799,11.1684],[145.0068,-37.8008,11.8481],[145.0129,-37.7992,20.6805],[145.0164,-37.803,28.3667],[145.0203,-37.8034,19.9433],[145.0211,-37.8026,30.7898],[145.0185,-37.8002,13.5322],[145.0209,-37.7984,49.319],[145.0139,-37.7936,13.6353],[145.0141,-37.7921,14.7682],[145.0196,-37.7923,11.8061],[145.0131,-37.7857,16.2259],[145.0282,-37.7869,16.9231],[145.0319,-37.7899,15.2938],[145.0409,-37.7897,16.479],[145.0411,-37.7863,14.5879],[145.0431,-37.787,14.5879],[145.0452,-37.7841,13.2263],[145.0404,-37.7853,14.6003],[145.0369,-37.782,26.2564],[145.0386,-37.7793,24.4394],[145.036,-37.7789,21.9154]]]]}}