{"type":"Feature","properties":{"featurecla":"Alkaline Lake","scalerank":8,"name":"null606","name_abb":null,"name_alt":null,"note":"_untitled_85","delta":null,"dam_name":null,"year":-99,"admin":null,"min_zoom":6.0,"min_label":7.0},
"geometry":{"type": "Polygon","coordinates": [[[135.15066979152238,-18.144491018324061,207.1079],[135.12947557436888,-18.152144485629492,206.8502],[135.10916444959679,-18.163035958333353,206.2974],[135.07148584132392,-18.188645637393819,205.9701],[135.02114957558445,-18.235743897734864,205.4698],[134.99848353779527,-18.248401555201525,204.4514],[134.97640622826043,-18.250756468218583,203.8355],[134.95491764697982,-18.250462104091469,205.2909],[134.93431215808062,-18.255760658379813,204.0692],[134.92165450061395,-18.269007044100761,204.0851],[134.91458976156275,-18.28902380474571,204.0585],[134.91488412568992,-18.310512386026318,203.7628],[134.9225375929953,-18.327585505399952,203.8481],[134.93872761998756,-18.337005157468155,203.6179],[134.97934986953175,-18.342598075883672,203.1937],[134.99730608128675,-18.34995717906196,203.7442],[135.03469032543251,-18.381454140665056,204.0502],[135.05352962956891,-18.387930151461944,204.3077],[135.08178858577355,-18.383220325427828,204.3888],[135.1724527369301,-18.357021918113134,205.3121],[135.19040894868516,-18.347602266044902,205.211],[135.18923149217659,-18.332589695561182,205.5386],[135.16627109026035,-18.283430886330194,205.6656],[135.16303308486192,-18.258115571396871,205.5688],[135.16950909565878,-18.241042452023237,205.9572],[135.20277224202465,-18.193649827555049,209.0707],[135.21130880171148,-18.163035958333353,207.6068],[135.20336097027894,-18.145374110705461,206.8898],[135.18216675312544,-18.139486828162831,207.3052],[135.15066979152238,-18.144491018324061,207.1079]]]}}