{"type":"Feature","properties":{"featurecla":"Alkaline Lake","scalerank":7,"name":"Lake Amadeus","name_abb":"L. Amadeus","name_alt":null,"note":null,"delta":null,"dam_name":null,"year":-99,"admin":null,"min_zoom":5.7,"min_label":6.7},
"geometry":{"type": "Polygon","coordinates": [[[131.2497563787735,-24.913394121716806,455.0],[131.13878110284486,-24.863352220104417,472.2238],[131.09698139679216,-24.850694562637756,456.208],[131.08638428821541,-24.838331269298209,456.9344],[131.09639266853787,-24.818314508653259,466.7631],[130.95038806148057,-24.734420732420745,457.143],[130.92713329543716,-24.715287064157195,458.6226],[130.915653094479,-24.696153395893617,472.9318],[130.9180080074961,-24.681729553664184,457.7291],[130.93272621385267,-24.659357880002176,467.6981],[130.93213748559839,-24.644345309518457,463.717],[130.90034615986821,-24.643462217137056,464.52],[130.83646914428061,-24.649349499679687,463.8014],[130.80408909029615,-24.646994586662629,458.6996],[130.75757955820933,-24.630804559670395,463.8028],[130.66779849943418,-24.58606121234638,463.1744],[130.61981714671168,-24.576935924405291,463.2889],[130.57448507113344,-24.574875375515376,464.035],[130.53680646286057,-24.568399364718488,478.7192],[130.50148276760478,-24.556036071378941,465.9577],[130.41229043708387,-24.513353272944869,467.175],[130.38520893738774,-24.512175816436326,462.8868],[130.37284564404825,-24.533075669462676,462.256],[130.38550330151492,-24.554858614870426,474.8223],[130.41611717073658,-24.575758467896776,471.218],[130.52679808253811,-24.629921467288995,464.9011],[130.63747899433963,-24.663773341909149,481.3726],[130.66220558101867,-24.674370450485867,468.8616],[130.78672160679537,-24.76238532449824,477.8317],[130.93890786052242,-24.842452367078067,457.9584],[130.96893300148986,-24.867473317884247,460.3065],[131.01191016405107,-24.924874322674924,468.3376],[131.03751984311157,-24.95136709411679,463.462],[131.06195206566349,-24.933999610616013,472.7456],[131.07755336440147,-24.917220855369493,465.8866],[131.09492084790224,-24.911922301081148,466.7587],[131.12317980410688,-24.927523599819125,479.5302],[131.14702329840452,-24.946951632209817,457.1866],[131.1643907819053,-24.957548740786535,462.2215],[131.18352445016887,-24.961964202693508,471.1221],[131.40223699662766,-24.979626050321428,469.2029],[131.4313790452137,-24.97550495254157,459.0],[131.427552311561,-24.950778365862504,458.5],[131.3948778934494,-24.932233425853212,472.4482],[131.2497563787735,-24.913394121716806,455.0]]]}}