{"type":"Feature","properties":{"featurecla":"Alkaline Lake","scalerank":8,"name":"null609","name_abb":null,"name_alt":null,"note":"_untitled_82","delta":null,"dam_name":null,"year":-99,"admin":null,"min_zoom":6.0,"min_label":7.0},
"geometry":{"type": "Polygon","coordinates": [[[133.40509051763155,-17.800673717834258,199.8432],[133.42657909891216,-17.8418846956327,201.0655],[133.44276912590442,-17.882801309304,197.896],[133.44453531066722,-17.891632233117946,199.9741],[133.44512403892145,-17.897225151533462,200.4237],[133.44335785415871,-17.913120814398553,200.209],[133.4398254846331,-17.928133384882273,200.5984],[133.4354100227261,-17.940202314094677,200.4957],[133.43276074558196,-17.953154335688481,199.7628],[133.43570438685327,-17.969933090934973,200.9128],[133.4557211474982,-17.967872542045058,200.7533],[133.47073371798194,-17.96139653124817,195.0],[133.50164195133078,-17.942262862984592,195.0],[133.5181263424501,-17.935786852187704,195.0],[133.56875697231675,-17.922540466466785,195.0],[133.56875697231675,-17.887216771210973,195.0],[133.57199497771524,-17.876030934379969,198.3525],[133.57817662438498,-17.868083102947423,197.4141],[133.59524974375864,-17.856308537862162,199.864],[133.60025393391987,-17.849832527065246,200.5662],[133.59995956979276,-17.828343945784638,200.2782],[133.59053991772453,-17.806266636249774,200.9418],[133.5652246027912,-17.767116207341246,195.0],[133.53313891293385,-17.681161882218817,201.8002],[133.51165033165324,-17.638479083784716,201.7555],[133.479859005923,-17.615518681868451,203.3789],[133.47191117449046,-17.674980235549043,200.31],[133.46396334305791,-17.687932257142847,199.5455],[133.45454369098968,-17.696174452702536,196.1868],[133.43128892494627,-17.71236447969477,200.9539],[133.41156652842847,-17.731203783831205,200.0911],[133.3989088709618,-17.751514908603269,200.7991],[133.39596522969049,-17.774475310519534,202.0769],[133.40509051763155,-17.800673717834258,199.8432]]]}}