{"type": "Feature","bbox": [129.76292317263142,-24.46066209418828,130.24891834652578,-24.184548542938785],"geometry": {"type": "Polygon","coordinates": [[[130.06081966928866,-24.341444622699953,454.0743],[130.03991981626234,-24.327020780470519,453.2703],[130.03226634895691,-24.317895492529431,454.7544],[130.030205800067,-24.303766014427111,452.1612],[130.03520999022822,-24.298173096011595,452.9969],[130.04492400642357,-24.289636536324792,456.4912],[130.05434365849175,-24.279628156002303,454.3139],[130.05758166389023,-24.269619775679843,455.48],[130.03727053911814,-24.261671944247269,450.4923],[129.92217416540967,-24.241655183602319,452.1284],[129.90598413841741,-24.2275257055,451.6965],[129.88420119300969,-24.194851287388389,454.9373],[129.86742243776314,-24.184548542938785,454.0378],[129.77558083009808,-24.184548542938785,455.4576],[129.76969354755545,-24.196911836278304,455.4556],[129.77116536819113,-24.238417178203889,461.3839],[129.76292317263142,-24.259022667103096,459.2556],[129.79206522121746,-24.276390150603874,460.6243],[129.89774194285775,-24.306415291571284,456.6627],[129.93483182287633,-24.321427862055003,459.1087],[129.965445692098,-24.338795345555781,455.7596],[129.99252719179412,-24.361461383344903,461.945],[130.03903672388094,-24.415918746864264,452.3462],[130.06023094103443,-24.42474967067821,459.9704],[130.11586576106231,-24.427987676076668,454.0646],[130.14118107599563,-24.433286230365042,463.3274],[130.21065100999868,-24.459484637679765,474.0921],[130.24155924334752,-24.46066209418828,451.8083],[130.24891834652578,-24.447415708467361,450.5159],[130.23773250969481,-24.427104583695268,448.8567],[130.15001199980958,-24.366171209379019,451.5386],[130.12881778265609,-24.356457193183672,453.6993],[130.11086157090108,-24.3538079160395,457.2368],[130.0934940874003,-24.353513551912357,450.6645],[130.07671533215375,-24.3511586388953,450.0839],[130.06081966928866,-24.341444622699953,454.0743]]]}
,"properties": {"featurecla": "Alkaline Lake","scalerank": 8,"name": "Lake Neale","name_abb": "L. Neale","name_alt": null,"note": null,"delta": null,"dam_name": null,"year": -99,"admin": null,"min_zoom": 6.0,"min_label": 7.0,"area_km2": 460.0054,"hist_schema_id": "Elevation0-9000","hist_area_km2": {"450": 439.888,"475": 20.1174}}}