{"type": "Feature","bbox": [115.8787,-32.0132,115.9331,-31.9398],"geometry": {"type": "MultiPolygon","coordinates": [[[[115.897,-31.9527,4.188],[115.8931,-31.9412,0.3729],[115.8883,-31.9398,1.3855],[115.8857,-31.9407,0.0],[115.8846,-31.9491,0.0],[115.891,-31.9626,0.0],[115.888,-31.9663,7.1453],[115.8787,-31.971,0.0],[115.893,-31.9833,26.401],[115.8899,-31.9859,21.9655],[115.8874,-31.9838,25.3524],[115.8837,-31.9869,24.0618],[115.8888,-31.9913,24.2031],[115.8869,-31.9937,20.9452],[115.8884,-32.0064,13.4547],[115.8867,-32.0124,8.8485],[115.894,-32.0132,10.7713],[115.9018,-32.0073,18.1072],[115.9023,-32.0044,15.766],[115.9064,-32.004,17.759],[115.9145,-31.9962,16.3032],[115.9129,-31.9937,23.8254],[115.9225,-31.9941,16.6305],[115.9185,-31.9908,20.2618],[115.9241,-31.9862,18.2003],[115.9272,-31.9889,16.9408],[115.9331,-31.9839,22.2645],[115.897,-31.9527,4.188]]]]}
,"properties": {"GID_2": "AUS.11.122_1","GID_0": "AUS","country": "Australia","GID_1": "AUS.11_1","state": "WesternAustralia","NL_NAME_1": "NA","county": "VictoriaPark","VARNAME_2": "NA","NL_NAME_2": "NA","TYPE_2": "Town","ENGTYPE_2": "Town","CC_2": "58510","HASC_2": "AU.WA.VK","name": "VictoriaPark.county","area_km2": 17.9665,"hist_schema_id": "Elevation0-9000","hist_area_km2": {"0": 4.69461,"25": 13.27189}}}