{"type": "Feature","bbox": [145.0979,-38.2007,145.2396,-38.0674],"geometry": {"type": "MultiPolygon","coordinates": [[[[145.2396,-38.0777,21.3192],[145.1562,-38.0674,2.885],[145.1546,-38.0757,2.66],[145.1498,-38.0751,3.5747],[145.1487,-38.0834,3.3395],[145.1363,-38.0825,2.9938],[145.1317,-38.0838,3.3132],[145.128,-38.0818,4.5253],[145.1238,-38.0822,6.6535],[145.1245,-38.0848,4.7364],[145.1228,-38.085,0.0],[145.1244,-38.1106,0.0],[145.1212,-38.1341,0.0],[145.1178,-38.1439,3.6817],[145.1124,-38.1519,1.8855],[145.1033,-38.1564,26.0401],[145.0979,-38.1624,0.0],[145.1004,-38.1666,29.128],[145.1021,-38.1659,46.1187],[145.1288,-38.2001,63.107],[145.1335,-38.1957,83.0474],[145.1397,-38.1973,55.0913],[145.148,-38.1941,55.5583],[145.1524,-38.1945,54.7126],[145.1591,-38.1816,77.5808],[145.1818,-38.1991,54.2923],[145.2158,-38.2007,35.0768],[145.2396,-38.0777,21.3192]]]]}
,"properties": {"GID_2": "AUS.10.20_1","GID_0": "AUS","country": "Australia","GID_1": "AUS.10_1","state": "Victoria","NL_NAME_1": "NA","county": "Frankston","VARNAME_2": "NA","NL_NAME_2": "NA","TYPE_2": "City","ENGTYPE_2": "City","CC_2": "22170","HASC_2": "AU.VI.FR","name": "Frankston.county","area_km2": 130.0794,"hist_schema_id": "Elevation0-9000","hist_area_km2": {"0": 26.1451,"25": 32.9977,"50": 26.5473,"75": 25.0047,"100": 16.4681,"125": 1.8166,"150": 1.0998}}}