{"type": "Feature","bbox": [144.3104,-37.5677,144.9212,-37.0991],"geometry": {"type": "MultiPolygon","coordinates": [[[[144.3793,-37.4388,732.5922],[144.4169,-37.4466,740.8649],[144.4185,-37.4488,741.2965],[144.4185,-37.4536,739.3837],[144.4264,-37.4589,737.2859],[144.4298,-37.4569,729.1122],[144.4335,-37.4503,733.04],[144.4442,-37.4502,726.8386],[144.4465,-37.4483,728.3511],[144.4502,-37.4506,720.9839],[144.4577,-37.439,710.5968],[144.4617,-37.4361,712.6877],[144.4641,-37.4368,715.4124],[144.4652,-37.4291,716.1611],[144.4676,-37.4279,712.2878],[144.4705,-37.4288,708.9433],[144.4724,-37.4316,715.4222],[144.4697,-37.4391,695.3232],[144.4593,-37.4971,577.28],[144.4699,-37.5076,444.8151],[144.4682,-37.5168,411.2595],[144.4691,-37.5212,403.3003],[144.4669,-37.5262,405.3258],[144.4631,-37.5284,347.4336],[144.4629,-37.5329,351.8172],[144.4658,-37.5367,350.5819],[144.4635,-37.5366,338.4175],[144.4629,-37.5379,338.4175],[144.4642,-37.5385,335.5118],[144.4618,-37.5383,329.7133],[144.4612,-37.5406,345.5027],[144.458,-37.5423,346.2171],[144.4592,-37.5464,306.9986],[144.484,-37.5495,411.868],[144.4839,-37.5508,381.7478],[144.5562,-37.5589,329.6411],[144.5557,-37.5571,327.2623],[144.5611,-37.5524,374.1835],[144.5683,-37.5525,452.8676],[144.6268,-37.56,369.8637],[144.6262,-37.5629,356.6677],[144.6716,-37.5677,345.9736],[144.6638,-37.5584,356.8115],[144.6561,-37.5529,385.6728],[144.6481,-37.5429,403.4672],[144.6324,-37.5301,447.1855],[144.638,-37.4995,349.3105],[144.645,-37.495,346.5469],[144.648,-37.4969,345.1267],[144.6513,-37.4965,341.865],[144.6516,-37.4988,342.0087],[144.6552,-37.4999,341.9258],[144.6634,-37.4988,347.0767],[144.6656,-37.5011,335.0749],[144.6679,-37.4982,334.8466],[144.6738,-37.5004,338.0649],[144.6752,-37.4988,338.6711],[144.6795,-37.4994,331.4215],[144.6817,-37.4978,336.7098],[144.6779,-37.4965,345.9482],[144.6783,-37.4944,349.9218],[144.6837,-37.4925,335.2997],[144.685,-37.4956,335.0555],[144.6861,-37.493,326.7822],[144.6893,-37.4933,343.3148],[144.688,-37.4904,326.0797],[144.6917,-37.4867,321.4628],[144.693,-37.4892,325.4187],[144.6978,-37.4892,334.1794],[144.6962,-37.4851,316.4274],[144.6999,-37.4848,326.4628],[144.7011,-37.4819,312.8514],[144.702,-37.4853,317.5407],[144.7047,-37.4824,312.6711],[144.7126,-37.4828,295.4881],[144.7137,-37.4843,302.1513],[144.7118,-37.4866,319.371],[144.7127,-37.4877,288.4834],[144.7188,-37.4874,267.5354],[144.7195,-37.4837,288.6233],[144.7216,-37.4834,274.5122],[144.7262,-37.4865,262.762],[144.7325,-37.4873,286.0581],[144.7395,-37.493899999999996,244.9019],[144.7406,-37.4932,244.9019],[144.739,-37.4897,238.1208],[144.7405,-37.4893,257.343],[144.7519,-37.497,234.7171],[144.7575,-37.4948,306.9845],[144.7598,-37.5016,305.9294],[144.761,-37.5017,305.9294],[144.7604,-37.4995,306.3484],[144.7628,-37.4996,305.3648],[144.7669,-37.505,273.2242],[144.7704,-37.5018,306.6457],[144.8705,-37.5155,175.1474],[144.8715,-37.5132,172.3593],[144.8666,-37.5115,169.7613],[144.869,-37.5095,170.0857],[144.8663,-37.5069,171.4995],[144.871,-37.5057,182.9856],[144.8677,-37.5034,185.2282],[144.8728,-37.5046,198.1891],[144.8755,-37.5021,182.6852],[144.8776,-37.5054,188.29],[144.8836,-37.5048,199.325],[144.8807,-37.501,191.7943],[144.8831,-37.5016,181.1018],[144.8831,-37.4989,182.7726],[144.8876,-37.497,185.4356],[144.8869,-37.4936,188.6795],[144.8951,-37.4934,192.2081],[144.8946,-37.4911,201.1183],[144.8913,-37.4905,198.0207],[144.896,-37.4887,196.805],[144.8914,-37.4864,203.8111],[144.8941,-37.4803,209.9528],[144.8935,-37.4778,211.8333],[144.8987,-37.4786,221.943],[144.8969,-37.4766,217.9171],[144.8987,-37.4758,209.28],[144.8968,-37.475,221.5151],[144.9003,-37.4751,211.2063],[144.8999,-37.4697,213.4375],[144.9032,-37.4677,222.2376],[144.9051,-37.4685,216.7512],[144.9056,-37.4647,238.4306],[144.8988,-37.4656,221.0436],[144.8963,-37.4641,228.5125],[144.8965,-37.4626,218.8738],[144.8918,-37.4609,216.4813],[144.8979,-37.459,226.0092],[144.8967,-37.4579,218.8864],[144.8978,-37.4508,233.995],[144.8943,-37.45,234.9205],[144.8987,-37.4469,224.2692],[144.8956,-37.4453,225.6551],[144.8992,-37.4446,248.2754],[144.9,-37.4405,236.2006],[144.8976,-37.4407,224.6856],[144.8973,-37.4389,225.9529],[144.9014,-37.4362,233.2735],[144.9,-37.4339,229.6768],[144.9016,-37.4332,233.2952],[144.8982,-37.4312,233.437],[144.9015,-37.4303,242.2906],[144.8994,-37.4276,249.9551],[144.8954,-37.4282,236.2543],[144.8951,-37.4244,235.0709],[144.9028,-37.4232,233.8395],[144.9041,-37.4202,233.9065],[144.9013,-37.4185,233.3358],[144.9015,-37.4165,235.5669],[144.8985,-37.4159,234.6609],[144.9037,-37.4134,238.938],[144.9019,-37.4125,236.3168],[144.9014,-37.4085,243.0569],[144.8985,-37.4075,248.435],[144.9041,-37.4066,241.0604],[144.9033,-37.4048,245.2953],[144.9068,-37.4021,282.7775],[144.9117,-37.3816,289.3163],[144.9142,-37.3807,290.6138],[144.9157,-37.3749,321.6324],[144.9185,-37.3722,323.7935],[144.9193,-37.365,364.8427],[144.9212,-37.3633,379.9625],[144.9151,-37.3624,352.6418],[144.9178,-37.348,414.0388],[144.8922,-37.3452,275.4674],[144.8932,-37.343,296.1107],[144.8875,-37.3413,293.355],[144.8875,-37.3372,282.9316],[144.8851,-37.3347,287.8118],[144.8832,-37.3347,288.5301],[144.8833,-37.3366,302.9748],[144.8778,-37.3371,306.4519],[144.8763,-37.334,298.1049],[144.8748,-37.3342,298.1049],[144.8741,-37.3307,304.1215],[144.8704,-37.3282,317.114],[144.8691,-37.33,321.9406],[144.8663,-37.3291,327.9722],[144.8645,-37.3242,330.1212],[144.8584,-37.3267,339.8526],[144.8563,-37.323,334.4312],[144.8492,-37.3223,346.9333],[144.8557,-37.2854,388.601],[144.853,-37.288,399.4183],[144.8457,-37.2901,401.9752],[144.8252,-37.2841,479.1758],[144.8223,-37.272,484.3497],[144.829,-37.2357,588.3079],[144.8257,-37.2314,583.5446],[144.8167,-37.2302,578.9113],[144.8201,-37.2192,559.951],[144.8112,-37.2174,590.2946],[144.8123,-37.2139,574.0206],[144.8035,-37.2121,596.5878],[144.8026,-37.2148,640.7679],[144.7857,-37.2131,542.6571],[144.7777,-37.2198,527.3343],[144.7776,-37.2151,561.1793],[144.7696,-37.2151,565.9337],[144.7688,-37.2207,581.048],[144.7314,-37.2205,611.1368],[144.7295,-37.2181,625.2581],[144.7038,-37.213,602.5614],[144.7058,-37.2112,578.0487],[144.7068,-37.2129,576.8229],[144.7095,-37.2124,570.0212],[144.7115,-37.2101,562.5714],[144.7161,-37.2088,552.0066],[144.7161,-37.1836,536.8055],[144.7145,-37.1836,537.3503],[144.7141,-37.1765,553.3916],[144.7118,-37.1764,573.0613],[144.7103,-37.1595,434.6161],[144.7265,-37.1596,439.8865],[144.7257,-37.1439,425.7655],[144.7311,-37.1445,461.5082],[144.7352,-37.1265,459.4736],[144.728,-37.1256,505.346],[144.7163,-37.118,514.6174],[144.7153,-37.1155,525.3359],[144.7171,-37.1111,545.6985],[144.7137,-37.1049,576.434],[144.7154,-37.1003,585.0154],[144.6974,-37.1002,586.701],[144.6973,-37.1036,534.1331],[144.6917,-37.1045,552.9131],[144.6913,-37.1079,494.8361],[144.6022,-37.1072,440.4138],[144.5946,-37.1061,435.3985],[144.5803,-37.0993,382.3656],[144.5739,-37.0991,367.6409],[144.5619,-37.1049,376.7716],[144.552,-37.1071,365.8627],[144.5492,-37.1109,382.9652],[144.5419,-37.1136,358.0211],[144.5418,-37.117,348.2169],[144.5448,-37.1227,359.9496],[144.5413,-37.1221,358.0177],[144.5421,-37.1246,373.8679],[144.5406,-37.1247,364.1595],[144.5393,-37.1296,378.2443],[144.5357,-37.1328,400.0963],[144.5334,-37.1407,382.9638],[144.529,-37.1439,388.1628],[144.5292,-37.1497,405.4924],[144.5267,-37.1508,390.3328],[144.5273,-37.1773,401.0386],[144.5218,-37.1785,443.3461],[144.5143,-37.1744,494.3346],[144.3673,-37.1573,387.5214],[144.3668,-37.1641,389.1085],[144.3725,-37.1673,419.6751],[144.3745,-37.1733,412.7155],[144.3772,-37.1758,421.6537],[144.3805,-37.1753,429.0888],[144.3755,-37.1809,437.0355],[144.363,-37.1794,450.5768],[144.3603,-37.194,474.6342],[144.3754,-37.1958,453.3773],[144.3761,-37.2022,464.4615],[144.3684,-37.2067,447.6532],[144.3614,-37.2081,459.3518],[144.3564,-37.2127,452.7695],[144.3568,-37.2146,451.786],[144.344,-37.2262,465.468],[144.3378,-37.2425,472.9589],[144.3377,-37.2465,487.6555],[144.3358,-37.2483,507.3515],[144.3352,-37.2525,484.6277],[144.333,-37.2538,499.5222],[144.3335,-37.2569,505.417],[144.328,-37.2554,496.1525],[144.3239,-37.2597,499.923],[144.3234,-37.2643,500.9327],[144.3197,-37.2715,521.0023],[144.3208,-37.2794,545.7642],[144.318,-37.2813,550.5341],[144.3185,-37.2839,554.3046],[144.3153,-37.2826,556.3326],[144.3142,-37.2872,556.9195],[144.3104,-37.2928,592.3777],[144.3161,-37.2982,586.2347],[144.3302,-37.3021,644.1115],[144.3403,-37.3097,663.3228],[144.3604,-37.3184,538.2393],[144.3691,-37.3201,553.2363],[144.3736,-37.3261,582.0315],[144.3803,-37.3298,596.2643],[144.3957,-37.3316,602.1992],[144.3916,-37.3503,609.1052],[144.3928,-37.3582,630.261],[144.419,-37.3605,634.1215],[144.4151,-37.3823,635.748],[144.4175,-37.3898,673.0106],[144.4158,-37.3963,682.3655],[144.4138,-37.3971,697.0176],[144.382,-37.3933,703.3673],[144.3778,-37.4159,736.6822],[144.3808,-37.4198,730.5245],[144.3801,-37.4236,710.6437],[144.3826,-37.4237,726.5595],[144.3793,-37.4388,732.5922]]]]}
,"properties": {"GID_2": "AUS.10.39_1","GID_0": "AUS","country": "Australia","GID_1": "AUS.10_1","state": "Victoria","NL_NAME_1": "NA","county": "MacedonRanges","VARNAME_2": "NA","NL_NAME_2": "NA","TYPE_2": "Shire","ENGTYPE_2": "Shire","CC_2": "24130","HASC_2": "AU.VI.MR","name": "MacedonRanges.county","area_km2": 1746.972,"hist_schema_id": "Elevation0-9000","hist_area_km2": {"175": 0.656,"200": 1.85,"225": 5.368,"250": 19.79,"275": 24.678,"300": 33.032,"325": 54.972,"350": 53.947,"375": 49.805,"400": 53.707,"425": 95.282,"450": 159.424,"475": 196.846,"500": 169.639,"525": 189.454,"550": 177.427,"575": 132.936,"600": 94.479,"625": 65.879,"650": 43.677,"675": 36.066,"700": 28.09,"725": 24.783,"750": 11.29,"775": 4.854,"800": 3.134,"825": 2.426,"850": 2.392,"875": 2.679,"900": 2.376,"925": 2.763,"950": 1.803,"975": 0.96,"1000": 0.505}}}