{"type": "Feature","bbox": [144.2593,-36.7626,145.1576,-35.8844],"geometry": {"type": "MultiPolygon","coordinates": [[[[144.4084,-35.8987,83.1606],[144.4021,-35.8937,89.3264],[144.3947,-35.8916,88.7698],[144.3819,-35.8844,88.24],[144.3654,-35.8855,84.6368],[144.351,-35.8909,83.6788],[144.3486,-35.8942,82.7257],[144.3436,-35.8943,83.127],[144.3441,-35.9022,81.666],[144.3419,-35.9066,81.893],[144.3471,-35.9069,81.6785],[144.3491,-35.9109,83.7124],[144.3515,-35.9086,83.2509],[144.3548,-35.9093,86.2067],[144.3548,-35.9124,82.9912],[144.3521,-35.9161,81.7757],[144.3534,-35.9195,85.6353],[144.3504,-35.9205,82.5143],[144.3498,-35.9243,83.5981],[144.346,-35.9281,86.9518],[144.3386,-35.9252,84.7926],[144.3309,-35.9276,85.364],[144.3356,-35.9342,87.098],[144.3062,-35.9342,82.8008],[144.3013,-35.9286,83.2189],[144.286,-35.9236,83.443],[144.2665,-35.9293,83.7902],[144.2625,-35.9321,83.8232],[144.2593,-35.9466,82.8663],[144.2601,-35.949,83.3604],[144.2677,-35.9601,82.3036],[144.2801,-35.97,83.1496],[144.2914,-35.9844,83.3309],[144.2877,-35.9848,82.0601],[144.2892,-35.9878,82.2045],[144.2853,-35.9868,81.8977],[144.2853,-35.9897,84.3204],[144.2814,-35.989,83.5985],[144.2804,-35.9933,84.3582],[144.2769,-35.994,82.9565],[144.2799,-35.9986,85.4379],[144.277,-35.9996,83.1564],[144.2763,-36.0036,83.773],[144.2793,-36.0064,83.6815],[144.2799,-36.0133,83.5097],[144.2866,-36.0187,84.0957],[144.291,-36.0189,84.1204],[144.2935,-36.0245,84.7358],[144.3002,-36.03,85.0714],[144.3049,-36.0325,85.7795],[144.3067,-36.0319,85.8187],[144.3094,-36.0373,86.5601],[144.3089,-36.0427,86.2665],[144.3161,-36.0439,87.3149],[144.3151,-36.0467,87.1238],[144.3178,-36.0498,87.215],[144.3093,-36.0532,87.7469],[144.3093,-36.0552,87.7919],[144.307,-36.0558,87.039],[144.3039,-36.0613,88.1755],[144.3064,-36.0621,89.7149],[144.3079,-36.0651,89.0325],[144.3062,-36.0679,88.3347],[144.3064,-36.072,87.6459],[144.3131,-36.0755,89.0009],[144.3137,-36.0857,89.7554],[144.3183,-36.0919,89.0294],[144.3187,-36.1012,91.3895],[144.3148,-36.1003,91.0913],[144.3091,-36.1054,91.3696],[144.3069,-36.1102,93.2284],[144.3085,-36.114,90.6002],[144.3051,-36.1155,92.5531],[144.306,-36.1185,90.887],[144.3027,-36.1216,90.8236],[144.3023,-36.1254,91.0045],[144.2955,-36.1228,91.2955],[144.2951,-36.1258,91.7313],[144.2919,-36.1252,90.914],[144.2892,-36.1292,91.9147],[144.2904,-36.1314,92.4127],[144.2882,-36.1339,92.8296],[144.2892,-36.1363,93.0451],[144.287,-36.1384,93.2109],[144.2856,-36.1438,93.4581],[144.2868,-36.1488,94.2779],[144.2832,-36.1523,93.5457],[144.2865,-36.1534,93.7557],[144.2851,-36.1585,95.6604],[144.2866,-36.1632,94.4421],[144.2896,-36.1637,94.8972],[144.2891,-36.1667,95.2471],[144.2811,-36.1739,95.2631],[144.2824,-36.1816,95.8528],[144.2767,-36.1882,95.6483],[144.2788,-36.1945,95.9326],[144.2777,-36.1975,95.6986],[144.2722,-36.2021,95.8587],[144.2702,-36.2101,97.4698],[144.2718,-36.2115,97.712],[144.2703,-36.2134,97.4562],[144.2707,-36.2198,97.6506],[144.2677,-36.222,98.0927],[144.2668,-36.2248,97.479],[144.273,-36.2294,97.985],[144.2708,-36.2318,97.4723],[144.2735,-36.2354,97.477],[144.2698,-36.2377,97.6453],[144.2713,-36.239,98.0653],[144.271,-36.2439,98.0464],[144.2751,-36.2474,98.5155],[144.2735,-36.2486,98.3721],[144.2753,-36.2534,98.7547],[144.2738,-36.255,99.9996],[144.2816,-36.2626,99.4148],[144.2817,-36.3277,102.6559],[144.3318,-36.3277,104.8078],[144.3319,-36.3709,107.5906],[144.3299,-36.3709,107.7425],[144.3301,-36.3853,108.844],[144.3583,-36.3852,113.5966],[144.3585,-36.3914,112.6713],[144.361,-36.3918,113.4063],[144.359,-36.3944,112.8553],[144.3616,-36.3942,114.7697],[144.3625,-36.3967,116.9722],[144.3684,-36.3957,114.9938],[144.3694,-36.4078,112.7629],[144.3997,-36.4075,117.8764],[144.4157,-36.3963,112.5074],[144.4302,-36.4113,115.4215],[144.4301,-36.4067,114.7685],[144.6682,-36.4066,120.9061],[144.6653,-36.4108,121.1509],[144.6691,-36.4127,117.5854],[144.6699,-36.4184,120.9165],[144.6723,-36.4192,120.31],[144.6741,-36.4238,120.3562],[144.6738,-36.4261,120.9703],[144.6696,-36.4241,120.8515],[144.6658,-36.4271,119.7531],[144.6661,-36.431,119.0225],[144.6611,-36.4331,120.8068],[144.6588,-36.4402,122.3268],[144.6721,-36.4433,119.9435],[144.6737,-36.4473,122.3999],[144.6701,-36.4477,122.11],[144.6683,-36.4508,121.8816],[144.6717,-36.4553,119.7162],[144.6707,-36.4582,122.8147],[144.6671,-36.4586,120.0061],[144.6677,-36.4603,121.7314],[144.6656,-36.4611,122.6201],[144.6615,-36.4591,122.1246],[144.6592,-36.4638,120.896],[144.6567,-36.4634,121.2016],[144.6533,-36.4656,122.3349],[144.6547,-36.4726,122.9175],[144.6492,-36.4743,121.8008],[144.647,-36.4715,123.8607],[144.6426,-36.4726,125.445],[144.6389,-36.4746,122.2924],[144.6339,-36.4806,127.4314],[144.632,-36.4807,124.594],[144.6299,-36.4779,127.7537],[144.6238,-36.4786,125.4591],[144.6206,-36.4813,125.4289],[144.6215,-36.4846,124.7645],[144.6239,-36.4849,127.9843],[144.6229,-36.487,125.5952],[144.6262,-36.4922,129.5473],[144.6212,-36.4947,126.1299],[144.6186,-36.4929,129.8301],[144.6118,-36.4975,127.4213],[144.6114,-36.4993,128.5334],[144.6144,-36.4996,134.429],[144.6125,-36.5018,130.9586],[144.615,-36.5044,127.1489],[144.6164,-36.5043,125.8517],[144.6163,-36.5023,128.2267],[144.6214,-36.5018,129.39],[144.6235,-36.5045,131.1337],[144.6199,-36.509,131.3149],[144.6135,-36.5109,127.7976],[144.6103,-36.5168,127.3052],[144.6129,-36.5207,128.5611],[144.6209,-36.5205,133.0174],[144.6264,-36.5248,135.6634],[144.626,-36.5274,135.4558],[144.624,-36.5283,132.576],[144.6201,-36.5259,133.0297],[144.6082,-36.5294,131.0162],[144.6093,-36.5322,130.0968],[144.613,-36.5328,130.6505],[144.6138,-36.5352,130.3382],[144.6163,-36.5345,132.4455],[144.6171,-36.5378,131.0311],[144.6146,-36.5431,133.6295],[144.6063,-36.5468,130.5955],[144.6089,-36.55,131.5602],[144.6083,-36.5524,131.5368],[144.6118,-36.5537,133.1085],[144.6098,-36.5567,137.3514],[144.6018,-36.5545,132.3803],[144.5872,-36.5579,135.9501],[144.5871,-36.5625,134.7755],[144.596,-36.5689,134.467],[144.5984,-36.5745,133.7492],[144.5892,-36.584,134.5178],[144.5853,-36.583,135.1473],[144.5834,-36.5847,134.1471],[144.5897,-36.5948,135.2784],[144.5863,-36.5982,135.5713],[144.5813,-36.5968,138.0679],[144.5774,-36.5992,137.2331],[144.5788,-36.6029,136.5281],[144.5711,-36.6079,137.8327],[144.5712,-36.6107,135.3988],[144.5668,-36.6143,137.1887],[144.5618,-36.6134,137.6468],[144.5604,-36.6169,136.1952],[144.5634,-36.6185,137.6371],[144.5639,-36.6207,140.6614],[144.5596,-36.6242,139.7482],[144.5601,-36.6271,144.3801],[144.5489,-36.6325,137.6493],[144.5437,-36.6419,140.1747],[144.5457,-36.6468,140.541],[144.5391,-36.6495,140.9056],[144.5392,-36.6535,143.1443],[144.5375,-36.6555,146.2834],[144.5309,-36.6592,140.8544],[144.5254,-36.6598,144.3106],[144.5252,-36.6631,142.8506],[144.5287,-36.6659,144.1365],[144.5284,-36.6705,142.6331],[144.531,-36.6723,150.8851],[144.5298,-36.6795,145.8692],[144.5317,-36.6857,147.3342],[144.5348,-36.6881,144.2986],[144.5325,-36.6919,144.904],[144.5262,-36.6893,147.4177],[144.5225,-36.6931,145.8602],[144.5266,-36.7019,146.0262],[144.5249,-36.7067,150.2921],[144.5196,-36.7115,147.5039],[144.5188,-36.7142,146.8651],[144.5208,-36.7159,156.0668],[144.518,-36.7254,153.9577],[144.6671,-36.7254,194.0961],[144.6662,-36.7626,228.3108],[144.6791,-36.7612,229.7144],[144.7229,-36.761,252.2237],[144.7288,-36.7582,233.8005],[144.7345,-36.7586,199.0996],[144.7409,-36.7558,191.5365],[144.7503,-36.7576,168.5296],[144.755,-36.7516,171.5398],[144.7669,-36.7473,164.7818],[144.7718,-36.7492,159.7928],[144.7714,-36.7514,165.5476],[144.8518,-36.7507,206.4786],[144.9319,-36.7479,202.128],[144.9321,-36.6997,162.6555],[144.9867,-36.6997,163.4353],[145.0171,-36.6688,160.1073],[145.0167,-36.6758,157.6948],[145.0205,-36.682,146.8592],[145.0426,-36.682,141.2668],[145.0425,-36.6722,142.6037],[145.0375,-36.6722,144.0933],[145.0435,-36.6507,177.8016],[145.0874,-36.6755,149.5524],[145.1317,-36.6754,147.9967],[145.1317,-36.5873,126.077],[145.15,-36.5872,148.3942],[145.1499,-36.5601,122.1705],[145.1548,-36.5596,124.0356],[145.1535,-36.5577,122.6439],[145.154,-36.538,123.658],[145.1576,-36.5305,122.3849],[145.1514,-36.5271,113.0239],[145.1498,-36.499,113.8164],[145.032,-36.499,123.778],[145.0318,-36.4264,108.5602],[145.032,-36.343,105.2346],[145.1503,-36.3431,107.599],[145.1503,-36.2843,105.3819],[145.132,-36.2844,106.5592],[145.1319,-36.1804,95.8302],[145.1279,-36.1831,100.8952],[145.1244,-36.1768,89.5446],[145.1214,-36.1798,98.7776],[145.1177,-36.1764,92.2133],[145.1144,-36.1764,101.1112],[145.1124,-36.1674,94.7709],[145.1088,-36.1669,93.9894],[145.1061,-36.1691,91.0531],[145.1015,-36.1675,90.5652],[145.1,-36.1638,94.9542],[145.0949,-36.1649,101.1514],[145.092,-36.1615,100.6726],[145.0891,-36.1618,98.7661],[145.0918,-36.1598,105.7441],[145.0911,-36.1577,102.3943],[145.0886,-36.1583,112.8915],[145.0865,-36.1618,99.8352],[145.0828,-36.1626,92.6452],[145.0816,-36.1654,95.4033],[145.0797,-36.1652,103.2966],[145.077,-36.1617,87.8618],[145.0771,-36.1646,100.8395],[145.07,-36.1658,91.3957],[145.0673,-36.1693,88.7014],[145.063,-36.1675,98.8175],[145.0636,-36.1707,93.9443],[145.0622,-36.1712,93.9443],[145.0608,-36.1703,96.1437],[145.0607,-36.1641,99.2102],[145.0573,-36.1642,90.0691],[145.0564,-36.1621,96.8317],[145.0548,-36.1644,94.033],[145.0462,-36.1614,100.7936],[145.0452,-36.1597,90.1784],[145.047,-36.1572,92.8098],[145.045,-36.1562,102.3878],[145.0426,-36.1575,89.9027],[145.0416,-36.1549,90.8339],[145.0409,-36.1586,96.3321],[145.0394,-36.1588,96.3321],[145.0383,-36.1574,97.5751],[145.0397,-36.1543,99.1686],[145.0354,-36.1557,92.5462],[145.037,-36.1518,105.4693],[145.0326,-36.1526,94.6995],[145.0329,-36.155,96.9605],[145.0302,-36.1555,91.7417],[145.0312,-36.152,94.6995],[145.0287,-36.148,94.0668],[145.0269,-36.1496,93.5605],[145.0273,-36.1543,94.7395],[145.0212,-36.1542,90.6199],[145.0235,-36.1592,93.8746],[145.0212,-36.159,91.9854],[145.019,-36.1552,93.6418],[145.0169,-36.1549,93.9567],[145.0155,-36.1579,93.9863],[145.018,-36.1611,95.653],[145.0153,-36.1614,95.5348],[145.0109,-36.1552,94.0915],[145.0144,-36.1523,95.6744],[145.0108,-36.1505,90.8433],[145.011,-36.1474,91.4416],[145.0096,-36.1478,94.7762],[145.0087,-36.1515,99.4041],[145.0067,-36.1501,95.9568],[145.0076,-36.1461,97.2211],[145.0126,-36.146,97.1104],[145.0094,-36.1411,96.6417],[145.0117,-36.139,92.4642],[145.0038,-36.1365,88.6581],[145.0036,-36.1394,93.8053],[145.0012,-36.1394,91.4199],[145.0018,-36.1345,89.8595],[144.9989,-36.134,90.4378],[145.0033,-36.1307,94.06],[145.0038,-36.1286,90.6351],[144.9998,-36.1288,91.5227],[144.9966,-36.1245,95.5877],[144.9932,-36.124,100.1499],[144.995,-36.122,93.0247],[144.9948,-36.1195,99.1202],[144.9921,-36.1177,91.6802],[144.9953,-36.1146,94.1143],[144.9893,-36.1149,93.1008],[144.9862,-36.1183,92.4467],[144.9868,-36.1203,92.8163],[144.9834,-36.1219,96.9819],[144.9845,-36.1252,93.9395],[144.9795,-36.1236,89.6116],[144.9814,-36.127,90.8598],[144.9767,-36.125,92.271],[144.9723,-36.1255,92.1092],[144.9749,-36.1192,94.7374],[144.9691,-36.1204,92.5127],[144.9664,-36.1169,98.9059],[144.9636,-36.1163,95.7126],[144.9667,-36.1136,97.2062],[144.963,-36.1123,95.8714],[144.967,-36.1105,105.6002],[144.9617,-36.1094,95.3401],[144.9601,-36.1069,96.928],[144.9565,-36.1083,94.3125],[144.9528,-36.1137,96.7143],[144.9429,-36.1097,94.2893],[144.9393,-36.1135,92.0101],[144.9361,-36.1091,91.5499],[144.9313,-36.1092,94.6446],[144.9326,-36.1047,97.4706],[144.927,-36.1055,89.158],[144.9305,-36.1003,91.9337],[144.9242,-36.0989,88.7496],[144.9253,-36.0925,100.1198],[144.9202,-36.0946,98.7284],[144.9189,-36.092,91.9538],[144.9164,-36.0914,94.7677],[144.9189,-36.0884,91.5326],[144.9144,-36.0882,95.3122],[144.9144,-36.0864,91.6328],[144.9117,-36.0865,95.812],[144.9096,-36.0835,96.8471],[144.9056,-36.0845,90.4891],[144.9039,-36.0778,97.2795],[144.9018,-36.0792,90.6521],[144.9011,-36.0838,92.2847],[144.8994,-36.0825,92.7611],[144.8991,-36.0794,101.6808],[144.8966,-36.0795,101.9342],[144.8962,-36.0837,96.2013],[144.8977,-36.0856,98.8255],[144.8963,-36.0886,96.2449],[144.894,-36.0879,90.6629],[144.8928,-36.085,91.8561],[144.8908,-36.0859,95.1084],[144.8913,-36.0888,92.6314],[144.8952,-36.0921,91.8572],[144.8897,-36.094,94.6919],[144.8839,-36.0927,90.9365],[144.8821,-36.0892,94.1452],[144.8748,-36.0943,92.4772],[144.8747,-36.0904,94.5125],[144.87,-36.0885,93.1032],[144.8687,-36.0891,93.1032],[144.8694,-36.0924,94.359],[144.8675,-36.0927,92.3075],[144.8644,-36.088,95.3499],[144.8612,-36.0879,95.6836],[144.8611,-36.0847,95.6451],[144.8602,-36.0897,93.9919],[144.8526,-36.0902,94.4384],[144.8545,-36.093,95.4242],[144.8497,-36.0934,86.9598],[144.852,-36.0952,91.2674],[144.8495,-36.0994,95.1385],[144.856,-36.0983,94.5675],[144.8579,-36.0989,94.5675],[144.8582,-36.1013,93.1636],[144.8576,-36.1032,95.5086],[144.8521,-36.1038,90.6964],[144.8525,-36.1069,93.8351],[144.849,-36.1025,94.0677],[144.8467,-36.1065,89.862799999999993],[144.8497,-36.1081,95.5855],[144.8477,-36.1095,91.8757],[144.8419,-36.1054,94.4356],[144.8416,-36.1018,93.4643],[144.8349,-36.1025,96.5568],[144.8322,-36.1049,96.5377],[144.8298,-36.1028,89.4477],[144.8239,-36.1026,87.4215],[144.8197,-36.108,100.3608],[144.8172,-36.105,91.4209],[144.8102,-36.1023,92.5309],[144.8164,-36.1097,90.8725],[144.8134,-36.1106,90.1677],[144.8064,-36.1075,91.7106],[144.8079,-36.1103,90.0997],[144.8071,-36.1134,88.6719],[144.8133,-36.1135,94.171],[144.8098,-36.1182,91.7898],[144.8084,-36.1234,90.9128],[144.8052,-36.1237,91.831],[144.8011,-36.1199,92.0703],[144.7969,-36.1201,94.7654],[144.7948,-36.1173,86.0],[144.7917,-36.1228,88.1315],[144.788,-36.1213,94.5194],[144.7853,-36.1223,86.7956],[144.7881,-36.125,93.3685],[144.7869,-36.1277,87.9767],[144.778,-36.1299,95.3619],[144.7735,-36.1254,95.7017],[144.7736,-36.1209,89.5047],[144.7713,-36.1195,94.7596],[144.7716,-36.116,91.0275],[144.7684,-36.1159,89.1697],[144.7641,-36.1196,97.7886],[144.7569,-36.1188,91.0733],[144.7534,-36.1225,89.9496],[144.7478,-36.1215,96.5945],[144.7448,-36.1164,89.5864],[144.7435,-36.109,86.7137],[144.7407,-36.1076,91.27],[144.7313,-36.112,91.0295],[144.7352,-36.1155,92.8446],[144.7337,-36.117,90.9355],[144.7264,-36.1178,87.6419],[144.7254,-36.1123,86.0],[144.722,-36.1145,90.886],[144.7184,-36.1136,88.0973],[144.7174,-36.111,92.7669],[144.7197,-36.1062,92.6931],[144.7191,-36.1007,92.1375],[144.7253,-36.099,87.5854],[144.7233,-36.0946,86.0],[144.726,-36.0906,94.5536],[144.7252,-36.0893,90.8857],[144.7198,-36.0906,95.6022],[144.719,-36.0859,88.6832],[144.7151,-36.0863,95.8513],[144.712,-36.0911,87.602],[144.7071,-36.0929,90.5488],[144.7044,-36.0923,90.9573],[144.6989,-36.0873,87.4358],[144.6975,-36.094,89.2578],[144.6929,-36.0912,92.9954],[144.6891,-36.0955,90.3401],[144.6842,-36.0955,92.5281],[144.6847,-36.0899,96.6382],[144.6824,-36.084,92.6242],[144.6858,-36.0814,90.2967],[144.6863,-36.0754,91.4333],[144.6915,-36.0731,91.7701],[144.6924,-36.0698,88.5903],[144.6879,-36.0664,87.4341],[144.6896,-36.0629,88.1767],[144.6887,-36.0613,92.1273],[144.6786,-36.0625,92.2462],[144.6785,-36.0693,87.9823],[144.6741,-36.068,87.4967],[144.6712,-36.0713,95.398],[144.6686,-36.0717,94.4148],[144.6679,-36.0686,86.0],[144.6646,-36.077,94.5165],[144.6605,-36.0755,90.2782],[144.658,-36.0704,88.5423],[144.655,-36.0753,91.4794],[144.6528,-36.0736,88.0936],[144.6541,-36.067,89.8899],[144.6522,-36.0631,91.8306],[144.6532,-36.0532,87.071],[144.6469,-36.051,90.4109],[144.6464,-36.0561,92.782],[144.6439,-36.0567,95.6068],[144.6413,-36.0554,93.2542],[144.6375,-36.0474,87.5099],[144.6328,-36.0481,93.5393],[144.6294,-36.051,89.9662],[144.625,-36.0521,90.0974],[144.6275,-36.0586,97.8728],[144.6263,-36.0618,99.9318],[144.6183,-36.0597,95.07],[144.6197,-36.0632,90.0653],[144.6251,-36.0633,93.097],[144.6282,-36.0653,94.9104],[144.621,-36.071,88.8037],[144.6221,-36.0763,97.3489],[144.6177,-36.0772,90.3129],[144.6104,-36.0715,93.1058],[144.6158,-36.0666,87.7934],[144.6115,-36.0664,93.1621],[144.6084,-36.0636,94.2686],[144.6137,-36.0511,91.2426],[144.6176,-36.0469,91.3246],[144.617,-36.0448,101.396],[144.613,-36.0427,95.9528],[144.6189,-36.0391,89.9249],[144.6154,-36.0357,90.366],[144.6156,-36.0317,90.1038],[144.6061,-36.0364,86.0],[144.6064,-36.038,92.9229],[144.6102,-36.0394,97.8203],[144.6066,-36.0426,88.9177],[144.603,-36.042,90.303],[144.5991,-36.0374,90.6868],[144.5921,-36.0434,92.2177],[144.5903,-36.0429,95.7916],[144.5888,-36.0384,90.6214],[144.5833,-36.039,90.4014],[144.5834,-36.033,86.0],[144.5813,-36.0299,91.4084],[144.5858,-36.029,92.0804],[144.5865,-36.0273,87.135],[144.5793,-36.021,89.1792],[144.5731,-36.0246,91.8503],[144.5711,-36.0241,93.9717],[144.5705,-36.0171,87.7753],[144.5664,-36.0183,95.286],[144.5642,-36.017,89.2478],[144.5652,-36.0106,87.3492],[144.5634,-36.0078,88.4592],[144.5612,-36.008,88.8659],[144.561,-36.0131,90.5578],[144.5576,-36.0141,87.8857],[144.5537,-36.003,92.4642],[144.5472,-36.005,89.3861],[144.5475,-36.0006,90.1206],[144.5397,-36.0013,90.8559],[144.5283,-35.993899999999996,87.9354],[144.5187,-35.996,88.715],[144.5158,-35.9951,87.983],[144.5149,-35.9913,83.5],[144.512,-35.9889,90.2429],[144.5168,-35.986,84.1167],[144.5165,-35.9791,85.5055],[144.5217,-35.9732,85.851],[144.5211,-35.9703,86.8096],[144.5165,-35.9701,95.0573],[144.5132,-35.9749,92.1366],[144.5099,-35.9739,88.866],[144.5111,-35.9692,90.6185],[144.5147,-35.9667,85.2717],[144.513,-35.9652,90.5639],[144.5073,-35.9709,85.355],[144.5011,-35.9706,90.05],[144.4992,-35.9678,86.6457],[144.5025,-35.963,89.2982],[144.5019,-35.958,85.399],[144.4998,-35.9607,87.5302],[144.4998,-35.9652,84.1222],[144.4967,-35.969,87.1133],[144.4933,-35.9682,92.4529],[144.4911,-35.965,83.5],[144.489,-35.9655,90.8082],[144.4872,-35.9635,88.1202],[144.4887,-35.9572,86.0436],[144.4832,-35.96,92.6825],[144.481,-35.9578,92.4098],[144.4835,-35.955,84.4914],[144.4818,-35.9536,87.9179],[144.4824,-35.9518,83.8996],[144.4879,-35.9512,83.5],[144.4876,-35.9495,88.9863],[144.483,-35.9495,87.1796],[144.4798,-35.9533,89.3384],[144.4777,-35.9514,83.9626],[144.4809,-35.9474,91.8959],[144.4794,-35.9453,84.2861],[144.4764,-35.9457,85.4113],[144.4787,-35.9468,96.8432],[144.4762,-35.9464,84.5237],[144.475,-35.9479,85.2527],[144.4718,-35.9458,86.2721],[144.4669,-35.9462,92.0404],[144.4675,-35.9433,95.2157],[144.4722,-35.9407,84.7086],[144.4702,-35.9395,87.9958],[144.4641,-35.9409,86.102],[144.4636,-35.9385,83.9527],[144.4676,-35.9352,86.9511],[144.4662,-35.9333,93.6323],[144.4618,-35.9344,85.9452],[144.4618,-35.9384,90.648],[144.4605,-35.9396,99.4184],[144.4586,-35.9388,93.7267],[144.4576,-35.9357,85.7137],[144.4533,-35.9372,89.5924],[144.447,-35.9355,90.0941],[144.4456,-35.9311,83.0],[144.4407,-35.9324,87.4517],[144.4387,-35.9298,87.7537],[144.4393,-35.9247,101.4337],[144.4357,-35.9249,90.472],[144.4327,-35.92,84.1935],[144.4265,-35.9187,84.6041],[144.4268,-35.9135,82.5],[144.4229,-35.9116,96.7927],[144.4234,-35.906,86.6236],[144.4203,-35.9063,84.5167],[144.4206,-35.9109,82.8357],[144.418,-35.9111,84.3557],[144.4158,-35.9091,84.971],[144.4178,-35.9049,84.757],[144.421,-35.9027,82.8954],[144.4249,-35.9024,84.129],[144.4247,-35.9005,84.8799],[144.4197,-35.8999,89.716],[144.4156,-35.9046,85.3811],[144.4097,-35.9048,87.509],[144.4075,-35.903,83.4635],[144.4084,-35.8987,83.1606]]]]}
,"properties": {"GID_2": "AUS.10.12_1","GID_0": "AUS","country": "Australia","GID_1": "AUS.10_1","state": "Victoria","NL_NAME_1": "NA","county": "Campaspe","VARNAME_2": "NA","NL_NAME_2": "NA","TYPE_2": "Shire","ENGTYPE_2": "Shire","CC_2": "21370","HASC_2": "AU.VI.CP","name": "Campaspe.county","area_km2": 4520.038,"hist_schema_id": "Elevation0-9000","hist_area_km2": {"75": 239.148,"100": 2790.996,"125": 683.379,"150": 372.825,"175": 283.703,"200": 107.768,"225": 27.21,"250": 7.838,"275": 3.382,"300": 1.835,"325": 0.985,"350": 0.646,"375": 0.221,"400": 0.102}}}