{"type":"Feature","properties":{"GID_2":"AUS.10.60_1","GID_0":"AUS","country":"Australia","GID_1":"AUS.10_1","state":"Victoria","NL_NAME_1":"NA","county":"Pyrenees","VARNAME_2":"NA","NL_NAME_2":"NA","TYPE_2":"Shire","ENGTYPE_2":"Shire","CC_2":"25990","HASC_2":"AU.VI.PY","name":"Pyrenees.county"},
"geometry":{"type": "MultiPolygon","coordinates": [[[[143.1807,-37.7315,226.028],[143.185,-37.7309,229.1494],[143.1891,-37.7347,229.0615],[143.1952,-37.7337,229.5213],[143.2009,-37.7366,229.7001],[143.2033,-37.7345,234.0361],[143.212,-37.7356,233.7581],[143.2153,-37.7345,237.9274],[143.2173,-37.738,239.3145],[143.2187,-37.7367,232.465],[143.2249,-37.7371,234.3438],[143.2242,-37.74,233.6317],[143.227,-37.7432,232.7143],[143.2268,-37.7449,232.7725],[143.232,-37.7449,232.3035],[143.2322,-37.7464,236.6674],[143.2346,-37.7438,238.2693],[143.2317,-37.7423,234.8885],[143.2363,-37.743,238.2693],[143.237,-37.7418,233.9127],[143.2425,-37.7447,235.2262],[143.2411,-37.7456,235.2262],[143.2419,-37.7467,240.5009],[143.2449,-37.7457,241.7822],[143.2441,-37.7448,235.6733],[143.2459,-37.7426,238.9871],[143.2496,-37.7428,238.1804],[143.2505,-37.7397,237.1697],[143.2487,-37.7385,241.0073],[143.2561,-37.7349,238.9048],[143.2548,-37.7322,246.8487],[143.2607,-37.7345,239.9825],[143.2671,-37.7335,241.3507],[143.2636,-37.7387,243.7054],[143.2673,-37.7407,247.6367],[143.2686,-37.7454,245.8287],[143.2709,-37.7457,244.6659],[143.2693,-37.7489,248.212],[143.273,-37.75,246.054],[143.2719,-37.7534,248.2932],[143.2748,-37.7531,248.0316],[143.2772,-37.7561,250.2766],[143.2826,-37.7542,254.161],[143.2846,-37.7574,252.8126],[143.2907,-37.755,255.1145],[143.2973,-37.7563,260.4757],[143.2982,-37.7545,263.4437],[143.3013,-37.7555,259.0011],[143.3023,-37.7537,256.8751],[143.3041,-37.7566,262.9952],[143.3054,-37.751,260.9827],[143.3084,-37.75,257.3202],[143.3074,-37.7484,260.0766],[143.3157,-37.7482,263.0349],[143.3171,-37.7467,259.5836],[143.3158,-37.7449,260.3358],[143.3227,-37.7435,261.2704],[143.3217,-37.738,262.9735],[143.3176,-37.7385,263.7306],[143.3161,-37.7353,268.6605],[143.3252,-37.7362,264.0451],[143.3207,-37.7348,262.8355],[143.3195,-37.7284,265.9729],[143.3183,-37.7278,262.7091],[143.3228,-37.7284,265.0463],[143.3229,-37.726,267.7878],[143.3268,-37.723,268.454],[143.3273,-37.7195,269.2167],[143.3258,-37.7176,267.1002],[143.3218,-37.7171,266.0366],[143.3266,-37.7147,266.8322],[143.3205,-37.712,267.5563],[143.3227,-37.7108,272.1342],[143.3254,-37.7119,268.1426],[143.327,-37.7101,281.3565],[143.3306,-37.7126,273.3294],[143.333,-37.7087,279.0529],[143.3391,-37.7109,268.8412],[143.3424,-37.7085,268.8229],[143.342,-37.704,269.9959],[143.3403,-37.7047,280.3387],[143.3393,-37.703,278.3051],[143.3405,-37.7011,271.0816],[143.3423,-37.7013,270.5603],[143.3405,-37.699,271.3323],[143.3434,-37.6992,272.1228],[143.3401,-37.6967,271.6837],[143.3402,-37.6951,272.9554],[143.345,-37.6933,273.0981],[143.345,-37.6911,277.6168],[143.3514,-37.6866,280.1256],[143.3539,-37.6704,309.8176],[143.3729,-37.6723,300.3273],[143.3731,-37.6707,284.285],[143.3747,-37.6712,289.7637],[143.3798,-37.6684,292.5925],[143.3854,-37.6702,291.7565],[143.3887,-37.6688,298.9842],[143.3953,-37.6698,305.4906],[143.3986,-37.668,301.941],[143.4033,-37.6689,305.116],[143.4048,-37.6728,305.4492],[143.4078,-37.6716,300.1902],[143.4123,-37.6731,307.6411],[143.4148,-37.6708,314.114],[143.4237,-37.6703,316.133],[143.4263,-37.6681,305.6239],[143.4287,-37.6699,312.6768],[143.4313,-37.6695,315.9794],[143.4315,-37.6715,316.9247],[143.4413,-37.6703,310.3254],[143.4438,-37.6687,312.1302],[143.4464,-37.6696,315.1501],[143.4467,-37.6668,307.0772],[143.4554,-37.6597,307.307],[143.4584,-37.6617,307.1529],[143.4647,-37.6589,327.0402],[143.4675,-37.6601,310.0276],[143.4675,-37.6586,309.7112],[143.4643,-37.6574,324.7595],[143.466,-37.6539,328.6896],[143.4811,-37.6523,316.9574],[143.4762,-37.6501,330.4634],[143.4829,-37.646,332.7739],[143.4897,-37.6468,332.1228],[143.4879,-37.6551,337.0911],[143.4999,-37.6568,354.4865],[143.4948,-37.6609,355.4579],[143.5358,-37.6667,434.4374],[143.5334,-37.6644,414.463],[143.5365,-37.6483,402.1317],[143.5866,-37.6537,445.8042],[143.5873,-37.6501,452.4686],[143.593,-37.6485,425.6843],[143.5934,-37.647,425.1651],[143.596,-37.6463,430.8757],[143.5953,-37.6443,425.8322],[143.642,-37.6503,355.7039],[143.6422,-37.6462,355.3709],[143.6516,-37.6471,360.7287],[143.6526,-37.6242,432.1376],[143.6686,-37.5384,394.415],[143.6488,-37.5362,383.6949],[143.6495,-37.533,383.5115],[143.6324,-37.5327,382.2475],[143.6254,-37.5295,377.5],[143.622,-37.5252,384.2445],[143.606,-37.5349,383.2118],[143.5993,-37.528,384.2535],[143.595,-37.5273,391.6632],[143.6133,-37.5008,383.1852],[143.6183,-37.4762,414.5224],[143.6203,-37.4738,418.1022],[143.6215,-37.4677,401.3289],[143.6092,-37.4671,406.624],[143.6095,-37.4658,401.3378],[143.62,-37.465,399.4654],[143.6228,-37.4516,391.7579],[143.6198,-37.4479,390.0],[143.6231,-37.437,406.1638],[143.6244,-37.4372,409.487],[143.6299,-37.4112,521.373],[143.6281,-37.4094,520.8374],[143.629,-37.4072,528.8131],[143.627,-37.4067,523.0895],[143.6283,-37.4008,555.4975],[143.6322,-37.3998,577.1274],[143.6656,-37.2343,307.0855],[143.6364,-37.2308,313.8962],[143.6406,-37.2083,277.1832],[143.5823,-37.2017,299.2033],[143.5854,-37.1846,285.8095],[143.5509,-37.1805,263.5491],[143.5516,-37.1783,256.6782],[143.5498,-37.1762,256.988],[143.5535,-37.1707,257.9703],[143.5511,-37.1681,252.5487],[143.5535,-37.1627,259.0619],[143.5519,-37.1587,250.5275],[143.5554,-37.1592,258.2726],[143.5573,-37.1561,263.0108],[143.5635,-37.1519,248.8369],[143.5665,-37.1525,250.1781],[143.5706,-37.1502,248.7595],[143.5741,-37.1426,245.8636],[143.5806,-37.1392,245.2319],[143.5829,-37.1319,242.9407],[143.5809,-37.1283,242.4057],[143.5817,-37.1256,240.4567],[143.5789,-37.1233,240.8842],[143.5782,-37.1152,239.3018],[143.5735,-37.113,237.8122],[143.5725,-37.1157,236.0778],[143.5706,-37.1163,241.7604],[143.5674,-37.113,235.7057],[143.5649,-37.1141,238.5278],[143.5643,-37.1169,236.7314],[143.5627,-37.1164,236.0088],[143.5627,-37.1133,233.7712],[143.5599,-37.1085,231.9882],[143.5623,-37.0999,231.8875],[143.5609,-37.098,233.3849],[143.5651,-37.0956,230.1042],[143.552,-37.0942,266.9637],[143.5625,-37.0336,237.9819],[143.5757,-37.0318,238.9055],[143.5797,-37.0094,222.8613],[143.5921,-37.0108,223.6171],[143.5942,-36.9986,214.4079],[143.602,-36.9995,207.7331],[143.6037,-36.9899,217.3909],[143.5947,-36.9889,228.2499],[143.5758,-36.9815,225.8675],[143.5775,-36.9717,231.8321],[143.5747,-36.969,236.7469],[143.5935,-36.9562,264.6727],[143.582,-36.9451,287.9784],[143.5772,-36.9484,323.2286],[143.5434,-36.944,229.8478],[143.5424,-36.9492,227.1166],[143.5065,-36.9454,207.6672],[143.507,-36.9427,208.0874],[143.4731,-36.939,209.7656],[143.4722,-36.9368,210.8404],[143.4431,-36.9334,208.7567],[143.4412,-36.9311,212.0094],[143.4097,-36.9278,221.7884],[143.3947,-36.9341,235.1009],[143.3735,-36.9341,248.0939],[143.3741,-36.9262,241.5607],[143.3518,-36.9237,247.108],[143.3534,-36.9146,249.0943],[143.3469,-36.9138,244.8538],[143.3465,-36.9161,245.5764],[143.3444,-36.9159,249.6807],[143.3446,-36.9146,249.6807],[143.3281,-36.9121,258.9393],[143.2393,-36.9018,393.9954],[143.2428,-36.9099,379.6378],[143.2404,-36.9086,393.3472],[143.2126,-36.9069,328.368],[143.2135,-36.9011,318.9338],[143.1817,-36.8977,273.0442],[143.1805,-36.9049,267.381],[143.1261,-36.8987,236.6999],[143.1244,-36.9063,235.4113],[143.107,-36.9044,231.6268],[143.0957,-36.9631,229.7463],[143.0899,-36.9629,231.1455],[143.0927,-36.9664,229.7852],[143.0913,-36.9679,231.3242],[143.0983,-36.9698,232.9259],[143.1012,-36.9729,234.0498],[143.104,-36.9734,237.1581],[143.1052,-36.9788,238.4183],[143.0871,-36.9772,240.403],[143.0871,-36.9895,270.8104],[143.099,-37.0015,309.7384],[143.1027,-37.0015,277.5266],[143.1027,-37.0105,301.3138],[143.099,-37.0113,295.1958],[143.099,-37.0221,307.499],[143.0977,-37.0221,309.1346],[143.0926,-37.0389,314.6806],[143.0927,-37.0464,315.5623],[143.101,-37.053,264.1755],[143.0947,-37.0628,261.1206],[143.0989,-37.0723,273.8705],[143.1011,-37.1013,266.3059],[143.0862,-37.1248,244.9617],[143.0977,-37.1426,247.4537],[143.0955,-37.1556,266.8388],[143.1134,-37.1575,246.7871],[143.1141,-37.1604,250.7215],[143.1212,-37.1679,248.0627],[143.1252,-37.1693,248.1437],[143.1276,-37.1734,249.2849],[143.1372,-37.1744,254.0784],[143.1383,-37.1711,266.9873],[143.144,-37.1723,256.0771],[143.1503,-37.1707,264.7767],[143.1521,-37.1718,254.9637],[143.1522,-37.1746,255.3824],[143.1569,-37.1769,257.9274],[143.1586,-37.1756,263.0934],[143.1652,-37.1757,262.7159],[143.168,-37.1786,259.6394],[143.1675,-37.1813,261.4014],[143.1697,-37.1821,258.7805],[143.1689,-37.184,259.3991],[143.1817,-37.1886,272.4712],[143.1849,-37.1879,269.4543],[143.1842,-37.1853,274.3476],[143.1862,-37.1832,269.7325],[143.1914,-37.1814,266.9384],[143.1909,-37.1785,267.3589],[143.1959,-37.1778,268.9745],[143.1917,-37.1725,268.9777],[143.1932,-37.1701,272.2177],[143.1977,-37.1712,269.988],[143.1986,-37.1666,270.8221],[143.2032,-37.1649,272.099],[143.2017,-37.1633,273.5526],[143.2024,-37.1611,272.7257],[143.2049,-37.1616,274.2585],[143.2056,-37.1595,274.9799],[143.2089,-37.1601,275.442],[143.2177,-37.1536,278.3026],[143.2214,-37.1525,283.3165],[143.2246,-37.1537,279.4255],[143.2335,-37.1609,283.2847],[143.2326,-37.1644,282.123],[143.2343,-37.1687,292.0357],[143.2426,-37.1739,287.5797],[143.2491,-37.1721,288.4901],[143.2529,-37.1772,291.2132],[143.2638,-37.1817,294.0111],[143.2646,-37.1883,296.1289],[143.2708,-37.1966,300.9749],[143.2672,-37.2024,305.6643],[143.2697,-37.2061,309.7995],[143.2693,-37.2099,312.0824],[143.2722,-37.2132,308.4747],[143.2717,-37.2166,309.6885],[143.2823,-37.2265,320.2682],[143.2858,-37.2347,327.2733],[143.2862,-37.2477,346.9679],[143.2837,-37.2601,387.0682],[143.2913,-37.28,434.5862],[143.2908,-37.2821,444.7911],[143.2872,-37.2841,464.6263],[143.2887,-37.2847,474.1689],[143.2843,-37.2868,503.1518],[143.2796,-37.2867,589.7968],[143.2749,-37.284,678.5438],[143.265,-37.2828,782.3563],[143.2583,-37.2798,816.1438],[143.2473,-37.2839,943.5043],[143.244,-37.283,937.0145],[143.2338,-37.2861,886.3104],[143.2266,-37.2911,939.45],[143.2317,-37.3005,892.1023],[143.2319,-37.3039,856.568],[143.2297,-37.3102,609.2884],[143.2256,-37.3154,578.2097],[143.2217,-37.3154,558.3256],[143.2216,-37.3101,499.3279],[143.2139,-37.3102,453.8548],[143.2139,-37.3129,463.7775],[143.204,-37.3147,402.5992],[143.1943,-37.321,381.0771],[143.2016,-37.3244,384.4084],[143.2017,-37.3565,362.1611],[143.2315,-37.3565,443.0446],[143.231,-37.3576,443.0446],[143.2486,-37.3621,429.3772],[143.2487,-37.3648,411.8989],[143.2405,-37.3755,388.2927],[143.2365,-37.3843,360.0407],[143.2512,-37.3885,358.9576],[143.251,-37.3928,355.6643],[143.2441,-37.4025,348.1447],[143.2229,-37.4132,337.9763],[143.2199,-37.4156,338.8565],[143.2189,-37.4203,334.3417],[143.2133,-37.4212,334.0785],[143.2104,-37.4263,329.8134],[143.2069,-37.4286,328.8083],[143.1973,-37.4263,327.2399],[143.1917,-37.4665,333.396],[143.1793,-37.5246,293.1209],[143.193,-37.5265,302.4526],[143.1837,-37.5332,296.0798],[143.1697,-37.5608,294.5278],[143.1565,-37.5687,288.9214],[143.1515,-37.5756,284.0037],[143.1391,-37.5871,287.2463],[143.1345,-37.6002,282.8486],[143.1164,-37.6205,298.2704],[143.1085,-37.638,252.5271],[143.1026,-37.6446,251.0814],[143.0898,-37.6514,249.8964],[143.0821,-37.6634,246.444],[143.0789,-37.6723,245.4875],[143.0758,-37.6831,243.3955],[143.0768,-37.692,241.5267],[143.0744,-37.7031,240.4594],[143.0647,-37.7165,238.1264],[143.0609,-37.7182,242.1537],[143.1807,-37.7315,226.028]]]]}}