{"type": "Feature","bbox": [148.6762,-30.1055,150.4856,-28.5372],"geometry": {"type": "MultiPolygon","coordinates": [[[[150.4793,-28.673,224.5625],[150.4854,-28.6661,222.041],[150.4856,-28.663,225.3407],[150.4834,-28.6621,227.6959],[150.4809,-28.6637,222.7637],[150.4728,-28.6601,223.7213],[150.4708,-28.6629,223.0961],[150.4601,-28.6689,223.8183],[150.4566,-28.6637,220.921],[150.4535,-28.6656,218.8519],[150.4456,-28.6651,218.1173],[150.4377,-28.6616,221.9928],[150.4293,-28.6511,226.9854],[150.4152,-28.6508,217.5502],[150.4141,-28.6492,225.2964],[150.4164,-28.6441,224.7036],[150.4161,-28.6353,224.1931],[150.4131,-28.6337,218.5214],[150.4088,-28.6339,217.2988],[150.4025,-28.6276,224.5922],[150.3976,-28.6286,221.516],[150.3909,-28.6341,216.0704],[150.3859,-28.6327,216.2228],[150.3875,-28.6254,222.0212],[150.3801,-28.6271,217.6392],[150.3759,-28.6224,218.8398],[150.37,-28.6206,220.165],[150.3688,-28.6141,215.785],[150.3698,-28.6117,214.4269],[150.3638,-28.6076,214.2221],[150.3697,-28.5985,214.47559999999999],[150.3631,-28.5959,218.5771],[150.3633,-28.5895,218.912],[150.3564,-28.5898,218.2545],[150.3525,-28.5878,220.227],[150.3493,-28.5814,215.2279],[150.3513,-28.5753,214.1911],[150.3427,-28.5753,216.2285],[150.3276,-28.571,218.6994],[150.3227,-28.5656,215.3015],[150.3206,-28.5572,213.9179],[150.3131,-28.5554,216.3672],[150.3091,-28.5506,217.4758],[150.3005,-28.5485,214.1343],[150.296,-28.5397,213.5907],[150.2896,-28.5372,212.8218],[150.2817,-28.5429,213.0883],[150.2722,-28.5393,216.4241],[150.2695,-28.5398,212.29],[150.2622,-28.5449,215.3699],[150.2531,-28.547,212.444],[150.249,-28.5522,210.8977],[150.2447,-28.5546,214.36],[150.2432,-28.5524,216.7588],[150.2361,-28.5538,213.7899],[150.2352,-28.5562,213.2526],[150.2382,-28.5573,215.7903],[150.2388,-28.5597,212.3437],[150.2304,-28.5557,213.3468],[150.2289,-28.5586,212.2932],[150.2335,-28.5611,212.1549],[150.2291,-28.5677,214.036],[150.2262,-28.5688,211.747],[150.22,-28.5667,212.2715],[150.2185,-28.5683,213.2472],[150.2132,-28.5675,210.7729],[150.2123,-28.5694,214.0408],[150.2137,-28.5729,212.2392],[150.2123,-28.5742,211.3647],[150.2076,-28.5727,211.1146],[150.2042,-28.5734,211.3747],[150.2012,-28.5688,211.4398],[150.1925,-28.5667,215.0655],[150.1898,-28.5675,214.6577],[150.1898,-28.5702,213.0107],[150.1867,-28.5728,215.0432],[150.182,-28.5694,212.5658],[150.1875,-28.5691,209.3885],[150.1866,-28.5652,211.5617],[150.1779,-28.5635,214.6981],[150.1841,-28.5586,212.5311],[150.1827,-28.5563,219.2878],[150.1769,-28.559,215.0944],[150.1736,-28.5583,216.9277],[150.1719,-28.56,213.3402],[150.1716,-28.5639,210.8553],[150.1698,-28.5572,215.3408],[150.1678,-28.5555,212.1208],[150.1702,-28.5546,213.0394],[150.1692,-28.5506,210.0102],[150.1666,-28.5511,209.6772],[150.1634,-28.5557,216.1189],[150.1551,-28.5548,211.4078],[150.1541,-28.5572,211.5538],[150.1523,-28.5555,213.6381],[150.1547,-28.5534,210.4688],[150.1541,-28.551,209.4145],[150.1523,-28.5502,212.2919],[150.1478,-28.5527,208.592],[150.1482,-28.5583,209.32],[150.1437,-28.5575,210.3287],[150.1432,-28.5618,210.4661],[150.1413,-28.5599,213.139],[150.1387,-28.5605,213.0764],[150.1385,-28.5653,208.1379],[150.1369,-28.5642,215.0051],[150.1368,-28.5601,216.2468],[150.1331,-28.5617,219.3284],[150.1316,-28.5635,218.0903],[150.1339,-28.5644,215.6962],[150.1314,-28.5653,213.9572],[150.1307,-28.5627,211.1338],[150.128,-28.5624,210.6437],[150.1264,-28.5649,209.2465],[150.1244,-28.5612,207.8373],[150.1215,-28.5597,211.3482],[150.1209,-28.5624,212.5128],[150.117,-28.5617,207.2929],[150.1168,-28.564,207.8123],[150.1129,-28.563,209.3074],[150.1155,-28.5679,207.2097],[150.1118,-28.5681,206.3026],[150.1109,-28.5703,206.7139],[150.1057,-28.5677,207.5805],[150.1052,-28.5653,208.5176],[150.1016,-28.5659,211.2064],[150.0972,-28.5634,208.3107],[150.0919,-28.5642,208.2988],[150.091,-28.5687,210.7445],[150.0936,-28.574,205.7234],[150.0929,-28.5786,206.585],[150.0904,-28.5788,204.6268],[150.0904,-28.5755,205.6576],[150.0852,-28.5758,208.8552],[150.0881,-28.5776,208.6111],[150.0874,-28.5807,206.031],[150.0845,-28.5804,206.997],[150.0816,-28.5775,204.9574],[150.0798,-28.5816,208.3037],[150.0826,-28.5827,205.7523],[150.0799,-28.5844,205.7918],[150.0758,-28.5821,205.8748],[150.0751,-28.5802,206.7201],[150.0726,-28.5801,206.9359],[150.0733,-28.5766,204.8394],[150.0705,-28.5772,205.3802],[150.0698,-28.581,210.5201],[150.0679,-28.5778,205.4157],[150.0594,-28.5785,206.5025],[150.0573,-28.58,208.1378],[150.0576,-28.5834,202.776],[150.0556,-28.5846,201.8489],[150.0565,-28.5864,206.8922],[150.0513,-28.5854,202.325],[150.0487,-28.5892,202.9064],[150.0452,-28.5868,203.3766],[150.0458,-28.5824,204.6822],[150.0437,-28.582,204.6],[150.0405,-28.5861,202.5059],[150.0401,-28.5831,203.474],[150.0363,-28.5858,201.0315],[150.0344,-28.5835,202.3802],[150.031,-28.5837,205.9106],[150.0313,-28.581,207.0468],[150.0267,-28.5792,202.3051],[150.0228,-28.5829,206.7375],[150.0166,-28.5805,202.7015],[150.0154,-28.5812,202.7015],[150.0173,-28.5834,202.1878],[150.0132,-28.5832,198.4326],[150.015,-28.5855,203.5688],[150.0116,-28.5855,201.7174],[150.0092,-28.5909,202.6032],[150.0073,-28.5905,200.9826],[150.0057,-28.587,200.095],[150.0014,-28.5906,203.3622],[150.0031,-28.5927,202.3054],[149.9989,-28.5912,204.2343],[149.9986,-28.5949,202.3634],[149.9945,-28.5939,203.747],[149.993,-28.6003,202.8216],[149.985,-28.6025,201.6346],[149.987,-28.6046,200.8393],[149.9821,-28.6052,201.8283],[149.977,-28.6108,203.4742],[149.977,-28.6135,200.6044],[149.9716,-28.6077,199.6381],[149.9701,-28.6098,199.5927],[149.9644,-28.6081,205.4715],[149.9644,-28.6107,202.6323],[149.9616,-28.6085,204.3757],[149.9622,-28.6121,201.2309],[149.9575,-28.6101,202.0921],[149.9577,-28.6076,201.9991],[149.953,-28.6095,201.2631],[149.9506,-28.608,200.809],[149.948,-28.6109,202.1233],[149.9491,-28.6127,203.4771],[149.9428,-28.6139,198.802],[149.9419,-28.6179,203.7807],[149.9372,-28.6146,201.0795],[149.9363,-28.6101,199.6359],[149.9342,-28.6104,199.3867],[149.9332,-28.6126,200.8958],[149.9301,-28.6119,199.5895],[149.9297,-28.6131,198.8029],[149.9274,-28.6105,201.5009],[149.9255,-28.611,201.2897],[149.9253,-28.6089,201.1464],[149.921,-28.6103,200.4324],[149.9174,-28.6081,200.9189],[149.9084,-28.6103,201.4733],[149.9091,-28.6124,199.9944],[149.9075,-28.6147,197.5435],[149.9055,-28.6133,198.6025],[149.903,-28.6155,198.1999],[149.9053,-28.6187,200.4221],[149.8991,-28.6197,200.6423],[149.8995,-28.6219,197.5391],[149.894,-28.6159,199.9039],[149.8898,-28.6188,199.7013],[149.8871,-28.6156,199.0541],[149.8913,-28.6147,199.4484],[149.8909,-28.6127,198.2647],[149.8864,-28.6123,199.037],[149.8864,-28.6142,199.7596],[149.8844,-28.6122,199.7246],[149.8824,-28.6133,197.3321],[149.8829,-28.6094,196.2295],[149.8775,-28.6116,196.6083],[149.8782,-28.6094,199.8498],[149.8759,-28.6078,197.8074],[149.8743,-28.6034,202.9166],[149.8722,-28.6043,197.6372],[149.872,-28.607,197.5184],[149.8709,-28.6052,201.2133],[149.8683,-28.6073,200.4739],[149.8671,-28.6041,198.6489],[149.8625,-28.6022,199.3417],[149.8613,-28.6028,198.5858],[149.8627,-28.6049,196.9598],[149.8604,-28.6045,199.993],[149.8603,-28.6069,196.6727],[149.8546,-28.6043,197.7882],[149.8537,-28.606,198.4497],[149.8508,-28.6056,195.727],[149.8495,-28.6088,197.3835],[149.8448,-28.6105,194.6284],[149.8396,-28.6037,195.1773],[149.8304,-28.6037,194.6767],[149.8294,-28.6062,196.4441],[149.8266,-28.6069,196.8345],[149.8265,-28.6088,196.8759],[149.8219,-28.609,196.0317],[149.8193,-28.6158,195.0157],[149.8149,-28.6083,199.2406],[149.8131,-28.6083,199.2406],[149.8114,-28.6058,196.6032],[149.8098,-28.6074,197.6014],[149.8036,-28.6073,195.0375],[149.8017,-28.6095,195.0899],[149.8006,-28.6079,194.2495],[149.7977,-28.6102,193.5181],[149.7867,-28.6112,194.2107],[149.7861,-28.6136,195.6267],[149.784,-28.6141,192.821],[149.7838,-28.6121,195.9692],[149.7813,-28.6123,194.0863],[149.7797,-28.6098,192.9405],[149.7759,-28.6131,192.9455],[149.7754,-28.6101,193.6527],[149.7725,-28.6089,191.7678],[149.7711,-28.6104,191.4079],[149.7733,-28.6117,196.3362],[149.7724,-28.6142,195.0221],[149.7675,-28.611,192.0852],[149.7678,-28.6141,193.074],[149.7649,-28.6127,191.5945],[149.76,-28.615,194.8924],[149.7549,-28.6094,190.5625],[149.7533,-28.6107,193.0573],[149.7538,-28.6128,196.6503],[149.7511,-28.6108,190.1715],[149.7503,-28.6121,196.5911],[149.7461,-28.612,192.6115],[149.7437,-28.6154,192.6],[149.7457,-28.6164,191.2244],[149.745,-28.6184,190.152],[149.7419,-28.6154,192.4416],[149.7416,-28.6131,192.5287],[149.7388,-28.6146,192.4183],[149.739,-28.6172,191.316],[149.7369,-28.6158,192.4183],[149.7353,-28.6174,192.3872],[149.733,-28.6143,189.6574],[149.731,-28.6167,191.8111],[149.7298,-28.6152,191.9816],[149.7263,-28.6155,191.8098],[149.7263,-28.6137,192.1079],[149.7282,-28.6131,195.1877],[149.7272,-28.6119,196.8204],[149.7296,-28.6109,190.7375],[149.7212,-28.6092,190.0114],[149.7202,-28.6109,190.9615],[149.7233,-28.6128,193.1002],[149.7188,-28.6114,193.6976],[149.7138,-28.6163,190.1599],[149.7129,-28.6148,190.8896],[149.7145,-28.6126,189.274],[149.7132,-28.6119,190.7101],[149.7109,-28.6142,192.6585],[149.7089,-28.6131,190.1316],[149.7059,-28.6178,190.9537],[149.7039,-28.6165,188.4139],[149.7031,-28.6193,188.1694],[149.7056,-28.622,191.4963],[149.7099,-28.6203,192.8579],[149.7071,-28.6227,192.9505],[149.7054,-28.6228,191.4963],[149.7061,-28.6256,189.3818],[149.7035,-28.6254,190.5848],[149.7046,-28.6279,193.1246],[149.7066,-28.6273,192.9785],[149.7045,-28.6334,188.1388],[149.7005,-28.6327,191.4496],[149.7014,-28.631,190.9126],[149.7002,-28.63,190.9126],[149.6982,-28.6327,189.8816],[149.6963,-28.6308,188.4256],[149.6944,-28.633,188.4557],[149.6931,-28.6318,190.0278],[149.6913,-28.6336,188.4186],[149.6898,-28.6282,189.6618],[149.6878,-28.6292,190.627],[149.688,-28.6323,188.4765],[149.6823,-28.6314,189.2297],[149.6811,-28.6338,191.3982],[149.6789,-28.6325,189.1061],[149.6779,-28.6345,191.3319],[149.6767,-28.6313,190.5482],[149.6725,-28.6335,188.0586],[149.6724,-28.6303,189.6224],[149.6702,-28.6326,189.6813],[149.6664,-28.6316,187.1181],[149.6718,-28.6292,189.1573],[149.674,-28.6242,188.0253],[149.6706,-28.6235,190.351],[149.6697,-28.6223,190.7212],[149.6712,-28.6211,187.014],[149.6685,-28.6194,189.8704],[149.6645,-28.6184,188.0153],[149.6643,-28.6124,188.6484],[149.6606,-28.6093,186.5326],[149.6573,-28.6114,187.9943],[149.6583,-28.6132,190.0117],[149.656,-28.6155,188.7278],[149.6536,-28.6131,189.0917],[149.6479,-28.6121,186.9856],[149.6483,-28.6106,188.9226],[149.6462,-28.61,186.4497],[149.645,-28.6073,188.8574],[149.6463,-28.6062,186.3506],[149.6456,-28.6038,187.5187],[149.6423,-28.5992,185.1173],[149.639,-28.598,189.2316],[149.6364,-28.5996,187.1388],[149.6346,-28.5954,187.1517],[149.6313,-28.5979,189.7368],[149.631,-28.5952,188.5968],[149.6274,-28.596,188.8021],[149.6255,-28.5933,187.6182],[149.6239,-28.5953,190.9625],[149.6194,-28.5961,185.0154],[149.6184,-28.5986,188.0025],[149.6107,-28.6009,187.6952],[149.6105,-28.5974,187.997],[149.6051,-28.5979,186.1658],[149.6067,-28.594,186.0216],[149.6035,-28.5889,189.6571],[149.6061,-28.5879,184.9882],[149.6037,-28.5854,185.4573],[149.6021,-28.5875,188.2253],[149.5977,-28.5888,189.5847],[149.597,-28.5846,189.5953],[149.5993,-28.5836,185.7043],[149.5996,-28.5815,187.6303],[149.5977,-28.5788,184.8609],[149.5901,-28.5757,186.1884],[149.5879,-28.5728,182.7352],[149.5842,-28.5744,185.9838],[149.5805,-28.5725,182.9685],[149.5775,-28.5734,186.1495],[149.5767,-28.5721,184.562],[149.5743,-28.574,186.6922],[149.5725,-28.5717,183.3624],[149.5687,-28.5711,184.9845],[149.5671,-28.5736,186.8914],[149.5651,-28.5725,183.7931],[149.5639,-28.575,185.973],[149.5618,-28.5739,182.6111],[149.5573,-28.5767,186.2826],[149.5578,-28.5797,184.3743],[149.5536,-28.5774,183.7542],[149.5526,-28.5801,186.844],[149.5506,-28.5768,185.4771],[149.5445,-28.5754,183.2285],[149.5435,-28.5767,185.5743],[149.5422,-28.575,186.9131],[149.5385,-28.5748,186.8017],[149.5368,-28.5764,184.3317],[149.5358,-28.5744,182.529],[149.532,-28.5768,184.6297],[149.5289,-28.5742,181.9691],[149.5264,-28.5751,180.9094],[149.527,-28.5774,187.1198],[149.5248,-28.5794,182.5602],[149.5217,-28.5791,182.3739],[149.5194,-28.5811,183.3037],[149.5182,-28.579,183.503],[149.5154,-28.5793,182.4327],[149.5138,-28.5817,185.0952],[149.5122,-28.5761,180.6603],[149.5098,-28.5771,184.8884],[149.5031,-28.5743,181.8235],[149.5027,-28.5804,182.3984],[149.499,-28.578,184.4907],[149.4971,-28.5807,184.6035],[149.4963,-28.5785,188.3011],[149.4924,-28.5809,183.9441],[149.4902,-28.5845,185.5897],[149.4855,-28.5825,182.834],[149.4814,-28.5829,182.6683],[149.4825,-28.5862,183.5229],[149.4808,-28.5898,184.9061],[149.4794,-28.5912,185.1535],[149.4773,-28.5879,183.0639],[149.4749,-28.5939,185.2233],[149.4716,-28.5927,186.7129],[149.4698,-28.5943,187.1418],[149.4684,-28.592,184.8857],[149.4673,-28.5964,181.3983],[149.4619,-28.5916,185.5325],[149.4588,-28.5941,184.0],[149.4559,-28.5929,182.488],[149.4557,-28.596,184.8252],[149.4524,-28.5952,184.9096],[149.4537,-28.5992,182.3673],[149.4517,-28.6043,182.1487],[149.4442,-28.6065,184.1039],[149.4443,-28.609,184.2009],[149.4396,-28.612,182.1397],[149.439,-28.6157,182.5765],[149.4414,-28.6165,185.6329],[149.4403,-28.6189,178.464],[149.443,-28.6203,181.4958],[149.4325,-28.628,181.6483],[149.4302,-28.6263,182.5539],[149.4283,-28.6292,183.7887],[149.429,-28.6322,181.7959],[149.4329,-28.6349,184.7558],[149.4312,-28.6364,185.8159],[149.4323,-28.638,182.8619],[149.4301,-28.6376,177.6672],[149.4306,-28.64,182.9368],[149.4292,-28.6403,180.9782],[149.4306,-28.6429,182.5545],[149.4281,-28.6443,182.4747],[149.428,-28.647,185.0195],[149.4259,-28.6471,179.7252],[149.426,-28.6503,185.9646],[149.4231,-28.6496,182.8054],[149.417,-28.6515,182.791],[149.4191,-28.6541,182.8318],[149.423,-28.6538,181.6351],[149.423,-28.6553,182.7952],[149.417,-28.6551,182.6322],[149.4171,-28.661,185.5388],[149.4157,-28.6628,182.2133],[149.4106,-28.6637,181.7032],[149.4107,-28.6674,182.9359],[149.4137,-28.6653,182.0644],[149.4143,-28.6668,180.1011],[149.4047,-28.6733,179.4493],[149.4054,-28.6753,180.6827],[149.402,-28.6761,179.6077],[149.3992,-28.6749,178.3413],[149.3967,-28.6774,177.6048],[149.3939,-28.6773,179.061],[149.3942,-28.6857,178.1436],[149.3913,-28.6919,178.3151],[149.3874,-28.6958,179.1354],[149.3855,-28.6948,180.7139],[149.385,-28.6915,179.8524],[149.3793,-28.6906,180.0354],[149.3786,-28.6891,178.8616],[149.3779,-28.6917,180.4356],[149.3759,-28.6926,180.4167],[149.3691,-28.6879,178.2463],[149.3679,-28.6889,179.1237],[149.3687,-28.6919,180.3948],[149.3669,-28.6923,181.7196],[149.3635,-28.6899,178.4652],[149.362,-28.6851,177.9572],[149.359,-28.6843,177.7195],[149.3525,-28.6886,179.2304],[149.3514,-28.6927,179.9562],[149.3477,-28.6912,175.9633],[149.3459,-28.6944,178.4138],[149.3467,-28.6967,176.5489],[149.3401,-28.6954,178.2028],[149.3361,-28.6983,176.3595],[149.3299,-28.6982,177.9196],[149.3292,-28.6994,176.0133],[149.3318,-28.7029,177.3111],[149.3286,-28.7045,176.677],[149.328,-28.7075,178.2597],[149.323,-28.7078,177.9852],[149.3201,-28.7062,177.5013],[149.3197,-28.7087,178.4267],[149.3226,-28.7096,176.1288],[149.3189,-28.7116,178.2744],[149.318,-28.7141,176.8252],[149.3159,-28.7103,177.1096],[149.3143,-28.712,177.0331],[149.3112,-28.7111,175.9329],[149.3102,-28.7121,177.2454],[149.3025,-28.7091,175.9489],[149.2971,-28.7099,175.1578],[149.2935,-28.712,176.1619],[149.2908,-28.7188,173.9781],[149.2871,-28.7214,175.7281],[149.2874,-28.7263,174.5092],[149.2849,-28.7259,176.0211],[149.2828,-28.728,174.2888],[149.2853,-28.7319,174.5943],[149.2831,-28.7331,174.5796],[149.2804,-28.731,175.5168],[149.2791,-28.7335,175.2276],[149.2772,-28.732,175.6516],[149.2713,-28.7339,173.7035],[149.2715,-28.7367,173.5778],[149.2738,-28.7371,175.8875],[149.2692,-28.7435,174.522],[149.2664,-28.7428,174.6449],[149.2636,-28.7397,175.9583],[149.2654,-28.7357,175.6222],[149.2623,-28.7343,174.2673],[149.2575,-28.7371,174.1087],[149.257,-28.7395,176.563],[149.2545,-28.7389,174.1734],[149.2538,-28.7422,174.0966],[149.2517,-28.74,175.2202],[149.2492,-28.7416,174.0378],[149.247,-28.7389,174.2785],[149.2412,-28.7455,175.7268],[149.243,-28.7471,172.4572],[149.2402,-28.7467,176.4894],[149.237,-28.7489,175.6739],[149.2368,-28.7506,174.0781],[149.2332,-28.7493,174.4577],[149.2324,-28.7516,173.9491],[149.2305,-28.7512,172.5151],[149.2319,-28.7559,173.2047],[149.2287,-28.7552,176.1268],[149.2302,-28.7584,172.9347],[149.228,-28.7593,172.5153],[149.2285,-28.7619,173.7275],[149.2263,-28.7611,172.2437],[149.2258,-28.7629,174.4769],[149.2242,-28.7626,172.7354],[149.225,-28.7645,173.004],[149.2227,-28.7642,173.9458],[149.2212,-28.766,173.0565],[149.2193,-28.7631,172.8681],[149.214,-28.7637,172.9583],[149.2139,-28.7656,173.7034],[149.2121,-28.7652,170.4543],[149.2104,-28.7682,171.933],[149.2073,-28.7659,170.7409],[149.2074,-28.7695,172.582],[149.1949,-28.771,170.0675],[149.1938,-28.7739,168.6174],[149.1887,-28.7752,170.2062],[149.1924,-28.7805,170.8549],[149.1865,-28.782,170.4665],[149.1867,-28.7867,170.5523],[149.1841,-28.7901,171.1444],[149.187,-28.794,171.2846],[149.1835,-28.7946,171.9834],[149.1837,-28.7969,171.6862],[149.1799,-28.7987,172.6418],[149.1792,-28.803,168.5615],[149.1759,-28.8027,169.868],[149.1667,-28.8087,172.5597],[149.1625,-28.8059,169.2983],[149.1608,-28.8071,171.7723],[149.1604,-28.8107,170.071],[149.1512,-28.8078,168.9026],[149.1487,-28.8086,170.3962],[149.1479,-28.806,168.3623],[149.1458,-28.8095,170.7921],[149.1429,-28.8079,172.0121],[149.1445,-28.8071,170.9686],[149.1439,-28.8061,168.0895],[149.1398,-28.8072,168.616],[149.1399,-28.8119,169.0266],[149.1366,-28.8125,167.7514],[149.1405,-28.8137,169.0572],[149.1398,-28.8159,168.1393],[149.1425,-28.8155,168.1438],[149.1424,-28.8189,169.3121],[149.1446,-28.8191,168.4639],[149.1405,-28.822,168.5066],[149.1434,-28.8222,167.6445],[149.139,-28.8255,168.2915],[149.1388,-28.8279,168.5077],[149.1311,-28.8296,168.2267],[149.1315,-28.8321,168.3784],[149.128,-28.8316,169.0548],[149.1282,-28.8353,167.8627],[149.1247,-28.8333,167.9633],[149.1224,-28.8346,166.8365],[149.1221,-28.8318,168.2231],[149.1182,-28.833,167.6117],[149.1193,-28.8294,166.9405],[149.1155,-28.8309,167.3599],[149.1124,-28.8296,169.638],[149.111,-28.8308,166.3445],[149.1133,-28.8317,167.2898],[149.1122,-28.8341,167.0355],[149.1089,-28.8334,165.849],[149.1032,-28.8381,166.5607],[149.1028,-28.8334,167.92],[149.0991,-28.8342,166.7091],[149.0971,-28.8317,168.1506],[149.0964,-28.8343,166.062],[149.0932,-28.8338,166.4906],[149.0905,-28.8373,165.9905],[149.0872,-28.8381,165.5162],[149.0863,-28.8425,165.5098],[149.0807,-28.8419,165.8948],[149.0801,-28.8584,165.4425],[149.0757,-28.8594,164.4113],[149.0725,-28.864,164.1778],[149.0701,-28.8719,164.4233],[149.0664,-28.8734,163.8837],[149.0634,-28.8783,163.3504],[149.0592,-28.8796,164.0271],[149.0554,-28.8839,164.402],[149.0553,-28.8869,163.911],[149.0595,-28.8862,164.2607],[149.064,-28.8886,164.0819],[149.059,-28.8919,163.3636],[149.0581,-28.8936,163.3743],[149.0603,-28.8948,164.1432],[149.056,-28.9007,164.4024],[149.0587,-28.9104,164.4002],[149.0549,-28.9121,164.9549],[149.0511,-28.9176,164.3748],[149.0483,-28.917,163.8283],[149.0473,-28.9248,164.2782],[149.0431,-28.9271,162.3568],[149.043,-28.9313,162.5405],[149.0453,-28.9315,163.245],[149.0453,-28.9345,162.8137],[149.0439,-28.9349,163.6059],[149.0429,-28.9393,163.7282],[149.0389,-28.9391,162.2923],[149.0399,-28.9424,163.4576],[149.0349,-28.946,162.6487],[149.036,-28.9495,162.9826],[149.0321,-28.9566,162.4313],[149.0307,-28.957,162.0461],[149.0278,-28.9545,160.6291],[149.021,-28.9573,163.1145],[149.0199,-28.9593,162.4375],[149.0175,-28.9568,161.7663],[149.0147,-28.9577,161.6084],[149.0119,-28.9556,161.397],[149.0084,-28.9579,162.3794],[149.0115,-28.9585,162.809],[149.0113,-28.9601,162.309],[149.005,-28.9607,163.1032],[149.0042,-28.9677,161.5035],[149.0003,-28.9695,160.8585],[148.9982,-28.9727,161.7174],[148.9913,-28.9717,160.0816],[148.9909,-28.9762,163.4216],[148.9869,-28.9743,160.6735],[148.9843,-28.9767,162.0694],[148.9763,-28.9764,161.4169],[148.9718,-28.9808,160.0264],[148.9711,-28.9853,160.4697],[148.9667,-28.986,159.5331],[148.9694,-28.9879,160.2537],[148.9673,-28.991,160.3572],[148.9642,-28.9914,161.0488],[148.9659,-28.9934,160.4538],[148.959,-28.998,160.2163],[148.9579,-29.0021,160.649],[148.9557,-29.0028,160.4363],[148.9583,-29.005,159.6764],[148.9584,-29.007,159.0418],[148.9541,-29.0062,159.7908],[148.9542,-29.0111,160.8534],[148.9506,-29.0095,160.2536],[148.9505,-29.0122,160.2478],[148.947,-29.0111,159.5798],[148.9475,-29.0138,159.8606],[148.9428,-29.0201,158.807],[148.9419,-29.0246,158.3807],[148.9379,-29.0232,160.5426],[148.9362,-29.0245,160.179],[148.9347,-29.0224,159.751],[148.932,-29.026,159.4],[148.9298,-29.0245,159.3268],[148.9233,-29.0253,159.7915],[148.9216,-29.0219,161.2988],[148.9184,-29.0207,159.0937],[148.9158,-29.0233,159.4937],[148.9149,-29.0201,158.456],[148.9112,-29.0225,158.7681],[148.9115,-29.0237,157.5682],[148.9085,-29.0231,157.8499],[148.9091,-29.021,157.7612],[148.9057,-29.0218,158.677],[148.905,-29.0262,157.4633],[148.9031,-29.0234,158.6882],[148.9039,-29.0213,158.0268],[148.8982,-29.02,157.091],[148.8956,-29.0233,157.7384],[148.8978,-29.0275,158.7381],[148.892,-29.028,158.2981],[148.8919,-29.0323,156.954],[148.8884,-29.0314,158.1278],[148.8883,-29.0365,156.7737],[148.8849,-29.0354,157.4239],[148.8832,-29.0316,157.0956],[148.8775,-29.0321,156.6431],[148.8763,-29.036,157.0608],[148.8789,-29.0395,157.0],[148.8762,-29.0436,155.6354],[148.8739,-29.0417,157.7853],[148.8693,-29.0446,156.4968],[148.8669,-29.0412,156.0643],[148.8638,-29.0432,156.8601],[148.8642,-29.0459,156.8165],[148.8591,-29.0455,155.9738],[148.8591,-29.047,157.5435],[148.8616,-29.0474,157.396],[148.8589,-29.051,157.5966],[148.8507,-29.0514,156.6899],[148.8517,-29.055,156.31],[148.8478,-29.0557,155.8433],[148.8504,-29.0598,155.6876],[148.8475,-29.0616,157.2049],[148.8495,-29.0639,156.3517],[148.8447,-29.0653,156.7246],[148.8422,-29.0696,156.623],[148.834,-29.0674,156.3918],[148.8329,-29.0653,155.7885],[148.8253,-29.067,155.3448],[148.8245,-29.072,154.5505],[148.8219,-29.0759,156.2864],[148.8191,-29.0757,154.7828],[148.8127,-29.0845,155.5182],[148.8177,-29.0934,153.6701],[148.8136,-29.0943,154.9643],[148.8109,-29.092,154.0404],[148.8052,-29.0994,154.8013],[148.8046,-29.1023,154.5865],[148.8074,-29.1061,153.5918],[148.8036,-29.1096,155.4139],[148.8068,-29.1104,154.413],[148.8073,-29.1125,153.0662],[148.8041,-29.1149,155.0433],[148.8073,-29.1168,154.7688],[148.806,-29.1197,156.6704],[148.8079,-29.1216,156.2357],[148.8044,-29.1203,154.4334],[148.7994,-29.1297,155.9973],[148.8038,-29.1307,155.086],[148.8007,-29.1333,156.1981],[148.804,-29.1383,152.6443],[148.7996,-29.1392,155.8943],[148.7977,-29.1382,154.6984],[148.797,-29.1405,155.118],[148.7996,-29.1484,152.9293],[148.7976,-29.1497,153.5759],[148.7988,-29.1519,153.4453],[148.797,-29.1564,154.7175],[148.8016,-29.1577,153.3573],[148.7989,-29.159,154.9229],[148.8004,-29.164,152.7621],[148.7984,-29.1659,154.2086],[148.8012,-29.1675,154.4044],[148.8037,-29.1668,153.1343],[148.8058,-29.1713,152.8888],[148.8079,-29.1705,152.111],[148.8069,-29.1732,153.0636],[148.8091,-29.1752,152.7816],[148.8086,-29.1779,153.448],[148.8049,-29.1764,153.2292],[148.8027,-29.1779,150.9388],[148.8024,-29.179,150.9471],[148.8049,-29.1793,153.0614],[148.8058,-29.1828,153.0415],[148.8026,-29.1833,153.4327],[148.7991,-29.1895,150.8478],[148.7969,-29.1861,152.3435],[148.7977,-29.1827,152.6388],[148.7963,-29.1819,151.9609],[148.7951,-29.1838,153.9594],[148.792,-29.1834,150.883],[148.7936,-29.1852,152.9921],[148.7924,-29.1867,153.7678],[148.7885,-29.185,153.5384],[148.7859,-29.1865,152.8848],[148.7826,-29.1847,151.5466],[148.7811,-29.1889,152.8812],[148.7767,-29.1909,154.9086],[148.7748,-29.1866,152.8209],[148.7712,-29.1864,151.2839],[148.7688,-29.1931,152.2644],[148.7659,-29.192,152.7146],[148.7635,-29.1978,151.3418],[148.7673,-29.2008,150.9176],[148.7638,-29.2021,149.3036],[148.7665,-29.2032,151.1218],[148.7679,-29.2082,152.3692],[148.7646,-29.2088,150.6518],[148.7621,-29.2059,152.7814],[148.7588,-29.2086,152.2548],[148.7626,-29.213,153.2012],[148.7596,-29.2168,152.101],[148.7542,-29.2171,151.4507],[148.7568,-29.2221,151.1595],[148.7527,-29.2226,150.9024],[148.7533,-29.2244,150.91],[148.7507,-29.2251,150.7044],[148.7497,-29.23,150.1925],[148.7527,-29.2314,149.2917],[148.748,-29.2336,147.7579],[148.75,-29.2381,150.3238],[148.7475,-29.2378,148.2289],[148.7421,-29.2406,150.5112],[148.7429,-29.2441,150.3497],[148.7415,-29.2497,148.9806],[148.737,-29.248,150.4623],[148.7359,-29.2498,150.738],[148.7376,-29.2521,150.4522],[148.7356,-29.2536,150.9321],[148.7345,-29.2515,150.468],[148.733,-29.2526,150.468],[148.7345,-29.2571,150.5037],[148.7413,-29.262,150.0363],[148.7384,-29.2631,151.9579],[148.7379,-29.268,150.6327],[148.7345,-29.264,150.2377],[148.7321,-29.2639,149.2858],[148.7312,-29.2675,147.3119],[148.7345,-29.2681,148.7513],[148.7332,-29.2748,147.4728],[148.7315,-29.2768,149.954],[148.7283,-29.2739,149.5575],[148.7249,-29.2798,150.3489],[148.7209,-29.2818,149.8768],[148.7241,-29.2871,149.8499],[148.7241,-29.2933,150.8415],[148.7279,-29.3,148.9704],[148.7256,-29.3005,150.1795],[148.7219,-29.2951,150.1042],[148.7148,-29.2968,150.0278],[148.7209,-29.3048,149.8842],[148.7196,-29.3077,149.6149],[148.721,-29.3086,150.4752],[148.7188,-29.3099,150.0534],[148.7227,-29.3157,150.3729],[148.7195,-29.3177,147.9673],[148.7184,-29.3158,148.3448],[148.7123,-29.3135,148.1286],[148.7138,-29.319,149.0604],[148.7118,-29.3223,150.6936],[148.708,-29.3216,149.6392],[148.7091,-29.3257,149.1966],[148.7059,-29.3311,149.9404],[148.702,-29.3307,149.5394],[148.6981,-29.3259,148.6285],[148.6965,-29.3262,146.834],[148.6981,-29.3303,151.0576],[148.6967,-29.3327,148.5895],[148.6986,-29.3467,148.5243],[148.6957,-29.35,149.0563],[148.6911,-29.3467,147.6825],[148.6889,-29.3521,148.1202],[148.6895,-29.3532,149.4936],[148.6925,-29.3524,148.4523],[148.6943,-29.3582,148.5102],[148.703,-29.3603,148.8048],[148.7038,-29.3623,149.1298],[148.6929,-29.3652,147.3317],[148.6975,-29.3751,147.0122],[148.6925,-29.3756,147.2592],[148.6877,-29.3785,147.8113],[148.6837,-29.3887,146.269],[148.6909,-29.387,149.495],[148.695,-29.3888,150.2385],[148.6958,-29.3922,149.749],[148.6976,-29.3934,146.6222],[148.7002,-29.3877,146.728],[148.7047,-29.39,147.2597],[148.7084,-29.3961,148.3427],[148.7072,-29.4027,146.3753],[148.7145,-29.4123,149.0203],[148.7083,-29.4134,148.3736],[148.7082,-29.4147,147.2238],[148.7115,-29.4172,148.0984],[148.7153,-29.4174,146.8096],[148.7158,-29.421,145.9559],[148.7079,-29.4276,149.3316],[148.7034,-29.4256,146.6618],[148.7028,-29.4306,146.8263],[148.7003,-29.4325,146.2482],[148.6979,-29.4301,147.18],[148.6944,-29.4319,145.4948],[148.6977,-29.436,147.7857],[148.6971,-29.4388,146.8434],[148.6987,-29.4397,143.5235],[148.6938,-29.4421,145.3961],[148.6919,-29.4452,145.104],[148.6968,-29.4468,143.5558],[148.6971,-29.4491,144.0647],[148.6949,-29.4508,145.5404],[148.6895,-29.4513,146.9415],[148.6926,-29.4536,145.6852],[148.6887,-29.4551,144.6927],[148.6832,-29.4636,146.7819],[148.6827,-29.4682,145.8764],[148.6849,-29.4723,144.6618],[148.681,-29.4725,147.4222],[148.6791,-29.4768,144.5136],[148.6818,-29.4827,145.8665],[148.6866,-29.485,143.733],[148.6866,-29.4952,145.0628],[148.6823,-29.4954,147.1362],[148.682,-29.4972,147.6614],[148.6853,-29.4993,146.7232],[148.6801,-29.502,143.9755],[148.6782,-29.5083,145.7778],[148.6762,-29.5098,145.9133],[148.6818,-29.5116,145.7595],[148.6825,-29.5104,143.7983],[148.6811,-29.5092,146.0198],[148.6835,-29.5091,144.8862],[148.6849,-29.5059,145.3346],[148.6896,-29.5077,144.91],[148.6914,-29.5051,145.4221],[148.6924,-29.5066,145.6163],[148.689,-29.5087,144.6504],[148.6895,-29.5107,144.3365],[148.6923,-29.5112,144.412],[148.692,-29.5092,145.4339],[148.6937,-29.5091,145.9432],[148.6943,-29.511,144.6045],[148.6975,-29.5107,144.818],[148.6982,-29.5137,145.4469],[148.7027,-29.5157,145.6212],[148.7035,-29.5117,146.3832],[148.7037,-29.5139,145.9796],[148.707,-29.5162,146.2958],[148.7122,-29.5108,144.4481],[148.7172,-29.5117,145.6584],[148.7171,-29.5083,145.3255],[148.7191,-29.5109,146.0434],[148.7218,-29.51,146.8531],[148.7222,-29.5132,146.6368],[148.7278,-29.5141,145.9913],[148.7301,-29.5109,146.5888],[148.7279,-29.5081,146.3924],[148.7298,-29.5086,146.2599],[148.7318,-29.5063,145.6745],[148.7328,-29.5073,145.4814],[148.7334,-29.5047,145.4568],[148.7363,-29.5057,146.2954],[148.7362,-29.5036,146.3127],[148.74,-29.5061,147.2652],[148.7444,-29.5038,146.7172],[148.7443,-29.5062,146.7367],[148.7464,-29.5058,147.0863],[148.7468,-29.5083,146.6794],[148.7511,-29.5066,146.0656],[148.7517,-29.5098,146.3057],[148.7553,-29.5063,147.4606],[148.7542,-29.5036,147.0697],[148.7577,-29.5036,147.026],[148.7578,-29.5065,147.6454],[148.7594,-29.5069,147.3522],[148.7623,-29.5004,147.084],[148.7668,-29.5032,149.1581],[148.7701,-29.5025,148.2607],[148.7711,-29.5046,147.7523],[148.7739,-29.5054,148.1131],[148.777,-29.504,148.5033],[148.7828,-29.5058,149.1035],[148.7841,-29.5042,148.0816],[148.7827,-29.5019,149.1245],[148.7864,-29.5014,148.4496],[148.7887,-29.5067,149.2777],[148.7909,-29.5045,149.0568],[148.7946,-29.504,149.1326],[148.794,-29.5012,148.3069],[148.7991,-29.5034,149.9593],[148.8004,-29.5057,150.6629],[148.8012,-29.5021,149.7023],[148.8039,-29.501,150.0468],[148.804,-29.4985,150.3668],[148.8069,-29.4989,150.075],[148.8053,-29.4958,149.1271],[148.8095,-29.4981,149.7683],[148.81,-29.4945,149.7482],[148.8144,-29.4952,151.4933],[148.812,-29.4934,151.2682],[148.8137,-29.4914,150.7841],[148.8158,-29.4923,150.5174],[148.8159,-29.4898,150.081],[148.8234,-29.4941,151.3097],[148.822,-29.4957,151.6203],[148.8262,-29.4962,150.5743],[148.8298,-29.4916,150.9528],[148.8299,-29.494,151.5885],[148.8313,-29.4933,151.5885],[148.833,-29.4962,150.8401],[148.8335,-29.4936,151.283],[148.8365,-29.4944,150.9704],[148.8387,-29.4982,150.2028],[148.8404,-29.4978,152.5367],[148.839,-29.4964,152.1263],[148.8414,-29.495,151.5531],[148.8417,-29.4964,152.5367],[148.8437,-29.4956,152.9171],[148.8457,-29.4973,152.9714],[148.8452,-29.4955,152.4501],[148.8469,-29.4956,152.1922],[148.8508,-29.4913,152.0489],[148.8489,-29.4948,151.4863],[148.8519,-29.4969,150.1399],[148.8524,-29.4939,151.8907],[148.8561,-29.4948,151.0474],[148.8559,-29.4933,151.2001],[148.8615,-29.4925,151.3815],[148.863,-29.4898,152.0579],[148.865,-29.493,150.6884],[148.8681,-29.4911,151.6822],[148.8701,-29.4935,150.3878],[148.8711,-29.4922,151.1575],[148.8688,-29.4907,152.033],[148.869,-29.4856,151.4995],[148.87,-29.4877,151.8769],[148.8711,-29.4858,151.7981],[148.8749,-29.4877,152.5526],[148.8738,-29.4842,152.5201],[148.8757,-29.4859,152.722],[148.883,-29.4831,153.2011],[148.885,-29.4781,152.6154],[148.8871,-29.4825,152.5575],[148.8894,-29.481,152.4292],[148.8914,-29.4825,152.3008],[148.8906,-29.4769,152.7266],[148.8932,-29.4784,152.8922],[148.8936,-29.4765,153.8722],[148.8945,-29.4788,152.8922],[148.8955,-29.4771,154.0033],[148.8982,-29.4785,153.1314],[148.8978,-29.4769,153.4363],[148.8999,-29.4776,153.2103],[148.9012,-29.4752,152.8801],[148.8769,-29.6213,152.4589],[148.881,-29.6227,152.4559],[148.8799,-29.6292,152.2251],[149.0888,-29.7125,160.598],[149.0828,-29.7493,161.399],[149.3598,-29.7841,172.6592],[149.3885,-29.7881,174.3814],[149.3918,-29.79,175.3388],[149.3948,-29.7889,174.4702],[149.3967,-29.785,175.1399],[149.405,-29.7835,175.1021],[149.4112,-29.7852,175.3568],[149.4146,-29.7839,175.3667],[149.4171,-29.7891,175.3049],[149.4196,-29.7904,174.8926],[149.4218,-29.7872,174.6398],[149.4237,-29.787,175.126],[149.4376,-29.791,175.3739],[149.4394,-29.7901,175.5645],[149.4457,-29.7937,175.4617],[149.4529,-29.7923,175.4043],[149.4544,-29.7935,175.3341],[149.4661,-29.7932,176.7526],[149.4705,-29.7976,176.7791],[149.4762,-29.7982,176.5177],[149.4803,-29.7974,176.9813],[149.4812,-29.7948,176.7393],[149.4851,-29.7942,176.5988],[149.4933,-29.7999,177.0716],[149.5035,-29.802,177.7245],[149.5058,-29.8048,177.7797],[149.5083,-29.8052,177.8116],[149.5093,-29.8091,178.1034],[149.516,-29.8144,178.5627],[149.5288,-29.8139,179.0502],[149.5322,-29.8112,178.3126],[149.5379,-29.8134,179.4029],[149.5442,-29.8125,179.5273],[149.5472,-29.8158,179.4353],[149.5515,-29.8174,180.0101],[149.5586,-29.8159,179.3239],[149.5633,-29.8175,180.9456],[149.5647,-29.8118,181.7299],[149.5656,-29.8127,181.7299],[149.5679,-29.8111,181.7736],[149.5718,-29.8126,181.7565],[149.5738,-29.8092,183.0335],[149.5823,-29.809,183.336],[149.5826,-29.8022,184.6056],[149.5874,-29.8022,184.2249],[149.5912,-29.7991,184.9135],[149.594,-29.7989,185.1075],[149.5975,-29.8014,185.8019],[149.6035,-29.801,185.7995],[149.6056,-29.7964,186.2598],[149.6112,-29.7949,186.0206],[149.6109,-29.7894,187.0646],[149.6144,-29.7869,187.1207],[149.6223,-29.7886,188.2867],[149.6235,-29.7847,188.3553],[149.6265,-29.7856,189.2067],[149.635,-29.7826,190.1365],[149.6353,-29.779,190.6551],[149.6449,-29.778199999999998,190.9886],[149.6472,-29.775,191.7821],[149.6463,-29.78,192.8425],[149.663,-29.7823,197.5295],[149.6588,-29.806,198.1931],[149.6915,-29.8105,206.2668],[149.6892,-29.8234,203.4208],[149.6973,-29.8212,204.0262],[149.7005,-29.8219,205.273],[149.7004,-29.819,205.2882],[149.7023,-29.818,205.8871],[149.7069,-29.8212,207.6631],[149.7089,-29.8181,208.5719],[149.713,-29.8182,215.422],[149.7193,-29.7825,213.0028],[149.7207,-29.7827,208.2781],[149.7215,-29.7786,208.2936],[149.759,-29.7835,215.8377],[149.7527,-29.8236,218.2147],[149.7557,-29.824,218.8512],[149.763,-29.8319,226.1391],[149.7806,-29.8328,231.0233],[149.7862,-29.8372,238.4558],[149.789,-29.8376,240.4426],[149.7897,-29.8764,235.327],[149.8187,-29.8804,247.46],[149.8196,-29.8757,242.8902],[149.8787,-29.8837,283.9077],[149.8835,-29.881,295.906],[149.9105,-29.8847,281.8149],[149.907,-29.9098,300.7652],[149.9028,-29.9215,291.3778],[149.8994,-29.9211,287.4354],[149.9031,-29.9321,307.3578],[149.9179,-29.9341,324.9448],[149.9154,-29.9478,345.2165],[149.9272,-29.9494,338.3179],[149.9237,-29.9626,385.7728],[149.9689,-29.9781,369.6647],[149.9859,-29.9811,381.5917],[149.9855,-29.9834,380.87],[150.0098,-29.9877,399.7032],[150.0103,-29.9854,401.4034],[150.0305,-29.9881,405.3469],[150.0359,-29.9957,433.8215],[150.0317,-29.9979,420.519],[150.0287,-30.0028,398.9122],[150.031,-30.0045,410.2549],[150.0392,-30.0004,445.2237],[150.0558,-30.0237,508.5662],[150.0502,-30.0557,550.8291],[150.0588,-30.0569,749.6058],[150.0617,-30.0697,782.5462],[150.0644,-30.0709,803.6692],[150.0658,-30.0755,973.3676],[150.066,-30.0812,950.267],[150.0623,-30.0882,1264.7592],[150.0671,-30.0921,1139.3978],[150.0689,-30.0974,1007.8025],[150.0746,-30.1011,927.8846],[150.0742,-30.1049,1050.3873],[150.0782,-30.1055,1001.7838],[150.0825,-30.0975,799.4518],[150.0916,-30.0963,844.1725],[150.0922,-30.0912,713.8267],[150.1012,-30.085,801.6211],[150.103,-30.082,761.3461],[150.1084,-30.0821,836.7962],[150.1094,-30.0804,819.9936],[150.1124,-30.0808,861.1047],[150.1181,-30.0778,843.249],[150.1203,-30.0749,907.2946],[150.1195,-30.0721,902.553],[150.1228,-30.0695,883.316],[150.1331,-30.0777,822.6422],[150.1332,-30.0798,848.8354],[150.1406,-30.0872,826.4562],[150.1466,-30.0868,710.8752],[150.1536,-30.082,695.3111],[150.158,-30.0828,726.5138],[150.1611,-30.0814,717.5457],[150.164,-30.0707,642.9402],[150.1702,-30.0665,635.4764],[150.1699,-30.0644,626.1925],[150.172,-30.063,621.1085],[150.1752,-30.0617,622.6214],[150.1798,-30.0659,610.227],[150.1835,-30.0644,618.4908],[150.1885,-30.0657,633.2232],[150.1975,-30.0626,713.6727],[150.201,-30.0558,711.54],[150.2122,-30.0451,639.805],[150.2138,-30.0398,638.0332],[150.2187,-30.0348,617.3511],[150.2226,-30.0333,595.5058],[150.2238,-30.0279,569.8843],[150.2334,-30.023,563.5413],[150.237,-30.0162,541.3909],[150.2364,-30.0122,540.3328],[150.2435,-30.0115,568.5273],[150.2457,-30.0096,554.053],[150.2488,-30.0103,588.5582],[150.2508,-30.0027,556.2218],[150.2489,-29.9935,521.304],[150.2501,-29.9926,520.8857],[150.2534,-29.9932,513.92],[150.2543,-29.9899,502.8102],[150.257,-29.9889,493.8329],[150.2596,-29.9902,492.1862],[150.2643,-29.9887,507.0845],[150.2677,-29.991,534.8877],[150.2726,-29.9894,525.6188],[150.2764,-29.995,557.1573],[150.2846,-29.9967,628.3926],[150.2859,-29.9919,621.453],[150.2903,-29.9926,656.3102],[150.2929,-29.9905,688.9219],[150.2935,-29.9831,683.5576],[150.2921,-29.969,662.5691],[150.2907,-29.967,674.1996],[150.2937,-29.9629,672.3846],[150.2966,-29.9632,673.4406],[150.2959,-29.961,659.6115],[150.2972,-29.959,652.4586],[150.3022,-29.957,626.3911],[150.3028,-29.9535,626.942],[150.3022,-29.9489,621.0757],[150.3,-29.9487,598.6851],[150.2987,-29.946,573.2269],[150.3025,-29.9389,557.1441],[150.3002,-29.922,439.1914],[150.312,-29.9069,643.6893],[150.3138,-29.8967,614.1174],[150.3129,-29.8925,573.3848],[150.305,-29.8895,585.4567],[150.306,-29.8836,582.8148],[150.3023,-29.8793,642.2808],[150.3015,-29.8737,699.0099],[150.2977,-29.8724,697.8038],[150.2951,-29.8735,700.1794],[150.2936,-29.862,632.6379],[150.2912,-29.8613,635.9008],[150.2968,-29.8502,646.3746],[150.2939,-29.8488,669.1656],[150.2941,-29.8466,664.73],[150.2966,-29.8452,651.03],[150.2968,-29.8433,653.2932],[150.3007,-29.8433,621.7025],[150.3022,-29.8416,639.0178],[150.3016,-29.8278,637.7681],[150.307,-29.8259,641.8105],[150.3074,-29.8184,670.2525],[150.2986,-29.8173,629.8922],[150.2995,-29.8083,653.0121],[150.2942,-29.8057,675.4623],[150.2963,-29.8033,685.7023],[150.2907,-29.8027,698.2468],[150.2922,-29.7964,660.0343],[150.2873,-29.787,644.3861],[150.289,-29.786,634.2477],[150.29,-29.7787,616.8738],[150.2914,-29.7787,626.2931],[150.2901,-29.7741,617.147],[150.2921,-29.7696,623.8754],[150.2905,-29.7681,623.3027],[150.2937,-29.7621,640.3411],[150.2919,-29.7589,624.0046],[150.2944,-29.7559,624.1282],[150.292,-29.7554,613.391],[150.288,-29.7498,611.1354],[150.2981,-29.7442,595.3593],[150.2993,-29.7391,586.5684],[150.3024,-29.7356,613.9984],[150.3025,-29.7318,574.2754],[150.2975,-29.7263,549.3822],[150.2878,-29.7219,486.9095],[150.2867,-29.7171,474.0831],[150.2889,-29.7166,479.7938],[150.2885,-29.7135,499.1899],[150.2858,-29.7136,476.906],[150.2839,-29.709,476.8692],[150.281,-29.7065,469.6463],[150.2737,-29.7071,449.6326],[150.2721,-29.704,459.8607],[150.2726,-29.692,458.5701],[150.2641,-29.6886,434.6141],[150.2629,-29.679,421.5516],[150.2525,-29.6728,396.8233],[150.2467,-29.6707,430.2576],[150.2447,-29.6714,432.4227],[150.2418,-29.6694,433.5297],[150.2422,-29.6653,429.3777],[150.2391,-29.6611,474.8705],[150.2361,-29.6605,473.8828],[150.2318,-29.663,450.8218],[150.2256,-29.6595,436.9927],[150.2188,-29.6597,419.2044],[150.2159,-29.6489,344.4663],[150.1946,-29.6202,300.9228],[150.2024,-29.5782,265.9684],[150.2018,-29.5742,265.6727],[150.2042,-29.5698,263.229],[150.2075,-29.5509,248.8156],[150.2104,-29.5514,252.5376],[150.2091,-29.549,250.0012],[150.2102,-29.547,249.6153],[150.2083,-29.5467,249.2755],[150.209,-29.5409,245.3188],[150.2109,-29.5411,243.5352],[150.21,-29.5385,244.0518],[150.2116,-29.5298,240.2305],[150.1998,-29.524,237.3749],[150.196,-29.5243,237.2399],[150.193,-29.5191,239.3934],[150.1986,-29.5139,237.6459],[150.2041,-29.5116,237.284],[150.2075,-29.5057,234.1385],[150.2053,-29.5021,236.4277],[150.2064,-29.4988,237.518],[150.2163,-29.4994,241.6217],[150.22,-29.4977,234.7618],[150.2066,-29.4831,234.1918],[150.1994,-29.4854,235.677],[150.1974,-29.492,233.2785],[150.1946,-29.4945,232.5323],[150.1843,-29.4934,236.915],[150.1746,-29.4968,230.3117],[150.1692,-29.4962,232.7653],[150.1753,-29.4626,243.3802],[150.1792,-29.4631,240.9068],[150.1807,-29.4418,251.3302],[150.1844,-29.4333,253.019],[150.2384,-29.1534,274.9504],[150.2454,-29.1145,284.2617],[150.2403,-29.1138,285.4486],[150.245,-29.0889,274.2563],[150.2472,-29.0858,269.2253],[150.2483,-29.079,263.3042],[150.2526,-29.0796,260.3992],[150.2497,-29.0753,259.4631],[150.252,-29.0694,258.8331],[150.2519,-29.0625,257.2408],[150.2534,-29.061,255.9942],[150.2517,-29.0584,257.3417],[150.2523,-29.0554,256.398],[150.2505,-29.0536,256.5693],[150.2514,-29.052,256.3565],[150.2499,-29.0508,255.6598],[150.2526,-29.0512,259.2599],[150.2595,-29.0139,270.8445],[150.1485,-28.8893,223.2784],[150.169,-28.876,226.692],[150.344,-28.8275,240.0188],[150.4209,-28.752,225.8166],[150.4677,-28.6862,228.1159],[150.4775,-28.6732,226.881],[150.4793,-28.673,224.5625]]]]}
,"properties": {"GID_2": "AUS.5.91_1","GID_0": "AUS","country": "Australia","GID_1": "AUS.5_1","state": "NewSouthWales","NL_NAME_1": "NA","county": "MoreePlains","VARNAME_2": "NA","NL_NAME_2": "NA","TYPE_2": "Area","ENGTYPE_2": "Area","CC_2": "15300","HASC_2": "AU.NS.MP","name": "MoreePlains.county","area_km2": 17928.96,"hist_schema_id": "Elevation0-9000","hist_area_km2": {"150": 2645.31,"175": 6309.32,"200": 4018.07,"225": 2401.74,"250": 991.15,"275": 356.44,"300": 204.82,"325": 186.23,"350": 160.72,"375": 131.51,"400": 98.74,"425": 73.34,"450": 62.17,"475": 50.88,"500": 39.98,"525": 37.46,"550": 37.44,"575": 32.92,"600": 25.01,"625": 21.35,"650": 13.21,"675": 7.31,"700": 5.36,"725": 5.32,"750": 2.88,"775": 2.26,"800": 1.71,"825": 1.72,"850": 1.8,"875": 0.83,"900": 0.46,"925": 0.29,"950": 0.29,"975": 0.15,"1000": 0.22}}}