{"type":"Feature","properties":{"featurecla":"Alkaline Lake","scalerank":8,"name":"Lake Goongarrie","name_abb":"L. Goongarrie","name_alt":null,"note":null,"delta":null,"dam_name":null,"year":-99,"admin":null,"min_zoom":6.0,"min_label":7.0},
"geometry":{"type": "Polygon","coordinates": [[[121.42623672813539,-29.76834167049941,359.6741],[121.4121072500331,-29.787769702890103,363.6118],[121.4059256033633,-29.808669555916453,359.9039],[121.40415941860056,-29.875784576902475,361.9898],[121.40121577732924,-29.89374078865751,358.8714],[121.39356231002381,-29.910813908031145,355.0],[121.37972719604858,-29.92965321216758,360.7849],[121.4085748805075,-29.931125032803237,365.6008],[121.44036620623774,-29.91964483184509,362.1599],[121.46744770593386,-29.89874497881874,358.3157],[121.48157718403615,-29.87284093563116,355.0],[121.48275464054467,-29.842227066409464,357.8102],[121.48687573832456,-29.831629957832718,355.0],[121.50100521642685,-29.817206115603284,362.939],[121.52013888469043,-29.802487909246707,359.4059],[121.53809509644543,-29.793068257178476,360.9293],[121.55722876470901,-29.787769702890103,356.5727],[121.61256922060977,-29.784826061618787,361.7843],[121.62434378569503,-29.7783500508219,357.1241],[121.62934797585626,-29.761571295575379,359.614],[121.62257760093223,-29.736255980642056,355.0],[121.59402428060048,-29.715356127615706,362.3919],[121.58754826980356,-29.6929844539537,360.0443],[121.5775398894811,-29.673556421563035,355.0],[121.55516821581909,-29.660898764096373,356.348],[121.53338527041132,-29.661487492350631,360.3976],[121.52367125421597,-29.680915524741323,355.0],[121.49511793388422,-29.676205698707207,355.0],[121.47215753196792,-29.665608590130461,357.1179],[121.45449568434003,-29.647946742502569,364.1927],[121.44183802687337,-29.622925791696389,371.1396],[121.43653947258503,-29.606735764704126,355.0],[121.42859164115248,-29.590545737711892,365.2028],[121.41740580432145,-29.584069726915004,359.8962],[121.40209886971058,-29.597610476763066,355.0],[121.37177936461603,-29.582892270406461,356.0005],[121.36088789191217,-29.583775362787861,356.7077],[121.35617806587805,-29.602025938670039,358.8055],[121.36059352778506,-29.623514519950646,364.3854],[121.38325956557418,-29.663548041240546,359.2573],[121.38826375573541,-29.685919714902553,358.9827],[121.39768340780364,-29.707997024437418,359.2815],[121.41681707606722,-29.728896877463768,366.3398],[121.43094655416951,-29.748913638108718,368.9059],[121.42623672813539,-29.76834167049941,359.6741]]]}}