{"type":"Feature","properties":{"featurecla":"Alkaline Lake","scalerank":7,"name":"Lake Carnegie","name_abb":"L. Carnegie","name_alt":null,"note":null,"delta":null,"dam_name":null,"year":-99,"admin":null,"min_zoom":5.7,"min_label":6.7},
"geometry":{"type": "Polygon","coordinates": [[[123.12501210581229,-26.517678614584383,442.9804],[123.11323754072703,-26.511496967914638,443.1137],[123.1029347962774,-26.503549136482064,442.1709],[123.09439823659056,-26.494423848541004,438.5],[123.0879222257937,-26.482943647582857,443.1269],[123.0817405791239,-26.463515615192165,439.0087],[123.07732511721696,-26.439377756767357,441.1475],[123.07732511721696,-26.415239898342577,441.8386],[123.08468422039522,-26.396694958333285,443.701],[123.09322078008205,-26.384331664993738,443.4067],[123.10057988326037,-26.367847273874361,442.0396],[123.10528970929442,-26.350774154500726,443.0203],[123.10528970929442,-26.335761584017035,441.5796],[123.1029347962774,-26.330168665601519,442.3622],[123.09528132897196,-26.320749013533316,442.2273],[123.09292641595493,-26.314861730990685,447.028],[123.09322078008205,-26.307502627812369,442.0975],[123.09763624198905,-26.293667513837192,439.1273],[123.09822497024328,-26.286308410658904,446.0743],[123.09086586706502,-26.273650753192243,440.9414],[123.01786356353637,-26.219487753800024,443.6529],[123.0007904441627,-26.21153992236745,441.6486],[122.97783004224647,-26.208596281096135,446.9733],[122.98931024320456,-26.230379226503885,444.5796],[122.98872151495033,-26.246569253496119,443.0431],[122.97783004224647,-26.253928356674407,439.6976],[122.9581076457286,-26.249512894767435,439.6787],[122.94397816762631,-26.238915786190717,440.8481],[122.91306993427747,-26.193878074739558,439.4081],[122.90276718982784,-26.184458422671355,441.9059],[122.89069826061547,-26.177688047747324,440.0202],[122.8780406031488,-26.172683857586065,444.1663],[122.83653526122322,-26.162675477263605,439.6488],[122.83300289169767,-26.160320564246547,443.4088],[122.82770433740927,-26.154727645831059,439.794],[122.82417196788373,-26.152667096941116,439.597],[122.8103368539085,-26.152078368686858,440.1042],[122.76912587611008,-26.160909292500804,438.7888],[122.75381894149922,-26.157965651229489,442.3517],[122.72644307767598,-26.144130537254313,439.6571],[122.710841778938,-26.140892531855854,438.5],[122.70318831163257,-26.141775624237255,443.8251],[122.67875608908065,-26.147368542652742,454.6007],[122.65461823065584,-26.148251635034143,438.5],[122.64166620906207,-26.146191086144228,446.6955],[122.63371837762952,-26.141186895982997,443.0759],[122.63283528524812,-26.133827792804709,440.3531],[122.63990002429927,-26.116754673431046,439.9546],[122.64225493731635,-26.109101206125644,438.5],[122.64048875255355,-26.09791536929464,439.4994],[122.63489583413804,-26.088790081353551,441.4644],[122.6263592744512,-26.084080255319435,438.5],[122.61487907349311,-26.085846440082236,446.2911],[122.60869742682331,-26.090850630243466,440.6062],[122.59986650300937,-26.106451928981443,444.2559],[122.59486231284814,-26.112927939778359,444.1341],[122.57778919347447,-26.12293632010082,442.2404],[122.53775567218457,-26.134416521058967,444.0814],[122.52244873757377,-26.143541809000055,449.6522],[122.50243197692879,-26.159731835992289,440.3998],[122.48359267279238,-26.162969841390719,447.2953],[122.46799137405441,-26.154138917576773,445.548],[122.45709990135049,-26.133533428677566,438.5],[122.46651955341872,-26.108218113744243,438.5],[122.45886608611329,-26.087318260717893,438.5],[122.43678877657845,-26.05788184800474,438.5],[122.440321146104,-26.037276359105505,445.7132],[122.46298718389318,-26.001658299722578,440.8672],[122.45709990135049,-25.989589370510174,442.6275],[122.43796623308697,-25.988411914001659,442.5975],[122.42589730387454,-26.001658299722578,438.5],[122.41176782577224,-26.009311767028009,449.0558],[122.38586378258464,-25.992827375908632,439.5],[122.37644413051646,-25.988411914001659,446.1183],[122.3646695654312,-25.988411914001659,445.4328],[122.35377809272728,-25.991355555272975,445.1073],[122.34789081018465,-25.995771017179948,442.7026],[122.34730208193042,-26.006662489883809,438.5],[122.36084283177848,-26.025796158147386,450.6016],[122.36143156003271,-26.037276359105505,438.5],[122.33670497335368,-26.053760750224882,452.0297],[122.29578835968238,-26.045812918792336,438.5],[122.25810975140951,-26.024913065765986,450.8469],[122.24250845267153,-26.002835756231093,443.4633],[122.24751264283276,-25.994593560671404,438.5],[122.26635194696917,-25.980464082569085,438.5],[122.27135613713045,-25.972221887009397,440.9383],[122.26370266982502,-25.955148767635762,442.1825],[122.24280281679864,-25.940430561279186,443.1047],[122.21866495837384,-25.932777093973755,445.1784],[122.19982565423743,-25.935132006990813,445.2698],[122.20276929550874,-25.950733305728789,442.9641],[122.1992369259832,-25.957798044779963,443.382],[122.17715961644831,-25.966040240339652,446.686],[122.16744560025296,-25.97251625113654,444.1506],[122.16391323072736,-25.980464082569085,445.4225],[122.16597377961727,-25.989883734637317,451.6828],[122.17303851866848,-26.001069571468321,445.125],[122.18657926851654,-26.014904685443497,439.2427],[122.19099473042348,-26.022263788621785,443.7458],[122.19099473042348,-26.031977804817132,454.5415],[122.18422435549945,-26.041691821012478,449.8746],[122.14831193198938,-26.060531125148913,444.255],[122.11828679102194,-26.084080255319435,450.2249],[122.10533476942817,-26.09791536929464,439.7072],[122.09562075323282,-26.114105396286874,446.0889],[122.08973347069019,-26.127057417880678,447.009],[122.08914474243591,-26.134710885186081,442.1608],[122.09532638910571,-26.137948890584539,440.8821],[122.11092768784368,-26.138243254711682,441.0947],[122.13300499737852,-26.141775624237255,449.5197],[122.15007811675218,-26.1514896404326,454.6653],[122.16567941549016,-26.16385293377212,452.5972],[122.18422435549945,-26.174744406476009,448.8717],[122.20394675201726,-26.181809145527154,438.5],[122.22749588218784,-26.185930243307013,438.5],[122.25104501235836,-26.185047150925612,438.5],[122.26988431649477,-26.176216227111667,438.5],[122.27900960443583,-26.165324754407777,438.5],[122.28548561523274,-26.155022009958174,438.5],[122.29402217491958,-26.146485450271371,438.5],[122.30932910953044,-26.141186895982997,438.5],[122.33552751684516,-26.143541809000055,448.7903],[122.36084283177848,-26.155905102339574,447.2951],[122.37850467940638,-26.175921862984524,451.5999],[122.38262577718621,-26.201825906172104,452.2651],[122.37614976638929,-26.214777927765908,446.9656],[122.35348372860017,-26.237149601427916,441.8059],[122.34700771780325,-26.250395987148835,448.5685],[122.35083445145597,-26.26923529128527,444.8173],[122.36673011432111,-26.2724732966837,438.9194],[122.38645251083892,-26.266291650013954,438.5],[122.40234817370401,-26.257166362072866,438.5],[122.43296204292574,-26.233911596029458,438.5],[122.45032952642651,-26.225963764596912,438.558],[122.47446738485127,-26.223020123325597,442.3044],[122.49212923247916,-26.225963764596912,438.5],[122.50596434645439,-26.234500324283715,440.3774],[122.51244035725125,-26.247746710004662,443.7342],[122.50714180296291,-26.265114193505411,440.8144],[122.53422330265903,-26.281009856370531,439.6898],[122.5666033566435,-26.282481677006189,438.5],[122.59545104110242,-26.269824019539527,442.317],[122.61164106809463,-26.243919976351947,438.5],[122.61340725285743,-26.229790498249628,440.0019],[122.61605653000163,-26.225669400469769,438.5],[122.62370999730706,-26.221253938562796,438.5],[122.63960566017215,-26.216544112528709,438.5],[122.6493196763675,-26.219782117927139,440.4242],[122.65726750780004,-26.226846856978312,443.0728],[122.66874770875819,-26.233911596029458,442.4154],[122.68287718686048,-26.235677780792258,442.1746],[122.72585434942175,-26.221842666817054,438.5],[122.79296937040777,-26.213011743003108,443.1194],[122.82211141899381,-26.215366656020166,439.9129],[122.85331401646977,-26.222137030944197,438.5],[122.88333915743715,-26.233028503648057,447.2259],[122.90806574411624,-26.248041074131777,438.5],[122.93809088508368,-26.277183122717815,445.3866],[122.94074016222783,-26.281009856370531,445.6661],[122.94044579810071,-26.285130954150361,444.9763],[122.93809088508368,-26.293667513837192,443.8746],[122.92513886348985,-26.32104337766043,439.3203],[122.9224895863457,-26.333995399254235,444.8253],[122.93073178190537,-26.342237594813923,438.4833],[122.94456689588054,-26.34194323068678,442.4245],[122.97429767272087,-26.333406670999977,441.1717],[122.99019333558596,-26.337233404652693,441.1272],[123.00049608003559,-26.349891062119355,438.9058],[122.99931862352707,-26.365197996730188,441.3756],[122.98901587907744,-26.3969893224604,443.898],[122.98989897145884,-26.411413164689861,444.851],[122.99519752574719,-26.421715909139465,451.1803],[123.0043228136883,-26.429958104699153,439.3901],[123.02934376449446,-26.447325588199931,443.9097],[123.03758596005417,-26.457039604395277,438.5],[123.04288451434252,-26.469402897734795,441.1983],[123.04965488926655,-26.495012576795261,438.5],[123.06054636197047,-26.5215053482371,462.2805],[123.06260691086038,-26.539167195865019,442.0995],[123.0646674597503,-26.547409391424679,441.4699],[123.06996601403864,-26.554474130475853,442.3408],[123.07526456832704,-26.557712135874311,442.5813],[123.07938566610687,-26.558300864128569,441.5651],[123.08939404642933,-26.556829043492911,444.3633],[123.10264043215028,-26.557123407620026,439.63],[123.11235444834563,-26.559183956509969,439.7285],[123.12089100803246,-26.563010690162685,444.0792],[123.13148811660915,-26.569781065086687,441.95],[123.15003305661844,-26.576845804137861,442.4485],[123.17682019218745,-26.582438722553348,442.8429],[123.20007495823086,-26.580672537790576,446.6512],[123.20772842553629,-26.566248695561114,445.0938],[123.19948622997657,-26.552413581585938,443.2983],[123.18388493123859,-26.541522108882049,442.3857],[123.12501210581229,-26.517678614584383,442.9804]]]}}