{"type": "Feature","bbox": [122.07678144909642,-29.411277984288716,122.79326373453489,-28.815779355101341],"geometry": {"type": "Polygon","coordinates": [[[122.63931129604504,-29.333565854725947,398.9399],[122.63283528524812,-29.3256180232934,402.4321],[122.62665363857838,-29.31619837122517,401.2768],[122.59986650300937,-29.307956175665481,402.6609],[122.58220465538147,-29.297947795343021,401.6496],[122.55159078615981,-29.262624100087208,398.1016],[122.53510639504043,-29.247317165476375,401.1771],[122.47741102612258,-29.211993470220563,398.9914],[122.45857172198617,-29.194037258465528,404.4908],[122.4412042384854,-29.173431769566321,397.8975],[122.42678039625594,-29.150471367650056,397.0432],[122.40440872259393,-29.092187270477979,409.5912],[122.38586378258464,-29.019773695203583,395.5],[122.37585540226218,-28.91350824530906,397.8889],[122.36231465241411,-28.881422555451707,395.5],[122.33817679398931,-28.867587441476502,396.7845],[122.31050656603895,-28.860228338298214,427.9218],[122.25840411553662,-28.825199007169545,395.5],[122.23073388758627,-28.815779355101341,399.6807],[122.21572131710252,-28.816956811609856,400.5253],[122.20718475741575,-28.822549730025372,399.3875],[122.19982565423743,-28.830203197330803,454.5009],[122.18863981740645,-28.837267936381949,413.3301],[122.17156669803279,-28.839622849399007,400.1796],[122.15243302976921,-28.838739757017606,397.6331],[122.13477118214132,-28.841094670034664,403.1581],[122.12211352467466,-28.854046691628469,399.8792],[122.11887551927623,-28.871414175129217,401.2049],[122.12064170403903,-28.884366196723022,399.9777],[122.11710933451343,-28.892314028155567,400.1561],[122.09797566624985,-28.894963305299768,399.1633],[122.08472928052896,-28.899967495461,402.5304],[122.07795890560493,-28.912330788800517,403.2501],[122.07678144909642,-28.928226451665637,403.4846],[122.08090254687625,-28.943533386276471,400.8332],[122.10710095419097,-28.950009397073387,395.5],[122.14477956246384,-28.924399718012921,395.5],[122.18481308375374,-28.904677321495114,395.5],[122.21807623011961,-28.92852081579278,401.2003],[122.22366914853512,-28.947948848183444,403.3289],[122.21866495837384,-28.954719223107475,402.3604],[122.19334964344051,-28.956191043743132,395.5],[122.14742883960798,-28.968848701209794,401.5919],[122.14978375262507,-28.995047108524517,406.6218],[122.16273577421885,-29.014475140915209,412.1264],[122.19629328471189,-29.049210107916764,399.1219],[122.27194486538468,-29.161068476226774,399.181],[122.29932072920792,-29.187266883541497,397.9284],[122.31462766381878,-29.1975696279911,398.9219],[122.33228951144667,-29.206989280059332,397.0483],[122.42942967340014,-29.241429882933744,397.0024],[122.44856334166371,-29.254970632781777,396.757],[122.4794715750125,-29.2829352248593,396.909],[122.51950509630245,-29.307073083284081,401.6051],[122.53422330265903,-29.320613833132143,397.7227],[122.55777243282955,-29.357409349023612,402.8377],[122.58485393252568,-29.381547207448421,397.4326],[122.61252416047603,-29.380369750939877,399.2897],[122.63990002429927,-29.374188104270104,397.0583],[122.66668715986827,-29.384490848719736,396.9918],[122.69347429543723,-29.40156396809337,401.577],[122.7285036265659,-29.411277984288716,404.9983],[122.76412168594885,-29.410689256034431,404.328],[122.79326373453489,-29.398031598567769,401.6412],[122.7552907621349,-29.37477683252439,401.1545],[122.67434062717371,-29.355937528387955,400.0897],[122.63931129604504,-29.333565854725947,398.9399]]]}
,"properties": {"featurecla": "Alkaline Lake","scalerank": 7,"name": "Lake Carey","name_abb": "L. Carey","name_alt": null,"note": null,"delta": null,"dam_name": null,"year": -99,"admin": null,"min_zoom": 5.7,"min_label": 6.7,"area_km2": 1031.9585,"hist_schema_id": "Elevation0-9000","hist_area_km2": {"350": 0.0925,"375": 0.0555,"400": 1021.367,"425": 9.6271,"450": 0.7791,"475": 0.0371}}}