{"type": "Feature","bbox": [121.68998698604537,-32.117956133264414,122.18863981740645,-31.56013611234988],"geometry": {"type": "Polygon","coordinates": [[[121.77888495243917,-31.943692570002469,278.3102],[121.78418350672752,-31.918082890942003,262.5139],[121.79536934355855,-31.890707027118765,260.8919],[121.81126500642364,-31.87275081536373,268.8959],[121.83187049532285,-31.875400092507903,270.3659],[121.84158451151819,-31.889823934737365,260.0],[121.85041543533214,-31.913373064907887,262.3671],[121.85483089723914,-31.937510923332695,262.2777],[121.85070979945925,-31.953995314452072,262.2975],[121.84452815278951,-31.969302249062906,262.3387],[121.85306471247634,-31.979310629385395,260.9778],[121.86866601121432,-31.983431727165225,261.8896],[121.88456167407941,-31.98048808589391,272.2861],[121.89192077725772,-31.975189531605537,264.3202],[121.91046571726702,-31.954878406833473,268.8855],[121.95049923855692,-31.931623640790065,261.9633],[121.95844706998946,-31.924853265866034,270.3623],[121.96345126015069,-31.918082890942003,271.4815],[121.97993565127007,-31.882464831559076,276.1579],[121.97905255888867,-31.874811364253645,267.5619],[121.97081036332901,-31.864802983931156,274.5942],[121.95255978744683,-31.850379141701723,270.2769],[121.94549504839568,-31.842136946142034,265.9835],[121.94166831474297,-31.829773652802515,262.4363],[121.94196267887008,-31.815938538827311,262.5017],[121.9457894125228,-31.800925968343591,262.666],[121.95197105919254,-31.786796490241272,261.5],[121.95962452649798,-31.775316289283154,268.4468],[121.98523420555847,-31.752944615621146,261.5],[122.04499012336618,-31.718504012746735,261.5],[122.07177725893519,-31.697898523847527,261.5],[122.10680659006385,-31.6605142797018,261.5],[122.12123043229326,-31.650800263506454,261.5],[122.15684849167621,-31.634610236514192,261.5],[122.17303851866848,-31.624307492064588,261.5],[122.18481308375374,-31.611061106343669,277.2885],[122.18863981740645,-31.590749981571577,285.6959],[122.17980889359251,-31.573088133943685,278.7878],[122.16303013834596,-31.561902297112681,272.0711],[122.14213028531964,-31.56013611234988,261.5],[122.12917826372586,-31.564551574256853,273.3853],[121.9920045804825,-31.649622806997911,266.2176],[121.98641166206698,-31.655804453667685,263.1197],[121.97934692301584,-31.679942312092493,261.5],[121.97463709698172,-31.68376904574518,275.9505],[121.95991889062515,-31.681708496855265,265.4459],[121.93489793981894,-31.672288844787062,270.927],[121.91959100520808,-31.670228295897147,273.7859],[121.89957424456315,-31.671994480659919,280.3134],[121.87867439153678,-31.676998670821177,268.3134],[121.85836326676468,-31.68465213812658,295.045],[121.84040705500968,-31.694660518449069,278.4824],[121.8239226638903,-31.707906904169988,268.701],[121.81744665309338,-31.716737827983934,271.5709],[121.81479737594924,-31.72645184417928,261.5],[121.81980156611047,-31.737932045137427,261.5],[121.83039867468722,-31.744702420061458,262.0148],[121.84305633215388,-31.750589702604088,262.7701],[121.85394780485774,-31.758831898163777,262.6418],[121.85777453851045,-31.775316289283154,262.7273],[121.84570560929802,-31.788562675004073,267.8188],[121.82539448452593,-31.797099234690876,271.0946],[121.77917931656629,-31.801809060724992,307.5707],[121.76240056131979,-31.806518886759108,274.0136],[121.75003726798025,-31.814761082318796,272.6612],[121.73914579527639,-31.827713103912572,265.6431],[121.73531906162367,-31.838310212489318,287.1068],[121.73325851273376,-31.849496049320322,279.2077],[121.72825432257252,-31.858915701388526,284.215],[121.70823756192755,-31.864802983931156,271.3701],[121.69999536636789,-31.870395902346672,280.1159],[121.69293062731668,-31.878049369652103,281.1764],[121.68998698604537,-31.886291565211792,276.9976],[121.69175317080817,-31.910135059509457,261.0],[121.695874268588,-31.927796907137349,264.1929],[121.71029811081746,-31.957527683977645,261.0],[121.71471357272446,-31.969596613190049,262.222],[121.72060085526709,-32.02729198210784,261.0],[121.71942339875858,-32.041421460210159,262.4144],[121.72001212701281,-32.055256574185364,262.3435],[121.72589940955544,-32.070857872923341,262.2021],[121.75739637115856,-32.117956133264414,263.0061],[121.783006050219,-32.0808662532458,262.3056],[121.79330879466858,-32.0705635087962,262.1333],[121.80861572927944,-32.063793133872167,261.9648],[121.81479737594924,-32.071152237050484,262.0],[121.81832974547478,-32.08498735102566,314.05],[121.8248057562717,-32.098233736746579,296.5807],[121.83922959850116,-32.106475932306267,262.9087],[121.85012107120502,-32.101471742145037,262.5],[121.85718581025617,-32.08910844880549,263.3738],[121.86160127216317,-32.074390242448914,262.0],[121.86277872867169,-32.056728394821022,262.8304],[121.86012945152748,-32.0408327319559,262.0],[121.85306471247634,-32.026114525599326,263.4564],[121.84158451151819,-32.012279411624149,264.3089],[121.82274520738179,-31.998738661776088,296.4105],[121.80184535435541,-31.987258460817941,276.7111],[121.78506659910892,-31.972834618588479,281.2216],[121.77829622418488,-31.950757309053614,298.4738],[121.77888495243917,-31.943692570002469,278.3102]]]}
,"properties": {"featurecla": "Alkaline Lake","scalerank": 8,"name": "Lake Cowan","name_abb": "L. Cowan","name_alt": null,"note": null,"delta": null,"dam_name": null,"year": -99,"admin": null,"min_zoom": 6.0,"min_label": 7.0,"area_km2": 881.8473,"hist_schema_id": "Elevation0-9000","hist_area_km2": {"250": 603.9244,"275": 269.9822,"300": 7.4546,"325": 0.4862}}}