{"type":"Feature","properties":{"GID_2":"AUS.5.105_1","GID_0":"AUS","country":"Australia","GID_1":"AUS.5_1","state":"NewSouthWales","NL_NAME_1":"NA","county":"Parkes","VARNAME_2":"NA","NL_NAME_2":"NA","TYPE_2":"Area","ENGTYPE_2":"Area","CC_2":"16200","HASC_2":"AU.NS.PK","name":"Parkes.county"},
"geometry":{"type": "MultiPolygon","coordinates": [[[[148.3471,-32.6758,703.3505],[148.2645,-32.6782,304.6497],[148.263,-32.6921,289.4644],[148.2469,-32.6899,290.5068],[148.2487,-32.6816,281.5522],[148.1277,-32.683,249.5315],[148.1299,-32.6823,250.1181],[148.1282,-32.6784,250.4075],[148.1304,-32.6762,249.5858],[148.1253,-32.6763,245.3866],[148.1249,-32.6738,252.277],[148.1224,-32.6739,246.7027],[148.1256,-32.6693,251.5158],[148.1227,-32.6702,250.3933],[148.1197,-32.6679,251.0143],[148.1233,-32.6632,249.1542],[148.1205,-32.6638,246.8516],[148.1197,-32.6588,247.9269],[148.1164,-32.6592,249.5141],[148.1172,-32.6579,246.4626],[148.1154,-32.658,249.5141],[148.1116,-32.6527,248.6497],[148.1089,-32.6527,248.1554],[148.1091,-32.6501,250.0566],[148.1071,-32.6501,250.0566],[148.1074,-32.6457,242.3946],[148.1045,-32.6425,241.7826],[148.107,-32.6401,245.8667],[148.1048,-32.6374,240.7389],[148.1078,-32.6381,241.5374],[148.1081,-32.6352,244.01],[148.107,-32.6332,248.6534],[148.1056,-32.6347,245.5655],[148.102,-32.6322,248.6584],[148.0991,-32.6263,246.1639],[148.0998,-32.6247,246.1073],[148.098,-32.6248,240.4954],[148.0985,-32.6236,249.1228],[148.0968,-32.6225,240.1127],[148.0977,-32.6207,242.1432],[148.0961,-32.6182,240.0608],[148.0944,-32.6163,244.4017],[148.092,-32.6168,243.4887],[148.0913,-32.6046,245.3707],[148.0855,-32.6053,240.2517],[148.0863,-32.6019,243.047],[148.0832,-32.6,241.3808],[148.0807,-32.6029,243.8617],[148.0775,-32.601,237.8063],[148.0748,-32.6028,241.2035],[148.0727,-32.5987,239.2628],[148.0669,-32.5985,236.6647],[148.0676,-32.5957,238.4262],[148.0627,-32.5948,235.5292],[148.0601,-32.5891,238.0365],[148.0559,-32.5851,236.9474],[148.0442,-32.5807,236.464],[148.0425,-32.5814,235.7225],[148.0417,-32.5768,237.23],[148.0396,-32.578,233.9274],[148.0374,-32.5757,238.8872],[148.032,-32.5761,234.9057],[148.0335,-32.5729,236.6023],[148.0307,-32.5689,233.3065],[148.0308,-32.5712,238.673],[148.0277,-32.5711,235.1686],[148.0292,-32.5727,235.0021],[148.025,-32.571,237.3494],[148.0216,-32.5724,235.9442],[148.0234,-32.5699,240.05],[148.0213,-32.5681,237.8687],[148.0182,-32.5695,236.6658],[148.0198,-32.5679,235.8618],[148.0186,-32.5655,234.8866],[148.0161,-32.5684,232.322],[148.015,-32.5654,235.1086],[148.0137,-32.5683,230.6354],[148.0121,-32.5649,235.0222],[148.0089,-32.5654,235.1267],[148.0091,-32.5636,235.0625],[148.007,-32.5634,235.3179],[148.0054,-32.5653,233.9284],[148.0037,-32.564,234.6334],[148.0033,-32.5616,236.8463],[148.0053,-32.562,233.5894],[148.0037,-32.5588,233.2669],[148.005,-32.5545,230.2948],[148.003,-32.554,231.3235],[148.0005,-32.548,231.2399],[147.997,-32.5462,231.5968],[147.9969,-32.5437,230.0525],[147.9917,-32.5403,227.7232],[147.9925,-32.5384,230.9303],[147.9883,-32.5372,231.7237],[147.9886,-32.5357,229.4542],[147.984,-32.5326,230.9516],[147.9827,-32.5288,230.0594],[147.9804,-32.5288,231.6014],[147.9762,-32.5249,231.2611],[147.9736,-32.5253,231.5943],[147.9728,-32.524,230.7934],[147.9713,-32.5252,229.522],[147.9639,-32.5185,227.7928],[147.9659,-32.5178,226.7263],[147.9634,-32.5164,227.6096],[147.9669,-32.5127,228.0938],[147.9634,-32.5092,226.6909],[147.9665,-32.5062,228.5376],[147.9645,-32.5055,227.8447],[147.9664,-32.5041,227.6114],[147.965,-32.4981,226.8984],[147.9557,-32.4978,227.3841],[147.9547,-32.4962,224.1819],[147.9568,-32.4948,225.8493],[147.955,-32.494,226.0889],[147.9499,-32.4942,225.4666],[147.9512,-32.4956,224.5468],[147.9494,-32.4971,223.7251],[147.9478,-32.4949,226.124],[147.944,-32.4948,223.7291],[147.9422,-32.4919,224.7294],[147.9366,-32.4911,226.0637],[147.9359,-32.486,223.9445],[147.9287,-32.4792,226.299],[147.9299,-32.4765,225.7403],[147.9264,-32.4745,223.5062],[147.927,-32.4722,222.7781],[147.9245,-32.4727,223.8346],[147.9251,-32.4696,222.7502],[147.9173,-32.4691,224.9043],[147.9184,-32.4658,221.5021],[147.9138,-32.4669,224.8247],[147.9113,-32.4644,224.0644],[147.9082,-32.4642,224.0923],[147.9088,-32.4625,221.4225],[147.9052,-32.4604,221.9313],[147.9043,-32.4557,223.5222],[147.9025,-32.4554,222.2994],[147.9037,-32.4538,220.8092],[147.9011,-32.4542,222.6582],[147.8997,-32.452,223.2682],[147.9018,-32.447,222.1527],[147.9059,-32.4462,222.4756],[147.9048,-32.4443,219.3262],[147.9059,-32.4429,218.4846],[147.9036,-32.4411,221.686],[147.9044,-32.4391,219.2839],[147.9072,-32.4396,219.7775],[147.9055,-32.438,221.4195],[147.9065,-32.4362,219.9161],[147.905,-32.4323,219.7192],[147.9029,-32.4309,219.6353],[147.9014,-32.4333,222.0565],[147.8964,-32.4324,219.382],[147.8946,-32.4358,221.5136],[147.889,-32.4369,221.2482],[147.8842,-32.4402,219.3605],[147.8828,-32.4369,219.3549],[147.876,-32.4391,219.3716],[147.8672,-32.435,221.4155],[147.8655,-32.4376,220.3214],[147.8617,-32.4352,218.8603],[147.8586,-32.4353,218.5985],[147.8565,-32.4373,218.506],[147.8548,-32.435,219.7983],[147.8467,-32.433,217.7927],[147.8451,-32.4291,217.6292],[147.8427,-32.4299,216.5142],[147.8392,-32.4285,218.5486],[147.835,-32.425,217.5843],[147.8315,-32.4264,218.0562],[147.8251,-32.4227,219.0373],[147.8266,-32.4213,218.1762],[147.8248,-32.4216,219.0373],[147.8235,-32.4198,217.9808],[147.8211,-32.4207,218.9674],[147.8209,-32.4193,216.0142],[147.8173,-32.4202,220.0314],[147.8163,-32.4237,215.5499],[147.8131,-32.4228,217.8561],[147.8155,-32.4212,217.6565],[147.8078,-32.4181,217.6823],[147.8014,-32.4186,216.733],[147.7957,-32.422,215.4631],[147.7908,-32.4222,216.8451],[147.7877,-32.4204,216.7134],[147.7828,-32.4222,216.4825],[147.7824,-32.4198,216.1155],[147.7723,-32.4231,213.7995],[147.7706,-32.4208,216.0339],[147.7676,-32.4208,217.3179],[147.7684,-32.4173,214.9097],[147.767,-32.4147,213.067],[147.769,-32.4138,216.9133],[147.7703,-32.4149,214.2938],[147.7697,-32.4126,213.1219],[147.7644,-32.4127,217.4062],[147.763,-32.4074,215.2418],[147.7581,-32.4087,216.0024],[147.7561,-32.4068,212.395],[147.7491,-32.4097,210.9342],[147.7481,-32.4057,212.1579],[147.746,-32.4055,212.4039],[147.7476,-32.4083,214.1319],[147.7464,-32.4088,212.107],[147.7427,-32.4028,211.9661],[147.7358,-32.4037,215.7139],[147.7283,-32.3977,210.2888],[147.7245,-32.3989,213.7577],[147.7234,-32.3966,216.5067],[147.7199,-32.396,215.5869],[147.718,-32.3896,213.6873],[147.7159,-32.3906,212.1768],[147.7141,-32.3879,210.6106],[147.713,-32.3889,212.1895],[147.7089,-32.3873,215.4295],[147.7076,-32.3821,214.6346],[147.705,-32.3822,214.107],[147.7041,-32.3804,214.2371],[147.7019,-32.381,212.9982],[147.7038,-32.3762,209.0287],[147.7024,-32.376,214.4703],[147.7011,-32.3725,212.6068],[147.6984,-32.3721,212.794],[147.6994,-32.3706,212.6738],[147.6969,-32.369,213.9806],[147.6123,-32.4233,218.8844],[147.6157,-32.4266,216.454],[147.6139,-32.4279,217.9246],[147.6115,-32.4412,219.0762],[147.5894,-32.4384,229.9248],[147.5609,-32.4559,255.1665],[147.5558,-32.4826,269.574],[147.5453,-32.5519,262.6436],[147.5618,-32.5538,248.1922],[147.5609,-32.5597,253.9504],[147.5562,-32.5592,259.5269],[147.5506,-32.5975,248.6547],[147.5529,-32.6017,243.8065],[147.5815,-32.6046,235.7374],[147.5769,-32.6079,235.7065],[147.574,-32.614,236.1662],[147.5647,-32.6156,236.2785],[147.5636,-32.6201,236.3036],[147.5602,-32.6222,236.4897],[147.5569,-32.6293,238.0753],[147.5575,-32.6419,238.4162],[147.5592,-32.6471,239.4481],[147.557,-32.6524,240.0062],[147.5537,-32.673,242.2551],[147.5776,-32.6756,250.0764],[147.5684,-32.7354,299.5496],[147.5984,-32.7386,294.481],[147.6024,-32.7443,293.9037],[147.5998,-32.7621,291.4072],[147.6046,-32.7627,287.6224],[147.5932,-32.8362,261.3232],[147.5876,-32.8356,259.9136],[147.571,-32.9497,227.8982],[147.5569,-32.9482,232.34],[147.5507,-32.9883,226.0628],[147.5484,-32.9881,226.0209],[147.543,-33.0201,219.0711],[147.5592,-33.022,218.9818],[147.5487,-33.0875,215.7723],[147.5635,-33.0891,213.3396],[147.5647,-33.0821,213.2535],[147.5725,-33.0818,215.6216],[147.5658,-33.1287,208.3744],[147.6436,-33.1383,213.4037],[147.6429,-33.1496,213.3586],[147.6549,-33.1509,213.6886],[147.6537,-33.1588,213.3474],[147.6405,-33.1577,212.701],[147.6357,-33.1861,209.9583],[147.8452,-33.2116,334.844],[147.8453,-33.2002,353.8499],[147.8804,-33.2048,237.7499],[147.8816,-33.2065,237.0105],[147.8796,-33.2082,237.7551],[147.8792,-33.2117,242.1742],[147.8862,-33.2102,242.1447],[147.8955,-33.2144,243.7446],[147.8969,-33.2128,237.3971],[147.9003,-33.2146,239.3593],[147.9083,-33.2135,242.0151],[147.9115,-33.2098,244.0446],[147.9136,-33.2099,243.5869],[147.9129,-33.2067,241.8403],[147.9159,-33.2046,241.2086],[147.9149,-33.2116,239.7776],[147.9202,-33.2123,240.7047],[147.9181,-33.224,240.1665],[147.9246,-33.2249,240.7788],[147.9206,-33.2445,239.4958],[147.9469,-33.2481,247.9405],[147.9476,-33.245,242.462],[147.9769,-33.249,247.2933],[147.9753,-33.2514,246.6292],[147.9887,-33.2532,250.6001],[147.9892,-33.2505,249.3311],[147.997,-33.2518,251.8795],[147.9953,-33.2599,251.952],[148.0069,-33.2615,258.4069],[148.0083,-33.2539,256.211],[148.0799,-33.2644,274.0637],[148.079,-33.2657,274.3287],[148.0894,-33.2672,275.0499],[148.0847,-33.2758,281.742],[148.097,-33.2774,288.7349],[148.1007,-33.2714,285.7766],[148.165,-33.2565,290.5804],[148.1656,-33.2527,291.8405],[148.1719,-33.2536,299.0842],[148.1952,-33.2716,317.4031],[148.2269,-33.2758,359.2748],[148.233,-33.2433,377.5502],[148.2542,-33.2457,387.0164],[148.2517,-33.2376,365.9785],[148.2483,-33.2354,357.3701],[148.2461,-33.2259,334.3827],[148.2352,-33.2088,311.6278],[148.237,-33.2045,312.9227],[148.2366,-33.2006,317.2002],[148.2401,-33.1985,315.2684],[148.2523,-33.1982,319.4384],[148.2591,-33.2003,323.2665],[148.271,-33.2008,327.5106],[148.2706,-33.2028,332.0036],[148.2864,-33.2047,338.6264],[148.2876,-33.1982,335.4513],[148.2924,-33.2003,340.0135],[148.2947,-33.1996,341.0869],[148.2996,-33.2023,346.4839],[148.2997,-33.2054,347.6058],[148.3051,-33.2108,358.5585],[148.3064,-33.2113,358.4222],[148.3101,-33.2072,361.4893],[148.3378,-33.224,423.358],[148.3441,-33.2237,423.9711],[148.3488,-33.2174,440.2659],[148.3563,-33.2196,457.4228],[148.3617,-33.2156,472.1995],[148.3661,-33.2184,471.3281],[148.3808,-33.2196,498.1588],[148.4001,-33.2255,523.6223],[148.4045,-33.2255,522.5083],[148.4119,-33.2224,510.407],[148.4161,-33.2181,499.6143],[148.4307,-33.2162,502.9234],[148.4314,-33.2102,521.6108],[148.4282,-33.2028,593.3123],[148.4319,-33.2001,617.2091],[148.442,-33.2045,624.9266],[148.4506,-33.2027,641.1457],[148.4667,-33.2088,637.9133],[148.4759,-33.1962,579.7467],[148.4856,-33.1966,611.39],[148.4959,-33.1909,623.0033],[148.4986,-33.187,627.1582],[148.4927,-33.1854,631.3801],[148.493,-33.1797,661.3173],[148.5055,-33.1659,652.1385],[148.5057,-33.1623,672.7856],[148.5029,-33.1574,685.1539],[148.5058,-33.151,673.9924],[148.5024,-33.1408,698.0884],[148.5043,-33.1342,681.423],[148.498,-33.1341,687.7686],[148.4921,-33.1299,692.694],[148.4913,-33.125,732.1274],[148.4878,-33.1248,738.8119],[148.4881,-33.1235,746.1199],[148.4866,-33.1232,783.2997],[148.49,-33.1085,699.0699],[148.4996,-33.0999,683.9304],[148.4998,-33.0979,727.6267],[148.4973,-33.0964,741.1294],[148.4996,-33.0826,685.4103],[148.5027,-33.079,697.4572],[148.5052,-33.0662,688.9376],[148.5055,-33.062,697.666],[148.5038,-33.06,708.2324],[148.5072,-33.0534,719.9321],[148.5038,-33.0528,721.6297],[148.5037,-33.0469,748.9684],[148.4961,-33.0407,745.8188],[148.4954,-33.0346,764.3207],[148.4934,-33.0333,765.609],[148.493,-33.0302,728.5926],[148.4881,-33.0263,725.5489],[148.4858,-33.0199,715.1042],[148.481,-33.0164,721.8775],[148.4743,-33.0175,704.5221],[148.4633,-33.0134,683.6227],[148.4591,-33.0049,692.0619],[148.4547,-33.001,679.4318],[148.4563,-32.9984,662.022],[148.4551,-32.9936,644.6296],[148.4502,-32.9939,686.1404],[148.4458,-32.9922,669.9421],[148.4394,-32.9841,622.7661],[148.4382,-32.9772,615.3445],[148.4302,-32.9699,613.5352],[148.4214,-32.9744,536.1848],[148.4186,-32.9736,563.7167],[148.4142,-32.969,577.7032],[148.407,-32.9664,588.8655],[148.3994,-32.9592,564.397],[148.3914,-32.9744,574.9947],[148.3829,-32.9714,578.8104],[148.3722,-32.9716,637.3912],[148.3763,-32.9617,619.6266],[148.3759,-32.9559,581.5184],[148.3793,-32.9539,577.9983],[148.3775,-32.9492,627.2651],[148.3784,-32.9423,568.0514],[148.3807,-32.9407,594.2908],[148.3796,-32.9386,582.7506],[148.3818,-32.9346,562.6902],[148.3785,-32.9338,567.1763],[148.3725,-32.9292,712.3254],[148.3787,-32.9212,660.8166],[148.3813,-32.914,661.9484],[148.3821,-32.8894,641.513],[148.3793,-32.8769,620.7763],[148.3846,-32.8749,582.4453],[148.3852,-32.8623,557.8795],[148.3824,-32.8545,562.5464],[148.3831,-32.8504,582.9752],[148.381,-32.8516,565.3004],[148.3779,-32.8502,575.2154],[148.3758,-32.8456,609.4304],[148.3785,-32.842,620.8361],[148.3783,-32.8332,613.3425],[148.3734,-32.8303,604.5049],[148.3681,-32.8323,610.8811],[148.3677,-32.826,611.6995],[148.3599,-32.8246,510.4829],[148.353,-32.8207,493.6673],[148.3507,-32.8175,499.2905],[148.3474,-32.8164,509.079],[148.3454,-32.8116,529.8433],[148.3294,-32.8108,615.1379],[148.3298,-32.804,602.7062],[148.3276,-32.8008,626.0147],[148.3317,-32.7967,609.269],[148.3309,-32.792,590.8279],[148.3326,-32.7897,595.1823],[148.3316,-32.7843,603.8372],[148.3353,-32.7816,593.3398],[148.3349,-32.7689,634.0005],[148.3308,-32.7437,708.9119],[148.3338,-32.74,680.9266],[148.3359,-32.7337,620.4487],[148.3318,-32.7284,653.2899],[148.3297,-32.716,689.332],[148.3319,-32.7097,669.549],[148.3295,-32.701,703.8172],[148.3321,-32.6949,704.7588],[148.3311,-32.692,712.4482],[148.333,-32.6896,747.7324],[148.332,-32.6854,755.5682],[148.335,-32.679,758.1758],[148.343,-32.6784,699.181],[148.3471,-32.6758,703.3505]]]]}}