{"type": "Feature","bbox": [146.3478,-41.3779,146.7618,-41.0925],"geometry": {"type": "MultiPolygon","coordinates": [[[[146.5655,-41.2443,10.5941],[146.5655,-41.2446,5.5375],[146.5658,-41.2447,5.5375],[146.5657,-41.244,10.5941],[146.5655,-41.2443,10.5941]]],
[[[146.5683,-41.2356,2.7655],[146.5664,-41.2356,1.8519],[146.5652,-41.2381,3.4099],[146.5685,-41.2377,6.0372],[146.5683,-41.2356,2.7655]]],
[[[146.381,-41.2119,80.9428],[146.3763,-41.2113,0.0],[146.3811,-41.2191,40.9388],[146.3857,-41.2233,0.0],[146.3999,-41.2277,45.2392],[146.4017,-41.2306,6.0421],[146.4005,-41.2334,3.0189],[146.3958,-41.2318,1.942],[146.3962,-41.2303,1.8317],[146.3978,-41.2293,8.2162],[146.397,-41.2279,2.898],[146.392,-41.2278,0.8496],[146.3931,-41.2286,1.5733],[146.3916,-41.229,0.7361],[146.3913,-41.2287,0.7361],[146.3925,-41.2312,0.4857],[146.3956,-41.2335,2.1759],[146.3942,-41.2332,2.3882],[146.3931,-41.232,1.8172],[146.3907,-41.2337,1.6064],[146.3894,-41.2329,1.9459],[146.3888,-41.2359,2.1369],[146.388,-41.2341,1.931],[146.3883,-41.2335,1.931],[146.3891,-41.2327,1.9459],[146.3925,-41.2318,0.6786],[146.3902,-41.2289,0.0],[146.3869,-41.2281,0.7195],[146.3835,-41.2345,6.4326],[146.3853,-41.2356,2.4226],[146.3877,-41.2377,4.4518],[146.3858,-41.2366,9.6416],[146.3852,-41.2357,2.4226],[146.3832,-41.2346,9.1055],[146.3848,-41.2289,0.0],[146.3814,-41.2319,4.6099],[146.3751,-41.2283,2.9613],[146.3732,-41.2293,2.3075],[146.3739,-41.2278,0.0],[146.3725,-41.2261,0.0],[146.3682,-41.2268,4.9403],[146.3683,-41.2264,4.9403],[146.3707,-41.2255,0.0],[146.3704,-41.2244,1.0294],[146.373,-41.2238,0.0],[146.3711,-41.2174,0.0],[146.3698,-41.2202,1.3215],[146.3674,-41.2195,0.0],[146.3649,-41.2217,1.9882],[146.3591,-41.2224,11.5723],[146.3603,-41.224,10.3117],[146.3573,-41.2262,10.7033],[146.3539,-41.2235,10.6282],[146.3486,-41.2262,28.1348],[146.3542,-41.2322,22.2029],[146.3501,-41.2344,36.8367],[146.3513,-41.2347,42.7625],[146.351,-41.2377,46.9722],[146.3478,-41.243,68.5197],[146.3495,-41.2421,61.0855],[146.3515,-41.244,51.8105],[146.3701,-41.2668,198.9671],[146.3575,-41.2726,366.9078],[146.3623,-41.2778,178.9401],[146.3583,-41.2797,293.4589],[146.3589,-41.2842,290.6138],[146.3841,-41.2869,59.1673],[146.3837,-41.2929,94.6859],[146.389,-41.2936,63.554],[146.3902,-41.2879,44.4956],[146.3987,-41.289,39.3071],[146.4005,-41.2953,42.6339],[146.408,-41.2931,95.8474],[146.4137,-41.2957,82.7478],[146.4142,-41.293,70.3833],[146.4444,-41.2978,50.3929],[146.4441,-41.3022,36.2768],[146.448,-41.3093,31.3428],[146.4468,-41.315,32.9102],[146.4508,-41.3163,29.3747],[146.4511,-41.3185,28.1511],[146.4513,-41.317,29.3747],[146.4597,-41.3201,28.682],[146.4618,-41.3362,31.8355],[146.4593,-41.3432,34.0562],[146.4598,-41.3472,35.9041],[146.4777,-41.3612,44.2122],[146.4769,-41.3636,44.7158],[146.4793,-41.3631,41.859],[146.4797,-41.3696,41.6174],[146.483,-41.3748,53.5773],[146.4895,-41.3779,46.6014],[146.4928,-41.3766,47.33],[146.4948,-41.3779,87.506],[146.5281,-41.365,161.6812],[146.5456,-41.3674,170.6485],[146.5482,-41.355,169.8022],[146.5576,-41.3561,162.4919],[146.5573,-41.3579,159.4831],[146.5899,-41.3617,145.0013],[146.5899,-41.3564,144.5559],[146.5866,-41.3537,150.9086],[146.5829,-41.3531,153.2102],[146.5809,-41.3469,154.9872],[146.587,-41.3476,163.7536],[146.5896,-41.3348,216.0557],[146.6175,-41.3379,183.5748],[146.6199,-41.3245,171.4753],[146.7036,-41.3327,282.9166],[146.7066,-41.3199,173.0374],[146.7012,-41.3187,183.8327],[146.7007,-41.3164,154.9251],[146.7052,-41.2978,260.2563],[146.7089,-41.3028,249.9869],[146.715,-41.3024,194.9351],[146.7143,-41.3054,268.5517],[146.7184,-41.3059,205.597],[146.7198,-41.2997,242.3932],[146.7275,-41.3006,309.2049],[146.7283,-41.2967,329.4613],[146.7332,-41.2973,383.289],[146.7335,-41.296,413.8087],[146.7495,-41.2975,411.4632],[146.7516,-41.2875,350.7692],[146.7618,-41.2887,418.0358],[146.6956,-41.1703,195.2477],[146.6993,-41.1578,186.7693],[146.6957,-41.1329,358.6118],[146.6646,-41.111,213.0137],[146.6584,-41.1103,136.9639],[146.6614,-41.0961,0.0],[146.653,-41.0925,1.614],[146.6519,-41.0945,1.6546],[146.6471,-41.0938,2.2872],[146.6466,-41.0956,17.2722],[146.6422,-41.0968,38.4687],[146.648,-41.11,1.0485],[146.6426,-41.1146,21.5989],[146.6369,-41.1151,10.4894],[146.6351,-41.117,7.5875],[146.636,-41.1213,31.2084],[146.6334,-41.1257,2.0599],[146.6097,-41.1392,2.4612],[146.5949,-41.1448,8.9027],[146.572,-41.1488,4.8479],[146.5654,-41.1479,0.0],[146.5645,-41.1465,0.0],[146.5638,-41.1495,6.1448],[146.565,-41.151,5.6413],[146.562,-41.1545,1.4282],[146.562,-41.1589,2.9473],[146.5669,-41.1638,1.0034],[146.575,-41.1611,0.0],[146.5741,-41.1605,0.0],[146.5784,-41.1573,0.0],[146.5771,-41.1562,1.6385],[146.5792,-41.1551,1.3165],[146.5893,-41.1588,0.4644],[146.5954,-41.156,2.2034],[146.5996,-41.1573,0.0],[146.6016,-41.1541,0.0],[146.6002,-41.1524,2.028],[146.6017,-41.1519,1.4593],[146.6077,-41.1552,8.9458],[146.6096,-41.1585,7.2614],[146.6068,-41.1557,1.0943],[146.6041,-41.1556,0.4784],[146.6016,-41.1593,4.7032],[146.5957,-41.1619,0.0],[146.595,-41.1644,1.7942],[146.5958,-41.1677,2.9706],[146.5989,-41.1675,2.6912],[146.6019,-41.1647,2.0616],[146.6049,-41.1682,12.8614],[146.6068,-41.1671,14.2232],[146.6078,-41.1686,11.0512],[146.6068,-41.1675,14.2232],[146.6062,-41.1681,16.5215],[146.6054,-41.1684,16.5215],[146.6041,-41.1684,12.8614],[146.6025,-41.1661,2.0616],[146.5984,-41.1682,15.1863],[146.5953,-41.168,16.8539],[146.5912,-41.1664,8.2518],[146.5911,-41.165,0.0],[146.5857,-41.1671,0.6792],[146.5821,-41.1748,4.0236],[146.5829,-41.181,14.8319],[146.5784,-41.1847,2.679],[146.5828,-41.1886,14.6816],[146.5833,-41.1908,15.9181],[146.5818,-41.1945,2.4393],[146.578,-41.1976,0.0],[146.5816,-41.1976,7.6562],[146.587,-41.2008,9.0988],[146.5905,-41.2084,0.0],[146.5955,-41.2093,13.5449],[146.595,-41.2099,15.7434],[146.5943,-41.21,7.5027],[146.5917,-41.2091,5.6418],[146.5888,-41.2103,2.0971],[146.5878,-41.2142,0.0],[146.5928,-41.2131,8.4213],[146.5968,-41.2172,2.1021],[146.5989,-41.2135,0.5],[146.6046,-41.2091,10.8177],[146.6065,-41.2091,8.5751],[146.6092,-41.2121,3.8392],[146.6081,-41.2135,3.9234],[146.6061,-41.2118,4.8853],[146.6033,-41.2124,4.3203],[146.6004,-41.2156,2.4405],[146.6032,-41.2218,8.4212],[146.5994,-41.2257,7.6581],[146.6011,-41.2269,5.5774],[146.5999,-41.2288,2.301],[146.6035,-41.2289,6.1151],[146.6055,-41.2328,4.9492],[146.6089,-41.2337,8.5921],[146.6051,-41.233,7.6844],[146.603,-41.2306,1.7632],[146.5996,-41.233,8.8527],[146.5988,-41.235,8.7225],[146.6006,-41.2408,7.1711],[146.595,-41.2507,4.9661],[146.6042,-41.254,10.5766],[146.6053,-41.2557,10.0549],[146.6056,-41.259,8.2794],[146.6076,-41.2586,15.68],[146.6068,-41.2594,8.2794],[146.6055,-41.2592,8.2794],[146.6034,-41.2567,5.8573],[146.6036,-41.2542,10.5766],[146.5989,-41.2548,13.2562],[146.5939,-41.2514,22.6753],[146.5963,-41.248,10.0726],[146.5951,-41.2448,5.7172],[146.5972,-41.2396,4.8547],[146.5932,-41.2259,4.4013],[146.5955,-41.2243,8.141],[146.5962,-41.2197,15.4117],[146.591,-41.2166,0.5],[146.5862,-41.2165,16.513],[146.5855,-41.2142,7.2512],[146.5874,-41.2088,3.7336],[146.585,-41.2051,1.2573],[146.5831,-41.2059,3.0353],[146.5828,-41.2094,9.5671],[146.5849,-41.2139,7.2512],[146.5832,-41.2172,8.9657],[146.5844,-41.2192,20.164],[146.5834,-41.2228,6.9224],[146.5776,-41.2262,0.0],[146.5733,-41.2314,11.6008],[146.5688,-41.233,1.04],[146.5698,-41.2342,1.04],[146.5761,-41.2338,4.45],[146.576,-41.2393,1.0105],[146.5779,-41.2405,20.0482],[146.5758,-41.2398,11.9129],[146.5719,-41.2441,1.6681],[146.566,-41.2443,2.3057],[146.5652,-41.2505,11.9814],[146.5664,-41.2519,26.1593],[146.5656,-41.2517,18.5289],[146.5651,-41.2509,11.9814],[146.5651,-41.2444,10.5941],[146.5689,-41.2407,5.8591],[146.5718,-41.2425,4.7985],[146.573,-41.2394,0.5],[146.5611,-41.2384,20.2015],[146.5642,-41.2371,1.2937],[146.5646,-41.2283,0.5],[146.5676,-41.2264,4.7765],[146.5705,-41.2275,7.3169],[146.5755,-41.2223,0.4433],[146.5757,-41.2201,0.3275],[146.569,-41.2162,8.6481],[146.5696,-41.2152,8.6481],[146.5705,-41.2165,6.7256],[146.568,-41.2113,1.6682],[146.5679,-41.2038,5.1126],[146.5624,-41.1973,6.7035],[146.5649,-41.1944,0.0],[146.5635,-41.1927,15.0385],[146.573,-41.1892,0.0],[146.5692,-41.185,9.8519],[146.569,-41.1779,0.0],[146.5536,-41.1715,8.1463],[146.5476,-41.17,3.0782],[146.5412,-41.1754,12.96],[146.5414,-41.1765,17.5361],[146.5407,-41.1789,14.198],[146.5405,-41.1779,17.0211],[146.5408,-41.1771,17.0211],[146.5412,-41.1767,17.5361],[146.541,-41.1753,16.5465],[146.548,-41.1685,2.2982],[146.5585,-41.1725,2.6006],[146.5612,-41.1693,0.4344],[146.5604,-41.168,0.4344],[146.5583,-41.169,2.4687],[146.5605,-41.1676,1.0301],[146.5587,-41.1654,0.917],[146.562,-41.1674,0.0],[146.5544,-41.1608,0.0],[146.5461,-41.159,0.7543],[146.5417,-41.155,1.1249],[146.542,-41.1517,2.5962],[146.5448,-41.1507,8.396],[146.5457,-41.1479,0.0],[146.542,-41.1425,3.287],[146.5423,-41.1383,2.7387],[146.5438,-41.1366,1.8375],[146.5434,-41.1311,4.1748],[146.5457,-41.1296,0.0],[146.5438,-41.1265,2.5426],[146.5375,-41.1253,1.5706],[146.5326,-41.1186,3.5443],[146.5308,-41.1185,1.6031],[146.5273,-41.1219,0.0],[146.5287,-41.125,0.0],[146.5277,-41.1253,0.0],[146.5296,-41.1266,7.3374],[146.5272,-41.1308,1.2863],[146.4933,-41.1494,0.0],[146.4626,-41.1604,2.7244],[146.4534,-41.161,0.0],[146.4503,-41.1594,0.0],[146.427,-41.1632,3.5674],[146.4244,-41.1623,0.0],[146.4167,-41.1671,3.8991],[146.4066,-41.1702,2.7227],[146.4043,-41.1798,34.7532],[146.4005,-41.1793,33.005],[146.3946,-41.2053,53.5488],[146.389,-41.2044,44.0625],[146.3869,-41.2128,79.22],[146.381,-41.2119,80.9428]]],
[[[146.5696,-41.1777,0.0],[146.5696,-41.1769,0.0],[146.5688,-41.1767,0.0],[146.5692,-41.1777,0.0],[146.5696,-41.1777,0.0]]],
[[[146.3942,-41.2326,1.8172],[146.3943,-41.2328,1.8172],[146.3944,-41.2329,1.8172],[146.3944,-41.2327,1.8172],[146.3942,-41.2326,1.8172]]],
[[[146.3998,-41.2281,6.8681],[146.3948,-41.2262,16.6352],[146.3952,-41.2273,2.898],[146.3974,-41.2275,22.9674],[146.3984,-41.2289,8.2162],[146.3962,-41.2312,1.8317],[146.3971,-41.2322,1.942],[146.3999,-41.2328,3.8749],[146.4002,-41.2316,3.8749],[146.4014,-41.2309,6.0421],[146.3998,-41.2281,6.8681]]],
[[[146.3919,-41.2257,4.9531],[146.3913,-41.2272,0.8496],[146.3893,-41.2266,0.0],[146.3904,-41.2277,0.0],[146.3951,-41.2276,2.898],[146.3937,-41.226,16.6352],[146.393,-41.2261,16.6352],[146.3945,-41.2275,1.4011],[146.3929,-41.2267,0.8496],[146.3919,-41.2257,4.9531]]],
[[[146.3888,-41.225,0.0],[146.389,-41.225,0.0],[146.3894,-41.2249,0.0],[146.3887,-41.2248,0.0],[146.3888,-41.225,0.0]]],
[[[146.3793,-41.2251,0.0],[146.3784,-41.2222,0.0],[146.3741,-41.2261,0.0],[146.3754,-41.2274,0.0],[146.3793,-41.2251,0.0]]],
[[[146.3697,-41.2198,1.3215],[146.3698,-41.2198,1.3215],[146.3696,-41.2197,1.3215],[146.3697,-41.2198,1.3215]]],
[[[146.4168,-41.1545,0.0],[146.4167,-41.1546,0.0],[146.417,-41.1547,0.0],[146.4169,-41.1546,0.0],[146.4168,-41.1545,0.0]]],
[[[146.4267,-41.1479,0.8077],[146.4271,-41.1483,0.0],[146.4278,-41.1484,0.0],[146.4265,-41.147,0.8077],[146.4267,-41.1479,0.8077]]],
[[[146.5552,-41.1538,0.0],[146.5555,-41.154,0.0],[146.555,-41.153,0.0],[146.5547,-41.1534,0.0],[146.5552,-41.1538,0.0]]],
[[[146.555,-41.1499,0.584],[146.5539,-41.1506,0.584],[146.5555,-41.1513,0.0],[146.5558,-41.151,0.0],[146.555,-41.1499,0.584]]],
[[[146.6042,-41.2571,5.8573],[146.605,-41.2576,9.7396],[146.6049,-41.2557,7.0247],[146.6043,-41.2561,7.0247],[146.6042,-41.2571,5.8573]]],
[[[146.5966,-41.2475,15.479],[146.5969,-41.247,0.5],[146.5963,-41.2469,15.479],[146.5963,-41.2474,15.479],[146.5966,-41.2475,15.479]]],
[[[146.5972,-41.246,3.4272],[146.5969,-41.2459,3.4272],[146.5968,-41.2461,3.4272],[146.5971,-41.2462,3.4272],[146.5972,-41.246,3.4272]]],
[[[146.5748,-41.2357,1.8673],[146.5754,-41.2352,1.8673],[146.5708,-41.2355,1.0564],[146.5727,-41.2366,1.2612],[146.5748,-41.2357,1.8673]]],
[[[146.577,-41.209,2.6107],[146.5793,-41.2081,0.4827],[146.5786,-41.2071,0.5404],[146.5762,-41.2067,1.7318],[146.5736,-41.2086,1.073],[146.5743,-41.2119,0.4606],[146.5753,-41.2118,0.4606],[146.577,-41.209,2.6107]]],
[[[146.5849,-41.2018,0.0],[146.5846,-41.2019,0.0],[146.5845,-41.202,0.0],[146.5848,-41.202,0.0],[146.5849,-41.2018,0.0]]],
[[[146.5698,-41.1773,0.0],[146.5699,-41.1773,0.0],[146.57,-41.1771,0.0],[146.5699,-41.1771,0.0],[146.5698,-41.1773,0.0]]],
[[[146.5737,-41.1685,0.0],[146.5723,-41.1678,0.0],[146.5686,-41.1702,0.734],[146.5749,-41.172,0.0],[146.5737,-41.1685,0.0]]],
[[[146.5694,-41.175,0.7933],[146.5695,-41.175,0.7933],[146.5693,-41.1749,0.7933],[146.5693,-41.175,0.7933],[146.5694,-41.175,0.7933]]],
[[[146.5659,-41.1738,0.0],[146.5635,-41.1744,0.0],[146.5684,-41.1764,0.0],[146.5692,-41.1755,0.7933],[146.5689,-41.1749,0.7933],[146.5659,-41.1738,0.0]]],
[[[146.5664,-41.1706,0.4166],[146.5659,-41.1704,0.4166],[146.5657,-41.1705,0.0],[146.5664,-41.1711,0.4166],[146.5664,-41.1706,0.4166]]],
[[[146.569,-41.1712,0.734],[146.5674,-41.1698,0.4166],[146.5665,-41.1698,0.4166],[146.567,-41.1714,0.0],[146.569,-41.1712,0.734]]],
[[[146.5919,-41.1659,0.0],[146.5921,-41.1663,8.2518],[146.5926,-41.1656,0.0],[146.5923,-41.1656,0.0],[146.5919,-41.1659,0.0]]],
[[[146.5926,-41.1588,0.0],[146.5923,-41.1588,0.0],[146.5925,-41.1591,0.0],[146.5928,-41.159,0.0],[146.5926,-41.1588,0.0]]],
[[[146.5467,-41.1332,0.0],[146.5468,-41.1334,0.0],[146.5471,-41.133,0.0],[146.5469,-41.1331,0.0],[146.5467,-41.1332,0.0]]],
[[[146.546,-41.1247,0.0],[146.5465,-41.1248,0.0],[146.5486,-41.1237,0.0],[146.5471,-41.1236,0.7397],[146.546,-41.1247,0.0]]]]}
,"properties": {"GID_2": "AUS.9.20_1","GID_0": "AUS","country": "Australia","GID_1": "AUS.9_1","state": "Tasmania","NL_NAME_1": "NA","county": "Latrobe","VARNAME_2": "NA","NL_NAME_2": "NA","TYPE_2": "Municipality","ENGTYPE_2": "Municipality","CC_2": "63810","HASC_2": "AU.VI.LA","name": "Latrobe.county","area_km2": 599.0744,"hist_schema_id": "Elevation0-9000","hist_area_km2": {"0": 41.3447,"25": 70.5559,"50": 83.6042,"75": 86.5629,"100": 73.8543,"125": 53.086,"150": 52.2467,"175": 44.944,"200": 25.9768,"225": 18.6154,"250": 13.3088,"275": 8.8946,"300": 6.7586,"325": 4.702,"350": 3.2201,"375": 2.8059,"400": 2.9651,"425": 2.1042,"450": 1.4351,"475": 1.0844,"500": 0.8292,"525": 0.1754}}}