{"type": "Feature","bbox": [115.802,-31.9901,115.8416,-31.942],"geometry": {"type": "MultiPolygon","coordinates": [[[[115.8041,-31.9493,22.6584],[115.8051,-31.956,16.0612],[115.8075,-31.9563,20.8086],[115.802,-31.964,29.914],[115.8165,-31.9646,11.7586],[115.8165,-31.9706,12.297],[115.8135,-31.9706,12.9873],[115.8146,-31.9874,16.4429],[115.8175,-31.9901,0.0],[115.8206,-31.9869,3.1498],[115.8288,-31.9872,0.0],[115.822,-31.9832,5.4877],[115.822,-31.9768,1.523],[115.8181,-31.9768,12.814],[115.8182,-31.9649,14.2758],[115.8416,-31.9435,33.9018],[115.8122,-31.942,13.5811],[115.8122,-31.9439,13.6387],[115.8079,-31.9439,14.5435],[115.8078,-31.9476,18.0221],[115.8041,-31.9493,22.6584]]]]}
,"properties": {"GID_2": "AUS.11.115_1","GID_0": "AUS","country": "Australia","GID_1": "AUS.11_1","state": "WesternAustralia","NL_NAME_1": "NA","county": "Subiaco","VARNAME_2": "NA","NL_NAME_2": "NA","TYPE_2": "City","ENGTYPE_2": "City","CC_2": "57980","HASC_2": "AU.WA.SU","name": "Subiaco.county","area_km2": 7.069574,"hist_schema_id": "Elevation0-9000","hist_area_km2": {"0": 1.22298,"25": 4.96508,"50": 0.881513}}}