{"type": "Feature","bbox": [147.0304,-27.9069,149.8316,-24.8789],"geometry": {"type": "MultiPolygon","coordinates": [[[[149.4955,-27.7538,269.9836],[149.5077,-27.6803,338.8211],[149.4655,-27.6737,275.9804],[149.4991,-27.4586,361.9562],[149.4935,-27.4507,342.1599],[149.4965,-27.432,350.2474],[149.4809,-27.4127,359.9262],[149.4806,-27.4093,362.4212],[149.4669,-27.3937,369.936],[149.4566,-27.3763,360.1133],[149.4581,-27.3684,354.2643],[149.4827,-27.3303,333.4412],[149.4801,-27.3202,335.802],[149.4865,-27.3158,335.9553],[149.502,-27.2939,325.7654],[149.5203,-27.2813,316.1889],[149.5231,-27.2809,311.9088],[149.5298,-27.2744,310.8809],[149.5525,-27.2589,306.3368],[149.5934,-27.2221,304.8961],[149.5567,-27.1914,297.853],[149.6792,-27.0747,259.5601],[149.6734,-27.074,255.7181],[149.6704,-27.0702,256.7622],[149.6499,-27.0672,256.473],[149.6456,-27.0689,253.9299],[149.6447,-27.0743,253.2317],[149.6423,-27.0748,256.1637],[149.6321,-27.0687,255.8427],[149.6318,-27.0626,256.7059],[149.6261,-27.0559,251.3772],[149.6266,-27.0541,254.1588],[149.634,-27.0505,257.1024],[149.6369,-27.0433,253.3356],[149.6311,-27.0422,255.0959],[149.6286,-27.0483,256.5177],[149.6265,-27.0468,254.8658],[149.626,-27.0425,258.109],[149.6242,-27.0407,257.9763],[149.6205,-27.0427,257.9082],[149.6168,-27.0429,257.2128],[149.6156,-27.0416,257.2128],[149.6168,-27.0315,259.0272],[149.6366,-27.0265,260.1905],[149.6475,-27.0213,256.4974],[149.65,-27.0237,255.086],[149.6461,-27.0255,257.8876],[149.6476,-27.0285,256.4471],[149.6638,-27.0302,262.5288],[149.6677,-27.0221,257.9498],[149.6682,-27.0154,257.2367],[149.6625,-27.0099,258.323],[149.6633,-27.007,262.781],[149.6445,-26.9648,279.9261],[149.6298,-26.9443,284.2178],[149.5882,-26.8292,301.8691],[149.6121,-26.8187,288.0896],[149.6109,-26.8157,284.6061],[149.6079,-26.814,286.8004],[149.6025,-26.8155,283.4831],[149.5966,-26.8076,288.7614],[149.5943,-26.8079,290.5806],[149.5926,-26.8107,284.5128],[149.5915,-26.8083,291.3381],[149.6842,-26.7737,312.2903],[149.6746,-26.7598,315.9868],[149.6633,-26.7583,313.1542],[149.6628,-26.7517,313.1513],[149.6698,-26.7471,318.5426],[149.6737,-26.7406,321.1631],[149.676,-26.7263,325.8483],[149.6749,-26.6969,330.5295],[149.6712,-26.6683,368.6784],[149.6924,-26.6484,351.0514],[149.6924,-26.644,351.3819],[149.6964,-26.644,347.4591],[149.7019,-26.6108,350.9718],[149.6672,-26.6061,370.5086],[149.6702,-26.5879,352.3385],[149.6964,-26.5913,365.5193],[149.7004,-26.5664,345.7051],[149.6957,-26.5658,344.2704],[149.698,-26.551,353.2907],[149.7075,-26.553,363.7024],[149.7107,-26.5335,348.8733],[149.7029,-26.5325,348.7698],[149.7052,-26.5181,347.8416],[149.6971,-26.5171,342.4711],[149.7021,-26.5024,346.6088],[149.7014,-26.4985,336.8024],[149.7042,-26.4963,340.6779],[149.7046,-26.4919,338.5244],[149.7076,-26.4906,342.1539],[149.7142,-26.4813,349.7217],[149.7277,-26.4705,358.9778],[149.6855,-26.4649,408.8325],[149.7041,-26.4524,381.1242],[149.7223,-26.4364,401.8441],[149.7285,-26.4372,390.7903],[149.7318,-26.4167,406.8423],[149.7462,-26.4186,401.8338],[149.7509,-26.39,392.5717],[149.758,-26.389,427.6738],[149.7721,-26.3932,394.6523],[149.7732,-26.4011,420.1074],[149.805,-26.3936,421.9886],[149.8216,-26.3799,384.8797],[149.8316,-26.3175,312.5035],[149.8139,-26.309,296.4487],[149.8165,-26.3029,291.3627],[149.7183,-26.2911,350.4809],[149.7077,-26.3051,388.8669],[149.7096,-26.3067,396.1178],[149.7086,-26.3124,414.4264],[149.7052,-26.3097,406.7807],[149.7019,-26.3117,374.6139],[149.6983,-26.3099,374.325],[149.6943,-26.3114,372.6017],[149.6867,-26.3075,350.6699],[149.6762,-26.3063,334.8224],[149.6741,-26.3095,333.8436],[149.666,-26.3087,331.9609],[149.6648,-26.3103,332.6622],[149.6621,-26.3083,336.4686],[149.6488,-26.3069,357.6241],[149.6435,-26.3007,358.8068],[149.6228,-26.2988,375.9231],[149.6144,-26.3029,389.1804],[149.6149,-26.3079,398.7732],[149.5694,-26.303,335.9195],[149.5653,-26.3323,441.089],[149.562,-26.3312,426.4491],[149.5561,-26.3332,411.3464],[149.5531,-26.3314,411.832],[149.5497,-26.3325,405.1049],[149.5462,-26.3275,396.4482],[149.5434,-26.3306,388.4461],[149.5396,-26.3294,388.4084],[149.5316,-26.334,383.4622],[149.528,-26.3332,383.5983],[149.505,-26.3358,374.0262],[149.4893,-26.3304,369.5028],[149.4906,-26.3232,372.4],[149.4849,-26.3124,377.1155],[149.4754,-26.315,374.9391],[149.4642,-26.3115,372.6291],[149.4561,-26.3144,377.687],[149.4531,-26.3204,399.8145],[149.4421,-26.3192,389.0988],[149.4393,-26.3174,375.1235],[149.4419,-26.3151,392.6728],[149.443,-26.3113,376.6294],[149.4432,-26.3026,374.301],[149.4344,-26.2978,375.4998],[149.4273,-26.2907,372.0332],[149.4004,-26.276,382.3602],[149.3928,-26.2812,364.3773],[149.3893,-26.2908,385.2355],[149.378,-26.2952,377.598],[149.3728,-26.2869,371.7174],[149.3502,-26.2912,364.3279],[149.3403,-26.2899,366.6487],[149.3253,-26.2841,371.7556],[149.2973,-26.2823,394.3166],[149.2825,-26.2879,399.9975],[149.2809,-26.2932,403.3023],[149.2727,-26.2994,398.6426],[149.2164,-26.3037,422.0516],[149.2062,-26.3064,411.7696],[149.1841,-26.3217,418.5426],[149.18,-26.3132,419.107],[149.1731,-26.3104,421.3994],[149.1554,-26.3084,422.8865],[149.1525,-26.3054,430.2159],[149.1661,-26.2842,422.9846],[149.1615,-26.2599,395.3548],[149.154,-26.2511,375.438],[149.1588,-26.2463,365.4626],[149.1623,-26.239,368.842],[149.1633,-26.1972,342.5313],[149.1715,-26.1901,357.5973],[149.1781,-26.177,333.3228],[149.1743,-26.163,322.1404],[149.1832,-26.1621,332.4828],[149.1896,-26.1534,329.2357],[149.1977,-26.1484,323.2861],[149.203,-26.1387,313.5268],[149.2038,-26.128,312.0623],[149.2203,-26.1158,325.4567],[149.2175,-26.0927,316.4544],[149.2122,-26.0757,310.6448],[149.217,-26.0686,314.1768],[149.2181,-26.0535,305.776],[149.1353,-26.0444,343.2073],[149.0944,-25.9404,367.3836],[149.1083,-25.8732,312.024],[149.1012,-25.8631,325.8489],[149.0845,-25.8535,345.5021],[149.0756,-25.8429,374.9005],[149.068,-25.8425,442.9156],[149.0652,-25.8386,451.6096],[149.0622,-25.8381,463.7239],[149.0607,-25.8347,452.5594],[149.0546,-25.829,439.3683],[149.0498,-25.8283,408.5077],[149.0542,-25.8259,400.4429],[149.0442,-25.823,379.1951],[149.0283,-25.8045,407.556],[149.0253,-25.799,410.7397],[149.0316,-25.7755,369.0635],[149.0314,-25.7697,371.9714],[149.023,-25.769,363.3951],[149.0121,-25.7768,383.7045],[149.0037,-25.7781,416.9985],[148.996,-25.7822,384.6011],[148.9866,-25.7822,375.1813],[148.9774,-25.7871,358.8591],[148.9612,-25.7898,356.0901],[148.9447,-25.771,412.1722],[148.9112,-25.7676,323.9764],[148.9088,-25.7651,325.2677],[148.9096,-25.7612,334.3081],[148.9007,-25.7601,386.7779],[148.9241,-25.7401,364.1711],[148.9214,-25.7346,316.4004],[148.9221,-25.7297,318.5005],[148.9198,-25.7286,324.7141],[148.9219,-25.7254,318.6928],[148.9264,-25.7252,313.5512],[148.9287,-25.7229,311.871],[148.9285,-25.7206,317.0119],[148.9257,-25.7194,315.8221],[148.9247,-25.7169,315.2018],[148.9287,-25.7089,313.4802],[148.9257,-25.7038,310.5038],[148.9302,-25.6999,313.3513],[148.9368,-25.6984,314.0153],[148.9393,-25.6949,312.1516],[148.9391,-25.6852,311.5859],[148.9424,-25.6855,337.8251],[148.9495,-25.6929,359.0863],[148.9576,-25.6931,360.0463],[148.9677,-25.7041,335.8727],[148.9697,-25.7117,310.6164],[148.9735,-25.7133,315.5894],[148.9963,-25.6977,340.8932],[149.002,-25.6978,353.1508],[149.0086,-25.6951,320.9937],[149.0162,-25.6822,371.5644],[149.0195,-25.682,467.5341],[149.0319,-25.6728,480.6624],[149.0405,-25.6758,477.9513],[149.0569,-25.6694,293.6426],[149.0539,-25.6674,337.2009],[149.0542,-25.6617,347.0119],[149.0587,-25.6538,300.3273],[149.0638,-25.6507,300.2217],[149.0655,-25.6472,307.0296],[149.0593,-25.6467,305.6758],[149.0512,-25.6499,328.4948],[149.0491,-25.6474,303.804],[149.049,-25.6417,302.8777],[149.0505,-25.6385,305.531],[149.0603,-25.6322,307.5786],[149.0613,-25.6279,317.1956],[149.057,-25.6251,318.2502],[149.0457,-25.6239,345.6968],[149.0444,-25.6299,339.4094],[149.0413,-25.6322,355.127],[149.0409,-25.6366,339.1356],[149.0346,-25.6419,333.0607],[149.0324,-25.6399,329.7351],[149.0383,-25.6315,354.5776],[149.0381,-25.6293,345.0881],[149.0327,-25.6271,357.2106],[149.0279,-25.6202,341.9391],[149.0198,-25.6176,339.2465],[149.0127,-25.6124,354.8711],[149.0125,-25.6108,335.3822],[149.0147,-25.6096,391.9422],[149.0239,-25.6124,342.3297],[149.0258,-25.6111,350.8064],[149.0256,-25.6082,361.1362],[149.0197,-25.604,337.5426],[148.9923,-25.6013,417.4695],[148.9899,-25.6057,352.1389],[148.9954,-25.6176,356.9004],[148.991,-25.6185,370.1613],[148.9856,-25.6135,387.3622],[148.9877,-25.591,361.3627],[148.9837,-25.5887,370.9809],[149.0243,-25.5598,484.0408],[148.938,-25.4586,538.6955],[148.9375,-25.4622,491.9271],[148.94,-25.4628,484.8377],[148.9389,-25.4638,464.9638],[148.9348,-25.4652,454.6969],[148.9277,-25.4633,432.3296],[148.9191,-25.4675,431.9344],[148.9071,-25.4673,414.1383],[148.905,-25.4714,427.8188],[148.9004,-25.4725,425.9728],[148.8768,-25.4698,538.7985],[148.8728,-25.4612,491.9178],[148.8637,-25.4648,414.2118],[148.8334,-25.46,419.8677],[148.8149,-25.452,507.9364],[148.8124,-25.446,618.9014],[148.8137,-25.4434,624.499],[148.8109,-25.441,546.9169],[148.8045,-25.4408,612.6261],[148.8009,-25.4429,626.3649],[148.8007,-25.4459,592.2258],[148.7981,-25.4454,585.4081],[148.7912,-25.4391,578.0038],[148.7838,-25.4359,589.4139],[148.7759,-25.435,595.0773],[148.7749,-25.4317,594.5456],[148.7656,-25.4243,584.0773],[148.7618,-25.4174,586.9595],[148.7441,-25.4133,585.979],[148.7372,-25.4098,615.8908],[148.7259,-25.4009,672.4252],[148.7253,-25.3957,660.1951],[148.7273,-25.3932,668.9466],[148.7249,-25.3904,652.497],[148.719,-25.3888,606.3981],[148.719,-25.387,580.5748],[148.7267,-25.3426,613.6251],[148.7332,-25.3378,617.8278],[148.7335,-25.3336,621.2236],[148.7389,-25.3276,645.577],[148.7474,-25.3242,669.7568],[148.7478,-25.3148,682.3337],[148.7592,-25.3107,649.8607],[148.7453,-25.2797,628.4308],[148.7363,-25.2784,662.6778],[148.7343,-25.2853,615.4469],[148.7275,-25.2879,571.0547],[148.7152,-25.2825,609.5092],[148.7084,-25.2775,591.5406],[148.706,-25.278,596.62],[148.704,-25.2824,573.8915],[148.6998,-25.2846,538.4172],[148.6952,-25.2851,518.4734],[148.6884,-25.2822,543.8386],[148.6837,-25.2819,565.4881],[148.6799,-25.2894,548.4064],[148.6782,-25.2992,512.2552],[148.6708,-25.3085,530.657],[148.6666,-25.311,572.6319],[148.6531,-25.2983,577.4045],[148.6431,-25.2841,583.1251],[148.6332,-25.2794,570.1678],[148.6257,-25.28,572.3224],[148.6001,-25.2729,628.1577],[148.5963,-25.2662,590.7527],[148.5901,-25.2608,620.3882],[148.5685,-25.2499,619.0111],[148.5544,-25.2541,632.7784],[148.5489,-25.2524,636.8252],[148.5383,-25.2457,637.1512],[148.5324,-25.2441,649.9795],[148.5185,-25.2435,662.7612],[148.4933,-25.2472,682.3421],[148.473,-25.2454,695.6611],[148.466,-25.2472,697.1472],[148.4514,-25.2547,708.6446],[148.4353,-25.2535,734.8062],[148.4234,-25.2493,904.1669],[148.4148,-25.2596,891.2761],[148.4122,-25.2602,856.0864],[148.4085,-25.258,888.6671],[148.4016,-25.2475,845.0716],[148.3965,-25.2435,852.6829],[148.3831,-25.2437,855.7944],[148.3804,-25.2417,847.8295],[148.3778,-25.2358,839.9514],[148.3723,-25.2327,845.2622],[148.3684,-25.2314,877.1851],[148.3624,-25.2328,852.514],[148.352,-25.2291,852.8256],[148.3477,-25.2201,898.0079],[148.3371,-25.2178,891.6219],[148.3348,-25.215,864.7917],[148.3301,-25.2136,873.3946],[148.3262,-25.2103,882.1976],[148.3125,-25.213,889.582],[148.3056,-25.2123,899.7493],[148.3064,-25.2041,869.6563],[148.3002,-25.1937,944.5758],[148.2957,-25.1905,943.8327],[148.2965,-25.1888,901.7235],[148.2929,-25.1819,884.4923],[148.2943,-25.1781,896.0177],[148.2918,-25.1753,901.21],[148.2959,-25.1649,889.1248],[148.2911,-25.1612,826.8842],[148.282,-25.1588,822.8047],[148.2818,-25.1571,833.9806],[148.276,-25.1531,841.0924],[148.2749,-25.1507,816.6739],[148.2767,-25.1489,802.0614],[148.2686,-25.1452,850.6494],[148.267,-25.1411,860.9993],[148.261,-25.1357,900.7703],[148.2556,-25.1336,910.5775],[148.2519,-25.1277,921.1707],[148.242,-25.1205,935.929],[148.2362,-25.1143,911.8964],[148.2347,-25.1007,1042.5873],[148.2291,-25.0987,1094.3643],[148.2133,-25.0864,1064.7109],[148.2101,-25.0803,1054.882],[148.206,-25.0793,1005.9266],[148.1992,-25.082,1112.951],[148.1813,-25.0795,999.4716],[148.1751,-25.0845,1072.3558],[148.1606,-25.0842,1099.244],[148.1528,-25.0681,1100.1692],[148.1526,-25.0647,1053.8867],[148.1501,-25.0614,1078.2551],[148.1438,-25.06,1064.9381],[148.1338,-25.0425,1090.5081],[148.125,-25.0439,1114.5115],[148.1216,-25.042,1110.5468],[148.1164,-25.0228,1034.0579],[148.0958,-25.0165,945.2501],[148.0915,-25.0088,928.5593],[148.084,-25.0001,1074.6866],[148.0763,-24.9786,1066.8405],[148.0777,-24.9666,1122.4207],[148.0729,-24.958,1083.2034],[148.0765,-24.9479,1153.2773],[148.0753,-24.9431,1131.397],[148.0647,-24.9338,1193.4348],[148.0631,-24.9245,1239.9956],[148.0561,-24.9137,1207.0731],[148.052,-24.9109,1170.8704],[148.0446,-24.9094,1209.8772],[148.0347,-24.9122,1117.1167],[148.0296,-24.9114,1092.0654],[148.0118,-24.8979,927.7011],[148.0042,-24.8968,959.1838],[147.9951,-24.8995,1021.952],[147.9899,-24.8966,996.3896],[147.9781,-24.8848,948.7708],[147.9682,-24.8799,983.3808],[147.96,-24.8789,995.0848],[147.9528,-24.8813,1076.4823],[147.9553,-24.8843,1068.1245],[147.9549,-24.8867,1093.5397],[147.9534,-24.8866,1084.8235],[147.9493,-24.893,1102.5562],[147.9363,-24.9,967.196],[147.9292,-24.9075,930.1997],[147.9232,-24.9187,959.6887],[147.9174,-24.9175,957.0199],[147.905,-24.9188,905.808],[147.9051,-24.9164,903.437],[147.9014,-24.9176,917.777],[147.8961,-24.9166,863.2211],[147.8921,-24.9204,901.4753],[147.8934,-24.9273,860.2237],[147.8889,-24.9302,856.1805],[147.8895,-24.9325,871.2983],[147.8877,-24.9346,902.4008],[147.884,-24.9332,904.0825],[147.8752,-24.939,866.2795],[147.8745,-24.9418,890.5314],[147.8773,-24.9443,934.9057],[147.8759,-24.9471,915.7186],[147.8648,-24.9477,858.6981],[147.8634,-24.9507,861.3902],[147.8548,-24.9547,885.5966],[147.8567,-24.9573,900.1636],[147.8523,-24.9597,885.4325],[147.8443,-24.9594,887.0692],[147.8368,-24.965,872.989],[147.836,-24.968,900.3356],[147.8314,-24.967,855.9443],[147.8274,-24.9696,910.3196],[147.8249,-24.9674,909.8857],[147.822,-24.9689,882.2223],[147.8205,-24.9673,867.6721],[147.8193,-24.9685,862.1871],[147.8157,-24.965,880.1844],[147.8085,-24.9733,875.9495],[147.8096,-24.9749,895.0497],[147.7994,-24.9926,871.9458],[147.7932,-24.9948,882.9554],[147.7932,-25.0028,907.2512],[147.7915,-25.0059,883.2793],[147.7802,-25.0175,860.1731],[147.7821,-25.0257,877.8015],[147.7795,-25.0265,880.5391],[147.7736,-25.0247,863.1163],[147.7687,-25.0263,856.3301],[147.7716,-25.0291,857.82],[147.7695,-25.0315,853.2334],[147.7675,-25.0308,850.4227],[147.7668,-25.0333,848.5173],[147.7649,-25.0335,849.4488],[147.7631,-25.0312,837.3345],[147.753,-25.0319,811.1919],[147.7517,-25.0305,810.8895],[147.7493,-25.0316,819.3254],[147.7489,-25.0335,813.228],[147.7415,-25.0324,836.0903],[147.7363,-25.0376,801.0956],[147.7346,-25.0374,797.9437],[147.7279,-25.0327,773.671],[147.7209,-25.0226,742.941],[147.7095,-25.0183,723.3512],[147.7012,-25.012,716.2626],[147.6846,-25.0077,716.1859],[147.662,-25.0045,693.5426],[147.6502,-25.0767,785.5278],[147.6772,-25.08,855.7258],[147.656,-25.2309,723.0087],[147.5543,-25.2191,664.438],[147.5414,-25.3116,638.5165],[147.3596,-25.2912,571.0],[147.362,-25.3221,562.3088],[147.3898,-25.3423,553.4636],[147.3935,-25.354,537.2728],[147.3845,-25.3755,529.5294],[147.3728,-25.3744,532.7488],[147.3559,-25.5012,538.744],[147.3049,-25.4955,518.8204],[147.2854,-25.6407,543.2478],[147.1789,-25.6294,519.5856],[147.1597,-25.7812,574.1964],[147.2583,-25.7922,598.3621],[147.2558,-25.7974,592.1747],[147.257,-25.8014,590.8734],[147.2672,-25.8153,580.4022],[147.2755,-25.836,572.7361],[147.2749,-25.8766,602.8805],[147.2792,-25.8794,596.5735],[147.2776,-25.8842,606.1633],[147.284,-25.8963,601.8101],[147.2859,-25.9039,615.7059],[147.2832,-25.9062,605.1436],[147.2831,-25.9096,603.9668],[147.2808,-25.9109,616.9706],[147.2812,-25.9158,631.1418],[147.2908,-25.9174,609.3254],[147.303,-25.9222,584.8441],[147.3103,-25.9226,595.8642],[147.3129,-25.9277,592.2705],[147.3227,-25.9297,593.7467],[147.3256,-25.9287,585.1027],[147.3331,-25.9323,578.6816],[147.339,-25.9325,581.6633],[147.3512,-25.9288,587.0548],[147.3559,-25.9377,581.0845],[147.3593,-25.94,582.9161],[147.3644,-25.9398,580.1498],[147.3706,-25.9424,578.024],[147.3988,-25.9702,580.903],[147.4026,-25.9707,577.6575],[147.4068,-25.9737,580.4815],[147.4111,-25.971,572.7097],[147.4244,-25.9714,587.7382],[147.4314,-25.9759,593.1727],[147.4489,-25.9779,597.0378],[147.4545,-25.9806,603.7697],[147.4531,-25.992,594.4023],[147.4413,-26.0097,601.7426],[147.4409,-26.0128,608.2622],[147.447,-26.0171,610.1891],[147.4465,-26.0276,618.0141],[147.4503,-26.0439,647.6602],[147.448,-26.0468,626.8846],[147.4483,-26.0514,633.1588],[147.4405,-26.0594,647.8871],[147.4401,-26.0649,646.6834],[147.4431,-26.0662,646.0006],[147.4475,-26.0791,635.9128],[147.4505,-26.0816,650.4396],[147.4438,-26.1344,599.5615],[147.4339,-26.1403,601.9222],[147.4147,-26.1379,595.5264],[147.4067,-26.1437,584.4723],[147.4,-26.1388,581.0416],[147.382,-26.1338,578.0937],[147.3649,-26.1435,598.0245],[147.3591,-26.156,572.9682],[147.3602,-26.1641,590.4496],[147.3591,-26.1728,563.5297],[147.37,-26.1828,592.2507],[147.359,-26.2149,544.8204],[147.3558,-26.2388,548.1161],[147.3791,-26.2414,586.8433],[147.3733,-26.2869,535.7659],[147.3445,-26.2834,533.349],[147.3314,-26.3712,488.9598],[147.3304,-26.3711,493.23],[147.3228,-26.4295,486.9214],[147.3216,-26.4356,485.3559],[147.3179,-26.4348,489.5081],[147.3052,-26.5275,428.8732],[147.2312,-26.5192,451.8372],[147.2163,-26.5287,438.8644],[147.2099,-26.5738,430.4409],[147.2426,-26.5775,410.4003],[147.2464,-26.5811,406.6435],[147.2491,-26.5952,406.8417],[147.2445,-26.6021,401.2012],[147.2384,-26.6453,402.3978],[147.2377,-26.6995,376.0131],[147.2214,-26.7431,370.6421],[147.2198,-26.8747,330.5713],[147.2049,-26.9675,313.4074],[147.0635,-26.9557,338.2787],[147.0575,-27.0005,323.8922],[147.0492,-27.0111,322.9944],[147.0386,-27.0838,317.094],[147.0316,-27.0827,306.8228],[147.0304,-27.0921,299.6102],[147.0969,-27.0995,313.8295],[147.0876,-27.1709,300.0904],[147.0821,-27.1708,301.7244],[147.0641,-27.2449,276.8044],[147.0463,-27.373,246.8789],[147.0436,-27.4066,237.6865],[147.0497,-27.4073,237.3575],[147.0399,-27.4756,260.6382],[147.0526,-27.4762,262.1165],[147.0613,-27.5447,236.2919],[147.0643,-27.5574,229.8179],[147.0631,-27.5663,234.5314],[147.1428,-27.575,229.676],[147.1211,-27.7136,221.5486],[147.1167,-27.7611,235.0866],[147.108,-27.8178,203.1544],[147.1175,-27.8567,211.1477],[147.11,-27.8957,197.2694],[147.125,-27.8978,203.9132],[147.1253,-27.8962,204.2476],[147.2061,-27.9069,198.2651],[147.2084,-27.8924,196.498],[147.286,-27.9025,196.7283],[147.2909,-27.8687,199.1377],[147.4441,-27.8874,196.8305],[147.4424,-27.8708,199.2755],[147.448,-27.8311,199.8181],[147.5609,-27.8447,200.0765],[147.5827,-27.7062,212.5464],[147.5889,-27.7047,211.8968],[147.6367,-27.71,215.2333],[147.6487,-27.6256,220.8918],[147.7406,-27.6369,232.7584],[147.7468,-27.629,231.8788],[147.7648,-27.6148,233.1914],[147.7737,-27.6113,234.4033],[147.9159,-27.6289,246.2493],[147.9151,-27.6053,247.2061],[147.9179,-27.5878,250.6128],[148.0177,-27.5998,247.6599],[148.0162,-27.6314,243.5161],[148.011,-27.6401,241.1635],[148.0109,-27.6546,240.6774],[148.056,-27.6236,245.2269],[148.0963,-27.6695,242.9882],[148.182,-27.6115,248.2902],[148.1874,-27.6155,249.0234],[148.2233,-27.656,243.597],[148.246,-27.6402,243.8386],[148.2844,-27.6833,235.9149],[148.3513,-27.6384,236.3216],[148.3609,-27.6323,236.8904],[148.3685,-27.6305,236.6464],[148.4157,-27.5976,233.0338],[148.4255,-27.6071,235.9433],[148.4515,-27.6172,231.0009],[148.4594,-27.6222,230.1824],[148.4845,-27.6054,231.8288],[148.5101,-27.6085,232.2144],[148.5101,-27.6165,231.4002],[148.5911,-27.6251,227.1343],[148.5844,-27.6755,222.2498],[148.7394,-27.6932,213.9931],[148.7424,-27.6919,209.4636],[148.7429,-27.6897,214.0772],[148.738,-27.6844,214.7223],[148.74,-27.6724,211.0927],[148.7366,-27.6658,216.1048],[148.7357,-27.6521,213.6709],[148.7407,-27.644,211.7225],[148.744,-27.6338,211.2123],[148.7424,-27.6281,213.173],[148.7348,-27.6227,214.4936],[148.7299,-27.6143,215.2537],[148.7284,-27.602,216.7499],[148.726,-27.6008,213.0263],[148.7218,-27.6018,218.5053],[148.7248,-27.5792,224.0268],[148.7746,-27.5844,226.8849],[148.7825,-27.5706,227.8518],[148.8397,-27.577,236.6767],[148.8352,-27.6147,233.3924],[149.0023,-27.633,264.3289],[149.0316,-27.5829,259.4808],[149.0414,-27.5838,257.4654],[149.0562,-27.5904,271.4699],[149.0508,-27.6264,272.6534],[149.1898,-27.6429,302.3222],[149.1848,-27.6765,296.403],[149.4275,-27.7026,245.4868],[149.4311,-27.7048,245.8611],[149.4253,-27.7066,244.8938],[149.4214,-27.7131,242.8548],[149.4281,-27.7168,242.5068],[149.4267,-27.7208,242.4982],[149.4218,-27.7217,244.9122],[149.4212,-27.7241,245.2153],[149.4297,-27.7356,241.212],[149.4198,-27.7478,241.0033],[149.4238,-27.751,241.646],[149.427,-27.7455,242.0504],[149.4955,-27.7538,269.9836]]]]}
,"properties": {"GID_2": "AUS.7.42_1","GID_0": "AUS","country": "Australia","GID_1": "AUS.7_1","state": "Queensland","NL_NAME_1": "NA","county": "Maranoa","VARNAME_2": "NA","NL_NAME_2": "NA","TYPE_2": "Region","ENGTYPE_2": "Region","CC_2": "34860","HASC_2": "NA","name": "Maranoa.county","area_km2": 58813.15,"hist_schema_id": "Elevation0-9000","hist_area_km2": {"200": 838.67,"225": 2755.05,"250": 5198.32,"275": 5361.51,"300": 5888.07,"325": 5327.62,"350": 4910.79,"375": 4288.98,"400": 3560.99,"425": 3105.54,"450": 2764.84,"475": 2579.5,"500": 2554.49,"525": 2312.18,"550": 1913.48,"575": 1419.12,"600": 952.53,"625": 673.73,"650": 497.44,"675": 380.88,"700": 313.74,"725": 266.79,"750": 233.88,"775": 182.69,"800": 136.43,"825": 103.72,"850": 77.2,"875": 55.84,"900": 41.61,"925": 26.99,"950": 16.2,"975": 12.41,"1000": 13.86,"1025": 11.72,"1050": 10.39,"1075": 11.91,"1100": 7.7,"1125": 3.19,"1150": 0.96,"1175": 0.77,"1200": 0.87,"1225": 0.46}}}