{"type":"Feature","properties":{"GID_2":"AUS.8.30_1","GID_0":"AUS","country":"Australia","GID_1":"AUS.8_1","state":"SouthAustralia","NL_NAME_1":"NA","county":"Mallala","VARNAME_2":"NA","NL_NAME_2":"NA","TYPE_2":"DistrictCouncil","ENGTYPE_2":"DistrictCouncil","CC_2":"43920","HASC_2":"AU.SA.ML","name":"Mallala.county"},
"geometry":{"type": "MultiPolygon","coordinates": [[[[138.6304,-34.3891,75.2274],[138.6116,-34.3449,102.2788],[138.3042,-34.3464,12.9694],[138.284,-34.3444,10.3057],[138.2309,-34.3444,1.2028],[138.2252,-34.3659,2.1778],[138.2402,-34.3857,1.0408],[138.247,-34.4009,2.4047],[138.2495,-34.4136,1.3414],[138.257,-34.4302,2.1809],[138.2596,-34.4398,2.095],[138.2616,-34.4531,2.27],[138.26,-34.4588,1.642],[138.2616,-34.46,2.2449],[138.2602,-34.4619,1.1725],[138.263,-34.472,2.0723],[138.2665,-34.478,0.0],[138.2723,-34.4829,2.6524],[138.292,-34.4932,1.1573],[138.3092,-34.5091,0.5084],[138.3297,-34.5181,1.7977],[138.3413,-34.5333,1.7496],[138.3444,-34.5312,1.886],[138.3431,-34.533,1.7496],[138.3444,-34.5332,2.1461],[138.3419,-34.5346,1.1576],[138.3504,-34.5527,1.7826],[138.3495,-34.5575,1.5607],[138.3525,-34.5631,2.757],[138.3621,-34.5705,1.9622],[138.362,-34.5745,1.811],[138.3647,-34.5748,1.6985],[138.3643,-34.5781,1.6823],[138.3691,-34.5796,1.3562],[138.3714,-34.5821,1.5555],[138.3708,-34.5833,1.9895],[138.3741,-34.5824,1.402],[138.3742,-34.585,1.5942],[138.3843,-34.5878,1.6357],[138.3834,-34.5898,2.6636],[138.3869,-34.5896,1.9633],[138.3876,-34.5919,2.8034],[138.39,-34.591,1.5745],[138.3892,-34.5937,2.6556],[138.394,-34.5969,1.9359],[138.4068,-34.599,1.5032],[138.4142,-34.6115,0.8231],[138.4118,-34.6132,1.7212],[138.4167,-34.6145,1.3219],[138.4129,-34.6153,1.4166],[138.4159,-34.62,1.1364],[138.4132,-34.6209,1.3957],[138.4179,-34.6221,0.8095],[138.4221,-34.62,1.0145],[138.4265,-34.6216,1.3221],[138.433,-34.6311,0.8425],[138.4346,-34.6312,1.1268],[138.4348,-34.6341,1.4127],[138.4458,-34.6543,0.6874],[138.4416,-34.6554,2.0177],[138.441,-34.6551,2.0177],[138.4397,-34.6536,2.0248],[138.4362,-34.6539,2.0968],[138.4298,-34.6643,1.809],[138.4304,-34.668,0.0],[138.4351,-34.672,1.6146],[138.4392,-34.6695,3.8281],[138.4447,-34.6705,3.2158],[138.4465,-34.6737,2.4268],[138.4531,-34.6763,1.5645],[138.4648,-34.6732,0.8075],[138.4722,-34.6671,1.0961],[138.474,-34.6637,1.8741],[138.4887,-34.6584,8.0358],[138.4905,-34.6562,7.9619],[138.4899,-34.6535,8.9157],[138.4924,-34.6513,8.1142],[138.4919,-34.6475,7.92],[138.5036,-34.6462,7.5535],[138.5113,-34.641,10.3576],[138.5139,-34.6414,8.7645],[138.5172,-34.6389,10.6862],[138.5187,-34.6396,10.322],[138.5202,-34.637,11.4518],[138.5254,-34.637,12.5303],[138.5295,-34.6413,11.7696],[138.5379,-34.6353,15.0446],[138.5409,-34.6398,14.9849],[138.5468,-34.6381,15.7317],[138.5491,-34.6353,16.5909],[138.5519,-34.6375,16.6789],[138.5562,-34.6369,16.063],[138.5591,-34.639,17.3349],[138.5622,-34.6357,17.4648],[138.566,-34.6349,18.5107],[138.576,-34.636,19.7246],[138.578,-34.6386,21.4404],[138.5905,-34.639,23.0003],[138.5941,-34.6346,22.8009],[138.5965,-34.6355,24.2628],[138.5973,-34.6335,23.7199],[138.6,-34.6327,23.9791],[138.6088,-34.6338,27.6832],[138.6097,-34.6352,25.5727],[138.6147,-34.6331,26.5441],[138.6176,-34.6337,27.0808],[138.6218,-34.6308,27.0114],[138.6215,-34.6289,27.4989],[138.6237,-34.6303,27.9946],[138.6254,-34.6257,25.9307],[138.6302,-34.6287,29.793],[138.6298,-34.4748,62.4116],[138.5677,-34.449,52.4983],[138.5698,-34.4418,45.9391],[138.5666,-34.4394,50.2685],[138.5715,-34.4349,47.4045],[138.5714,-34.4327,50.174],[138.5665,-34.4268,48.6188],[138.5662,-34.423,51.1372],[138.5638,-34.4254,49.9848],[138.5619,-34.4245,49.6684],[138.5665,-34.4186,51.4994],[138.5632,-34.4142,50.5845],[138.56,-34.4147,56.4356],[138.5664,-34.409,53.9175],[138.5728,-34.4087,54.1481],[138.571,-34.4064,56.1583],[138.5726,-34.4029,58.1221],[138.575,-34.402,57.9316],[138.5738,-34.3975,57.6111],[138.5815,-34.3997,65.8743],[138.5835,-34.402,68.9054],[138.588,-34.4023,61.7786],[138.591,-34.3979,76.5499],[138.5963,-34.3969,67.3239],[138.5971,-34.3932,61.6629],[138.6011,-34.3902,70.4547],[138.6129,-34.3889,73.1726],[138.6159,-34.3918,75.7789],[138.6218,-34.3937,73.6294],[138.6262,-34.3932,76.2727],[138.6277,-34.3894,74.5441],[138.6304,-34.3891,75.2274]]]]}}