{"type":"Feature","properties":{"GID_2":"AUS.8.22_1","GID_0":"AUS","country":"Australia","GID_1":"AUS.8_1","state":"SouthAustralia","NL_NAME_1":"NA","county":"HoldfastBay","VARNAME_2":"NA","NL_NAME_2":"NA","TYPE_2":"City","ENGTYPE_2":"City","CC_2":"42600","HASC_2":"AU.SA.HB","name":"HoldfastBay.county"},
"geometry":{"type": "MultiPolygon","coordinates": [[[[138.5118,-35.0409,0.0],[138.5154,-35.0422,40.252],[138.5247,-35.0404,71.8811],[138.5245,-35.0375,59.3693],[138.5335,-35.0372,84.1544],[138.5299,-34.9957,12.1037],[138.5308,-34.9911,12.0343],[138.5267,-34.9914,10.0121],[138.5237,-34.9872,8.2401],[138.5296,-34.9869,10.3902],[138.5291,-34.9794,8.4724],[138.5378,-34.9759,9.8968],[138.5324,-34.9756,10.0593],[138.532,-34.9738,9.1339],[138.5288,-34.9744,7.8698],[138.5284,-34.9708,7.2097],[138.5249,-34.9709,5.775],[138.523,-34.965,5.4753],[138.5191,-34.9652,2.915],[138.5167,-34.9627,3.2952],[138.5166,-34.9639,3.0224],[138.5086,-34.9644,3.5831],[138.5109,-34.9733,0.634],[138.5091,-34.9753,0.0],[138.5104,-34.9829,1.7299],[138.5093,-34.9893,0.0],[138.5114,-35.0061,0.0],[138.5176,-35.0305,1.883],[138.5157,-35.0377,0.4809],[138.5118,-35.0409,0.0]]]]}}