{"type": "Feature","bbox": [142.0376,-21.6675,143.7901,-19.4718],"geometry": {"type": "MultiPolygon","coordinates": [[[[142.6022,-19.6201,228.7662],[142.376,-19.6,180.8796],[142.3493,-19.8592,178.8504],[142.3794,-19.8617,183.5738],[142.3359,-20.3304,144.2035],[142.3807,-20.334,151.8874],[142.3707,-20.4395,144.9583],[142.3737,-20.4397,145.6908],[142.3618,-20.5689,153.6804],[142.3445,-20.5712,148.7721],[142.341,-20.6003,147.4973],[142.3449,-20.6007,148.0887],[142.3391,-20.6656,147.9919],[142.3348,-20.6653,147.9899],[142.3333,-20.6679,147.9339],[142.3099,-20.7147,145.7049],[142.3634,-20.7199,148.4388],[142.3549,-20.7964,146.0614],[142.331,-20.7941,145.9818],[142.3209,-20.8862,146.1609],[142.3019,-20.8842,145.2658],[142.2919,-20.9949,154.8342],[142.2031,-20.9875,158.52],[142.1991,-21.0108,162.6118],[142.2377,-21.0142,165.3325],[142.2224,-21.1674,175.5656],[142.2553,-21.1697,171.2334],[142.2498,-21.2362,183.7571],[142.1577,-21.2348,177.1023],[142.0576,-21.2168,162.2199],[142.0472,-21.2246,164.7802],[142.1376,-21.3237,183.3169],[142.064,-21.3801,182.2388],[142.0917,-21.3826,185.0894],[142.0803,-21.4883,207.7673],[142.0376,-21.5201,216.8613],[142.0734,-21.5235,206.9872],[142.072,-21.5408,204.0706],[142.1613,-21.5428,213.932],[142.2318,-21.5509,220.7226],[142.2282,-21.5963,204.7163],[142.3352,-21.6071,201.0526],[142.3329,-21.6205,205.7581],[142.3315,-21.6362,212.2485],[142.3326,-21.6363,212.2676],[142.4912,-21.6442,209.0277],[142.4952,-21.5971,205.368],[142.6565,-21.6104,214.2368],[142.6514,-21.6675,213.5795],[142.7185,-21.6149,211.5623],[142.694,-21.5879,208.5625],[142.8154,-21.4931,207.7481],[142.8621,-21.5451,225.1196],[142.9424,-21.4817,218.5183],[142.9533,-21.4938,222.1702],[143.0001,-21.4545,239.4853],[143.002,-21.4554,240.3708],[143.009,-21.45,240.9306],[143.0078,-21.4485,239.8192],[143.188,-21.3087,249.3729],[143.2365,-21.313,261.1841],[143.25,-21.1859,261.3246],[143.2564,-21.1865,264.5157],[143.2609,-21.1439,259.1352],[143.2982,-21.1473,256.4917],[143.3382,-20.8205,229.6736],[143.4347,-20.8285,224.3816],[143.4359,-20.814,229.0985],[143.4431,-20.7928,227.0994],[143.4465,-20.7873,226.4529],[143.4476,-20.7776,290.8601],[143.4989,-20.7825,293.1551],[143.5286,-20.7357,292.8737],[143.5408,-20.6176,284.3584],[143.5336,-20.611,278.4551],[143.4762,-20.6062,255.0133],[143.4794,-20.6026,253.1582],[143.4832,-20.5883,253.6781],[143.5004,-20.5735,258.3661],[143.5022,-20.566,260.9756],[143.501,-20.5592,262.9558],[143.5103,-20.553,265.0533],[143.5147,-20.5432,265.5195],[143.5248,-20.5366,268.9786],[143.5328,-20.5337,268.1479],[143.5434,-20.5258,269.5121],[143.5562,-20.5222,274.1065],[143.5741,-20.5092,277.0226],[143.5819,-20.499,279.4309],[143.591,-20.497,279.5522],[143.6004,-20.5,281.7569],[143.6074,-20.4993,280.9632],[143.6133,-20.4964,285.2673],[143.6174,-20.4888,286.4813],[143.6231,-20.4846,285.3117],[143.6468,-20.4795,290.8281],[143.6646,-20.4848,296.1745],[143.6737,-20.4802,294.4175],[143.6802,-20.4796,297.4974],[143.696,-20.4822,298.2167],[143.7041,-20.4818,297.8547],[143.7284,-20.4635,303.5996],[143.739,-20.4524,305.4976],[143.7502,-20.4492,307.0421],[143.7542,-20.4462,309.1677],[143.756,-20.4429,309.3252],[143.7571,-20.4319,314.2237],[143.7621,-20.4306,313.4388],[143.7676,-20.4318,317.0678],[143.7723,-20.4301,314.7486],[143.7739,-20.4258,315.6111],[143.7712,-20.4204,321.4785],[143.773,-20.4172,317.5999],[143.7808,-20.4199,323.4642],[143.7848,-20.4186,321.6275],[143.7863,-20.4134,326.9885],[143.7832,-20.4071,324.4311],[143.7098,-20.3249,356.0353],[143.7901,-20.2632,398.3885],[143.74,-20.2061,429.3933],[143.7109,-20.2292,390.5076],[143.6257,-20.1479,377.2787],[143.597,-20.1455,382.3123],[143.6096,-20.0256,450.3518],[143.6413,-20.0286,457.1271],[143.6823,-19.597,851.9718],[143.6775,-19.5972,853.656],[143.6467,-19.5838,841.019],[143.619,-19.5599,812.0793],[143.6054,-19.5303,774.3916],[143.5905,-19.5073,739.4244],[143.5653,-19.4856,711.9042],[143.5495,-19.4766,700.053],[143.5355,-19.4718,691.9735],[143.5138,-19.48,682.3455],[143.5077,-19.4839,689.8338],[143.5111,-19.4916,680.7662],[143.5132,-19.5053,675.0363],[143.5094,-19.516,672.1111],[143.5062,-19.5201,669.3519],[143.4899,-19.5309,676.23],[143.4663,-19.54,637.8216],[143.4619,-19.545,629.703],[143.4581,-19.5467,633.4244],[143.4537,-19.556,586.2885],[143.4473,-19.5588,582.5819],[143.4438,-19.566,582.9529],[143.4341,-19.5653,566.7559],[143.4278,-19.5631,562.5425],[143.4256,-19.5651,563.8402],[143.417,-19.5671,562.6644],[143.4132,-19.5644,552.4791],[143.4029,-19.5702,548.3022],[143.398,-19.5752,555.4567],[143.3951,-19.5751,553.0141],[143.394,-19.5766,555.6489],[143.3943,-19.5968,554.4187],[143.3831,-19.6126,569.8523],[143.3728,-19.6139,558.8372],[143.3677,-19.6127,542.691],[143.3514,-19.6043,551.1957],[143.3461,-19.6037,547.6714],[143.3419,-19.6056,547.2817],[143.333,-19.6211,556.2686],[143.3172,-19.6285,511.677],[143.3107,-19.6333,515.4641],[143.3058,-19.6395,503.7863],[143.2984,-19.6564,514.2254],[143.2896,-19.6697,485.3768],[143.2872,-19.6873,480.0345],[143.2796,-19.6942,472.9715],[143.275,-19.6965,469.1117],[143.2701,-19.6942,461.9137],[143.2639,-19.6846,449.5518],[143.2593,-19.6814,444.9793],[143.2567,-19.6818,450.0873],[143.2497,-19.6899,451.2206],[143.0283,-19.6729,325.6702],[142.6007,-19.6355,221.2948],[142.6022,-19.6201,228.7662]]]]}
,"properties": {"GID_2": "AUS.7.56_1","GID_0": "AUS","country": "Australia","GID_1": "AUS.7_1","state": "Queensland","NL_NAME_1": "NA","county": "Richmond","VARNAME_2": "NA","NL_NAME_2": "NA","TYPE_2": "Shire","ENGTYPE_2": "Shire","CC_2": "36300","HASC_2": "AU.QL.RI","name": "Richmond.county","area_km2": 26657.3,"hist_schema_id": "Elevation0-9000","hist_area_km2": {"150": 2374.24,"175": 5232.73,"200": 5601.01,"225": 3720.96,"250": 2352.67,"275": 1478.35,"300": 1261.18,"325": 1047.72,"350": 769.7,"375": 646.3,"400": 429.42,"425": 264.94,"450": 203.78,"475": 164.69,"500": 111.51,"525": 85.88,"550": 87.38,"575": 75.7,"600": 75.4,"625": 80.81,"650": 81.08,"675": 115.15,"700": 150.44,"725": 71.72,"750": 63.28,"775": 43.29,"800": 34.51,"825": 27.18,"850": 6.25}}}