{"type": "Feature","bbox": [142.2442,-19.637,144.8324,-17.4885],"geometry": {"type": "MultiPolygon","coordinates": [[[[142.2652,-17.4939,86.2702],[142.2442,-17.7129,93.8087],[142.3823,-17.8714,115.1849],[142.4824,-17.8756,125.0554],[142.4983,-17.8935,125.9936],[142.474,-17.9137,125.7091],[142.5043,-17.9494,128.0905],[142.5803,-18.0304,196.4642],[142.6255,-18.0811,179.2229],[142.4724,-18.211,194.098],[142.4655,-18.2178,179.1797],[142.4638,-18.2226,181.8764],[142.4639,-18.2314,194.1292],[142.4681,-18.2436,184.1752],[142.4767,-18.2517,189.3301],[142.4842,-18.256,195.1189],[142.4901,-18.2573,192.3053],[142.4921,-18.2601,187.5747],[142.4859,-18.2934,200.7296],[142.4846,-18.3152,197.8416],[142.4858,-18.3186,188.6572],[142.4953,-18.3307,221.4615],[142.5011,-18.3339,255.3807],[142.5235,-18.3539,270.0537],[142.5243,-18.3595,249.7008],[142.5205,-18.3679,290.8243],[142.5218,-18.3808,274.5753],[142.5193,-18.389,259.7875],[142.5154,-18.3942,249.3951],[142.5142,-18.4042,240.9596],[142.5198,-18.4088,268.0137],[142.5374,-18.4155,226.1854],[142.5469,-18.4236,232.9507],[142.5567,-18.4291,206.7162],[142.5573,-18.4245,207.4249],[142.5584,-18.4246,205.9409],[142.5592,-18.4309,207.0309],[142.5613,-18.4323,205.8713],[142.5847,-18.4319,232.9836],[142.6027,-18.442,264.0845],[142.606,-18.445,285.9961],[142.6094,-18.4528,347.7712],[142.6145,-18.4564,285.0474],[142.6191,-18.4574,302.9607],[142.6236,-18.4551,312.7013],[142.6278,-18.4551,311.3981],[142.6342,-18.4585,349.6013],[142.6391,-18.4668,347.5513],[142.6409,-18.4756,386.5089],[142.6442,-18.4822,381.5067],[142.6434,-18.4958,379.2738],[142.6479,-18.4992,350.6791],[142.6478,-18.5015,369.2151],[142.6452,-18.5038,365.7147],[142.6453,-18.508,356.5521],[142.6484,-18.5137,328.2093],[142.6387,-18.521,371.789],[142.6374,-18.525,361.6114],[142.6473,-18.527,321.9031],[142.6613,-18.5223,321.815],[142.6682,-18.525,293.1101],[142.6753,-18.5249,265.8743],[142.6823,-18.528199999999998,286.1192],[142.6874,-18.5284,317.3926],[142.6917,-18.5279,340.3372],[142.7103,-18.5174,353.9955],[142.7147,-18.5211,363.5467],[142.7324,-18.5137,367.1398],[142.7471,-18.5139,402.9867],[142.7493,-18.518,398.2815],[142.7616,-18.5297,349.6284],[142.7634,-18.535,348.2763],[142.7802,-18.5444,360.8872],[142.7855,-18.5506,396.7597],[142.7863,-18.5537,405.6285],[142.7823,-18.568,358.5297],[142.7821,-18.5763,369.2241],[142.7781,-18.5838,379.2621],[142.7857,-18.585,375.8729],[142.7923,-18.5822,399.2397],[142.7962,-18.5703,355.2209],[142.8013,-18.5651,334.1326],[142.8062,-18.5647,330.6314],[142.8113,-18.5676,323.5459],[142.8149,-18.5741,362.0716],[142.8292,-18.5828,338.5754],[142.8334,-18.5816,346.3606],[142.8355,-18.5771,320.3541],[142.8416,-18.5785,302.912],[142.8481,-18.5844,315.4398],[142.8523,-18.5859,313.528],[142.8543,-18.5918,316.343],[142.8515,-18.5985,314.8424],[142.8517,-18.6027,319.0018],[142.858,-18.6149,344.7198],[142.858,-18.6184,339.1247],[142.8541,-18.6256,335.4942],[142.85,-18.6261,350.4993],[142.8485,-18.6301,346.4229],[142.8347,-18.635,321.4617],[142.833,-18.6387,327.3479],[142.8325,-18.6418,326.9671],[142.8345,-18.6469,323.7611],[142.8441,-18.6558,322.335],[142.8369,-18.6643,308.2056],[142.837,-18.6691,314.0921],[142.8444,-18.678,295.9107],[142.8761,-18.6974,303.1241],[142.882,-18.7103,316.371],[142.89,-18.7157,333.3953],[142.892,-18.7201,336.5942],[142.89,-18.7255,337.0714],[142.8901,-18.7315,357.206],[142.8935,-18.7422,346.4153],[142.9006,-18.7501,350.2899],[142.9001,-18.7525,350.132],[142.8938,-18.7534,348.9049],[142.8909,-18.7581,341.1806],[142.8887,-18.7642,337.9398],[142.8905,-18.7715,354.7149],[142.8891,-18.7783,349.9511],[142.8847,-18.7819,351.7216],[142.8857,-18.7896,351.6084],[142.8833,-18.793,361.7699],[142.8797,-18.7942,362.0797],[142.8777,-18.8014,362.688],[142.878,-18.8092,364.3713],[142.8937,-18.8285,369.682],[142.9098,-18.8535,372.2487],[142.912,-18.8699,383.4387],[142.9159,-18.8845,388.1407],[142.9442,-18.9127,404.3907],[142.9619,-18.9264,412.5803],[142.9723,-18.9314,417.4306],[142.9958,-18.9339,427.6496],[143.0012,-18.9322,428.4445],[143.0108,-18.9248,431.9282],[143.0175,-18.9219,431.0861],[143.0305,-18.9276,421.5127],[143.0382,-18.9259,412.9109],[143.0488,-18.9202,414.6796],[143.0716,-18.9225,428.1885],[143.1018,-18.9205,413.0798],[143.1414,-18.9359,405.5352],[143.1435,-18.9382,404.4385],[143.147,-18.9495,413.2034],[143.1489,-18.9509,408.8353],[143.1525,-18.9488,408.9441],[143.1535,-18.9498,407.7831],[143.1576,-18.9684,408.9718],[143.1685,-18.9786,412.893],[143.1662,-18.99,444.1186],[143.1833,-18.9937,417.1519],[143.1885,-18.9991,416.2422],[143.1931,-18.9964,406.0285],[143.1959,-19.0029,409.6883],[143.1949,-19.0089,412.5189],[143.1972,-19.0104,416.5522],[143.2059,-19.0078,417.4052],[143.2068,-19.013,409.3127],[143.2131,-19.0162,414.22],[143.2123,-19.0196,415.7219],[143.2155,-19.0244,412.3889],[143.2153,-19.0281,408.4835],[143.2204,-19.0313,410.7283],[143.2211,-19.0341,418.3936],[143.2193,-19.04,442.8893],[143.2206,-19.045,445.6232],[143.2222,-19.046,441.2047],[143.222,-19.0511,431.1701],[143.2276,-19.052,441.4411],[143.2296,-19.0562,428.1535],[143.2338,-19.0538,444.9274],[143.2481,-19.0547,444.3165],[143.2516,-19.0527,458.1565],[143.256,-19.0558,463.9757],[143.2603,-19.0557,474.3431],[143.2629,-19.0574,472.3427],[143.2682,-19.0673,475.584],[143.268,-19.0714,471.8495],[143.2631,-19.0775,485.2916],[143.2626,-19.0805,481.8381],[143.273,-19.0928,462.7868],[143.2773,-19.1043,483.9155],[143.286,-19.1171,498.4514],[143.2911,-19.1306,506.4673],[143.2865,-19.143,510.3101],[143.2856,-19.1511,503.5988],[143.2869,-19.1572,510.3279],[143.2905,-19.1608,503.6634],[143.3072,-19.1595,500.742],[143.3114,-19.1604,501.132],[143.3087,-19.171,489.3332],[143.3188,-19.1814,507.1857],[143.3269,-19.1835,507.8969],[143.3239,-19.1914,506.4042],[143.3258,-19.193,510.1979],[143.3288,-19.1934,510.096],[143.3358,-19.1898,487.8668],[143.3425,-19.1897,480.0093],[143.3507,-19.1856,498.165],[143.3676,-19.1834,530.5049],[143.3715,-19.1859,532.893],[143.3744,-19.1925,539.3049],[143.3819,-19.1954,550.0604],[143.3881,-19.2045,533.9856],[143.3901,-19.214,540.4318],[143.3986,-19.2289,506.6404],[143.3985,-19.236,529.1904],[143.4039,-19.2416,522.5687],[143.4056,-19.2494,511.6099],[143.4015,-19.2554,526.2228],[143.395,-19.257,518.347],[143.3956,-19.2694,533.3477],[143.3836,-19.2747,523.1963],[143.3803,-19.2783,534.6985],[143.3781,-19.2882,534.9464],[143.3816,-19.29,535.3289],[143.3861,-19.3039,547.3359],[143.3897,-19.309,552.9687],[143.4071,-19.3145,552.0706],[143.4121,-19.319,559.0925],[143.4178,-19.3282,576.3938],[143.4223,-19.3424,597.3659],[143.4229,-19.3568,618.8678],[143.4346,-19.3681,631.1418],[143.439,-19.3746,640.7814],[143.4429,-19.3888,651.082],[143.4433,-19.4055,664.9458],[143.4522,-19.4185,672.9174],[143.4491,-19.4355,671.49],[143.4512,-19.4474,682.8746],[143.47,-19.4719,694.1792],[143.4831,-19.4837,713.9995],[143.4896,-19.486,710.43],[143.5077,-19.4839,689.8338],[143.5138,-19.48,682.3455],[143.5355,-19.4718,691.9735],[143.5495,-19.4766,700.053],[143.5653,-19.4856,711.9042],[143.5905,-19.5073,739.4244],[143.6054,-19.5303,774.3916],[143.619,-19.5599,812.0793],[143.6467,-19.5838,841.019],[143.6775,-19.5972,853.656],[143.6823,-19.597,851.9718],[143.7151,-19.5854,864.0041],[143.7342,-19.59,876.5956],[143.7757,-19.6058,864.7618],[143.8245,-19.6304,901.2067],[143.8518,-19.637,939.231],[143.9251,-19.6308,968.352],[143.938,-19.6273,970.4253],[143.9474,-19.622,978.4388],[143.9557,-19.6196,974.6788],[143.9765,-19.6229,977.2487],[144.0039,-19.6213,997.1104],[144.0142,-19.6149,968.4116],[144.0289,-19.5978,1047.3796],[144.0448,-19.5836,1051.4451],[144.0529,-19.5719,1047.5212],[144.0562,-19.5701,1047.239],[144.0889,-19.5782,1030.0569],[144.1116,-19.58,995.712],[144.1325,-19.5709,983.2446],[144.1478,-19.5687,983.3684],[144.1571,-19.5707,966.8032],[144.1625,-19.5756,954.0422],[144.1788,-19.5991,911.3289],[144.1835,-19.6011,908.8931],[144.1983,-19.6023,916.3887],[144.204,-19.6081,926.9579],[144.2128,-19.6128,929.668],[144.2283,-19.6153,944.6193],[144.2957,-19.5665,920.8799],[144.3026,-19.4974,908.6354],[144.3449,-19.5015,829.2744],[144.3517,-19.4239,717.4414],[144.3696,-19.4301,752.7699],[144.3875,-19.4307,794.2456],[144.4508,-19.4413,758.2435],[144.4681,-19.4474,819.3083],[144.4746,-19.3707,672.4708],[144.5915,-19.3797,763.7716],[144.5986,-19.3178,679.4832],[144.6178,-19.3196,764.1991],[144.6194,-19.3062,686.171],[144.6236,-19.2964,708.9191],[144.6335,-19.2853,661.1017],[144.6874,-19.2393,616.1238],[144.7508,-19.1807,571.0671],[144.772,-19.2056,544.6002],[144.8324,-19.1609,529.4545],[144.8251,-19.1578,532.7556],[144.812,-19.1563,556.239],[144.7944,-19.1622,567.7943],[144.7744,-19.148,596.3776],[144.7153,-19.0168,567.8796],[144.6997,-19.0052,574.5192],[144.6979,-18.9959,593.358],[144.7074,-18.9359,627.0775],[144.7903,-18.871,499.3768],[144.7454,-18.818,582.5957],[144.8084,-18.7696,472.683],[144.8076,-18.7645,465.173],[144.8046,-18.7618,464.4637],[144.8068,-18.7573,470.2479],[144.8059,-18.7523,466.7507],[144.8006,-18.7496,468.4091],[144.8025,-18.7444,474.4844],[144.792,-18.7332,477.9502],[144.7867,-18.734,473.2998],[144.7775,-18.7407,474.7931],[144.7654,-18.7286,479.6575],[144.758,-18.7285,481.065],[144.7556,-18.7253,482.1746],[144.7509,-18.7251,482.6063],[144.7451,-18.7219,484.5613],[144.7439,-18.7125,491.7885],[144.7469,-18.7075,489.9234],[144.7417,-18.7027,496.3738],[144.7871,-18.6613,516.7109],[144.7641,-18.6385,540.4081],[144.6516,-18.6266,561.8258],[144.6598,-18.5652,631.0296],[144.687,-18.3137,892.7318],[144.7408,-18.3186,960.9207],[144.752,-18.2161,960.5743],[144.7468,-18.2085,913.3004],[144.734,-18.1756,835.7378],[144.7222,-18.1595,804.831],[144.6968,-18.1396,785.0533],[144.6856,-18.1243,771.1339],[144.6669,-18.1085,737.803],[144.6562,-18.1017,725.6587],[144.6396,-18.0848,710.183],[144.6251,-18.0624,693.8296],[144.6109,-18.0512,676.2543],[144.6036,-18.0469,693.0449],[144.5036,-18.0377,562.0569],[144.5,-18.0326,560.4052],[144.4964,-18.0323,557.9116],[144.4946,-18.029,552.7366],[144.4924,-18.0285,548.6888],[144.4867,-18.0196,535.2112],[144.4779,-18.0209,527.5398],[144.4752,-18.0149,524.7604],[144.4718,-18.0121,521.2832],[144.4559,-18.0553,542.6509],[144.4396,-18.0428,532.27],[144.4155,-18.0198,514.0555],[144.4061,-18.0009,507.2184],[144.4005,-17.9946,506.4114],[144.3954,-17.9851,507.9946],[144.3728,-17.9746,523.0553],[144.3679,-17.976,548.272],[144.3652,-17.9751,577.4655],[144.3641,-17.9728,546.7407],[144.3613,-17.9737,555.1077],[144.3538,-17.9601,556.9832],[144.3523,-17.9537,565.1353],[144.3476,-17.9521,594.136],[144.3416,-17.9453,591.4504],[144.3376,-17.9454,590.7267],[144.3376,-17.949,582.4904],[144.3296,-17.9455,582.7313],[144.3266,-17.9467,577.5125],[144.3244,-17.9455,574.8023],[144.3219,-17.9472,576.7208],[144.3236,-17.9576,593.1581],[144.321,-17.9611,589.6818],[144.3133,-17.9631,618.8535],[144.31,-17.9686,628.3821],[144.1425,-17.9544,505.4247],[143.9706,-17.756,439.6539],[143.9764,-17.6808,374.1325],[143.8333,-17.6702,351.4365],[143.827,-17.6625,354.0584],[143.8199,-17.659,377.2846],[143.8079,-17.6586,400.8364],[143.7937,-17.6537,398.9274],[143.7856,-17.6531,389.4418],[143.7736,-17.6481,384.5745],[143.7602,-17.6386,363.813],[143.7481,-17.6391,354.8172],[143.7407,-17.6466,339.6669],[143.7389,-17.6532,347.142],[143.7313,-17.6545,344.9109],[143.7205,-17.6454,323.5953],[143.7177,-17.645,324.3514],[143.7153,-17.6469,329.3131],[143.7101,-17.6448,315.7199],[143.7016,-17.6373,302.8561],[143.6899,-17.6329,305.0984],[143.6845,-17.6282,293.2541],[143.6828,-17.6131,273.2548],[143.6785,-17.6101,278.0664],[143.6707,-17.6203,265.6078],[143.6593,-17.6224,273.2639],[143.6533,-17.6251,285.3199],[143.6508,-17.6329,290.702],[143.642,-17.6395,280.6421],[143.6422,-17.6422,288.7766],[143.6327,-17.6418,273.9862],[143.6283,-17.64,283.6669],[143.6234,-17.636,274.6439],[143.6173,-17.6341,274.6021],[143.6082,-17.6263,251.4323],[143.6055,-17.6268,251.1729],[143.6037,-17.6207,249.3603],[143.6001,-17.6181,248.5596],[143.5929,-17.6152,245.2959],[143.5893,-17.6155,253.9542],[143.5813,-17.6219,246.5506],[143.5799,-17.6395,246.3113],[143.5731,-17.647,238.6212],[143.5635,-17.6465,236.9958],[143.5511,-17.6513,225.9499],[143.547,-17.6576,234.3413],[143.5378,-17.6579,228.9366],[143.5235,-17.6555,229.0002],[143.5158,-17.6467,231.5503],[143.5125,-17.6354,224.6271],[143.5053,-17.6333,224.378],[143.4977,-17.6243,222.5329],[143.4805,-17.622,228.5311],[143.4773,-17.6165,226.2505],[143.4803,-17.6134,221.124],[143.4769,-17.6098,220.9578],[143.4576,-17.6116,216.6016],[143.4542,-17.6054,221.2127],[143.4537,-17.601,217.3582],[143.4409,-17.5909,216.5133],[143.4397,-17.5874,213.2748],[143.4338,-17.5844,214.7406],[143.424,-17.583,219.7074],[143.4211,-17.5852,217.0008],[143.4132,-17.5765,222.6167],[143.407,-17.576,222.7874],[143.3987,-17.57,222.4171],[143.3945,-17.5602,222.5018],[143.3894,-17.5597,226.1761],[143.3815,-17.5506,224.0084],[143.3697,-17.551,222.8414],[143.3604,-17.5565,220.8662],[143.3568,-17.5569,220.3844],[143.3421,-17.5538,217.8617],[143.3298,-17.5417,214.6462],[143.3286,-17.5238,218.0631],[143.3228,-17.5214,214.3924],[143.311,-17.5206,212.8884],[143.3067,-17.5256,207.4622],[143.3022,-17.5263,211.1317],[143.2982,-17.5296,205.463],[143.2896,-17.528,211.2908],[143.2782,-17.5186,205.6987],[143.2728,-17.5185,205.3253],[143.2685,-17.5158,203.5855],[143.255,-17.5128,198.9743],[143.2477,-17.5154,192.5266],[143.2286,-17.5136,197.4514],[143.222,-17.5181,211.4906],[143.2135,-17.5166,214.0104],[143.211,-17.5212,213.1308],[143.2127,-17.5369,193.028],[143.2068,-17.5438,199.0151],[143.2051,-17.5529,194.2377],[143.1992,-17.5567,191.9077],[143.1879,-17.5577,192.4166],[143.1857,-17.5534,191.189],[143.1785,-17.5546,190.6339],[143.1721,-17.5605,195.0872],[143.1631,-17.5604,197.0653],[143.1587,-17.5581,187.9819],[143.1438,-17.5613,183.2562],[143.127,-17.5592,185.4586],[143.1248,-17.5647,176.3764],[143.1092,-17.5648,173.9188],[143.0733,-17.5439,174.4904],[143.0708,-17.545,174.7359],[143.0696,-17.5513,169.9802],[143.0664,-17.5539,169.6525],[143.0551,-17.5559,169.6927],[143.0481,-17.5483,167.2884],[143.0191,-17.5372,166.5867],[143.0152,-17.5451,165.8666],[143.0069,-17.5501,164.4443],[143.0032,-17.5473,161.4677],[142.986,-17.5465,161.1699],[142.9836,-17.5485,160.866],[142.9806,-17.545,160.4826],[142.9767,-17.5463,157.6538],[142.9716,-17.5838,144.7015],[142.9741,-17.5961,144.6326],[142.9583,-17.5966,153.1666],[142.9527,-17.594,143.6956],[142.9459,-17.5949,144.2955],[142.9432,-17.5978,142.8297],[142.9251,-17.6044,144.8003],[142.92,-17.6033,143.0071],[142.9065,-17.606,134.3288],[142.8996,-17.6087,139.4864],[142.8911,-17.6171,140.9524],[142.8852,-17.6175,135.997],[142.8798,-17.6203,135.6013],[142.8689,-17.6199,135.4402],[142.8621,-17.622,135.5098],[142.8585,-17.625,135.7733],[142.8521,-17.6229,134.092],[142.849,-17.6242,131.3004],[142.8449,-17.6292,132.0708],[142.8371,-17.6322,130.2478],[142.8217,-17.6308,130.6203],[142.8159,-17.6368,129.7988],[142.8005,-17.6404,128.332],[142.7926,-17.6475,129.316],[142.7881,-17.6469,128.037],[142.7775,-17.6496,132.961],[142.7627,-17.6458,126.1365],[142.7437,-17.6469,126.2772],[142.7328,-17.6451,124.4048],[142.7298,-17.6474,124.4926],[142.724,-17.6483,126.0524],[142.7069,-17.6411,121.8471],[142.677,-17.6359,116.2723],[142.6694,-17.6376,114.8238],[142.6651,-17.6426,117.0688],[142.6474,-17.6511,118.9331],[142.6312,-17.6448,119.16],[142.6202,-17.6454,115.6822],[142.615,-17.6436,114.7287],[142.5934,-17.6427,112.8026],[142.5853,-17.6483,114.8666],[142.5728,-17.6463,114.4103],[142.558,-17.6491,107.9025],[142.5528,-17.6516,110.9312],[142.5369,-17.6515,106.2702],[142.5287,-17.653,104.7027],[142.5153,-17.6616,111.9288],[142.5099,-17.6622,108.7255],[142.5016,-17.6583,111.8835],[142.4921,-17.6564,109.6099],[142.4868,-17.6503,107.1483],[142.4661,-17.6384,104.8543],[142.4536,-17.6343,98.5748],[142.4351,-17.612,104.552],[142.4284,-17.6062,97.8456],[142.4199,-17.6025,99.7353],[142.4056,-17.5792,100.259],[142.3872,-17.5301,94.1674],[142.3678,-17.5076,93.3226],[142.3586,-17.5033,91.2791],[142.3497,-17.5033,91.621],[142.3452,-17.5017,91.9726],[142.3292,-17.5036,91.9293],[142.3272,-17.4999,88.1924],[142.3213,-17.4958,88.5587],[142.3061,-17.4885,89.4875],[142.3026,-17.489,87.9872],[142.2916,-17.4969,85.1355],[142.2844,-17.4999,85.3281],[142.2756,-17.4983,85.0637],[142.268,-17.4915,74.745],[142.2652,-17.4939,86.2702]]]]}
,"properties": {"GID_2": "AUS.7.24_1","GID_0": "AUS","country": "Australia","GID_1": "AUS.7_1","state": "Queensland","NL_NAME_1": "NA","county": "Etheridge","VARNAME_2": "NA","NL_NAME_2": "NA","TYPE_2": "Shire","ENGTYPE_2": "Shire","CC_2": "33100","HASC_2": "AU.QL.ET","name": "Etheridge.county","area_km2": 39323.62,"hist_schema_id": "Elevation0-9000","hist_area_km2": {"75": 24.77,"100": 712.25,"125": 986.96,"150": 1385.65,"175": 1982.64,"200": 2084.95,"225": 1825.46,"250": 1769.26,"275": 1822.53,"300": 1654.79,"325": 1299.21,"350": 1165.89,"375": 1319.43,"400": 1299.91,"425": 1082.99,"450": 1112.19,"475": 1386.14,"500": 1599.18,"525": 1798.53,"550": 1962.44,"575": 1767.71,"600": 1415.87,"625": 1137.02,"650": 1112.73,"675": 1054.79,"700": 925.32,"725": 789.0,"750": 611.39,"775": 405.82,"800": 342.58,"825": 304.93,"850": 279.67,"875": 276.22,"900": 204.52,"925": 161.68,"950": 112.28,"975": 70.43,"1000": 37.35,"1025": 25.19,"1050": 13.94}}}