{"type": "Feature","bbox": [144.0259,-37.0604,144.8536,-36.3852],"geometry": {"type": "MultiPolygon","coordinates": [[[[144.3441,-36.3852,109.9705],[144.3438,-36.4871,147.2696],[144.2097,-36.4875,114.5902],[144.2045,-36.5164,119.1241],[144.1993,-36.5164,119.3716],[144.1993,-36.5245,121.0445],[144.1705,-36.5244,124.6589],[144.1626,-36.5656,133.4739],[144.1744,-36.5823,138.2229],[144.1847,-36.6185,145.6292],[144.1404,-36.6184,148.2232],[144.1405,-36.6473,159.2701],[144.1259,-36.6473,156.5524],[144.1258,-36.662,164.1911],[144.0687,-36.662,160.4148],[144.0687,-36.6915,179.4052],[144.0672,-36.6915,176.8154],[144.0687,-36.6927,179.4052],[144.0687,-36.7202,176.2555],[144.0621,-36.7194,174.1459],[144.0598,-36.7308,178.0958],[144.0683,-36.7318,178.7897],[144.0677,-36.7346,178.6733],[144.0757,-36.7431,183.0718],[144.0713,-36.7664,207.9253],[144.0623,-36.7667,206.4787],[144.0593,-36.7816,200.4956],[144.0479,-36.7922,189.6952],[144.0466,-36.7987,203.4874],[144.0495,-36.7991,196.4781],[144.0331,-36.8855,217.3947],[144.0314,-36.8853,218.1006],[144.0303,-36.891,224.0749],[144.0273,-36.8907,223.6586],[144.0259,-36.8979,228.5916],[144.2228,-36.9215,309.2236],[144.223,-36.9236,310.4662],[144.2283,-36.9224,318.2108],[144.2306,-36.931,339.9242],[144.2405,-36.9506,355.0609],[144.2427,-36.9498,379.4063],[144.2977,-36.957,509.5554],[144.3003,-36.9426,394.4131],[144.3116,-36.944,401.319],[144.313,-36.9466,367.8655],[144.3232,-36.9461,361.7924],[144.3796,-36.9527,298.7631],[144.3782,-36.9551,277.4903],[144.3802,-36.955,276.7114],[144.3821,-36.9572,277.5344],[144.3841,-36.9571,277.5566],[144.3869,-36.9528,306.4092],[144.3905,-36.9532,277.1645],[144.3917,-36.9553,275.2371],[144.3961,-36.9553,271.2882],[144.3994,-36.9436,265.2914],[144.3981,-36.9411,260.7397],[144.4,-36.9397,261.7348],[144.3977,-36.9353,258.4736],[144.4009,-36.9325,257.7212],[144.401,-36.9296,257.8821],[144.4052,-36.9243,254.0721],[144.412,-36.9234,257.8264],[144.4144,-36.9274,251.5334],[144.4135,-36.93,250.8647],[144.4192,-36.9325,253.8551],[144.4215,-36.9355,247.6952],[144.4215,-36.9385,251.5774],[144.4256,-36.9395,252.2],[144.4279,-36.9382,252.4047],[144.4295,-36.9442,243.522],[144.4335,-36.9431,245.2414],[144.4381,-36.9356,238.3104],[144.4423,-36.9371,242.2648],[144.4441,-36.9397,239.8649],[144.4479,-36.9397,236.8747],[144.4495,-36.9412,235.14],[144.4542,-36.9415,237.3818],[144.456,-36.9384,234.9035],[144.4579,-36.9422,234.8918],[144.463,-36.9438,249.5527],[144.4598,-36.9465,226.323],[144.4601,-36.9492,226.6365],[144.4653,-36.95,231.3653],[144.4684,-36.9522,225.0199],[144.4705,-36.9496,224.6268],[144.4733,-36.9542,228.5146],[144.4784,-36.954,225.6202],[144.4799,-36.9558,235.7302],[144.4784,-36.9583,217.7063],[144.4807,-36.9594,227.4482],[144.4798,-36.9609,218.9597],[144.4888,-36.9657,222.3586],[144.4893,-36.9714,215.5227],[144.4941,-36.967,221.5495],[144.4898,-36.9625,211.2028],[144.4911,-36.9616,211.2028],[144.4978,-36.9712,241.2527],[144.5063,-36.9759,262.1918],[144.4927,-37.0505,332.5646],[144.5241,-37.0542,322.2127],[144.5206,-37.0575,325.6131],[144.5405,-37.0604,299.741],[144.5443,-37.0602,257.2791],[144.5456,-37.0568,249.4519],[144.5497,-37.056399999999996,286.3126],[144.5506,-37.0541,244.6638],[144.5493,-37.0523,244.7175],[144.5449,-37.0528,272.0688],[144.5451,-37.0476,255.984],[144.5429,-37.0434,248.2436],[144.5492,-37.0417,237.498],[144.5466,-37.0396,262.0416],[144.5468,-37.0357,233.1418],[144.5452,-37.0343,235.665],[144.544,-37.0282,237.2339],[144.5401,-37.0248,238.201],[144.5423,-37.0226,230.3072],[144.5397,-37.0205,224.8968],[144.5412,-37.0158,234.8591],[144.5454,-37.0132,252.0003],[144.5561,-37.014,297.1708],[144.5604,-37.01,308.5795],[144.5835,-37.0101,308.8508],[144.5836,-37.0057,268.5083],[144.5891,-37.0065,279.1992],[144.5937,-37.01,291.1555],[144.597,-37.0084,281.8594],[144.5971,-37.004,293.9376],[144.6281,-37.0039,312.3994],[144.6322,-37.002,316.1695],[144.6385,-37.0023,302.8416],[144.6437,-37.0054,299.3983],[144.6472,-37.0127,268.3424],[144.6505,-37.0153,275.6802],[144.6567,-37.01,278.837],[144.6623,-37.0087,251.4988],[144.6884,-37.011,263.9078],[144.6913,-37.0057,262.0156],[144.6882,-36.9946,276.315],[144.6914,-36.9932,273.0815],[144.6986,-36.9942,283.0272],[144.7094,-36.9887,306.702],[144.7115,-36.9814,310.9078],[144.7183,-36.9747,316.132],[144.7189,-36.9762,316.132],[144.7345,-36.98,325.8008],[144.734,-36.9821,334.2926],[144.7478,-36.9781,282.0063],[144.7506,-36.9753,278.9889],[144.7485,-36.9678,285.53],[144.7534,-36.963,261.3504],[144.766,-36.9736,265.6787],[144.771,-36.9713,275.0026],[144.7805,-36.9713,347.2566],[144.7805,-36.9696,330.7905],[144.7966,-36.9655,257.1695],[144.7913,-36.952,230.5835],[144.8024,-36.9568,253.9467],[144.8063,-36.9556,244.9538],[144.8002,-36.9394,222.0354],[144.8043,-36.9259,198.2642],[144.8166,-36.9116,182.2748],[144.8224,-36.8997,180.3125],[144.8372,-36.8927,167.2936],[144.8536,-36.8802,163.3288],[144.8509,-36.8795,161.9789],[144.853,-36.875,158.0096],[144.8467,-36.8741,171.0352],[144.8302,-36.8597,177.7203],[144.8312,-36.8555,198.3344],[144.8194,-36.8562,187.8093],[144.8213,-36.8542,190.9527],[144.8186,-36.8525,184.4287],[144.8111,-36.8398,208.1746],[144.8036,-36.8399,215.4995],[144.7986,-36.8326,225.7407],[144.7873,-36.8053,210.8863],[144.7867,-36.7997,207.6703],[144.792,-36.7997,211.411],[144.7917,-36.78,206.6774],[144.7848,-36.7805,190.189],[144.7848,-36.7707,189.279],[144.7947,-36.7707,190.0437],[144.7948,-36.758,177.3246],[144.7924,-36.756,178.2994],[144.7948,-36.7545,181.4146],[144.7947,-36.7507,175.4139],[144.7714,-36.7514,165.5476],[144.7718,-36.7492,159.7928],[144.7669,-36.7473,164.7818],[144.755,-36.7516,171.5398],[144.7503,-36.7576,168.5296],[144.7409,-36.7558,191.5365],[144.7345,-36.7586,199.0996],[144.7288,-36.7582,233.8005],[144.7229,-36.761,252.2237],[144.6791,-36.7612,229.7144],[144.6662,-36.7626,228.3108],[144.6671,-36.7254,194.0961],[144.518,-36.7254,153.9577],[144.5208,-36.7159,156.0668],[144.5188,-36.7142,146.8651],[144.5196,-36.7115,147.5039],[144.5249,-36.7067,150.2921],[144.5266,-36.7019,146.0262],[144.5225,-36.6931,145.8602],[144.5262,-36.6893,147.4177],[144.5325,-36.6919,144.904],[144.5348,-36.6881,144.2986],[144.5317,-36.6857,147.3342],[144.5298,-36.6795,145.8692],[144.531,-36.6723,150.8851],[144.5284,-36.6705,142.6331],[144.5287,-36.6659,144.1365],[144.5252,-36.6631,142.8506],[144.5254,-36.6598,144.3106],[144.5309,-36.6592,140.8544],[144.5375,-36.6555,146.2834],[144.5392,-36.6535,143.1443],[144.5391,-36.6495,140.9056],[144.5457,-36.6468,140.541],[144.5437,-36.6419,140.1747],[144.5489,-36.6325,137.6493],[144.5601,-36.6271,144.3801],[144.5596,-36.6242,139.7482],[144.5639,-36.6207,140.6614],[144.5634,-36.6185,137.6371],[144.5604,-36.6169,136.1952],[144.5618,-36.6134,137.6468],[144.5668,-36.6143,137.1887],[144.5712,-36.6107,135.3988],[144.5711,-36.6079,137.8327],[144.5788,-36.6029,136.5281],[144.5774,-36.5992,137.2331],[144.5813,-36.5968,138.0679],[144.5863,-36.5982,135.5713],[144.5897,-36.5948,135.2784],[144.5834,-36.5847,134.1471],[144.5853,-36.583,135.1473],[144.5892,-36.584,134.5178],[144.5984,-36.5745,133.7492],[144.596,-36.5689,134.467],[144.5871,-36.5625,134.7755],[144.5872,-36.5579,135.9501],[144.6018,-36.5545,132.3803],[144.6061,-36.5549,133.2314],[144.6089,-36.5571,131.6456],[144.6105,-36.5559,131.3925],[144.6114,-36.5529,137.1098],[144.6083,-36.5524,131.5368],[144.6089,-36.55,131.5602],[144.6063,-36.5468,130.5955],[144.6146,-36.5431,133.6295],[144.6171,-36.5378,131.0311],[144.6163,-36.5345,132.4455],[144.6138,-36.5352,130.3382],[144.613,-36.5328,130.6505],[144.6096,-36.5324,130.0968],[144.6084,-36.529,131.0162],[144.6134,-36.5287,134.4285],[144.6201,-36.5259,133.0297],[144.624,-36.5283,132.576],[144.626,-36.5274,135.4558],[144.6264,-36.5248,135.6634],[144.6209,-36.5205,133.0174],[144.6129,-36.5207,128.5611],[144.6103,-36.5168,127.3052],[144.6135,-36.5109,127.7976],[144.6199,-36.509,131.3149],[144.6235,-36.5045,131.1337],[144.6214,-36.5018,129.39],[144.6163,-36.5023,128.2267],[144.6164,-36.5043,125.8517],[144.6151,-36.5045,127.1489],[144.6125,-36.5018,130.9586],[144.6144,-36.4996,134.429],[144.6113,-36.4988,128.5334],[144.6184,-36.493,125.0211],[144.6212,-36.4947,126.1299],[144.6262,-36.4922,129.5473],[144.6229,-36.487,125.5952],[144.6239,-36.4849,127.9843],[144.6215,-36.4846,124.7645],[144.6206,-36.4813,125.4289],[144.6238,-36.4786,125.4591],[144.6294,-36.4778,127.1374],[144.632,-36.4807,124.594],[144.6339,-36.4806,127.4314],[144.6395,-36.4741,126.6083],[144.6465,-36.4716,123.8607],[144.649,-36.4743,121.8008],[144.6547,-36.4726,122.9175],[144.6533,-36.4656,122.3349],[144.6567,-36.4634,121.2016],[144.6592,-36.4638,120.896],[144.6615,-36.4591,122.1246],[144.6656,-36.4611,122.6201],[144.6677,-36.4603,121.7314],[144.6671,-36.4586,120.0061],[144.6715,-36.4571,122.1214],[144.6717,-36.4553,119.7162],[144.6683,-36.4508,121.8816],[144.6701,-36.4477,122.11],[144.6737,-36.4473,122.3999],[144.6719,-36.4431,119.9435],[144.6633,-36.4417,117.6356],[144.6613,-36.4398,117.0],[144.6587,-36.4405,122.3268],[144.6611,-36.4331,120.8068],[144.6661,-36.431,119.0225],[144.6658,-36.4271,119.7531],[144.6696,-36.4241,120.8515],[144.6742,-36.4258,120.9703],[144.6723,-36.4192,120.31],[144.6698,-36.4181,120.9165],[144.6691,-36.4127,117.5854],[144.6653,-36.4108,121.1509],[144.6682,-36.4066,120.9061],[144.4301,-36.4067,114.7685],[144.4302,-36.4113,115.4215],[144.4157,-36.3963,112.5074],[144.3997,-36.4075,117.8764],[144.3694,-36.4078,112.7629],[144.3684,-36.3957,114.9938],[144.3625,-36.3967,116.9722],[144.3616,-36.3942,114.7697],[144.359,-36.3944,112.8553],[144.361,-36.3918,113.4063],[144.3585,-36.3914,112.6713],[144.3583,-36.3852,113.5966],[144.3441,-36.3852,109.9705]]]]}
,"properties": {"GID_2": "AUS.10.25_1","GID_0": "AUS","country": "Australia","GID_1": "AUS.10_1","state": "Victoria","NL_NAME_1": "NA","county": "GreaterBendigo","VARNAME_2": "NA","NL_NAME_2": "NA","TYPE_2": "City","ENGTYPE_2": "City","CC_2": "22620","HASC_2": "AU.VI.GB","name": "GreaterBendigo.county","area_km2": 2999.826,"hist_schema_id": "Elevation0-9000","hist_area_km2": {"100": 5.921,"125": 420.677,"150": 384.092,"175": 454.119,"200": 508.354,"225": 428.259,"250": 295.949,"275": 217.356,"300": 140.583,"325": 65.479,"350": 24.061,"375": 13.107,"400": 11.019,"425": 8.561,"450": 6.594,"475": 6.933,"500": 5.628,"525": 2.136,"550": 0.881,"575": 0.119}}}