{"type":"Feature","properties":{"GID_2":"AUS.9.16_1","GID_0":"AUS","country":"Australia","GID_1":"AUS.9_1","state":"Tasmania","NL_NAME_1":"NA","county":"HuonValley","VARNAME_2":"NA","NL_NAME_2":"NA","TYPE_2":"Municipality","ENGTYPE_2":"Municipality","CC_2":"63010","HASC_2":"AU.TS.HV","name":"HuonValley.county"},
"geometry":{"type": "MultiPolygon","coordinates": [[[[146.3712,-43.7393,15.3303],[146.3722,-43.7405,0.0375],[146.3752,-43.7381,0.0],[146.3709,-43.7358,0.0],[146.3699,-43.7369,0.0],[146.3712,-43.7393,15.3303]]],
[[[146.263,-43.6627,0.0],[146.262,-43.6625,0.0],[146.2604,-43.6634,0.0],[146.2637,-43.6632,0.0],[146.263,-43.6627,0.0]]],
[[[146.2473,-43.6616,0.4457],[146.2475,-43.6615,0.4457],[146.2466,-43.6613,0.0],[146.2469,-43.6617,0.4457],[146.2473,-43.6616,0.4457]]],
[[[146.271,-43.6491,0.0],[146.2709,-43.6494,0.0],[146.2712,-43.6493,0.0],[146.2711,-43.6491,0.0],[146.271,-43.6491,0.0]]],
[[[146.2571,-43.662,1.3276],[146.2553,-43.6619,1.3276],[146.2543,-43.6623,0.0],[146.2579,-43.6625,0.0],[146.2571,-43.662,1.3276]]],
[[[146.2528,-43.6608,0.0],[146.2511,-43.6608,0.0],[146.2486,-43.6624,0.4457],[146.2529,-43.662,0.9817],[146.2528,-43.6608,0.0]]],
[[[146.2669,-43.661,0.3986],[146.2661,-43.6608,0.3986],[146.2645,-43.6614,0.0],[146.2661,-43.662,0.0],[146.2669,-43.661,0.3986]]],
[[[147.1342,-43.2529,0.0],[147.1297,-43.2531,12.8944],[147.1268,-43.2609,14.8236],[147.1278,-43.2643,33.8383],[147.1303,-43.2648,0.0],[147.1327,-43.2619,17.9708],[147.1342,-43.2573,0.0],[147.1329,-43.2539,11.4385],[147.1342,-43.2529,0.0]]],
[[[146.1601,-43.3182,0.0],[146.16,-43.3187,0.0],[146.1611,-43.3183,0.0],[146.1608,-43.3183,0.0],[146.1601,-43.3182,0.0]]],
[[[147.1482,-43.2876,0.0],[147.1472,-43.285,9.8306],[147.138,-43.2902,10.1852],[147.1406,-43.2933,0.8018],[147.1442,-43.2944,1.7454],[147.1473,-43.2914,1.6863],[147.1482,-43.2876,0.0]]],
[[[147.0324,-43.324,0.0],[147.0319,-43.3236,0.0],[147.0312,-43.3239,0.0],[147.0315,-43.3243,0.0],[147.0324,-43.324,0.0]]],
[[[147.0036,-43.1357,0.0],[147.0034,-43.1369,0.0],[147.0052,-43.1309,0.0],[147.0045,-43.1313,0.0],[147.0036,-43.1357,0.0]]],
[[[147.0037,-43.1054,0.0],[147.0036,-43.1061,0.0],[147.0045,-43.1047,0.4591],[147.0043,-43.1046,0.4591],[147.0037,-43.1054,0.0]]],
[[[147.0103,-43.1074,0.3444],[147.0104,-43.1071,0.5743],[147.0099,-43.1075,0.3444],[147.0103,-43.1074,0.3444]]],
[[[147.0105,-43.1067,0.5743],[147.0103,-43.1068,0.3444],[147.0106,-43.1069,0.5743],[147.0107,-43.1067,0.5743],[147.0105,-43.1067,0.5743]]],
[[[147.0391,-43.0597,0.465],[147.0387,-43.0604,0.465],[147.039,-43.0603,0.465],[147.0396,-43.0593,0.0],[147.0391,-43.0597,0.465]]],
[[[147.0294,-43.0763,0.0],[147.0296,-43.0765,0.0],[147.0297,-43.0769,0.0],[147.0299,-43.076,0.0],[147.0294,-43.0763,0.0]]],
[[[147.0078,-43.0972,0.5408],[147.0078,-43.0979,0.5408],[147.0096,-43.0944,1.0166],[147.0089,-43.0947,0.0666],[147.0078,-43.0972,0.5408]]],
[[[147.0397,-43.0586,0.0],[147.0413,-43.0529,0.0],[147.0398,-43.0577,0.6719],[147.0398,-43.0539,0.8921],[147.0308,-43.0584,0.345],[147.0305,-43.0618,0.9287],[147.0248,-43.0706,1.8751],[147.0238,-43.0765,0.1556],[147.0269,-43.0754,1.2839],[147.0235,-43.0774,0.1556],[147.0296,-43.075,0.0],[147.0397,-43.0586,0.0]]],
[[[147.0167,-43.113,1.539],[147.017,-43.1134,1.539],[147.0183,-43.1118,0.105],[147.0172,-43.1118,0.105],[147.0167,-43.113,1.539]]],
[[[147.0083,-43.11,0.0],[147.0088,-43.111,0.0],[147.0093,-43.1081,0.1007],[147.008,-43.1085,0.3493],[147.0083,-43.11,0.0]]],
[[[147.0077,-43.1193,0.261],[147.0096,-43.1161,0.3623],[147.0076,-43.115,0.4476],[147.0078,-43.1139,0.4132],[147.0087,-43.1133,0.0],[147.0074,-43.1127,0.2929],[147.0048,-43.1173,0.2103],[147.006,-43.1184,0.0],[147.0075,-43.1168,0.4618],[147.0031,-43.125,0.0],[147.0053,-43.1237,0.2188],[147.0059,-43.1282,0.0],[147.0031,-43.1316,0.0],[147.0049,-43.1308,0.0],[147.006,-43.1291,0.0],[147.0077,-43.1193,0.261]]],
[[[147.0282,-43.0812,3.7427],[147.0292,-43.0763,0.0],[147.0231,-43.0785,1.246],[147.0197,-43.0817,0.0],[147.0102,-43.099,0.0],[147.0049,-43.1041,0.0],[147.0086,-43.1016,0.7341],[147.0046,-43.1064,1.8686],[146.9999,-43.1207,0.0],[147.0062,-43.1131,0.467],[147.0076,-43.1084,0.3493],[147.0134,-43.1025,0.4942],[147.0136,-43.1045,0.3943],[147.0098,-43.1094,0.1007],[147.0094,-43.1149,0.3623],[147.0082,-43.114,0.4132],[147.0092,-43.1134,0.0],[147.0082,-43.1138,0.4132],[147.0078,-43.115,0.4476],[147.0101,-43.1157,0.3623],[147.0136,-43.1117,0.2542],[147.019,-43.1033,0.4427],[147.0178,-43.0992,3.4845],[147.0202,-43.0907,2.3344],[147.0282,-43.0812,3.7427]]],
[[[145.9212,-43.4184,-0.0094],[145.9209,-43.4177,0.0],[145.92,-43.4186,-0.0094],[145.9207,-43.4193,-0.0094],[145.9212,-43.4184,-0.0094]]],
[[[145.9221,-43.4191,0.2499],[145.9222,-43.42,0.0],[145.9225,-43.4201,0.0],[145.9222,-43.4182,0.2499],[145.9221,-43.4191,0.2499]]],
[[[145.9259,-43.418,0.0],[145.9263,-43.4184,0.0],[145.9265,-43.4178,0.0],[145.9262,-43.4176,0.0],[145.9259,-43.418,0.0]]],
[[[145.9334,-43.4098,0.0],[145.9334,-43.4091,0.0],[145.9332,-43.4091,0.0],[145.933,-43.4099,0.0],[145.9334,-43.4098,0.0]]],
[[[145.9297,-43.3892,0.0],[145.9297,-43.3898,0.0],[145.9303,-43.3897,0.0],[145.9301,-43.3885,2.3925],[145.9297,-43.3892,0.0]]],
[[[145.9318,-43.4096,3.0977],[145.9325,-43.4099,0.0],[145.9328,-43.4092,0.0],[145.9325,-43.4089,0.0],[145.9318,-43.4096,3.0977]]],
[[[145.932,-43.4104,3.0977],[145.9309,-43.4102,3.0977],[145.9313,-43.4115,12.806],[145.9291,-43.4117,0.0],[145.9314,-43.413,1.5302],[145.932,-43.4104,3.0977]]],
[[[146.1554,-43.3791,3.3346],[146.1554,-43.3777,0.0],[146.1536,-43.3783,5.2895],[146.1523,-43.3809,3.9388],[146.1536,-43.3805,3.9388],[146.1554,-43.3791,3.3346]]],
[[[146.1614,-43.3745,0.0],[146.1597,-43.3742,0.0],[146.1577,-43.3757,0.0],[146.1606,-43.3761,0.0],[146.1614,-43.3745,0.0]]],
[[[146.1543,-43.3739,0.0],[146.154,-43.3739,0.0],[146.1539,-43.3739,0.0],[146.1545,-43.3741,0.0],[146.1543,-43.3739,0.0]]],
[[[146.1564,-43.3719,0.0],[146.1555,-43.3712,0.0],[146.154,-43.3712,0.0],[146.1547,-43.3727,9.873],[146.1564,-43.3719,0.0]]],
[[[146.1486,-43.369,2.0054],[146.1478,-43.3679,0.0],[146.1451,-43.3687,0.0],[146.1484,-43.3702,1.0539],[146.1486,-43.369,2.0054]]],
[[[146.1423,-43.367,1.9788],[146.1405,-43.3664,0.0],[146.141,-43.3671,0.0],[146.1444,-43.368,0.0],[146.1434,-43.3672,1.9788],[146.1423,-43.367,1.9788]]],
[[[146.1783,-43.3586,0.0],[146.1788,-43.3588,0.0],[146.179,-43.3588,0.0],[146.1779,-43.3582,0.0],[146.1783,-43.3586,0.0]]],
[[[145.9814,-43.3559,0.0],[145.9819,-43.3565,0.0],[145.9847,-43.3517,0.0],[145.9826,-43.3533,4.7417],[145.9814,-43.3559,0.0]]],
[[[145.9594,-43.3483,0.0],[145.96,-43.348,0.0],[145.9584,-43.3485,0.0],[145.9588,-43.3486,0.0],[145.9594,-43.3483,0.0]]],
[[[145.9606,-43.3454,0.0],[145.9601,-43.345,0.0],[145.9594,-43.345,0.0],[145.9599,-43.3454,0.0],[145.9606,-43.3454,0.0]]],
[[[147.0089,-43.3401,0.0],[147.0085,-43.3399,0.0],[147.0084,-43.3401,0.0],[147.0087,-43.3403,0.0],[147.0089,-43.3401,0.0]]],
[[[145.9619,-43.3454,0.222],[145.9615,-43.3454,0.222],[145.9615,-43.3455,0.222],[145.9619,-43.3456,0.222],[145.9619,-43.3454,0.222]]],
[[[145.9612,-43.3461,0.222],[145.9603,-43.3461,0.0],[145.9593,-43.3471,1.628],[145.9605,-43.3472,1.628],[145.9612,-43.3461,0.222]]],
[[[145.9632,-43.3459,0.0],[145.9626,-43.3458,0.222],[145.9624,-43.3461,0.222],[145.9628,-43.3463,0.0],[145.9632,-43.3459,0.0]]],
[[[147.0465,-43.3364,2.7892],[147.0456,-43.3348,0.0],[147.043,-43.3347,14.351],[147.0372,-43.3375,10.7939],[147.04,-43.3393,10.3312],[147.0458,-43.3387,0.0],[147.0474,-43.3375,0.0],[147.0465,-43.3364,2.7892]]],
[[[145.9683,-43.326,5.6679],[145.9672,-43.3255,5.6679],[145.9664,-43.3287,10.2913],[145.9646,-43.3284,0.0],[145.9662,-43.3295,10.2913],[145.9636,-43.3307,7.1056],[145.9667,-43.3347,0.2591],[145.9652,-43.3348,0.2591],[145.966,-43.3375,0.5019],[145.9676,-43.3352,0.0],[145.9663,-43.33,40.5254],[145.9696,-43.3274,0.0],[145.9683,-43.326,5.6679]]],
[[[146.9988,-43.3364,0.0],[146.9987,-43.3364,0.0],[146.998,-43.3367,0.0],[146.9986,-43.3367,0.0],[146.9988,-43.3364,0.0]]],
[[[146.0491,-43.3391,2.1079],[146.0506,-43.3392,0.0],[146.0507,-43.3391,0.0],[146.0482,-43.3388,2.1079],[146.0491,-43.3391,2.1079]]],
[[[147.0084,-43.3384,2.7998],[147.0085,-43.3372,2.2083],[147.0062,-43.338,0.0],[147.0072,-43.3394,10.1399],[147.0084,-43.3384,2.7998]]],
[[[146.0129,-43.3374,0.0],[146.0103,-43.3374,6.8765],[146.0081,-43.3384,0.0],[146.0117,-43.3382,0.0],[146.0129,-43.3374,0.0]]],
[[[146.9961,-43.338,0.0],[146.9958,-43.3379,0.0],[146.9956,-43.3379,0.0],[146.9956,-43.3382,0.0],[146.9961,-43.338,0.0]]],
[[[146.997,-43.3376,0.0],[146.9967,-43.3377,0.0],[146.9966,-43.338,0.0],[146.9975,-43.3379,0.0],[146.997,-43.3376,0.0]]],
[[[146.9788,-43.3263,0.9643],[146.9808,-43.3263,0.8211],[146.9778,-43.3259,0.9857],[146.9766,-43.3263,0.1034],[146.9771,-43.3264,0.1034],[146.9788,-43.3263,0.9643]]],
[[[145.9685,-43.3211,0.0],[145.967,-43.3233,0.0],[145.9701,-43.3257,4.8104],[145.9709,-43.3238,18.7208],[145.9685,-43.3211,0.0]]],
[[[146.9772,-43.3255,0.8555],[146.9768,-43.3256,0.8555],[146.9768,-43.3257,0.8555],[146.9776,-43.3256,0.9857],[146.9772,-43.3255,0.8555]]],
[[[147.0417,-43.331,0.0],[147.0414,-43.3313,0.0],[147.0419,-43.3319,0.0],[147.042,-43.3313,0.0],[147.0417,-43.331,0.0]]],
[[[146.9876,-43.3286,0.3642],[146.9872,-43.3275,13.8765],[146.9846,-43.3278,15.9961],[146.988,-43.33,2.8359],[146.9876,-43.3286,0.3642]]],
[[[146.9857,-43.3314,0.0],[146.9872,-43.3315,0.0],[146.9873,-43.3315,0.0],[146.9845,-43.3305,0.1412],[146.9857,-43.3314,0.0]]],
[[[145.9659,-43.3267,0.9997],[145.9656,-43.3265,0.9997],[145.9659,-43.3272,0.9997],[145.9661,-43.3269,0.9997],[145.9659,-43.3267,0.9997]]],
[[[145.9963,-43.3284,0.0],[145.9942,-43.329,17.1211],[145.9959,-43.3313,0.0],[145.9966,-43.3291,0.0],[145.9963,-43.3284,0.0]]],
[[[146.9797,-43.3285,0.363],[146.9829,-43.3283,0.1542],[146.9766,-43.3268,0.1034],[146.9771,-43.3273,0.1034],[146.9797,-43.3285,0.363]]],
[[[146.9727,-43.4483,0.0],[146.9737,-43.448,0.0],[146.9738,-43.4473,0.0],[146.9729,-43.4474,0.0],[146.9727,-43.4483,0.0]]],
[[[146.0063,-43.4594,4.787],[146.0072,-43.459,4.787],[146.0057,-43.458,1.0269],[146.0055,-43.4585,1.0269],[146.0063,-43.4594,4.787]]],
[[[146.0108,-43.4588,34.1169],[146.0101,-43.4582,3.314],[146.0089,-43.4587,3.314],[146.0094,-43.459,3.314],[146.0108,-43.4588,34.1169]]],
[[[146.0087,-43.4579,1.1318],[146.0083,-43.4573,1.1318],[146.0064,-43.4577,3.9138],[146.0075,-43.4589,4.787],[146.0087,-43.4579,1.1318]]],
[[[146.9727,-43.4465,0.0],[146.9722,-43.4465,0.0],[146.972,-43.4468,0.0],[146.9729,-43.4466,0.0],[146.9727,-43.4465,0.0]]],
[[[146.0034,-43.4384,1.4909],[146.0017,-43.4383,0.0],[146.0011,-43.4388,0.0],[146.0017,-43.4393,0.0],[146.0034,-43.4384,1.4909]]],
[[[145.9668,-43.4282,0.0],[145.9672,-43.4279,0.0],[145.9661,-43.4274,0.0],[145.9662,-43.4278,0.0],[145.9668,-43.4282,0.0]]],
[[[145.9996,-43.4258,1.1905],[145.9994,-43.4258,1.1905],[145.9995,-43.4261,1.1905],[145.9996,-43.426,1.1905],[145.9996,-43.4258,1.1905]]],
[[[146.0001,-43.4256,0.2976],[146.0,-43.4254,0.2976],[145.9996,-43.4258,1.1905],[146.0001,-43.4257,0.2976],[146.0001,-43.4256,0.2976]]],
[[[145.9536,-43.4247,0.0],[145.9537,-43.4248,0.0],[145.9539,-43.4247,0.0],[145.9537,-43.4246,0.0],[145.9536,-43.4247,0.0]]],
[[[145.953,-43.4238,0.0],[145.9528,-43.4238,0.0],[145.9527,-43.424,0.0],[145.9529,-43.4241,0.0],[145.953,-43.4238,0.0]]],
[[[145.934,-43.4195,2.0775],[145.932,-43.4195,0.0],[145.9318,-43.4211,0.0],[145.9348,-43.4202,0.0],[145.934,-43.4195,2.0775]]],
[[[145.9592,-43.4247,0.0],[145.9581,-43.4247,0.0],[145.9583,-43.4259,0.0],[145.9597,-43.4254,0.0],[145.9592,-43.4247,0.0]]],
[[[145.9696,-43.4256,0.0],[145.97,-43.4259,0.0],[145.9698,-43.4245,0.0],[145.9695,-43.425,0.0],[145.9696,-43.4256,0.0]]],
[[[145.9705,-43.4124,2.6395],[145.9677,-43.4133,18.5058],[145.9677,-43.4173,15.7716],[145.9645,-43.419,0.0],[145.9633,-43.4216,9.0508],[145.9637,-43.4235,3.4755],[145.9671,-43.4256,0.0],[145.9695,-43.4241,0.0],[145.9677,-43.4195,10.8841],[145.9713,-43.4184,0.0],[145.9699,-43.4165,11.2831],[145.9705,-43.4124,2.6395]]],
[[[146.2638,-43.1133,329.979],[146.2222,-43.1188,779.4004],[146.0891,-43.0539,899.3652],[145.9781,-43.0392,38.9266],[145.9796,-43.0431,40.1668],[145.9752,-43.0484,30.4398],[145.9765,-43.0543,38.7774],[145.9749,-43.0557,36.8411],[145.9757,-43.0587,37.0051],[145.9745,-43.0613,33.5167],[145.9785,-43.0623,37.3487],[145.9808,-43.0675,30.3377],[145.9794,-43.0696,31.3088],[145.982,-43.0724,26.565],[145.9785,-43.0737,29.4713],[145.9779,-43.0755,29.1163],[145.9717,-43.0766,29.7331],[145.9739,-43.0777,28.9258],[145.9772,-43.0842,27.9423],[145.9793,-43.0851,26.8783],[145.98,-43.0904,28.2434],[145.9853,-43.0886,25.6669],[145.9848,-43.0925,26.3571],[145.9886,-43.0913,26.1118],[145.9903,-43.0941,25.6388],[145.9884,-43.0977,26.0258],[145.9927,-43.1006,22.9073],[145.9924,-43.1047,33.1376],[145.989,-43.1065,21.8379],[145.9861,-43.1146,62.8549],[145.9839,-43.1162,21.3138],[145.9854,-43.1193,20.6328],[145.9826,-43.1254,39.61],[145.9796,-43.1276,38.6327],[145.9827,-43.1349,32.3103],[145.9788,-43.1349,26.5014],[145.9775,-43.1312,38.3755],[145.966,-43.1312,32.4261],[145.9641,-43.1275,52.1542],[145.9604,-43.1282,25.4131],[145.9558,-43.1351,26.7996],[145.9559,-43.1394,23.7765],[145.9455,-43.1436,42.0361],[145.9423,-43.1499,63.6578],[145.9357,-43.152,19.6554],[145.9336,-43.1565,67.2058],[145.9256,-43.1579,19.1511],[145.9212,-43.1636,2.8469],[145.921,-43.172,1.4629],[145.9294,-43.1765,0.0],[145.9277,-43.185,0.0],[145.9303,-43.1882,0.0],[145.9341,-43.1883,1.1346],[145.9332,-43.1905,0.1254],[145.9373,-43.1915,5.7306],[145.9292,-43.1931,17.8739],[145.9199,-43.1899,5.7615],[145.9151,-43.1941,0.0],[145.9182,-43.1991,5.1731],[145.9281,-43.2047,11.2839],[145.9253,-43.2094,2.5295],[145.9209,-43.2072,1.2332],[145.9167,-43.2094,1.2778],[145.9176,-43.2132,0.0],[145.9217,-43.2118,5.1392],[145.9273,-43.215,0.0],[145.9266,-43.2136,2.5026],[145.9287,-43.2118,1.4841],[145.9317,-43.2121,0.0],[145.9317,-43.2149,0.0],[145.9356,-43.2207,1.8819],[145.9382,-43.2234,0.0],[145.9451,-43.2251,4.3241],[145.9464,-43.23,0.0],[145.9602,-43.2308,0.0],[145.9615,-43.2287,1.8842],[145.9651,-43.2284,1.1576],[145.9709,-43.2304,0.8382],[145.9689,-43.2281,2.935],[145.9706,-43.2293,4.7182],[145.974,-43.2338,0.7187],[145.9758,-43.2323,12.1981],[145.9744,-43.2355,0.0],[145.9763,-43.2345,13.8027],[145.9798,-43.2348,7.1468],[145.976,-43.2348,7.5371],[145.9745,-43.2394,0.0],[145.9721,-43.2412,0.979],[145.9724,-43.2456,1.7723],[145.9682,-43.2476,5.0035],[145.9714,-43.2506,22.8081],[145.9717,-43.2531,9.3565],[145.9703,-43.255,3.676],[145.9712,-43.2585,23.8191],[145.967,-43.262,0.0],[145.9681,-43.2645,23.3526],[145.9666,-43.2658,0.0],[145.9737,-43.2694,25.2292],[145.9731,-43.273,0.0],[145.969,-43.2751,0.0],[145.9704,-43.2761,4.909],[145.9688,-43.2791,5.9931],[145.9681,-43.2774,0.0],[145.964,-43.2789,6.8957],[145.9582,-43.2782,13.5735],[145.9534,-43.2811,6.1643],[145.9552,-43.2831,0.0],[145.96,-43.2832,4.6147],[145.9602,-43.2848,0.9719],[145.9635,-43.2857,6.4111],[145.9623,-43.2908,1.7075],[145.958,-43.2905,0.0],[145.9608,-43.295,0.4391],[145.9665,-43.2964,0.0],[145.9677,-43.2989,78.0679],[145.9662,-43.3005,0.0],[145.9684,-43.303,0.0],[145.9738,-43.3054,5.546],[145.9766,-43.3033,3.4693],[145.983,-43.3047,3.478],[145.9817,-43.3049,3.478],[145.9841,-43.3108,4.1214],[145.979,-43.3152,0.0],[145.9815,-43.3211,28.1165],[145.9836,-43.3227,18.8864],[145.9906,-43.3232,0.0],[145.9964,-43.3218,0.0],[145.9948,-43.3205,3.0068],[145.998,-43.3191,19.9011],[146.0015,-43.3212,0.0],[146.0046,-43.3196,4.1601],[146.0066,-43.3218,7.8277],[146.005,-43.323,5.0199],[146.0044,-43.329,19.1933],[146.0025,-43.3306,19.0484],[145.9972,-43.3308,0.0],[145.9999,-43.3324,0.0],[146.0048,-43.3312,24.2822],[146.004,-43.3354,1.3857],[146.0078,-43.3318,12.8625],[146.0085,-43.3345,3.7381],[146.0109,-43.3333,16.6784],[146.0102,-43.3352,0.0],[146.0175,-43.3345,22.6151],[146.017,-43.337,3.1678],[146.0255,-43.3379,37.2971],[146.0279,-43.3423,1.4439],[146.0309,-43.3419,0.0],[146.0393,-43.3364,0.0],[146.0391,-43.3328,40.7905],[146.0442,-43.3363,0.0],[146.0513,-43.3366,1.9646],[146.0505,-43.3356,4.537],[146.0525,-43.3326,9.6644],[146.0565,-43.3344,3.38],[146.059,-43.3336,1.0775],[146.0565,-43.3317,0.4781],[146.0596,-43.3282,6.3969],[146.0578,-43.3258,0.0],[146.051,-43.3242,3.7597],[146.0509,-43.3228,3.1083],[146.0523,-43.3219,0.0],[146.0494,-43.3217,3.1083],[146.0527,-43.3165,0.5828],[146.0514,-43.312,9.9134],[146.0612,-43.3071,0.9385],[146.0561,-43.3035,0.0],[146.0528,-43.3059,5.4939],[146.052,-43.3038,2.1628],[146.0587,-43.295,4.1933],[146.0644,-43.2974,2.7229],[146.0632,-43.2936,5.7381],[146.0653,-43.295,0.0],[146.0638,-43.2905,0.0],[146.0671,-43.2894,9.6783],[146.0657,-43.2977,2.7229],[146.0571,-43.3008,0.0],[146.0603,-43.3008,7.5883],[146.059,-43.3045,4.0997],[146.0623,-43.3058,3.0409],[146.0628,-43.3037,7.6037],[146.0651,-43.3059,30.611],[146.0655,-43.3093,7.1547],[146.0698,-43.3096,3.6652],[146.0688,-43.3111,3.6652],[146.0708,-43.3115,2.7864],[146.0691,-43.3125,0.0],[146.0714,-43.3154,0.0],[146.0703,-43.3222,4.9301],[146.0726,-43.3247,12.087],[146.0718,-43.3274,0.0],[146.0745,-43.3281,6.1479],[146.0773,-43.3313,5.9375],[146.0771,-43.334,2.7304],[146.0843,-43.3402,0.9972],[146.0857,-43.3396,0.0],[146.0843,-43.3347,14.2918],[146.0848,-43.3257,8.1699],[146.0874,-43.3256,7.7036],[146.091,-43.3333,33.2688],[146.0911,-43.3393,8.0584],[146.0967,-43.3412,20.069],[146.099,-43.3443,7.5938],[146.1009,-43.3432,16.6486],[146.1005,-43.3445,7.5938],[146.1041,-43.3437,11.1562],[146.1072,-43.3454,0.0],[146.1102,-43.3438,8.6273],[146.1093,-43.3453,2.5292],[146.1119,-43.3484,0.6509],[146.1169,-43.3489,5.3888],[146.1202,-43.3469,7.5288],[146.1303,-43.3495,21.6518],[146.1364,-43.3456,0.9852],[146.1388,-43.3369,2.2783],[146.1359,-43.3348,2.7232],[146.1392,-43.3336,2.2124],[146.1387,-43.3297,5.8541],[146.1412,-43.3223,22.6034],[146.1473,-43.3193,0.7658],[146.149,-43.3156,9.4717],[146.1525,-43.3197,0.0],[146.153,-43.3151,0.0],[146.1576,-43.3113,1.9916],[146.1546,-43.3099,1.0213],[146.1571,-43.3061,0.0],[146.152,-43.3077,4.3793],[146.1521,-43.3027,4.3205],[146.157,-43.2994,1.6869],[146.1534,-43.2988,1.3726],[146.1574,-43.2985,1.6869],[146.1684,-43.291,1.6619],[146.169,-43.2911,2.088],[146.1702,-43.2923,5.9773],[146.1711,-43.2924,6.4888],[146.1713,-43.2932,1.8578],[146.1728,-43.2936,1.8578],[146.1735,-43.2948,11.2685],[146.1711,-43.2997,0.0],[146.1744,-43.2975,24.112],[146.1761,-43.2983,0.0],[146.1765,-43.3047,7.9055],[146.172,-43.3116,3.8868],[146.1715,-43.3192,7.4049],[146.1768,-43.3243,1.4916],[146.1759,-43.3264,0.0],[146.181,-43.3269,0.9548],[146.1815,-43.32,0.3299],[146.1868,-43.3204,2.4932],[146.1834,-43.3175,1.3286],[146.1848,-43.3158,3.347],[146.1869,-43.3166,0.0],[146.1891,-43.3152,1.5289],[146.1972,-43.3174,2.9823],[146.199,-43.3222,2.4637],[146.2051,-43.3254,17.6953],[146.2086,-43.3305,7.5365],[146.2138,-43.3291,6.1911],[146.2148,-43.3234,0.0],[146.2192,-43.3211,16.3448],[146.2216,-43.3218,0.0],[146.2218,-43.3235,0.1567],[146.2178,-43.3261,0.0],[146.224,-43.325,0.1008],[146.2246,-43.3234,0.3007],[146.2284,-43.3256,1.3167],[146.2316,-43.3226,1.2535],[146.2319,-43.3239,1.837],[146.2299,-43.3274,0.0],[146.2241,-43.3286,0.0],[146.2228,-43.3325,13.1234],[146.2247,-43.3387,18.3113],[146.2235,-43.3451,2.9234],[146.2253,-43.3482,6.1698],[146.2247,-43.351,6.0002],[146.2278,-43.3557,1.1775],[146.2266,-43.361,6.5455],[146.2231,-43.3633,31.5522],[146.2129,-43.3641,7.7952],[146.2199,-43.3703,0.0],[146.2187,-43.373,0.0],[146.2254,-43.3759,12.4702],[146.2249,-43.3811,9.5778],[146.2271,-43.3839,1.8941],[146.2244,-43.384,0.0],[146.2229,-43.3858,2.6005],[146.2235,-43.3846,2.6005],[146.2241,-43.3838,0.1406],[146.2195,-43.3869,4.9447],[146.2203,-43.3891,2.0605],[146.2201,-43.3891,2.1524],[146.2192,-43.3873,4.9447],[146.2193,-43.3858,0.0],[146.2163,-43.3859,0.0],[146.2162,-43.3823,0.0],[146.2091,-43.3756,5.4204],[146.2084,-43.3685,1.0334],[146.2119,-43.3663,0.0],[146.2103,-43.3636,3.1406],[146.1887,-43.3636,9.233],[146.1848,-43.363,20.7433],[146.1822,-43.3602,5.2482],[146.1772,-43.362,31.1124],[146.1664,-43.3617,3.6715],[146.1639,-43.3653,3.2643],[146.1554,-43.3628,0.0],[146.1598,-43.3645,3.434],[146.1603,-43.3672,0.0],[146.1654,-43.3708,4.6784],[146.1639,-43.3745,1.4664],[146.1666,-43.3748,0.0],[146.1675,-43.3795,2.7086],[146.1744,-43.3787,1.4112],[146.1768,-43.3822,0.0],[146.176,-43.3835,5.1309],[146.1697,-43.3837,4.0941],[146.1646,-43.3819,2.8222],[146.1591,-43.3856,0.0],[146.1592,-43.3909,1.1491],[146.1569,-43.3921,5.3237],[146.15,-43.3874,13.2907],[146.1474,-43.3778,0.0],[146.1405,-43.3752,4.0521],[146.1346,-43.3765,0.0],[146.1371,-43.3773,12.3612],[146.1345,-43.3809,15.0393],[146.1357,-43.3841,1.5011],[146.1415,-43.395,0.0],[146.1441,-43.3958,12.7778],[146.1418,-43.3968,0.0],[146.1414,-43.3988,0.0],[146.1443,-43.4028,9.2823],[146.143,-43.4066,6.8238],[146.1439,-43.4081,0.333],[146.1499,-43.4101,0.4088],[146.15,-43.4128,2.4997],[146.1521,-43.4127,7.1385],[146.1522,-43.4153,7.7889],[146.1558,-43.4143,11.0238],[146.1591,-43.415,1.5972],[146.1642,-43.4128,0.615],[146.1637,-43.4119,0.615],[146.1639,-43.4103,0.5868],[146.1642,-43.4108,0.5868],[146.1638,-43.4118,0.615],[146.1641,-43.4124,0.615],[146.1686,-43.4111,1.9923],[146.1714,-43.4141,0.6647],[146.1711,-43.4165,0.6235],[146.1664,-43.4188,2.8322],[146.1653,-43.4186,2.8322],[146.166,-43.4174,0.9714],[146.1627,-43.4183,5.7414],[146.1613,-43.4163,1.2242],[146.1562,-43.4147,2.3498],[146.1518,-43.4156,7.7889],[146.151,-43.4143,1.9572],[146.1514,-43.413,1.9572],[146.1488,-43.413,3.4713],[146.1482,-43.4099,0.4088],[146.1445,-43.4097,6.1904],[146.1401,-43.4066,0.7299],[146.1409,-43.4043,5.6717],[146.143,-43.4036,0.0],[146.1422,-43.4015,3.1152],[146.1389,-43.4002,2.3557],[146.1392,-43.3913,3.453],[146.136,-43.3859,6.494],[146.1335,-43.3888,2.7194],[146.1325,-43.3868,3.5282],[146.1328,-43.3846,6.8738],[146.1342,-43.3863,6.3007],[146.1341,-43.3825,15.636],[146.1304,-43.3815,2.903],[146.1301,-43.3791,0.0],[146.1282,-43.3787,2.3392],[146.1298,-43.3757,0.0],[146.1267,-43.3737,0.8643],[146.1296,-43.3723,12.3772],[146.1323,-43.3737,0.0],[146.1372,-43.373,0.0],[146.1288,-43.3648,4.5676],[146.1306,-43.3627,6.4238],[146.1355,-43.3626,1.2245],[146.1322,-43.3609,2.4535],[146.1329,-43.3595,1.0145],[146.1307,-43.3585,5.2189],[146.1305,-43.3555,2.0482],[146.1279,-43.3558,3.9427],[146.1282,-43.3546,3.9427],[146.1238,-43.3521,2.0476],[146.121,-43.3534,14.6444],[146.1164,-43.3517,4.0189],[146.1129,-43.3521,2.5707],[146.1153,-43.3536,5.636],[146.1139,-43.3549,12.8774],[146.1118,-43.352,2.5707],[146.1079,-43.3525,4.5561],[146.1087,-43.3512,0.0],[146.1067,-43.3484,15.2455],[146.1002,-43.3493,1.3664],[146.0992,-43.3481,1.3664],[146.1013,-43.3459,0.0],[146.0961,-43.347,0.0],[146.095,-43.3517,12.2935],[146.0917,-43.3497,7.9452],[146.0882,-43.343,5.3313],[146.0862,-43.342,0.7605],[146.0896,-43.3503,4.2241],[146.0862,-43.3474,1.5573],[146.0829,-43.3488,5.8594],[146.079,-43.3466,10.7985],[146.0752,-43.3494,0.0],[146.0683,-43.3442,0.0],[146.0648,-43.3452,4.887],[146.0607,-43.3423,2.7658],[146.0606,-43.3437,12.171],[146.0583,-43.3445,6.1781],[146.0634,-43.3477,3.7137],[146.0663,-43.3456,4.3562],[146.0648,-43.3496,3.6049],[146.0696,-43.3534,0.0],[146.0761,-43.355,1.1909],[146.0909,-43.364,14.5062],[146.0935,-43.3677,4.1683],[146.0904,-43.3704,2.1398],[146.0846,-43.3695,0.0],[146.0846,-43.3709,3.9169],[146.0841,-43.3695,0.0],[146.0833,-43.3709,2.3476],[146.0771,-43.3692,0.3851],[146.0763,-43.3667,0.0],[146.0712,-43.3661,2.0763],[146.0705,-43.3651,2.0763],[146.0755,-43.3622,0.9401],[146.0778,-43.3586,5.8745],[146.0731,-43.3578,0.0],[146.0684,-43.355,6.399],[146.068,-43.3532,0.0],[146.0611,-43.3526,4.3472],[146.0563,-43.3496,13.1704],[146.0522,-43.3501,13.4255],[146.052,-43.3499,13.4255],[146.0521,-43.3489,2.4243],[146.0525,-43.3485,2.4243],[146.046,-43.3464,11.0947],[146.0345,-43.3471,11.4215],[146.0304,-43.346,0.0],[146.0223,-43.3473,6.6856],[146.0122,-43.3443,0.0],[146.0031,-43.345,16.1683],[146.001,-43.3416,12.4912],[146.0068,-43.3397,0.0],[145.9927,-43.3359,19.5395],[145.9914,-43.3315,22.4806],[145.9869,-43.3293,0.0],[145.9818,-43.3333,33.6639],[145.9813,-43.3373,2.9736],[145.9781,-43.3397,2.8879],[145.9801,-43.3405,50.2832],[145.9762,-43.3435,19.1182],[145.9769,-43.3461,28.1813],[145.9751,-43.3492,0.0],[145.9788,-43.3532,0.0],[145.9817,-43.352,1.6945],[145.9842,-43.3485,8.4698],[145.9892,-43.3479,20.9939],[145.9921,-43.3511,7.0982],[145.9918,-43.3628,9.9433],[145.9931,-43.3653,0.0],[145.9965,-43.3653,10.8795],[145.9974,-43.3668,0.0],[145.9999,-43.3662,2.3146],[145.9993,-43.3649,2.1782],[145.9995,-43.3648,2.1782],[146.0,-43.3649,3.1701],[145.9995,-43.3649,2.1782],[146.0002,-43.3657,3.1701],[146.0,-43.3663,5.7716],[145.9979,-43.3671,0.0],[145.9992,-43.3677,8.9412],[145.9985,-43.3748,17.925],[145.9943,-43.3786,4.5781],[145.9981,-43.3847,24.0792],[145.9937,-43.3943,0.0],[145.9868,-43.3945,0.0],[145.9837,-43.3885,6.0166],[145.9893,-43.3804,1.4913],[145.9898,-43.3772,1.6531],[145.9921,-43.3768,1.2466],[145.9935,-43.374,11.2044],[145.9905,-43.3728,2.9832],[145.9879,-43.3615,0.0],[145.9816,-43.3576,0.0],[145.9783,-43.3582,5.2022],[145.9775,-43.3556,0.0],[145.9701,-43.3571,8.5571],[145.9702,-43.3595,24.0726],[145.9688,-43.3598,5.2436],[145.9693,-43.3616,0.0],[145.9748,-43.3618,7.7784],[145.9758,-43.3631,9.0394],[145.9748,-43.3664,0.0],[145.9708,-43.3697,5.1177],[145.9649,-43.3696,15.4485],[145.9629,-43.3682,8.3221],[145.962,-43.3634,14.5473],[145.9533,-43.3594,0.0],[145.9508,-43.3611,14.9168],[145.9512,-43.3644,25.9704],[145.9488,-43.3641,0.0],[145.9475,-43.3652,0.0],[145.9485,-43.3669,10.2539],[145.946,-43.3671,2.1057],[145.9455,-43.368,0.3875],[145.9478,-43.3692,11.786],[145.9463,-43.3718,9.0646],[145.9356,-43.3697,33.1487],[145.9328,-43.3699,26.3356],[145.9331,-43.3718,38.1287],[145.9321,-43.37,26.3356],[145.9307,-43.3721,5.1399],[145.9331,-43.3749,43.1063],[145.931,-43.3764,0.0676],[145.9319,-43.3775,0.0676],[145.9303,-43.3794,7.4141],[145.925,-43.379,1.3673],[145.9215,-43.3813,1.8265],[145.9247,-43.3859,9.6749],[145.9295,-43.3859,59.8501],[145.9291,-43.388,0.0],[145.93,-43.3878,1.6656],[145.9311,-43.3898,0.0],[145.9321,-43.3886,103.4296],[145.9343,-43.3909,0.0],[145.938,-43.3902,0.0],[145.9481,-43.3813,18.2618],[145.9498,-43.383,0.0],[145.9515,-43.3819,28.4932],[145.9517,-43.3833,0.0],[145.9549,-43.3819,11.3951],[145.9646,-43.3827,7.4466],[145.9683,-43.3845,8.9218],[145.9764,-43.3952,13.8442],[145.9764,-43.399,5.8989],[145.9724,-43.4023,8.0349],[145.9703,-43.4021,2.1216],[145.9712,-43.4034,7.6936],[145.9771,-43.4052,2.0481],[145.9927,-43.4056,1.8529],[145.9967,-43.4081,5.989],[145.9974,-43.4069,6.6123],[145.9951,-43.4127,6.0937],[145.9967,-43.4145,22.5096],[145.9962,-43.42,5.9527],[145.9984,-43.4211,35.1412],[145.9966,-43.4238,3.3452],[146.0009,-43.4232,5.9874],[146.0024,-43.4275,49.7116],[145.9993,-43.4317,31.5974],[146.0,-43.434,0.6863],[146.0017,-43.4327,31.4022],[146.001,-43.4335,0.6863],[146.0031,-43.435,26.6506],[146.001,-43.4378,0.2888],[146.0042,-43.438,31.0492],[146.0056,-43.4402,14.5402],[146.0043,-43.4422,0.0],[146.0066,-43.4413,10.9733],[146.0085,-43.445,0.0],[146.0116,-43.4446,34.7085],[146.0133,-43.4475,70.2853],[146.0119,-43.4492,10.4099],[146.018,-43.4551,3.7022],[146.0163,-43.4563,26.6764],[146.0131,-43.4554,0.7289],[146.0133,-43.4562,0.7289],[146.0148,-43.4571,26.6764],[146.014,-43.4578,3.1105],[146.0118,-43.4562,0.0],[146.0117,-43.4588,34.1169],[146.0087,-43.4599,14.8474],[146.0078,-43.4629,0.0],[146.0057,-43.4639,0.0],[146.0078,-43.4666,0.0],[146.01,-43.4664,1.0156],[146.0101,-43.4651,48.6562],[146.013,-43.4646,0.0],[146.0149,-43.4594,33.8997],[146.0248,-43.4609,6.8491],[146.0292,-43.4643,27.8948],[146.032,-43.4682,19.819],[146.0278,-43.4795,0.0],[146.0275,-43.4882,0.0],[146.0291,-43.4909,33.8951],[146.0359,-43.495,23.1127],[146.0369,-43.5002,0.0],[146.0358,-43.5027,0.9225],[146.0402,-43.5051,142.1835],[146.0398,-43.5076,51.5923],[146.0428,-43.5085,3.8137],[146.0416,-43.5106,10.4561],[146.0427,-43.512,7.4441],[146.0407,-43.5133,0.0],[146.0419,-43.514,33.6754],[146.0395,-43.516,8.0868],[146.04,-43.5195,31.7682],[146.0362,-43.5209,0.0],[146.0383,-43.525,79.125],[146.0379,-43.5278,76.4679],[146.0409,-43.5306,17.7654],[146.041,-43.5337,17.5195],[146.0385,-43.5337,3.7399],[146.0395,-43.5368,41.1138],[146.0376,-43.5385,31.1829],[146.0403,-43.5422,22.8548],[146.0345,-43.5391,0.0],[146.0349,-43.5407,1.4146],[146.0338,-43.5399,1.4146],[146.038,-43.5479,132.5008],[146.0366,-43.5489,0.0],[146.0372,-43.5513,75.8834],[146.0339,-43.5548,5.387],[146.035,-43.5555,50.3873],[146.0329,-43.5563,63.8734],[146.0351,-43.5614,79.1077],[146.0323,-43.5675,9.3872],[146.0296,-43.5681,7.2626],[146.0311,-43.571,32.0657],[146.0341,-43.5705,8.8465],[146.0346,-43.5675,65.0661],[146.0395,-43.5641,0.0],[146.0428,-43.5582,29.2593],[146.0419,-43.556399999999996,34.3761],[146.0441,-43.5562,13.1663],[146.0446,-43.5532,45.173],[146.0462,-43.5524,44.9026],[146.0493,-43.5543,0.0],[146.0496,-43.5518,13.2276],[146.0536,-43.5512,75.4972],[146.0605,-43.553,19.1407],[146.0622,-43.5556,6.46],[146.0658,-43.5549,20.6488],[146.0699,-43.5565,0.0],[146.0751,-43.5492,0.0],[146.0758,-43.5436,20.7364],[146.0795,-43.541,29.2319],[146.0831,-43.5419,0.0],[146.086,-43.5404,8.6721],[146.0908,-43.5425,52.8082],[146.0938,-43.5489,31.6456],[146.0916,-43.5524,5.1892],[146.0946,-43.5528,54.322],[146.0948,-43.5566,0.0],[146.0971,-43.5544,120.2453],[146.1006,-43.5557,6.5158],[146.1025,-43.5545,102.0795],[146.1041,-43.557,1.0969],[146.1099,-43.5571,5.6085],[146.1129,-43.5517,47.8843],[146.1073,-43.5443,0.0],[146.1088,-43.5413,18.449],[146.1107,-43.5417,0.205],[146.1072,-43.5316,0.0],[146.1081,-43.529,3.7211],[146.1103,-43.5302,0.0],[146.1083,-43.527,12.9565],[146.1101,-43.5273,0.0],[146.11,-43.5258,8.9526],[146.1123,-43.525,0.0],[146.1105,-43.5235,9.1977],[146.1135,-43.5238,16.4681],[146.1162,-43.5272,2.8346],[146.1182,-43.5274,4.5792],[146.118,-43.5263,4.5792],[146.1217,-43.5267,0.0],[146.1213,-43.522,52.4092],[146.1231,-43.5216,0.0],[146.1289,-43.5259,6.6541],[146.1284,-43.5212,7.5587],[146.1365,-43.5183,19.959],[146.1382,-43.521,40.0499],[146.1415,-43.5203,42.7378],[146.1456,-43.5284,1.9375],[146.1472,-43.5283,1.6389],[146.1475,-43.5264,31.0934],[146.1495,-43.5257,24.1338],[146.1472,-43.5222,19.4239],[146.1423,-43.5042,0.0],[146.148,-43.5015,0.0],[146.158,-43.5018,0.0],[146.1591,-43.5,9.6465],[146.1586,-43.502,15.9503],[146.1567,-43.5019,0.0],[146.1587,-43.5046,14.5975],[146.1569,-43.5064,5.4952],[146.1566,-43.5102,13.1265],[146.1615,-43.5164,0.5926],[146.1711,-43.511,59.062],[146.1766,-43.5106,6.2355],[146.1795,-43.5141,67.1193],[146.1791,-43.5159,54.3075],[146.1808,-43.5165,8.1354],[146.1795,-43.5188,37.1638],[146.1814,-43.5204,82.9074],[146.1803,-43.5228,0.0],[146.1817,-43.5232,37.7131],[146.1824,-43.5266,0.0],[146.1838,-43.5266,33.7497],[146.1841,-43.5321,0.0],[146.1859,-43.5304,24.4351],[146.1872,-43.5337,0.0],[146.1877,-43.5319,46.6656],[146.189,-43.5322,46.6656],[146.1916,-43.5388,0.0],[146.1941,-43.5392,0.0],[146.1931,-43.54,0.0],[146.1953,-43.5385,0.0],[146.1992,-43.5393,0.0],[146.1997,-43.5373,42.0114],[146.2113,-43.534,15.6187],[146.2103,-43.528,48.6246],[146.2126,-43.5262,0.0],[146.2112,-43.5254,107.1066],[146.2123,-43.5256,0.0],[146.2111,-43.524,103.2686],[146.212,-43.521,0.0],[146.2089,-43.5123,36.3706],[146.2104,-43.5098,0.0],[146.2098,-43.507,46.6551],[146.2142,-43.502,0.0],[146.2141,-43.4956,0.0],[146.2245,-43.4911,3.2257],[146.2325,-43.4906,2.4338],[146.2403,-43.4911,21.3435],[146.2438,-43.4958,7.5084],[146.2435,-43.4911,6.549],[146.2521,-43.4901,0.0],[146.2623,-43.4925,2.3955],[146.2729,-43.4985,0.0],[146.2761,-43.5036,20.4265],[146.2733,-43.5058,0.0],[146.2738,-43.5106,30.7312],[146.2726,-43.5123,9.1631],[146.2686,-43.5124,0.8547],[146.2702,-43.5147,18.2493],[146.265,-43.5157,0.0],[146.2704,-43.5182,10.3666],[146.2677,-43.5236,12.9167],[146.269,-43.5262,9.5921],[146.2665,-43.5266,3.7423],[146.2666,-43.5286,1.5659],[146.2698,-43.527,16.4934],[146.2728,-43.5292,2.5986],[146.2764,-43.5288,14.7342],[146.2765,-43.5315,1.8589],[146.2782,-43.5321,18.3646],[146.2773,-43.5339,2.9789],[146.2796,-43.5333,5.233],[146.2834,-43.5359,1.6782],[146.2867,-43.5362,23.3955],[146.2853,-43.5374,4.0035],[146.2888,-43.5418,24.9692],[146.2876,-43.5436,0.0],[146.2901,-43.5447,0.0],[146.2929,-43.5429,67.3443],[146.2954,-43.544,8.5466],[146.3046,-43.5403,17.4418],[146.3083,-43.5405,9.2543],[146.3104,-43.5384,18.6115],[146.3174,-43.5365,5.2478],[146.3198,-43.5324,14.5789],[146.3234,-43.5318,0.0],[146.3217,-43.5314,7.0319],[146.3203,-43.5273,3.9127],[146.3225,-43.5241,19.9438],[146.3275,-43.5234,0.0],[146.3257,-43.5206,9.0437],[146.3305,-43.5216,1.6135],[146.3342,-43.5187,14.8803],[146.3363,-43.5192,0.0],[146.3357,-43.5183,0.0],[146.3382,-43.5166,8.2017],[146.344,-43.5163,0.0],[146.343,-43.5143,10.1701],[146.3447,-43.5128,5.4355],[146.3443,-43.5143,1.0667],[146.3513,-43.5162,24.1111],[146.3512,-43.5174,0.0],[146.356,-43.5161,42.2641],[146.3567,-43.5174,3.7024],[146.3586,-43.5153,16.3754],[146.3676,-43.5202,1.1159],[146.3687,-43.5305,0.0],[146.3704,-43.5293,9.4562],[146.371,-43.5239,7.749],[146.3695,-43.5191,2.2012],[146.3715,-43.5233,7.749],[146.3708,-43.5303,7.7726],[146.3729,-43.5332,17.201],[146.3726,-43.535,0.3986],[146.3813,-43.532,14.8409],[146.3854,-43.5338,3.4513],[146.3856,-43.5319,13.258],[146.3915,-43.5303,18.441],[146.3975,-43.5327,46.371],[146.3961,-43.5349,0.0],[146.3995,-43.5348,8.4369],[146.4006,-43.5362,8.4369],[146.401,-43.535,8.4369],[146.4027,-43.5371,24.9432],[146.4015,-43.5382,4.5001],[146.4056,-43.5398,0.0],[146.4112,-43.5351,16.3228],[146.412,-43.5369,1.7473],[146.4141,-43.5357,68.5888],[146.4147,-43.5382,0.0],[146.4158,-43.5368,13.9478],[146.4168,-43.5378,13.9478],[146.4175,-43.5365,13.9478],[146.4205,-43.5371,4.5537],[146.4205,-43.5353,45.718],[146.423,-43.5346,5.7195],[146.4444,-43.5378,52.7328],[146.4527,-43.5344,51.6098],[146.4551,-43.5371,56.5333],[146.4551,-43.5398,0.0],[146.4595,-43.5426,59.0423],[146.4637,-43.541,186.4477],[146.4693,-43.5426,3.2698],[146.4714,-43.5366,2.2507],[146.474,-43.5346,0.0],[146.4768,-43.5378,16.2775],[146.4807,-43.5365,4.6977],[146.4815,-43.5379,35.4063],[146.4845,-43.5375,44.4632],[146.4874,-43.5393,25.7798],[146.4883,-43.5412,26.0966],[146.4865,-43.5439,0.7446],[146.4899,-43.5429,0.0],[146.4906,-43.5382,13.377],[146.4931,-43.5385,0.7968],[146.4926,-43.5355,20.5697],[146.4971,-43.5351,1.7819],[146.4983,-43.5332,0.0],[146.4972,-43.5299,7.5164],[146.502,-43.5295,18.4714],[146.5088,-43.5241,11.7289],[146.5121,-43.5233,3.8367],[146.5183,-43.5248,2.2609],[146.5197,-43.5272,0.0],[146.5182,-43.5302,0.0],[146.5318,-43.5313,0.0],[146.5422,-43.5233,3.2808],[146.577,-43.5352,2.8671],[146.5959,-43.5435,0.0],[146.5954,-43.5415,0.0],[146.5875,-43.5387,2.3399],[146.5838,-43.5346,14.957],[146.5716,-43.5274,6.4168],[146.5638,-43.5252,1.3236],[146.5632,-43.524,9.2661],[146.5658,-43.5229,1.3793],[146.5636,-43.5182,12.0182],[146.5526,-43.5124,5.4096],[146.5514,-43.5104,33.6414],[146.5506,-43.5012,17.7279],[146.5561,-43.4966,0.0],[146.5554,-43.4937,3.6162],[146.5489,-43.4921,12.8647],[146.5495,-43.4848,0.0],[146.5482,-43.4834,4.3967],[146.5502,-43.4799,2.2055],[146.5487,-43.4754,11.8661],[146.5532,-43.4685,7.7183],[146.556,-43.4676,9.1339],[146.5597,-43.4691,0.0],[146.5594,-43.4649,4.5613],[146.5603,-43.4686,0.0],[146.5608,-43.4659,8.1767],[146.5635,-43.4664,0.0],[146.5692,-43.4745,3.9569],[146.5715,-43.4757,2.0273],[146.5729,-43.4808,14.5664],[146.5783,-43.4851,12.2002],[146.5762,-43.4901,4.4633],[146.5773,-43.4932,7.9955],[146.5746,-43.4955,4.8901],[146.5757,-43.5043,3.9825],[146.5741,-43.5068,15.3778],[146.5757,-43.5091,2.2207],[146.5759,-43.515,0.0],[146.5791,-43.521,3.5124],[146.5752,-43.5246,0.0],[146.5879,-43.5356,0.7531],[146.5976,-43.5411,18.7912],[146.6013,-43.5456,20.2202],[146.5999,-43.5448,3.1958],[146.5981,-43.5425,0.0],[146.5973,-43.5462,0.0],[146.6046,-43.5505,0.0],[146.6075,-43.5502,33.1116],[146.6066,-43.5519,4.2513],[146.602,-43.5538,2.024],[146.6027,-43.5553,13.9438],[146.5986,-43.5578,0.0],[146.5981,-43.5602,0.0],[146.6009,-43.5606,33.0845],[146.5994,-43.5619,0.0],[146.61,-43.5598,5.8196],[146.6103,-43.5625,7.2737],[146.6062,-43.5634,0.0],[146.6071,-43.565,49.3225],[146.605,-43.5667,17.387],[146.6089,-43.5691,6.2173],[146.6175,-43.5629,30.7521],[146.6237,-43.5634,0.0],[146.6237,-43.5624,11.5926],[146.6247,-43.5643,0.0],[146.6285,-43.5655,22.7789],[146.6284,-43.5675,5.9542],[146.6301,-43.5672,18.2957],[146.6302,-43.5699,0.0],[146.6321,-43.5702,16.5888],[146.6317,-43.5723,6.6681],[146.6353,-43.5731,15.0976],[146.637,-43.5782,0.9315],[146.6401,-43.5775,38.3337],[146.642,-43.5803,0.0],[146.645,-43.5804,26.4422],[146.6448,-43.5821,28.0683],[146.6403,-43.5843,3.0522],[146.6401,-43.5874,1.7559],[146.6476,-43.5815,3.001],[146.6572,-43.5842,0.3174],[146.6551,-43.581,14.616],[146.6567,-43.5794,18.8419],[146.656,-43.5808,14.616],[146.6586,-43.5833,11.3886],[146.6569,-43.5873,8.4114],[146.6584,-43.5877,8.4114],[146.6528,-43.5962,9.7864],[146.6548,-43.5959,31.465699999999998],[146.6536,-43.5978,5.118],[146.6561,-43.6009,9.4481],[146.6564,-43.6044,31.9673],[146.6599,-43.6055,10.1627],[146.6601,-43.6077,0.0],[146.6629,-43.6067,0.0],[146.6651,-43.6008,7.9357],[146.6684,-43.5987,19.7937],[146.6703,-43.5944,22.6555],[146.6782,-43.5944,13.2665],[146.6861,-43.5967,2.7886],[146.6866,-43.6022,0.0],[146.6875,-43.6014,14.1359],[146.6902,-43.6039,41.1479],[146.6938,-43.6117,0.0],[146.6926,-43.6142,0.0],[146.6974,-43.6179,43.3114],[146.6978,-43.6255,0.1532],[146.6994,-43.6241,5.4094],[146.7018,-43.6247,35.7284],[146.7058,-43.6293,107.0525],[146.7054,-43.6334,0.2146],[146.7112,-43.6261,94.8859],[146.7157,-43.6262,73.7195],[146.7183,-43.6295,21.8305],[146.7219,-43.6293,31.8511],[146.7235,-43.6319,0.2804],[146.7253,-43.6277,47.1957],[146.7318,-43.622,0.0],[146.734,-43.618,22.5662],[146.7381,-43.6165,25.1805],[146.7389,-43.6185,1.8732],[146.7405,-43.6184,1.8732],[146.7461,-43.61,14.7324],[146.7511,-43.6103,0.0],[146.7536,-43.6083,26.3842],[146.762,-43.6119,34.0597],[146.7623,-43.6153,4.5123],[146.7708,-43.6079,108.826],[146.7769,-43.607,35.0829],[146.7807,-43.6095,36.3945],[146.7853,-43.6049,3.8536],[146.7851,-43.6003,0.0],[146.7917,-43.6017,0.0],[146.7925,-43.6053,0.0],[146.7959,-43.6018,11.6804],[146.8004,-43.6017,4.8373],[146.8076,-43.6062,35.1667],[146.8174,-43.6066,11.5664],[146.8312,-43.6151,5.6327],[146.8338,-43.6182,7.2676],[146.8357,-43.6255,70.3214],[146.8389,-43.6284,0.0],[146.8387,-43.6307,0.0],[146.8257,-43.6398,4.9765],[146.8266,-43.6431,0.0],[146.8353,-43.6399,15.7688],[146.8357,-43.6382,5.0596],[146.8384,-43.6387,4.4081],[146.8389,-43.6363,23.0754],[146.8448,-43.6331,7.1334],[146.8502,-43.6366,2.5877],[146.8533,-43.6336,68.703],[146.8553,-43.6345,41.9071],[146.8581,-43.6323,41.0806],[146.8634,-43.632,31.3585],[146.8696,-43.6349,0.6106],[146.871,-43.6386,1.9066],[146.874,-43.6285,15.6754],[146.8736,-43.6234,3.6193],[146.8794,-43.6203,12.3045],[146.8848,-43.6209,5.9827],[146.8863,-43.6156,69.5413],[146.8947,-43.6157,15.685],[146.9216,-43.5992,41.991],[146.9214,-43.5959,19.3883],[146.9169,-43.594,13.4821],[146.9201,-43.59,0.0],[146.9181,-43.5862,3.2097],[146.9238,-43.581,55.5311],[146.9195,-43.5757,13.7475],[146.9207,-43.5704,2.0134],[146.9168,-43.5688,2.4439],[146.9149,-43.5695,2.2298],[146.9135,-43.5731,8.1799],[146.9087,-43.5729,0.0],[146.9074,-43.5767,6.0279],[146.9002,-43.5772,2.6643],[146.9003,-43.5788,6.5921],[146.8958,-43.5823,0.3495],[146.8922,-43.5834,6.7094],[146.8866,-43.5828,3.0993],[146.8826,-43.586,0.0],[146.8726,-43.5897,5.0122],[146.874,-43.5878,22.4587],[146.8807,-43.5858,0.0],[146.8844,-43.5821,18.6206],[146.8926,-43.5826,0.5473],[146.8873,-43.5784,3.2143],[146.8916,-43.5755,0.0],[146.8904,-43.5724,19.4127],[146.8916,-43.5712,0.0],[146.887,-43.566,12.1735],[146.8897,-43.5659,19.0638],[146.8918,-43.5683,0.0],[146.8909,-43.5652,19.0638],[146.8934,-43.5641,2.0882],[146.8932,-43.5625,14.2213],[146.896,-43.5621,8.2822],[146.9016,-43.565,0.0],[146.9037,-43.562,0.0],[146.9038,-43.5602,4.7397],[146.8927,-43.5584,13.2661],[146.8915,-43.5535,0.0],[146.8774,-43.558,34.2243],[146.8845,-43.5555,13.6261],[146.8861,-43.5534,7.5291],[146.8892,-43.5532,3.8837],[146.888,-43.5492,13.321],[146.8898,-43.5452,0.0],[146.8954,-43.541,0.8017],[146.8905,-43.5354,3.4189],[146.8966,-43.529,33.8806],[146.8966,-43.5261,26.5917],[146.9023,-43.5229,4.7647],[146.9001,-43.5172,14.3674],[146.9008,-43.5159,39.3773],[146.9028,-43.5152,15.5449],[146.9062,-43.5165,15.189],[146.9078,-43.5149,7.0522],[146.9105,-43.5144,9.4927],[146.9072,-43.5124,21.2392],[146.9095,-43.5132,9.4927],[146.9108,-43.5141,9.4927],[146.9104,-43.5147,12.3562],[146.9078,-43.5154,7.0522],[146.9066,-43.5167,15.189],[146.9031,-43.5169,0.925],[146.9039,-43.5184,2.4414],[146.9037,-43.5196,1.2073],[146.9048,-43.5214,0.0],[146.9077,-43.5213,17.7477],[146.9056,-43.5268,17.9967],[146.9091,-43.5285,1.7789],[146.9114,-43.5319,0.0],[146.9095,-43.5337,27.5882],[146.9091,-43.5375,0.0],[146.9037,-43.5389,3.1869],[146.9055,-43.5416,0.0],[146.9136,-43.542,13.7892],[146.9137,-43.5441,29.2784],[146.9171,-43.5463,0.0],[146.9169,-43.5435,6.6168],[146.9208,-43.5415,2.1849],[146.9188,-43.5351,8.7841],[146.9241,-43.5303,4.335],[146.927,-43.5309,6.0219],[146.9267,-43.5344,6.7984],[146.9216,-43.5375,0.569],[146.9214,-43.5393,6.8922],[146.9347,-43.5333,0.0],[146.9419,-43.5319,3.4296],[146.9481,-43.534,4.4784],[146.9527,-43.5331,0.771],[146.9561,-43.5265,16.2603],[146.9525,-43.5151,5.2657],[146.9533,-43.5132,0.0],[146.9584,-43.5072,5.2015],[146.9779,-43.494,0.0],[146.9767,-43.4876,0.0],[146.9642,-43.4979,0.0],[146.9533,-43.5099,4.3025],[146.9437,-43.512,10.2488],[146.9444,-43.5101,1.9563],[146.9412,-43.5062,0.0],[146.9423,-43.5036,3.3268],[146.9446,-43.5028,0.0],[146.9438,-43.4981,0.0],[146.9433,-43.5014,8.6697],[146.9381,-43.5013,29.5386],[146.936,-43.5007,11.2645],[146.9364,-43.4986,2.6126],[146.9292,-43.4967,9.1201],[146.9304,-43.4933,1.4519],[146.9369,-43.4899,0.0],[146.9366,-43.4857,2.3451],[146.9421,-43.4781,0.0],[146.9444,-43.4779,2.6343],[146.9453,-43.4805,1.6044],[146.9473,-43.4813,0.0],[146.9471,-43.4788,3.5986],[146.9497,-43.477,2.4101],[146.9551,-43.478,0.0],[146.9602,-43.4765,0.0],[146.9616,-43.4717,0.0],[146.96,-43.4712,8.3464],[146.9619,-43.4712,17.259],[146.964,-43.4719,2.121],[146.9725,-43.4686,8.4126],[146.9796,-43.4704,4.4056],[146.9825,-43.4748,0.0],[146.9823,-43.4796,10.3461],[146.9788,-43.4857,1.6611],[146.9807,-43.4872,4.4995],[146.9839,-43.4875,1.8442],[146.9954,-43.4805,4.7705],[147.0008,-43.4816,0.0],[147.0018,-43.4796,11.5759],[146.9987,-43.4754,0.0],[147.0001,-43.4708,0.0],[146.995,-43.4686,1.2398],[146.9945,-43.4658,1.7438],[146.9968,-43.464,2.2996],[146.9964,-43.4619,0.0],[146.9866,-43.4603,12.1011],[146.9832,-43.4547,19.9941],[146.9745,-43.4536,0.0],[146.9734,-43.4556,2.635],[146.97,-43.4556,2.206],[146.9662,-43.4542,3.0523],[146.9624,-43.4489,2.1993],[146.9597,-43.4477,0.0],[146.9584,-43.45,11.8378],[146.9531,-43.4505,9.0425],[146.9486,-43.4531,29.5163],[146.9431,-43.451,0.0],[146.9425,-43.4489,0.0],[146.9388,-43.4495,7.2485],[146.9394,-43.4468,6.4164],[146.9371,-43.4474,7.8742],[146.9403,-43.444,10.6536],[146.9462,-43.446,10.6414],[146.9418,-43.44,5.81],[146.9375,-43.4415,13.1978],[146.9305,-43.4408,2.3784],[146.9247,-43.4446,13.9774],[146.9156,-43.4471,7.182],[146.9198,-43.4427,0.0],[146.9168,-43.4412,8.3005],[146.9181,-43.4385,0.0],[146.9206,-43.4382,0.0],[146.9079,-43.4328,4.3136],[146.9069,-43.4307,1.6999],[146.9086,-43.4278,0.9942],[146.9059,-43.4208,5.2543],[146.9094,-43.4275,0.9942],[146.9083,-43.4322,4.3136],[146.9097,-43.4332,1.7878],[146.9187,-43.4359,0.0],[146.9166,-43.4352,0.1356],[146.9177,-43.4336,1.4081],[146.9236,-43.4398,0.0],[146.9276,-43.4386,6.5604],[146.9284,-43.4367,0.0],[146.9203,-43.4178,0.853],[146.9217,-43.4162,4.5435],[146.9209,-43.4143,4.6815],[146.9236,-43.4156,0.3645],[146.9308,-43.4242,3.3653],[146.9353,-43.4252,15.5531],[146.935,-43.4282,4.0266],[146.9388,-43.4322,4.5746],[146.9476,-43.4343,24.7666],[146.9472,-43.4374,3.7897],[146.9446,-43.4393,8.3989],[146.9475,-43.4435,0.0],[146.9498,-43.4433,21.7284],[146.9489,-43.4456,22.0904],[146.9505,-43.4474,5.7767],[146.9613,-43.4459,0.0],[146.9628,-43.4371,4.8732],[146.973,-43.4319,1.1274],[146.9776,-43.4332,4.86],[146.9783,-43.4362,2.9782],[146.9823,-43.4359,1.989],[146.9834,-43.4393,0.0],[146.9869,-43.4408,6.3538],[146.9895,-43.44,3.2557],[146.9908,-43.435,1.2012],[146.9957,-43.4336,2.2437],[147.0011,-43.4366,1.1929],[147.0031,-43.434,32.3615],[147.01,-43.4372,3.5042],[147.0122,-43.441,5.1721],[147.0142,-43.4413,4.9048],[147.0135,-43.4436,1.9254],[147.0176,-43.4435,5.3628],[147.0174,-43.4405,33.0994],[147.0209,-43.4389,0.0],[147.0218,-43.4368,13.7696],[147.0264,-43.4358,44.7866],[147.0228,-43.428,0.0],[147.0194,-43.425,18.3438],[147.0153,-43.4251,20.7433],[147.0124,-43.4221,0.0],[147.0151,-43.4176,29.5905],[147.0194,-43.4139,48.054],[147.0218,-43.4136,0.0],[147.0207,-43.4125,10.5203],[147.0217,-43.4117,10.5203],[147.0255,-43.4114,0.0],[147.0188,-43.4088,10.0579],[147.0167,-43.4033,0.0],[147.0189,-43.4007,42.0504],[147.0299,-43.3972,0.0],[147.0308,-43.3959,17.025],[147.0283,-43.3914,84.5075],[147.032,-43.3863,9.4554],[147.039,-43.3852,7.1626],[147.0397,-43.3826,45.2749],[147.046,-43.38,0.0],[147.0482,-43.377,0.0],[147.0475,-43.375,0.0],[147.0505,-43.3737,10.7614],[147.0517,-43.37,0.0],[147.0526,-43.3573,53.775],[147.0597,-43.3577,14.2622],[147.0593,-43.3531,16.17],[147.0395,-43.3455,0.0],[147.0343,-43.3454,4.3116],[147.0327,-43.3479,11.3848],[147.0314,-43.343,2.0874],[147.0242,-43.3401,21.7665],[147.0246,-43.3383,23.1674],[147.0193,-43.3339,6.3251],[147.0163,-43.3348,0.0],[147.0131,-43.342,20.4019],[147.0077,-43.3435,19.8092],[147.0025,-43.34,6.927],[146.9909,-43.3402,18.4004],[146.9917,-43.338,17.1711],[146.9901,-43.3352,0.0],[146.9854,-43.3332,12.0591],[146.9789,-43.3394,5.9905],[146.9806,-43.3367,1.7445],[146.9783,-43.3335,0.0],[146.9826,-43.3297,2.4079],[146.9756,-43.3298,5.9972],[146.9731,-43.328,2.5474],[146.9708,-43.331,3.277],[146.9717,-43.3274,0.3597],[146.9763,-43.3254,0.8555],[146.981,-43.3254,2.1559],[146.9829,-43.3274,0.1109],[146.9876,-43.3274,13.8765],[146.9938,-43.3351,0.0],[147.0024,-43.334,9.1715],[147.0042,-43.3355,0.0],[147.006,-43.3345,2.182],[147.0031,-43.331,0.0],[147.0036,-43.3238,4.975],[147.0059,-43.3235,2.3543],[147.012,-43.3159,5.2598],[147.0196,-43.3163,0.0],[147.0226,-43.3187,0.0],[147.0233,-43.3167,0.0],[147.0282,-43.3139,2.2591],[147.0321,-43.3148,0.0],[147.045,-43.3123,2.2452],[147.0538,-43.3167,0.9079],[147.0549,-43.3186,0.0],[147.0538,-43.3211,3.0666],[147.0582,-43.3254,17.8621],[147.0591,-43.3293,6.7978],[147.0653,-43.3328,30.7192],[147.0681,-43.3287,16.3217],[147.0726,-43.3262,0.0],[147.069,-43.3242,21.4666],[147.067,-43.3186,18.5687],[147.0692,-43.3149,11.5013],[147.0742,-43.3133,0.0],[147.0755,-43.3113,5.8744],[147.0754,-43.3081,16.906],[147.0796,-43.2987,28.3177],[147.0787,-43.2955,6.5271],[147.0806,-43.2924,0.0],[147.0888,-43.2905,3.3295],[147.099,-43.2918,0.0],[147.1001,-43.2902,2.9996],[147.0976,-43.2862,16.1137],[147.1007,-43.2837,4.3123],[147.0976,-43.2802,14.7188],[147.0894,-43.2784,16.6135],[147.0884,-43.2761,16.1489],[147.0894,-43.274,6.221],[147.0768,-43.2711,0.0],[147.068,-43.2636,3.9088],[147.066,-43.26,0.0],[147.0679,-43.2579,1.1736],[147.0644,-43.256,0.0],[147.0659,-43.2544,0.0],[147.0645,-43.2491,0.0],[147.0608,-43.2476,0.0],[147.0537,-43.248,19.1312],[147.0422,-43.2411,0.0],[147.0371,-43.2438,35.2185],[147.0377,-43.2401,0.0],[147.0328,-43.2352,18.7501],[147.0246,-43.231,16.2354],[147.0244,-43.2275,4.8141],[147.0204,-43.2261,21.8934],[147.0201,-43.2236,4.0779],[147.0164,-43.2246,19.5079],[147.0131,-43.2221,0.0],[147.0066,-43.2205,7.2017],[147.0056,-43.2175,2.011],[147.0023,-43.2172,0.0],[147.0034,-43.2158,0.0],[147.0017,-43.2145,0.0],[146.9967,-43.2141,0.0],[146.9903,-43.2171,7.9685],[146.9926,-43.2117,4.3647],[146.9967,-43.2078,0.0],[146.9953,-43.2064,20.4828],[146.9881,-43.2035,5.1453],[146.9792,-43.2065,12.6662],[146.9719,-43.204,0.6947],[146.9712,-43.2024,3.1533],[146.9729,-43.2,11.9808],[146.9705,-43.1982,10.7813],[146.9697,-43.1934,0.0],[146.9642,-43.1903,10.407],[146.9684,-43.188,0.0],[146.9713,-43.1838,0.0],[146.9711,-43.1799,12.0743],[146.967,-43.1776,33.7871],[146.9745,-43.1693,3.767],[146.9689,-43.1641,0.6503],[146.9605,-43.1616,12.6302],[146.9622,-43.158,0.1078],[146.9591,-43.158,0.836],[146.95,-43.1638,9.3459],[146.9528,-43.1608,1.8881],[146.9596,-43.1561,11.0301],[146.9638,-43.158,0.0],[146.966,-43.1563,1.2237],[146.9729,-43.1572,5.502],[146.9759,-43.1589,8.3664],[146.9758,-43.161,0.0],[146.9761,-43.1589,8.3664],[146.9807,-43.1589,4.0315],[146.9813,-43.1518,18.7767],[146.9781,-43.148,7.9568],[146.9794,-43.1456,5.4089],[146.9725,-43.1418,8.9032],[146.9725,-43.1385,5.6798],[146.98,-43.1372,3.7811],[146.9815,-43.1317,1.6957],[146.9887,-43.1316,0.0],[146.993,-43.1286,4.152],[146.9936,-43.1246,4.3572],[146.9912,-43.1219,6.3553],[146.9914,-43.1187,10.4558],[146.9961,-43.1125,5.5725],[147.0008,-43.1096,2.1986],[147.0011,-43.1046,4.0168],[147.0139,-43.0882,0.3145],[147.0181,-43.0789,5.796],[147.0215,-43.077,0.0],[147.0245,-43.0682,9.0441],[147.0296,-43.0615,0.9287],[147.0297,-43.0587,0.345],[147.0403,-43.0519,0.3348],[147.0453,-43.0434,0.9742],[147.0547,-43.0399,0.6732],[147.0462,-43.0346,4.1278],[147.0357,-43.025,3.5436],[147.0313,-43.0156,0.6233],[147.033,-43.0114,4.744],[147.0244,-43.0118,2.975],[147.0017,-43.0174,21.3657],[147.007,-43.0146,4.26],[147.0233,-43.0114,2.975],[147.034,-43.0109,10.3058],[147.0323,-43.0151,0.6233],[147.0347,-43.0191,0.2289],[147.0372,-43.0202,4.0409],[147.0348,-43.0196,0.9614],[147.0365,-43.0247,3.5436],[147.0563,-43.0397,32.5707],[147.0451,-43.0456,4.5149],[147.0419,-43.0595,2.339],[147.037,-43.0674,0.0],[147.0398,-43.069,2.4043],[147.0398,-43.0691,2.4043],[147.039,-43.0689,1.1664],[147.0389,-43.069,1.1664],[147.0369,-43.0676,0.0],[147.038,-43.0705,1.2981],[147.0365,-43.069,0.0],[147.0304,-43.0813,3.884],[147.0218,-43.0919,0.4014],[147.0199,-43.0989,0.0],[147.0208,-43.1035,1.9079],[147.0173,-43.1099,0.0],[147.0188,-43.1122,0.1494],[147.0171,-43.1138,1.539],[147.0141,-43.1146,5.8973],[147.0116,-43.1179,4.3073],[147.0067,-43.138,21.3896],[147.001,-43.1411,0.0],[146.9972,-43.147,0.0],[147.0,-43.1546,7.8214],[146.9972,-43.1568,0.0],[146.9984,-43.1587,19.4595],[146.9948,-43.1644,5.3952],[146.9968,-43.1661,12.1837],[146.9951,-43.1664,3.9547],[146.9946,-43.1732,19.3655],[146.9912,-43.176,0.0],[146.9835,-43.1776,0.0],[146.9864,-43.1797,17.0663],[146.9844,-43.1894,11.1076],[146.9944,-43.1902,11.696],[147.0025,-43.1929,9.9724],[147.0103,-43.1903,6.0094],[147.0144,-43.1965,0.0],[147.0248,-43.2001,13.1089],[147.024,-43.2058,0.0],[147.0278,-43.2079,10.9767],[147.0278,-43.2096,0.0],[147.0456,-43.2129,19.0611],[147.0464,-43.2154,15.9201],[147.0452,-43.2169,0.0],[147.051,-43.2177,17.4855],[147.0547,-43.2202,0.0],[147.0557,-43.2233,0.0],[147.0563,-43.2205,2.8884],[147.0594,-43.2201,2.8556],[147.0619,-43.2251,0.0],[147.064,-43.2239,0.0],[147.0632,-43.2173,30.5181],[147.0713,-43.2139,9.7015],[147.0756,-43.2089,8.5308],[147.0803,-43.2087,0.0],[147.0833,-43.2067,0.0],[147.0783,-43.2042,0.0],[147.0742,-43.2051,9.5625],[147.0718,-43.2023,8.155],[147.0769,-43.1994,0.0],[147.0745,-43.1964,5.91],[147.0787,-43.1983,0.0],[147.0843,-43.1929,28.7475],[147.0865,-43.1928,0.0],[147.0813,-43.1834,2.2704],[147.0836,-43.1787,0.0],[147.0798,-43.1711,9.3928],[147.0819,-43.1675,0.0],[147.0802,-43.1652,13.2503],[147.0806,-43.1633,2.7389],[147.0813,-43.1659,1.0176],[147.0838,-43.1662,0.3416],[147.0823,-43.1629,1.9516],[147.0838,-43.1644,5.4859],[147.0867,-43.1701,2.5606],[147.0891,-43.1686,6.2288],[147.0944,-43.1689,2.3031],[147.096,-43.1712,2.713],[147.0955,-43.1713,9.1264],[147.0941,-43.1706,0.2157],[147.0928,-43.171,0.2157],[147.0946,-43.1716,2.3519],[147.0932,-43.1714,2.3519],[147.0928,-43.1746,14.918],[147.0895,-43.1776,0.0],[147.0932,-43.1779,11.4555],[147.0922,-43.1804,1.6335],[147.0956,-43.1828,18.2041],[147.1079,-43.1851,4.9431],[147.1068,-43.1857,4.0512],[147.1048,-43.1859,1.346],[147.1035,-43.1853,1.346],[147.1006,-43.1876,0.0],[147.0945,-43.188,0.0],[147.101,-43.1902,9.4264],[147.1021,-43.192,3.7749],[147.1005,-43.1942,0.9939],[147.1011,-43.1961,11.9226],[147.1056,-43.1984,4.7435],[147.1038,-43.2013,1.9011],[147.1052,-43.2037,9.7532],[147.1018,-43.2066,1.7609],[147.1089,-43.206,12.1708],[147.1166,-43.2108,7.0009],[147.1138,-43.211,0.0],[147.1134,-43.2146,12.4112],[147.1076,-43.2137,2.643],[147.0983,-43.2151,4.1156],[147.092,-43.2191,4.2774],[147.0917,-43.2229,8.5611],[147.0931,-43.2241,19.2096],[147.0919,-43.225,1.2981],[147.0972,-43.2257,5.8702],[147.0945,-43.2269,0.0],[147.0943,-43.2287,0.0],[147.0972,-43.2289,9.4564],[147.0943,-43.2314,0.0],[147.0979,-43.2317,1.8797],[147.0945,-43.2351,0.0],[147.0978,-43.2358,4.9099],[147.0993,-43.2379,22.9227],[147.0969,-43.2382,2.1232],[147.0954,-43.2413,37.4205],[147.0905,-43.2403,0.0],[147.0892,-43.243899999999996,0.0],[147.092,-43.2455,9.546],[147.0995,-43.2449,6.2316],[147.1003,-43.2485,8.7585],[147.0955,-43.2489,0.0],[147.1042,-43.252,6.8895],[147.1085,-43.251,1.8605],[147.1081,-43.2489,8.3163],[147.1124,-43.2466,5.6429],[147.1215,-43.2476,0.0],[147.1189,-43.2452,11.4276],[147.1231,-43.2428,5.3214],[147.1273,-43.2433,0.0],[147.1299,-43.2478,30.5235],[147.139,-43.248,0.0],[147.144,-43.25,1.0839],[147.1512,-43.2412,9.8182],[147.1504,-43.2433,30.1548],[147.1492,-43.243899999999996,4.95],[147.1487,-43.246,3.8811],[147.142,-43.2538,0.0],[147.1435,-43.2602,7.7944],[147.1423,-43.2656,16.0669],[147.1466,-43.2697,13.7344],[147.1422,-43.2713,9.1771],[147.1439,-43.2726,9.1771],[147.148,-43.2723,5.2377],[147.1521,-43.2763,0.0],[147.1619,-43.2779,7.1268],[147.167,-43.2831,0.0],[147.1722,-43.2605,100.5617],[147.1754,-43.2609,119.0876],[147.1767,-43.2574,155.8101],[147.1714,-43.2566,142.9113],[147.1738,-43.2478,136.9048],[147.2006,-43.2504,407.4543],[147.2019,-43.2448,315.3189],[147.2151,-43.2468,230.7056],[147.216,-43.2429,284.7458],[147.2083,-43.2418,348.8894],[147.2101,-43.2363,375.2593],[147.2116,-43.2365,375.2593],[147.2139,-43.2234,330.3167],[147.2032,-43.2219,276.5766],[147.1949,-43.216,279.6302],[147.1836,-43.2146,128.3297],[147.1842,-43.2123,183.4226],[147.1785,-43.2115,81.6765],[147.1864,-43.2082,118.6813],[147.1883,-43.1989,162.7051],[147.1901,-43.1993,171.9321],[147.193,-43.1972,216.4],[147.1949,-43.1922,263.596],[147.1927,-43.1877,261.8808],[147.1943,-43.1857,268.1401],[147.1937,-43.1835,291.7129],[147.1881,-43.1826,342.6739],[147.19,-43.1753,333.319],[147.188,-43.175,356.7245],[147.1894,-43.1688,394.5046],[147.1911,-43.1688,394.5046],[147.1878,-43.1535,519.8107],[147.1851,-43.1538,382.0483],[147.1828,-43.1467,383.3295],[147.1879,-43.1461,557.934],[147.1864,-43.1391,497.349],[147.1809,-43.1397,370.0917],[147.1798,-43.1359,343.765],[147.1853,-43.1351,439.7061],[147.1831,-43.1254,262.8812],[147.1849,-43.1208,285.9381],[147.1818,-43.1213,289.4328],[147.1792,-43.1134,359.512],[147.1804,-43.1131,359.512],[147.173,-43.0624,667.6082],[147.1749,-43.0557,551.1392],[147.1821,-43.057,609.3688],[147.1813,-43.0539,620.0485],[147.1878,-43.053,620.6401],[147.1869,-43.0495,645.2358],[147.2016,-43.0474,358.6185],[147.2013,-43.0458,343.5497],[147.2049,-43.0453,271.6761],[147.2046,-43.0435,250.8673],[147.1747,-43.0384,605.1246],[147.1758,-43.0332,573.8397],[147.1738,-43.033,552.6257],[147.1732,-43.036,565.2742],[147.1477,-43.0341,248.3093],[147.1485,-43.0307,291.679],[147.1421,-43.0299,283.78],[147.1429,-43.0271,389.1569],[147.1242,-43.0243,319.802],[147.1265,-43.0161,465.265],[147.1186,-43.0121,433.5367],[147.1225,-43.0005,428.7467],[147.1251,-43.0009,375.8853],[147.1256,-42.9995,393.7972],[147.1327,-43.0007,499.3008],[147.1342,-42.9957,306.7704],[147.1363,-42.996,288.1842],[147.1357,-42.9979,350.4676],[147.1413,-42.9988,408.8291],[147.1442,-42.9904,458.1244],[147.1381,-42.9895,351.8857],[147.14,-42.9823,233.3308],[147.1442,-42.9811,249.4398],[147.1502,-42.9558,359.3112],[147.1518,-42.956,429.7935],[147.1532,-42.9509,406.8366],[147.156,-42.9512,433.9912],[147.1577,-42.944,317.8575],[147.1561,-42.9438,296.9915],[147.1571,-42.9399,359.816],[147.1515,-42.9391,271.7722],[147.1524,-42.9361,283.2942],[147.1548,-42.9364,318.7228],[147.1555,-42.9336,342.6073],[147.1532,-42.9332,305.5349],[147.1573,-42.9197,485.7515],[147.1541,-42.9192,407.1422],[147.1556,-42.9141,431.8053],[147.1375,-42.912,313.1317],[147.1367,-42.9151,272.1412],[147.1345,-42.9148,259.7567],[147.1355,-42.9104,328.3989],[147.0513,-42.9004,745.1166],[147.0478,-42.9024,713.1832],[147.0448,-42.909,739.4233],[147.0398,-42.9101,729.3047],[147.0387,-42.9077,734.2639],[147.0397,-42.9062,740.6926],[147.033,-42.9041,747.9781],[147.0304,-42.9059,744.1183],[147.0273,-42.9052,711.3892],[147.025,-42.9076,719.9214],[147.0165,-42.907,771.3987],[147.0111,-42.9014,864.4398],[147.0058,-42.9001,933.0432],[147.0109,-42.894,855.7947],[147.0087,-42.8878,916.3514],[146.9973,-42.8882,892.4619],[146.9899,-42.8858,880.3973],[146.9709,-42.8888,842.1296],[146.9543,-42.8819,1015.5319],[146.9405,-42.8859,1014.1664],[146.9364,-42.8891,951.9959],[146.9357,-42.8933,933.0144],[146.9305,-42.8925,910.0695],[146.9253,-42.8958,810.7505],[146.9238,-42.8997,803.2466],[146.9305,-42.9035,823.0743],[146.9342,-42.9151,825.2833],[146.9328,-42.9187,808.9829],[146.942,-42.9227,802.1912],[146.9413,-42.9266,817.8388],[146.9183,-42.9325,748.5928],[146.9119,-42.9401,747.3942],[146.9025,-42.94,777.3293],[146.896,-42.9353,805.6483],[146.8905,-42.936,777.6372],[146.8806,-42.9344,786.0726],[146.8797,-42.9354,804.0186],[146.8818,-42.9418,746.2915],[146.8803,-42.949,782.8675],[146.8775,-42.9529,763.4023],[146.8739,-42.9546,734.7281],[146.8644,-42.9434,733.5142],[146.8558,-42.9404,758.0626],[146.8556,-42.9325,708.6543],[146.852,-42.9304,694.6265],[146.8494,-42.9239,594.5227],[146.8522,-42.9193,659.621],[146.8462,-42.9138,707.2035],[146.8465,-42.9082,820.553],[146.8451,-42.9071,826.516],[146.815,-42.8978,832.4977],[146.809,-42.8937,841.291],[146.8055,-42.8946,869.9706],[146.7998,-42.9033,824.2317],[146.7885,-42.9039,777.7131],[146.7798,-42.8977,790.5998],[146.7791,-42.8941,786.2153],[146.7758,-42.8909,733.7706],[146.7755,-42.8828,828.9252],[146.765,-42.8738,796.4052],[146.7554,-42.8744,847.6305],[146.7449,-42.8704,912.1591],[146.7394,-42.8712,947.5636],[146.7275,-42.8607,879.4412],[146.7209,-42.8575,902.844],[146.716,-42.8583,942.3424],[146.7136,-42.8609,978.5736],[146.71,-42.8574,915.2849],[146.6985,-42.8581,902.9521],[146.6972,-42.857,931.5833],[146.6985,-42.8519,892.3784],[146.6973,-42.8504,887.0636],[146.6853,-42.8533,704.3661],[146.6782,-42.8522,830.3572],[146.6751,-42.8496,862.858],[146.6662,-42.8521,1049.7633],[146.6625,-42.8473,1122.4473],[146.6563,-42.8477,1068.0217],[146.648,-42.8525,1118.501],[146.6463,-42.8607,1251.0239],[146.646,-42.865,1217.5289],[146.6487,-42.8737,1134.4443],[146.6527,-42.8763,1119.8083],[146.6536,-42.8934,1054.396],[146.6582,-42.8974,1063.0137],[146.6586,-42.8998,1087.4021],[146.6573,-42.9049,1151.7957],[146.6525,-42.9083,1191.3478],[146.6484,-42.9217,1283.877],[146.4588,-43.0873,183.3764],[146.2638,-43.1133,329.979]],
[[146.2203,-43.3891,2.0605],[146.2211,-43.3884,2.0605],[146.222,-43.3886,2.0605],[146.221,-43.3886,2.0605],[146.2209,-43.3891,2.0605],[146.2203,-43.3891,2.0605]]],
[[[146.3828,-43.6386,0.1663],[146.3817,-43.6389,0.0],[146.3842,-43.6398,0.0],[146.3839,-43.6391,0.1663],[146.3828,-43.6386,0.1663]]],
[[[146.2727,-43.6324,17.2182],[146.273,-43.6324,17.2182],[146.2729,-43.632,17.2182],[146.2725,-43.6322,17.2182],[146.2727,-43.6324,17.2182]]],
[[[146.258,-43.6293,0.0],[146.257,-43.6291,0.0],[146.2564,-43.6301,0.0],[146.2576,-43.6299,0.0],[146.258,-43.6293,0.0]]],
[[[146.2854,-43.6209,6.2412],[146.2854,-43.621,6.2412],[146.2855,-43.621,6.2412],[146.2855,-43.6209,6.2412],[146.2854,-43.6209,6.2412]]],
[[[146.2866,-43.6177,0.0],[146.2866,-43.6178,0.0],[146.2867,-43.6178,0.0],[146.2867,-43.6176,0.0],[146.2866,-43.6177,0.0]]],
[[[146.2725,-43.6319,17.2182],[146.2744,-43.632,29.1095],[146.2767,-43.6344,5.8735],[146.2786,-43.6316,0.0],[146.2718,-43.6298,16.1164],[146.2699,-43.6311,5.1788],[146.2725,-43.6319,17.2182]]],
[[[146.2716,-43.6487,49.4214],[146.2692,-43.6536,1.1666],[146.27,-43.655,61.3395],[146.2671,-43.6575,1.2728],[146.2679,-43.6583,6.2452],[146.2825,-43.6561,28.3889],[146.2864,-43.6514,0.0],[146.2831,-43.6464,95.9671],[146.2842,-43.6456,0.0],[146.2792,-43.6437,47.2093],[146.281,-43.6405,12.8719],[146.2761,-43.6361,0.0],[146.2736,-43.6378,0.0],[146.2758,-43.6387,60.3176],[146.2742,-43.6389,24.4888],[146.2762,-43.6413,135.8205],[146.2745,-43.641,37.6703],[146.2751,-43.6432,79.4915],[146.2721,-43.6443,0.8656],[146.2737,-43.6445,79.4915],[146.2716,-43.6487,49.4214]]],
[[[146.3751,-43.6427,0.168],[146.3725,-43.6437,6.5455],[146.3739,-43.6456,1.0654],[146.3758,-43.6437,4.0883],[146.3751,-43.6427,0.168]]],
[[[146.3371,-43.5922,0.0],[146.3368,-43.5921,0.0],[146.3374,-43.5926,0.0],[146.3373,-43.5924,0.0],[146.3371,-43.5922,0.0]]],
[[[146.3755,-43.5992,0.0],[146.3755,-43.5993,0.0],[146.3756,-43.5992,0.0],[146.3755,-43.599,0.0],[146.3755,-43.5992,0.0]]],
[[[146.6404,-43.5891,0.0],[146.64,-43.5891,0.0],[146.6399,-43.5892,0.0],[146.6403,-43.5894,0.0],[146.6404,-43.5891,0.0]]],
[[[146.3369,-43.5919,0.0],[146.3368,-43.5919,0.0],[146.3369,-43.592,0.0],[146.3369,-43.5919,0.0]]],
[[[146.6397,-43.585,0.0],[146.6394,-43.5851,0.0],[146.6394,-43.5853,0.0],[146.6397,-43.5853,0.0],[146.6397,-43.585,0.0]]],
[[[146.6047,-43.5614,0.0],[146.6048,-43.5613,0.0],[146.6052,-43.5614,0.0],[146.6047,-43.561,29.4169],[146.6047,-43.5614,0.0]]],
[[[146.0697,-43.56,0.0],[146.0696,-43.5594,0.2778],[146.0687,-43.5596,0.0],[146.0693,-43.5595,0.2778],[146.0697,-43.56,0.0]]],
[[[146.1082,-43.5584,0.2967],[146.1084,-43.5587,0.2967],[146.1084,-43.5591,0.2967],[146.1086,-43.5585,0.2967],[146.1082,-43.5584,0.2967]]],
[[[146.533,-43.5652,0.0],[146.5345,-43.5638,8.1664],[146.529,-43.5637,21.2373],[146.5249,-43.5662,5.5655],[146.5209,-43.5717,36.107],[146.5203,-43.5758,0.0],[146.5171,-43.5778,0.0],[146.5151,-43.5821,0.0],[146.5187,-43.5792,50.1499],[146.5211,-43.5792,0.0],[146.5215,-43.5753,0.0],[146.524,-43.572,30.2431],[146.5281,-43.5722,8.3417],[146.528,-43.5692,72.0584],[146.533,-43.5652,0.0]]],
[[[146.6037,-43.5711,0.8477],[146.6023,-43.5707,2.0248],[146.6015,-43.5721,4.391],[146.6021,-43.5726,4.391],[146.6037,-43.5711,0.8477]]],
[[[146.5875,-43.5679,0.518],[146.5823,-43.5693,0.0],[146.5808,-43.5717,1.1489],[146.5819,-43.5718,1.1489],[146.5875,-43.5679,0.518]]],
[[[146.3377,-43.5927,89.4371],[146.3394,-43.5964,9.5307],[146.3385,-43.5974,9.5307],[146.3418,-43.6014,50.3307],[146.3413,-43.6028,0.0],[146.3446,-43.6056,2.5538],[146.3479,-43.605,55.9381],[146.3514,-43.6073,0.0],[146.354,-43.606,0.0],[146.3593,-43.607,0.0],[146.3641,-43.6047,0.0],[146.3641,-43.6027,78.8905],[146.3667,-43.6004,2.7923],[146.3764,-43.5986,0.0],[146.3776,-43.5965,0.0],[146.3751,-43.5914,18.82],[146.3765,-43.5903,6.9739],[146.3753,-43.5883,18.3799],[146.3766,-43.5874,0.0],[146.3748,-43.5868,0.2096],[146.3608,-43.5898,16.0807],[146.3477,-43.5867,6.1447],[146.3468,-43.5883,64.8061],[146.3393,-43.5875,0.0],[146.3411,-43.5887,12.5543],[146.3377,-43.5908,11.705],[146.3377,-43.5927,89.4371]]],
[[[146.6401,-43.5875,1.7559],[146.6398,-43.5877,0.0],[146.6397,-43.588,0.0],[146.6401,-43.5877,1.7559],[146.6401,-43.5875,1.7559]]],
[[[146.2874,-43.6179,0.0],[146.2856,-43.621,6.2412],[146.2877,-43.624,1.8503],[146.2908,-43.6224,48.5307],[146.2937,-43.6232,0.0],[146.2971,-43.6197,0.0],[146.2966,-43.6167,0.0],[146.2927,-43.613,2.6838],[146.2903,-43.6141,4.6047],[146.2893,-43.6177,6.6968],[146.2874,-43.6179,0.0]]],
[[[146.2888,-43.6165,6.6968],[146.2888,-43.6167,6.6968],[146.2891,-43.6167,6.6968],[146.2888,-43.6163,6.6968],[146.2888,-43.6165,6.6968]]],
[[[146.0964,-43.5572,0.0],[146.0967,-43.5578,1.2773],[146.0965,-43.556399999999996,0.0],[146.0962,-43.5569,0.0],[146.0964,-43.5572,0.0]]],
[[[146.9959,-43.552,0.5837],[146.9946,-43.5519,0.5837],[146.9923,-43.551,0.0],[146.9932,-43.5531,0.0],[146.9959,-43.552,0.5837]]],
[[[146.9254,-43.5446,0.479],[146.9259,-43.5453,0.479],[146.9265,-43.5449,0.0],[146.9261,-43.5444,0.0],[146.9254,-43.5446,0.479]]],
[[[146.356,-43.5378,1.9424],[146.3569,-43.5381,0.0],[146.3571,-43.5379,1.9424],[146.3564,-43.5375,1.9424],[146.356,-43.5378,1.9424]]],
[[[146.4198,-43.5394,0.0],[146.4204,-43.5392,0.0],[146.4205,-43.539,0.0],[146.42,-43.5391,0.0],[146.4198,-43.5394,0.0]]],
[[[146.4209,-43.5389,0.0],[146.4207,-43.5386,0.0],[146.4205,-43.5388,0.0],[146.4205,-43.539,0.0],[146.4209,-43.5389,0.0]]],
[[[146.4185,-43.5386,0.0],[146.4189,-43.5392,0.0],[146.4194,-43.5387,0.0],[146.4189,-43.5383,0.0],[146.4185,-43.5386,0.0]]],
[[[146.3722,-43.5343,1.3302],[146.3724,-43.5342,1.3302],[146.3724,-43.5341,1.3302],[146.3721,-43.5342,1.3302],[146.3722,-43.5343,1.3302]]],
[[[146.3674,-43.5358,1.9899],[146.3663,-43.535,1.9899],[146.3656,-43.5362,0.0],[146.3671,-43.5363,0.0],[146.3674,-43.5358,1.9899]]],
[[[146.3793,-43.536,0.0],[146.3801,-43.5355,0.0],[146.3797,-43.5348,0.0],[146.379,-43.5353,0.0],[146.3793,-43.536,0.0]]],
[[[146.3192,-43.5354,0.0],[146.3199,-43.5357,0.0],[146.3207,-43.5356,0.0],[146.3195,-43.535,0.0],[146.3192,-43.5354,0.0]]],
[[[146.1195,-43.5293,0.0],[146.119,-43.5278,4.5792],[146.1169,-43.5285,0.0],[146.1196,-43.531,0.0],[146.1195,-43.5293,0.0]]],
[[[146.3231,-43.5292,0.0],[146.3237,-43.5297,0.0],[146.3241,-43.5291,0.0],[146.3236,-43.5289,0.0],[146.3231,-43.5292,0.0]]],
[[[146.1229,-43.5293,0.0],[146.1233,-43.5295,0.0],[146.1229,-43.5288,0.0],[146.1226,-43.5289,0.0],[146.1229,-43.5293,0.0]]],
[[[146.1539,-43.5192,0.0],[146.1541,-43.5195,0.0],[146.1544,-43.5187,0.0],[146.1539,-43.5189,0.0],[146.1539,-43.5192,0.0]]],
[[[146.1629,-43.5186,0.0],[146.1633,-43.5181,0.0],[146.1632,-43.5173,0.0],[146.1625,-43.5191,0.0],[146.1629,-43.5186,0.0]]],
[[[146.9019,-43.5178,0.925],[146.9028,-43.5185,0.0],[146.9037,-43.5183,2.4414],[146.9028,-43.5168,0.925],[146.9019,-43.5178,0.925]]],
[[[146.9014,-43.5159,15.5449],[146.9012,-43.5169,14.3674],[146.9024,-43.5163,0.925],[146.9021,-43.5159,15.5449],[146.9014,-43.5159,15.5449]]],
[[[146.5596,-43.515,2.2328],[146.558,-43.5147,2.2328],[146.5589,-43.5156,2.2328],[146.5611,-43.515,0.0],[146.5596,-43.515,2.2328]]],
[[[146.2738,-43.5052,27.7357],[146.2739,-43.5051,27.7357],[146.2737,-43.5049,27.7357],[146.2736,-43.505,0.0],[146.2738,-43.5052,27.7357]]],
[[[146.9451,-43.4927,1.8793],[146.9471,-43.4922,0.0],[146.9468,-43.491,0.0],[146.9447,-43.4925,1.8793],[146.9451,-43.4927,1.8793]]],
[[[146.9471,-43.4885,0.0],[146.9469,-43.4887,0.0],[146.9469,-43.4891,0.0],[146.9473,-43.4888,0.0],[146.9471,-43.4885,0.0]]],
[[[146.9476,-43.483,0.0],[146.9477,-43.484,0.0],[146.9475,-43.4816,0.0],[146.9474,-43.4818,0.0],[146.9476,-43.483,0.0]]],
[[[146.9783,-43.4809,0.8365],[146.9798,-43.4799,0.0],[146.9778,-43.4798,0.8365],[146.9739,-43.4836,0.0],[146.9766,-43.4836,0.5107],[146.9783,-43.4809,0.8365]]],
[[[147.0114,-43.4757,0.0],[147.0072,-43.4755,2.1135],[147.0064,-43.4769,3.8403],[147.0098,-43.4773,5.8553],[147.0123,-43.4764,0.2416],[147.0114,-43.4757,0.0]]],
[[[147.0045,-43.4758,0.0],[147.0042,-43.4759,0.0],[147.0042,-43.4761,0.0],[147.0049,-43.4757,0.0],[147.0045,-43.4758,0.0]]],
[[[146.3236,-43.5315,0.0],[146.3234,-43.5316,0.0],[146.3236,-43.5316,0.0],[146.3236,-43.5315,0.0]]],
[[[146.3245,-43.533,0.6875],[146.3238,-43.5326,0.0],[146.3234,-43.533,0.6875],[146.3237,-43.5333,0.6875],[146.3245,-43.533,0.6875]]],
[[[146.3578,-43.5328,0.0],[146.3549,-43.5333,18.6163],[146.3549,-43.5371,2.6451],[146.3567,-43.5372,1.9424],[146.3585,-43.535,19.3815],[146.3591,-43.5373,0.0],[146.3591,-43.5352,19.3815],[146.3636,-43.536,9.5533],[146.3649,-43.5347,0.0],[146.3643,-43.5338,0.0],[146.3578,-43.5328,0.0]]],
[[[146.9963,-43.5339,2.032],[146.9985,-43.5337,0.0],[146.9972,-43.5322,0.9475],[146.9989,-43.5311,0.0],[146.9996,-43.5242,0.0],[146.9951,-43.5272,2.0836],[146.998,-43.5299,0.0],[146.9963,-43.5339,2.032]]]]}}