{"type":"Feature","properties":{"GID_2":"AUS.5.51_1","GID_0":"AUS","country":"Australia","GID_1":"AUS.5_1","state":"NewSouthWales","NL_NAME_1":"NA","county":"Gloucester","VARNAME_2":"NA","NL_NAME_2":"NA","TYPE_2":"Area","ENGTYPE_2":"Area","CC_2":"13050","HASC_2":"AU.NS.GC","name":"Gloucester.county"},
"geometry":{"type": "MultiPolygon","coordinates": [[[[151.6502,-32.1019,1001.1306],[151.6629,-32.0922,963.6157],[151.6645,-32.0878,892.5461],[151.6693,-32.0851,915.2956],[151.6749,-32.0909,873.1763],[151.6781,-32.0909,903.4348],[151.6852,-32.0803,718.6819],[151.6888,-32.0776,866.9683],[151.7032,-32.0777,644.9291],[151.7087,-32.0805,635.857],[151.7167,-32.0797,679.2625],[151.7227,-32.0848,693.593],[151.7318,-32.0875,787.2749],[151.7331,-32.0983,732.5978],[151.7365,-32.0969,728.6359],[151.74,-32.0989,712.9284],[151.7433,-32.0964,648.3212],[151.7476,-32.096,737.9208],[151.764,-32.0991,946.7036],[151.7664,-32.1041,952.6833],[151.7667,-32.11,949.7202],[151.7713,-32.1134,905.7956],[151.7732,-32.1204,868.0839],[151.7783,-32.1266,877.8883],[151.7884,-32.1298,807.2175],[151.7955,-32.136,838.6875],[151.7976,-32.1484,882.663],[151.7997,-32.1502,878.4585],[151.7965,-32.1567,848.1953],[151.9192,-32.175,137.7953],[151.9203,-32.1692,159.3971],[151.926,-32.17,165.8818],[151.9263,-32.168,155.8867],[151.9367,-32.1693,146.7236],[151.9372,-32.1671,159.2361],[151.9446,-32.1679,112.608],[151.9447,-32.1709,105.6619],[151.9453,-32.1694,111.6349],[151.9512,-32.1713,95.1847],[151.9541,-32.1705,106.2741],[151.9619,-32.1733,118.7702],[151.9995,-32.1688,252.3057],[152.0022,-32.1698,277.1151],[152.0022,-32.1805,408.3052],[152.0048,-32.187,441.4127],[152.0089,-32.189,443.6874],[152.0178,-32.1902,429.2962],[152.0198,-32.1854,353.8261],[152.0185,-32.1807,409.9351],[152.0197,-32.1782,379.7997],[152.0265,-32.1773,304.1072],[152.0278,-32.1746,288.5188],[152.0329,-32.1741,365.4607],[152.036,-32.1818,410.2355],[152.0417,-32.1838,462.665],[152.045,-32.1828,370.2344],[152.0515,-32.174,516.7209],[152.0537,-32.176,491.4407],[152.0949,-32.1817,201.5663],[152.1439,-31.9454,85.9595],[152.1491,-31.8815,33.7627],[152.1378,-31.884,33.6166],[152.1353,-31.882,34.6022],[152.1339,-31.8736,33.585],[152.1314,-31.8716,43.3666],[152.126,-31.8692,68.6284],[152.124,-31.8728,52.365],[152.1205,-31.8719,51.4498],[152.118,-31.8627,43.2727],[152.1139,-31.8581,64.5085],[152.113,-31.8547,50.1625],[152.1006,-31.8516,44.4438],[152.0965,-31.8371,43.6205],[152.0941,-31.8367,44.3186],[152.0844,-31.8411,47.845],[152.0822,-31.8404,56.6238],[152.0793,-31.8341,57.5382],[152.0801,-31.8277,49.7684],[152.0777,-31.8258,56.8096],[152.0673,-31.8255,59.3143],[152.0641,-31.8276,69.7577],[152.0647,-31.8329,59.9854],[152.0709,-31.8383,96.4538],[152.0704,-31.8405,123.5651],[152.0634,-31.8394,78.9177],[152.0571,-31.8416,71.5502],[152.0501,-31.8413,70.8304],[152.0419,-31.8376,88.6193],[152.039,-31.8389,65.8122],[152.0371,-31.8431,86.1138],[152.0338,-31.8439,69.465],[152.0288,-31.8404,68.4455],[152.0253,-31.8349,79.4282],[152.0283,-31.8307,79.4066],[152.0262,-31.8282,76.1779],[152.0152,-31.8293,96.1651],[152.0068,-31.8349,104.5479],[152.004,-31.8304,91.8898],[152.0057,-31.8264,75.7082],[152.0036,-31.8215,77.7694],[151.9949,-31.8217,82.0486],[151.9892,-31.8243,81.5446],[151.9847,-31.8231,74.4385],[151.9821,-31.8182,82.556],[151.9826,-31.81,78.4108],[151.98,-31.8064,84.8501],[151.9657,-31.8031,85.8905],[151.955,-31.8082,95.652],[151.9458,-31.8059,86.2334],[151.9436,-31.8,95.6633],[151.9454,-31.7972,100.8197],[151.9475,-31.781,480.2295],[151.9433,-31.7804,454.0086],[151.9471,-31.7785,485.9726],[151.9455,-31.7759,455.2147],[151.9492,-31.756,297.8629],[151.9528,-31.7566,279.6704],[151.9559,-31.754,302.6414],[151.959,-31.7573,266.7493],[151.9593,-31.7503,271.8547],[151.961,-31.7478,310.1875],[151.9656,-31.7484,271.4331],[151.9666,-31.7511,270.6209],[151.9783,-31.6915,171.4138],[151.9742,-31.6946,193.3598],[151.9692,-31.6949,170.0478],[151.9673,-31.6936,182.3739],[151.9643,-31.6981,195.9659],[151.9611,-31.6917,180.1986],[151.9549,-31.6944,187.7586],[151.9543,-31.6854,192.668],[151.9489,-31.6883,228.8163],[151.9467,-31.6929,199.5556],[151.9361,-31.6886,218.1667],[151.9342,-31.6824,220.9197],[151.9267,-31.6838,221.3682],[151.9288,-31.6798,231.4583],[151.9207,-31.6754,237.3735],[151.9186,-31.6714,239.5954],[151.9154,-31.6731,272.3112],[151.9097,-31.6703,264.2397],[151.9061,-31.673,290.2361],[151.9056,-31.6673,266.2008],[151.9019,-31.6671,272.5334],[151.9003,-31.665,263.8097],[151.8935,-31.6657,265.2137],[151.8912,-31.6618,273.351],[151.8859,-31.6604,282.678],[151.8815,-31.6565,283.6608],[151.8791,-31.6583,330.6497],[151.8795,-31.6634,343.5673],[151.8755,-31.6652,310.402],[151.8722,-31.6632,312.0676],[151.8722,-31.659,328.7404],[151.865,-31.6592,332.912],[151.8633,-31.6555,346.1821],[151.8569,-31.6537,344.6498],[151.8523,-31.6566,378.0366],[151.8527,-31.6547,354.8717],[151.8505,-31.6515,373.5157],[151.8477,-31.6504,379.7907],[151.846,-31.6519,379.4366],[151.8439,-31.6512,383.0248],[151.8439,-31.6496,383.0248],[151.8461,-31.6489,430.1151],[151.8431,-31.6446,409.2672],[151.8397,-31.6436,417.3391],[151.8348,-31.6445,436.6838],[151.8344,-31.642,454.6809],[151.8274,-31.6389,443.6172],[151.8253,-31.6341,508.1155],[151.8191,-31.6339,505.7073],[151.8183,-31.6314,517.1619],[151.8218,-31.6306,519.5477],[151.8243,-31.6278,534.155],[151.8213,-31.6244,542.6699],[151.8206,-31.6208,555.8099],[151.8165,-31.6193,564.3783],[151.8199,-31.6153,575.496],[151.8193,-31.6123,593.939],[151.8166,-31.6106,587.0715],[151.8072,-31.6094,643.619],[151.8077,-31.6067,663.9721],[151.8005,-31.6038,664.2076],[151.7984,-31.6005,668.1696],[151.7955,-31.6005,689.8437],[151.7946,-31.5959,715.0444],[151.7832,-31.5856,703.1885],[151.7816,-31.5926,762.1595],[151.7751,-31.5917,776.7073],[151.7753,-31.5904,747.8383],[151.7567,-31.6017,926.1338],[151.7573,-31.6075,872.1272],[151.756,-31.6092,852.9137],[151.7586,-31.6186,805.4189],[151.7563,-31.6205,777.9179],[151.7587,-31.6251,634.7365],[151.7561,-31.6257,626.7405],[151.756,-31.6318,406.7971],[151.7538,-31.6341,427.6818],[151.7568,-31.6381,363.1609],[151.7396,-31.6358,244.2768],[151.733,-31.6284,226.0186],[151.7269,-31.6268,229.2091],[151.7263,-31.629,222.3117],[151.7237,-31.6288,234.7786],[151.7187,-31.6266,243.128],[151.7132,-31.6206,257.6007],[151.7097,-31.624,237.2129],[151.7012,-31.6199,237.0357],[151.6991,-31.6234,259.9893],[151.6958,-31.6219,247.3215],[151.6906,-31.6228,241.6017],[151.6882,-31.6185,244.9244],[151.6922,-31.6147,265.9237],[151.6852,-31.6121,259.9595],[151.682,-31.6088,256.0003],[151.6741,-31.6132,267.9829],[151.6674,-31.6114,273.3745],[151.6649,-31.6137,264.4741],[151.6609,-31.6122,274.1501],[151.657,-31.6132,266.6575],[151.6592,-31.6081,301.8317],[151.6563,-31.6081,296.4884],[151.6564,-31.6048,271.3446],[151.6514,-31.6024,282.3247],[151.6501,-31.6023,296.5361],[151.6499,-31.6049,284.0134],[151.647,-31.6071,280.447],[151.642,-31.6054,298.947],[151.6426,-31.6085,288.9142],[151.6454,-31.6105,296.5052],[151.6397,-31.6116,333.2274],[151.6372,-31.6102,307.2664],[151.6337,-31.6153,327.1803],[151.6313,-31.6123,336.6216],[151.6286,-31.612,333.1385],[151.6283,-31.6087,366.952],[151.625,-31.6071,343.9688],[151.6197,-31.6085,358.6114],[151.6179,-31.6074,378.0628],[151.6161,-31.6089,360.0301],[151.6149,-31.6067,349.9852],[151.6098,-31.6081,358.5925],[151.6095,-31.602,402.5043],[151.6054,-31.5987,407.1491],[151.6018,-31.5992,371.0709],[151.6027,-31.5972,373.8396],[151.6014,-31.5955,395.1791],[151.5965,-31.6005,390.8266],[151.594,-31.5992,409.2393],[151.5907,-31.6029,400.9548],[151.5853,-31.6027,433.8298],[151.5844,-31.605,438.4205],[151.58,-31.6049,476.5291],[151.5803,-31.6035,422.2222],[151.5768,-31.6023,424.3316],[151.5757,-31.605,437.6564],[151.5711,-31.6062,436.4856],[151.5697,-31.61,454.8245],[151.5656,-31.6061,484.5267],[151.5614,-31.6067,472.9549],[151.561,-31.6034,436.1976],[151.5576,-31.6032,469.2256],[151.5575,-31.601,467.0654],[151.5514,-31.6008,498.7942],[151.5513,-31.6042,455.3195],[151.5365,-31.5991,480.5287],[151.5373,-31.5969,485.9458],[151.5356,-31.5961,535.1163],[151.5241,-31.6598,325.3605],[151.5209,-31.6648,367.4617],[151.5225,-31.6713,368.6638],[151.5211,-31.676,378.9329],[151.5237,-31.6784,392.6307],[151.5225,-31.6797,418.389],[151.5243,-31.682,398.6886],[151.5233,-31.6835,399.035],[151.527,-31.6848,410.3218],[151.5348,-31.6941,440.0493],[151.5324,-31.6973,454.3307],[151.5177,-31.7691,736.9664],[151.5204,-31.7686,705.7266],[151.5222,-31.771,701.9695],[151.526,-31.7701,687.3303],[151.5278,-31.7724,680.8449],[151.5298,-31.7724,677.9869],[151.531,-31.7703,668.3449],[151.5348,-31.7755,691.2128],[151.537,-31.7742,675.8317],[151.5408,-31.7758,661.542],[151.539,-31.7772,659.6366],[151.5414,-31.777,645.4574],[151.5444,-31.7818,647.4398],[151.5542,-31.7873,625.6384],[151.5569,-31.7854,608.8076],[151.5591,-31.7879,601.851],[151.568,-31.7905,591.7216],[151.5713,-31.7896,628.9708],[151.5719,-31.7874,595.1986],[151.5749,-31.7858,604.4882],[151.576,-31.7879,588.762],[151.5789,-31.7887,580.6904],[151.58,-31.7872,598.1924],[151.5825,-31.7887,566.3253],[151.584,-31.7851,548.5967],[151.5866,-31.7884,574.6982],[151.594,-31.7896,552.7947],[151.5888,-31.8139,675.1017],[151.5897,-31.8162,695.0793],[151.5853,-31.8194,824.0406],[151.5873,-31.8227,812.2534],[151.586,-31.8232,838.6953],[151.5847,-31.8293,826.3334],[151.5849,-31.8376,894.3553],[151.5817,-31.8448,942.3994],[151.5773,-31.8466,964.8547],[151.5773,-31.8499,995.9175],[151.5789,-31.8513,992.3578],[151.5768,-31.8548,1058.6934],[151.5693,-31.8569,1046.6616],[151.5683,-31.8591,1059.9666],[151.5632,-31.8616,1084.1182],[151.5564,-31.862,1086.301],[151.5509,-31.8598,1119.6172],[151.5556,-31.8582,1124.0425],[151.557,-31.8557,1122.0253],[151.5552,-31.8515,1128.6219],[151.5567,-31.8496,1127.8372],[151.5528,-31.8487,1129.272],[151.5525,-31.8473,1129.9447],[151.5485,-31.8505,1130.0966],[151.5464,-31.8483,1136.2991],[151.5442,-31.8497,1146.9486],[151.5419,-31.8473,1125.5442],[151.5356,-31.8455,1134.5272],[151.5309,-31.8467,1126.6213],[151.5303,-31.8487,1126.6237],[151.528,-31.8477,1128.7539],[151.5233,-31.851,1134.5603],[151.516,-31.8528,1140.2081],[151.5122,-31.8576,1138.2781],[151.5157,-31.8654,1167.9653],[151.5132,-31.8684,1171.907],[151.5087,-31.8697,1162.1182],[151.5025,-31.8756,1184.4863],[151.4936,-31.876,1221.4218],[151.4878,-31.8823,1265.8927],[151.4906,-31.8852,1230.5314],[151.4906,-31.8876,1219.8667],[151.4869,-31.8893,1255.9849],[151.4853,-31.8926,1232.1029],[151.4802,-31.8922,1257.2402],[151.4691,-31.8969,1291.0377],[151.4678,-31.9004,1288.6228],[151.4688,-31.9073,1291.5016],[151.4656,-31.9132,1335.7196],[151.4621,-31.9158,1341.2993],[151.46,-31.9209,1360.4833],[151.4557,-31.9231,1384.1512],[151.4504,-31.9442,1510.8473],[151.4438,-31.9474,1516.4963],[151.4416,-31.9518,1522.4255],[151.4447,-31.9533,1511.0234],[151.4464,-31.9596,1508.5837],[151.4487,-31.9617,1508.2944],[151.4461,-31.97,1581.6848],[151.4465,-31.9734,1582.0575],[151.4498,-31.9771,1538.4543],[151.4495,-31.9872,1516.9409],[151.4511,-31.9909,1538.1487],[151.4546,-31.9933,1510.3186],[151.4547,-31.996,1526.1241],[151.4509,-32.0007,1571.408],[151.4432,-32.0056,1548.7927],[151.4433,-32.0097,1469.832],[151.438,-32.0115,1473.9917],[151.4364,-32.0139,1479.5948],[151.4386,-32.0172,1472.2196],[151.4359,-32.0181,1476.913],[151.4331,-32.0167,1478.7937],[151.421,-32.022,1533.4059],[151.4086,-32.0327,1518.1519],[151.4029,-32.0414,1511.7047],[151.406,-32.045,1506.9171],[151.4133,-32.0415,1502.3026],[151.42,-32.0473,1496.6733],[151.4333,-32.0491,1531.71],[151.4379,-32.0542,1545.1857],[151.4452,-32.0511,1499.9314],[151.4551,-32.0518,1523.0774],[151.4616,-32.0566,1398.7637],[151.4655,-32.0565,1483.5776],[151.481,-32.0497,1502.2094],[151.4868,-32.0503,1473.6759],[151.4963,-32.0542,1466.4893],[151.4991,-32.0584,1458.7023],[151.5031,-32.058,1417.4142],[151.5067,-32.0623,1348.1887],[151.5193,-32.0636,1383.36],[151.5202,-32.0662,1376.0361],[151.5272,-32.069,1346.4998],[151.5427,-32.0713,1317.4042],[151.5529,-32.0788,1337.9602],[151.5527,-32.0812,1363.5282],[151.5557,-32.084,1320.0824],[151.5629,-32.0881,1273.4219],[151.5694,-32.089,1268.6897],[151.5698,-32.0907,1272.8861],[151.5737,-32.0922,1259.1099],[151.5754,-32.0962,1236.2356],[151.5943,-32.1059,1247.891],[151.6082,-32.1034,1170.313],[151.6206,-32.0963,1157.337],[151.6268,-32.0972,1023.3079],[151.6282,-32.0954,945.9436],[151.6323,-32.0975,803.1066],[151.6414,-32.0973,857.8696],[151.6409,-32.0985,922.0132],[151.6502,-32.1019,1001.1306]]]]}}