{"type":"Feature","properties":{"GID_2":"AUS.11.60_1","GID_0":"AUS","country":"Australia","GID_1":"AUS.11_1","state":"WesternAustralia","NL_NAME_1":"NA","county":"Kalamunda","VARNAME_2":"NA","NL_NAME_2":"NA","TYPE_2":"Shire","ENGTYPE_2":"Shire","CC_2":"54200","HASC_2":"AU.WA.KL","name":"Kalamunda.county"},
"geometry":{"type": "MultiPolygon","coordinates": [[[[116.2849,-32.083,329.9296],[116.285,-32.0621,173.7072],[116.2889,-32.0622,154.105],[116.2884,-32.0609,160.9034],[116.2856,-32.0582,156.3833],[116.2815,-32.058,165.1184],[116.2767,-32.0514,148.5326],[116.2737,-32.0505,175.567],[116.2745,-32.0464,153.9492],[116.2726,-32.0425,145.8783],[116.2604,-32.0335,145.8918],[116.2559,-32.0278,148.4798],[116.2567,-32.0245,145.9157],[116.2541,-32.0208,139.9321],[116.2504,-32.0196,138.112],[116.2458,-32.0218,136.6083],[116.2375,-32.0157,135.0872],[116.2355,-32.0139,134.3076],[116.2355,-32.0097,134.1389],[116.2306,-32.0075,130.0],[116.2232,-31.9986,130.0],[116.2187,-31.9994,140.6438],[116.2212,-31.996,130.0],[116.2177,-31.9964,149.3195],[116.2118,-31.9935,169.0074],[116.2124,-31.9891,130.0],[116.2092,-31.9889,145.7799],[116.2065,-31.9815,130.6022],[116.2036,-31.9824,146.3391],[116.2021,-31.9796,137.4017],[116.1977,-31.9792,130.0],[116.197,-31.9771,133.4812],[116.1903,-31.9791,140.6571],[116.1934,-31.9767,145.3911],[116.1892,-31.973,152.3921],[116.191,-31.9713,132.3673],[116.1828,-31.9681,140.1819],[116.1773,-31.9698,149.2185],[116.1781,-31.9677,130.0],[116.1766,-31.9652,134.2918],[116.1715,-31.966,130.7366],[116.1701,-31.9694,133.5471],[116.1688,-31.9675,150.9438],[116.1715,-31.9622,130.0],[116.1651,-31.9567,127.706],[116.1586,-31.9564,112.5108],[116.1545,-31.9545,117.7487],[116.1539,-31.9523,117.9114],[116.1512,-31.9535,110.6582],[116.1459,-31.95,108.9993],[116.1352,-31.9478,102.2119],[116.1372,-31.9424,118.6072],[116.1251,-31.9374,95.5924],[116.1193,-31.9396,94.6025],[116.1178,-31.9362,100.9505],[116.1131,-31.936,114.5947],[116.1086,-31.9376,84.3444],[116.1082,-31.9417,88.3636],[116.1031,-31.9462,56.7104],[116.0959,-31.9462,82.9507],[116.0934,-31.9479,60.9313],[116.0811,-31.9494,47.0341],[116.0781,-31.9481,79.1156],[116.0755,-31.9389,41.2637],[116.0651,-31.9341,26.9241],[116.0653,-31.9317,26.6025],[116.0608,-31.9261,24.942],[116.0531,-31.9298,49.2864],[116.0518,-31.933,85.7731],[116.0438,-31.9313,84.603],[116.0434,-31.9377,97.5226],[116.0404,-31.9401,78.8057],[115.9933,-31.9225,18.4194],[115.9954,-31.9283,21.8762],[115.9874,-31.9349,22.0606],[115.9894,-31.9366,22.2399],[115.981,-31.9436,19.9323],[115.9875,-31.9491,26.3089],[115.9771,-31.9927,19.1423],[115.9772,-32.0044,14.4469],[115.9894,-32.014,15.1695],[115.9947,-32.0095,21.7721],[116.0025,-32.0236,29.6772],[116.0144,-32.0135,43.8848],[116.0294,-32.0263,69.596],[116.0332,-32.0232,124.0458],[116.0416,-32.0304,96.0613],[116.0403,-32.0314,126.4621],[116.0495,-32.0405,251.3158],[116.0561,-32.0404,192.2326],[116.0563,-32.0506,254.1396],[116.0652,-32.0506,213.3069],[116.0653,-32.0593,283.606],[116.0687,-32.0593,277.6364],[116.0685,-32.0728,326.4819],[116.0896,-32.0728,332.3632],[116.0896,-32.0851,323.1554],[116.1085,-32.0851,309.8204],[116.1085,-32.0826,305.51],[116.1241,-32.0826,370.2991],[116.1241,-32.0851,352.4892],[116.1802,-32.0855,265.4137],[116.1802,-32.0793,264.4526],[116.1881,-32.0793,269.596],[116.1881,-32.0702,309.5263],[116.1923,-32.0702,293.4511],[116.1923,-32.0793,276.4209],[116.1908,-32.0793,266.5041],[116.1908,-32.0829,286.3786],[116.2849,-32.083,329.9296]]]]}}