{"type":"Feature","properties":{"GID_2":"AUS.5.86_1","GID_0":"AUS","country":"Australia","GID_1":"AUS.5_1","state":"NewSouthWales","NL_NAME_1":"NA","county":"Lockhart","VARNAME_2":"NA","NL_NAME_2":"NA","TYPE_2":"Area","ENGTYPE_2":"Area","CC_2":"14950","HASC_2":"AU.NS.LO","name":"Lockhart.county"},
"geometry":{"type": "MultiPolygon","coordinates": [[[[147.1599,-35.4645,317.9081],[147.1639,-35.4387,306.2253],[147.1786,-35.4418,328.1703],[147.179,-35.4393,340.1275],[147.184,-35.4399,347.8318],[147.1857,-35.4315,313.6523],[147.1765,-35.4303,298.8301],[147.179,-35.4174,292.3511],[147.1667,-35.4158,272.2606],[147.1694,-35.4036,296.3138],[147.1736,-35.4027,309.6258],[147.18,-35.3965,284.926],[147.1814,-35.3892,290.7618],[147.1779,-35.3888,290.1449],[147.1796,-35.3798,312.1019],[147.1655,-35.378,320.7211],[147.1682,-35.3636,327.5404],[147.1776,-35.3648,290.6704],[147.1796,-35.3548,280.4504],[147.1819,-35.3551,277.1152],[147.184,-35.3444,273.508],[147.1915,-35.3448,261.9334],[147.1921,-35.3416,269.2655],[147.1949,-35.342,262.0479],[147.1977,-35.3273,250.3336],[147.2081,-35.3361,250.7054],[147.2139,-35.3447,254.996],[147.2153,-35.3371,251.0272],[147.2307,-35.3389,251.6294],[147.2314,-35.3357,250.3789],[147.229,-35.3355,250.0105],[147.2284,-35.3314,248.6075],[147.2312,-35.3281,247.2177],[147.2289,-35.3264,245.7767],[147.232,-35.3241,244.1709],[147.2328,-35.3184,246.1499],[147.2299,-35.3152,243.7833],[147.2315,-35.3039,241.3168],[147.2247,-35.3037,241.412],[147.2242,-35.3002,239.6721],[147.2216,-35.3024,240.0648],[147.2166,-35.302,240.4832],[147.2163,-35.3,239.8161],[147.2139,-35.2991,238.7296],[147.2107,-35.3004,237.1452],[147.2084,-35.2966,237.799],[147.2047,-35.2961,236.0117],[147.2023,-35.2975,235.8763],[147.1926,-35.291,232.7271],[147.1853,-35.2908,232.3013],[147.1779,-35.2847,230.2193],[147.1768,-35.2816,228.1389],[147.1745,-35.2815,229.2021],[147.1747,-35.2797,228.0047],[147.1728,-35.2784,228.5067],[147.1732,-35.2753,228.4609],[147.1708,-35.2722,226.8539],[147.1653,-35.2702,226.08],[147.1639,-35.2666,224.7454],[147.1591,-35.2642,222.4579],[147.1575,-35.2611,224.8461],[147.1554,-35.2602,222.7321],[147.1544,-35.2614,223.6673],[147.1478,-35.2533,221.5341],[147.141,-35.2541,226.9217],[147.1468,-35.2474,223.8154],[147.1388,-35.2465,247.052],[147.1415,-35.2321,243.5228],[147.1399,-35.2319,249.7223],[147.1493,-35.1809,209.0043],[147.0582,-35.1692,182.458],[147.0573,-35.1738,183.2258],[147.0534,-35.1733,182.6794],[147.0508,-35.1872,185.9843],[147.034,-35.1852,185.8674],[147.0323,-35.1878,185.7153],[147.0149,-35.1857,184.1295],[147.016,-35.1799,183.2078],[146.9902,-35.1766,179.5974],[146.9905,-35.1747,179.6838],[146.9452,-35.1689,172.3207],[146.9446,-35.1722,172.7613],[146.9355,-35.1711,172.2357],[146.932,-35.1677,171.5211],[146.9302,-35.1616,171.6512],[146.8561,-35.1807,226.3067],[146.8596,-35.1726,213.9674],[146.8438,-35.1766,210.2863],[146.846,-35.1653,227.6081],[146.8412,-35.1592,223.327],[146.843,-35.1499,224.2426],[146.8324,-35.1484,224.4817],[146.8266,-35.1411,227.1707],[146.8283,-35.1327,224.6568],[146.8187,-35.1314,221.2265],[146.8121,-35.1231,216.7822],[146.805,-35.1221,231.4923],[146.806,-35.1171,231.0146],[146.7945,-35.1055,244.0842],[146.7885,-35.1045,264.1182],[146.7825,-35.0989,231.3002],[146.7703,-35.0973,224.3074],[146.772,-35.0877,199.68],[146.7615,-35.0764,191.9198],[146.6886,-35.068,177.0111],[146.6873,-35.0712,177.0278],[146.6616,-35.0893,160.3638],[146.6493,-35.0912,153.7238],[146.6252,-35.1007,150.7837],[146.626,-35.1017,152.6302],[146.6169,-35.1122,149.1192],[146.6152,-35.112,148.2037],[146.6147,-35.1144,147.7497],[146.604,-35.112,147.7728],[146.604,-35.1142,148.0351],[146.6,-35.1135,147.7616],[146.5996,-35.1168,146.5851],[146.5958,-35.1155,145.6909],[146.5913,-35.1171,145.3633],[146.572,-35.1166,143.9727],[146.5643,-35.1188,142.5874],[146.4513,-35.1912,129.6088],[146.452,-35.1877,129.3084],[146.4483,-35.1872,132.5352],[146.4468,-35.1941,133.5298],[146.3893,-35.2317,146.5669],[146.3864,-35.2474,144.1516],[146.4137,-35.2505,139.1676],[146.4038,-35.3045,124.3622],[146.3925,-35.303,129.1085],[146.3888,-35.3228,124.2725],[146.3721,-35.3209,127.3911],[146.3699,-35.3372,122.1881],[146.364,-35.3377,121.9564],[146.3542,-35.3878,139.6353],[146.3651,-35.3893,129.0495],[146.3683,-35.3937,127.821],[146.3684,-35.3973,127.48],[146.3745,-35.4049,127.6284],[146.3808,-35.4057,127.3378],[146.3797,-35.4114,128.3574],[146.3912,-35.426,129.5375],[146.3915,-35.4304,130.3246],[146.399,-35.4344,130.3383],[146.4038,-35.4396,132.8156],[146.4055,-35.4445,131.8844],[146.4312,-35.475,135.4407],[146.4319,-35.4714,135.0956],[146.47,-35.4763,139.5962],[146.4696,-35.4784,138.9341],[146.5074,-35.483,146.941],[146.5135,-35.485,148.6231],[146.5403,-35.4872,164.2899],[146.5397,-35.4905,164.4847],[146.5548,-35.4916,171.8899],[146.5543,-35.4944,172.1665],[146.5604,-35.4965,171.5926],[146.6698,-35.5203,177.0703],[146.6671,-35.5376,172.741],[146.6643,-35.5373,171.051],[146.6623,-35.5478,182.4867],[146.6742,-35.5492,165.8727],[146.673,-35.5553,166.8068],[146.7007,-35.5582,183.1776],[146.7034,-35.5616,180.6855],[146.7961,-35.575,233.3584],[146.7977,-35.5663,224.9446],[146.8714,-35.5759,264.1708],[146.8723,-35.5711,269.283],[146.8884,-35.5732,290.204],[146.8909,-35.5605,285.6694],[146.9008,-35.5605,289.4669],[146.9102,-35.5546,304.1753],[146.9117,-35.5475,270.163],[146.9222,-35.5471,258.3633],[146.9537,-35.5279,241.8844],[146.953,-35.5248,243.2868],[146.9557,-35.5251,245.9206],[146.9555,-35.5231,260.4575],[146.9621,-35.5239,226.7834],[146.9708,-35.5194,234.2006],[146.9797,-35.5223,227.1193],[146.9819,-35.5156,266.121],[146.9912,-35.5168,245.992],[146.9929,-35.5074,248.4191],[146.9906,-35.5071,245.8183],[146.9939,-35.4893,224.2404],[147.0148,-35.4936,228.091],[147.0148,-35.4919,228.7593],[147.0169,-35.4937,228.5574],[147.0322,-35.4857,231.7889],[147.0345,-35.4865,232.9167],[147.0402,-35.4842,280.5905],[147.0436,-35.478,299.8143],[147.0487,-35.4768,286.4483],[147.052,-35.4728,283.5303],[147.0519,-35.4704,291.797],[147.0549,-35.4689,289.38],[147.0576,-35.4698,287.2275],[147.0712,-35.4606,295.5645],[147.0702,-35.453,298.9486],[147.0873,-35.4505,336.9082],[147.0968,-35.4525,304.6653],[147.0986,-35.4544,306.8733],[147.1053,-35.4527,345.0282],[147.1102,-35.456,381.6623],[147.1134,-35.455,409.6013],[147.1193,-35.457,407.6335],[147.1218,-35.4562,402.9347],[147.1265,-35.4646,387.4548],[147.13,-35.4652,366.0775],[147.1337,-35.4683,372.424],[147.1431,-35.4671,356.6917],[147.1578,-35.4692,334.443],[147.1599,-35.4645,317.9081]]]]}}