{"type":"Feature","properties":{"GID_2":"AUS.8.42_1","GID_0":"AUS","country":"Australia","GID_1":"AUS.8_1","state":"SouthAustralia","NL_NAME_1":"NA","county":"Onkaparinga","VARNAME_2":"NA","NL_NAME_2":"NA","TYPE_2":"City","ENGTYPE_2":"City","CC_2":"45340","HASC_2":"AU.SA.ON","name":"Onkaparinga.county"},
"geometry":{"type": "MultiPolygon","coordinates": [[[[138.676,-35.0301,338.1976],[138.6751,-35.0315,345.8277],[138.6712,-35.0308,345.7011],[138.67,-35.0332,331.0077],[138.6655,-35.0345,364.5063],[138.6647,-35.0366,352.4666],[138.6632,-35.0351,314.782],[138.6633,-35.0365,318.3414],[138.6601,-35.0377,304.294],[138.6563,-35.0364,288.4768],[138.6552,-35.0376,275.7937],[138.6525,-35.0354,273.7393],[138.6415,-35.0372,250.042],[138.6298,-35.0318,210.3674],[138.6236,-35.0364,191.4837],[138.6262,-35.0396,185.2236],[138.624,-35.0431,183.0017],[138.6152,-35.0471,166.6612],[138.6125,-35.0467,170.8839],[138.6095,-35.0505,165.5656],[138.6037,-35.0476,167.0873],[138.599,-35.0494,142.8884],[138.5966,-35.0457,149.9442],[138.5874,-35.0405,122.6941],[138.5843,-35.0369,118.8923],[138.5712,-35.038,103.7638],[138.5707,-35.0361,72.4533],[138.5722,-35.035,70.5349],[138.5701,-35.0325,60.9314],[138.5636,-35.0296,70.8106],[138.563,-35.0233,43.0725],[138.5586,-35.0268,57.4631],[138.5561,-35.0313,85.285],[138.5605,-35.0368,116.2347],[138.5599,-35.0598,177.6434],[138.5552,-35.0645,172.7013],[138.5539,-35.0715,153.1441],[138.5415,-35.0874,110.0053],[138.5386,-35.0889,91.9792],[138.4956,-35.0906,39.8059],[138.4928,-35.0933,60.8847],[138.4894,-35.091,57.7043],[138.4857,-35.0909,0.9975],[138.4768,-35.1003,0.0],[138.4718,-35.1097,13.0049],[138.4691,-35.1093,0.0],[138.4709,-35.1104,13.0049],[138.4706,-35.115,5.773],[138.4674,-35.1215,0.0],[138.4698,-35.1404,8.36],[138.4665,-35.1441,0.0],[138.4665,-35.1475,0.0],[138.4686,-35.1511,0.0],[138.4699,-35.1647,17.1543],[138.4657,-35.167,0.9767],[138.4654,-35.1734,3.3884],[138.4706,-35.2033,1.5042],[138.4709,-35.2116,35.6987],[138.4675,-35.2194,0.0],[138.4699,-35.2395,7.0271],[138.4673,-35.2451,13.6716],[138.4622,-35.2454,2.9272],[138.4599,-35.2615,0.0],[138.4504,-35.2689,7.5114],[138.4452,-35.27,8.8067],[138.4432,-35.2721,0.0],[138.4424,-35.2846,0.0],[138.4448,-35.2908,10.7064],[138.4477,-35.3125,0.0],[138.4467,-35.3341,7.8692],[138.443,-35.3425,0.0],[138.4576,-35.3502,132.5055],[138.4619,-35.3503,241.8592],[138.4722,-35.3463,284.8768],[138.4801,-35.3488,360.8248],[138.4833,-35.3478,346.3218],[138.4907,-35.3385,355.4085],[138.5022,-35.3303,379.1956],[138.5072,-35.3308,354.7291],[138.5129,-35.328,357.0487],[138.5131,-35.3237,350.5351],[138.5223,-35.3218,356.0947],[138.5335,-35.3136,351.8736],[138.5421,-35.3152,368.2076],[138.5473,-35.3142,378.5411],[138.5493,-35.3108,386.6481],[138.5566,-35.3082,380.1286],[138.5569,-35.3064,375.193],[138.5638,-35.303,376.6772],[138.5648,-35.2998,379.0233],[138.5686,-35.2998,372.8715],[138.5778,-35.2923,378.1146],[138.5822,-35.2911,371.9258],[138.586,-35.2845,375.2535],[138.6001,-35.2696,372.5124],[138.6116,-35.2612,367.9662],[138.6135,-35.2575,371.2407],[138.6151,-35.2575,369.313],[138.6195,-35.2479,347.1506],[138.6267,-35.2453,356.2473],[138.6257,-35.2408,357.2062],[138.6298,-35.2338,358.8624],[138.6349,-35.2308,357.395],[138.6375,-35.2249,372.0475],[138.6365,-35.22,378.956],[138.6402,-35.2155,390.6188],[138.6414,-35.2107,402.1545],[138.6519,-35.2083,390.6681],[138.6529,-35.2048,385.0429],[138.6999,-35.2105,292.9963],[138.6973,-35.1795,328.2867],[138.7134,-35.1537,346.7288],[138.7042,-35.152,345.3903],[138.6947,-35.1207,240.0],[138.6886,-35.1186,240.0],[138.6858,-35.1201,249.934],[138.6848,-35.1178,258.7534],[138.682,-35.0848,253.7927],[138.6842,-35.0846,274.1865],[138.6838,-35.0797,257.4067],[138.6854,-35.0796,275.3502],[138.6835,-35.0525,418.7384],[138.6863,-35.0514,421.4518],[138.6852,-35.042,415.0231],[138.6802,-35.0393,417.6794],[138.6818,-35.0382,392.5717],[138.6825,-35.0275,363.1663],[138.676,-35.0301,338.1976]]]]}}