{"type": "Feature","bbox": [150.1454,-31.6619,151.4851,-30.1822],"geometry": {"type": "MultiPolygon","coordinates": [[[[150.5924,-31.0822,604.8842],[150.6151,-31.0855,696.0824],[150.6189,-31.0873,746.7234],[150.6221,-31.0958,781.0632],[150.6317,-31.1052,806.0783],[150.6307,-31.1103,668.9317],[150.6369,-31.1112,784.2852],[150.6398,-31.1154,773.6362],[150.6376,-31.1188,755.2628],[150.6405,-31.1248,792.9795],[150.6468,-31.1261,844.1368],[150.649,-31.1242,872.5251],[150.6527,-31.1313,818.9564],[150.6605,-31.1345,724.7416],[150.66,-31.1371,814.2836],[150.6638,-31.1368,775.7196],[150.6712,-31.144,679.6179],[150.6761,-31.1503,701.5529],[150.6793,-31.1579,671.902],[150.6828,-31.1596,623.0807],[150.6831,-31.1687,677.1288],[150.6922,-31.176,686.4095],[150.6917,-31.1784,723.0861],[150.6936,-31.1776,718.8588],[150.6973,-31.1827,700.4475],[150.7028,-31.185,625.0986],[150.7089,-31.1818,546.4476],[150.7188,-31.1833,553.6029],[150.726,-31.1912,599.0673],[150.7306,-31.1929,590.694],[150.7279,-31.2062,842.6257],[150.7547,-31.2101,579.1497],[150.7498,-31.2344,501.0328],[150.753,-31.2348,532.1925],[150.7535,-31.2325,534.6877],[150.7807,-31.2364,514.8636],[150.7795,-31.2421,497.6441],[150.7767,-31.2417,499.3578],[150.776,-31.2449,507.0934],[150.7678,-31.2436,516.5793],[150.7671,-31.2472,527.4093],[150.769,-31.2475,539.2005],[150.7684,-31.2511,609.0628],[150.7724,-31.2517,565.7022],[150.7717,-31.2555,590.1753],[150.7743,-31.2559,531.093],[150.7736,-31.2595,488.0665],[150.7777,-31.2603,500.2943],[150.7754,-31.2717,461.1347],[150.7768,-31.2717,463.9834],[150.7791,-31.268,465.6933],[150.7802,-31.269,465.3351],[150.782,-31.2679,469.6932],[150.7826,-31.2695,468.9576],[150.7847,-31.2687,471.2565],[150.7818,-31.2811,538.9897],[150.7845,-31.2815,538.1523],[150.7839,-31.2843,594.4813],[150.7852,-31.2845,564.9229],[150.7838,-31.293,541.0574],[150.7821,-31.301,531.6461],[150.7785,-31.3004,532.4741],[150.778,-31.3029,519.6338],[150.7947,-31.3056,517.1244],[150.7917,-31.3089,530.4761],[150.7896,-31.3087,531.2592],[150.7881,-31.3119,537.2986],[150.7897,-31.3171,546.3061],[150.7897,-31.3275,569.203],[150.7879,-31.3275,577.1094],[150.787,-31.3294,571.3586],[150.7748,-31.3276,575.1132],[150.7734,-31.3341,596.6526],[150.7776,-31.3348,605.5211],[150.7783,-31.3312,580.2054],[150.7813,-31.3316,591.0168],[150.7807,-31.3346,610.1986],[150.7854,-31.3353,615.9191],[150.7843,-31.341,634.5956],[150.7906,-31.3419,610.2346],[150.7879,-31.3559,733.2338],[150.7917,-31.3564,722.6846],[150.7912,-31.3588,731.6212],[150.8199,-31.3629,707.5985],[150.8192,-31.3661,836.6811],[150.8148,-31.3654,985.1804],[150.8188,-31.371,968.724],[150.8174,-31.3764,873.0608],[150.8195,-31.3801,787.8271],[150.822,-31.3805,773.5412],[150.8163,-31.4014,752.9518],[150.8423,-31.4051,881.4078],[150.8421,-31.4064,850.6823],[150.8373,-31.4057,918.8765],[150.836,-31.4116,801.2957],[150.8573,-31.4142,816.772],[150.8569,-31.4164,786.5333],[150.8655,-31.4177,659.5884],[150.8643,-31.4233,758.4977],[150.8662,-31.4236,700.8935],[150.8656,-31.4267,741.8331],[150.868,-31.4271,710.9512],[150.8673,-31.4304,775.6904],[150.8733,-31.4313,794.4429],[150.872,-31.4382,808.8932],[150.8777,-31.4403,700.5303],[150.8812,-31.4529,777.0356],[150.9002,-31.4567,963.8801],[150.9089,-31.4698,746.3486],[150.9092,-31.4825,722.749],[150.9124,-31.487,726.9976],[150.9131,-31.491,749.1833],[150.9183,-31.4918,765.067],[150.9167,-31.499,749.4077],[150.9232,-31.5,842.5748],[150.9206,-31.5131,884.1064],[150.9397,-31.5156,996.0509],[150.9491,-31.5337,1029.359],[150.9533,-31.5342,1057.514],[150.9564,-31.5365,1018.6016],[150.9574,-31.5398,1055.4307],[150.9704,-31.551,985.6864],[150.9686,-31.5595,1132.0194],[150.9797,-31.5622,1232.903],[150.982,-31.564,1206.6394],[150.9834,-31.5706,1169.0682],[150.9951,-31.5756,1324.1606],[150.9931,-31.5792,1304.5363],[150.9948,-31.588,1346.0054],[150.9921,-31.5886,1365.2094],[150.9901,-31.5935,1322.3188],[150.9988,-31.6027,1362.8752],[151.0191,-31.6001,1171.8252],[151.0306,-31.5947,1189.5811],[151.0405,-31.5987,988.0942],[151.0477,-31.5987,1031.5057],[151.0527,-31.6005,1107.4341],[151.0545,-31.598,1091.5265],[151.0676,-31.5948,1253.7449],[151.0759,-31.6019,1180.0009],[151.0762,-31.6079,1139.7039],[151.0897,-31.6116,1159.998],[151.0923,-31.6167,1141.891],[151.0988,-31.6162,1127.7872],[151.1015,-31.618,1063.6492],[151.1104,-31.6191,1186.9475],[151.1173,-31.632,1196.9066],[151.1392,-31.6264,1411.6025],[151.1444,-31.6281,1357.9441],[151.1531,-31.6261,1354.9265],[151.1655,-31.6326,1385.7872],[151.1755,-31.6289,1352.1379],[151.185,-31.6328,1353.5938],[151.1955,-31.6402,1351.6997],[151.2051,-31.642,1301.5432],[151.2226,-31.6487,1258.7334],[151.2257,-31.6522,1270.6853],[151.2306,-31.6533,1298.291],[151.233,-31.6523,1299.3103],[151.2318,-31.6561,1313.2635],[151.2352,-31.6619,1312.9851],[151.2383,-31.646,1207.2085],[151.2472,-31.6472,1203.7675],[151.2519,-31.6226,793.2003],[151.2552,-31.6232,763.8611],[151.2562,-31.6175,820.5087],[151.2635,-31.618,736.1602],[151.2665,-31.6129,703.756],[151.2736,-31.6098,707.6795],[151.2734,-31.6077,695.178],[151.2787,-31.6042,673.4238],[151.281,-31.5997,667.8005],[151.2851,-31.6007,672.5191],[151.2868,-31.5973,652.8299],[151.2927,-31.5936,648.9487],[151.2939,-31.5861,632.0221],[151.2966,-31.5851,638.4965],[151.2995,-31.5879,626.5311],[151.3014,-31.5859,662.8165],[151.3047,-31.5883,646.5035],[151.3046,-31.5837,648.0626],[151.3075,-31.582,607.8531],[151.3071,-31.5793,623.8736],[151.3109,-31.5812,604.5536],[151.3116,-31.579,607.3007],[151.3173,-31.5804,599.9607],[151.3201,-31.5788,601.2941],[151.3193,-31.5763,593.0567],[151.3254,-31.5757,589.007],[151.3265,-31.5727,603.1956],[151.323,-31.5709,591.0099],[151.3226,-31.5688,597.8013],[151.3281,-31.5675,598.652],[151.3265,-31.5614,572.2351],[151.3322,-31.5624,567.7429],[151.3351,-31.5647,567.9629],[151.3387,-31.5622,567.2673],[151.3364,-31.561,558.3962],[151.3363,-31.5589,551.9994],[151.3434,-31.556,563.9061],[151.347,-31.5612,549.3478],[151.3502,-31.5607,564.9742],[151.3507,-31.5641,533.5262],[151.3539,-31.5592,564.668],[151.3584,-31.5607,539.6069],[151.3616,-31.5587,546.8821],[151.3661,-31.5603,538.4391],[151.3723,-31.5574,556.8965],[151.3739,-31.558,524.5603],[151.3745,-31.5611,532.8518],[151.3773,-31.5618,527.0423],[151.3855,-31.5548,509.1794],[151.3879,-31.5565,545.9753],[151.3931,-31.5538,506.9436],[151.3936,-31.555,533.1926],[151.3896,-31.5598,509.3146],[151.3929,-31.5626,511.308],[151.3946,-31.5623,502.5382],[151.3949,-31.56,518.0048],[151.4017,-31.5627,497.6726],[151.3998,-31.5603,502.0608],[151.4009,-31.558,496.8955],[151.4055,-31.563,495.8567],[151.4061,-31.5659,492.3391],[151.4106,-31.5653,492.1692],[151.4086,-31.5626,511.6836],[151.4115,-31.5615,490.1753],[151.4135,-31.5645,495.238],[151.4202,-31.563,484.8612],[151.4213,-31.5658,490.5131],[151.4192,-31.5672,494.0789],[151.4238,-31.5695,481.0513],[151.4256,-31.5679,489.3449],[151.424,-31.5652,484.2039],[151.4267,-31.5652,490.2802],[151.4267,-31.5623,467.2167],[151.428,-31.5622,467.2167],[151.429,-31.5668,480.2827],[151.4327,-31.5668,512.786],[151.4303,-31.5699,509.4962],[151.4308,-31.5746,470.0477],[151.436,-31.5757,458.0044],[151.4332,-31.5796,475.1172],[151.4371,-31.5783,455.606],[151.4384,-31.5812,483.3896],[151.4346,-31.5844,457.1158],[151.4376,-31.5862,455.7484],[151.4333,-31.5911,450.7508],[151.4339,-31.5952,441.1149],[151.4402,-31.594,444.4242],[151.4403,-31.5963,442.846],[151.4435,-31.6,429.1543],[151.4492,-31.6014,441.7857],[151.4487,-31.6062,469.6534],[151.4547,-31.6102,430.7365],[151.4577,-31.6096,421.5692],[151.4666,-31.564,982.8611],[151.4776,-31.5655,874.5782],[151.4806,-31.5616,860.922],[151.4788,-31.5577,883.052],[151.4811,-31.5546,884.493],[151.4837,-31.554,891.2879],[151.4846,-31.5526,908.9233],[151.4835,-31.5508,916.0002],[151.4851,-31.5502,900.9412],[151.4824,-31.5472,885.8806],[151.4675,-31.5451,978.463],[151.4636,-31.5421,999.3568],[151.4541,-31.5392,1021.3818],[151.4443,-31.5309,1130.5188],[151.4376,-31.5286,1135.2693],[151.4285,-31.5176,1224.0514],[151.4264,-31.5113,1250.5736],[151.4177,-31.5052,1277.6582],[151.4195,-31.5021,1244.5312],[151.4264,-31.5007,1280.9938],[151.4277,-31.4987,1283.7034],[151.4231,-31.496,1262.5364],[151.4212,-31.493,1272.3271],[151.4241,-31.489,1280.0165],[151.4239,-31.4848,1284.879],[151.4214,-31.4841,1266.2917],[151.4164,-31.486,1271.0969],[151.4133,-31.4849,1259.0171],[151.4091,-31.476,1249.5145],[151.4115,-31.4716,1243.7009],[151.4111,-31.4664,1234.3196],[151.4127,-31.4644,1248.575],[151.4155,-31.4645,1255.0825],[151.4155,-31.4599,1231.8214],[151.419,-31.4559,1268.9545],[151.4156,-31.4487,1283.5402],[151.4162,-31.4447,1303.1331],[151.4194,-31.4407,1313.0101],[151.412,-31.4397,1249.5593],[151.4149,-31.4359,1314.8774],[151.4128,-31.4357,1304.0978],[151.4138,-31.4333,1340.3527],[151.4102,-31.4332,1349.9324],[151.4175,-31.4279,1294.0145],[151.4225,-31.418,1268.5042],[151.4267,-31.4153,1280.485],[151.4205,-31.4146,1278.2704],[151.4211,-31.411,1304.8868],[151.4145,-31.4102,1320.4183],[151.4131,-31.4056,1322.1086],[151.4111,-31.4045,1317.5554],[151.4073,-31.3973,1318.4271],[151.4109,-31.395,1319.1787],[151.41,-31.3884,1351.2083],[151.4127,-31.3872,1350.0171],[151.4153,-31.3831,1319.0986],[151.42,-31.3826,1315.7806],[151.4226,-31.3799,1312.7845],[151.4336,-31.3891,1293.4058],[151.4358,-31.387,1302.4308],[151.4472,-31.3884,1283.5209],[151.4547,-31.3825,1290.6146],[151.4626,-31.3833,1294.1085],[151.4654,-31.3814,1304.1675],[151.466,-31.3776,1306.6843],[151.461,-31.3676,1322.7208],[151.4571,-31.3652,1312.3372],[151.4588,-31.356,1300.7754],[151.4517,-31.3515,1300.135],[151.4481,-31.3389,1270.5142],[151.4451,-31.3359,1232.1807],[151.442,-31.3355,1233.913],[151.4374,-31.3303,1226.4253],[151.4267,-31.3266,1274.4272],[151.4208,-31.3177,1237.8318],[151.4202,-31.3119,1215.4098],[151.4243,-31.3069,1214.261],[151.4185,-31.3008,1226.3154],[151.4214,-31.2803,1211.4241],[151.4207,-31.2714,1187.6931],[151.4151,-31.2662,1091.8763],[151.3975,-31.2638,1145.3368],[151.3905,-31.3008,1136.4661],[151.3686,-31.298,978.7307],[151.3657,-31.2917,976.1283],[151.3641,-31.2937,971.1713],[151.3628,-31.2905,993.1271],[151.3582,-31.2888,956.2836],[151.3703,-31.2226,1038.749],[151.3799,-31.2239,1089.0166],[151.3828,-31.2072,1147.3032],[151.3764,-31.2055,1067.1194],[151.377,-31.2067,1077.75],[151.3726,-31.2094,1114.9563],[151.3667,-31.2112,1087.6479],[151.3606,-31.2102,1051.4363],[151.362,-31.1994,1019.5547],[151.3565,-31.2006,1023.2189],[151.3523,-31.1994,996.6533],[151.3507,-31.1972,994.8586],[151.3445,-31.1969,1037.5734],[151.3448,-31.1948,1037.3674],[151.3429,-31.1932,1022.312],[151.3447,-31.1893,1021.0317],[151.3394,-31.1812,976.2026],[151.3311,-31.1783,937.319],[151.326,-31.1803,942.0678],[151.3234,-31.1773,903.1998],[151.3191,-31.1757,843.2198],[151.325,-31.1467,711.4962],[151.3287,-31.1452,720.8149],[151.3345,-31.1468,761.6538],[151.3394,-31.1206,782.3293],[151.3367,-31.1193,790.6889],[151.3365,-31.1212,772.2708],[151.3333,-31.1228,768.3494],[151.3362,-31.1073,796.6783],[151.3035,-31.1027,769.1006],[151.3079,-31.0823,620.225],[151.3057,-31.0809,632.1302],[151.3092,-31.0804,640.1941],[151.3118,-31.0818,637.525],[151.3112,-31.0794,636.7415],[151.3137,-31.0793,637.8859],[151.313,-31.0784,636.7415],[151.3158,-31.0766,646.1877],[151.3182,-31.0771,649.2749],[151.318,-31.0742,653.8821],[151.3203,-31.0725,671.4849],[151.3236,-31.0728,659.0443],[151.3243,-31.0699,665.4522],[151.327,-31.0688,673.6453],[151.3318,-31.0695,673.1735],[151.3336,-31.0671,691.8856],[151.336,-31.0675,683.0594],[151.3414,-31.064,710.9022],[151.3476,-31.0633,703.6366],[151.3531,-31.0671,721.9262],[151.357,-31.0675,747.8773],[151.3607,-31.0482,942.5869],[151.3439,-31.0458,916.4553],[151.3445,-31.0432,1018.174],[151.342,-31.0429,943.1271],[151.3434,-31.0352,1094.4773],[151.35,-31.0318,1100.3943],[151.3493,-31.0279,1122.4198],[151.3517,-31.023,1150.0377],[151.3425,-31.019,1118.407],[151.3461,-31.0169,1085.8456],[151.3437,-31.0116,1097.6088],[151.3319,-31.01,1114.5667],[151.3282,-31.004,1076.7729],[151.3204,-31.0028,992.6735],[151.3224,-30.9917,1006.9432],[151.3091,-30.9898,856.0969],[151.3134,-30.9828,868.0662],[151.331,-30.9683,921.839],[151.3476,-30.968,908.0392],[151.3467,-30.9651,906.1287],[151.3481,-30.9623,915.849],[151.3444,-30.9565,906.9442],[151.3454,-30.9535,903.6879],[151.3429,-30.9514,909.0131],[151.3432,-30.9466,906.6832],[151.3372,-30.946,903.8367],[151.3347,-30.942,900.7241],[151.3249,-30.9397,903.932],[151.3222,-30.9328,895.2543],[151.3177,-30.9278,896.2395],[151.3093,-30.9278,890.4421],[151.3084,-30.9201,888.7268],[151.302,-30.9147,885.1685],[151.2949,-30.9141,882.8358],[151.2915,-30.9108,883.2341],[151.2875,-30.9105,880.5273],[151.2885,-30.9071,885.6449],[151.2956,-30.9008,888.3176],[151.3029,-30.8995,891.0577],[151.3083,-30.9083,909.2815],[151.3102,-30.9037,902.9592],[151.3171,-30.9011,938.7366],[151.3222,-30.8964,932.9862],[151.3239,-30.898,947.5149],[151.3232,-30.8956,951.1345],[151.3243,-30.8946,942.5911],[151.3255,-30.8958,949.9556],[151.3277,-30.8938,953.1296],[151.3287,-30.8981,959.169],[151.3302,-30.8977,953.6255],[151.3307,-30.8951,952.9922],[151.3333,-30.8976,955.7917],[151.3351,-30.8952,959.0135],[151.3351,-30.8917,957.6323],[151.3383,-30.8903,959.1782],[151.3362,-30.8881,958.4888],[151.3452,-30.8823,965.1406],[151.3444,-30.8796,969.2111],[151.3522,-30.8739,973.7401],[151.3525,-30.8724,980.1833],[151.3539,-30.8727,980.1833],[151.3562,-30.8783,981.4457],[151.3609,-30.8797,998.3573],[151.364,-30.8768,982.3045],[151.3707,-30.8411,1095.3112],[151.3752,-30.8417,1078.2137],[151.3768,-30.8339,1099.8329],[151.3755,-30.8337,1099.8329],[151.3769,-30.827,1086.9348],[151.3712,-30.8236,1087.5443],[151.3721,-30.8187,1081.1736],[151.3737,-30.8189,1080.208],[151.3752,-30.8115,1095.119],[151.3797,-30.8097,1087.1127],[151.3833,-30.8032,1087.9196],[151.387,-30.801,1072.4816],[151.3898,-30.8016,1060.9586],[151.3912,-30.7946,1078.7075],[151.3849,-30.7937,1052.8389],[151.3904,-30.7657,1068.7542],[151.3831,-30.7646,1070.057],[151.3843,-30.7585,1094.0281],[151.3818,-30.7581,1082.9337],[151.3824,-30.7541,1091.8047],[151.3855,-30.7524,1083.4679],[151.3718,-30.7505,1089.9698],[151.3755,-30.7306,1053.9924],[151.3679,-30.7295,1048.3861],[151.3702,-30.7169,1068.0786],[151.3614,-30.7207,1093.3871],[151.3586,-30.7231,1100.0515],[151.3587,-30.7255,1093.9607],[151.3527,-30.7297,1100.864],[151.3428,-30.7283,1104.5887],[151.3378,-30.7242,1093.9751],[151.3259,-30.7279,1064.9803],[151.3163,-30.728,1029.6719],[151.2933,-30.7222,1070.5137],[151.29,-30.7239,1049.6748],[151.2862,-30.7217,1084.6334],[151.2841,-30.7254,1014.2363],[151.2681,-30.724,1010.793],[151.2625,-30.7285,1042.0602],[151.2484,-30.7268,1012.0671],[151.2499,-30.723,1011.5316],[151.2493,-30.7142,975.1431],[151.253,-30.7139,982.7945],[151.2514,-30.7122,984.6127],[151.25,-30.704,1012.8708],[151.2478,-30.7023,1013.4896],[151.2431,-30.7031,1024.6641],[151.2376,-30.6992,1064.5664],[151.2259,-30.6855,957.8356],[151.2227,-30.6851,951.2571],[151.2197,-30.6902,971.8877],[151.2179,-30.6902,977.7994],[151.2166,-30.6837,1013.0736],[151.2111,-30.6799,984.8649],[151.2061,-30.6801,991.5579],[151.199,-30.6633,874.5842],[151.1868,-30.655,848.2556],[151.1854,-30.6496,844.0844],[151.1793,-30.6429,849.0132],[151.1715,-30.6403,876.6782],[151.1712,-30.6386,877.8312],[151.1616,-30.6372,845.8667],[151.1627,-30.6312,817.8979],[151.1579,-30.6307,832.6877],[151.1611,-30.6132,806.9333],[151.1526,-30.612,891.9576],[151.1516,-30.6039,856.1027],[151.1486,-30.6003,840.3608],[151.1452,-30.5996,832.0653],[151.1413,-30.5963,811.3774],[151.13,-30.5952,811.1864],[151.1259,-30.5908,833.9929],[151.1218,-30.590699999999998,849.1471],[151.1105,-30.5849,812.6109],[151.1038,-30.5769,818.3201],[151.099,-30.5755,842.3217],[151.0894,-30.5678,800.2642],[151.0712,-30.5652,822.1152],[151.067,-30.5627,822.6107],[151.0697,-30.5545,817.0222],[151.0665,-30.5465,818.6196],[151.0626,-30.5452,818.0392],[151.0616,-30.5385,807.5381],[151.0595,-30.5359,806.6609],[151.0603,-30.5294,826.3126],[151.0563,-30.5207,840.101],[151.0514,-30.5134,864.3805],[151.0488,-30.5122,863.6011],[151.0405,-30.5127,953.371],[151.0406,-30.5087,923.1752],[151.0378,-30.5052,907.4128],[151.0383,-30.5008,954.6296],[151.0322,-30.4971,985.8958],[151.0312,-30.4912,993.6559],[151.0285,-30.4896,1005.2426],[151.0297,-30.4858,1022.0038],[151.0285,-30.4828,987.0428],[151.0302,-30.481,987.4265],[151.0264,-30.4746,986.0692],[151.0307,-30.47,1004.4827],[151.0257,-30.4647,1004.0747],[151.0196,-30.4643,1027.162],[151.0179,-30.4618,1048.1643],[151.0133,-30.461,1005.9138],[151.0122,-30.4587,1004.9952],[151.0132,-30.456,1023.7104],[151.0177,-30.4529,1087.8822],[151.0151,-30.4486,1042.187],[151.0184,-30.4424,1072.1422],[151.0212,-30.4406,1008.2872],[151.0201,-30.4373,972.103],[151.022,-30.435,977.8162],[151.0216,-30.4312,993.0416],[151.0245,-30.4297,995.1166],[151.0226,-30.4232,990.2285],[151.025,-30.4145,1033.3041],[151.0269,-30.4132,1033.3041],[151.0262,-30.4114,1043.5647],[151.0216,-30.4077,1041.2822],[151.0175,-30.4129,1025.2323],[151.0097,-30.4161,1022.7043],[151.0048,-30.411,990.6233],[151.0007,-30.4098,1017.121],[150.9965,-30.4136,999.0068],[150.9962,-30.4162,997.3922],[150.9996,-30.4222,990.0236],[150.9992,-30.4245,990.5969],[150.9974,-30.4263,985.1569],[150.9955,-30.4256,1001.1066],[150.9879,-30.4281,960.9974],[150.9774,-30.4243,936.5284],[150.976,-30.4225,945.024],[150.9749,-30.4246,902.4238],[150.96,-30.4293,869.9698],[150.9504,-30.4239,887.2089],[150.9453,-30.4189,921.7858],[150.9459,-30.4146,913.6265],[150.944,-30.4078,938.4711],[150.947,-30.4045,971.0469],[150.9362,-30.4012,999.6416],[150.9343,-30.3989,1023.526],[150.9382,-30.3962,993.2803],[150.9373,-30.3938,983.4294],[150.9401,-30.3914,979.9585],[150.9388,-30.3849,982.3478],[150.9479,-30.3765,1000.1022],[150.9451,-30.3734,983.943],[150.9487,-30.3683,989.0481],[150.945,-30.3652,988.2229],[150.9448,-30.3614,984.1213],[150.9498,-30.3592,995.9551],[150.9519,-30.3557,980.9142],[150.9503,-30.3533,987.5109],[150.952,-30.3467,960.5725],[150.9498,-30.3444,945.612],[150.9543,-30.3395,969.8418],[150.9479,-30.3288,963.8984],[150.9497,-30.3269,952.8577],[150.9508,-30.3213,943.277],[150.9538,-30.3204,952.9902],[150.9558,-30.3155,969.041],[150.9553,-30.3125,996.7075],[150.9488,-30.3069,982.597],[150.9487,-30.3038,969.7202],[150.9517,-30.2995,980.8401],[150.9554,-30.3008,985.9131],[150.9651,-30.2965,1001.0793],[150.9663,-30.2912,985.3301],[150.9699,-30.2895,967.1171],[150.9669,-30.2855,979.4396],[150.9671,-30.2828,985.8432],[150.9694,-30.2805,976.5711],[150.9672,-30.2729,931.6622],[150.9692,-30.2714,934.722],[150.9695,-30.2676,925.3522],[150.9758,-30.2666,937.8435],[150.9623,-30.25,913.3091],[150.9596,-30.2382,933.0333],[150.9547,-30.2383,932.3119],[150.9537,-30.2326,924.1265],[150.9486,-30.2263,901.4269],[150.9433,-30.2248,907.5013],[150.9397,-30.2205,886.1239],[150.9372,-30.2078,890.3754],[150.9386,-30.2053,892.8952],[150.9371,-30.2017,888.2943],[150.9381,-30.1957,907.1779],[150.935,-30.1955,897.2676],[150.9313,-30.1928,871.0785],[150.925,-30.1822,877.9932],[150.9174,-30.186,874.5091],[150.9099,-30.1837,878.1879],[150.8985,-30.1851,886.9452],[150.89,-30.1948,859.7618],[150.8883,-30.2012,832.4534],[150.8849,-30.2031,811.6362],[150.8712,-30.202,797.5438],[150.867,-30.2038,810.2581],[150.8632,-30.2015,806.432],[150.8511,-30.202,806.7362],[150.8453,-30.2005,798.7944],[150.8427,-30.1981,807.1929],[150.8339,-30.1966,848.8163],[150.8329,-30.1999,843.0842],[150.8229,-30.2031,822.1882],[150.8161,-30.2114,826.2421],[150.8128,-30.2197,771.4834],[150.8161,-30.228,821.2563],[150.8034,-30.2288,731.8932],[150.7953,-30.2255,741.9363],[150.793,-30.2276,793.4877],[150.7907,-30.2269,786.6159],[150.7879,-30.2293,758.3816],[150.7874,-30.2366,742.989],[150.7886,-30.2385,754.2804],[150.7835,-30.2485,777.0038],[150.7821,-30.2562,778.7562],[150.7766,-30.257,764.1194],[150.7759,-30.2588,776.7094],[150.7716,-30.2575,754.9161],[150.7709,-30.2617,778.3945],[150.7665,-30.2641,782.4487],[150.7625,-30.2593,771.3105],[150.7603,-30.2621,784.7094],[150.756,-30.2632,770.5015],[150.7542,-30.2672,809.4551],[150.7474,-30.2674,738.4319],[150.7435,-30.2709,767.5472],[150.7382,-30.2722,714.5228],[150.7314,-30.2783,730.783],[150.7316,-30.2813,728.5882],[150.7275,-30.2854,745.9812],[150.726,-30.2898,754.483],[150.7229,-30.2918,785.5406],[150.7229,-30.2943,801.2212],[150.7159,-30.2952,821.5942],[150.7117,-30.2927,774.4705],[150.7099,-30.2932,783.6503],[150.7105,-30.2899,774.0029],[150.7078,-30.2891,798.1818],[150.7082,-30.2843,805.4785],[150.7029,-30.284,820.0626],[150.7018,-30.2803,839.531],[150.7034,-30.2757,843.9323],[150.7011,-30.274,844.9575],[150.6979,-30.2769,797.7457],[150.6945,-30.2766,769.3115],[150.6929,-30.2796,753.3876],[150.6873,-30.2802,743.1093],[150.6854,-30.2845,740.1771],[150.686,-30.2862,740.8046],[150.681,-30.2889,794.0181],[150.6815,-30.2832,753.0269],[150.6753,-30.2754,739.9451],[150.665,-30.2796,679.9954],[150.6568,-30.2749,711.0729],[150.6514,-30.2769,701.7184],[150.6475,-30.281,641.7164],[150.6349,-30.2854,701.4266],[150.6285,-30.2851,708.9523],[150.6276,-30.2828,706.6808],[150.6228,-30.2808,705.8787],[150.6199,-30.2869,665.5294],[150.6178,-30.2878,684.3304],[150.6197,-30.2947,709.4826],[150.6177,-30.2958,707.5812],[150.6153,-30.296,686.0831],[150.614,-30.293,694.6832],[150.6073,-30.2946,666.2623],[150.6015,-30.2915,661.9518],[150.599,-30.2943,673.1617],[150.591,-30.2858,671.0281],[150.58,-30.2903,669.3938],[150.5793,-30.2966,662.4946],[150.5755,-30.2988,657.7383],[150.5725,-30.2972,659.3732],[150.5706,-30.3034,669.6196],[150.5647,-30.3031,682.319],[150.5648,-30.3048,682.1398],[150.558,-30.3083,684.1985],[150.5536,-30.3079,682.9717],[150.5519,-30.3099,689.3806],[150.5441,-30.3111,707.1297],[150.5439,-30.3139,698.2617],[150.54,-30.3172,696.5359],[150.5395,-30.3226,704.3701],[150.5354,-30.3198,702.0279],[150.5345,-30.3125,695.7776],[150.5317,-30.3086,691.1016],[150.5261,-30.3078,720.0347],[150.5235,-30.3098,723.3279],[150.5203,-30.307,724.2463],[150.5139,-30.3066,723.0206],[150.513,-30.3026,734.7244],[150.5153,-30.3004,734.5384],[150.5175,-30.2933,727.7068],[150.5161,-30.2838,700.1157],[150.506,-30.273,688.9097],[150.4997,-30.2695,689.0576],[150.4813,-30.2635,737.282],[150.4748,-30.2622,771.6448],[150.4698,-30.263,799.7233],[150.4658,-30.2607,816.0668],[150.4641,-30.2567,830.2469],[150.466,-30.253,847.9726],[150.4637,-30.252,845.3448],[150.4601,-30.2534,851.3727],[150.4564,-30.2621,846.0106],[150.4494,-30.2646,805.7679],[150.449,-30.2672,806.0477],[150.4388,-30.2711,763.7702],[150.4363,-30.2806,673.659],[150.4308,-30.2835,682.8286],[150.4259,-30.2824,724.0367],[150.4226,-30.2843,748.7182],[150.419,-30.2903,779.2589],[150.4034,-30.3034,804.3552],[150.4012,-30.3105,805.6266],[150.3956,-30.3158,790.7506],[150.3918,-30.3228,784.7764],[150.3838,-30.3231,739.15],[150.3783,-30.3194,626.3218],[150.3697,-30.3172,702.1863],[150.3656,-30.3192,555.1811],[150.3632,-30.317,548.6918],[150.3646,-30.3036,533.1158],[150.3611,-30.3042,536.8018],[150.3589,-30.3073,540.2862],[150.3549,-30.3076,554.9387],[150.3428,-30.304,709.6088],[150.3367,-30.2968,797.2308],[150.3328,-30.2963,752.3948],[150.3347,-30.2856,767.2786],[150.304,-30.2803,993.0901],[150.3079,-30.2578,794.6643],[150.2661,-30.2522,1001.6052],[150.2657,-30.2476,904.7112],[150.2606,-30.2445,837.3884],[150.2576,-30.2397,896.1229],[150.2511,-30.2375,903.1778],[150.229,-30.2426,1016.8508],[150.2268,-30.2471,1081.4658],[150.2192,-30.2537,1107.106],[150.2071,-30.2561,1162.6155],[150.2074,-30.2543,1045.6437],[150.192,-30.2272,892.303],[150.184,-30.2255,944.9998],[150.1818,-30.2229,967.3765],[150.1824,-30.2213,967.3765],[150.1783,-30.2172,1103.246],[150.1827,-30.211,968.8588],[150.1796,-30.2056,1002.2653],[150.1729,-30.2058,1130.6051],[150.1703,-30.2017,987.967],[150.1656,-30.2004,753.579],[150.1648,-30.1977,673.4847],[150.159,-30.208,915.3159],[150.15,-30.2105,1166.8279],[150.1454,-30.2089,1234.9841],[150.1473,-30.2126,1277.889],[150.1464,-30.2156,1328.1339],[150.1505,-30.22,1292.861],[150.1639,-30.2226,1171.4651],[150.1681,-30.2324,1022.3638],[150.1685,-30.2394,1024.5697],[150.173,-30.2436,1007.9437],[150.1739,-30.2484,1017.6232],[150.1714,-30.2516,1056.4264],[150.1712,-30.2557,1090.5161],[150.1755,-30.2654,1425.0165],[150.1695,-30.2674,1356.4943],[150.1685,-30.2717,1415.2312],[150.1659,-30.2739,1481.1357],[150.169,-30.2749,1435.7527],[150.1726,-30.2788,1416.4019],[150.1799,-30.2783,1324.2134],[150.1826,-30.2833,1315.4371],[150.1847,-30.2843,1314.1152],[150.1852,-30.2892,1243.9684],[150.1936,-30.2932,1178.7339],[150.1871,-30.2973,1167.1644],[150.1836,-30.2968,1194.4777],[150.183,-30.2995,1198.192],[150.1895,-30.3077,1115.9208],[150.195,-30.3211,1052.2686],[150.1913,-30.3262,931.236],[150.1941,-30.3317,1012.6306],[150.1935,-30.3383,924.1418],[150.1955,-30.3456,932.2352],[150.1886,-30.3573,890.7816],[150.1883,-30.3597,859.7481],[150.1908,-30.3646,825.6015],[150.2034,-30.375,832.9974],[150.224,-30.3709,844.8485],[150.2288,-30.3765,720.232],[150.2359,-30.3785,832.2573],[150.2385,-30.3821,824.1693],[150.2377,-30.3846,843.4586],[150.2262,-30.3924,826.6414],[150.2248,-30.3963,790.2594],[150.2258,-30.3993,790.8386],[150.2313,-30.4025,835.5483],[150.2396,-30.4017,877.1995],[150.2455,-30.406,871.3566],[150.2515,-30.4135,854.7819],[150.2626,-30.4155,876.4755],[150.2702,-30.4207,861.8357],[150.2746,-30.4214,838.0248],[150.2832,-30.4308,852.3242],[150.2919,-30.428,727.2716],[150.2954,-30.4303,704.3455],[150.2986,-30.4301,693.4694],[150.3005,-30.4327,711.7653],[150.3065,-30.4318,671.7705],[150.3106,-30.4279,590.9747],[150.3139,-30.4292,571.7599],[150.3166,-30.4281,570.8052],[150.323,-30.4194,633.048],[150.3229,-30.4147,670.3952],[150.3202,-30.4111,767.3954],[150.3211,-30.4087,789.7465],[150.3286,-30.4025,1022.727],[150.3326,-30.4068,954.2776],[150.3316,-30.4089,934.8176],[150.3349,-30.4102,909.0706],[150.3388,-30.4151,913.5139],[150.3414,-30.4121,893.8805],[150.3493,-30.415,895.5164],[150.3557,-30.4281,841.4055],[150.3625,-30.4325,848.9913],[150.3641,-30.4457,691.3012],[150.3611,-30.4539,739.6093],[150.3516,-30.4575,689.2021],[150.35,-30.4599,701.3608],[150.3517,-30.4652,645.8525],[150.3463,-30.4695,708.2611],[150.3465,-30.4732,654.7646],[150.3509,-30.473,593.6506],[150.3609,-30.4688,684.2183],[150.3676,-30.4701,705.6027],[150.3642,-30.4891,485.8972],[150.3549,-30.4934,449.4588],[150.353,-30.492,443.3731],[150.349,-30.4936,433.1921],[150.3484,-30.4967,467.9377],[150.3625,-30.4986,536.1478],[150.3589,-30.52,679.215],[150.3565,-30.5197,652.6161],[150.3548,-30.528199999999998,652.1373],[150.3685,-30.5301,662.9631],[150.3661,-30.5434,708.6082],[150.3938,-30.5471,847.1072],[150.3887,-30.551,826.8905],[150.3905,-30.5577,837.3866],[150.3883,-30.5599,834.5772],[150.3917,-30.563,834.4103],[150.3907,-30.5693,832.1028],[150.3727,-30.5667,796.4666],[150.3737,-30.5612,614.1054],[150.3604,-30.5594,538.2596],[150.3589,-30.5666,552.5364],[150.3623,-30.574,535.3184],[150.3702,-30.5762,594.1508],[150.368,-30.5818,776.9954],[150.3639,-30.5841,832.8088],[150.3708,-30.5873,787.6648],[150.3717,-30.5946,828.6014],[150.3771,-30.5994,880.5618],[150.3783,-30.6027,866.4864],[150.3846,-30.602,895.5511],[150.3839,-30.6057,779.0364],[150.3868,-30.6038,861.5501],[150.3908,-30.6052,875.0022],[150.3946,-30.6026,887.3138],[150.394,-30.5974,873.4842],[150.3961,-30.5937,838.4088],[150.4026,-30.5939,826.17],[150.4043,-30.5909,808.3468],[150.4106,-30.5899,811.278],[150.4127,-30.5943,848.5546],[150.4158,-30.5913,813.5313],[150.4209,-30.5926,806.7593],[150.4219,-30.5972,800.6495],[150.43,-30.6009,834.4408],[150.4318,-30.6039,841.8472],[150.4361,-30.5974,858.0432],[150.4379,-30.5974,856.5762],[150.4412,-30.6049,789.1649],[150.449,-30.6049,721.9086],[150.4543,-30.6075,712.0471],[150.4558,-30.6186,735.135],[150.4593,-30.6212,751.4907],[150.462,-30.621,754.5992],[150.4635,-30.6234,786.1868],[150.4653,-30.6231,769.5579],[150.4685,-30.6283,757.8903],[150.4709,-30.6292,778.0488],[150.4727,-30.6265,761.5961],[150.4754,-30.6262,738.1145],[150.4861,-30.6321,667.4623],[150.4902,-30.6368,664.1793],[150.493,-30.6358,661.8705],[150.4948,-30.6386,649.5643],[150.5032,-30.6404,636.4015],[150.5028,-30.6422,635.6022],[150.5077,-30.6519,638.2401],[150.5064,-30.656,610.7045],[150.5096,-30.6601,552.208],[150.4793,-30.6776,455.3787],[150.4788,-30.6803,453.8618],[150.4754,-30.6798,476.0263],[150.4578,-30.6902,474.414],[150.4607,-30.6942,472.4539],[150.4574,-30.6937,471.0593],[150.4535,-30.7154,442.4292],[150.4645,-30.7171,455.231],[150.4634,-30.7188,459.3887],[150.4644,-30.7255,471.8903],[150.4686,-30.7337,501.6768],[150.4654,-30.736,496.1241],[150.4639,-30.7395,499.2208],[150.4672,-30.7452,504.8466],[150.4623,-30.7466,493.753],[150.4615,-30.7487,497.3146],[150.4583,-30.7486,502.5192],[150.4526,-30.7572,464.2647],[150.4674,-30.7595,465.8957],[150.4663,-30.7646,442.8289],[150.4578,-30.7633,435.4174],[150.4565,-30.768,425.0937],[150.4563,-30.7728,417.6449],[150.4644,-30.774,427.1901],[150.4634,-30.779,416.9566],[150.4904,-30.7833,411.6248],[150.4873,-30.799,401.2133],[150.5153,-30.8016,328.0],[150.5202,-30.8005,328.0],[150.5438,-30.8134,330.6589],[150.5493,-30.8132,328.0],[150.5554,-30.8103,328.0],[150.5593,-30.8108,328.0],[150.556,-30.8284,345.7178],[150.5632,-30.8299,346.7237],[150.5617,-30.8376,343.7387],[150.5575,-30.837,339.3033],[150.556,-30.845,340.6985],[150.5495,-30.844,332.9474],[150.5466,-30.8588,334.0218],[150.5271,-30.8558,330.3342],[150.5228,-30.8472,328.0],[150.5231,-30.8538,334.6627],[150.5211,-30.855,339.4468],[150.5304,-30.8751,337.8634],[150.5317,-30.8894,358.3069],[150.5302,-30.903,339.951],[150.5254,-30.9022,340.8729],[150.5245,-30.9064,318.4565],[150.5201,-30.9058,318.0117],[150.5209,-30.9016,329.2299],[150.5168,-30.9009,325.5485],[150.5155,-30.9074,322.4246],[150.507,-30.9062,337.9625],[150.5063,-30.9099,338.7914],[150.4994,-30.9088,295.8519],[150.4986,-30.9132,293.1867],[150.4929,-30.9167,290.5149],[150.4918,-30.9214,292.5572],[150.51,-30.9211,294.4996],[150.5141,-30.9287,299.1762],[150.5181,-30.9285,288.8412],[150.5198,-30.9222,289.7086],[150.5223,-30.9236,294.1924],[150.5286,-30.9382,295.5768],[150.5331,-30.9405,293.4047],[150.5289,-30.9557,360.903],[150.53,-30.9557,359.2781],[150.5283,-30.9709,453.5096],[150.5323,-30.9777,442.3838],[150.5382,-30.9831,426.5939],[150.5444,-30.9994,474.8548],[150.5497,-31.0054,469.829],[150.5518,-31.0114,510.6379],[150.5557,-31.0132,468.2982],[150.5564,-31.0164,470.1756],[150.5619,-31.0147,487.7814],[150.5753,-31.0201,505.147],[150.5758,-31.025,512.9565],[150.5781,-31.0263,491.1635],[150.578,-31.0281,493.1586],[150.5831,-31.0284,512.8406],[150.5831,-31.0297,517.1769],[150.5869,-31.0315,550.9733],[150.5867,-31.0344,584.6255],[150.5977,-31.0383,579.6031],[150.5949,-31.0437,682.4294],[150.5972,-31.044,636.3289],[150.5994,-31.0468,677.4814],[150.5924,-31.0822,604.8842]]]]}
,"properties": {"GID_2": "AUS.5.123_1","GID_0": "AUS","country": "Australia","GID_1": "AUS.5_1","state": "NewSouthWales","NL_NAME_1": "NA","county": "TamworthRegional","VARNAME_2": "NA","NL_NAME_2": "NA","TYPE_2": "Area","ENGTYPE_2": "Area","CC_2": "17310","HASC_2": "NA","name": "TamworthRegional.county","area_km2": 9892.91,"hist_schema_id": "Elevation0-9000","hist_area_km2": {"300": 30.065,"325": 119.457,"350": 256.744,"375": 339.083,"400": 413.549,"425": 434.571,"450": 459.907,"475": 430.284,"500": 411.328,"525": 394.949,"550": 382.318,"575": 370.597,"600": 367.758,"625": 355.933,"650": 340.242,"675": 328.127,"700": 316.97,"725": 284.69,"750": 293.85,"775": 310.365,"800": 318.612,"825": 318.489,"850": 318.816,"875": 314.359,"900": 304.395,"925": 274.907,"950": 245.472,"975": 204.871,"1000": 159.247,"1025": 125.403,"1050": 103.989,"1075": 88.737,"1100": 64.814,"1125": 50.906,"1150": 49.104,"1175": 51.363,"1200": 49.935,"1225": 56.205,"1250": 55.005,"1275": 38.79,"1300": 26.925,"1325": 15.047,"1350": 8.695,"1375": 4.953,"1400": 2.226,"1425": 0.618,"1450": 0.201}}}