{"type":"Feature","properties":{"GID_2":"AUS.11.3_1","GID_0":"AUS","country":"Australia","GID_1":"AUS.11_1","state":"WesternAustralia","NL_NAME_1":"NA","county":"Ashburton","VARNAME_2":"NA","NL_NAME_2":"NA","TYPE_2":"Shire","ENGTYPE_2":"Shire","CC_2":"50250","HASC_2":"AU.WA.AS","name":"Ashburton.county"},
"geometry":{"type": "MultiPolygon","coordinates": [[[[118.111,-21.4166,233.6142],[118.111,-21.3452,334.6469],[118.1465,-21.3452,216.3833],[118.1465,-21.2965,295.164],[118.0695,-21.2965,330.0476],[118.0695,-21.6494,416.7651],[118.1096,-21.6494,439.7195],[118.1096,-21.7275,407.4464],[117.983,-21.7275,360.3354],[117.983,-21.4822,239.9985],[117.9241,-21.4822,175.9507],[117.9241,-21.3715,131.8767],[117.7016,-21.3715,281.6263],[117.7016,-21.1513,151.9827],[117.5466,-21.1513,128.7126],[117.5466,-21.2371,111.5541],[117.5497,-21.2371,127.9998],[117.5497,-21.2516,114.7956],[117.5466,-21.2516,113.5458],[117.5466,-21.308,144.4367],[117.2205,-21.308,186.2273],[117.2205,-21.2525,176.7131],[117.2932,-21.2525,107.7369],[117.2932,-21.1843,236.201],[117.148,-21.1843,117.8612],[117.148,-21.2525,219.3265],[117.0883,-21.2525,203.0391],[117.0883,-21.1916,131.6446],[117.1135,-21.1916,112.4108],[117.1135,-21.1626,100.9956],[117.0182,-21.1626,126.0491],[117.0182,-21.2117,197.3657],[116.798,-21.2117,262.5859],[116.798,-21.3368,300.0594],[116.4532,-21.3368,197.0058],[116.4532,-21.3173,193.4059],[116.1747,-21.3173,111.1245],[116.1747,-21.3921,120.9373],[116.1125,-21.3921,129.1374],[116.1125,-21.5313,108.7683],[116.0083,-21.5313,86.7509],[116.0083,-21.5802,89.4337],[115.9607,-21.5802,73.9059],[115.9607,-21.4752,54.4744],[115.9461,-21.4661,48.7761],[115.8879,-21.4406,32.9843],[115.8879,-21.4094,28.5456],[115.5967,-21.4094,1.293],[115.5975,-21.4109,1.4711],[115.5942,-21.4125,1.3682],[115.5946,-21.4094,1.1689],[115.5553,-21.4094,1.4501],[115.549,-21.4168,1.3829],[115.5499,-21.4219,1.7606],[115.5524,-21.4237,1.6162],[115.5549,-21.4195,0.5346],[115.5575,-21.4182,1.7682],[115.5524,-21.4272,0.5503],[115.5546,-21.4302,2.4205],[115.5642,-21.4368,1.0799],[115.5727,-21.4275,1.2408],[115.5713,-21.4313,1.5173],[115.5633,-21.439,0.3974],[115.5677,-21.4403,1.0963],[115.5687,-21.4455,1.1974],[115.5722,-21.4455,1.373],[115.5716,-21.4488,1.2235],[115.57,-21.4491,1.1143],[115.5708,-21.4464,1.2365],[115.5679,-21.4462,1.2667],[115.5665,-21.4407,1.0963],[115.5611,-21.4388,1.6427],[115.5648,-21.4473,1.4369],[115.5654,-21.4573,1.2544],[115.5633,-21.4471,1.3967],[115.5574,-21.4366,0.392],[115.5521,-21.4348,1.5234],[115.5454,-21.4353,1.5132],[115.5349,-21.4435,1.9005],[115.535,-21.4413,1.2656],[115.5407,-21.4375,0.9082],[115.5377,-21.4354,0.7602],[115.5333,-21.4358,0.5242],[115.5158,-21.4497,1.4839],[115.5146,-21.4532,2.6049],[115.5205,-21.4548,1.331],[115.518,-21.4584,1.6512],[115.5189,-21.4608,1.2423],[115.5143,-21.4615,1.2634],[115.5164,-21.4602,1.3711],[115.5155,-21.458,1.9767],[115.5183,-21.4557,2.4792],[115.5146,-21.4547,2.3835],[115.5097,-21.4579,0.4922],[115.5059,-21.4653,2.8302],[115.5058,-21.4737,1.2293],[115.5074,-21.4745,2.7663],[115.5118,-21.4714,1.3005],[115.5164,-21.4715,1.1092],[115.517,-21.4682,1.3424],[115.5222,-21.4607,1.1334],[115.5264,-21.4595,1.2138],[115.5207,-21.4652,1.1865],[115.517,-21.4723,1.5857],[115.5116,-21.4731,1.2968],[115.5084,-21.476,1.8501],[115.513,-21.4775,1.3754],[115.5153,-21.4812,2.4183],[115.5167,-21.4812,0.8886],[115.5163,-21.4756,1.2805],[115.5187,-21.4741,1.2847],[115.5193,-21.4715,0.9807],[115.5251,-21.4695,1.1275],[115.5268,-21.4632,1.247],[115.5283,-21.4648,1.1687],[115.5259,-21.4708,1.2659],[115.5207,-21.4724,1.2684],[115.5198,-21.4751,1.3011],[115.5167,-21.4767,1.4319],[115.52,-21.4806,1.6505],[115.5165,-21.4835,1.272],[115.5111,-21.4781,0.3836],[115.5066,-21.4773,1.3419],[115.5057,-21.4833,2.0598],[115.5054,-21.4807,2.6197],[115.5001,-21.4804,0.5643],[115.4966,-21.4828,0.2841],[115.4978,-21.4871,2.4441],[115.495,-21.4846,1.839],[115.4927,-21.4858,0.137],[115.4926,-21.4924,0.584],[115.4959,-21.4924,3.9747],[115.4972,-21.4889,2.3924],[115.4995,-21.4895,2.385],[115.5013,-21.4936,1.9427],[115.509,-21.4934,1.3855],[115.5056,-21.4954,1.4759],[115.5,-21.4942,2.0337],[115.4999,-21.491,2.4447],[115.4976,-21.49,2.2968],[115.4964,-21.4934,2.2338],[115.4936,-21.4931,0.5202],[115.4911,-21.4955,0.0],[115.4915,-21.4979,0.0],[115.4952,-21.5015,2.7521],[115.4981,-21.5031,2.293],[115.5013,-21.4981,1.4566],[115.5066,-21.5014,1.2751999999999999],[115.5038,-21.5024,1.532],[115.5006,-21.4997,1.4277],[115.4994,-21.5047,0.9743],[115.5203,-21.5092,1.3589],[115.5146,-21.5104,1.404],[115.5142,-21.5207,0.59],[115.5112,-21.5247,1.3636],[115.51,-21.5239,1.1136],[115.5133,-21.5193,0.6353],[115.5123,-21.5106,1.3371],[115.5022,-21.5084,1.3149],[115.4995,-21.5094,0.5198],[115.499,-21.514,1.1848],[115.4937,-21.519,0.7919],[115.4921,-21.5232,0.632],[115.4932,-21.5343,1.1931],[115.4946,-21.5352,1.0917],[115.4996,-21.5331,1.149],[115.5016,-21.5363,1.1588],[115.5041,-21.5361,1.1932],[115.5073,-21.5384,1.4191],[115.5077,-21.5355,1.1544],[115.5083,-21.5395,1.4191],[115.5005,-21.5376,1.1588],[115.4995,-21.5338,1.149],[115.4939,-21.5372,0.2752],[115.4944,-21.5407,1.234],[115.4928,-21.5417,0.8784],[115.4924,-21.5458,0.6915],[115.4915,-21.5374,1.6833],[115.4809,-21.5333,1.4044],[115.4773,-21.53,1.4936],[115.4743,-21.5328,1.9954],[115.476,-21.5361,1.2406],[115.4756,-21.5472,1.06],[115.4717,-21.5329,0.5118],[115.4762,-21.5271,0.0],[115.4678,-21.5147,0.7823],[115.4665,-21.5256,2.1482],[115.4604,-21.5317,2.845],[115.465,-21.5377,0.5731],[115.466,-21.5441,0.2073],[115.4639,-21.5472,0.927],[115.4629,-21.5397,1.6033],[115.459,-21.5347,0.0],[115.4591,-21.5311,2.3048],[115.45,-21.5282,2.7032],[115.4483,-21.5316,1.5405],[115.4451,-21.5328,1.1971],[115.4506,-21.5349,0.6103],[115.4564,-21.5398,1.2991],[115.4577,-21.5444,1.2824],[115.4557,-21.5485,1.0251],[115.4546,-21.5467,1.0658],[115.4565,-21.5436,1.294],[115.4553,-21.5399,1.2991],[115.4435,-21.5328,0.6829],[115.4489,-21.5267,0.0],[115.4517,-21.5264,0.2423],[115.4567,-21.5289,2.0114],[115.4587,-21.5276,2.0009],[115.4617,-21.519,0.0],[115.4614,-21.5166,0.0],[115.4594,-21.516,0.9558],[115.4587,-21.5189,2.8645],[115.4562,-21.5197,2.3681],[115.46,-21.5108,0.0],[115.4591,-21.5087,0.0],[115.4573,-21.5085,1.6482],[115.4501,-21.5112,0.0],[115.4464,-21.5216,1.4667],[115.4382,-21.5296,0.6697],[115.4396,-21.5382,0.7187],[115.4423,-21.5353,1.8361],[115.4452,-21.5351,0.6839],[115.4488,-21.5378,0.8793],[115.4465,-21.5438,1.1831],[115.4452,-21.5437,1.1831],[115.4451,-21.5411,1.3948],[115.4432,-21.5424,1.1572],[115.4419,-21.5416,1.1531],[115.4436,-21.5392,1.1898],[115.4481,-21.5386,1.7906],[115.4438,-21.5359,1.0494],[115.4417,-21.5388,1.1069],[115.4353,-21.542,1.7979],[115.4358,-21.5405,1.7911],[115.4379,-21.5398,1.16],[115.4366,-21.5302,0.6697],[115.4346,-21.5315,1.2072],[115.4343,-21.5345,1.5569],[115.431,-21.5358,0.6136],[115.4304,-21.5425,0.9291],[115.4281,-21.5454,1.0188],[115.4301,-21.5356,1.206],[115.4291,-21.5347,1.206],[115.433,-21.5335,1.161],[115.4333,-21.5292,0.8307],[115.422,-21.5284,1.961],[115.4186,-21.525,1.8539],[115.4129,-21.5248,2.6069],[115.4081,-21.5279,2.6855],[115.4163,-21.5326,1.5003],[115.4047,-21.5282,2.5012],[115.3938,-21.537,2.966],[115.3889,-21.5391,2.9487],[115.393,-21.5362,0.6751],[115.3899,-21.5361,0.0],[115.3812,-21.5433,3.7526],[115.3814,-21.5467,0.0],[115.3847,-21.5472,0.9395],[115.3848,-21.545,4.5182],[115.3875,-21.5443,3.4202],[115.3892,-21.5418,2.8514],[115.3937,-21.5419,2.6839],[115.396,-21.539,1.8815],[115.3985,-21.5391,1.4005],[115.4044,-21.5351,1.5472],[115.4074,-21.5339,1.2408],[115.4142,-21.5347,1.278],[115.412,-21.5381,3.2576],[115.417,-21.5382,1.1977],[115.4183,-21.5399,1.538],[115.4161,-21.5419,2.0124],[115.41,-21.5442,2.7539],[115.4066,-21.5438,5.7046],[115.4015,-21.547,4.9914],[115.4007,-21.548,2.392],[115.4036,-21.5493,1.3981],[115.4033,-21.553,1.2656],[115.3979,-21.5536,1.461],[115.3991,-21.5561,1.3329],[115.3957,-21.5532,1.7234],[115.3896,-21.5537,1.6504],[115.3854,-21.5489,1.8067],[115.3817,-21.5481,3.456],[115.3764,-21.551,0.1756],[115.3715,-21.5573,6.1869],[115.3704,-21.5558,0.0],[115.3615,-21.5626,0.2795],[115.3602,-21.5617,0.2795],[115.3542,-21.5653,1.1386],[115.3496,-21.565,0.3218],[115.3436,-21.5673,0.0],[115.34,-21.5724,0.6254],[115.3312,-21.576,0.0],[115.3282,-21.5789,1.0565],[115.3292,-21.5813,5.0753],[115.3276,-21.5853,3.7645],[115.3323,-21.59,2.8234],[115.3347,-21.5951,0.6075],[115.3416,-21.596,2.0222],[115.3338,-21.5961,0.6075],[115.331,-21.5904,1.0562],[115.3266,-21.5862,2.7386],[115.3272,-21.5803,0.0],[115.3095,-21.5904,3.9123],[115.2982,-21.5941,1.7107],[115.2908,-21.5955,3.3207],[115.2771,-21.595,2.5585],[115.2622,-21.5931,4.0354],[115.2521,-21.5908,2.0087],[115.2486,-21.5882,2.1596],[115.2447,-21.5882,2.8825],[115.2459,-21.5959,1.0638],[115.2423,-21.5898,0.688],[115.2431,-21.5871,0.4729],[115.2467,-21.5847,0.2338],[115.2521,-21.585,0.7576],[115.2423,-21.5768,2.5412],[115.2344,-21.5892,1.2683],[115.23,-21.5926,1.6371],[115.2344,-21.5962,0.3697],[115.2285,-21.5943,0.7891],[115.2256,-21.5953,2.0664],[115.2198,-21.6026,1.6009],[115.2194,-21.6086,1.1726],[115.2213,-21.6128,1.2486],[115.2193,-21.613,1.4039],[115.2199,-21.6162,1.4809],[115.2164,-21.6175,1.3505],[115.2185,-21.6122,1.4026],[115.2172,-21.6098,1.5669],[115.2165,-21.6117,1.2815],[115.2162,-21.6087,1.9407],[115.2183,-21.6044,0.0],[115.2112,-21.602,2.2746],[115.211,-21.5977,0.0],[115.204,-21.598,2.8725],[115.1869,-21.6124,0.8396],[115.1882,-21.6156,1.7925],[115.1941,-21.6172,2.4163],[115.2035,-21.6233,0.3281],[115.2068,-21.6229,1.0961],[115.2093,-21.6245,1.5718],[115.2101,-21.6279,1.2877],[115.2077,-21.6247,1.0631],[115.2044,-21.625,1.2484],[115.206,-21.6274,0.9913],[115.2054,-21.631,1.4886],[115.2037,-21.6261,1.425],[115.1938,-21.6203,2.1488],[115.1949,-21.6283,1.0412],[115.1929,-21.6269,1.4098],[115.1902,-21.6202,2.2394],[115.1868,-21.6175,1.047],[115.186,-21.6123,0.8396],[115.1817,-21.6105,1.1116],[115.1785,-21.6113,4.0431],[115.1699,-21.6167,9.2472],[115.1616,-21.6251,4.7008],[115.164,-21.6273,4.5268],[115.1675,-21.6262,11.9797],[115.1703,-21.6281,1.8273],[115.1706,-21.6336,1.4903],[115.1766,-21.6366,1.2753],[115.17,-21.6346,1.4325],[115.1685,-21.6275,2.2169],[115.1639,-21.6282,9.5534],[115.1606,-21.6262,4.7008],[115.1472,-21.6406,2.2282],[115.1416,-21.6427,0.0],[115.1352,-21.6427,0.0],[115.1322,-21.6449,0.2782],[115.1331,-21.6526,0.969],[115.1389,-21.655,1.5953],[115.1422,-21.659,1.1577],[115.1377,-21.6574,1.3158],[115.1352,-21.6603,1.228],[115.1348,-21.6587,1.3548],[115.1369,-21.6562,0.8241],[115.1335,-21.6551,0.6798],[115.1317,-21.6598,0.7897],[115.1311,-21.6449,1.9349],[115.1182,-21.641,0.3536],[115.109,-21.6317,3.6366],[115.0985,-21.6395,0.0],[115.0809,-21.6584,7.9191],[115.0571,-21.6759,0.2659],[115.0552,-21.6796,1.272],[115.056,-21.6861,2.761],[115.0547,-21.6776,1.037],[115.0489,-21.682,3.4769],[115.042,-21.681,0.0],[115.0303,-21.6856,0.0],[115.0432,-21.6821,0.0],[115.0371,-21.6849,0.0],[115.0404,-21.6922,0.6861],[115.0371,-21.6913,0.7139],[115.0356,-21.6936,0.7605],[115.0366,-21.6874,2.8958],[115.0319,-21.6869,2.6398],[115.0297,-21.6885,1.9512],[115.0295,-21.6867,1.5014],[115.0251,-21.6919,1.0417],[115.0278,-21.6949,1.0909],[115.0241,-21.6924,0.8297],[115.0261,-21.6882,1.3619],[115.0217,-21.6892,1.169],[115.0167,-21.6929,1.1554],[115.0219,-21.6871,0.0],[115.0288,-21.686,0.0],[115.029,-21.6847,0.0],[115.0225,-21.6862,0.0],[115.0179,-21.6844,0.0],[115.0133,-21.686,1.9111],[114.9908,-21.6806,0.4406],[114.9878,-21.6769,0.0],[114.9867,-21.6782,0.5031],[114.9883,-21.68,0.8201],[114.9859,-21.6784,0.5031],[114.984,-21.6795,0.7654],[114.984,-21.6776,0.0],[114.9803,-21.6739,0.0],[114.9751,-21.6735,1.0475],[114.9747,-21.6716,0.0],[114.9727,-21.6724,0.0],[114.9727,-21.6739,0.7235],[114.968,-21.6754,1.8915],[114.9689,-21.678,1.4567],[114.9738,-21.6818,1.2838],[114.9663,-21.6772,1.3774],[114.9587,-21.6837,1.5555],[114.9594,-21.6862,1.0432],[114.9609,-21.6863,1.5015],[114.963,-21.6838,1.3699],[114.9644,-21.6837,1.484],[114.9655,-21.6883,1.2312],[114.971,-21.6878,1.2802],[114.9703,-21.6894,1.2107],[114.9644,-21.689,1.2496],[114.9646,-21.685,1.4266],[114.963,-21.6846,1.1387],[114.9606,-21.688,1.3903],[114.963,-21.6926,1.1502],[114.9583,-21.6862,1.6587],[114.9523,-21.69,1.2571],[114.9452,-21.6904,1.9139],[114.9527,-21.6889,2.7673],[114.9571,-21.6841,1.5555],[114.9582,-21.6806,0.0],[114.9723,-21.6708,0.0],[114.9821,-21.6715,0.0],[114.9884,-21.674,0.0],[114.9839,-21.6707,0.0],[114.9731,-21.6696,0.0],[114.9683,-21.6712,0.0],[114.9467,-21.6863,1.9715],[114.9361,-21.6908,0.0],[114.9296,-21.6918,1.4172],[114.9162,-21.6908,0.0],[114.9143,-21.6883,0.0],[114.9098,-21.6946,0.0],[114.9079,-21.7005,3.2525],[114.9034,-21.7053,2.8207],[114.8977,-21.708,1.1351],[114.8909,-21.7143,0.0],[114.8755,-21.7208,0.0],[114.8655,-21.7309,0.6027],[114.859,-21.7327,0.0],[114.8609,-21.738,4.9489],[114.8572,-21.7345,0.7049],[114.8532,-21.7417,4.0817],[114.8421,-21.7511,1.4746],[114.832,-21.7552,1.3966],[114.8248,-21.7558,0.0],[114.792,-21.7817,0.5139],[114.7784,-21.7905,1.7241],[114.7695,-21.7951,2.3508],[114.754,-21.7958,0.0],[114.7377,-21.801,0.0],[114.7295,-21.801,0.0],[114.7209,-21.7988,0.0],[114.7098,-21.808,1.4255],[114.6988,-21.8137,0.0],[114.6918,-21.8236,0.7009],[114.6834,-21.829,0.0],[114.6838,-21.8313,0.0],[114.6877,-21.8299,0.5137],[114.6918,-21.8325,1.0541],[114.6934,-21.8308,1.3913],[114.6928,-21.8332,0.0],[114.6964,-21.8372,1.2248],[114.6976,-21.8431,0.9751],[114.6938,-21.8511,0.1671],[114.6879,-21.8576,0.6295],[114.6853,-21.8579,0.4604],[114.6869,-21.8647,0.6712],[114.6852,-21.8678,0.8958],[114.684,-21.8677,0.8958],[114.6856,-21.8653,0.6712],[114.6846,-21.8573,0.9823],[114.6911,-21.8485,0.7038],[114.6932,-21.8394,0.5621],[114.692,-21.8369,0.4826],[114.6861,-21.8329,0.0],[114.6835,-21.8331,0.088],[114.6765,-21.8275,0.0511],[114.6553,-21.8416,2.7739],[114.6481,-21.8445,0.0],[114.6436,-21.8489,0.1672],[114.6447,-21.8654,2.0646],[114.6417,-21.8869,0.0],[114.6425,-21.9093,2.2585],[114.6476,-21.9199,0.0],[114.6558,-21.917,0.3229],[114.6643,-21.9105,0.2106],[114.6572,-21.9205,1.3126],[114.6516,-21.9225,0.9364],[114.6457,-21.9216,1.9406],[114.6394,-21.9173,0.456],[114.6285,-21.9268,0.4216],[114.6215,-21.9359,1.7345],[114.6187,-21.9427,0.4303],[114.6193,-21.9448,0.813],[114.6226,-21.9419,0.1798],[114.6256,-21.9416,2.2437],[114.6277,-21.9434,0.6415],[114.6289,-21.942,1.9648],[114.63,-21.9439,0.687],[114.6371,-21.9446,1.3296],[114.6318,-21.9458,0.9827],[114.6234,-21.9435,1.2995],[114.6167,-21.9457,0.5571],[114.6152,-21.9476,0.0],[114.6141,-21.9547,0.0],[114.6157,-21.9595,2.0592],[114.6244,-21.9647,0.5948],[114.6261,-21.9736,1.2909],[114.6255,-21.9759,1.2301],[114.6245,-21.9685,1.2085],[114.6211,-21.9641,0.4574],[114.6129,-21.9615,0.0866],[114.6157,-21.9762,1.358],[114.6114,-21.986,0.84],[114.6066,-21.9844,0.0],[114.6049,-21.9875,0.0],[114.607,-21.9904,1.1722],[114.6051,-21.9921,1.6073],[114.6081,-21.9987,1.0864],[114.6054,-22.0038,0.9321],[114.6059,-22.0069,0.9644],[114.6044,-22.0032,1.2082],[114.607,-21.9982,1.3562],[114.6044,-21.9943,0.8979],[114.6018,-21.9943,1.0735],[114.6029,-21.9914,1.1563],[114.6014,-21.9877,0.4231],[114.5975,-21.9897,0.8429],[114.5951,-21.9942,0.7133],[114.5919,-21.9954,0.7383],[114.5896,-22.001,0.0],[114.5866,-22.0038,1.241],[114.5868,-22.0096,0.9291],[114.585,-22.0136,1.6514],[114.5883,-22.0149,0.4306],[114.5894,-22.0195,0.4905],[114.5842,-22.0133,0.575],[114.5861,-22.0082,1.2873],[114.5844,-22.0054,1.311],[114.585,-21.9969,0.6107],[114.5833,-21.9965,1.6197],[114.5785,-22.0004,1.5987],[114.5706,-22.0018,1.3555],[114.5754,-22.0158,0.1005],[114.571,-22.0177,0.2561],[114.5728,-22.0222,1.3554],[114.5689,-22.02,0.319],[114.5642,-22.0268,1.917],[114.566,-22.0309,1.4768],[114.5728,-22.0373,1.307],[114.5744,-22.0437,0.7559],[114.5713,-22.0377,0.9288],[114.5643,-22.0312,0.7475],[114.5624,-22.025,0.4479],[114.5618,-22.0293,1.2016],[114.5602,-22.0272,0.6617],[114.5609,-22.0219,1.2597],[114.559,-22.0203,0.0],[114.5541,-22.0253,0.0],[114.5518,-22.0445,1.2875],[114.5499,-22.0459,0.2591],[114.5494,-22.0512,1.0259],[114.5479,-22.0521,0.5331],[114.5506,-22.058,0.8357],[114.5479,-22.0621,1.574],[114.5516,-22.0665,1.4208],[114.5425,-22.0608,0.7138],[114.5412,-22.0624,1.6704],[114.5453,-22.0649,1.7059],[114.5402,-22.0635,1.0249],[114.5356,-22.066,0.0],[114.5233,-22.0626,0.0],[114.5173,-22.0665,1.0241],[114.5201,-22.0735,0.0],[114.5202,-22.0827,0.0],[114.5234,-22.0793,1.4053],[114.5279,-22.0808,1.73],[114.5284,-22.0826,0.0],[114.5357,-22.0788,1.564],[114.5323,-22.0837,1.3885],[114.5301,-22.0836,0.3963],[114.5274,-22.0862,0.0],[114.5268,-22.0897,0.3124],[114.5231,-22.0934,0.2531],[114.5258,-22.1003,0.491],[114.5314,-22.0953,1.4777],[114.528,-22.0991,1.5664],[114.5277,-22.1018,0.0],[114.5251,-22.1046,1.7398],[114.5219,-22.1029,0.0],[114.5181,-22.1059,0.0],[114.5178,-22.1114,0.0],[114.5231,-22.1239,0.507],[114.5285,-22.1298,0.6582],[114.5263,-22.1416,1.1727],[114.5257,-22.1299,1.5103],[114.5194,-22.1232,0.5927],[114.5166,-22.1236,0.0],[114.5161,-22.128,1.367],[114.5155,-22.1238,0.7857],[114.5081,-22.1224,0.0],[114.5049,-22.1236,0.0],[114.5013,-22.1299,0.0],[114.5017,-22.1355,0.0],[114.5066,-22.1492,0.1947],[114.5149,-22.1566,0.9836],[114.5139,-22.1575,1.4445],[114.5114,-22.154,0.6242],[114.5069,-22.1529,0.2282],[114.5058,-22.1582,1.8496],[114.5039,-22.1517,1.5997],[114.5008,-22.1503,0.0],[114.5036,-22.161,0.3204],[114.5067,-22.1641,0.3164],[114.5045,-22.168,0.1901],[114.5088,-22.1742,1.1356],[114.5078,-22.174,1.1423],[114.505,-22.1706,0.6538],[114.5034,-22.1726,0.6179],[114.508,-22.1835,1.3984],[114.5057,-22.1834,1.1765],[114.5061,-22.1797,1.3615],[114.5022,-22.1741,0.356],[114.4995,-22.163,1.4574],[114.4935,-22.1625,0.4997],[114.4907,-22.1711,1.0351],[114.4914,-22.1625,1.5909],[114.4895,-22.1576,0.0],[114.4843,-22.1573,0.0],[114.4771,-22.1543,0.0],[114.474,-22.1549,0.2503],[114.4725,-22.1582,2.8213],[114.4675,-22.1582,2.242],[114.4639,-22.1562,0.0826],[114.4557,-22.1595,0.0],[114.4536,-22.1661,0.0],[114.4663,-22.1714,0.0],[114.4818,-22.1882,0.8555],[114.4873,-22.1895,1.2522],[114.4902,-22.186,1.307],[114.4904,-22.1885,1.2987],[114.4877,-22.1902,1.2936],[114.4836,-22.19,0.6334],[114.473,-22.1861,0.0],[114.4718,-22.1904,0.0859],[114.4781,-22.1926,0.8104],[114.4872,-22.2002,0.1862],[114.4887,-22.2084,0.1967],[114.493,-22.211,0.7291],[114.4967,-22.2201,1.7595],[114.5005,-22.2205,1.2913],[114.496,-22.2212,1.7595],[114.4957,-22.2187,1.1738],[114.4917,-22.2154,0.8589],[114.4895,-22.216,0.0],[114.489,-22.2191,0.7053],[114.4847,-22.2107,0.0],[114.4784,-22.2048,0.92],[114.4664,-22.2042,0.0],[114.4652,-22.2076,0.2812],[114.4684,-22.2115,0.9079],[114.4658,-22.2093,0.0],[114.4647,-22.2112,0.0],[114.4693,-22.2179,1.4168],[114.4634,-22.2121,0.6813],[114.4577,-22.2097,1.4872],[114.4554,-22.2069,0.6712],[114.4538,-22.2073,0.1944],[114.452,-22.2125,0.0],[114.4562,-22.225,1.0466],[114.4549,-22.2247,1.0466],[114.4532,-22.2188,0.254],[114.4517,-22.2189,0.1682],[114.4497,-22.2265,0.2172],[114.4522,-22.235,0.0],[114.4677,-22.247,0.6151],[114.4819,-22.2515,1.5262],[114.4777,-22.252,0.7107],[114.4734,-22.2493,0.4818],[114.4651,-22.2479,0.0],[114.456,-22.2489,0.6263],[114.4533,-22.2481,1.1855],[114.4481,-22.2423,0.4531],[114.444,-22.242,0.8382],[114.4429,-22.246,3.5568],[114.4487,-22.2536,0.8463],[114.4523,-22.2563,0.0],[114.4618,-22.258,0.2134],[114.4666,-22.2603,0.9379],[114.466,-22.2617,0.9244],[114.4726,-22.2644,1.2903],[114.4663,-22.2632,1.4097],[114.4618,-22.26,0.9818],[114.4504,-22.2597,1.2504],[114.4498,-22.2621,1.3165],[114.4521,-22.2656,0.8663],[114.4592,-22.2693,1.6902],[114.4609,-22.2719,1.3639],[114.4579,-22.27,0.8492],[114.4545,-22.2729,0.9798],[114.4425,-22.2652,0.1715],[114.4398,-22.2649,0.654],[114.4375,-22.2672,1.3135],[114.4375,-22.2654,0.7294],[114.4358,-22.2656,0.3377],[114.4339,-22.2707,0.6814],[114.4298,-22.2742,0.0],[114.432,-22.2781,0.0],[114.5589,-22.2778,0.0],[114.5587,-22.5046,11.1833],[114.6368,-22.5047,19.0276],[114.6367,-22.6682,42.9406],[114.754,-22.6682,45.5671],[114.754,-22.7054,48.6934],[114.7505,-22.7163,58.1319],[114.7419,-22.7294,50.6329],[114.7247,-22.7628,53.0875],[114.7015,-22.8008,53.9],[114.6922,-22.824,56.6567],[114.6817,-22.8569,63.0893],[114.6789,-22.8862,69.1654],[114.6713,-22.9062,68.2716],[114.7093,-22.9062,67.4176],[114.7093,-22.933,71.5344],[114.6614,-22.933,72.6822],[114.6548,-22.95,77.1044],[114.6448,-22.9688,75.6544],[114.5977,-22.9688,69.7494],[114.5977,-23.0183,78.9817],[114.4794,-23.0183,68.0947],[114.4794,-23.0738,78.489],[114.5285,-23.0744,76.9246],[114.526,-23.1462,78.8319],[114.6885,-23.1475,96.8823],[114.6897,-23.2437,103.6094],[114.6321,-23.2424,95.9904],[114.6319,-23.3897,105.7312],[114.7374,-23.3897,119.4813],[114.7372,-23.4523,141.2914],[115.1955,-23.4523,190.3112],[115.1955,-23.3921,193.689],[115.478,-23.3921,207.9636],[115.4781,-23.4847,226.1485],[115.5321,-23.4847,231.6113],[115.524,-23.4867,228.8453],[115.5257,-23.4868,229.6165],[115.5257,-23.5754,308.0152],[115.6047,-23.5754,261.157],[115.6048,-23.6753,349.0113],[115.7034,-23.6752,345.0501],[115.7034,-23.743,333.6398],[115.7274,-23.743,331.2864],[115.7262,-23.8427,292.6691],[115.774,-23.8419,292.9875],[115.7771,-23.8665,279.7925],[115.8718,-23.8672,289.564],[115.8718,-23.8879,291.1141],[115.9798,-23.8878,307.5108],[115.9797,-23.5779,400.8408],[116.0761,-23.5779,481.6635],[116.0761,-23.6026,410.9097],[116.1369,-23.6026,425.2952],[116.1369,-23.6315,383.8851],[116.1906,-23.6315,395.2594],[116.1906,-23.6552,379.5772],[116.2972,-23.6552,400.3788],[116.2972,-23.5995,433.3016],[116.4942,-23.5989,399.531],[116.4954,-23.5098,398.8735],[116.5984,-23.5098,283.7363],[116.5979,-23.5745,298.6277],[116.8585,-23.5729,472.9995],[116.8584,-23.8049,504.7377],[117.0447,-23.8047,389.9551],[117.0414,-23.7987,381.9669],[117.0529,-23.7883,376.8282],[117.6338,-23.7872,407.423],[117.6352,-23.74,323.1411],[117.7144,-23.74,300.6288],[117.7144,-23.7107,296.6642],[117.7098,-23.708,296.4403],[117.7101,-23.6755,289.1459],[117.7144,-23.6787,294.6921],[117.7438,-23.618,301.6003],[117.7409,-23.6172,300.8938],[117.7397,-23.5237,345.3469],[117.6708,-23.5236,300.6774],[117.6702,-23.4838,326.4729],[117.6418,-23.4818,304.8963],[117.6402,-23.434,317.1809],[117.7214,-23.4327,327.7889],[117.7202,-23.3784,342.2563],[117.8403,-23.3784,374.0657],[117.8403,-23.3936,410.3549],[117.9916,-23.3936,420.2989],[117.9916,-23.375,420.6734],[118.079,-23.375,569.0695],[118.079,-23.2933,439.2833],[118.1675,-23.2933,487.7814],[118.1675,-23.3151,495.505],[118.426,-23.3151,567.488],[118.426,-23.4404,574.3009],[118.6854,-22.9987,781.2094],[118.8597,-22.6971,662.538],[119.1368,-22.6971,619.4091],[119.1377,-22.5458,447.3],[119.0126,-22.5458,554.6472],[119.0126,-22.4654,453.0678],[118.8621,-22.4654,593.9862],[118.8621,-22.432,482.5353],[118.7585,-22.432,585.4442],[118.7585,-22.3635,437.9577],[118.8621,-22.3635,414.0784],[118.8621,-22.3905,432.4757],[119.1243,-22.3905,406.7812],[119.1243,-22.3682,406.7646],[119.4268,-22.3653,418.733],[119.4268,-22.2936,467.6657],[119.3976,-22.2936,464.4126],[119.3977,-22.2197,523.6361],[119.3792,-22.2197,537.6754],[119.3792,-22.207,522.0411],[119.18,-22.207,472.3402],[119.18,-22.1752,496.5658],[119.2313,-22.1752,473.689],[119.2313,-22.0661,376.6362],[118.9877,-22.0661,505.2599],[118.9877,-22.0558,473.4957],[118.8095,-22.0558,490.0157],[118.8095,-22.0503,497.1128],[118.7266,-22.0503,410.0484],[118.7266,-22.0357,423.1485],[118.6974,-22.0357,489.2033],[118.6974,-21.9603,413.6817],[118.5884,-21.9604,467.9012],[118.5884,-21.8098,318.6624],[118.5318,-21.8098,341.2526],[118.5318,-21.7688,337.8655],[118.5511,-21.7688,288.6484],[118.5511,-21.6962,315.5832],[118.5022,-21.6962,356.926],[118.5022,-21.6577,371.3707],[118.3697,-21.6577,268.7078],[118.3697,-21.6845,449.3982],[118.2535,-21.6845,465.7201],[118.2535,-21.6081,430.046],[118.1991,-21.6081,379.7926],[118.1991,-21.5301,455.265],[118.2309,-21.5301,357.0999],[118.2309,-21.49,243.2871],[118.2051,-21.49,363.1691],[118.2051,-21.387,204.469],[118.156,-21.387,257.8462],[118.156,-21.4792,384.6405],[118.0854,-21.4792,239.7628],[118.0854,-21.4166,247.4469],[118.111,-21.4166,233.6142]]],
[[[115.4458,-21.5398,1.3948],[115.4443,-21.5396,1.2081],[115.4431,-21.5412,1.2081],[115.4459,-21.5402,1.3948],[115.4458,-21.5398,1.3948]]],
[[[115.495,-21.5099,2.4055],[115.4831,-21.5058,3.0761],[115.4787,-21.5113,2.7675],[115.4768,-21.5093,1.5016],[115.4767,-21.5052,1.2192],[115.475,-21.5058,0.2044],[115.4737,-21.5102,2.6548],[115.4803,-21.5293,1.9635],[115.4917,-21.535,0.3254],[115.4921,-21.5306,1.2988],[115.4897,-21.5285,1.4737],[115.4914,-21.5272,1.2877],[115.4925,-21.518,0.7919],[115.4967,-21.5124,0.5091],[115.495,-21.5099,2.4055]]],
[[[115.4415,-21.5189,2.407],[115.4495,-21.5064,0.429],[115.4599,-21.5038,0.0],[115.4653,-21.4934,0.0],[115.4519,-21.496,0.0],[115.4464,-21.4997,2.1528],[115.441,-21.4998,1.9571],[115.4371,-21.5039,2.5363],[115.4351,-21.5032,3.6534],[115.4272,-21.5144,1.452],[115.42,-21.5184,2.8613],[115.4258,-21.5257,1.8019],[115.4306,-21.525,2.8675],[115.4304,-21.5265,0.7028],[115.4368,-21.5285,0.3013],[115.442,-21.524,0.5244],[115.4461,-21.516,2.6222],[115.4415,-21.5189,2.407]]],
[[[115.5041,-21.4801,2.1305],[115.504,-21.4788,1.0666],[115.502,-21.4798,0.5643],[115.5024,-21.4801,2.1305],[115.5041,-21.4801,2.1305]]],
[[[115.504,-21.4691,0.0],[115.5032,-21.468,0.0],[115.5026,-21.4685,0.0],[115.5029,-21.4691,0.0],[115.504,-21.4691,0.0]]],
[[[115.5121,-21.4543,1.0484],[115.512,-21.4531,1.0484],[115.5097,-21.4542,1.8638],[115.5102,-21.4547,0.759],[115.5121,-21.4543,1.0484]]],
[[[115.5171,-21.4351,2.3167],[115.5137,-21.4409,2.7054],[115.5135,-21.4443,1.6617],[115.5181,-21.4363,2.7176],[115.5171,-21.4351,2.3167]]],
[[[115.3781,-21.4454,0.0],[115.3787,-21.445,0.0],[115.3781,-21.4433,0.0],[115.3776,-21.4441,0.0],[115.3781,-21.4454,0.0]]],
[[[115.4144,-21.4342,0.0],[115.4148,-21.4328,0.0],[115.4143,-21.4326,0.0],[115.4138,-21.4338,0.0],[115.4144,-21.4342,0.0]]],
[[[115.432,-21.4183,0.0],[115.4327,-21.4173,0.0],[115.4326,-21.4169,0.0],[115.4313,-21.4176,0.0],[115.432,-21.4183,0.0]]],
[[[115.4317,-21.4121,0.0],[115.4303,-21.413,0.0],[115.4308,-21.4144,0.0],[115.4325,-21.4125,0.0],[115.4317,-21.4121,0.0]]],
[[[115.5214,-21.4263,0.0],[115.5196,-21.4267,2.0638],[115.5191,-21.4278,2.0638],[115.5211,-21.4282,0.0],[115.5214,-21.4263,0.0]]],
[[[115.4367,-21.4187,0.0],[115.4347,-21.4196,0.0],[115.4353,-21.4207,0.0],[115.4402,-21.4182,0.0],[115.4395,-21.4177,0.0],[115.4367,-21.4187,0.0]]],
[[[115.4839,-21.4183,0.0],[115.4846,-21.4178,0.0],[115.4836,-21.4172,0.0],[115.4835,-21.4179,0.0],[115.4839,-21.4183,0.0]]],
[[[115.5426,-21.382,0.3256],[115.5427,-21.3947,0.0],[115.5455,-21.3937,0.0],[115.5443,-21.3922,0.0],[115.5473,-21.3871,0.2678],[115.5466,-21.3819,0.0],[115.5443,-21.3809,0.0],[115.5426,-21.382,0.3256]]],
[[[115.1274,-21.5331,0.0],[115.1286,-21.5359,0.7253],[115.1326,-21.536,2.2481],[115.1317,-21.5326,3.3401],[115.1274,-21.5331,0.0]]],
[[[114.7576,-21.5282,0.0],[114.7665,-21.5289,0.0],[114.7658,-21.5211,0.0],[114.7639,-21.5206,1.2294],[114.7576,-21.5282,0.0]]],
[[[115.2043,-21.5211,0.0],[115.2032,-21.5206,0.0],[115.202,-21.5213,0.0],[115.2043,-21.5216,0.0],[115.2043,-21.5211,0.0]]],
[[[115.2192,-21.51,2.2234],[115.2178,-21.5088,3.4462],[115.2157,-21.5095,0.0],[115.2171,-21.5112,6.2468],[115.2192,-21.51,2.2234]]],
[[[115.3552,-21.5055,4.5591],[115.351,-21.51,2.837],[115.352,-21.513,0.0],[115.3578,-21.5067,3.1296],[115.3564,-21.504,2.6819],[115.3552,-21.5055,4.5591]]],
[[[115.36,-21.5051,2.8876],[115.3605,-21.5048,1.3181],[115.3603,-21.5043,2.0048],[115.3594,-21.5048,2.8876],[115.36,-21.5051,2.8876]]],
[[[115.3533,-21.4723,0.803],[115.3511,-21.4833,0.0],[115.3528,-21.4862,3.1642],[115.3556,-21.4871,3.1888],[115.3609,-21.4859,3.859],[115.3577,-21.4788,1.6735],[115.3576,-21.4751,2.463],[115.3558,-21.4733,2.2193],[115.3568,-21.4685,0.0],[115.3533,-21.4723,0.803]]],
[[[115.3661,-21.4643,3.5041],[115.3732,-21.4591,0.6199],[115.3763,-21.4536,2.4159],[115.3774,-21.4475,0.4995],[115.3754,-21.4437,0.4032],[115.3704,-21.4522,0.0],[115.3655,-21.4536,0.4319],[115.3619,-21.4605,0.0],[115.3626,-21.4634,1.2612],[115.3661,-21.4643,3.5041]]],
[[[115.0072,-21.4637,1.3208],[115.0168,-21.4652,0.0],[115.0238,-21.4609,1.9755],[115.025,-21.4583,0.0],[115.0231,-21.4563,1.4026],[115.0119,-21.4524,0.8614],[114.996,-21.4508,0.0],[114.9792,-21.4531,2.2779],[114.9715,-21.4594,0.0],[114.9721,-21.4611,1.6653],[114.9754,-21.4617,0.0],[115.0072,-21.4637,1.3208]]],
[[[114.9749,-21.4289,0.0],[114.9755,-21.4289,0.0],[114.9756,-21.4285,0.0],[114.9748,-21.4283,0.0],[114.9749,-21.4289,0.0]]],
[[[114.9748,-21.4222,0.0],[114.9752,-21.4228,0.0],[114.9764,-21.4224,0.0],[114.9763,-21.4219,0.0],[114.9748,-21.4222,0.0]]],
[[[115.1639,-21.3248,0.0],[115.172,-21.3245,0.0],[115.1701,-21.3219,0.0],[115.1656,-21.3209,0.793],[115.1632,-21.3224,2.9991],[115.1639,-21.3248,0.0]]],
[[[115.0282,-21.2637,0.0],[115.0278,-21.2647,0.0],[115.0295,-21.2663,0.0],[115.0302,-21.2643,0.0],[115.0282,-21.2637,0.0]]],
[[[115.0242,-21.2621,0.0],[115.0225,-21.2636,0.0],[115.0229,-21.2659,0.0],[115.0255,-21.2646,0.0],[115.0242,-21.2621,0.0]]],
[[[115.4046,-21.4087,0.0],[115.4032,-21.4108,0.0],[115.4116,-21.408,0.0],[115.4099,-21.4076,0.0],[115.4046,-21.4087,0.0]]],
[[[115.4325,-21.3725,0.0],[115.4317,-21.3721,0.0],[115.4315,-21.3726,0.0],[115.4322,-21.3729,0.0],[115.4325,-21.3725,0.0]]],
[[[115.4349,-21.3271,0.0],[115.4336,-21.3266,0.0],[115.4335,-21.3272,0.0],[115.4345,-21.3275,0.0],[115.4349,-21.3271,0.0]]],
[[[115.3263,-20.9725,4.901],[115.3307,-20.9698,4.1725],[115.3337,-20.9704,5.8859],[115.3371,-20.9662,0.0],[115.3317,-20.9629,0.0],[115.3251,-20.9524,2.8519],[115.3166,-20.9482,0.0],[115.3264,-20.9694,0.0],[115.3238,-20.9722,0.0],[115.324,-20.9739,0.0],[115.3263,-20.9725,4.901]]],
[[[115.441,-21.3617,0.0],[115.4411,-21.361,0.0],[115.4407,-21.361,0.0],[115.4404,-21.3615,0.0],[115.441,-21.3617,0.0]]],
[[[115.4428,-21.3564,0.0],[115.4415,-21.3555,0.6836],[115.441,-21.3576,3.4764],[115.4426,-21.3576,0.0],[115.4428,-21.3564,0.0]]],
[[[115.4487,-21.3093,2.6803],[115.4455,-21.3126,0.0],[115.4504,-21.3106,0.0],[115.4513,-21.3067,0.0],[115.4487,-21.3093,2.6803]]],
[[[115.5005,-21.296,2.9718],[115.5059,-21.2978,0.0],[115.5034,-21.2922,0.0],[115.5003,-21.294,0.0],[115.5005,-21.296,2.9718]]],
[[[115.4617,-21.2618,0.0],[115.462,-21.2632,0.0],[115.4647,-21.263,0.0],[115.4639,-21.2607,0.0],[115.4617,-21.2618,0.0]]],
[[[115.3343,-20.9038,5.2183],[115.3323,-20.8996,3.5232],[115.3284,-20.8963,2.5958],[115.3234,-20.895,2.7394],[115.3208,-20.896,0.0],[115.3241,-20.9092,0.0],[115.3247,-20.9199,0.0],[115.3212,-20.9304,1.4076],[115.3165,-20.9383,0.0],[115.3242,-20.9337,3.2729],[115.3272,-20.9243,3.9298],[115.3361,-20.9066,0.0],[115.3343,-20.9038,5.2183]]],
[[[115.4427,-20.6681,2.6301],[115.4386,-20.6658,0.0],[115.4331,-20.6669,2.1974],[115.4296,-20.6698,0.0],[115.4245,-20.6785,5.2555],[115.4209,-20.6798,0.0],[115.4113,-20.7,5.246],[115.4064,-20.7027,3.238],[115.4056,-20.7056,11.8937],[115.4027,-20.706,0.0],[115.4006,-20.7101,8.2435],[115.3978,-20.7117,16.6017],[115.3896,-20.7286,5.5491],[115.381,-20.741,17.8343],[115.3746,-20.7471,0.9074],[115.3666,-20.7517,2.9872],[115.3597,-20.7533,0.0],[115.3547,-20.7583,4.2928],[115.3523,-20.7638,4.1832],[115.3532,-20.7689,7.5043],[115.3518,-20.7724,0.0],[115.3467,-20.7757,5.1178],[115.3452,-20.7821,5.5135],[115.3386,-20.7866,5.705],[115.3369,-20.7919,4.5393],[115.3243,-20.8029,0.0],[115.3256,-20.806,0.0],[115.3215,-20.8083,0.8179],[115.3231,-20.8096,0.2627],[115.3208,-20.8123,0.0],[115.3208,-20.8169,1.2257],[115.3122,-20.8338,0.0],[115.3091,-20.8435,4.3717],[115.3068,-20.8604,1.668],[115.3078,-20.8687,0.0],[115.3167,-20.8739,0.0],[115.3214,-20.8829,7.6169],[115.321,-20.8916,0.0],[115.3257,-20.8907,2.887],[115.3294,-20.8873,0.6465],[115.3337,-20.8761,0.0],[115.3206,-20.8782,5.5978],[115.3201,-20.876,1.7202],[115.3217,-20.8738,2.7322],[115.3292,-20.8728,4.3883],[115.3328,-20.8677,13.9617],[115.3477,-20.8648,2.6363],[115.3569,-20.8669,2.2277],[115.3688,-20.8735,1.021],[115.3715,-20.8804,2.577],[115.3703,-20.8873,0.0],[115.374,-20.8905,1.3012],[115.3743,-20.8948,0.8277],[115.3797,-20.8913,0.0],[115.381,-20.8882,1.2179],[115.3949,-20.8864,2.0857],[115.3967,-20.884,7.1632999999999996],[115.3973,-20.8785,0.0],[115.4027,-20.8746,2.2481],[115.4068,-20.8756,1.6825],[115.4067,-20.8704,1.2121],[115.4087,-20.867,2.4854],[115.4164,-20.8671,0.724],[115.4207,-20.8637,4.4769],[115.423,-20.8585,0.0],[115.4203,-20.8569,0.6541],[115.4197,-20.8504,2.275],[115.4254,-20.837,3.2577],[115.4315,-20.8331,1.0467],[115.4392,-20.8324,3.3221],[115.4423,-20.8341,3.2174],[115.4435,-20.8307,3.7887],[115.4474,-20.8289,5.388],[115.4467,-20.8238,2.4927],[115.4493,-20.8151,0.0],[115.4478,-20.8145,5.7472],[115.4502,-20.8133,1.9225],[115.4521,-20.8073,3.845],[115.4496,-20.8056,4.2856],[115.4476,-20.8022,6.2705],[115.4504,-20.8055,4.2856],[115.4535,-20.8056,3.0256],[115.4588,-20.7918,10.6291],[115.4613,-20.7893,9.1456],[115.4637,-20.7896,1.4622],[115.4647,-20.7836,6.0349],[115.4707,-20.7776,10.8064],[115.471,-20.7744,0.0],[115.469,-20.7743,1.2021],[115.4676,-20.7721,0.0],[115.4692,-20.767,7.908],[115.4727,-20.7651,3.0995],[115.4759,-20.7661,0.0],[115.4759,-20.7635,0.0],[115.4716,-20.7579,3.5797],[115.4754,-20.7447,3.3799],[115.4723,-20.7451,2.3399],[115.473,-20.7433,3.2797],[115.4709,-20.7413,3.9761],[115.4721,-20.7376,3.9498],[115.4769,-20.7351,0.5703],[115.4769,-20.7335,2.5453],[115.4746,-20.7255,5.3108],[115.4702,-20.7243,2.156],[115.4674,-20.7197,0.0],[115.4674,-20.7154,0.0],[115.4702,-20.7128,0.7107],[115.4693,-20.7117,0.7107],[115.4671,-20.7134,3.1854],[115.4616,-20.7077,1.0492],[115.4617,-20.7032,1.7133],[115.4647,-20.7013,4.8381],[115.4652,-20.697,1.5286],[115.4604,-20.6962,0.9146],[115.4595,-20.6946,0.9146],[115.4641,-20.6939,1.0952],[115.4583,-20.6924,4.4154],[115.4589,-20.6888,5.4174],[115.4612,-20.6871,2.7027],[115.4631,-20.6881,0.0],[115.4652,-20.6829,6.2184],[115.4688,-20.6817,0.9785],[115.4687,-20.6802,1.0042],[115.4608,-20.6744,0.0],[115.4427,-20.6681,2.6301]]],
[[[114.4514,-22.2383,0.7274],[114.4525,-22.2442,0.0],[114.4548,-22.2462,0.6886],[114.4637,-22.245,0.7651],[114.4594,-22.2407,0.1807],[114.4514,-22.2383,0.7274]]],
[[[114.4319,-22.2218,0.0],[114.4317,-22.2212,0.0],[114.431,-22.2215,0.0],[114.4313,-22.2217,0.0],[114.4319,-22.2218,0.0]]],
[[[114.4291,-22.2192,0.0],[114.4288,-22.2197,0.0],[114.4293,-22.2201,0.0],[114.4298,-22.2198,0.0],[114.4291,-22.2192,0.0]]],
[[[114.4893,-22.2152,0.0],[114.4896,-22.2156,0.0],[114.4905,-22.2154,0.8589],[114.4901,-22.2147,0.8589],[114.4893,-22.2152,0.0]]],
[[[114.4892,-22.214,0.0],[114.4898,-22.2141,0.2015],[114.4898,-22.2137,0.2015],[114.4894,-22.2135,0.0],[114.4892,-22.214,0.0]]],
[[[114.4914,-22.2125,0.0],[114.4917,-22.2126,0.0],[114.4921,-22.2123,0.624],[114.4916,-22.2118,0.0],[114.4914,-22.2125,0.0]]],
[[[114.46,-22.2095,0.1408],[114.4604,-22.21,0.3477],[114.4608,-22.2093,0.1408],[114.4602,-22.209,0.1408],[114.46,-22.2095,0.1408]]],
[[[114.3757,-22.1965,0.0],[114.3754,-22.1953,0.0],[114.3743,-22.1959,0.0],[114.3748,-22.1967,0.0],[114.3757,-22.1965,0.0]]],
[[[114.4721,-22.1817,0.7992],[114.4708,-22.1811,0.0],[114.4701,-22.1827,0.3538],[114.4713,-22.1833,0.1171],[114.4721,-22.1817,0.7992]]],
[[[114.4962,-22.1494,0.0],[114.4943,-22.1495,0.4861],[114.4938,-22.153199999999998,0.0],[114.4955,-22.158,0.0],[114.4988,-22.1587,0.5005],[114.4995,-22.1565,1.6409],[114.4962,-22.1494,0.0]]],
[[[114.5064,-22.1509,0.3604],[114.5058,-22.1502,0.2509],[114.505,-22.1504,0.2509],[114.5055,-22.1512,0.2509],[114.5064,-22.1509,0.3604]]],
[[[114.4859,-22.1458,1.0402],[114.4827,-22.1503,0.0],[114.4891,-22.1531,0.4117],[114.49,-22.147,0.8712],[114.4859,-22.1458,1.0402]]],
[[[114.5162,-22.1175,0.427],[114.5155,-22.1159,0.0],[114.5143,-22.1161,0.0],[114.5153,-22.1186,0.1089],[114.5162,-22.1175,0.427]]],
[[[114.547,-22.0616,0.9437],[114.5471,-22.0609,1.7116],[114.5459,-22.0605,1.7116],[114.5455,-22.0612,1.7116],[114.547,-22.0616,0.9437]]],
[[[114.5403,-22.06,0.3544],[114.5481,-22.0592,1.0465],[114.5455,-22.0485,0.0],[114.5397,-22.0527,1.4017],[114.5403,-22.06,0.3544]]],
[[[114.5292,-21.9987,0.0],[114.5201,-21.9982,1.2371],[114.5103,-21.9938,0.0],[114.5061,-21.997,0.0],[114.5004,-22.0108,3.3686],[114.5097,-22.0254,0.0],[114.5141,-22.0353,0.0],[114.529,-22.0527,2.285],[114.5313,-22.0595,1.882],[114.5353,-22.0619,1.5791],[114.5379,-22.0606,1.1091],[114.5371,-22.0537,0.0],[114.5388,-22.0507,1.6715],[114.5449,-22.0467,1.806],[114.5455,-22.0445,0.0],[114.5423,-22.0284,0.6231],[114.5371,-22.0215,0.0],[114.5323,-22.0229,1.3219],[114.5395,-22.0182,0.0],[114.5387,-22.0109,0.0],[114.5338,-22.0133,1.1885],[114.5408,-22.0074,0.187],[114.5363,-22.0045,2.871],[114.5349,-22.001,0.0],[114.5292,-21.9987,0.0]]],
[[[114.4839,-22.1343,2.6905],[114.4843,-22.1353,0.3264],[114.4868,-22.1337,2.2649],[114.4902,-22.1354,0.0],[114.4873,-22.1275,2.959],[114.4911,-22.118,2.6222],[114.4886,-22.119,1.2113],[114.4846,-22.1273,2.5616],[114.4839,-22.1343,2.6905]]],
[[[114.5075,-22.103,0.0],[114.5067,-22.1061,1.4089],[114.5115,-22.1072,1.5892],[114.5126,-22.1061,1.0196],[114.5116,-22.1029,1.9755],[114.5138,-22.1014,1.5159],[114.515,-22.0933,0.424],[114.5145,-22.0935,0.424],[114.5075,-22.103,0.0]]],
[[[114.4927,-21.9595,1.0991],[114.4906,-21.959,1.5125],[114.4887,-21.9616,1.15],[114.4924,-21.9613,0.0],[114.4927,-21.9595,1.0991]]],
[[[114.4237,-21.9525,3.5921],[114.4249,-21.9514,0.0],[114.4191,-21.9499,3.3643],[114.417,-21.9517,1.5332],[114.4178,-21.9555,1.2978],[114.4199,-21.9564,0.0],[114.4237,-21.9525,3.5921]]],
[[[114.551,-21.9974,0.1686],[114.55,-21.9987,0.1975],[114.5533,-22.0013,0.0],[114.5539,-21.9976,0.9802],[114.551,-21.9974,0.1686]]],
[[[114.5825,-21.9929,0.0],[114.5792,-21.9839,0.8744],[114.5701,-21.9831,1.326],[114.5661,-21.9867,2.4878],[114.5688,-21.9909,0.4762],[114.5694,-22.0001,0.0],[114.5707,-22.001,1.2825],[114.5757,-21.9997,0.6773],[114.5825,-21.9929,0.0]]],
[[[114.5233,-21.9563,0.0],[114.5217,-21.9556,0.4587],[114.5204,-21.9573,0.0],[114.523,-21.9572,0.0],[114.5233,-21.9563,0.0]]],
[[[114.524,-21.9288,0.0],[114.5228,-21.9277,0.0],[114.5216,-21.9284,0.0],[114.5234,-21.9292,0.0],[114.524,-21.9288,0.0]]],
[[[114.5599,-21.8867,0.0],[114.5642,-21.8894,0.0],[114.5574,-21.8831,0.9115],[114.5567,-21.8851,0.2007],[114.5599,-21.8867,0.0]]],
[[[114.5486,-21.8742,0.0],[114.5493,-21.8732,0.0],[114.5474,-21.8735,0.0],[114.5479,-21.8742,0.0],[114.5486,-21.8742,0.0]]],
[[[114.602,-21.8728,0.0],[114.6011,-21.8715,0.0],[114.6005,-21.8715,0.0814],[114.6006,-21.8727,0.0814],[114.602,-21.8728,0.0]]],
[[[114.55,-21.8037,1.6192],[114.5482,-21.8052,2.2485],[114.5496,-21.8088,0.8427],[114.5555,-21.8072,6.0459],[114.554,-21.8056,1.1242],[114.55,-21.8037,1.6192]]],
[[[114.4293,-21.9209,0.0],[114.4319,-21.9246,0.0],[114.4342,-21.9219,0.0],[114.4325,-21.9198,0.952],[114.4293,-21.9209,0.0]]],
[[[114.5077,-21.5993,0.0],[114.5088,-21.6023,1.2133],[114.5111,-21.6029,0.0],[114.5091,-21.5992,0.0],[114.5077,-21.5993,0.0]]],
[[[114.5589,-21.8035,0.0],[114.5581,-21.8039,0.0],[114.5587,-21.8045,0.0],[114.5593,-21.8042,0.0],[114.5589,-21.8035,0.0]]],
[[[114.5395,-21.7395,1.0856],[114.5413,-21.7419,2.4147],[114.5443,-21.7408,5.257],[114.5427,-21.7382,3.8136],[114.5395,-21.7395,1.0856]]],
[[[114.6546,-21.6458,0.7552],[114.654,-21.6456,2.4318],[114.6535,-21.6465,0.0],[114.6541,-21.6465,0.0],[114.6546,-21.6458,0.7552]]],
[[[114.6938,-21.6261,2.0182],[114.6975,-21.6263,0.0],[114.6938,-21.625,2.0182],[114.6887,-21.6193,1.7965],[114.6871,-21.6074,1.3091],[114.6855,-21.605,0.0],[114.6673,-21.5915,5.69],[114.6639,-21.5922,0.0],[114.6696,-21.603,1.7666],[114.6764,-21.6081,0.0],[114.6796,-21.6128,3.8749],[114.6854,-21.6163,3.6861],[114.6877,-21.6202,3.4972],[114.6881,-21.626,2.7378999999999998],[114.6823,-21.6307,0.0],[114.6874,-21.6302,0.0],[114.6903,-21.6267,0.5462],[114.6938,-21.6261,2.0182]]],
[[[114.766,-21.7133,4.5902],[114.7652,-21.7183,0.0],[114.7666,-21.7193,2.6727],[114.7696,-21.7171,0.0],[114.7702,-21.7142,0.0],[114.7689,-21.7128,0.0],[114.766,-21.7133,4.5902]]],
[[[114.989,-21.6761,0.0],[114.9885,-21.6766,0.0],[114.9911,-21.6797,0.4406],[114.9908,-21.6776,0.0],[114.989,-21.6761,0.0]]],
[[[114.9817,-21.6727,0.0],[114.9837,-21.6758,0.0],[114.9861,-21.6767,0.0],[114.9856,-21.6738,0.0],[114.9817,-21.6727,0.0]]],
[[[114.7179,-21.6124,0.8405],[114.7202,-21.6131,0.0],[114.7208,-21.6122,0.0],[114.7181,-21.6115,0.8405],[114.7179,-21.6124,0.8405]]],
[[[114.6189,-21.6004,0.3707],[114.6218,-21.6063,0.0],[114.6253,-21.6045,3.2049],[114.6213,-21.5997,4.3409],[114.6189,-21.6004,0.3707]]],
[[[114.7085,-21.5642,0.0],[114.708,-21.5637,0.0],[114.7071,-21.5642,0.2212],[114.708,-21.5648,0.0],[114.7085,-21.5642,0.0]]],
[[[114.9339,-21.5903,2.3038],[114.9326,-21.593,2.384],[114.9341,-21.5947,0.0],[114.9391,-21.5938,0.0],[114.9377,-21.5897,4.3721],[114.9339,-21.5903,2.3038]]],
[[[115.2124,-21.5998,2.438],[115.2171,-21.6003,0.9224],[115.2182,-21.5984,2.5733],[115.2202,-21.5988,2.5733],[115.2327,-21.5842,0.4492],[115.2357,-21.5769,1.8929],[115.248,-21.5707,0.0],[115.2483,-21.569,0.0],[115.245,-21.5649,0.3672],[115.2343,-21.5658,0.0],[115.2292,-21.5695,0.4097],[115.2253,-21.5787,2.5732],[115.2216,-21.5818,1.4682],[115.2216,-21.5883,3.8602],[115.2168,-21.5924,0.5298],[115.2172,-21.5945,2.449],[115.2124,-21.5998,2.438]]],
[[[114.8623,-21.5802,0.0],[114.8616,-21.5794,0.0],[114.86,-21.5798,0.0],[114.8614,-21.5819,0.5555],[114.8623,-21.5802,0.0]]],
[[[114.7753,-21.5511,0.0],[114.7757,-21.5503,0.0],[114.7739,-21.5505,0.0],[114.7746,-21.551,0.0],[114.7753,-21.5511,0.0]]],
[[[115.3917,-21.5516,0.744],[115.3909,-21.551,2.073],[115.3879,-21.55,2.5081],[115.3903,-21.5528,1.8939],[115.3917,-21.5516,0.744]]],
[[[115.3513,-21.5159,0.0],[115.3516,-21.515,0.0],[115.351,-21.5149,0.0],[115.3508,-21.5156,0.0],[115.3513,-21.5159,0.0]]],
[[[115.3499,-21.5097,2.837],[115.3497,-21.5091,2.8794],[115.349,-21.5094,2.8794],[115.3491,-21.5098,1.8913],[115.3499,-21.5097,2.837]]],
[[[115.4117,-21.5111,2.6119],[115.4127,-21.5152,0.3363],[115.4192,-21.5126,2.2749],[115.4277,-21.5053,0.945],[115.4283,-21.5028,0.8546],[115.4244,-21.5029,1.2164],[115.4174,-21.5077,1.6746],[115.414,-21.5075,2.0732],[115.4117,-21.5111,2.6119]]]]}}