{"type":"Feature","properties":{"GID_2":"AUS.5.82_1","GID_0":"AUS","country":"Australia","GID_1":"AUS.5_1","state":"NewSouthWales","NL_NAME_1":"NA","county":"Lismore","VARNAME_2":"NA","NL_NAME_2":"NA","TYPE_2":"City","ENGTYPE_2":"City","CC_2":"14850","HASC_2":"AU.NS.LI","name":"Lismore.county"},
"geometry":{"type": "MultiPolygon","coordinates": [[[[153.4501,-28.755,19.5514],[153.4473,-28.7531,22.1785],[153.449,-28.7513,47.1811],[153.447,-28.7505,23.8635],[153.4486,-28.748,21.0005],[153.4463,-28.7449,26.3939],[153.4454,-28.7475,19.2605],[153.4424,-28.7453,19.0781],[153.4373,-28.7448,21.3896],[153.4382,-28.7462,21.3896],[153.4351,-28.7477,20.987],[153.4281,-28.7417,25.3275],[153.428,-28.7387,20.4063],[153.4242,-28.7396,17.6039],[153.422,-28.7435,16.7512],[153.4234,-28.7446,24.6055],[153.422,-28.7453,17.4312],[153.4143,-28.742,17.6211],[153.4104,-28.7424,18.5357],[153.409,-28.7447,17.76],[153.4067,-28.7433,18.2909],[153.4095,-28.7256,129.7253],[153.4115,-28.7245,134.8596],[153.4121,-28.7206,107.7378],[153.4072,-28.7199,118.8177],[153.4091,-28.7078,31.5045],[153.4065,-28.704,35.0959],[153.403,-28.7029,24.6044],[153.4008,-28.6975,26.0472],[153.4037,-28.6981,25.9818],[153.4038,-28.6965,27.3853],[153.4082,-28.6936,54.238],[153.4075,-28.6863,41.212],[153.4182,-28.6949,29.1674],[153.4215,-28.6958,28.2349],[153.4241,-28.6934,35.6881],[153.4224,-28.6859,35.5703],[153.4264,-28.6827,34.5065],[153.4265,-28.6804,33.6732],[153.4217,-28.6766,31.9498],[153.4162,-28.6771,34.5885],[153.4178,-28.6738,35.7707],[153.416,-28.6715,39.3813],[153.419,-28.6702,48.4571],[153.4174,-28.6677,41.6629],[153.4193,-28.6618,62.8294],[153.4215,-28.6621,47.7036],[153.4244,-28.6672,43.5851],[153.4277,-28.6661,46.8971],[153.4301,-28.6614,65.3729],[153.4296,-28.6587,54.5014],[153.4269,-28.6608,53.7277],[153.4242,-28.6605,58.1725],[153.4267,-28.6554,54.662],[153.421,-28.6538,54.1872],[153.421,-28.6491,57.4357],[153.4154,-28.6486,68.9754],[153.4167,-28.6439,56.0757],[153.4186,-28.6438,59.6774],[153.4181,-28.642,62.4824],[153.4117,-28.6411,70.9907],[153.4146,-28.6399,81.1099],[153.4155,-28.6364,66.9075],[153.4124,-28.6341,70.7153],[153.4169,-28.6263,91.8371],[153.4116,-28.6248,128.0174],[153.4133,-28.6231,87.7764],[153.4127,-28.6187,110.5837],[153.3731,-28.614,384.2067],[153.375,-28.6005,396.4566],[153.3782,-28.5987,397.0172],[153.3801,-28.5919,420.4428],[153.3814,-28.592,387.4247],[153.3784,-28.5884,451.5407],[153.3794,-28.5841,498.4457],[153.3716,-28.5769,570.0563],[153.3638,-28.5738,600.8797],[153.3597,-28.568,642.4234],[153.3508,-28.5681,671.8404],[153.3471,-28.5641,750.8192],[153.3468,-28.5592,812.4653],[153.3384,-28.5577,825.2843],[153.3382,-28.5504,763.693],[153.3306,-28.5462,658.6398],[153.3294,-28.542,661.5658],[153.3227,-28.541,520.3084],[153.3183,-28.5424,574.9539],[153.3144,-28.5405,518.8412],[153.3105,-28.5428,658.7734],[153.3014,-28.5393,789.1942],[153.2913,-28.5416,771.3149],[153.2915,-28.5378,563.8185],[153.2879,-28.5357,570.5522],[153.2838,-28.53,647.8287],[153.285,-28.5242,584.0827],[153.2822,-28.5219,628.3281],[153.2825,-28.5161,526.9446],[153.2745,-28.5216,730.3314],[153.2619,-28.5236,851.5752],[153.2554,-28.5272,899.465],[153.2538,-28.5263,899.465],[153.2523,-28.5201,748.1213],[153.2464,-28.5157,742.4918],[153.2388,-28.5183,737.9205],[153.2279,-28.5172,678.103],[153.2183,-28.5237,915.5596],[153.2154,-28.5229,827.2166],[153.2059,-28.5265,509.844],[153.1979,-28.527,284.0375],[153.1913,-28.5224,234.933],[153.1838,-28.5222,253.0343],[153.182,-28.5337,248.6204],[153.1774,-28.5331,198.3582],[153.1772,-28.5357,185.6861],[153.172,-28.5377,196.8679],[153.1707,-28.5422,191.5923],[153.1732,-28.5528,177.8283],[153.1651,-28.5618,166.8395],[153.1633,-28.5614,162.0324],[153.1627,-28.5637,172.397],[153.1646,-28.565,173.1127],[153.1589,-28.5668,152.6332],[153.1605,-28.5681,169.0214],[153.158,-28.5708,162.5799],[153.1583,-28.5735,151.6223],[153.1538,-28.5693,137.0479],[153.1477,-28.5699,131.4594],[153.1434,-28.5741,125.2762],[153.1375,-28.5723,123.4875],[153.1379,-28.5794,149.5432],[153.1404,-28.5814,165.7819],[153.1382,-28.5825,170.1351],[153.1409,-28.5842,147.2504],[153.1394,-28.5856,122.9682],[153.1435,-28.5873,118.0269],[153.1429,-28.589,119.6841],[153.1368,-28.5868,114.7839],[153.1351,-28.5892,96.8343],[153.1316,-28.5887,114.2596],[153.1279,-28.5914,84.8548],[153.1279,-28.593,86.9657],[153.1234,-28.5952,78.6506],[153.121,-28.5938,96.9548],[153.1198,-28.5978,88.3662],[153.1182,-28.5979,83.1201],[153.1192,-28.6,83.6911],[153.1171,-28.6009,88.2823],[153.1205,-28.6013,78.9856],[153.1192,-28.6057,74.504],[153.1202,-28.6077,77.3759],[153.1171,-28.6083,74.2382],[153.1196,-28.6098,68.369],[153.1184,-28.6127,62.3345],[153.1208,-28.6135,63.6645],[153.119,-28.6159,59.287],[153.122,-28.616,60.5324],[153.1233,-28.6183,57.2097],[153.121,-28.6196,66.7371],[153.1228,-28.6236,63.6033],[153.1011,-28.6217,173.3127],[153.0986,-28.6373,264.5214],[153.0917,-28.6364,181.6971],[153.0871,-28.6638,254.1512],[153.0826,-28.668,216.2344],[153.0877,-28.6812,161.2495],[153.0882,-28.6843,166.5091],[153.0858,-28.6915,114.7608],[153.0874,-28.6933,101.6543],[153.0853,-28.6963,99.3791],[153.0882,-28.7033,77.8609],[153.0856,-28.7054,72.0397],[153.0861,-28.7103,59.4873],[153.0822,-28.7133,55.9441],[153.0817,-28.7164,56.3584],[153.0797,-28.7169,53.5532],[153.0777,-28.7203,68.1136],[153.0802,-28.7218,57.354],[153.0832,-28.7273,55.1329],[153.0826,-28.7315,50.996],[153.0813,-28.7302,50.801],[153.0735,-28.7366,46.3515],[153.0787,-28.7408,65.0009],[153.0793,-28.7444,49.5174],[153.0773,-28.7461,59.5278],[153.0816,-28.7508,45.7901],[153.0834,-28.7505,44.246],[153.0871,-28.7556,46.5086],[153.0888,-28.7548,46.5086],[153.0896,-28.7562,40.1383],[153.0928,-28.7543,38.8478],[153.0948,-28.7575,41.2845],[153.1004,-28.7594,37.6789],[153.0997,-28.7607,36.7356],[153.1034,-28.7607,36.9956],[153.1033,-28.762,37.49],[153.1063,-28.7618,36.916],[153.1064,-28.7636,36.5225],[153.1087,-28.7637,37.3952],[153.1074,-28.7688,33.7911],[153.1106,-28.7705,34.3032],[153.1099,-28.7732,33.7865],[153.1112,-28.7752,34.0899],[153.1212,-28.776,28.7923],[153.1231,-28.7741,29.9315],[153.1259,-28.7801,29.0911],[153.1311,-28.7786,26.8333],[153.1376,-28.7808,26.7243],[153.1394,-28.7833,26.7453],[153.1445,-28.7821,26.7053],[153.1479,-28.7839,23.1493],[153.1439,-28.8055,234.5463],[153.1401,-28.8051,129.2303],[153.1385,-28.8145,68.9493],[153.1499,-28.8202,48.7311],[153.1548,-28.8204,47.1531],[153.1646,-28.8247,41.0181],[153.1678,-28.83,41.3217],[153.1749,-28.8344,34.2208],[153.1774,-28.8339,32.4541],[153.1781,-28.8373,31.0029],[153.1821,-28.8391,28.4129],[153.1837,-28.8417,35.2921],[153.183,-28.8456,29.554],[153.1876,-28.8463,24.7585],[153.1829,-28.8641,42.182],[153.1763,-28.9033,11.6335],[153.1752,-28.9141,9.743],[153.1797,-28.9147,11.2788],[153.1792,-28.9182,11.9279],[153.1735,-28.9204,12.0989],[153.1731,-28.9224,6.4217],[153.1747,-28.9213,5.1117],[153.1884,-28.9282,9.0484],[153.1906,-28.9268,5.705],[153.1923,-28.9209,6.9308],[153.1992,-28.9211,7.6494],[153.202,-28.9225,7.0553],[153.2074,-28.9307,4.9719],[153.2103,-28.9293,8.6403],[153.2164,-28.9313,8.9916],[153.2256,-28.9283,5.2053],[153.2284,-28.9354,8.584],[153.2399,-28.9387,6.9578],[153.2417,-28.947,5.3889],[153.2447,-28.9449,5.238],[153.2437,-28.9343,3.5797],[153.2472,-28.9311,8.0653],[153.2595,-28.9449,6.8662],[153.2694,-28.9442,4.0989],[153.2687,-28.9471,3.6503],[153.2635,-28.9492,5.9438],[153.2637,-28.952,6.862],[153.266,-28.954,3.9769],[153.2702,-28.9508,4.38],[153.2734,-28.9523,2.5996],[153.275,-28.9634,3.1555],[153.2801,-28.9667,5.3793],[153.2799,-28.9698,6.3438],[153.2883,-28.9716,5.6512],[153.2909,-28.9741,4.9009],[153.2909,-28.9773,6.1335],[153.2866,-28.9795,3.3893],[153.2863,-28.9823,4.7851],[153.2883,-28.984,3.3766],[153.2947,-28.9844,3.9092],[153.2964,-28.9867,3.6392],[153.2964,-28.9916,4.6325],[153.3007,-28.9943,4.717],[153.296,-29.0003,4.0196],[153.2977,-29.0037,3.8305],[153.284,-29.0089,2.9489],[153.2803,-29.0014,5.8842],[153.2695,-29.0103,2.801],[153.2695,-29.0138,3.6154],[153.2855,-29.024,1.0],[153.279,-29.0329,1.655],[153.2789,-29.036,1.0],[153.3031,-29.0537,2.0031],[153.3069,-29.0607,1.8504],[153.3131,-29.0554,2.0107],[153.3194,-29.0423,0.5939],[153.327,-29.0391,1.9386],[153.332,-29.0406,1.3907],[153.3355,-29.0468,0.5],[153.3352,-29.0525,0.5],[153.3299,-29.0556,0.5],[153.3283,-29.0605,0.6248],[153.3319,-29.0672,0.5],[153.3376,-29.0713,3.0396],[153.3473,-29.0692,1.057],[153.3542,-29.064,2.0717],[153.3667,-29.0633,0.5],[153.3787,-29.0582,1.3088],[153.3815,-29.0543,0.0],[153.3827,-29.0493,0.0],[153.3809,-29.043,0.3396],[153.3763,-29.0372,0.4618],[153.3755,-29.0272,0.0],[153.3781,-29.0228,0.3997],[153.3899,-29.0133,0.0],[153.3999,-28.999,0.3777],[153.4052,-28.9989,1.1572],[153.4113,-29.0116,0.0],[153.4152,-29.0158,0.0],[153.4194,-29.0173,0.0],[153.427,-29.016,1.0263],[153.435,-29.0061,0.0],[153.4359,-29.0011,1.6615],[153.4232,-29.0004,0.0],[153.4207,-28.9925,0.0],[153.4067,-28.9859,0.0],[153.4046,-28.9803,0.0],[153.3902,-28.9703,1.8248],[153.3848,-28.9554,6.7826],[153.3755,-28.9539,6.0847],[153.3812,-28.9225,1.2161],[153.3874,-28.9232,14.0901],[153.3886,-28.9167,6.3693],[153.3845,-28.9161,0.8612],[153.3852,-28.9122,2.7519],[153.3813,-28.9117,1.087],[153.382,-28.9076,3.2068],[153.3784,-28.9071,2.5695],[153.3792,-28.9026,5.4744],[153.3649,-28.8996,5.0052],[153.3664,-28.8971,4.0278],[153.3647,-28.8949,4.7781],[153.3664,-28.8941,5.2724],[153.3625,-28.8921,6.6555],[153.363,-28.8895,8.4279],[153.3659,-28.8903,6.3826],[153.3643,-28.8894,8.4279],[153.3656,-28.8873,9.7733],[153.3633,-28.8871,7.8432],[153.3657,-28.8831,16.8967],[153.363,-28.882,9.8912],[153.3649,-28.8802,14.5115],[153.3639,-28.8783,9.927],[153.3657,-28.8748,9.3132],[153.3669,-28.8757,12.3716],[153.3692,-28.8743,43.8184],[153.3684,-28.8709,16.0203],[153.3754,-28.8665,58.6328],[153.3775,-28.8624,78.2237],[153.379,-28.8634,76.2432],[153.3813,-28.862,93.3605],[153.3797,-28.8601,69.831],[153.3822,-28.8578,109.0907],[153.3792,-28.8568,100.5321],[153.3817,-28.8531,124.0792],[153.38,-28.851,110.5802],[153.3838,-28.8505,119.5768],[153.3842,-28.8491,130.3258],[153.3851,-28.8503,119.5768],[153.3876,-28.8487,128.9405],[153.3901,-28.8503,127.3827],[153.3924,-28.8495,120.8043],[153.39,-28.844,124.5959],[153.3937,-28.8451,132.2868],[153.3966,-28.8428,128.8931],[153.3945,-28.8395,131.9085],[153.3965,-28.8363,131.2975],[153.3934,-28.833,127.5234],[153.3894,-28.8324,124.222],[153.3889,-28.8313,124.7052],[153.3913,-28.8302,123.4276],[153.3871,-28.8274,134.294],[153.3889,-28.8242,127.3312],[153.3868,-28.8231,134.0028],[153.3866,-28.8207,140.1966],[153.3898,-28.8176,134.9076],[153.3899,-28.8117,131.5601],[153.3823,-28.8078,140.9148],[153.3829,-28.8046,142.2702],[153.3811,-28.8044,142.4725],[153.3837,-28.7973,156.8042],[153.3888,-28.7931,143.1874],[153.3974,-28.7908,134.0759],[153.4022,-28.7851,134.4237],[153.4124,-28.7865,116.7771],[153.4114,-28.7924,119.3582],[153.4268,-28.7945,81.7282],[153.426,-28.79,72.7876],[153.4237,-28.7886,73.5808],[153.4246,-28.7837,71.4481],[153.428,-28.7845,68.9746],[153.4286,-28.787,62.0189],[153.4309,-28.7823,68.0518],[153.4374,-28.7831,58.7762],[153.4389,-28.7819,62.8586],[153.4381,-28.7806,60.9643],[153.443,-28.779,47.748],[153.4442,-28.7749,42.0074],[153.4469,-28.7729,32.1708],[153.4419,-28.7629,23.9898],[153.4481,-28.7592,20.2165],[153.4476,-28.7569,20.5553],[153.4502,-28.7574,19.8609],[153.4501,-28.755,19.5514]]]]}}