{"type": "Feature","bbox": [139.69947864808807,-25.221593362823654,140.12512917592045,-24.950778365862504],"geometry": {"type": "Polygon","coordinates": [[[139.75393601160744,-25.146530510405086,66.7852],[139.71243066968185,-25.180382385025212,65.3195],[139.69947864808807,-25.201870966305819,63.3129],[139.71507994682605,-25.220710270442254,61.2855],[139.72979815318263,-25.221593362823654,62.9529],[139.74746000081052,-25.216589172662424,61.8803],[139.76453312018418,-25.20864134122985,60.0],[139.77748514177796,-25.200693509797304,60.0],[139.784255516702,-25.193628770746159,60.0],[139.79043716337173,-25.184797846932184,60.0],[139.79779626655005,-25.176850015499639,60.0],[139.80721591861823,-25.172140189465523,60.0],[139.81899048370349,-25.173317645974066,60.0],[139.82693831513609,-25.179204928516697,60.0],[139.83429741831435,-25.185975303440728,60.0],[139.84342270625547,-25.190096401220558,60.0],[139.85961273324767,-25.185680939313585,60.0],[139.86314510277327,-25.169490912321351,62.7249],[139.86108455388336,-25.1494741516764,60.0],[139.86137891801047,-25.132106668175624,60.0],[139.87462530373142,-25.115033548801989,60.0],[139.89169842310503,-25.120037738963219,64.0756],[139.91112645549572,-25.130929211667109,64.6163],[139.93055448788641,-25.131812304048481,61.1147],[139.93585304217481,-25.116211005310504,60.0],[139.93143758026781,-25.093250603394239,60.0],[139.93261503677633,-25.07588311989349,61.192],[139.95380925392982,-25.077354940529148,60.0],[139.96264017774376,-25.086774592597351,60.0],[139.98412875902437,-25.119449010708962,60.0],[139.9908991339484,-25.125336293251593,60.0],[140.00090751427086,-25.120332103090362,60.0],[140.02857774222127,-25.10178716308107,60.6566],[140.04094103556082,-25.097077337046954,60.0],[140.0780309155794,-25.090012597995809,60.0],[140.10216877400416,-25.078238032910519,60.0],[140.11924189337782,-25.05998745702837,60.3746],[140.12512917592045,-25.037027055112105,62.915],[140.11570952385222,-25.010828647797382,64.104],[140.0956927632073,-24.993461164296605,60.0],[140.01621444888173,-24.970206398253197,60.0],[139.98324566664297,-24.953133278879562,60.0],[139.96793873203211,-24.950778365862504,60.0],[139.9526317974213,-24.960198017930736,60.0],[139.93555867804764,-24.983747148101259,61.8995],[139.92231229232675,-25.006413185890409,63.6852],[139.9064166294616,-25.026135582408216,60.0],[139.88169004278257,-25.040853788764821,60.0],[139.83135377704303,-25.056455087502798,60.0],[139.80780464687251,-25.0676409243338,60.0],[139.78808225035471,-25.085302771961693,60.3927],[139.75393601160744,-25.146530510405086,66.7852]]]}
,"properties": {"featurecla": "Alkaline Lake","scalerank": 7,"name": "null604","name_abb": null,"name_alt": null,"note": "_untitled_1","delta": null,"dam_name": null,"year": -99,"admin": null,"min_zoom": 5.7,"min_label": 6.7,"area_km2": 487.7368,"hist_schema_id": "Elevation0-9000","hist_area_km2": {"50": 465.7022,"75": 22.0153,"100": 0.0192}}}