{"type": "Feature","bbox": [151.1008,-34.006,151.1857,-33.9262],"geometry": {"type": "MultiPolygon","coordinates": [[[[151.1707,-33.9299,1.796],[151.166,-33.93,3.8138],[151.1605,-33.934,0.9837],[151.156,-33.9316,4.5141],[151.157,-33.9293,0.6102],[151.155,-33.9262,3.1791],[151.1519,-33.9277,4.4307],[151.1399,-33.9274,8.2321],[151.1375,-33.9304,5.6174],[151.1346,-33.9299,8.8777],[151.1328,-33.9318,5.8434],[151.1251,-33.9307,9.4868],[151.1158,-33.9368,17.7252],[151.1079,-33.9365,14.882],[151.1008,-33.9393,18.934],[151.103,-33.9495,45.0103],[151.102,-33.9497,47.7062],[151.1189,-33.9694,45.8355],[151.1305,-33.9662,23.4044],[151.1348,-33.9562,17.7627],[151.138,-33.9598,17.9076],[151.1362,-33.9687,14.9767],[151.136,-33.9858,14.3079],[151.1262,-34.0018,6.3597],[151.1282,-34.006,4.1306],[151.1397,-34.0033,0.4651],[151.142,-33.9973,4.3359],[151.1462,-33.9968,1.36],[151.1495,-33.9942,1.3463],[151.1483,-33.9851,4.762],[151.1511,-33.9743,0.3721],[151.1578,-33.9593,9.1889],[151.1621,-33.9534,1.0545],[151.168,-33.9498,0.0],[151.1757,-33.955,0.5207],[151.18,-33.954,3.1099],[151.1857,-33.9447,5.5498],[151.1856,-33.9418,5.2051],[151.1827,-33.9399,3.2796],[151.1709,-33.9423,2.8905],[151.1667,-33.9401,3.9963],[151.1659,-33.9374,14.4373],[151.1707,-33.9299,1.796]]]]}
,"properties": {"GID_2": "AUS.5.114_1","GID_0": "AUS","country": "Australia","GID_1": "AUS.5_1","state": "NewSouthWales","NL_NAME_1": "NA","county": "Rockdale","VARNAME_2": "NA","NL_NAME_2": "NA","TYPE_2": "City","ENGTYPE_2": "City","CC_2": "16650","HASC_2": "AU.NS.RO","name": "Rockdale.county","area_km2": 28.29701,"hist_schema_id": "Elevation0-9000","hist_area_km2": {"0": 15.24662,"25": 6.98262,"50": 5.85674,"75": 0.21103}}}