{"type": "Feature","bbox": [115.8181,-31.9768,115.8877,-31.9414],"geometry": {"type": "MultiPolygon","coordinates": [[[[115.8416,-31.9435,33.9018],[115.8188,-31.9636,16.69],[115.8181,-31.9768,12.814],[115.822,-31.9768,1.523],[115.8266,-31.973,3.491],[115.8335,-31.9717,1.1744],[115.8422,-31.9634,1.7996],[115.8483,-31.9623,0.6716],[115.8528,-31.9588,1.1587],[115.8782,-31.9663,3.1319],[115.8756,-31.9675,0.5511],[115.8768,-31.9691,2.5337],[115.8836,-31.9669,0.9072],[115.8877,-31.9633,0.0],[115.8864,-31.9618,0.8259],[115.8814,-31.9639,0.3685],[115.8845,-31.9585,3.1245],[115.8813,-31.9477,0.0],[115.869,-31.9499,11.5262],[115.8519,-31.9421,20.4574],[115.8504,-31.9457,18.3945],[115.844,-31.9414,17.1878],[115.8416,-31.9435,33.9018]]]]}
,"properties": {"GID_2": "AUS.11.101_1","GID_0": "AUS","country": "Australia","GID_1": "AUS.11_1","state": "WesternAustralia","NL_NAME_1": "NA","county": "Perth","VARNAME_2": "NA","NL_NAME_2": "NA","TYPE_2": "City","ENGTYPE_2": "City","CC_2": "57080","HASC_2": "AU.WA.PE","name": "Perth.county","area_km2": 11.782666,"hist_schema_id": "Elevation0-9000","hist_area_km2": {"0": 3.237912,"25": 5.306752,"50": 2.860242,"75": 0.377759}}}