{"type":"Feature","properties":{"GID_2":"AUS.11.61_1","GID_0":"AUS","country":"Australia","GID_1":"AUS.11_1","state":"WesternAustralia","NL_NAME_1":"NA","county":"Kalgoorlie/Boulder","VARNAME_2":"NA","NL_NAME_2":"NA","TYPE_2":"City","ENGTYPE_2":"City","CC_2":"54280","HASC_2":"AU.WA.KB","name":"Kalgoorlie_Boulder.county"},
"geometry":{"type": "MultiPolygon","coordinates": [[[[129.0014,-30.3054,176.578],[128.1264,-30.3195,196.5508],[127.3407,-30.3193,212.4813],[127.3384,-30.1634,219.3731],[125.5927,-30.1534,220.5298],[124.5014,-30.1421,257.3081],[123.0014,-30.1422,357.6099],[122.817,-30.1424,393.0493],[122.817,-30.1437,394.7365],[122.4079,-30.1422,379.8867],[122.4079,-30.1443,379.2645],[122.3203,-30.1446,383.3244],[122.3202,-30.1427,382.087],[122.01,-30.1434,407.7188],[122.0101,-30.1454,408.9955],[121.8425,-30.1455,359.6617],[121.1836,-30.1438,385.037],[120.8455,-30.1608,413.2296],[120.8459,-30.4482,404.0917],[121.0705,-30.4482,407.3145],[121.2429,-30.6607,336.0],[121.3296,-30.7724,347.084],[121.3655,-30.8108,386.2181],[121.535,-31.0171,367.2373],[121.535,-31.0897,357.528],[121.5602,-31.0897,334.321],[121.5602,-31.0788,330.8054],[121.594,-31.0788,322.0815],[121.594,-31.1813,323.1856],[122.0055,-31.1806,287.6443],[122.0055,-31.164,284.3969],[122.2824,-31.1637,284.6904],[122.2825,-31.1735,286.7489],[122.3806,-31.1728,292.3038],[122.3807,-31.1805,291.2163],[122.3996,-31.1803,297.1405],[122.3991,-31.3758,289.0555],[122.8302,-31.3789,308.693],[123.0063,-31.3862,323.3195],[123.4873,-31.394,245.3885],[123.4961,-31.387,246.217],[124.1976,-31.3864,172.0751],[125.0913,-31.3794,163.4309],[125.0913,-31.4105,159.3535],[125.6091,-31.4105,150.7557],[125.6091,-31.3794,150.7694],[126.0014,-31.3811,156.2462],[127.0569,-31.3742,148.545],[127.0629,-31.3729,150.3606],[127.0859,-31.3745,150.9247],[127.114,-31.3719,149.1799],[127.1785,-31.3718,151.1576],[127.181,-31.2757,154.035],[127.4416,-31.2741,139.3762],[127.4407,-31.2222,152.9677],[128.0594,-31.2219,146.5729],[128.0601,-31.3766,134.3954],[129.0014,-31.3699,117.956],[129.0014,-30.3054,176.578]]]]}}