{"type": "Feature","bbox": [144.9125,-37.8917,145.0105,-37.8258],"geometry": {"type": "MultiPolygon","coordinates": [[[[144.997,-37.8838,10.4198],[145.0,-37.8665,17.6864],[145.0092,-37.8676,30.8035],[145.0105,-37.8602,42.5314],[144.9833,-37.8557,12.0942],[144.9842,-37.8507,17.7736],[144.9806,-37.8502,10.562],[144.9754,-37.836,15.7961],[144.9713,-37.8299,19.8528],[144.9659,-37.8315,5.1812],[144.9617,-37.8281,3.6016],[144.9373,-37.8258,4.022],[144.9234,-37.8281,5.9728],[144.9127,-37.8333,4.6231],[144.9155,-37.8388,1.6242],[144.9125,-37.8412,3.162],[144.9132,-37.8421,3.4173],[144.9185,-37.8397,0.0],[144.9269,-37.84,1.9777],[144.9252,-37.845,0.0],[144.9272,-37.8413,0.0],[144.9307,-37.8423,0.0],[144.93,-37.8474,0.0],[144.9319,-37.8433,0.0],[144.9356,-37.8425,4.8406],[144.9689,-37.8593,2.5773],[144.9711,-37.8629,4.6378],[144.9697,-37.8647,0.0],[144.9756,-37.8704,0.694],[144.9731,-37.8725,0.0],[144.9756,-37.8787,1.1053],[144.9773,-37.8787,3.1809],[144.9757,-37.8791,1.1053],[144.9757,-37.8821,0.6452],[144.985,-37.8909,0.0],[144.9907,-37.8917,5.3615],[144.9923,-37.8833,4.8577],[144.997,-37.8838,10.4198]]]]}
,"properties": {"GID_2": "AUS.10.59_1","GID_0": "AUS","country": "Australia","GID_1": "AUS.10_1","state": "Victoria","NL_NAME_1": "NA","county": "PortPhillip","VARNAME_2": "NA","NL_NAME_2": "NA","TYPE_2": "City","ENGTYPE_2": "City","CC_2": "25900","HASC_2": "AU.VI.PP","name": "PortPhillip.county","area_km2": 21.09391,"hist_schema_id": "Elevation0-9000","hist_area_km2": {"0": 17.34418,"25": 3.53211,"50": 0.21761}}}