{"type":"Feature","properties":{"GID_2":"AUS.5.4_1","GID_0":"AUS","country":"Australia","GID_1":"AUS.5_1","state":"NewSouthWales","NL_NAME_1":"NA","county":"Auburn","VARNAME_2":"NA","NL_NAME_2":"NA","TYPE_2":"City","ENGTYPE_2":"City","CC_2":"10200","HASC_2":"AU.NS.AU","name":"Auburn.county"},
"geometry":{"type": "MultiPolygon","coordinates": [[[[151.0511,-33.8242,3.0855],[151.0485,-33.825,2.0093],[151.0456,-33.8294,5.6865],[151.0384,-33.8321,6.0307],[151.0355,-33.8317,6.9998],[151.0297,-33.8353,6.6531],[151.0236,-33.8345,7.8649],[151.0178,-33.8389,12.582],[151.0164,-33.8468,9.208],[151.0179,-33.85,8.4918],[151.0155,-33.8529,10.6926],[151.0168,-33.8537,9.7772],[151.0139,-33.8601,13.4428],[151.0151,-33.8632,16.8356],[151.0134,-33.8672,18.3217],[151.0146,-33.8694,19.1605],[151.0127,-33.8701,17.5036],[151.0122,-33.8748,19.9619],[151.0132,-33.8784,19.5761],[151.0306,-33.888,53.7741],[151.0495,-33.8871,35.0045],[151.0491,-33.8859,37.0425],[151.0615,-33.883,27.0456],[151.0664,-33.8737,32.5178],[151.0611,-33.8664,26.3744],[151.0567,-33.8646,21.3271],[151.0637,-33.8638,22.3954],[151.0605,-33.8612,25.8736],[151.064,-33.8562,21.2481],[151.0692,-33.8583,16.2707],[151.0784,-33.8533,10.1474],[151.0814,-33.85,5.3418],[151.078,-33.8465,7.7354],[151.0809,-33.844,4.8411],[151.0804,-33.835,1.7681],[151.0768,-33.8351,3.612],[151.0753,-33.8327,4.9238],[151.084,-33.8221,0.3395],[151.0786,-33.8224,1.6084],[151.0735,-33.8204,2.4889],[151.0646,-33.8249,2.5565],[151.0511,-33.8242,3.0855]]]]}}