{"type": "Feature","bbox": [146.3497,-30.9023,147.9455,-28.9988],"geometry": {"type": "MultiPolygon","coordinates": [[[[147.1581,-30.82,144.9455],[147.2406,-30.8289,143.6021],[147.2371,-30.8274,143.2756],[147.2372,-30.8259,142.594],[147.2399,-30.8252,142.9185],[147.2444,-30.8276,142.9408],[147.247,-30.8244,143.1202],[147.2501,-30.8241,142.1806],[147.2496,-30.8225,142.7725],[147.2445,-30.822,143.0888],[147.2437,-30.8203,142.7179],[147.2458,-30.8186,142.5755],[147.249,-30.8193,142.3187],[147.2513,-30.8152,142.2431],[147.2538,-30.815,142.436],[147.2516,-30.8111,142.3143],[147.2488,-30.8098,142.4692],[147.2518,-30.8078,142.4891],[147.2493,-30.8062,142.6197],[147.2517,-30.8055,142.7526],[147.252,-30.8037,143.133],[147.2549,-30.8055,141.9103],[147.2558,-30.804,142.2206],[147.2523,-30.8001,142.3612],[147.253,-30.797,141.9914],[147.2502,-30.7955,141.6822],[147.2502,-30.7934,142.1164],[147.2463,-30.7937,141.5486],[147.2522,-30.7878,142.2447],[147.2511,-30.7869,142.2447],[147.2476,-30.7884,141.3624],[147.2468,-30.7865,141.6512],[147.253,-30.7848,142.1144],[147.2487,-30.7824,142.2253],[147.2524,-30.7787,142.0688],[147.2477,-30.7775,141.8166],[147.2485,-30.7745,141.8434],[147.2436,-30.774,141.397],[147.2431,-30.771,141.4133],[147.2413,-30.7701,140.8713],[147.2434,-30.7687,141.9299],[147.2418,-30.7664,140.539],[147.2437,-30.7665,140.4334],[147.2455,-30.7689,141.6741],[147.2473,-30.7668,140.8939],[147.2443,-30.7611,141.2593],[147.2455,-30.7595,141.2387],[147.2418,-30.7608,141.3939],[147.2418,-30.7562,141.431],[147.239,-30.7555,141.3978],[147.2415,-30.7524,141.0019],[147.2455,-30.7521,140.2478],[147.2464,-30.7497,140.2974],[147.2419,-30.7469,141.6312],[147.2378,-30.7496,140.0235],[147.2378,-30.7465,140.248],[147.2343,-30.7471,139.8221],[147.233,-30.7433,139.4551],[147.2306,-30.7438,139.7399],[147.2296,-30.7412,139.9629],[147.2235,-30.7423,139.6658],[147.2219,-30.7396,139.5414],[147.2245,-30.7398,139.9877],[147.225,-30.7372,139.681],[147.2198,-30.7376,139.377],[147.2197,-30.7356,139.9854],[147.2158,-30.7338,139.7675],[147.2177,-30.7305,139.4738],[147.2133,-30.7298,139.3772],[147.2167,-30.728,140.0602],[147.2139,-30.7256,139.7996],[147.2178,-30.7253,139.9003],[147.2178,-30.7238,140.3368],[147.2095,-30.7217,139.6245],[147.2067,-30.7226,140.3794],[147.2059,-30.7212,139.7617],[147.2096,-30.7203,140.6074],[147.2083,-30.7182,139.4056],[147.2035,-30.7183,139.0337],[147.2104,-30.7101,140.0899],[147.2089,-30.7087,139.4788],[147.2062,-30.7104,139.623],[147.2086,-30.7062,139.1347],[147.2117,-30.7061,139.3255],[147.2113,-30.7039,138.2122],[147.2171,-30.704,138.931],[147.2151,-30.7002,140.5677],[147.223,-30.694,138.0288],[147.2203,-30.6934,138.1875],[147.2176,-30.6901,139.26],[147.2153,-30.6919,138.3983],[147.2137,-30.6857,138.5255],[147.2094,-30.686,138.7468],[147.2093,-30.6834,138.4884],[147.2144,-30.6814,137.8229],[147.2139,-30.68,138.8007],[147.2069,-30.6791,138.1473],[147.2142,-30.6763,137.9824],[147.2145,-30.6725,138.9651],[147.2196,-30.6699,138.1897],[147.2189,-30.6679,139.6167],[147.2209,-30.6665,137.3594],[147.2189,-30.6657,137.2655],[147.2147,-30.668,138.0507],[147.2157,-30.6634,137.8323],[147.2129,-30.6639,138.0459],[147.2123,-30.6604,137.4042],[147.2095,-30.6605,136.8138],[147.2106,-30.6574,137.22],[147.2086,-30.6546,138.1441],[147.2052,-30.6551,137.806],[147.2057,-30.6508,137.2908],[147.209,-30.6507,138.5592],[147.2075,-30.6472,137.8757],[147.2049,-30.6488,137.401],[147.2044,-30.6467,138.2173],[147.2119,-30.6452,136.9894],[147.2126,-30.6404,136.7012],[147.2041,-30.6428,136.811],[147.2042,-30.6409,137.3123],[147.2087,-30.6377,137.7743],[147.2046,-30.6362,136.1903],[147.2022,-30.6386,135.3915],[147.2012,-30.6377,135.9217],[147.205,-30.6332,136.7008],[147.2015,-30.6312,135.5342],[147.2023,-30.6253,136.201],[147.2077,-30.6259,136.9861],[147.2031,-30.6219,135.8843],[147.2051,-30.6206,136.1084],[147.2078,-30.6227,136.5662],[147.2094,-30.6218,135.6831],[147.2045,-30.6176,136.19],[147.2072,-30.6152,135.6007],[147.2039,-30.6147,135.7516],[147.2053,-30.6128,136.0115],[147.2034,-30.6112,134.9824],[147.1191,-30.6014,136.2315],[147.0996,-30.5336,132.3058],[147.1884,-30.5396,131.9052],[147.1872,-30.5356,132.0989],[147.1894,-30.5326,131.9065],[147.1846,-30.5334,132.0296],[147.1849,-30.5315,133.0349],[147.1813,-30.5309,132.5227],[147.1894,-30.5279,132.5353],[147.1885,-30.5262,131.5337],[147.1896,-30.5248,131.4659],[147.1846,-30.5222,131.5186],[147.1871,-30.5188,131.6868],[147.1831,-30.5188,132.7391],[147.1813,-30.5164,131.8058],[147.1866,-30.514,131.884],[147.1856,-30.5115,131.8796],[147.179,-30.5118,131.3943],[147.1834,-30.5096,131.9255],[147.1811,-30.5087,132.0592],[147.1819,-30.5064,132.1068],[147.1778,-30.5062,131.9467],[147.1835,-30.5015,131.3355],[147.1808,-30.5007,131.4702],[147.1806,-30.4985,131.9693],[147.178,-30.4987,130.5111],[147.1806,-30.4953,130.9471],[147.1833,-30.4961,131.0088],[147.1834,-30.4932,131.511],[147.1856,-30.4931,131.0448],[147.1839,-30.4915,130.8013],[147.1857,-30.4896,131.096],[147.1846,-30.4881,130.9047],[147.1879,-30.4879,130.9544],[147.1861,-30.4832,131.466],[147.1878,-30.4819,131.1909],[147.1861,-30.4812,130.83],[147.1829,-30.4839,130.726],[147.181,-30.4821,130.9656],[147.1795,-30.4841,131.3624],[147.1772,-30.4838,131.4552],[147.1802,-30.4786,130.9423],[147.1795,-30.4772,131.0559],[147.175,-30.4785,129.9397],[147.1751,-30.475,130.7206],[147.1727,-30.4743,130.0794],[147.1748,-30.4725,130.735],[147.1686,-30.472,129.9208],[147.1654,-30.4698,130.1478],[147.1649,-30.4662,130.5883],[147.1622,-30.4667,129.8944],[147.1668,-30.4633,130.1846],[147.1692,-30.4669,130.2468],[147.1716,-30.4648,130.228],[147.1761,-30.4648,128.6774],[147.1767,-30.4626,129.0047],[147.1747,-30.4611,128.8601],[147.1788,-30.4605,129.6706],[147.181,-30.4582,129.2207],[147.177,-30.4571,128.8797],[147.1724,-30.4589,129.6147],[147.1723,-30.4562,129.1918],[147.1702,-30.4562,129.5659],[147.1709,-30.4532,129.7213],[147.1674,-30.4522,129.7319],[147.1699,-30.4505,129.9038],[147.1671,-30.4487,129.7402],[147.1746,-30.4476,129.2808],[147.1757,-30.4432,129.1666],[147.1732,-30.443,129.1199],[147.1733,-30.44,128.9952],[147.1675,-30.4382,128.5077],[147.1711,-30.4353,128.6917],[147.1698,-30.4327,129.5522],[147.1722,-30.4316,128.832],[147.1723,-30.4287,128.4304],[147.1657,-30.4298,128.4801],[147.1659,-30.4272,128.2994],[147.1712,-30.4258,128.5487],[147.1651,-30.4218,129.0461],[147.1683,-30.4199,128.3264],[147.171,-30.4215,128.0326],[147.1721,-30.4207,128.4739],[147.1716,-30.4163,129.1028],[147.1743,-30.4163,128.7619],[147.1751,-30.4143,127.8966],[147.1704,-30.4119,127.4428],[147.1711,-30.4087,128.2076],[147.1734,-30.4082,128.1608],[147.1709,-30.4047,128.3078],[147.1732,-30.4023,127.6045],[147.1775,-30.403199999999998,127.4285],[147.1765,-30.4013,128.378],[147.1737,-30.4005,128.1718],[147.1744,-30.3994,127.5822],[147.18,-30.401,128.284],[147.1803,-30.3987,127.7804],[147.1786,-30.3973,127.4706],[147.1841,-30.3891,128.1176],[147.1821,-30.3883,128.5461],[147.1793,-30.3902,127.5174],[147.1781,-30.3888,128.5126],[147.1836,-30.3844,128.3041],[147.1862,-30.3841,128.6933],[147.1817,-30.3796,128.5471],[147.1829,-30.3774,128.9917],[147.1782,-30.3778,127.9865],[147.1757,-30.3765,128.2721],[147.178,-30.3735,127.6778],[147.1828,-30.372,128.2175],[147.1838,-30.3682,128.8885],[147.1862,-30.3675,128.1774],[147.181,-30.3645,129.2567],[147.1804,-30.3609,128.4128],[147.1771,-30.3623,127.3251],[147.177,-30.361,128.8907],[147.182,-30.359,128.2545],[147.1796,-30.3558,126.968],[147.1886,-30.3553,126.7499],[147.1898,-30.3511,126.6986],[147.1917,-30.3505,125.67529999999999],[147.1907,-30.3463,127.3856],[147.1958,-30.347,125.9126],[147.1945,-30.3449,126.8346],[147.1917,-30.3449,126.9046],[147.1917,-30.3424,126.8068],[147.1937,-30.3398,126.6979],[147.199,-30.3411,125.2519],[147.197,-30.3381,125.947],[147.2003,-30.3349,125.7684],[147.1949,-30.3333,125.2687],[147.2,-30.3314,125.6404],[147.2017,-30.3281,125.081],[147.1994,-30.3258,126.3363],[147.2028,-30.3271,125.8721],[147.2036,-30.3258,125.6352],[147.2006,-30.3212,126.8829],[147.1977,-30.323,125.9754],[147.1978,-30.3208,127.2096],[147.2009,-30.319,128.7576],[147.1984,-30.3174,127.7795],[147.1994,-30.3156,127.405],[147.1969,-30.315,127.2065],[147.1991,-30.3133,126.6598],[147.2046,-30.3136,125.0381],[147.202,-30.3111,125.3424],[147.1985,-30.311,126.8902],[147.2011,-30.3082,126.8108],[147.2048,-30.3089,125.68],[147.208,-30.3053,125.6042],[147.2074,-30.3033,127.2543],[147.2111,-30.3041,125.4748],[147.2147,-30.2976,126.5316],[147.2118,-30.2933,127.6573],[147.209,-30.2944,125.4535],[147.2108,-30.2899,125.6637],[147.2095,-30.2878,125.0823],[147.206,-30.2894,125.5522],[147.2046,-30.2867,125.6072],[147.2087,-30.2847,125.1436],[147.2145,-30.2766,123.5424],[147.2095,-30.2751,123.9615],[147.2097,-30.274,123.704],[147.2132,-30.2726,124.5218],[147.2166,-30.274,123.4792],[147.2159,-30.2697,123.9916],[147.2205,-30.2672,123.6479],[147.22,-30.2654,122.2892],[147.2232,-30.2642,121.8983],[147.2161,-30.2615,122.8009],[147.2124,-30.2568,123.2838],[147.2156,-30.2554,122.7457],[147.2185,-30.2579,122.726],[147.2204,-30.2556,122.2892],[147.2195,-30.2526,122.585],[147.2166,-30.2521,122.354],[147.2195,-30.2501,122.6091],[147.2168,-30.2481,122.3891],[147.2189,-30.2466,122.8103],[147.2236,-30.2501,121.6175],[147.226,-30.2494,121.4252],[147.228,-30.2411,121.607],[147.232,-30.2411,121.5878],[147.2319,-30.2375,121.8102],[147.2346,-30.2384,121.3297],[147.2355,-30.2367,121.7772],[147.2378,-30.2382,121.1852],[147.2394,-30.2329,121.506],[147.2419,-30.2326,121.1775],[147.2375,-30.2313,121.1273],[147.2381,-30.2292,121.3259],[147.236,-30.228,120.0127],[147.2367,-30.2254,121.0135],[147.2312,-30.2257,121.4104],[147.2341,-30.2203,121.7066],[147.2362,-30.2203,121.55],[147.2386,-30.2175,121.0851],[147.2359,-30.2137,119.6444],[147.237,-30.212,121.547],[147.2342,-30.2113,121.3245],[147.2352,-30.2101,120.5586],[147.2389,-30.2106,121.6425],[147.2365,-30.2083,120.9793],[147.2381,-30.2059,120.4652],[147.2355,-30.2055,121.1198],[147.2335,-30.1969,119.9475],[147.236,-30.1964,119.357],[147.2358,-30.1941,120.6238],[147.2408,-30.195,121.6659],[147.2397,-30.1931,119.7633],[147.2366,-30.1932,120.6238],[147.237,-30.1911,119.9448],[147.2353,-30.1897,120.0698],[147.2379,-30.1879,119.649],[147.2369,-30.1855,119.5975],[147.2381,-30.1825,119.6994],[147.2414,-30.1826,117.8223],[147.2401,-30.1793,118.8009],[147.2455,-30.1789,117.8269],[147.2463,-30.1747,117.7675],[147.2438,-30.1726,120.2948],[147.2488,-30.173,119.7784],[147.2461,-30.1702,118.686],[147.2488,-30.1684,118.1738],[147.2453,-30.1673,117.3718],[147.2464,-30.1622,116.6142],[147.2535,-30.1631,118.5343],[147.2427,-30.1513,118.8555],[147.2442,-30.1486,118.4494],[147.239,-30.1489,117.7863],[147.237,-30.1507,118.1858],[147.2377,-30.1458,119.8615],[147.2402,-30.1455,117.8737],[147.2421,-30.1419,117.5084],[147.2428,-30.1452,119.6157],[147.2457,-30.1456,117.8917],[147.2451,-30.1406,116.4579],[147.2481,-30.1374,118.8002],[147.2432,-30.1352,116.1104],[147.2484,-30.1357,118.3525],[147.2495,-30.1335,120.1459],[147.2473,-30.1328,119.1302],[147.2509,-30.1279,121.7346],[147.2525,-30.1283,116.3568],[147.2524,-30.1305,116.9606],[147.2594,-30.1305,119.7191],[147.2526,-30.1265,121.6355],[147.2576,-30.1231,124.7125],[147.2622,-30.1245,120.3352],[147.2577,-30.1257,117.6986],[147.2647,-30.1313,121.8118],[147.2683,-30.1281,120.0736],[147.2683,-30.1231,119.5805],[147.2698,-30.1217,116.5845],[147.2701,-30.1242,117.6904],[147.279,-30.1263,123.1061],[147.2803,-30.1302,117.7029],[147.278,-30.1333,120.9453],[147.2839,-30.1333,117.1404],[147.2863,-30.1351,118.8736],[147.2942,-30.1298,118.0856],[147.2992,-30.1315,120.6391],[147.2973,-30.1278,119.4714],[147.2996,-30.128,118.5794],[147.3002,-30.126,122.7443],[147.3056,-30.1223,120.6724],[147.3069,-30.1155,118.1454],[147.3147,-30.117,122.3564],[147.3107,-30.1192,121.5213],[147.3103,-30.1223,117.7393],[147.3203,-30.119,119.9538],[147.3206,-30.1217,121.2247],[147.3259,-30.1256,119.1619],[147.328,-30.1254,119.6729],[147.329,-30.1225,118.133],[147.3335,-30.123,119.8739],[147.3304,-30.1343,118.015],[147.3325,-30.1379,120.3189],[147.3408,-30.1361,124.954],[147.34,-30.1312,119.5638],[147.3416,-30.1283,117.03],[147.3454,-30.1329,117.0405],[147.3539,-30.1306,122.3538],[147.3644,-30.14,121.1515],[147.3763,-30.1428,117.4865],[147.3786,-30.1424,118.0583],[147.3811,-30.1378,119.3794],[147.3794,-30.1354,120.8403],[147.3802,-30.1322,118.4607],[147.3849,-30.1345,122.0493],[147.3886,-30.1392,117.2846],[147.3892,-30.1327,120.1713],[147.3864,-30.1302,123.2197],[147.3864,-30.1281,121.2731],[147.3888,-30.1266,120.2446],[147.3878,-30.1295,114.5591],[147.3953,-30.1298,119.9695],[147.3958,-30.1268,117.8124],[147.394,-30.1256,116.5292],[147.3962,-30.1219,118.8762],[147.3996,-30.1241,123.7221],[147.4011,-30.1277,120.4446],[147.4047,-30.1275,122.2723],[147.4063,-30.1227,122.0463],[147.4092,-30.1215,121.0208],[147.4109,-30.125,123.8855],[147.4175,-30.1259,121.118],[147.4187,-30.1159,122.8901],[147.4112,-30.1152,122.1536],[147.402,-30.1101,119.5],[147.3936,-30.1092,120.4125],[147.3891,-30.1065,119.5],[147.4039,-29.9999,133.5943],[147.4114,-29.984,121.7784],[147.4111,-29.9747,122.3289],[147.4757,-29.9816,135.0701],[147.4912,-29.9039,148.3202],[147.4885,-29.8891,146.6503],[147.4939,-29.8532,148.8448],[147.4404,-29.8475,130.9031],[147.4418,-29.8373,123.9752],[147.4138,-29.8342,120.7712],[147.423,-29.8231,120.3074],[147.4005,-29.7926,121.0695],[147.4004,-29.7854,121.2434],[147.3808,-29.7826,120.7241],[147.388,-29.7707,121.0637],[147.3926,-29.7668,121.4087],[147.4174,-29.7712,121.7924],[147.4273,-29.7631,122.0921],[147.4217,-29.7525,122.7692],[147.4164,-29.7508,123.0362],[147.4178,-29.7467,123.602],[147.4129,-29.7436,122.8827],[147.4115,-29.7402,123.184],[147.4042,-29.7382,122.954],[147.4088,-29.7343,122.8787],[147.4087,-29.7296,122.6641],[147.4106,-29.7255,123.0927],[147.4066,-29.7232,123.1246],[147.4025,-29.7243,122.9659],[147.3997,-29.7224,122.8417],[147.3966,-29.7234,123.0451],[147.3943,-29.7197,123.8124],[147.3795,-29.7167,123.3932],[147.3732,-29.7111,123.8226],[147.3733,-29.707,124.1014],[147.3689,-29.7046,123.7044],[147.3677,-29.697,124.6076],[147.3649,-29.698,124.3838],[147.3499,-29.6934,125.8347],[147.3464,-29.6895,125.2343],[147.3463,-29.6841,125.2836],[147.3516,-29.6787,124.794],[147.354,-29.6734,125.7237],[147.3645,-29.6726,127.7427],[147.3643,-29.6696,125.21],[147.3698,-29.6705,125.8494],[147.3728,-29.659,125.2814],[147.3815,-29.6529,126.4401],[147.3836,-29.6476,126.7166],[147.3872,-29.6449,127.1187],[147.389,-29.6374,126.7281],[147.3981,-29.6265,126.6575],[147.401,-29.6167,127.2677],[147.4091,-29.6114,127.5157],[147.407,-29.609,128.0529],[147.41,-29.608,127.4219],[147.4084,-29.6069,128.7592],[147.4094,-29.6047,128.927],[147.4123,-29.6049,127.6599],[147.4141,-29.5968,129.3788],[147.4129,-29.5963,129.2603],[147.4137,-29.5923,128.9789],[147.4115,-29.5902,128.1671],[147.4124,-29.5852,130.0796],[147.4081,-29.5738,130.5022],[147.4104,-29.5745,130.0607],[147.4126,-29.5706,129.2305],[147.4113,-29.5658,128.7915],[147.415,-29.5648,128.8825],[147.4169,-29.5606,128.8933],[147.4186,-29.5613,128.969],[147.4228,-29.5586,129.1266],[147.424,-29.5559,129.2345],[147.4268,-29.5558,129.1982],[147.4259,-29.5537,128.8406],[147.4277,-29.5525,128.9494],[147.4279,-29.5496,128.9452],[147.4267,-29.5482,128.9035],[147.4291,-29.5462,129.6285],[147.4256,-29.543,129.2739],[147.4285,-29.5422,130.0729],[147.428,-29.5401,129.5859],[147.4305,-29.5402,129.7431],[147.4306,-29.5377,129.7192],[147.4342,-29.5371,129.6525],[147.4333,-29.5346,129.4718],[147.4354,-29.5328,130.2151],[147.4339,-29.5317,129.5238],[147.4367,-29.5313,129.9975],[147.4358,-29.5289,129.9877],[147.439,-29.5282,129.6944],[147.4402,-29.5261,130.3522],[147.4431,-29.5286,130.4388],[147.4418,-29.5251,130.4868],[147.4456,-29.5264,130.4812],[147.4445,-29.5235,130.6731],[147.4456,-29.5219,130.5319],[147.4473,-29.5253,130.4146],[147.45,-29.5224,130.3457],[147.458,-29.5229,130.8403],[147.4582,-29.5209,130.4244],[147.4606,-29.5208,131.5051],[147.4603,-29.5179,130.4256],[147.4641,-29.5194,130.665],[147.4632,-29.5168,130.6885],[147.4674,-29.5145,131.6647],[147.4684,-29.5115,130.7991],[147.4723,-29.5104,130.4768],[147.4751,-29.5079,131.2379],[147.4751,-29.5057,130.7112],[147.4791,-29.505,130.7157],[147.4831,-29.4961,131.6989],[147.4858,-29.4968,131.3918],[147.4852,-29.4943,132.0745],[147.4906,-29.4938,131.8553],[147.4856,-29.4879,131.3271],[147.4883,-29.4848,132.0235],[147.4871,-29.4811,131.0539],[147.4932,-29.4783,132.7043],[147.4915,-29.4758,131.504],[147.4951,-29.4735,131.5524],[147.4983,-29.4738,131.892],[147.4982,-29.4708,131.7386],[147.5051,-29.468,132.771],[147.5075,-29.4643,131.8489],[147.5161,-29.4649,131.7778],[147.5153,-29.4632,131.4912],[147.518,-29.4573,132.2849],[147.5168,-29.4559,132.4181],[147.5196,-29.455,132.2527],[147.522,-29.4506,132.5742],[147.5261,-29.4501,132.7868],[147.5281,-29.4472,132.8048],[147.5342,-29.4442,132.8179],[147.5407,-29.4449,132.4619],[147.5432,-29.4404,132.8271],[147.5462,-29.4414,132.4578],[147.5509,-29.4392,133.4628],[147.5485,-29.4358,133.3981],[147.5511,-29.4325,133.6705],[147.5504,-29.4289,134.5755],[147.5549,-29.4284,133.8297],[147.5564,-29.4265,133.4278],[147.5527,-29.4249,133.4489],[147.5557,-29.4225,133.4583],[147.5515,-29.4194,133.1796],[147.5549,-29.4182,134.0696],[147.5565,-29.4141,134.892],[147.56,-29.4122,135.1344],[147.5601,-29.4103,134.9429],[147.5696,-29.4073,135.2858],[147.5715,-29.4039,135.6077],[147.5686,-29.3997,135.3771],[147.5703,-29.3953,134.8306],[147.5682,-29.3941,135.6631],[147.5702,-29.3927,134.8105],[147.569,-29.3909,134.6933],[147.5718,-29.3857,134.9206],[147.5751,-29.3852,135.2182],[147.5773,-29.3755,135.0804],[147.5822,-29.3731,135.4525],[147.5878,-29.3741,135.4616],[147.5885,-29.371,135.0434],[147.5938,-29.372,135.3385],[147.5927,-29.3695,135.9264],[147.5957,-29.3678,135.8194],[147.5947,-29.3641,135.0583],[147.5986,-29.3645,136.1904],[147.5956,-29.362,135.2902],[147.596,-29.3609,135.8026],[147.5993,-29.3601,135.798],[147.6098,-29.3623,135.8476],[147.6117,-29.3619,135.7193],[147.6114,-29.36,136.1572],[147.6177,-29.36,136.08],[147.6201,-29.3575,136.0994],[147.6221,-29.3588,136.9845],[147.627,-29.3584,137.0263],[147.6264,-29.3552,136.579],[147.6318,-29.3539,136.7993],[147.6305,-29.3519,137.0699],[147.6333,-29.3512,136.235],[147.6334,-29.3485,136.2189],[147.6345,-29.3508,137.1931],[147.6392,-29.3495,136.4298],[147.6448,-29.351,137.3106],[147.6445,-29.3496,137.3106],[147.6476,-29.3486,137.1611],[147.6485,-29.3504,137.325],[147.656,-29.3494,137.5382],[147.6592,-29.3526,137.2544],[147.6587,-29.3497,137.3272],[147.6614,-29.3502,137.0622],[147.6648,-29.3475,137.5435],[147.6665,-29.3486,137.5144],[147.6691,-29.3477,137.6422],[147.6728,-29.3438,137.576],[147.6768,-29.3445,137.0985],[147.677,-29.3425,137.7257],[147.6795,-29.3411,137.0191],[147.6775,-29.3375,137.4173],[147.6818,-29.3357,137.7522],[147.6847,-29.3227,137.8275],[147.6888,-29.3174,137.9333],[147.6908,-29.3179,138.2459],[147.6974,-29.3143,138.7594],[147.6952,-29.3132,138.301],[147.6957,-29.3106,137.5973],[147.7038,-29.3067,139.0246],[147.7041,-29.304,139.0882],[147.7076,-29.3008,139.2716],[147.7064,-29.299,140.0588],[147.7086,-29.2977,140.2252],[147.7088,-29.2944,139.3825],[147.7158,-29.2945,140.093],[147.7152,-29.2892,140.3178],[147.7181,-29.2892,142.1955],[147.7168,-29.2879,140.6522],[147.7196,-29.2865,140.8976],[147.7214,-29.2889,140.4247],[147.7228,-29.2828,140.2265],[147.7316,-29.2817,140.789],[147.7313,-29.2797,140.0881],[147.736,-29.2761,140.251],[147.7394,-29.2771,141.0385],[147.7418,-29.2801,140.0843],[147.745,-29.28,140.7382],[147.7454,-29.2815,140.5391],[147.7494,-29.2805,141.1341],[147.7473,-29.284,140.8889],[147.7514,-29.2842,140.9659],[147.7561,-29.2889,140.7829],[147.7562,-29.2912,140.8492],[147.7583,-29.2915,141.5725],[147.7577,-29.2887,140.9816],[147.7597,-29.2872,141.1548],[147.7617,-29.2892,141.5882],[147.7638,-29.2869,142.2631],[147.7656,-29.2895,141.1315],[147.7678,-29.2884,141.2485],[147.769,-29.2899,141.3658],[147.7718,-29.2894,141.4922],[147.7743,-29.2868,141.112],[147.7722,-29.2814,141.631],[147.7738,-29.2799,141.1917],[147.77,-29.2771,141.5729],[147.7719,-29.2765,142.2026],[147.7696,-29.2743,140.942],[147.7716,-29.2737,141.3167],[147.772,-29.2709,141.8835],[147.7871,-29.2671,141.9046],[147.7907,-29.2598,142.1081],[147.7975,-29.2568,142.125],[147.7977,-29.2524,142.4858],[147.8004,-29.2539,142.5583],[147.8027,-29.2521,142.4421],[147.8017,-29.2488,141.6757],[147.8074,-29.25,142.0165],[147.81,-29.2453,142.1232],[147.815,-29.2448,141.7597],[147.8179,-29.2386,141.7065],[147.8152,-29.2375,142.0131],[147.8185,-29.2357,142.4715],[147.8188,-29.2324,142.3078],[147.8236,-29.2305,142.6188],[147.8239,-29.2248,142.4004],[147.8274,-29.2223,142.9309],[147.8308,-29.223,142.5655],[147.829,-29.2206,143.063],[147.8317,-29.22,143.203],[147.832,-29.2113,143.4197],[147.8302,-29.2087,144.0059],[147.8345,-29.2094,143.2733],[147.8403,-29.2033,143.5818],[147.838,-29.1997,144.9574],[147.8394,-29.1982,145.1403],[147.8388,-29.1956,143.8935],[147.8417,-29.1951,144.2906],[147.8416,-29.1934,144.0379],[147.8304,-29.1899,144.3656],[147.8289,-29.1823,144.4633],[147.8321,-29.1812,144.3227],[147.8327,-29.1767,144.5785],[147.8352,-29.1764,144.2753],[147.8377,-29.1683,145.7361],[147.8449,-29.1686,144.925],[147.8462,-29.163,144.7266],[147.8512,-29.1628,144.5801],[147.8525,-29.1597,145.609],[147.8496,-29.1537,145.0699],[147.8514,-29.1488,146.0811],[147.8542,-29.1457,145.8739],[147.8584,-29.1474,145.3051],[147.8606,-29.1441,146.2635],[147.8647,-29.1456,145.8296],[147.8676,-29.1431,145.922],[147.8701,-29.1446,146.0161],[147.8706,-29.1402,146.1375],[147.8684,-29.1375,145.7599],[147.8687,-29.1353,146.1869],[147.8703,-29.1346,146.1869],[147.8712,-29.1307,146.1641],[147.8811,-29.1253,147.233],[147.8817,-29.1201,146.9487],[147.8864,-29.1124,147.3016],[147.8933,-29.1147,147.368],[147.8943,-29.1109,147.4264],[147.897,-29.1095,147.3267],[147.9003,-29.1101,147.4758],[147.9033,-29.1138,147.235],[147.9153,-29.114,147.712],[147.9173,-29.1168,147.7935],[147.9179,-29.1137,147.8327],[147.9197,-29.1151,147.9098],[147.9239,-29.0844,164.8441],[147.9259,-29.0847,162.493],[147.9318,-29.0456,173.745],[147.9387,-29.0464,175.2486],[147.9455,-28.9991,160.9352],[146.3754,-28.9988,140.6969],[146.375,-29.0904,136.7809],[146.3497,-29.0904,137.8624],[146.3502,-29.2352,140.9939],[146.3799,-29.2335,140.0115],[146.4036,-29.2366,139.3123],[146.4201,-29.2363,144.3611],[146.4205,-29.3815,120.4156],[146.5231,-29.3812,123.0367],[146.4854,-29.4932,120.2766],[146.4638,-29.5354,116.7788],[146.5825,-29.6488,116.4708],[146.6108,-29.6368,117.1751],[146.6082,-29.6321,116.6218],[146.6279,-29.6234,117.517],[146.6309,-29.6269,118.1672],[146.6295,-29.6284,116.061],[146.6303,-29.6296,118.0916],[146.6391,-29.6329,116.7358],[146.6471,-29.6462,115.8732],[146.6461,-29.6484,115.8695],[146.6479,-29.6529,115.7869],[146.6461,-29.6543,116.6063],[146.651,-29.6666,116.3331],[146.6553,-29.6718,116.286],[146.658,-29.6785,116.923],[146.6548,-29.6842,114.4669],[146.6499,-29.6874,115.7841],[146.6497,-29.6891,114.7449],[146.6465,-29.6896,115.8426],[146.6478,-29.6914,115.0662],[146.6433,-29.6917,114.7464],[146.6395,-29.6941,114.8193],[146.6373,-29.6918,115.5301],[146.6358,-29.6962,114.6467],[146.6267,-29.7006,114.7785],[146.6242,-29.7051,114.9703],[146.6197,-29.7064,115.0047],[146.6189,-29.7086,115.1754],[146.6173,-29.7077,114.3978],[146.6133,-29.7093,113.9707],[146.6114,-29.7193,114.3025],[146.6023,-29.7254,114.9761],[146.6,-29.7294,115.1767],[146.5963,-29.7305,114.5633],[146.5956,-29.7285,113.9391],[146.5937,-29.7307,112.7664],[146.5964,-29.7323,115.0714],[146.5892,-29.7328,112.118],[146.5828,-29.7368,113.6666],[146.582,-29.7408,113.6151],[146.584,-29.7406,114.0036],[146.5791,-29.7446,114.2757],[146.5791,-29.7466,114.5611],[146.5759,-29.7438,112.6299],[146.574,-29.7451,113.1373],[146.5785,-29.7485,114.3453],[146.5755,-29.7538,113.0251],[146.5718,-29.7556,113.4599],[146.5685,-29.7541,112.7485],[146.5655,-29.7551,113.7824],[146.5629,-29.7535,112.5205],[146.5592,-29.7537,113.4218],[146.5533,-29.757,112.7184],[146.5527,-29.7598,112.6598],[146.5502,-29.7585,113.7775],[146.5479,-29.7615,112.1359],[146.537,-29.7636,111.7804],[146.5362,-29.7681,112.4872],[146.5336,-29.7695,113.0818],[146.5319,-29.7692,112.7586],[146.5315,-29.767,112.1277],[146.5277,-29.7686,112.3386],[146.5268,-29.7666,111.7797],[146.5259,-29.7703,111.6696],[146.5224,-29.7729,111.5974],[146.5158,-29.7729,112.4126],[146.5158,-29.7756,112.4135],[146.5089,-29.7802,112.6861],[146.5079,-29.7836,114.5272],[146.505,-29.7821,111.3401],[146.505,-29.7839,111.7738],[146.5079,-29.785,113.3792],[146.5053,-29.7863,112.4594],[146.505,-29.7907,112.544],[146.4994,-29.7881,110.9003],[146.4979,-29.7918,110.7102],[146.4929,-29.792,110.4617],[146.4917,-29.7947,112.3044],[146.489,-29.7956,112.3873],[146.4869,-29.7945,110.2341],[146.4865,-29.798,112.4592],[146.4836,-29.7983,110.354],[146.4866,-29.8008,110.9177],[146.4862,-29.8033,111.2328],[146.4811,-29.8052,111.7248],[146.4841,-29.8074,111.6152],[146.4842,-29.8105,111.2238],[146.4865,-29.8105,111.2123],[146.4849,-29.8133,110.7836],[146.4774,-29.8139,110.7719],[146.4764,-29.8158,111.1341],[146.4746,-29.8154,111.0012],[146.4755,-29.8178,110.9773],[146.4732,-29.8191,112.1982],[146.4714,-29.8172,110.5821],[146.4664,-29.8195,109.6111],[146.4659,-29.8217,110.799],[146.4682,-29.8236,111.8869],[146.467,-29.8283,110.4608],[146.4618,-29.8324,111.4174],[146.4551,-29.834,111.5621],[146.4541,-29.8328,110.2167],[146.4523,-29.8345,109.523],[146.4547,-29.8379,110.4648],[146.4502,-29.8399,108.79],[146.4525,-29.841,111.3835],[146.4508,-29.8422,110.8584],[146.458,-29.9042,110.9363],[146.4554,-29.9201,109.4673],[146.4521,-29.9265,110.2504],[146.458,-29.9286,109.9668],[146.461,-29.9235,108.8013],[146.4636,-29.9241,109.8277],[146.4664,-29.9331,111.0317],[146.463,-29.9357,107.8487],[146.4623,-29.9388,107.0324],[146.4588,-29.9391,110.5251],[146.459,-29.9411,113.5008],[146.4643,-29.9453,108.1763],[146.47,-29.9429,105.6571],[146.4713,-29.9403,107.4825],[146.4697,-29.9537,111.4349],[146.4647,-29.9532,111.4267],[146.4568,-30.0075,110.7793],[146.4441,-30.0063,110.7742],[146.3665,-30.1387,112.9457],[146.4182,-30.1625,114.6733],[146.4105,-30.1753,116.4509],[146.427,-30.1809,115.97],[146.3888,-30.2479,125.4697],[146.3976,-30.2496,126.7475],[146.3973,-30.2531,128.3293],[146.3864,-30.2521,128.8896],[146.3742,-30.2729,139.6168],[146.3815,-30.279,140.1244],[146.3714,-30.3361,159.6861],[146.3571,-30.3347,157.4867],[146.3547,-30.3496,152.6692],[146.4169,-30.3562,176.9234],[146.4046,-30.4187,152.1162],[146.3778,-30.4156,147.8719],[146.4238,-30.6053,161.8222],[146.4373,-30.6027,169.1025],[146.4482,-30.6458,160.2616],[146.4498,-30.6455,160.8123],[146.4611,-30.6872,168.8176],[146.4312,-30.6928,155.535],[146.6078,-30.9023,188.187],[146.662,-30.8915,202.6272],[146.6544,-30.8624,191.3153],[146.6418,-30.8647,200.9383],[146.6263,-30.8363,194.1362],[146.6755,-30.827,180.5553],[146.7007,-30.8351,178.7173],[146.7172,-30.8371,186.4099],[146.7202,-30.8188,182.9221],[146.7961,-30.8045,169.3154],[146.8784,-30.7898,145.0925],[146.8912,-30.8044,143.7915],[146.9529,-30.7926,140.0443],[146.9022,-30.7375,140.3899],[146.9884,-30.7213,138.5436],[146.9892,-30.7227,138.5436],[146.9994,-30.7161,142.3894],[147.0019,-30.7182,139.34],[147.0069,-30.715,142.2905],[147.0114,-30.7189,140.5143],[147.0077,-30.7225,139.6139],[147.0073,-30.7262,140.6886],[147.011,-30.7275,140.1727],[147.0092,-30.7305,143.7309],[147.006,-30.7305,142.6597],[147.0065,-30.7325,142.8627],[147.0098,-30.7342,144.7823],[147.006,-30.7411,143.0656],[147.0106,-30.7402,140.6395],[147.0122,-30.743,142.4439],[147.0143,-30.7407,142.1278],[147.0163,-30.7481,142.4197],[147.0186,-30.746,142.7332],[147.0216,-30.7462,142.6748],[147.0222,-30.7509,143.9248],[147.0207,-30.7529,142.9955],[147.0236,-30.7552,143.4616],[147.0254,-30.7621,142.7479],[147.0302,-30.7635,142.5844],[147.0398,-30.7623,144.3519],[147.0416,-30.7665,145.2386],[147.0478,-30.7649,143.2431],[147.0471,-30.7674,144.1414],[147.0508,-30.7701,143.2306],[147.0495,-30.7741,144.1074],[147.0529,-30.7746,146.865],[147.0558,-30.7773,143.2761],[147.0537,-30.7789,148.068],[147.0524,-30.783,144.5585],[147.0569,-30.7891,144.3258],[147.0507,-30.7929,145.591],[147.0567,-30.795,144.3565],[147.0539,-30.8005,146.3273],[147.0578,-30.8028,143.0558],[147.057,-30.8054,144.5741],[147.0593,-30.8043,147.0646],[147.0634,-30.8064,146.078],[147.064,-30.8087,149.5058],[147.0664,-30.8089,146.5526],[147.0626,-30.814,146.9734],[147.0651,-30.8142,146.3049],[147.0651,-30.8179,148.436],[147.0685,-30.8188,146.3686],[147.0635,-30.8273,146.2679],[147.0603,-30.8281,148.7304],[147.0638,-30.8339,146.8239],[147.0589,-30.8345,146.4457],[147.0595,-30.837,146.6931],[147.055,-30.8405,144.9497],[147.0566,-30.8436,145.8146],[147.0539,-30.8491,147.6548],[147.0573,-30.8511,148.4204],[147.0536,-30.852,149.2264],[147.0538,-30.8535,146.6929],[147.0804,-30.8561,144.9936],[147.1156,-30.8362,144.5131],[147.1181,-30.8258,145.6661],[147.1581,-30.82,144.9455]]]]}
,"properties": {"GID_2": "AUS.5.21_1","GID_0": "AUS","country": "Australia","GID_1": "AUS.5_1","state": "NewSouthWales","NL_NAME_1": "NA","county": "Brewarrina","VARNAME_2": "NA","NL_NAME_2": "NA","TYPE_2": "Area","ENGTYPE_2": "Area","CC_2": "11200","HASC_2": "AU.NS.BR","name": "Brewarrina.county","area_km2": 19194.07,"hist_schema_id": "Elevation0-9000","hist_area_km2": {"100": 469.83,"125": 13835.72,"150": 3456.93,"175": 1019.75,"200": 354.08,"225": 57.01,"250": 0.75}}}