{"type": "Feature","bbox": [116.0159,-32.0626,116.4151,-31.7066],"geometry": {"type": "MultiPolygon","coordinates": [[[[116.2889,-32.0622,154.105],[116.3235,-32.0626,294.5243],[116.3237,-32.0234,197.3768],[116.3026,-32.0232,304.7293],[116.3028,-32.005,207.6455],[116.3672,-32.0055,275.9781],[116.3673,-32.0119,233.8555],[116.4091,-32.0123,280.7782],[116.4098,-31.9678,325.5238],[116.4118,-31.9678,333.3116],[116.4151,-31.9093,298.1503],[116.3462,-31.9068,205.3026],[116.3461,-31.8564,324.9755],[116.3482,-31.8565,316.4349],[116.3583,-31.8386,268.7818],[116.3583,-31.8195,303.9347],[116.3615,-31.8195,301.8205],[116.371,-31.8133,257.2742],[116.3608,-31.8149,306.5349],[116.3608,-31.8073,238.8424],[116.3496,-31.8111,235.7468],[116.3454,-31.8072,241.7735],[116.3378,-31.8056,241.0041],[116.3429,-31.8022,231.6796],[116.3469,-31.7965,263.3199],[116.3498,-31.7909,230.3973],[116.3478,-31.7909,232.1908],[116.3478,-31.7878,242.0181],[116.3515,-31.7871,238.7855],[116.3562,-31.7836,239.8163],[116.3537,-31.7836,252.5165],[116.3537,-31.78,257.7116],[116.3452,-31.78,257.4364],[116.3452,-31.7743,253.0116],[116.3468,-31.7743,258.6145],[116.3458,-31.7627,300.7422],[116.3382,-31.7627,280.2646],[116.3381,-31.7535,282.6827],[116.348,-31.7485,295.2547],[116.3472,-31.7066,363.4832],[116.298,-31.7066,266.9124],[116.2952,-31.7075,264.9362],[116.2905,-31.7126,292.5969],[116.2832,-31.7142,274.6268],[116.279,-31.7214,259.6042],[116.2726,-31.7213,243.576],[116.2726,-31.7275,229.544],[116.2772,-31.728,245.9409],[116.2748,-31.7333,254.928],[116.2747,-31.7385,231.3511],[116.2683,-31.7426,204.9467],[116.2676,-31.7483,195.2603],[116.263,-31.7533,196.8445],[116.263,-31.7615,285.2487],[116.28,-31.7616,260.3457],[116.2801,-31.755,200.4231],[116.2816,-31.7551,200.4231],[116.2819,-31.8197,306.4947],[116.2629,-31.8198,263.6834],[116.2628,-31.827,262.348],[116.2115,-31.8272,306.09],[116.2116,-31.8221,310.898],[116.1967,-31.822,302.1189],[116.1964,-31.8384,290.9707],[116.0768,-31.8384,199.6939],[116.0768,-31.8632,157.1788],[116.0705,-31.8632,90.5051],[116.0705,-31.8676,102.2702],[116.0587,-31.8676,29.5875],[116.0587,-31.8737,53.1535],[116.0523,-31.8737,66.0655],[116.0523,-31.8818,56.8871],[116.0415,-31.8818,48.0136],[116.0415,-31.8859,29.2688],[116.0232,-31.8858,15.8276],[116.0232,-31.8935,18.7998],[116.0332,-31.8953,24.3479],[116.0381,-31.8983,43.8652],[116.0381,-31.9019,37.0931],[116.0479,-31.9054,66.9851],[116.047,-31.9099,71.6521],[116.0382,-31.9099,30.8275],[116.0382,-31.904,28.9711],[116.0281,-31.902,18.3485],[116.0262,-31.9031,15.2463],[116.0267,-31.9017,17.4588],[116.0232,-31.9008,20.1015],[116.0159,-31.9048,13.6134],[116.017,-31.912,19.6832],[116.0296,-31.9203,32.6871],[116.0359,-31.9297,59.17],[116.0412,-31.9291,75.142],[116.0432,-31.933,96.2439],[116.0438,-31.9313,84.603],[116.0518,-31.933,85.7731],[116.0531,-31.9298,49.2864],[116.0608,-31.9261,24.942],[116.0653,-31.9317,26.6025],[116.0651,-31.9341,26.9241],[116.0755,-31.9389,41.2637],[116.0792,-31.9489,42.9263],[116.1031,-31.9462,56.7104],[116.1082,-31.9417,88.3636],[116.1086,-31.9376,84.3444],[116.1131,-31.936,114.5947],[116.1178,-31.9362,100.9505],[116.1193,-31.9396,94.6025],[116.1251,-31.9374,95.5924],[116.1376,-31.9427,118.6072],[116.1347,-31.947,102.2119],[116.1355,-31.948,108.8962],[116.1459,-31.95,108.9993],[116.1512,-31.9535,110.6582],[116.1539,-31.9523,117.9114],[116.1545,-31.9545,117.7487],[116.1586,-31.9564,112.5108],[116.1651,-31.9567,127.706],[116.1715,-31.9622,130.0],[116.1688,-31.9675,150.9438],[116.1701,-31.9694,133.5471],[116.1715,-31.966,130.7366],[116.1763,-31.9652,134.2918],[116.1779,-31.97,149.2185],[116.1825,-31.9681,140.1819],[116.1873,-31.9688,136.2541],[116.1912,-31.9714,132.3673],[116.1892,-31.973,152.3921],[116.1934,-31.9767,145.3911],[116.1903,-31.9791,140.6571],[116.197,-31.9771,133.4812],[116.1977,-31.9792,130.0],[116.2021,-31.9796,137.4017],[116.2036,-31.9824,146.3391],[116.2069,-31.9818,130.6022],[116.2062,-31.9833,133.465],[116.2092,-31.9889,145.7799],[116.2124,-31.9891,130.0],[116.2118,-31.9935,169.0074],[116.2177,-31.9964,149.3195],[116.2212,-31.996,130.0],[116.2187,-31.9994,140.6438],[116.2232,-31.9986,130.0],[116.2306,-32.0075,130.0],[116.2355,-32.0097,134.1389],[116.2355,-32.0139,134.3076],[116.2403,-32.018,142.222],[116.2458,-32.0218,136.6083],[116.2504,-32.0196,138.112],[116.2541,-32.0208,139.9321],[116.2567,-32.0245,145.9157],[116.2559,-32.0278,148.4798],[116.2604,-32.0335,145.8918],[116.2726,-32.0425,145.8783],[116.2745,-32.0464,153.9492],[116.2737,-32.0505,175.567],[116.2767,-32.0514,148.5326],[116.2815,-32.058,165.1184],[116.2859,-32.0583,156.3833],[116.2889,-32.0622,154.105]]]]}
,"properties": {"GID_2": "AUS.11.87_1","GID_0": "AUS","country": "Australia","GID_1": "AUS.11_1","state": "WesternAustralia","NL_NAME_1": "NA","county": "Mundaring","VARNAME_2": "NA","NL_NAME_2": "NA","TYPE_2": "Shire","ENGTYPE_2": "Shire","CC_2": "56090","HASC_2": "AU.WA.MN","name": "Mundaring.county","area_km2": 643.8983,"hist_schema_id": "Elevation0-9000","hist_area_km2": {"0": 0.486,"25": 8.3694,"50": 5.6158,"75": 4.5177,"100": 3.8696,"125": 9.5711,"150": 14.7148,"175": 25.474,"200": 42.6092,"225": 66.449,"250": 104.8043,"275": 137.4277,"300": 130.8549,"325": 70.1744,"350": 17.6457,"375": 1.2967,"400": 0.018}}}