{"type": "Feature","bbox": [115.0508,-29.0107,116.2597,-27.8179],"geometry": {"type": "MultiPolygon","coordinates": [[[[115.0751,-28.6389,149.922],[115.1088,-28.6389,252.6338],[115.1088,-28.6559,251.939],[115.0902,-28.6559,191.3591],[115.0905,-28.6906,195.2201],[115.0736,-28.6911,193.8825],[115.0667,-28.6885,181.0523],[115.0575,-28.6903,162.8152],[115.0575,-28.7334,154.849],[115.0702,-28.7334,175.3405],[115.0702,-28.7481,185.4353],[115.1124,-28.7485,214.8786],[115.1146,-28.7675,209.9049],[115.1145,-28.7949,185.1664],[115.0966,-28.7948,149.5738],[115.0966,-28.8127,164.1442],[115.0992,-28.8216,179.2828],[115.0992,-28.8381,200.8468],[115.0508,-28.8381,136.6671],[115.0508,-28.8463,162.0786],[115.082,-28.8463,195.2007],[115.0816,-28.9014,244.4967],[115.1308,-28.9015,233.3475],[115.1308,-28.9105,239.9224],[115.1408,-28.9105,236.4265],[115.1408,-28.9944,233.9067],[115.182,-28.9944,248.7899],[115.2062,-28.9788,239.5191],[115.2061,-29.0107,263.7043],[115.2645,-29.0107,260.29],[115.2645,-29.0005,264.2194],[115.3407,-29.0005,270.3476],[115.3407,-28.9481,277.8489],[115.3736,-28.9481,290.5988],[115.3736,-28.9172,291.3675],[115.5936,-28.9171,274.2448],[115.5937,-28.9497,290.4113],[115.6039,-28.9497,298.8965],[115.6039,-28.9661,280.7164],[115.6219,-28.9661,305.4321],[115.6219,-28.9496,339.2903],[115.6243,-28.9494,329.7138],[115.6246,-28.9374,317.7283],[115.6362,-28.9374,319.0989],[115.6362,-28.8602,262.291],[115.6858,-28.8602,294.0748],[115.6858,-28.8517,274.8758],[115.8114,-28.8514,339.2856],[115.8114,-28.8392,360.2819],[115.8841,-28.8392,344.1863],[115.8844,-28.8025,327.7898],[115.9247,-28.8024,336.8694],[115.9248,-28.7845,334.9771],[115.958,-28.7845,335.3838],[115.9581,-28.7566,331.3655],[115.991,-28.7566,349.5834],[115.991,-28.7263,351.5501],[116.0522,-28.7262,352.247],[116.0521,-28.7566,376.306],[116.0795,-28.7565,341.8948],[116.0816,-28.7583,339.5248],[116.0815,-28.7884,322.671],[116.0839,-28.7975,317.3806],[116.2152,-28.7968,318.1966],[116.2152,-28.7997,322.6284],[116.2218,-28.7997,318.7344],[116.2218,-28.7968,315.5832],[116.2303,-28.7968,310.4306],[116.2303,-28.7155,325.0092],[116.1685,-28.7155,345.0691],[116.1685,-28.6035,338.486],[116.2303,-28.6035,341.6865],[116.2303,-28.5959,339.6233],[116.2597,-28.5959,357.0605],[116.2596,-28.4917,369.4766],[116.2268,-28.4917,369.8948],[116.2268,-28.3319,361.2673],[116.1693,-28.3319,333.707],[116.1693,-28.2532,356.9774],[116.0468,-28.2532,301.1469],[116.0468,-28.2876,309.5645],[115.9581,-28.2876,294.736],[115.9581,-28.334,329.1388],[115.9322,-28.334,316.3238],[115.9322,-28.3612,306.3694],[115.9958,-28.3612,335.8524],[115.9958,-28.4338,302.2862],[115.8643,-28.4338,325.1526],[115.8643,-28.4237,323.421],[115.8385,-28.4237,319.8112],[115.8385,-28.4343,318.987],[115.8195,-28.4343,327.7505],[115.8085,-28.4287,339.0339],[115.8085,-28.0223,262.8827],[115.8538,-28.0223,263.5479],[115.8538,-28.0659,273.4058],[115.9107,-28.0659,316.64],[115.9107,-27.9925,271.2068],[115.8923,-27.9925,267.5361],[115.8923,-27.9377,269.7212],[115.8938,-27.9377,269.8929],[115.8938,-27.9345,270.4589],[115.7615,-27.9349,293.8369],[115.7599,-27.9337,295.1433],[115.734,-27.9337,319.6505],[115.7263,-27.9296,331.4852],[115.5654,-27.9291,293.2505],[115.5542,-27.9346,292.3015],[115.5391,-27.9345,283.6501],[115.5345,-27.9388,284.6122],[115.3784,-27.9379,253.3347],[115.3784,-27.8179,256.1314],[115.3197,-27.8179,254.2658],[115.3197,-27.8975,243.3867],[115.3552,-27.8975,252.7838],[115.3552,-27.9381,251.5767],[115.321,-27.9377,247.846],[115.321,-28.0021,262.6461],[115.4049,-28.0032,264.8105],[115.4041,-28.1963,258.6576],[115.4162,-28.1962,275.5513],[115.4163,-28.2174,237.6459],[115.4387,-28.2174,252.3901],[115.4397,-28.2067,256.0649],[115.4424,-28.2062,256.4511],[115.4958,-28.2062,221.233],[115.4953,-28.2087,219.1466],[115.4839,-28.227,219.2325],[115.4849,-28.2281,218.8934],[115.4875,-28.2261,219.695],[115.4873,-28.2286,220.5772],[115.4849,-28.2293,218.8934],[115.4787,-28.2391,219.056],[115.475,-28.2384,216.7983],[115.4721,-28.24,216.6116],[115.4642,-28.248,215.9292],[115.4493,-28.2558,212.5806],[115.4454,-28.2616,212.0165],[115.4421,-28.2683,211.6486],[115.442,-28.2725,210.7814],[115.4489,-28.2826,213.1706],[115.4484,-28.2918,209.0723],[115.4392,-28.3036,207.4921],[115.4326,-28.3223,205.6234],[115.4292,-28.3241,204.7448],[115.424,-28.3222,204.3349],[115.4163,-28.3224,206.2942],[115.4097,-28.3261,206.3543],[115.4042,-28.3333,203.663],[115.3767,-28.3465,199.0965],[115.3765,-28.3512,198.2805],[115.3804,-28.3565,198.0868],[115.3703,-28.3766,196.5402],[115.3667,-28.3804,196.3766],[115.3693,-28.3919,193.4911],[115.3604,-28.3979,193.6249],[115.3575,-28.4074,193.526],[115.3546,-28.4114,198.2692],[115.3452,-28.4147,197.0035],[115.3332,-28.4137,189.5423],[115.3222,-28.4223,192.3962],[115.3078,-28.4186,187.3728],[115.2983,-28.4265,194.3639],[115.2923,-28.4249,187.8607],[115.2885,-28.4218,185.1491],[115.2852,-28.4222,184.865],[115.2819,-28.428,190.9559],[115.2878,-28.4437,182.0388],[115.2828,-28.4479,182.9645],[115.275,-28.4503,181.1113],[115.2699,-28.461,180.7246],[115.2528,-28.4667,181.0892],[115.2491,-28.4661,181.0289],[115.2476,-28.4638,181.3578],[115.2499,-28.4546,181.6578],[115.2459,-28.4461,177.7887],[115.2415,-28.4413,176.7501],[115.2329,-28.4464,183.1052],[115.2329,-28.4516,207.7789],[115.2226,-28.4516,199.8438],[115.2226,-28.4474,177.5472],[115.212,-28.4434,175.2733],[115.1955,-28.448,171.348],[115.1904,-28.4514,171.9443],[115.1898,-28.454,172.0917],[115.1911,-28.456,172.2296],[115.2033,-28.4647,171.2192],[115.2027,-28.4705,168.4566],[115.1976,-28.4796,172.0074],[115.1982,-28.4848,168.5649],[115.2006,-28.4876,168.6591],[115.2112,-28.4889,167.9446],[115.2122,-28.4933,174.8134],[115.2051,-28.4981,173.8933],[115.1952,-28.4966,164.8168],[115.1897,-28.5008,164.1031],[115.178,-28.5021,163.7173],[115.1785,-28.5136,165.2891],[115.1752,-28.5272,163.1785],[115.1677,-28.5299,160.9284],[115.166,-28.5323,162.37],[115.1705,-28.5399,164.1497],[115.1709,-28.5476,169.318],[115.169,-28.5524,164.0196],[115.1647,-28.552,160.6658],[115.1614,-28.5545,159.4001],[115.1518,-28.5572,159.2791],[115.1429,-28.5571,157.5547],[115.1376,-28.5686,157.4148],[115.1269,-28.5772,156.2162],[115.1217,-28.5887,158.7013],[115.1174,-28.589,154.4809],[115.1152,-28.5841,154.4242],[115.1107,-28.5819,154.1651],[115.1021,-28.5913,161.0523],[115.0937,-28.5929,155.5193],[115.0895,-28.5954,159.5915],[115.088,-28.601,163.1661],[115.091,-28.6116,170.719],[115.0803,-28.6272,151.7428],[115.0726,-28.6329,147.9961],[115.0751,-28.6389,149.922]]]]}
,"properties": {"GID_2": "AUS.11.86_1","GID_0": "AUS","country": "Australia","GID_1": "AUS.11_1","state": "WesternAustralia","NL_NAME_1": "NA","county": "Mullewa","VARNAME_2": "NA","NL_NAME_2": "NA","TYPE_2": "Shire","ENGTYPE_2": "Shire","CC_2": "56020","HASC_2": "AU.WA.MW","name": "Mullewa.county","area_km2": 8124.116,"hist_schema_id": "Elevation0-9000","hist_area_km2": {"150": 6.383,"175": 82.791,"200": 334.855,"225": 738.519,"250": 1402.207,"275": 1724.987,"300": 1450.424,"325": 1290.624,"350": 837.273,"375": 237.184,"400": 18.87}}}