{"type":"Feature","properties":{"GID_2":"AUS.7.50_1","GID_0":"AUS","country":"Australia","GID_1":"AUS.7_1","state":"Queensland","NL_NAME_1":"NA","county":"NorthernPeninsulaArea","VARNAME_2":"NA","NL_NAME_2":"NA","TYPE_2":"Region","ENGTYPE_2":"Region","CC_2":"35780","HASC_2":"NA","name":"NorthernPeninsulaArea.county"},
"geometry":{"type": "MultiPolygon","coordinates": [[[[142.1149,-10.9712,2.9258],[142.1087,-10.9673,0.0],[142.1014,-10.973,5.5946],[142.098,-10.9794,0.0],[142.0988,-10.9895,0.0],[142.101,-10.9947,0.0],[142.1054,-10.9978,1.2433],[142.1139,-10.9965,0.0],[142.1156,-10.9922,6.2314],[142.1129,-10.9891,0.0],[142.1063,-10.9906,4.7492],[142.1002,-10.9877,0.0],[142.0998,-10.9812,0.0],[142.1021,-10.9781,1.1056],[142.1059,-10.9792,4.536],[142.1094,-10.9726,3.5193],[142.1127,-10.9746,0.0],[142.1119,-10.9725,2.7154],[142.1087,-10.9705,4.0431],[142.1106,-10.9694,4.2632],[142.1149,-10.9712,2.9258]]],
[[[142.4027,-10.9989,7.2893],[142.4004,-10.9973,4.7529],[142.4185,-10.9948,5.3035],[142.4237,-10.9839,6.0308],[142.4255,-10.9828,5.6989],[142.4256,-10.9849,8.518],[142.4276,-10.985,8.7382],[142.4263,-10.9808,6.5521],[142.4291,-10.9826,7.3372],[142.4302,-10.9817,8.3176],[142.4266,-10.976,1.6043],[142.4254,-10.9786,7.3837],[142.4237,-10.9788,7.3837],[142.4247,-10.9742,6.3046],[142.4228,-10.9712,5.1416],[142.4247,-10.9696,5.4928],[142.4221,-10.965,7.9188],[142.4236,-10.9642,6.9007],[142.4243,-10.9664,5.8206],[142.4257,-10.9659,4.8574],[142.4275,-10.968,6.6923],[142.4276,-10.964,6.0552],[142.4296,-10.9639,6.6788],[142.4306,-10.9671,6.3219],[142.429,-10.9698,6.9161],[142.4326,-10.9666,5.2922],[142.4336,-10.9673,5.2922],[142.4341,-10.9698,7.4273],[142.4317,-10.9694,5.5058],[142.4296,-10.9711,6.9161],[142.4317,-10.9749,4.3018],[142.4288,-10.9758,9.1411],[142.4307,-10.9778,7.3114],[142.4328,-10.9776,5.6538],[142.4358,-10.9813,4.3867],[142.4404,-10.9812,11.1485],[142.4413,-10.9775,5.6545],[142.4399,-10.9746,8.3454],[142.4432,-10.9775,5.5853],[142.4433,-10.9808,8.796],[142.4447,-10.9791,8.5504],[142.4536,-10.9792,7.4927],[142.4516,-10.9765,6.7647],[142.4553,-10.9737,6.7199],[142.4503,-10.974,6.3984],[142.4473,-10.9715,6.7827],[142.4489,-10.9748,5.5925],[142.4474,-10.9755,6.0618],[142.4447,-10.9734,5.4879],[142.4464,-10.9697,8.0313],[142.4448,-10.9695,8.7272],[142.4438,-10.9649,5.1256],[142.4395,-10.965,3.795],[142.4411,-10.9629,3.6879],[142.4381,-10.9611,3.2436],[142.4331,-10.9613,5.6065],[142.4357,-10.96,3.9947],[142.4287,-10.9542,22.1477],[142.428,-10.9144,46.8912],[142.4814,-10.8062,41.9558],[142.4614,-10.7888,29.0861],[142.4677,-10.7809,26.4578],[142.4722,-10.7784,36.7837],[142.4765,-10.7796,45.1517],[142.4816,-10.7781,49.0845],[142.4895,-10.7787,62.4455],[142.4969,-10.7713,73.7847],[142.5007,-10.771,65.8496],[142.5026,-10.7681,71.2643],[142.5069,-10.7667,74.9747],[142.5093,-10.7627,89.2389],[142.5093,-10.7566,91.4287],[142.5142,-10.753,62.3211],[142.5159,-10.7421,32.4617],[142.5148,-10.7396,29.5108],[142.5016,-10.7383,46.067],[142.5014,-10.7309,14.4312],[142.4697,-10.7325,97.3426],[142.4526,-10.7317,70.1626],[142.423,-10.7274,0.0],[142.4252,-10.7319,1.837],[142.4249,-10.7421,4.4904],[142.4144,-10.7589,0.0],[142.4103,-10.7723,0.0],[142.4118,-10.7739,0.4105],[142.4109,-10.7805,0.0],[142.4174,-10.7887,11.2756],[142.4156,-10.7919,20.9006],[142.4062,-10.7982,33.0136],[142.4044,-10.7959,0.0],[142.4009,-10.8017,3.1799],[142.3979,-10.8022,0.0],[142.3943,-10.8174,0.0],[142.3877,-10.8304,0.6186],[142.3832,-10.8328,0.6961],[142.3761,-10.8408,0.0],[142.3654,-10.8464,0.0],[142.3641,-10.8586,5.511],[142.36,-10.8607,0.0],[142.3556,-10.8769,0.0],[142.3511,-10.8833,4.4719],[142.341,-10.8868,0.0],[142.3367,-10.8909,2.9005],[142.3341,-10.8902,0.0],[142.3212,-10.9019,2.112],[142.3216,-10.905,4.3015],[142.3185,-10.9078,8.3269],[142.3151,-10.9151,3.6828],[142.3141,-10.9156,5.5295],[142.3187,-10.906,0.0],[142.3162,-10.9019,9.0963],[142.31,-10.9012,0.0],[142.3013,-10.9074,8.6746],[142.2982,-10.9072,1.0206],[142.2912,-10.9142,0.0],[142.2845,-10.9178,0.0],[142.2722,-10.9145,6.2569],[142.2703,-10.9121,2.7263],[142.2599,-10.9156,4.9438],[142.2554,-10.911,0.0],[142.2517,-10.9113,20.6909],[142.2482,-10.9093,0.0],[142.2312,-10.9199,4.2248],[142.2218,-10.9222,2.768],[142.2149,-10.9218,0.0],[142.2175,-10.9242,3.3348],[142.2188,-10.9293,2.9482],[142.2222,-10.9325,4.9032],[142.222,-10.9337,6.5078],[142.2198,-10.9335,5.2463],[142.2198,-10.9368,4.7015],[142.2169,-10.9352,3.3006],[142.2153,-10.9382,4.0548],[142.2177,-10.9381,5.9578],[142.218,-10.9406,4.4942],[142.2154,-10.9403,4.6661],[142.2151,-10.9423,4.8088],[142.2188,-10.9461,3.5124],[142.2238,-10.9449,0.5],[142.2296,-10.9477,3.8586],[142.1671,-11.0037,6.3761],[142.1294,-10.9624,2.4194],[142.1295,-10.9748,4.4407],[142.1259,-10.9814,5.3467],[142.1321,-10.9928,3.1182],[142.1348,-11.0017,0.0],[142.1357,-11.0134,7.6059],[142.1447,-11.0391,9.5255],[142.1461,-11.0499,6.7758],[142.1449,-11.0638,8.875],[142.1515,-11.0836,0.193],[142.1529,-11.0939,0.9998],[142.148,-11.0939,0.0],[142.1474,-11.0987,0.0],[142.1538,-11.1105,6.3544],[142.1543,-11.1183,6.6005],[142.1573,-11.1218,1.4356],[142.1493,-11.1308,0.0],[142.1475,-11.1383,0.0],[142.1451,-11.1747,3.9689],[142.1393,-11.2025,0.0],[142.1349,-11.2126,0.0],[142.1307,-11.2153,0.5282],[142.1286,-11.2217,7.7018],[142.1253,-11.2241,24.5704],[142.3735,-11.1966,43.2902],[142.3638,-11.1678,15.1369],[142.3558,-11.1523,13.5584],[142.3572,-11.1416,13.2799],[142.3727,-11.1203,21.802],[142.3742,-11.088,27.7128],[142.3688,-11.0709,37.663],[142.3662,-11.0537,47.652],[142.3662,-11.0427,53.5609],[142.3925,-11.02,28.0429],[142.3889,-11.0156,15.1896],[142.3937,-11.0127,7.1132],[142.3925,-11.0104,8.6185],[142.3964,-11.0102,7.6052],[142.4005,-11.0069,6.987],[142.4021,-11.0039,7.0544],[142.4009,-11.0025,5.7148],[142.4033,-11.0022,8.1652],[142.4055,-10.9992,10.5311],[142.4027,-10.9989,7.2893]]],
[[[142.3474,-10.8439,0.0],[142.3474,-10.8445,0.0],[142.3483,-10.8447,0.0],[142.3483,-10.8435,2.5096],[142.3474,-10.8439,0.0]]],
[[[142.3155,-10.8412,0.0],[142.316,-10.8425,0.0],[142.3177,-10.8408,12.6235],[142.3183,-10.836,0.0],[142.3174,-10.8362,0.0],[142.3155,-10.8412,0.0]]],
[[[142.3604,-10.8454,6.405],[142.3632,-10.8445,9.1139],[142.3634,-10.8419,0.7476],[142.3591,-10.8437,2.4188],[142.3542,-10.8427,3.6402],[142.3523,-10.8442,0.0],[142.3525,-10.8473,0.0],[142.3562,-10.845,2.1725],[142.3587,-10.8463,0.0],[142.3604,-10.8454,6.405]]],
[[[142.3488,-10.8366,0.0],[142.3481,-10.8373,0.0],[142.3485,-10.8377,0.0],[142.349,-10.8374,0.0],[142.3488,-10.8366,0.0]]],
[[[142.5297,-10.8431,0.0],[142.5402,-10.8403,15.142],[142.5441,-10.8335,17.6237],[142.5493,-10.8318,15.0593],[142.5534,-10.823,16.883],[142.555,-10.8215,17.2743],[142.558,-10.8218,20.7326],[142.5582,-10.8162,20.6238],[142.5606,-10.8132,15.8902],[142.5626,-10.8036,17.6944],[142.5665,-10.7953,5.975],[142.5721,-10.7933,3.9388],[142.5786,-10.7958,4.5339],[142.5798,-10.7874,18.383],[142.5819,-10.7844,15.074],[142.5883,-10.7811,3.7874],[142.5856,-10.7777,12.5273],[142.5875,-10.7736,11.4739],[142.5901,-10.7701,20.9631],[142.5976,-10.7671,11.2741],[142.5997,-10.7644,8.2385],[142.5967,-10.7625,4.7275],[142.597,-10.7584,8.4006],[142.603,-10.7518,7.0365],[142.6087,-10.7504,17.0024],[142.6093,-10.749,0.0],[142.6005,-10.7439,33.5923],[142.5937,-10.7421,2.2464],[142.591,-10.734,1.4915],[142.5832,-10.7338,1.0601],[142.5817,-10.7312,43.9204],[142.5826,-10.7262,0.0],[142.5811,-10.7248,1.0755],[142.5739,-10.7328,1.4756],[142.5699,-10.7307,0.4866],[142.5702,-10.7246,18.1913],[142.5678,-10.7225,0.0],[142.566,-10.722,3.1853],[142.5637,-10.7259,0.0],[142.5584,-10.7277,0.9824],[142.5555,-10.7245,0.3971],[142.5546,-10.7197,28.5054],[142.5413,-10.7269,88.6233],[142.5388,-10.7305,89.5594],[142.5348,-10.7314,101.8116],[142.5293,-10.7358,104.4944],[142.5289,-10.7389,96.0063],[142.5626,-10.7615,47.1082],[142.5327,-10.8253,9.9226],[142.5331,-10.8309,8.3445],[142.5358,-10.8327,7.7813],[142.536,-10.8354,7.3963],[142.5265,-10.8373,3.2591],[142.5301,-10.8388,4.9323],[142.5297,-10.8431,0.0]]]]}}