{"type":"Feature","properties":{"GID_2":"AUS.5.144_1","GID_0":"AUS","country":"Australia","GID_1":"AUS.5_1","state":"NewSouthWales","NL_NAME_1":"NA","county":"Wellington","VARNAME_2":"NA","NL_NAME_2":"NA","TYPE_2":"Area","ENGTYPE_2":"Area","CC_2":"18150","HASC_2":"AU.VI.WE","name":"Wellington.county"},
"geometry":{"type": "MultiPolygon","coordinates": [[[[149.2332,-32.9975,405.4677],[149.232,-32.9948,371.2926],[149.2334,-32.9931,378.4526],[149.2456,-32.995,377.7961],[149.2524,-32.992,371.3578],[149.2536,-32.989,372.9415],[149.2494,-32.981,427.6863],[149.2377,-32.9721,370.3395],[149.2385,-32.9686,388.3277],[149.2479,-32.9673,361.1149],[149.2525,-32.9637,362.0018],[149.2579,-32.9642,362.7033],[149.2664,-32.9581,391.1355],[149.2748,-32.9563,399.9341],[149.2816,-32.9482,365.52],[149.2817,-32.9464,369.3781],[149.2749,-32.9418,355.5619],[149.2735,-32.9376,397.1096],[149.2818,-32.9246,365.4731],[149.2793,-32.9177,353.0237],[149.274,-32.9127,381.0827],[149.2731,-32.9045,351.4926],[149.2679,-32.8995,375.3066],[149.2637,-32.9002,348.5687],[149.2578,-32.9044,346.7893],[149.2503,-32.9051,347.7742],[149.2467,-32.9186,346.9445],[149.2448,-32.919,352.3844],[149.2387,-32.9151,347.1081],[149.2359,-32.9201,349.715],[149.2342,-32.9201,365.828],[149.225,-32.9144,352.7572],[149.2259,-32.9114,344.3556],[149.2298,-32.9087,351.9169],[149.2268,-32.8924,345.7514],[149.2315,-32.8878,344.0124],[149.231,-32.8832,348.6212],[149.2183,-32.8707,342.0],[149.2201,-32.8622,363.4519],[149.2217,-32.8604,342.9239],[149.2283,-32.8594,359.356],[149.2333,-32.8536,342.0],[149.2332,-32.8493,342.0],[149.2309,-32.8454,346.6354],[149.2237,-32.8411,343.5313],[149.2134,-32.8274,343.0334],[149.2136,-32.8248,342.7307],[149.2209,-32.8216,346.6873],[149.2322,-32.8227,348.3647],[149.2432,-32.82,342.0],[149.2438,-32.8174,342.0],[149.2393,-32.8128,344.4088],[149.2816,-32.8185,719.448],[149.287,-32.7883,663.5468],[149.2795,-32.7873,600.1976],[149.2849,-32.7515,604.8154],[149.2861,-32.7517,604.8154],[149.2907,-32.73,482.7784],[149.2892,-32.7249,456.5314],[149.2847,-32.722,435.8212],[149.2897,-32.6972,719.4152],[149.2774,-32.6954,775.6606],[149.2784,-32.6929,776.9224],[149.2841,-32.692,760.4928],[149.2903,-32.6881,737.6749],[149.2902,-32.6856,748.4293],[149.2987,-32.6788,714.8129],[149.3032,-32.6715,728.3229],[149.2959,-32.6554,720.1365],[149.2978,-32.652,720.3034],[149.2961,-32.6453,685.5055],[149.2934,-32.6435,689.6099],[149.2903,-32.6444,685.2418],[149.288,-32.6385,656.3903],[149.2738,-32.6376,567.4086],[149.2654,-32.6339,474.1687],[149.2628,-32.6311,478.838],[149.2645,-32.6226,341.5],[149.261,-32.6212,341.5],[149.2533,-32.6091,341.5],[149.2476,-32.6069,341.5],[149.2414,-32.6066,344.0583],[149.2347,-32.6088,341.5],[149.2313,-32.6056,346.1974],[149.2341,-32.5962,342.0929],[149.2397,-32.5961,344.6852],[149.2483,-32.5997,341.5],[149.2507,-32.5982,341.9198],[149.2525,-32.5927,341.5],[149.2505,-32.579,342.1886],[149.2548,-32.577,343.5147],[149.2627,-32.5762,345.8461],[149.2687,-32.5712,343.6013],[149.2699,-32.5677,362.0579],[149.264,-32.5644,344.884],[149.2615,-32.56,346.8309],[149.2597,-32.5459,350.7382],[149.2608,-32.545,350.7382],[149.2675,-32.5481,367.3528],[149.2703,-32.5473,348.8926],[149.2765,-32.5341,354.7083],[149.2774,-32.5279,352.378],[149.2834,-32.5217,361.3108],[149.282,-32.5183,357.7395],[149.2747,-32.5108,354.3976],[149.2752,-32.5087,354.8323],[149.2841,-32.5044,370.2952],[149.29,-32.5051,358.572],[149.2931,-32.5028,358.3002],[149.2973,-32.4956,361.4118],[149.2957,-32.4927,364.833],[149.2933,-32.4925,362.2803],[149.2812,-32.498,371.9309],[149.2795,-32.4969,362.0667],[149.2799,-32.4889,363.2908],[149.2771,-32.4869,361.5676],[149.2683,-32.4927,364.9474],[149.2638,-32.4911,364.2585],[149.2593,-32.4792,370.9182],[149.264,-32.4768,366.1238],[149.2732,-32.4783,367.9187],[149.2746,-32.475,367.3177],[149.2669,-32.471,369.1106],[149.2635,-32.4627,370.9016],[149.2577,-32.4579,370.7317],[149.255,-32.4477,380.9497],[149.2707,-32.4437,371.6458],[149.2788,-32.4492,371.9685],[149.2809,-32.4491,372.5152],[149.2826,-32.4469,373.5272],[149.2849,-32.4341,378.4217],[149.2688,-32.4245,377.3787],[149.2697,-32.4177,384.1422],[149.2717,-32.4149,382.5676],[149.2578,-32.4138,443.5466],[149.2583,-32.4111,453.3057],[149.2546,-32.4107,418.705],[149.2568,-32.3994,504.6456],[149.2146,-32.3951,516.5914],[149.2127,-32.4053,482.6487],[149.1732,-32.4019,571.5065],[149.1723,-32.3876,533.7957],[149.1792,-32.3813,540.7493],[149.1777,-32.3779,556.2778],[149.1793,-32.3728,557.7904],[149.1775,-32.3684,563.5198],[149.1814,-32.3642,584.1171],[149.1856,-32.3622,579.4965],[149.1837,-32.3579,575.6249],[149.1764,-32.352,571.4836],[149.1777,-32.3479,568.9097],[149.1845,-32.3429,564.6938],[149.1828,-32.3365,544.0518],[149.1901,-32.333,557.7228],[149.1929,-32.3332,565.3137],[149.1894,-32.3259,564.2159],[149.1902,-32.3237,566.1971],[149.1941,-32.322,573.3247],[149.1938,-32.3179,553.5078],[149.1972,-32.3108,553.9047],[149.1998,-32.3099,556.2231],[149.1996,-32.3072,535.5283],[149.2098,-32.3003,525.1511],[149.213,-32.3012,532.2788],[149.2131,-32.297,532.0966],[149.2182,-32.2955,535.9417],[149.2245,-32.2968,551.8453],[149.2258,-32.2953,553.1635],[149.1892,-32.2906,469.6838],[149.195,-32.2587,511.3199],[149.1921,-32.2583,498.6223],[149.1962,-32.2362,436.4429],[149.1988,-32.236,432.3027],[149.2031,-32.2136,444.6917],[149.1907,-32.212,419.4019],[149.1924,-32.2018,412.8648],[149.1965,-32.2023,400.3748],[149.1991,-32.1949,393.8745],[149.1988,-32.1868,387.1333],[149.2054,-32.1862,397.9738],[149.206,-32.1831,396.7003],[149.2188,-32.1848,377.2327],[149.2206,-32.1826,384.4033],[149.2151,-32.1728,375.7651],[149.2111,-32.17,369.7071],[149.2126,-32.1683,377.8444],[149.2102,-32.1617,366.7486],[149.212,-32.1608,369.1628],[149.2121,-32.1506,363.1092],[149.2091,-32.1485,362.5876],[149.2051,-32.1484,361.9071],[149.2025,-32.1437,359.4749],[149.1978,-32.145,358.5506],[149.2015,-32.1332,355.9076],[149.2001,-32.129,356.5254],[149.1958,-32.1241,353.7894],[149.2003,-32.1189,352.3657],[149.2002,-32.117,352.0527],[149.1955,-32.1131,351.287],[149.1979,-32.1121,351.305],[149.198,-32.1094,350.3014],[149.1944,-32.1082,349.111],[149.1937,-32.1044,352.067],[149.1855,-32.1039,346.8358],[149.1821,-32.0997,344.7484],[149.1776,-32.1003,344.7117],[149.1782,-32.1047,349.7809],[149.1725,-32.1063,343.8929],[149.1698,-32.1018,347.6504],[149.1662,-32.1067,351.2762],[149.1658,-32.1143,342.0097],[149.1747,-32.1218,339.7593],[149.1709,-32.1242,340.9212],[149.1686,-32.1229,342.9309],[149.1673,-32.1243,340.6881],[149.1629,-32.124,340.683],[149.1545,-32.1212,339.895],[149.1537,-32.1182,339.2631],[149.1551,-32.1161,343.3387],[149.1462,-32.1179,339.0133],[149.1394,-32.117,336.847],[149.1312,-32.112,335.9526],[149.1227,-32.0998,335.741],[149.1209,-32.1007,334.9573],[149.1221,-32.1053,333.5157],[149.1192,-32.1084,334.7744],[149.1154,-32.1072,334.5638],[149.1107,-32.1111,333.4144],[149.1064,-32.1045,352.825],[149.1047,-32.108,339.9552],[149.1024,-32.1077,355.2047],[149.1012,-32.1146,330.7329],[149.0968,-32.1148,336.6881],[149.093,-32.1118,330.6075],[149.0934,-32.1085,334.0786],[149.082,-32.1056,327.6069],[149.0782,-32.1018,328.818],[149.0715,-32.1033,330.0394],[149.0711,-32.0946,326.1896],[149.0593,-32.087,328.268],[149.0567,-32.0888,327.5001],[149.0593,-32.0968,325.3989],[149.0552,-32.1006,325.5515],[149.0515,-32.1007,325.0882],[149.0471,-32.1041,323.2732],[149.0346,-32.0994,324.7767],[149.0311,-32.1011,322.0959],[149.0284,-32.1052,321.2486],[149.0293,-32.1065,321.8766],[149.0259,-32.1088,320.5931],[149.0192,-32.109,320.688],[149.0156,-32.1051,322.7204],[149.012,-32.1069,322.2795],[149.0088,-32.113,318.93],[149.009,-32.1187,319.62],[149.0069,-32.1215,320.2097],[149.0043,-32.1219,318.5718],[149.0012,-32.1394,339.8958],[148.9969,-32.142,324.6091],[148.9933,-32.1371,320.2803],[148.9909,-32.1385,327.395],[148.985,-32.1529,359.4302],[148.9721,-32.165,318.2842],[148.9698,-32.1642,319.1435],[148.9684,-32.1676,316.3796],[148.9645,-32.1673,314.3511],[148.9582,-32.1603,314.8641],[148.9557,-32.1599,312.3451],[148.9561,-32.1619,311.3546],[148.9548,-32.1617,311.2836],[148.9542,-32.1579,312.6063],[148.9529,-32.1576,312.6063],[148.9504,-32.1658,311.4821],[148.9442,-32.174,309.7346],[148.9446,-32.1797,310.5771],[148.942,-32.1808,308.6748],[148.9386,-32.1898,349.8601],[148.9352,-32.2099,395.1643],[148.9391,-32.2104,380.7195],[148.9272,-32.2717,366.097],[148.8962,-32.2912,332.143],[148.8875,-32.2899,346.7403],[148.8835,-32.312,363.0809],[148.8512,-32.3134,337.0901],[148.8527,-32.3197,347.8149],[148.8507,-32.3325,367.6953],[148.8411,-32.3312,377.9088],[148.8241,-32.3485,422.7445],[148.8235,-32.3526,411.4322],[148.8205,-32.3522,403.746],[148.8046,-32.3674,355.4925],[148.8012,-32.3639,363.7935],[148.791,-32.3599,388.384],[148.7681,-32.3418,385.834],[148.7605,-32.3865,309.0421],[148.7589,-32.3862,314.484],[148.7584,-32.3894,309.4355],[148.7657,-32.3903,305.1227],[148.7646,-32.3966,293.4424],[148.7574,-32.3957,304.5074],[148.7541,-32.4191,272.7858],[148.7417,-32.4178,275.2369],[148.737,-32.4232,274.3421],[148.7267,-32.4222,272.4747],[148.7242,-32.421,268.8398],[148.7239,-32.4147,270.4772],[148.7166,-32.4159,268.0531],[148.7081,-32.4061,272.6042],[148.7004,-32.4059,264.5299],[148.6982,-32.4073,269.3198],[148.7044,-32.4205,276.2134],[148.7051,-32.4289,273.3925],[148.7038,-32.4349,277.0683],[148.7076,-32.4365,276.7292],[148.7125,-32.4342,275.199],[148.7164,-32.4356,276.5155],[148.7164,-32.4459,276.4931],[148.7217,-32.4513,276.9601],[148.726,-32.4622,277.7129],[148.732,-32.465,278.4465],[148.7341,-32.4683,277.5499],[148.7277,-32.4729,281.4884],[148.7229,-32.4806,281.4789],[148.7245,-32.4938,286.4237],[148.7235,-32.4952,282.9765],[148.7204,-32.4959,281.4993],[148.7175,-32.4921,282.5497],[148.7146,-32.4919,282.8382],[148.7021,-32.4953,283.0499],[148.7004,-32.4969,282.9657],[148.7028,-32.5071,284.2044],[148.699,-32.5176,285.8029],[148.6991,-32.5226,286.2787],[148.7015,-32.5243,287.3938],[148.7084,-32.5228,294.4336],[148.7127,-32.5315,292.6221],[148.7058,-32.5444,290.1108],[148.7013,-32.5491,294.4926],[148.7007,-32.5531,291.5702],[148.7036,-32.5552,292.4858],[148.711,-32.5522,292.2845],[148.7153,-32.5528,295.9842],[148.7149,-32.5627,294.6656],[148.7179,-32.5665,297.3288],[148.7239,-32.5689,296.96],[148.7244,-32.5723,296.0895],[148.7204,-32.5753,298.7967],[148.7089,-32.5747,304.7237],[148.6986,-32.5782,303.6124],[148.6982,-32.58,305.0843],[148.7003,-32.5821,309.1574],[148.7093,-32.584,320.5104],[148.7094,-32.5871,309.0616],[148.7077,-32.5899,314.7045],[148.6987,-32.594,318.4758],[148.6966,-32.5974,317.5117],[148.6917,-32.5976,316.6133],[148.6903,-32.6,316.2751],[148.6936,-32.6048,324.7715],[148.7007,-32.6079,320.6151],[148.7022,-32.6135,319.7024],[148.6979,-32.6153,324.2565],[148.6862,-32.6127,327.5064],[148.6763,-32.621,328.4632],[148.6694,-32.6243,330.5216],[148.667,-32.6309,331.4271],[148.6684,-32.6345,334.8392],[148.6721,-32.6357,335.7906],[148.6751,-32.6425,337.731],[148.6796,-32.643,338.7666],[148.6826,-32.6461,341.641],[148.6821,-32.6488,339.2332],[148.6838,-32.6508,339.9722],[148.6889,-32.6528,349.6176],[148.6871,-32.6596,343.5448],[148.6913,-32.6675,346.7611],[148.6883,-32.6701,353.3112],[148.6843,-32.6683,347.8638],[148.683,-32.6693,351.5657],[148.6845,-32.6726,350.9945],[148.6894,-32.6771,350.6752],[148.688,-32.6788,352.9898],[148.6847,-32.6784,352.0656],[148.6836,-32.6818,356.1272],[148.6784,-32.6846,356.4647],[148.6705,-32.6984,358.8776],[148.6554,-32.7006,362.4536],[148.6554,-32.709,364.694],[148.6478,-32.7114,365.4504],[148.6475,-32.7191,367.9292],[148.6508,-32.7251,372.7357],[148.6497,-32.7327,370.1205],[148.6452,-32.7337,371.9388],[148.6449,-32.7368,372.2224],[148.6508,-32.7483,377.1433],[148.6585,-32.7422,381.4286],[148.6667,-32.7455,380.2815],[148.6724,-32.7441,380.9398],[148.6758,-32.7496,384.3952],[148.6842,-32.7524,384.7928],[148.6863,-32.7613,389.4409],[148.6856,-32.764,389.2087],[148.6916,-32.7688,388.195],[148.698,-32.7633,392.8558],[148.703,-32.7627,392.3391],[148.7049,-32.7681,395.0042],[148.7115,-32.7702,396.3935],[148.7117,-32.7781,409.0929],[148.7172,-32.7859,401.1458],[148.7164,-32.7924,402.1733],[148.7231,-32.7951,407.7826],[148.7256,-32.7945,410.4305],[148.7261,-32.797,410.1709],[148.7239,-32.7986,413.3389],[148.7255,-32.8005,412.1127],[148.7338,-32.8059,421.1936],[148.7345,-32.8015,418.0809],[148.7356,-32.8019,415.8384],[148.7387,-32.8087,424.4511],[148.7455,-32.8066,428.2535],[148.7495,-32.8135,432.3048],[148.7564,-32.8164,438.5454],[148.765,-32.8176,441.9774],[148.7726,-32.8258,451.1258],[148.7813,-32.8294,459.07],[148.7837,-32.8347,466.2804],[148.7842,-32.8413,474.9662],[148.79,-32.8427,474.368],[148.7908,-32.8467,480.7876],[148.7949,-32.8486,482.573],[148.7947,-32.8513,484.6112],[148.7974,-32.8532,487.7549],[148.7966,-32.8553,487.4486],[148.7984,-32.8561,487.4486],[148.7959,-32.8587,493.0347],[148.7987,-32.8591,493.2651],[148.7987,-32.8651,499.564],[148.8061,-32.8762,511.2905],[148.8083,-32.8769,516.4772],[148.8085,-32.8797,517.2393],[148.8217,-32.8814,539.4519],[148.822,-32.8793,551.1897],[148.8193,-32.8789,549.1036],[148.8197,-32.8761,546.99],[148.8275,-32.877,568.8323],[148.8283,-32.8724,569.4216],[148.8328,-32.873,574.0936],[148.8332,-32.8709,564.308],[148.8415,-32.872,583.8342],[148.8405,-32.8793,592.0825],[148.842,-32.8794,599.1653],[148.8426,-32.8765,599.582],[148.8582,-32.8786,605.5024],[148.8562,-32.8913,555.8156],[148.8589,-32.8918,553.4595],[148.8583,-32.8955,558.9606],[148.854,-32.895,578.1982],[148.8537,-32.8963,586.0493],[148.8759,-32.8984,507.907],[148.8763,-32.8959,522.0454],[148.8863,-32.8959,495.5913],[148.8858,-32.8984,492.126],[148.896,-32.8993,477.1209],[148.8977,-32.9033,463.4138],[148.9022,-32.9047,454.9594],[148.9031,-32.9084,447.603],[148.9072,-32.9076,446.8303],[148.9163,-32.9015,443.4164],[148.9243,-32.9062,444.5883],[148.9281,-32.8974,445.154],[148.9355,-32.9013,456.7631],[148.9363,-32.8993,435.8194],[148.9346,-32.8932,435.2036],[148.9401,-32.8932,438.7468],[148.9461,-32.8892,434.7901],[148.9476,-32.8895,435.1769],[148.9473,-32.8938,429.7097],[148.9548,-32.8901,423.1873],[148.9547,-32.8922,430.5495],[148.958,-32.8915,429.6686],[148.9576,-32.8931,436.9402],[148.9552,-32.8936,433.7906],[148.952,-32.9003,448.5484],[148.9529,-32.9015,453.6619],[148.9572,-32.9012,475.8824],[148.9562,-32.9049,459.1327],[148.9588,-32.909,464.3688],[148.9607,-32.9094,474.5812],[148.9595,-32.9113,472.3269],[148.962,-32.9141,481.0245],[148.9626,-32.9196,504.9904],[148.9662,-32.9256,489.0932],[148.9659,-32.9294,496.3469],[148.9692,-32.9326,497.83],[148.9673,-32.9389,515.8248],[148.9704,-32.9395,519.9676],[148.9707,-32.9425,519.9738],[148.9729,-32.9431,521.7778],[148.9752,-32.9467,529.7376],[148.9823,-32.9485,537.9934],[148.985,-32.9545,547.3232],[148.9849,-32.9623,559.0805],[149.0203,-32.9678,641.7053],[149.0168,-32.9854,683.2799],[149.0206,-32.9858,666.5621],[149.0148,-33.0158,638.0497],[149.0129,-33.0128,635.2121],[149.0103,-33.0233,641.0901],[149.0171,-33.0242,646.4664],[149.0139,-33.041,606.0444],[149.0182,-33.0406,615.078],[149.0203,-33.0432,627.2399],[149.0218,-33.0413,631.4971],[149.0257,-33.0414,651.7133],[149.0308,-33.0466,670.1123],[149.0342,-33.0422,655.1087],[149.0365,-33.0428,652.8098],[149.0374,-33.0406,657.2891],[149.0395,-33.0416,663.1796],[149.0425,-33.039,671.9774],[149.0448,-33.0402,667.1313],[149.0451,-33.0383,679.8611],[149.0485,-33.0386,669.0167],[149.051,-33.0375,671.0969],[149.0506,-33.0351,676.9983],[149.0573,-33.0331,688.6705],[149.0638,-33.0372,699.0049],[149.064,-33.0427,707.6212],[149.0671,-33.0424,709.6903],[149.0742,-33.0469,711.52],[149.0763,-33.0461,716.8536],[149.0768,-33.0439,717.3057],[149.0788,-33.0449,720.3364],[149.0794,-33.0429,737.3439],[149.0808,-33.0432,731.7448],[149.0798,-33.0415,737.3439],[149.0818,-33.0412,727.285],[149.0815,-33.0395,735.8818],[149.0867,-33.0421,741.7913],[149.0885,-33.0413,741.7913],[149.089,-33.0442,761.4108],[149.0925,-33.0443,759.9122],[149.092,-33.0489,770.3894],[149.1017,-33.0538,794.9674],[149.101,-33.0574,793.4036],[149.1066,-33.0586,798.7411],[149.1075,-33.0608,811.5424],[149.1135,-33.0582,841.2879],[149.1237,-33.061,899.7969],[149.1278,-33.0605,892.6666],[149.1336,-33.0631,908.7125],[149.1284,-33.0371,817.275],[149.1255,-33.035,813.7921],[149.1218,-33.0353,803.1868],[149.1228,-33.0318,800.3061],[149.1211,-33.0264,787.339],[149.1184,-33.0238,775.2025],[149.1205,-33.0203,767.3831],[149.12,-33.0155,757.7133],[149.1281,-33.0083,746.0984],[149.138,-33.0119,721.0004],[149.1403,-33.0078,727.1487],[149.1462,-33.0076,701.623],[149.148,-33.0012,709.2563],[149.1631,-33.0028,702.366],[149.1715,-33.0166,733.581],[149.168,-33.0345,797.3899],[149.1907,-33.0379,659.3101],[149.1919,-33.0317,655.1671],[149.1954,-33.0311,646.1653],[149.1997,-33.034,639.6351],[149.2023,-33.0314,636.7182],[149.2072,-33.0317,629.5503],[149.2078,-33.0288,629.0742],[149.2099,-33.0291,625.6643],[149.2105,-33.0267,627.3018],[149.2133,-33.026,589.9395],[149.2164,-33.0225,558.3646],[149.2232,-33.0222,553.2714],[149.2243,-33.0198,520.9047],[149.2194,-33.0147,505.1063],[149.2195,-33.0119,487.8073],[149.224,-33.009,450.9111],[149.2251,-33.0054,449.1716],[149.2298,-33.0039,446.1627],[149.23,-33.0004,405.9546],[149.2332,-32.9975,405.4677]]]]}}