{"type": "Feature","bbox": [145.0951,-37.8652,145.2135,-37.7922],"geometry": {"type": "MultiPolygon","coordinates": [[[[145.0951,-37.8533,83.3371],[145.1967,-37.8652,66.0607],[145.1997,-37.8617,68.7785],[145.201,-37.8621,68.7785],[145.1998,-37.8594,70.862],[145.2076,-37.8561,72.3599],[145.2059,-37.8543,75.1091],[145.2097,-37.8513,76.0871],[145.2101,-37.8459,79.71],[145.2133,-37.841,86.3858],[145.2135,-37.8118,112.3307],[145.2073,-37.806399999999996,101.5566],[145.2055,-37.8072,101.7092],[145.2054,-37.8056,97.8331],[145.1903,-37.8056,134.4936],[145.185,-37.8012,126.7585],[145.1839,-37.8061,121.8761],[145.178,-37.8053,112.5428],[145.1781,-37.8034,106.2555],[145.1608,-37.8019,85.0077],[145.1507,-37.7988,75.2022],[145.1467,-37.7999,72.5378],[145.145,-37.7976,74.6855],[145.1417,-37.7969,70.0764],[145.1379,-37.7981,66.2544],[145.1328,-37.7953,64.6833],[145.1242,-37.7987,54.3868],[145.1166,-37.7956,47.2834],[145.1098,-37.7948,45.0017],[145.1067,-37.7922,40.2748],[145.1035,-37.7976,61.4867],[145.1049,-37.8032,77.0918],[145.1016,-37.8119,100.9756],[145.1027,-37.812,100.9756],[145.1003,-37.8232,94.4916],[145.0988,-37.8244,94.4916],[145.0999,-37.8262,103.4259],[145.0951,-37.8533,83.3371]]]]}
,"properties": {"GID_2": "AUS.10.74_1","GID_0": "AUS","country": "Australia","GID_1": "AUS.10_1","state": "Victoria","NL_NAME_1": "NA","county": "Whitehorse","VARNAME_2": "NA","NL_NAME_2": "NA","TYPE_2": "City","ENGTYPE_2": "City","CC_2": "26980","HASC_2": "AU.VI.WH","name": "Whitehorse.county","area_km2": 64.45603,"hist_schema_id": "Elevation0-9000","hist_area_km2": {"50": 2.26114,"75": 14.68634,"100": 24.21514,"125": 19.39124,"150": 3.90217}}}