{"type": "Feature","id": "2660","bbox": [143.83717,-43.64129,148.48455,-39.45306],"geometry": {"type": "MultiPolygon","coordinates": [[[[147.36402,-43.37933,98.0275],[147.36052,-43.36826,14.4441],[147.33758,-43.3445,0.0],[147.3366,-43.34026,0.0],[147.31275,-43.26824,0.0],[147.30445,-43.26181,0.0],[147.28598,-43.27557,187.9762],[147.25441,-43.3095,32.6435],[147.23487,-43.32301,0.0],[147.22853,-43.33221,0.0],[147.2339,-43.34401,40.0296],[147.24155,-43.35622,114.6814],[147.23927,-43.36484,38.2953],[147.23357,-43.37151,62.871],[147.2256,-43.38551,70.754],[147.21567,-43.37754,0.0],[147.20004,-43.35703,0.0],[147.19011,-43.35272,0.4588],[147.181,-43.35426,14.2159],[147.17351,-43.36004,0.0],[147.16814,-43.36826,0.0],[147.17595,-43.37933,0.0],[147.18043,-43.39723,21.569],[147.18238,-43.43646,34.3892],[147.17921,-43.45403,17.9911],[147.17221,-43.45892,0.0],[147.16163,-43.45403,0.0],[147.10922,-43.41497,20.7442],[147.09067,-43.4109,0.0],[147.08619,-43.42962,0.0],[147.09409,-43.43987,0.0],[147.10963,-43.45078,0.0],[147.12534,-43.46478,0.0],[147.13396,-43.48431,54.6923],[147.14918,-43.50115,0.0],[147.16774,-43.50164,0.0],[147.18491,-43.48984,0.0],[147.19606,-43.46998,0.0],[147.2046,-43.42571,0.0],[147.21559,-43.41522,0.0],[147.23756,-43.42962,30.0361],[147.23194,-43.43239,10.7201],[147.22332,-43.43906,0.0],[147.21648,-43.44264,0.0],[147.22999,-43.44427,0.0],[147.23618,-43.45078,0.0],[147.24383,-43.46998,31.6895],[147.24041,-43.46893,0.0],[147.2378,-43.4734,0.0],[147.23683,-43.47975,0.0],[147.23756,-43.48431,0.0],[147.2444,-43.48935,0.0],[147.25082,-43.48992,225.5612],[147.25758,-43.48968,0.0],[147.26433,-43.49179,0.0],[147.28736,-43.50498,0.0],[147.30388,-43.50888,58.4264],[147.31593,-43.50066,97.7851],[147.32635,-43.47812,0.0],[147.33497,-43.44769,0.0],[147.34002,-43.43646,49.239],[147.34457,-43.42986,0.0],[147.35548,-43.4179,0.0],[147.36052,-43.40862,0.0],[147.36451,-43.39674,0.0],[147.36549,-43.38787,155.5992],[147.36402,-43.37933,98.0275]]],
[[[147.43751,-43.23895,0.0],[147.43116,-43.21396,0.0],[147.41993,-43.18841,0.0],[147.41578,-43.17588,0.0],[147.40886,-43.16497,0.0],[147.40463,-43.15537,0.0],[147.4026,-43.14471,0.0],[147.40211,-43.13112,0.0],[147.39666,-43.11712,0.0],[147.37281,-43.10125,30.2309],[147.36004,-43.07488,134.0774],[147.34457,-43.08221,38.8444],[147.33033,-43.10101,68.4223],[147.32635,-43.12054,0.0],[147.33497,-43.12689,0.0],[147.34897,-43.13388,56.995],[147.35418,-43.13942,0.0],[147.3047,-43.14568,100.1178],[147.29176,-43.15301,0.0],[147.29566,-43.16562,42.0109],[147.31813,-43.17718,0.0],[147.36891,-43.18288,0.0],[147.38787,-43.19622,7.6974],[147.37403,-43.21071,0.0],[147.35727,-43.21795,13.1779],[147.34734,-43.22796,0.0],[147.35369,-43.25026,0.0],[147.36085,-43.25791,4.8304],[147.36915,-43.25465,12.4444],[147.37924,-43.24782,0.4379],[147.39186,-43.24407,1.8648],[147.40122,-43.24505,0.0],[147.42604,-43.25026,89.3217],[147.43751,-43.23895,0.0]]],
[[[148.17604,-42.64821,0.0],[148.15984,-42.64186,0.0],[148.14926,-42.63275,0.0],[148.14373,-42.62029,0.0],[148.14186,-42.60377,0.0],[148.13445,-42.5901,0.0],[148.11695,-42.58571,98.882],[148.09636,-42.58441,0.0],[148.07984,-42.57928,40.0804],[148.06756,-42.59303,103.5717],[148.03956,-42.6032,0.0],[148.02459,-42.61346,0.0],[148.01368,-42.63177,0.0],[148.01287,-42.65163,0.0],[148.02272,-42.66627,0.0],[148.04518,-42.66872,0.0],[148.03297,-42.70387,29.8652],[148.02426,-42.71933,55.9022],[148.01157,-42.73073,8.1541],[148.01157,-42.75123,0.0],[148.01832,-42.75123,0.0],[148.02906,-42.7365,0.0],[148.04347,-42.72918,0.0],[148.10483,-42.7195,0.0],[148.11012,-42.71649,0.0],[148.08668,-42.69655,14.8536],[148.07301,-42.66676,4.3568],[148.10467,-42.66473,0.0],[148.14959,-42.66644,0.0],[148.17604,-42.64821,0.0]]],
[[[148.33448,-42.35662,0.0],[148.34059,-42.3541,0.0],[148.33009,-42.33603,4.1463],[148.32472,-42.32366,83.7417],[148.31691,-42.31439,2.5418],[148.299,-42.3056,154.1945],[148.26564,-42.29648,24.3325],[148.24635,-42.2951,0.0],[148.23072,-42.29941,0.0],[148.24269,-42.31813,101.6516],[148.2492,-42.32391,131.4182],[148.28004,-42.32936,0.0],[148.29282,-42.33701,0.0],[148.3047,-42.34629,0.0],[148.32008,-42.3541,0.0],[148.32976,-42.35711,0.0],[148.33448,-42.35662,0.0]]],
[[[144.76629,-40.7265,8.7289],[144.76295,-40.72047,13.4909],[144.75913,-40.70289,7.4501],[144.7566,-40.69549,0.0],[144.73512,-40.67148,5.6587],[144.72495,-40.65716,10.3555],[144.72136,-40.64031,0.0],[144.69858,-40.66025,0.4274],[144.68922,-40.68141,82.6505],[144.68922,-40.70452,25.8301],[144.70875,-40.81048,17.0309],[144.70826,-40.83896,0.0],[144.70379,-40.87135,2.1352],[144.69695,-40.8869,0.0],[144.68474,-40.89349,0.0],[144.66651,-40.89511,0.0],[144.65642,-40.89983,0.0],[144.64064,-40.92148,11.8492],[144.62403,-40.92506,0.0],[144.61736,-40.92962,0.0],[144.62289,-40.93857,13.1515],[144.64064,-40.95908,24.3047],[144.63819,-40.97422,17.5066],[144.63136,-40.98561,0.0],[144.62037,-40.99326,0.0],[144.6058,-40.99651,0.0],[144.6565,-41.04876,15.2546],[144.6753,-41.08074,13.7947],[144.66725,-41.1207,3.6314],[144.68474,-41.13885,18.641],[144.69125,-41.16806,20.121],[144.68946,-41.19915,0.0],[144.68165,-41.22308,0.0],[144.70037,-41.24245,16.0648],[144.76734,-41.33554,44.691],[144.7811,-41.36517,6.5767],[144.78191,-41.39153,0.6978],[144.7566,-41.40057,0.0],[144.75538,-41.40439,0.0],[144.75514,-41.40781,0.0],[144.75392,-41.41107,0.3773],[144.74985,-41.41424,0.0],[144.76564,-41.43043,10.885],[144.7767,-41.43865,0.3897],[144.78712,-41.44215,21.2296],[144.79444,-41.44647,8.3195],[144.8108,-41.47633,6.4682],[144.86647,-41.54461,41.4813],[144.91432,-41.6513,37.6194],[144.91245,-41.67929,0.0],[144.91432,-41.68865,12.5945],[144.92018,-41.70289,14.8958],[144.92604,-41.70908,12.982],[144.93434,-41.71014,28.6993],[144.94825,-41.70973,54.1293],[144.95973,-41.71404,10.7464],[144.96705,-41.7234,4.9691],[144.9725,-41.73268,0.1569],[144.99204,-41.74676,12.6861],[145.03053,-41.80592,2.7677],[145.04078,-41.81325,2.686],[145.04982,-41.81715,37.1124],[145.05592,-41.82317,15.4349],[145.06039,-41.84954,0.0],[145.06609,-41.85516,0.0],[145.0735,-41.85817,0.0],[145.15455,-41.91579,72.2012],[145.20655,-41.96657,0.8886],[145.25148,-42.04144,19.0643],[145.26637,-42.12347,17.4418],[145.22901,-42.19573,0.0],[145.26222,-42.2208,29.4814],[145.27003,-42.22373,27.7282],[145.28338,-42.21592,16.6272],[145.28224,-42.20574,0.0],[145.27662,-42.19411,0.0],[145.27687,-42.18206,16.1124],[145.2815,-42.17702,15.5584],[145.29412,-42.17099,12.2506],[145.29786000000001,-42.16839,14.7515],[145.30397,-42.157,6.6112],[145.30421,-42.15545,5.0219],[145.32374,-42.14275,14.6414],[145.33326,-42.14178,70.3751],[145.34571,-42.14723,119.4192],[145.34132,-42.16383,42.2695],[145.34604,-42.18222,0.0],[145.35939,-42.20941,0.0],[145.36622,-42.2374,29.1094],[145.37192,-42.24098,81.5208],[145.38966,-42.24993,82.3738],[145.40561,-42.27077,106.3091],[145.46315,-42.32724,0.0],[145.48227,-42.33978,8.7282],[145.48878,-42.33554,9.0654],[145.49,-42.32643,20.5573],[145.49269,-42.31894,16.4846],[145.50343,-42.31927,15.9406],[145.51271,-42.32578,40.7375],[145.51417,-42.3331,15.2416],[145.51352,-42.34051,0.0],[145.5171,-42.34726,3.5927],[145.51824,-42.35068,0.0],[145.51694,-42.35508,0.0],[145.51661,-42.35866,0.0],[145.52052,-42.36012,0.0],[145.52394,-42.35955,0.0],[145.52906,-42.35784,83.4106],[145.5324,-42.35589,62.3106],[145.53061,-42.3541,60.5371],[145.53354,-42.3493,22.3299],[145.54672,-42.34319,53.7206],[145.55812,-42.34157,117.6443],[145.55494,-42.35068,84.9143],[145.535,-42.37721,0.0],[145.52711,-42.39414,0.0],[145.51979,-42.42693,0.0],[145.50945,-42.42848,0.0],[145.48227,-42.41546,0.0],[145.48227,-42.48748,44.5477],[145.47926,-42.5097,55.9392],[145.47202,-42.51279,0.0],[145.46315,-42.50254,3.8731],[145.45053,-42.46649,70.3001],[145.44313,-42.4306,47.6332],[145.44028,-42.39129,0.0],[145.43483,-42.37933,0.0],[145.42449,-42.3707,0.0],[145.35857,-42.33017,0.0],[145.33082,-42.32301,0.0],[145.32553,-42.31569,0.0],[145.3226,-42.3069,0.0],[145.31837,-42.29941,0.0],[145.30974,-42.28729,0.0],[145.30397,-42.2833,0.0],[145.29054,-42.27825,0.0],[145.25416,-42.27191,43.9609],[145.24106,-42.26458,0.0],[145.23585,-42.24749,0.0],[145.23048,-42.23545,0.0],[145.21762,-42.21852,0.0],[145.202,-42.20338,0.0],[145.18873,-42.19573,6.8876],[145.18963,-42.21282,0.0],[145.19972,-42.23545,58.08],[145.2024,-42.24749,23.5773],[145.2024,-42.3056,0.0],[145.20826,-42.33717,9.0625],[145.21844,-42.37038,0.0],[145.24342,-42.42913,0.0],[145.23439,-42.46453,0.0],[145.24724,-42.50433,0.0],[145.27174,-42.539,15.1208],[145.29786000000001,-42.55885,78.8821],[145.26417,-42.59531,0.0],[145.26547,-42.60426,0.0],[145.2942,-42.60719,42.0663],[145.30592,-42.61159,58.0295],[145.31202,-42.62249,0.0],[145.31707,-42.63592,0.0],[145.32455,-42.64821,0.0],[145.32887,-42.64918,0.0],[145.34913,-42.64821,24.5014],[145.35271,-42.65081,17.5718],[145.37062,-42.70428,0.0],[145.37648,-42.70965,0.0],[145.38649,-42.71445,121.2202],[145.38429,-42.72503,30.5804],[145.37127,-42.74358,0.0],[145.36744,-42.74676,0.0],[145.36476,-42.75107,0.0],[145.36622,-42.7575,0.0],[145.37159,-42.7623,0.0],[145.38705,-42.76686,75.291],[145.39357,-42.77109,82.7071],[145.39894,-42.77801,0.0],[145.40968,-42.79559,0.0],[145.42994,-42.84629,4.3405],[145.44972,-42.8825,35.8255],[145.47242,-42.91513,0.0],[145.51026,-42.95843,47.2694],[145.51979,-42.96233,45.7249],[145.58229,-42.96356,33.4666],[145.5975,-42.97186,12.5038],[145.6338,-43.025,0.0],[145.6548,-43.039,27.764],[145.66668,-43.04404,29.3619],[145.6784,-43.04608,27.8328],[145.68824,-43.04974,7.1216],[145.68572,-43.05788,0.0],[145.67872,-43.06585,0.0],[145.67465,-43.06943,0.0],[145.67066,-43.09149,0.0],[145.67408,-43.0993,23.6619],[145.68832,-43.10687,23.0248],[145.6989,-43.10849,27.7448],[145.71046,-43.10703,46.8049],[145.7212,-43.10377,3.4922],[145.72999,-43.10003,12.2866],[145.72682,-43.11468,0.0],[145.72804,-43.13055,21.7241],[145.73463,-43.14332,0.0],[145.74692,-43.14853,24.9122],[145.75229,-43.15203,12.1223],[145.75441,-43.16009,23.9789],[145.75522,-43.1692,0.0],[145.75717,-43.17588,18.5898],[145.76393,-43.18239,32.1403],[145.77475,-43.18792,8.0468],[145.80274,-43.2081,0.0],[145.80567,-43.21331,17.8296],[145.80421,-43.23748,0.8074],[145.80567,-43.24407,11.0352],[145.8318,-43.29258,0.0],[145.84425,-43.30055,0.0],[145.86004,-43.30462,76.3283],[145.89723,-43.30608,0.0],[145.91407,-43.30071,7.6324],[145.92579,-43.28916,0.0],[145.92856,-43.27744,0.0],[145.91774,-43.27207,34.0342],[145.88136,-43.2763,0.0],[145.86931,-43.27304,0.0],[145.8733,-43.2584,1.284],[145.87867,-43.25433,20.4443],[145.88697,-43.25189,30.1613],[145.89601,-43.25058,28.3321],[145.90406,-43.25026,8.8764],[145.9157,-43.24676,15.7313],[145.91774,-43.23854,32.0074],[145.91432,-43.22357,21.6877],[145.91326,-43.20094,17.0255],[145.91717,-43.1959,19.5406],[145.93816,-43.21103,12.252],[145.95883,-43.22259,25.7865],[145.96339,-43.22698,5.2069],[145.96404,-43.25018,0.0],[145.9673,-43.26824,0.0],[145.97535,-43.28395,15.207],[145.99,-43.29941,104.7519],[146.00489,-43.31178,257.8438],[146.0254,-43.32488,164.0999],[146.04363,-43.32594,85.7163],[146.05152,-43.30283,11.0182],[146.05348,-43.29274,33.8271],[146.05909,-43.28509,9.606],[146.06764,-43.28191,4.5961],[146.07936,-43.28574,42.0633],[146.0809,-43.29127,106.4374],[146.08399,-43.31341,31.68],[146.08562,-43.31976,11.7891],[146.11101,-43.33603,335.2262],[146.12989,-43.32562,46.163],[146.15797,-43.28167,20.7414],[146.16822,-43.2776,21.7323],[146.17945,-43.28346,17.8826],[146.19549,-43.29941,64.9875],[146.22299,-43.31504,140.0336],[146.2295,-43.31976,69.7159],[146.2339,-43.33367,54.9459],[146.23797,-43.35947,16.1488],[146.2378,-43.38437,14.8111],[146.23024,-43.3956,10.9756],[146.22218,-43.39186,4.6144],[146.20672,-43.37444,15.2454],[146.19549,-43.36826,63.739],[146.18946,-43.36639,89.3223],[146.18019,-43.36484,56.5182],[146.17547,-43.36842,54.5079],[146.18238,-43.38193,19.7127],[146.1714,-43.37965,0.0],[146.16725,-43.37819,2.7086],[146.16139,-43.37444,0.0],[146.15952,-43.38519,0.0],[146.16586,-43.40423,4.5871],[146.16139,-43.41595,0.0],[146.14226,-43.40065,9.1993],[146.12916,-43.38161,5.2904],[146.11305,-43.36435,236.4333],[146.08562,-43.35394,115.6526],[145.99391,-43.34498,68.784],[145.97576,-43.34775,31.6917],[145.99806,-43.37127,20.4061],[146.00367,-43.38193,106.4485],[145.98609,-43.37868,4.22],[145.96339,-43.36891,3.1176],[145.94321,-43.36484,0.0],[145.93483,-43.37811,30.5423],[145.94386,-43.38641,0.0],[146.00025,-43.41937,48.9906],[146.02394,-43.45184,51.72],[146.03077,-43.48268,138.3999],[146.02418,-43.5525,0.0],[146.07936,-43.53948,47.7427],[146.08595,-43.54079,8.6721],[146.09254,-43.54469,11.3435],[146.09938,-43.54778,231.9635],[146.1067,-43.54632,224.5709],[146.10808,-43.54127,18.449],[146.10564,-43.52386,59.3691],[146.1067,-43.51849,13.6897],[146.11541,-43.51507,136.9452],[146.14991,-43.50563,0.0],[146.16139,-43.50482,73.4049],[146.17164,-43.51214,0.0],[146.18019,-43.52386,0.0],[146.18922,-43.53948,0.0],[146.20069,-43.532,366.4067],[146.20338,-43.51914,349.8214],[146.20387,-43.50449,110.0015],[146.20916,-43.49179,10.8066],[146.22185,-43.48545,3.6463],[146.23813,-43.48455,123.6145],[146.25367,-43.48724,13.6599],[146.26385,-43.49179,8.4202],[146.27149,-43.50302,0.0],[146.27442,-43.51523,30.4372],[146.27898,-43.52565,45.3074],[146.29168,-43.532,32.308],[146.30551,-43.53045,63.3686],[146.31861,-43.52288,20.6115],[146.33937,-43.50482,5.5299],[146.35865,-43.52028,0.0],[146.37794,-43.5285,9.6353],[146.48911,-43.5372,29.1439],[146.51352,-43.53395,0.0],[146.5381,-43.51849,59.925],[146.54379,-43.52158,15.6496],[146.55844,-43.52516,14.623],[146.55014,-43.50416,7.541],[146.54819,-43.48187,9.874],[146.5547,-43.46941,1.4228],[146.57211,-43.47812,23.453],[146.58204,-43.49472,20.1705],[146.59116,-43.53574,19.312],[146.60011,-43.5525,0.0],[146.60841,-43.55885,33.9878],[146.67514,-43.58733,55.0153],[146.69288,-43.60858,0.0],[146.70045,-43.62363,26.9243],[146.7107,-43.629,0.0],[146.75961,-43.61297,0.0],[146.7815,-43.60849,36.3945],[146.80323,-43.61045,0.0],[146.82618,-43.62151,0.0],[146.83204,-43.62982,0.0],[146.83025,-43.636,0.0],[146.83155,-43.63991,42.4991],[146.84653,-43.64129,0.0],[146.85572,-43.63958,0.0],[146.92701,-43.61175,0.0],[146.94223,-43.59832,0.0],[146.94215,-43.58115,0.0],[146.92604,-43.57057,0.0],[146.9061,-43.56683,0.0],[146.89405,-43.55788,0.0],[146.9017,-43.532,0.0],[146.91179,-43.53639,45.8128],[146.92604,-43.53834,0.0],[146.93995,-43.53729,0.0],[146.94955,-43.532,32.0154],[146.95533,-43.51784,0.0],[146.94972,-43.50937,0.0],[146.94068,-43.5027,12.0004],[146.93605,-43.49521,0.0],[146.94337,-43.47666,2.6343],[146.96241,-43.47243,0.0],[147.01783,-43.47812,0.0],[147.00115,-43.45566,0.0],[146.94191,-43.44378,7.1793],[146.92164,-43.42962,38.2345],[146.96127,-43.43133,50.6227],[146.98121,-43.42962,24.9436],[146.99733,-43.42278,68.9497],[147.00506,-43.41375,121.3367],[147.02133,-43.38641,314.5066],[147.0315,-43.37444,163.9113],[147.05535,-43.35622,59.1632],[147.05519,-43.34889,0.0],[147.03834,-43.34026,0.0],[147.02133,-43.33717,34.234],[146.96266,-43.34026,88.6558],[146.97592,-43.32586,0.8555],[146.99676,-43.31658,34.9394],[147.01938,-43.31219,15.3644],[147.03834,-43.31292,0.0],[147.04477,-43.31666,0.0],[147.04786,-43.32195,0.0],[147.05299,-43.3261,0.0],[147.06511,-43.32659,84.952],[147.07252,-43.32317,0.0],[147.08383,-43.31561,0.0],[147.09441,-43.30657,0.0],[147.09978,-43.29941,0.0],[147.09596,-43.28281,52.004],[147.08131,-43.26719,0.0],[147.06227,-43.25368,15.8663],[146.99122,-43.21413,21.217],[146.97999,-43.20989,53.3304],[146.96648,-43.19899,52.2246],[146.96266,-43.17441,110.5765],[146.96559,-43.14772,148.2717],[146.97291,-43.13112,59.3945],[146.98609,-43.11972,77.1847],[147.00318,-43.10996,0.0],[147.01783,-43.1124,0.105],[147.0241,-43.13795,157.4344],[147.0241,-43.17929,219.6432],[147.02849,-43.18515,202.7886],[147.05201,-43.19964,118.475],[147.06056,-43.20159,73.5383],[147.07911000000001,-43.19183,93.638],[147.09783,-43.1749,48.2024],[147.10662,-43.15472,140.7673],[147.1128,-43.17881,74.8981],[147.11899,-43.18914,101.4862],[147.11801,-43.19695,133.2141],[147.1032,-43.21331,0.0],[147.09213,-43.23187,0.0],[147.10304,-43.2387,37.989],[147.14454,-43.23789,19.5941],[147.1587,-43.24098,28.3632],[147.15886,-43.24847,198.0093],[147.15414,-43.25742,139.2707],[147.15447,-43.26458,125.2494],[147.16383,-43.27011,55.1701],[147.18491,-43.27654,6.6743],[147.19264,-43.28167,0.0],[147.20867,-43.28672,0.0],[147.23024,-43.28045,0.0],[147.24928,-43.26816,0.0],[147.25758,-43.25433,0.0],[147.25815,-43.21502,8.2373],[147.2566,-43.1972,17.7595],[147.24684,-43.16025,0.0],[147.24488,-43.14463,20.0642],[147.24773,-43.12916,17.9263],[147.25758,-43.11435,65.3043],[147.2767,-43.10068,107.223],[147.29371,-43.09246,95.4806],[147.30128,-43.0831,0.0],[147.29225,-43.06601,0.0],[147.26295,-43.0442,29.4212],[147.25441,-43.02728,29.5058],[147.27174,-43.01133,29.2493],[147.30299,-43.03444,31.6378],[147.32374,-43.04632,202.0859],[147.33318,-43.04266,96.6794],[147.32944,-42.99798,0.0],[147.33082,-42.97861,0.0],[147.34002,-42.95672,73.6608],[147.3602,-42.92523,35.8288],[147.35914,-42.91082,0.0],[147.3366,-42.88242,4.9642],[147.31959,-42.84686,5.2769],[147.30437,-42.8292,1.6836],[147.28598,-42.81268,0.0],[147.28053,-42.80934,0.0],[147.26808,-42.79998,0.0],[147.26002,-42.79013,14.8792],[147.27296,-42.78265,0.1072],[147.2837,-42.7785,1.3389],[147.2942,-42.77858,74.8394],[147.29908,-42.78875,181.8984],[147.35369,-42.8611,20.1326],[147.37428,-42.872,31.6715],[147.39438,-42.8777,6.4617],[147.40968,-42.88812,29.2441],[147.41578,-42.91229,4.139],[147.42221,-42.92693,137.465],[147.43824,-42.92352,0.0],[147.45826,-42.91367,0.0],[147.47731,-42.90887,0.0],[147.46608,-42.9459,76.9954],[147.46648,-42.96356,95.984],[147.48032,-42.97096,28.1156],[147.48373,-42.97845,11.6184],[147.47967,-42.99481,13.2594],[147.469,-43.01133,0.0],[147.4533,-43.01873,0.0],[147.44288,-43.00994,0.0],[147.43051,-42.99358,0.0],[147.41668,-42.98455,3.5122],[147.40211,-42.99822,22.9727],[147.40349,-43.01043,0.0],[147.41334,-43.02532,0.0],[147.42612,-43.03867,3.4974],[147.43621,-43.04608,0.0],[147.45436,-43.03826,0.0],[147.5114,-43.025,0.0],[147.52931,-43.01491,0.0],[147.53981,-43.00433,0.0],[147.55909,-42.97723,0.0],[147.5193,-42.91855,0.0],[147.50294,-42.88209,54.5168],[147.50392,-42.85426,8.305],[147.51531,-42.84515,8.5366],[147.53354,-42.8366,8.2452],[147.58562,-42.82122,0.0],[147.59571,-42.82147,0.0],[147.60694,-42.82635,1.8287],[147.61451,-42.83522,34.9467],[147.61695,-42.84515,0.0],[147.61793,-42.85426,10.9058],[147.62127,-42.8611,22.1172],[147.62818,-42.86386,33.3758],[147.64772,-42.86533,61.8415],[147.65528,-42.86736,39.2354],[147.66358,-42.87469,5.8526],[147.6692,-42.8825,22.0922],[147.67652,-42.88983,39.7363],[147.68946,-42.89528,0.0],[147.72039,-42.88909,0.0],[147.73048,-42.88844,4.9559],[147.73992,-42.89129,33.3856],[147.75701,-42.89967,3.9329],[147.76515,-42.90203,17.5758],[147.82691,-42.89398,12.3394],[147.84034,-42.90203,100.9048],[147.83888,-42.9166,107.1901],[147.83155,-42.9319,48.7347],[147.83383,-42.94451,7.2438],[147.86069,-42.95045,64.3983],[147.86069,-42.95672,46.3743],[147.84978,-42.96233,76.8074],[147.84352,-42.96404,93.3731],[147.83351,-42.96356,11.7585],[147.84506,-42.9887,0.0],[147.85906,-43.0075,90.9868],[147.87924,-43.018,0.0],[147.90919,-43.01873,0.0],[147.88705,-43.03444,196.2114],[147.8755,-43.04095,94.5641],[147.86069,-43.04608,0.0],[147.85865,-43.04559,0.0],[147.84099,-43.04616,5.2143],[147.84034,-43.04608,5.2143],[147.83383,-43.04754,0.0],[147.82325,-43.05193,0.0],[147.81642,-43.05291,0.0],[147.78582,-43.0486,20.653],[147.76303,-43.03753,7.0318],[147.71681,-43.00514,0.0],[147.72722,-42.98797,0.0],[147.7308,-42.97682,0.0],[147.73048,-42.94687,0.0],[147.72584,-42.94052,0.0],[147.71518,-42.93743,0.0],[147.69256,-42.93621,0.0],[147.67823,-42.93922,56.2533],[147.67701,-42.94687,22.0807],[147.681,-42.95574,1.628],[147.68263,-42.96356,48.1706],[147.68263,-42.96836,32.2446],[147.68491,-42.97194,25.9551],[147.68605,-42.97674,1.2683],[147.68263,-42.98455,0.0],[147.67905,-42.98642,0.0],[147.66603,-42.98943,0.0],[147.63356,-43.00115,84.3766],[147.62428,-43.00823,131.9331],[147.62062,-43.02313,0.0],[147.62721,-43.04274,23.9769],[147.63819,-43.06129,151.9971],[147.6478,-43.07285,206.0688],[147.66456,-43.0818,133.7296],[147.74789,-43.10573,61.4999],[147.7339,-43.11826,0.0],[147.70851,-43.13006,82.77],[147.69557,-43.13421,31.8595],[147.70021,-43.16277,15.6703],[147.77198,-43.21689,0.0],[147.79249,-43.24407,0.0],[147.80974,-43.23122,0.0],[147.82146,-43.21429,0.0],[147.83758,-43.20192,0.0],[147.86752,-43.20306,151.8842],[147.85743,-43.18825,19.3832],[147.85377,-43.1723,29.8177],[147.85678,-43.15618,0.0],[147.86752,-43.1417,0.0],[147.88282,-43.13152,0.0],[147.88795,-43.13795,0.0],[147.88966,-43.15309,0.0],[147.89487,-43.16904,0.0],[147.90455,-43.18027,172.3958],[147.96404,-43.22243,0.0],[147.97804,-43.2282,0.0],[147.99855,-43.2304,0.0],[147.99578,-43.21998,187.1093],[147.98845,-43.2116,10.1882],[147.97739,-43.20306,0.0],[147.97999,-43.19158,0.0],[147.98634,-43.18548,0.0],[147.99342,-43.18141,0.0],[147.99855,-43.17588,0.0],[148.00343,-43.15814,0.0],[147.99952,-43.14788,0.0],[147.98634,-43.143,157.7787],[147.96388,-43.1417,2.7021],[147.97633,-43.12526,0.0],[147.97836,-43.11834,0.0],[147.97739,-43.10687,183.3246],[147.97316,-43.09808,0.0],[147.94955,-43.07285,397.424],[147.96518,-43.06032,0.0],[147.96388,-43.01051,0.0],[147.97397,-42.98773,0.0],[147.98756,-42.98089,0.0],[148.00066,-42.97747,0.0],[148.00978,-42.9699,0.0],[148.01157,-42.95045,0.0],[148.00807,-42.94541,0.0],[148.00123,-42.9415,0.0],[147.9944,-42.93841,0.0],[147.99106,-42.93621,0.0],[147.9922,-42.92742,262.953],[147.99733,-42.91985,82.222],[148.00278,-42.91375,0.0],[148.00473,-42.90887,0.0],[147.99977,-42.90065,0.0],[147.98699,-42.89324,0.0],[147.98422,-42.8847,0.0],[147.98341,-42.8764,0.0],[147.98072,-42.87119,0.0],[147.97535,-42.86826,0.0],[147.9673,-42.86736,48.2636],[147.95631,-42.87029,0.0],[147.94646,-42.87428,0.0],[147.9393,-42.87233,0.0],[147.93653,-42.85768,0.0],[147.92075,-42.83831,0.0],[147.89308,-42.85019,10.8387],[147.8816,-42.87168,107.1394],[147.91529,-42.88095,29.5981],[147.91529,-42.88844,26.0853],[147.8991,-42.89324,0.0],[147.87778,-42.89284,25.0762],[147.85841,-42.88844,0.0],[147.84718,-42.88095,0.0],[147.84457,-42.86614,0.0],[147.8506,-42.85182,0.0],[147.86752,-42.82635,0.2441],[147.87525,-42.82985,0.0],[147.87989,-42.83099,0.0],[147.88364,-42.82822,0.0],[147.88868,-42.81951,0.0],[147.88087,-42.80495,0.0],[147.88111,-42.78191,0.0],[147.88933,-42.76067,0.0],[147.90545,-42.75123,0.0],[147.92042,-42.74684,0.0],[147.93995,-42.73553,0.0],[147.95314,-42.71998,0.0],[147.94955,-42.70281,0.0],[147.95533,-42.69166,0.0],[147.95737,-42.67897,32.2393],[147.95704,-42.65163,0.0],[147.95509,-42.64902,8.4232],[147.95086,-42.64544,7.5968],[147.9463,-42.64056,0.46],[147.94337,-42.63454,0.0],[147.94239,-42.62802,0.0],[147.94337,-42.61045,29.4039],[147.93686,-42.59092,0.0],[147.88868,-42.5451,8.9822],[147.90138,-42.54266,38.7184],[147.91066,-42.53786,54.5678],[147.91578,-42.52972,0.0],[147.91529,-42.51727,5.0967],[147.92791,-42.525,18.9715],[147.94288,-42.54778,6.4194],[147.9533,-42.55267,3.7937],[147.96567,-42.54827,0.0],[147.98097,-42.52899,0.0],[147.99488,-42.52467,11.4899],[148.00603,-42.51409,54.286],[148.01108,-42.48943,0.0],[148.01157,-42.44345,0.0],[148.00318,-42.39568,0.0],[148.00522,-42.36688,4.2807],[148.03045,-42.34726,0.0],[148.03094,-42.33229,0.0],[148.02247,-42.3178,0.0],[148.00473,-42.31243,0.0],[147.99383,-42.31732,5.1849],[147.97584,-42.33554,0.0],[147.96388,-42.33978,6.4721],[147.98341,-42.31902,4.7584],[148.01222,-42.27793,1.5774],[148.01808,-42.26434,9.7518],[148.0149,-42.2584,8.618],[148.03061,-42.25498,0.0],[148.03443,-42.24627,0.0],[148.03468,-42.23496,0.0],[148.03891,-42.22373,0.0],[148.07447,-42.19736,0.0],[148.07984,-42.1858,0.0],[148.07895,-42.13877,0.0],[148.08253,-42.11566,0.0],[148.09295,-42.10019,0.0],[148.1194,-42.0914,4.8583],[148.21705,-42.09336,7.6781],[148.16798,-42.08375,0.0],[148.15504,-42.07969,2.1386],[148.14698,-42.07562,0.257],[148.14137,-42.07147,0.0],[148.13136,-42.06194,0.0],[148.13014,-42.05543,5.3849],[148.13868,-42.05104,1.1385],[148.14942,-42.04803,0.3025],[148.15504,-42.04559,1.6958],[148.15252,-42.02874,0.0],[148.14674,-42.01263,7.651],[148.14698,-41.99928,42.8849],[148.16245,-41.99033,19.5727],[148.17555,-41.99358,9.1417],[148.18629,-42.00123,5.1309],[148.1937,-42.00091,22.811],[148.19654,-41.97967,3.5914],[148.18287,-41.95957,8.7728],[148.181,-41.94736,25.4485],[148.1963,-41.94183,39.7078],[148.2024,-41.94842,7.3661],[148.20509,-41.96266,3.7004],[148.21119,-41.97698,0.4227],[148.24244,-41.9909,0.0],[148.24171,-42.00742,8.0693],[148.23194,-42.0237,12.186],[148.22047,-42.03118,9.9211],[148.20582,-42.03427,0.0],[148.18971,-42.04127,14.3683],[148.16245,-42.05918,10.8795],[148.22657,-42.07529,4.6909],[148.24431,-42.08587,41.9662],[148.27475,-42.11321,3.4008],[148.29274,-42.11956,97.3069],[148.32008,-42.1194,76.4475],[148.31398,-42.1347,55.8393],[148.30063,-42.14373,62.0267],[148.27231,-42.15545,183.2953],[148.28199,-42.1609,289.9521],[148.29322,-42.16969,11.4132],[148.3025,-42.17889,11.9585],[148.30641,-42.1858,20.2167],[148.30323,-42.19752,82.8601],[148.29615,-42.20696,103.6176],[148.28907,-42.21429,133.1726],[148.2859,-42.2199,129.1672],[148.28102,-42.22568,47.6484],[148.26051,-42.23561,41.2722],[148.25799,-42.24424,79.9914],[148.26466,-42.25026,63.6443],[148.299,-42.2584,153.2524],[148.30128,-42.26295,126.654],[148.31105,-42.27304,10.6925],[148.32179,-42.27801,0.0],[148.32691,-42.26775,0.0],[148.33107,-42.26263,0.0],[148.34995,-42.24668,0.0],[148.35418,-42.24082,0.0],[148.36427,-42.20436,0.0],[148.36069,-42.1845,0.0],[148.31593,-42.17018,26.222],[148.31935,-42.15683,0.0],[148.34669,-42.12754,0.0],[148.35646,-42.11924,0.0],[148.36394,-42.11566,0.0],[148.36378,-42.11028,0.0],[148.29933,-42.05055,0.0],[148.3003,-42.00156,0.0],[148.31349,-41.94866,0.0],[148.32691,-41.91579,0.0],[148.3187,-41.91123,1.5283],[148.31642,-41.90683,16.3971],[148.31577,-41.90154,0.0],[148.31267,-41.89471,0.0],[148.28907,-41.87233,23.2613],[148.2859,-41.8637,6.0123],[148.28395,-41.85524,0.0],[148.27361,-41.8305,0.0],[148.26857,-41.82269,0.0],[148.261,-41.80039,16.8153],[148.27442,-41.77996,0.0],[148.29469,-41.76295,0.0],[148.30641,-41.75066,0.0],[148.28614,-41.68939,4.1493],[148.28907,-41.67156,2.7675],[148.30201,-41.65252,0.0],[148.31105,-41.62982,20.2155],[148.31495,-41.60654,39.5508],[148.31267,-41.5862,31.0149],[148.30795,-41.57513,18.06],[148.28126,-41.53631,20.2838],[148.2811,-41.52825,6.714],[148.28403,-41.51995,0.0],[148.2859,-41.50709,0.0],[148.28386,-41.48284,0.0],[148.28004,-41.46624,0.0],[148.27947,-41.45037,0.0],[148.33107,-41.32252,0.0],[148.35418,-41.29144,0.0],[148.33326,-41.29217,7.0038],[148.25799,-41.34661,66.3382],[148.25416,-41.32594,0.0],[148.27198,-41.30828,0.0],[148.31642,-41.28143,25.5843],[148.32154,-41.26849,68.4447],[148.31625,-41.2553,18.45],[148.28199,-41.22194,15.106],[148.27752,-41.21559,52.5283],[148.27231,-41.20257,3.2282],[148.26889,-41.18157,4.6256],[148.26889,-41.15163,4.0526],[148.27475,-41.12493,0.0],[148.28907,-41.11321,0.0],[148.29054,-41.10622,0.0],[148.30641,-41.06552,0.0],[148.30226,-41.05755,0.0],[148.29444,-41.05169,0.0],[148.28403,-41.04778,0.0],[148.27231,-41.04502,0.0],[148.27906,-41.03582,0.0],[148.29265,-41.02451,8.2739],[148.30885,-41.01483,18.1992],[148.3235,-41.01084,0.0],[148.33139,-41.00221,0.0],[148.32569,-40.98268,0.0],[148.31463,-40.9616,0.0],[148.28736,-40.92303,0.0],[148.20932,-40.84075,0.0],[148.19899,-40.83701,0.0],[148.16554,-40.83896,1.4736],[148.14381,-40.83489,0.5406],[148.13111,-40.8248,4.2986],[148.11402,-40.7973,0.0],[148.094,-40.77703,0.0],[148.0809,-40.76775,0.0],[148.06935,-40.76385,0.0],[148.05193,-40.76979,2.1773],[148.04274,-40.76971,0.0731],[148.03598,-40.75221,0.0],[148.02931,-40.74676,0.0],[148.02027,-40.74375,0.0],[147.99692,-40.74261,0.0],[147.99098,-40.74131,0.0],[147.98422,-40.7365,0.0],[147.96925,-40.74375,3.1838],[147.95826,-40.75115,1.8293],[147.95167,-40.76247,0.0],[147.9463,-40.79551,1.4907],[147.93214,-40.82041,4.9956],[147.92905,-40.82903,3.9024],[147.91619,-40.85272,4.6284],[147.88575,-40.87379,12.7958],[147.84946,-40.88877,11.2606],[147.81983,-40.89349,45.5728],[147.79868,-40.88445,2.3587],[147.77605,-40.86793,0.0],[147.75367,-40.85662,7.0613],[147.71713,-40.86736,6.0684],[147.70021,-40.85394,0.0],[147.68377,-40.83571,4.0973],[147.66896,-40.82586,0.0],[147.65056,-40.82855,0.0],[147.59742,-40.84686,0.0],[147.58644,-40.85622,0.0],[147.58139,-40.87184,0.0],[147.52036,-40.95208,0.0],[147.48463,-40.98602,5.9719],[147.44483,-41.0084,1.2241],[147.40838,-41.00335,0.0],[147.4004,-40.99391,0.0],[147.3978,-40.98504,0.0],[147.39291,-40.97861,0.0],[147.36549,-40.97519,0.0],[147.35816,-40.97177,4.5896],[147.3545,-40.96453,0.0],[147.35369,-40.95224,6.6013],[147.34278,-40.94215,14.3308],[147.29566,-40.95713,2.5346],[147.28598,-40.94134,0.0],[147.21022,-40.98992,0.0],[147.17107,-41.00652,0.0],[147.03834,-40.98984,20.7977],[147.03305,-40.98699,0.0],[147.03004,-40.9782,0.0],[147.0241,-40.97601,0.0],[147.01759,-40.97666,0.0],[147.01303,-40.97869,0.0],[147.00904,-40.98113,0.0],[146.99488,-40.98577,0.6243],[146.98658,-40.98968,0.0],[146.97918,-40.9944,0.0],[146.97291,-40.99993,0.0],[146.93263,-41.01824,0.0],[146.88152,-41.02614,37.4162],[146.83774,-41.03973,1.2612],[146.81935,-41.07537,29.7092],[146.82423,-41.09979,9.2487],[146.83806,-41.11582,23.8338],[146.85873,-41.12428,41.3031],[146.90789,-41.13095,94.933],[146.92237,-41.14023,42.1152],[146.93409,-41.15146,84.331],[146.94955,-41.16107,92.1607],[146.93686,-41.16546,36.4875],[146.92644,-41.16277,26.9872],[146.91651,-41.15765,2.2891],[146.90512,-41.15488,0.0],[146.89112,-41.15472,3.6259],[146.88168,-41.15553,5.2108],[146.87289,-41.1596,4.8718],[146.8602,-41.16855,0.506],[146.84352,-41.16204,0.0],[146.82472,-41.1609,4.693],[146.80812,-41.15667,45.0667],[146.79868,-41.14056,0.0],[146.81251,-41.13209,0.0],[146.80828,-41.11256,0.3979],[146.79591,-41.09173,0.0],[146.785,-41.07903,0.0],[146.7767,-41.0744,0.0],[146.76539,-41.06976,0.0],[146.75367,-41.06634,0.0],[146.74415,-41.06552,0.0],[146.73064,-41.06854,0.0],[146.71469,-41.07977,17.0809],[146.70265,-41.08522,1.8668],[146.68979,-41.0875,0.0],[146.66676,-41.08807,0.0],[146.6548,-41.09287,0.0],[146.64861,-41.09922,74.1968],[146.636,-41.11842,52.6387],[146.6268,-41.12689,0.0],[146.59108,-41.14715,10.2687],[146.58253,-41.16107,0.0],[146.60011,-41.17539,62.381],[146.58562,-41.18011,18.23],[146.57211,-41.17669,0.0],[146.56251,-41.16823,0.0],[146.55844,-41.15789,0.0],[146.55519,-41.13787,0.0],[146.5464,-41.13275,0.0],[146.49155,-41.15114,3.3765],[146.42368,-41.16619,7.3556],[146.35377,-41.1679,12.8718],[146.21437,-41.15537,4.7546],[146.11964,-41.1207,0.0],[146.07895,-41.11443,0.0],[146.06886,-41.1098,4.6149],[146.06227,-41.1054,41.8897],[146.04151,-41.0949,0.0],[146.01661,-41.08782,0.0],[145.97853,-41.0652,0.0],[145.95533,-41.05869,0.0],[145.93474,-41.06121,0.0],[145.92514,-41.05877,0.0],[145.92115,-41.04803,0.0],[145.91554,-41.04127,0.0],[145.90268,-41.03826,0.0],[145.85279,-41.03655,0.0],[145.83033,-41.0333,0.0],[145.80983,-41.02695,0.0],[145.79127,-41.01702,0.0],[145.76157,-40.99358,0.0],[145.74391,-40.97536,0.0],[145.73609,-40.95908,0.0],[145.72926,-40.93906,0.0],[145.7116,-40.93043,0.0],[145.62094,-40.92254,0.0],[145.57211,-40.90944,0.0],[145.5337,-40.88502,0.0],[145.52394,-40.8458,0.0],[145.47104,-40.86492,0.0],[145.44304,-40.86793,0.0],[145.40528,-40.85027,0.0],[145.38844,-40.8471,0.0],[145.35597,-40.8458,0.0],[145.34213,-40.84352,0.0],[145.33237,-40.83807,0.0],[145.31837,-40.82586,0.0],[145.27866,-40.80543,0.0],[145.27003,-40.7973,3.2421],[145.26686,-40.78484,2.8827],[145.27036,-40.77418,8.9709],[145.27784,-40.7667,35.1257],[145.30787,-40.75514,0.0],[145.29518,-40.73691,0.0],[145.26922,-40.71998,0.485],[145.25025,-40.716,0.0],[145.25945,-40.73065,8.1347],[145.26393,-40.75286,0.0],[145.26149,-40.77549,0.0],[145.25025,-40.79168,3.1628],[145.22674,-40.79778,0.0],[145.13356,-40.79168,0.0],[145.14625,-40.80771,7.3043],[145.13722,-40.81813,0.0],[145.11883,-40.82138,0.0],[145.09523,-40.81219,0.0],[145.08465,-40.80999,0.0],[145.07537,-40.80706,0.0],[145.05836,-40.78427,5.2571],[145.02687,-40.77304,0.0],[145.01401,-40.7667,1.2829],[144.99969,-40.75384,0.0],[144.98471,-40.74481,1.3796],[144.96795,-40.74456,0.0],[144.93116,-40.75018,0.0],[144.89479,-40.74481,0.0],[144.82846,-40.72137,3.8207],[144.79396,-40.716,6.4892],[144.78712,-40.71852,6.6949],[144.77955,-40.72381,0.0],[144.77247,-40.72763,0.0],[144.76629,-40.7265,8.7289]]],
[[[145.04615,-40.68304,0.0],[145.03102,-40.67254,0.0],[145.01368,-40.66823,0.0],[144.99659,-40.66497,0.0],[144.97722,-40.65097,0.0],[144.96217,-40.64772,1.0795],[144.945,-40.63991,0.0],[144.93719,-40.6251,4.4101],[144.93051,-40.61533,3.8134],[144.91749,-40.62322,0.0],[144.86964,-40.66481,0.0],[144.87176,-40.67132,0.0],[144.87281,-40.716,0.7132],[144.87648,-40.71998,3.6662],[144.88299,-40.72487,5.577],[144.89031,-40.72812,20.0927],[144.89698,-40.7265,25.3546],[144.90626,-40.72186,54.3532],[144.91489,-40.72186,30.5766],[144.92213,-40.72332,6.868],[144.92742,-40.7234,5.9442],[144.98276,-40.69931,4.3496],[145.01588,-40.69427,37.5772],[145.03728,-40.70916,6.7048],[145.0652,-40.70916,0.0],[145.05812,-40.69647,0.0],[145.04615,-40.68304,0.0]]],
[[[148.20533,-40.58278,0.0],[148.20948,-40.56219,0.0],[148.21363,-40.55153,0.0],[148.22682,-40.54827,0.0],[148.2295,-40.54013,0.0],[148.22877,-40.52907,4.6502],[148.23072,-40.51735,2.9838],[148.23536,-40.51043,0.0],[148.24578,-40.4983,0.0],[148.25115,-40.48943,0.0],[148.18605,-40.5001,53.9591],[148.17115,-40.50709,58.2752],[148.13111,-40.51377,22.8368],[148.11402,-40.52418,67.7695],[148.10711,-40.53004,56.1602],[148.10499,-40.53004,29.8137],[148.10572,-40.53045,38.3774],[148.10719,-40.53786,0.0],[148.10955,-40.5442,0.0],[148.11891,-40.55804,46.5828],[148.12086,-40.5617,43.6258],[148.12859,-40.56536,12.5638],[148.14536,-40.56609,25.6426],[148.16188,-40.57057,52.971],[148.16871,-40.58563,0.0],[148.19418,-40.59629,0.0],[148.20533,-40.58278,0.0]]],
[[[144.79217,-40.42791,0.0],[144.79086,-40.42116,28.0581],[144.7837,-40.40887,0.7432],[144.77914,-40.40537,0.0],[144.77711,-40.4109,0.0],[144.76726,-40.46006,0.0],[144.76295,-40.4695,0.0],[144.74692,-40.47617,0.0],[144.73015,-40.47527,0.0],[144.71599,-40.47666,0.0],[144.70826,-40.48943,0.0],[144.71079,-40.49578,0.0],[144.72535,-40.50579,20.55],[144.72877,-40.5136,25.7924],[144.7295,-40.56992,26.7847],[144.73292,-40.57741,14.4078],[144.74244,-40.59246,18.8866],[144.76466,-40.58457,56.5574],[144.76564,-40.52451,65.3918],[144.78712,-40.50994,16.9912],[144.79054,-40.50213,0.0],[144.79217,-40.42791,0.0]]],
[[[144.90854,-40.46266,77.5353],[144.91725,-40.45827,78.4145],[144.92701,-40.45599,67.1993],[144.95021,-40.45338,12.1137],[144.95265,-40.44891,0.0],[144.9485,-40.43792,0.0],[144.95346,-40.41953,46.5073],[144.96095,-40.40748,0.0],[144.96046,-40.39788,0.0],[144.94109,-40.38641,0.0],[144.93067,-40.38275,0.0],[144.92026,-40.38063,0.0],[144.89698,-40.37957,0.0],[144.88852,-40.38177,0.0],[144.87924,-40.38681,0.0],[144.87338,-40.3917,0.0],[144.87615,-40.39381,0.0],[144.88445,-40.39764,8.2078],[144.8816,-40.40594,27.1603],[144.87371,-40.41522,0.0],[144.86647,-40.42116,0.0],[144.85906,-40.42376,0.0],[144.83953,-40.42571,0.0],[144.83123,-40.42799,0.0],[144.84693,-40.4415,27.0575],[144.85906,-40.45631,25.8091],[144.87452,-40.46754,34.9816],[144.90073,-40.4695,134.7856],[144.90854,-40.46266,77.5353]]],
[[[148.40016,-40.36175,0.0],[148.39145,-40.35605,7.0973],[148.34596,-40.3095,3.1193],[148.3379,-40.30576,2.5964],[148.3235,-40.30446,0.9422],[148.31959,-40.30739,0.873],[148.29737,-40.31951,0.0],[148.29217,-40.32122,3.5939],[148.28004,-40.33123,30.7224],[148.25294,-40.33603,15.9809],[148.21022,-40.33864,3.3576],[148.20314,-40.35849,11.2159],[148.1941,-40.36566,7.0781],[148.17156,-40.35117,58.7948],[148.16041,-40.34783,11.621],[148.13819,-40.34539,43.2794],[148.09254,-40.34694,14.2657],[148.07407,-40.35117,11.2826],[148.01303,-40.37811,22.5269],[148.00221,-40.39202,45.6763],[147.99855,-40.41774,24.6194],[148.00245,-40.42653,0.0],[148.01189,-40.42848,0.0],[148.03273,-40.42799,12.8679],[148.03981,-40.43182,0.0],[148.0503,-40.44305,34.746],[148.05885,-40.4485,9.1683],[148.08204,-40.45428,6.3608],[148.15162,-40.4485,2.8071],[148.1574,-40.44964,0.0],[148.16879,-40.45452,0.0],[148.17604,-40.45525,0.0],[148.18092,-40.45289,0.0],[148.18979,-40.44354,0.0],[148.19654,-40.44166,0.0],[148.20802,-40.44256,9.554],[148.21697,-40.44549,26.9642],[148.22413,-40.45159,55.3906],[148.23072,-40.46209,16.0524],[148.29566,-40.43467,0.0],[148.32732,-40.43597,15.7735],[148.34059,-40.4695,7.8837],[148.34059,-40.50368,38.5939],[148.3545,-40.49293,0.0],[148.37094,-40.48431,0.0],[148.38933,-40.48187,35.4915],[148.40886,-40.48943,0.0],[148.40789,-40.47666,0.0],[148.41098,-40.46844,0.0],[148.42254,-40.45525,22.9463],[148.4253,-40.45501,23.5198],[148.44418,-40.4485,0.0],[148.45265,-40.43271,24.8152],[148.45655,-40.42799,14.8349],[148.46176,-40.43719,18.5569],[148.46892,-40.44069,2.7951],[148.47682,-40.43808,5.7888],[148.48455,-40.42799,0.0],[148.46803,-40.4153,0.0],[148.42994,-40.3733,4.4482],[148.42066,-40.36834,0.0],[148.40016,-40.36175,0.0]]],
[[[147.85367,-40.29197,0.2395],[147.8375,-40.30576,0.0],[147.85336,-40.31372,5.0815],[147.86463,-40.32337,0.0],[147.8909,-40.32184,3.5505],[147.90478,-40.30803,5.6428],[147.90498,-40.29325,14.4658],[147.88324,-40.2983,0.0],[147.86384,-40.29901,7.3178],[147.85367,-40.29197,0.2395]]],
[[[147.76165,-40.09527,0.0],[147.76463,-40.07383,0.0],[147.7756,-40.05553,0.0],[147.78387,-40.03721,0.0],[147.77739,-40.02283,1.2581],[147.75049,-40.03382,0.0],[147.74317,-40.07772,0.0],[147.7229,-40.09081,0.0],[147.72539,-40.1031,0.0],[147.73741,-40.10526,0.0],[147.76165,-40.09527,0.0]]],
[[[147.9533,-39.71168,0.0],[147.9109,-39.74928,77.2193],[147.89487,-39.75644,15.6688],[147.88673,-39.75286,0.0],[147.87534,-39.7457,0.0],[147.86508,-39.74285,0.0],[147.86069,-39.7527,30.6198],[147.86305,-39.76116,126.1513],[147.8685,-39.76914,93.2071],[147.8812,-39.78314,91.431],[147.8628,-39.7942,2.7327],[147.85401,-39.79746,0.0],[147.86362,-39.81699,133.8079],[147.85369,-39.82773,31.11],[147.813,-39.83831,122.791],[147.79591,-39.84726,0.0],[147.77369,-39.86907,55.2112],[147.75766,-39.87933,125.6388],[147.80747,-39.91074,29.0658],[147.82667,-39.91416,0.0],[147.86248,-39.89593,6.756],[147.88087,-39.89495,17.4373],[147.88868,-39.91758,9.3685],[147.89186,-39.93206,0.0],[147.90602,-39.96201,11.6616],[147.90919,-39.97617,13.1838],[147.90447,-39.99033,5.7627],[147.88592,-40.0241,15.5293],[147.88502,-40.03086,0.0],[147.90073,-40.03167,8.5223],[147.92237,-40.03574,0.0],[147.94142,-40.0451,2.4276],[147.94955,-40.06146,0.0],[147.95167,-40.08636,0.0],[147.95899,-40.09149,5.6335],[147.97193,-40.08913,0.0],[147.99106,-40.09222,3.7937],[148.00245,-40.10247,6.1384],[148.01246,-40.1194,6.347],[148.01783,-40.13738,2.8523],[148.0149,-40.15057,0.0],[148.0145,-40.16424,0.9909],[148.02882,-40.17881,12.1489],[148.05885,-40.20208,254.5609],[148.03989,-40.22283,7.0965],[148.04998,-40.24098,55.8146],[148.07472,-40.25514,38.1481],[148.12428,-40.2706,2.7192],[148.14666,-40.26491,3.0324],[148.16749,-40.25547,0.0],[148.18605,-40.25058,0.0],[148.19256,-40.24505,0.0],[148.19776,-40.21868,0.6841],[148.20281,-40.20892,7.3747],[148.21412,-40.2042,9.2068],[148.22592,-40.20452,8.4919],[148.24773,-40.20892,37.2662],[148.26905,-40.21689,4.1957],[148.28842,-40.23113,1.0795],[148.30738,-40.23773,0.0],[148.32691,-40.22259,0.0],[148.32358,-40.20957,1.0441],[148.30348,-40.2011,4.0483],[148.28631,-40.18971,8.5737],[148.29217,-40.1679,0.0],[148.32114,-40.1902,2.5588],[148.33204,-40.19215,0.0],[148.33375,-40.17474,0.0],[148.31983,-40.13584,0.0],[148.30885,-40.11354,0.0],[148.299,-40.09905,0.0],[148.28663,-40.11452,3.1661],[148.26743,-40.12737,11.6277],[148.24537,-40.13291,2.7489],[148.22389,-40.1264,1.9108],[148.24,-40.10703,0.0],[148.28321,-40.08148,3.7731],[148.29217,-40.06146,0.0],[148.29225,-39.98414,0.0],[148.299,-39.96185,0.0],[148.21095,-39.95135,11.2627],[148.167,-39.93564,0.8113],[148.14812,-39.91074,0.0],[148.14186,-39.89935,0.0],[147.9533,-39.71168,0.0]]],
[[[144.07146,-40.0512,12.4497],[144.08172,-40.04534,32.7212],[144.10304,-40.03704,0.0],[144.11248,-40.03086,0.0],[144.1159,-40.02239,0.0],[144.1172,-40.011,0.0],[144.12037,-40.00091,34.6959],[144.12916,-39.99668,0.0],[144.13526,-39.99212,0.0],[144.13868,-39.98138,0.0],[144.14186,-39.94598,0.0],[144.1443,-39.93621,0.0],[144.14479,-39.92645,0.0],[144.14039,-39.91416,0.0],[144.13299,-39.9083,0.0],[144.12289,-39.90602,0.0],[144.11297,-39.9026,0.0],[144.10548,-39.893,2.5675],[144.10499,-39.87249,0.8568],[144.12159,-39.82887,10.3799],[144.12615,-39.80771,0.0],[144.12273,-39.78688,0.0],[144.10816,-39.74603,0.0],[144.10548,-39.72226,0.0],[144.11248,-39.67791,0.0],[144.10922,-39.66579,0.0],[144.10222,-39.65618,0.0],[144.09506,-39.6487,0.0],[144.08416,-39.62615,0.0],[144.06544,-39.615,0.0],[144.02369,-39.59938,0.0],[143.99317,-39.57513,0.0],[143.98552,-39.57147,0.0],[143.97438,-39.57252,0.0],[143.95558,-39.57773,0.0],[143.94459,-39.57887,0.0],[143.93409,-39.58799,0.0],[143.93816,-39.60931,52.0043],[143.94646,-39.63437,40.6757],[143.94801,-39.65399,53.0288],[143.93702,-39.66725,49.8339],[143.91725,-39.68084,39.0019],[143.89479,-39.6915,0.0],[143.87566,-39.69557,0.0],[143.86199,-39.70062,0.0],[143.86012,-39.71217,26.4048],[143.86598,-39.73528,48.665],[143.86345,-39.74098,50.2536],[143.85353,-39.75262,1.4642],[143.85174,-39.75644,9.2354],[143.85426,-39.76133,18.8576],[143.86378,-39.77215,27.2603],[143.86598,-39.77695,25.6628],[143.86655,-39.81943,31.7794],[143.86134,-39.84254,0.0],[143.84832,-39.85263,0.0],[143.84295,-39.86443,0.0],[143.83717,-39.91863,12.2033],[143.83815,-39.9345,1.7574],[143.8519,-39.94915,0.0],[143.87013,-39.95672,9.3567],[143.886,-39.96787,34.0558],[143.89275,-39.99285,20.0141],[143.89243,-40.03476,32.571],[143.88649,-40.05218,0.0],[143.87224,-40.0512,0.0],[143.88087,-40.09238,78.6443],[143.88649,-40.10654,83.9782],[143.90284,-40.12615,0.0],[143.92254,-40.12737,10.7043],[144.01905,-40.08164,51.2536],[144.04038,-40.07855,0.0],[144.05079,-40.07537,0.0],[144.05812,-40.06805,0.0],[144.0643,-40.05918,2.2552],[144.07146,-40.0512,12.4497]]],
[[[147.35418,-39.48561,0.0],[147.35515,-39.48097,72.2027],[147.35369,-39.47487,11.2801],[147.35784,-39.47047,0.0],[147.35963,-39.46722,98.0822],[147.34051,-39.45501,89.8916],[147.33481,-39.45306,97.0271],[147.33066,-39.4546,29.2931],[147.32879,-39.45802,36.9543],[147.32171,-39.45908,40.1748],[147.31349,-39.46567,123.8036],[147.31153,-39.4734,4.83],[147.30991,-39.47519,51.7513],[147.30608,-39.47763,98.0607],[147.30665,-39.48203,16.6608],[147.31145,-39.48439,0.0],[147.31479,-39.48935,0.0],[147.31609,-39.49725,0.0],[147.3187,-39.50302,0.0],[147.3226,-39.50644,0.0],[147.33408,-39.49302,0.0],[147.34002,-39.49236,0.0],[147.34799,-39.49863,0.0],[147.35418,-39.48561,0.0]]]]}
,"properties": {"ISO3166-1-Alpha-3": "AUS","country": "Australia","fill": "#F0F","name": "Tasmania","area_km2": 68063.35,"hist_schema_id": "Elevation0-9000","hist_area_km2": {"0": 2940.27,"25": 3479.63,"50": 3297.68,"75": 2934.64,"100": 2664.38,"125": 2406.06,"150": 2899.42,"175": 3168.23,"200": 2893.11,"225": 2738.14,"250": 2404.82,"275": 2197.93,"300": 2404.67,"325": 1942.16,"350": 1834.99,"375": 1810.14,"400": 1698.39,"425": 1591.84,"450": 1531.62,"475": 1456.73,"500": 1355.42,"525": 1253.67,"550": 1191.95,"575": 1130.62,"600": 1107.39,"625": 1140.3,"650": 1076.18,"675": 961.46,"700": 798.86,"725": 837.96,"750": 739.34,"775": 668.54,"800": 698.07,"825": 598.54,"850": 584.7,"875": 524.93,"900": 469.89,"925": 395.04,"950": 434.3,"975": 355.25,"1000": 345.02,"1025": 520.21,"1050": 343.05,"1075": 285.97,"1100": 266.54,"1125": 264.31,"1150": 334.39,"1175": 238.61,"1200": 222.24,"1225": 180.44,"1250": 129.37,"1275": 96.98,"1300": 64.84,"1325": 41.7,"1350": 34.95,"1375": 27.82,"1400": 20.6,"1425": 9.65,"1450": 9.45,"1475": 4.41,"1500": 3.41,"1525": 1.59}}}