{"type":"Feature","properties":{"GID_2":"AUS.7.17_1","GID_0":"AUS","country":"Australia","GID_1":"AUS.7_1","state":"Queensland","NL_NAME_1":"NA","county":"ChartersTowers","VARNAME_2":"NA","NL_NAME_2":"NA","TYPE_2":"Region","ENGTYPE_2":"Region","CC_2":"32310","HASC_2":"AU.QL.CT","name":"ChartersTowers.county"},
"geometry":{"type": "MultiPolygon","coordinates": [[[[146.0314,-22.1048,288.9992],[146.0395,-22.0234,280.9447],[146.067,-22.0265,267.9673],[146.0721,-21.9972,275.9149],[146.2014,-22.0076,305.3218],[146.2114,-21.9085,353.52],[146.1185,-21.9009,300.3643],[146.1267,-21.8136,396.1303],[146.0692,-21.8088,356.7632],[146.0841,-21.6096,472.6866],[146.0934,-21.5099,400.0043],[146.1323,-21.514,385.6694],[146.1505,-21.5001,359.4526],[146.3467,-21.5181,274.5421],[146.3407,-21.5701,275.3249],[146.396,-21.6632,297.0101],[146.4467,-21.6681,242.4591],[146.4839,-21.6803,224.6866],[146.4884,-21.6469,227.4584],[146.4929,-21.5887,230.9548],[146.49,-21.5865,231.0372],[146.4923,-21.5665,243.488],[146.6567,-21.5825,218.7722],[146.6492,-21.5994,212.6093],[146.651,-21.6093,213.074],[146.6923,-21.6203,201.7202],[146.7031,-21.6252,196.3614],[146.7175,-21.6256,195.5641],[146.7285,-21.6312,191.5912],[146.7409,-21.6324,188.4046],[146.7561,-21.6367,187.1272],[146.8339,-21.6432,182.1689],[146.8367,-21.6364,182.6047],[146.8346,-21.6325,182.4889],[146.8348,-21.6139,181.8777],[146.8328,-21.6019,182.7029],[146.8387,-21.5873,184.4725],[146.835,-21.5798,180.3391],[146.8347,-21.5744,180.2188],[146.8472,-21.5609,179.1215],[146.8518,-21.5455,179.6236],[146.8589,-21.5356,177.5802],[146.8701,-21.5267,179.5965],[146.8659,-21.5123,177.7429],[146.8667,-21.5099,176.4026],[146.8723,-21.5044,179.3645],[146.8792,-21.4927,177.1356],[146.8964,-21.4769,179.1202],[146.8953,-21.4751,175.9579],[146.9067,-21.4668,176.1211],[146.9118,-21.4538,176.5139],[146.9097,-21.4411,177.7455],[146.9057,-21.4367,175.6427],[146.8984,-21.4348,177.0537],[146.8959,-21.4248,176.1852],[146.8911,-21.4225,175.9991],[146.8822,-21.4111,173.5851],[146.8749,-21.397,174.8702],[146.8737,-21.3937,174.2272],[146.8757,-21.3921,173.6624],[146.8756,-21.3825,174.6954],[146.8822,-21.3733,174.3734],[146.8785,-21.3696,173.098],[146.8828,-21.3621,173.4427],[146.8944,-21.3578,172.9413],[146.9046,-21.3503,172.8129],[146.9109,-21.3347,171.4226],[146.9178,-21.3255,174.795],[146.9301,-21.3208,172.621],[146.9342,-21.3154,172.8048],[146.9467,-21.3045,173.775],[146.9593,-21.3004,172.198],[146.9633,-21.2948,171.6656],[146.9661,-21.2787,171.3506],[146.9597,-21.2626,171.3366],[146.9605,-21.2521,171.0258],[146.9497,-21.2396,170.0609],[146.932,-21.2384,168.9147],[146.9266,-21.2322,168.5257],[146.915,-21.2268,167.6738],[146.8909,-21.2218,166.877],[146.8766,-21.2073,166.4907],[146.866,-21.1912,166.6798],[146.868,-21.1835,164.4749],[146.8822,-21.1733,164.6918],[146.8826,-21.1703,164.8573],[146.873,-21.1595,166.9351],[146.872,-21.1509,166.5005],[146.8626,-21.1378,165.7938],[146.8613,-21.1176,163.3256],[146.8488,-21.1009,163.423],[146.8548,-21.0845,164.6918],[146.8555,-21.0775,162.4004],[146.8537,-21.0713,161.6472],[146.8597,-21.0662,166.7538],[146.8617,-21.0622,164.0493],[146.863,-21.0479,161.7507],[146.8598,-21.0409,162.6329],[146.8604,-21.0312,162.4078],[146.8638,-21.0252,161.6893],[146.8809,-21.008,160.5024],[146.8837,-20.9976,160.6363],[146.877,-20.9886,158.698],[146.8764,-20.978,159.5061],[146.8669,-20.9552,154.984],[146.8651,-20.9426,156.074],[146.8535,-20.9192,157.0821],[146.8542,-20.9121,152.5],[146.8631,-20.9022,152.5],[146.8622,-20.8951,155.2677],[146.866,-20.886,152.0],[146.856,-20.8702,152.0],[146.861,-20.86,154.0056],[146.8628,-20.8473,152.0],[146.8583,-20.8367,152.0],[146.8574,-20.8287,152.0],[146.8528,-20.8191,152.0],[146.8522,-20.8113,152.0],[146.8616,-20.7965,152.0],[146.8659,-20.7969,152.0],[146.8697,-20.801,152.0],[146.8746,-20.8018,152.0],[146.889,-20.7908,152.0],[146.9012,-20.7903,152.0],[146.9099,-20.7867,152.0],[146.9147,-20.7779,152.0],[146.917,-20.7615,152.0],[146.9204,-20.7574,152.0],[146.9417,-20.7533,152.0],[146.9612,-20.7402,152.0],[146.9656,-20.7144,152.0],[146.9645,-20.7023,152.0],[146.9609,-20.6887,152.0],[146.9613,-20.6844,152.0],[146.9648,-20.6761,152.0],[146.9806,-20.6712,152.0],[146.9845,-20.6671,152.0],[146.986,-20.6625,152.0],[146.9851,-20.6566,152.0],[146.9774,-20.646,152.0],[146.9726,-20.6329,152.0],[146.9727,-20.6236,152.0],[146.976,-20.6197,152.0],[147.0066,-20.6076,152.0],[147.0148,-20.6062,152.0],[147.0212,-20.6095,152.0],[147.0224,-20.6167,152.0],[147.0262,-20.6228,152.0],[147.0363,-20.6293,152.0],[147.0459,-20.631,152.0],[147.0537,-20.6263,152.0],[147.0622,-20.6271,152.0],[147.0674,-20.6345,152.0],[147.0733,-20.6489,152.0],[147.0789,-20.6528,152.0],[147.0864,-20.6522,152.0],[147.1012,-20.6389,152.0],[147.1118,-20.6359,152.0],[147.1242,-20.6377,152.0],[147.1331,-20.6411,152.0],[147.1486,-20.6518,94.25],[147.1561,-20.6517,93.2966],[147.1615,-20.6464,92.7462],[147.1646,-20.6352,89.3542],[147.1685,-20.6278,81.0],[147.178,-20.6186,85.2357],[147.1797,-20.6047,83.8119],[147.1841,-20.6022,83.1719],[147.1861,-20.6039,79.875],[147.1911,-20.6017,79.25],[147.1962,-20.5938,77.5],[147.2095,-20.5871,79.2036],[147.2146,-20.5767,78.1646],[147.2196,-20.5753,74.5],[147.228,-20.5815,75.3901],[147.2346,-20.584,70.5765],[147.2414,-20.5845,67.0],[147.2641,-20.5598,66.2492],[147.267,-20.5579,68.0661],[147.2769,-20.5562,65.0],[147.2795,-20.5524,65.0],[147.2799,-20.544,64.0],[147.2831,-20.5363,63.1471],[147.2848,-20.5246,60.5],[147.2884,-20.5178,60.5],[147.2992,-20.5081,60.5],[147.301,-20.5038,60.5],[147.3009,-20.4973,60.5],[147.2906,-20.4764,60.5],[147.2945,-20.4565,55.9477],[147.2978,-20.4474,51.0],[147.3086,-20.4384,50.5],[147.3351,-20.4292,49.0],[147.341,-20.4247,49.0],[147.345,-20.4133,49.6574],[147.3477,-20.3968,48.5],[147.217,-20.3836,466.5982],[147.2175,-20.381,497.0138],[147.2123,-20.3792,485.9416],[147.2067,-20.3748,455.5643],[147.2044,-20.3762,440.5661],[147.1993,-20.3749,499.6415],[147.199,-20.3724,503.3546],[147.1951,-20.3718,469.4194],[147.1958,-20.3679,412.8961],[147.194,-20.367,404.3366],[147.1951,-20.3609,434.2715],[147.2017,-20.3585,438.5245],[147.1935,-20.3499,416.7876],[147.1911,-20.3396,414.7326],[147.1821,-20.3337,396.5303],[147.1829,-20.3288,424.0411],[147.1794,-20.3232,427.0916],[147.1808,-20.3202,423.6044],[147.1751,-20.3094,457.6914],[147.1597,-20.2974,464.7401],[147.1582,-20.2979,481.4132],[147.1523,-20.2857,517.972],[147.1454,-20.2835,467.9445],[147.1437,-20.2775,457.1253],[147.1372,-20.2734,501.596],[147.1277,-20.2717,554.3629],[147.1285,-20.2688,528.5781],[147.1269,-20.2666,558.2197],[147.12,-20.2634,482.3228],[147.1108,-20.2646,477.5948],[147.1091,-20.2614,507.8569],[147.1114,-20.2575,439.0457],[147.1085,-20.2566,432.325],[147.1089,-20.2536,472.9351],[147.1132,-20.2511,444.9007],[147.1133,-20.2461,486.4548],[147.1155,-20.2435,524.869],[147.116,-20.2389,478.281],[147.1137,-20.2339,452.4769],[147.1069,-20.2327,369.1687],[147.1064,-20.2292,378.8684],[147.1092,-20.2278,348.1988],[147.1064,-20.2224,352.5965],[147.1025,-20.2193,349.8127],[147.1046,-20.2149,346.1708],[147.1072,-20.214,285.8002],[147.1068,-20.211,375.9551],[147.1082,-20.2096,375.4161],[147.104,-20.2033,546.7749],[147.0956,-20.1996,446.8564],[147.0946,-20.2012,450.7598],[147.0881,-20.2002,500.2943],[147.0873,-20.2016,500.9854],[147.0869,-20.198,500.1848],[147.085,-20.1979,501.2032],[147.079,-20.19,472.3725],[147.067,-20.1864,498.3539],[147.0653,-20.1816,517.0715],[147.0624,-20.1805,436.4415],[147.0616,-20.1782,441.8862],[147.0558,-20.1792,505.6674],[147.0512,-20.1759,497.5283],[147.0504,-20.1716,544.7595],[147.0471,-20.1705,554.5859],[147.0449,-20.1763,525.8337],[147.0396,-20.1784,533.1085],[147.0325,-20.1862,521.636],[147.0239,-20.186,513.2048],[147.0201,-20.1782,459.6125],[147.0166,-20.1862,519.1506],[147.0132,-20.1878,525.0188],[147.0114,-20.1925,580.9799],[147.0025,-20.195,606.069],[147.0009,-20.1905,558.2088],[146.9966,-20.1894,547.0643],[146.9954,-20.1875,553.3486],[146.9958,-20.1861,515.6951],[147.0034,-20.1832,539.8466],[147.0027,-20.1798,507.1599],[147.0041,-20.1783,526.6243],[147.0017,-20.1723,477.9163],[147.004,-20.1677,536.6888],[147.0016,-20.1647,528.7998],[147.0068,-20.16,509.7166],[147.0117,-20.159,501.9292],[147.0147,-20.1562,496.6829],[147.0167,-20.1506,522.5512],[147.015,-20.1422,558.8359],[147.0087,-20.1396,580.1528],[147.0046,-20.1405,575.1179],[146.9991,-20.1388,512.7578],[146.9947,-20.1312,473.284],[146.9885,-20.1333,437.9764],[146.984,-20.1279,466.4706],[146.974,-20.1228,427.1932],[146.9735,-20.117,448.2317],[146.9689,-20.1088,351.4109],[146.9682,-20.1038,352.0009],[146.964,-20.0998,308.2385],[146.9639,-20.093,302.1989],[146.9566,-20.087,318.1334],[146.9345,-20.0829,301.4656],[146.9371,-20.0758,330.2929],[146.9339,-20.0712,309.401],[146.9307,-20.0695,310.1224],[146.9271,-20.0715,318.786],[146.9259,-20.0694,295.8412],[146.9232,-20.069,298.3961],[146.9208,-20.0714,314.002],[146.9105,-20.0704,300.3492],[146.9059,-20.0666,309.4243],[146.9027,-20.0671,340.0568],[146.9021,-20.058,335.3121],[146.9047,-20.0508,337.4185],[146.897,-20.0431,362.5038],[146.8947,-20.0428,359.5765],[146.8932,-20.0403,360.1476],[146.8907,-20.0402,370.515],[146.885,-20.0357,383.9956],[146.8875,-20.0265,386.2294],[146.8859,-20.0218,371.5016],[146.8887,-20.0182,358.2994],[146.8893,-20.0145,363.6538],[146.8941,-20.0115,373.8123],[146.899,-20.0112,367.7594],[146.9053,-20.0139,384.8999],[146.9135,-20.0091,590.1029],[146.9117,-19.9999,430.8542],[146.9197,-19.9931,409.6674],[146.9189,-19.9887,438.7901],[146.9226,-19.9831,445.8259],[146.9207,-19.9804,375.0315],[146.9271,-19.9773,392.7054],[146.9298,-19.9793,409.228],[146.9298,-19.9757,375.1849],[146.932,-19.9724,391.6428],[146.9307,-19.9711,387.8517],[146.9271,-19.9727,382.959],[146.9242,-19.9704,382.7918],[146.9251,-19.9688,374.3111],[146.9239,-19.9647,368.6118],[146.9173,-19.9587,347.7955],[146.9138,-19.9532,340.4069],[146.9131,-19.9498,357.6997],[146.9157,-19.9434,262.5657],[146.9147,-19.9416,309.0729],[146.9091,-19.9402,348.825],[146.9079,-19.937,357.62],[146.9045,-19.9361,388.7236],[146.9056,-19.9321,348.6029],[146.9046,-19.9285,380.1534],[146.8966,-19.9173,336.6523],[146.8941,-19.9173,336.7104],[146.8884,-19.9105,366.3457],[146.8913,-19.9087,319.0074],[146.8911,-19.9051,372.6567],[146.8843,-19.9018,301.4097],[146.8815,-19.8983,275.5948],[146.8835,-19.8942,230.9916],[146.9163,-19.8975,115.8994],[146.9204,-19.8807,97.4277],[146.9286,-19.8667,97.188],[146.9228,-19.8589,100.9905],[146.9273,-19.8287,100.6745],[146.9267,-19.8089,75.2775],[146.9301,-19.7835,50.9858],[146.9185,-19.782,50.5815],[146.9068,-19.7711,62.7296],[146.8943,-19.7673,58.7144],[146.8845,-19.7683,62.3233],[146.8613,-19.7582,64.9883],[146.8502,-19.7555,63.3621],[146.8391,-19.7589,64.9908],[146.8331,-19.7585,69.4666],[146.8337,-19.7462,79.7694],[146.8427,-19.721,116.7913],[146.7225,-19.7089,466.1318],[146.54,-19.6864,544.1708],[146.5453,-19.6834,522.6913],[146.5558,-19.6817,456.9744],[146.5575,-19.6775,404.1403],[146.5548,-19.6758,422.2652],[146.5513,-19.6669,613.277],[146.5587,-19.6554,635.8411],[146.5534,-19.6496,553.5497],[146.5541,-19.6338,514.7475],[146.5529,-19.628,509.9205],[146.5538,-19.6213,522.6578],[146.5564,-19.6164,518.3513],[146.5556,-19.6123,515.4704],[146.5517,-19.6081,548.1198],[146.5489,-19.6014,600.6525],[146.5418,-19.5979,544.6036],[146.5415,-19.5949,546.7999],[146.5442,-19.5931,542.5349],[146.5412,-19.5856,564.781],[146.5378,-19.5824,549.2554],[146.5444,-19.5791,600.6684],[146.5483,-19.5716,564.8535],[146.5483,-19.5703,590.1084],[146.5414,-19.568,562.5173],[146.5424,-19.5555,515.9698],[146.5436,-19.5512,515.7238],[146.5487,-19.5489,518.5309],[146.5488,-19.5469,512.4041],[146.5545,-19.5458,497.4561],[146.5548,-19.5414,538.3824],[146.5592,-19.5401,585.2815],[146.5631,-19.534,573.9614],[146.5603,-19.527,531.399],[146.5614,-19.5237,551.8221],[146.5697,-19.5222,591.8138],[146.57,-19.5197,583.6247],[146.5732,-19.5194,608.2056],[146.5754,-19.5155,630.8748],[146.5831,-19.514,632.6157],[146.5852,-19.5112,649.4405],[146.5807,-19.5051,595.6393],[146.582,-19.4998,590.2714],[146.5793,-19.4921,561.6837],[146.5801,-19.484,549.045],[146.578,-19.4792,544.9706],[146.5807,-19.4778,516.9604],[146.5792,-19.47,548.4489],[146.5761,-19.465,541.3068],[146.5769,-19.4612,561.4433],[146.561,-19.4514,619.0253],[146.5627,-19.4498,616.0833],[146.5629,-19.4467,604.2396],[146.5609,-19.4418,564.2433],[146.5649,-19.4395,548.2361],[146.5654,-19.4364,548.3835],[146.5678,-19.4366,525.7321],[146.5612,-19.4177,553.8887],[146.5629,-19.4152,547.4727],[146.5678,-19.4157,556.1782],[146.563,-19.4091,568.6537],[146.5645,-19.4018,487.986],[146.5632,-19.4001,560.5253],[146.5587,-19.401,552.2197],[146.5565,-19.4031,546.4385],[146.5569,-19.4088,536.6885],[146.5603,-19.4148,554.1669],[146.5558,-19.4129,513.4318],[146.5538,-19.4167,557.2071],[146.5492,-19.4111,508.1751],[146.5477,-19.4118,544.6627],[146.5459,-19.4102,511.3817],[146.5448,-19.4062,489.83],[146.5414,-19.4063,543.3954],[146.5411,-19.4031,547.4481],[146.5352,-19.3935,513.9467],[146.527,-19.3945,483.0143],[146.5302,-19.4024,518.3446],[146.5243,-19.4019,542.8809],[146.5216,-19.3996,545.1266],[146.5203,-19.4028,538.6827],[146.5183,-19.4023,539.9907],[146.516,-19.3966,556.0938],[146.5176,-19.3949,548.9732],[146.5158,-19.3907,516.857],[146.5061,-19.3878,546.9403],[146.5061,-19.3841,563.4296],[146.5029,-19.3837,572.6355],[146.4991,-19.3766,631.9172],[146.4952,-19.3771,610.9958],[146.4907,-19.3736,619.5537],[146.4846,-19.3782,576.6854],[146.4803,-19.3746,466.6366],[146.4698,-19.3718,464.5393],[146.4655,-19.3673,446.7385],[146.4668,-19.3662,420.6988],[146.4646,-19.3566,359.8229],[146.4552,-19.3555,371.069],[146.461,-19.3525,306.4062],[146.4611,-19.3414,341.0289],[146.4579,-19.3422,431.5357],[146.4524,-19.3373,574.2697],[146.4458,-19.3362,626.5858],[146.4439,-19.3343,599.3396],[146.4443,-19.3297,587.1043],[146.456,-19.3219,651.5194],[146.4634,-19.3214,661.4219],[146.4651,-19.3198,686.086],[146.4564,-19.3184,681.4934],[146.4522,-19.3138,629.0988],[146.4459,-19.3128,597.1065],[146.4435,-19.3086,552.8802],[146.4439,-19.3035,574.7913],[146.4456,-19.3012,622.822],[146.4447,-19.3005,622.822],[146.4355,-19.2992,603.7008],[146.4255,-19.2999,686.0732],[146.4242,-19.2956,641.6716],[146.425,-19.2895,657.2303],[146.4235,-19.2882,701.5941],[146.4174,-19.2884,780.4061],[146.4158,-19.2931,686.9871],[146.4048,-19.2908,757.1368],[146.4104,-19.2834,697.1817],[146.4224,-19.2769,601.7158],[146.4131,-19.2584,542.9971],[146.4005,-19.2515,710.1558],[146.4067,-19.2423,636.1025],[146.4091,-19.2412,509.717],[146.4043,-19.2384,583.871],[146.4036,-19.2353,576.6895],[146.41,-19.2282,670.5313],[146.4189,-19.2231,633.0327],[146.4226,-19.2158,675.9348],[146.4223,-19.2134,686.1689],[146.4159,-19.205,751.6164],[146.4139,-19.1955,620.2314],[146.4031,-19.1923,694.4331],[146.4009,-19.1865,733.3188],[146.3945,-19.1864,687.085],[146.3939,-19.1734,713.379],[146.3839,-19.1623,790.3338],[146.392,-19.1565,871.1802],[146.396,-19.1557,867.4965],[146.3969,-19.1521,853.0789],[146.3937,-19.1485,828.5145],[146.3884,-19.1465,818.6792],[146.3865,-19.1402,775.7911],[146.3801,-19.133,889.8988],[146.3785,-19.1259,1004.8483],[146.3751,-19.1239,1030.2659],[146.3736,-19.1203,939.1392],[146.3611,-19.1188,942.8475],[146.3578,-19.1168,876.9949],[146.3527,-19.1201,831.5209],[146.3468,-19.1193,790.9779],[146.3413,-19.1225,918.1365],[146.3377,-19.1167,935.7427],[146.3323,-19.1234,908.7124],[146.326,-19.125,891.262],[146.3245,-19.1241,894.7877],[146.3187,-19.1125,862.4955],[146.3099,-19.1075,843.6863],[146.3133,-19.103,768.1868],[146.3125,-19.0956,793.5017],[146.307,-19.085,720.7664],[146.2994,-19.0768,663.7072],[146.3,-19.069,707.5976],[146.2962,-19.0699,690.364],[146.2909,-19.0684,757.0221],[146.281,-19.0619,549.1641],[146.2759,-19.0522,535.0571],[146.2707,-19.0464,718.4103],[146.2472,-19.0437,832.3247],[146.2383,-19.0459,933.7888],[146.2366,-19.0448,931.1583],[146.2366,-19.0419,920.349],[146.2439,-19.0362,858.8297],[146.2413,-19.0292,928.655],[146.2434,-19.0266,948.735],[146.2482,-19.0259,852.7748],[146.2387,-19.0195,765.4156],[146.2389,-19.0162,916.0854],[146.2435,-19.0129,896.9253],[146.243,-19.0106,899.9148],[146.241,-19.0105,907.71],[146.2388,-19.0132,918.2772],[146.2321,-19.0138,925.1205],[146.2283,-19.0116,874.3461],[146.222,-19.0118,854.1456],[146.2201,-19.0103,852.9203],[146.2166,-19.0107,857.4125],[146.2164,-19.0137,822.0256],[146.1993,-19.0141,871.1463],[146.1996,-19.0105,887.4336],[146.1931,-19.0084,884.4362],[146.1886,-19.0109,886.1465],[146.1849,-19.0093,893.5621],[146.1815,-19.0137,893.3805],[146.1747,-19.013,891.4076],[146.1474,-18.9588,881.4905],[146.1446,-18.9504,919.5187],[146.1469,-18.9408,918.3831],[146.1578,-18.9361,927.5665],[146.1673,-18.9354,921.6636],[146.1665,-18.9322,937.0927],[146.1581,-18.9289,929.6804],[146.1542,-18.9229,929.2225],[146.1481,-18.9279,930.4413],[146.1429,-18.9267,929.1072],[146.1405,-18.9234,904.8435],[146.1324,-18.9224,869.2902],[146.1313,-18.9237,872.4624],[146.1263,-18.9236,862.7924],[146.1188,-18.9265,832.5509],[146.1189,-18.9291,840.5887],[146.1154,-18.9285,837.7908],[146.1129,-18.9321,823.9307],[146.1103,-18.933,836.9171],[146.1018,-18.9299,793.1704],[146.0931,-18.9216,723.9055],[146.0874,-18.9244,723.6113],[146.0836,-18.9213,751.2178],[146.0803,-18.9227,770.3124],[146.0792,-18.9211,755.5073],[146.0807,-18.9188,750.4072],[146.0784,-18.9146,738.6531],[146.0733,-18.9134,743.9569],[146.0705,-18.9077,751.8787],[146.064,-18.9051,762.9417],[146.0616,-18.9094,762.9884],[146.0578,-18.9116,756.0289],[146.0559,-18.9104,777.5068],[146.0527,-18.9166,756.6129],[146.0468,-18.9163,738.7388],[146.0425,-18.9191,746.2365],[146.0286,-18.9108,731.7207],[146.0263,-18.9123,725.622],[146.0271,-18.9167,746.0181],[146.0255,-18.9185,724.2129],[146.0206,-18.9185,747.8817],[146.0159,-18.915,761.2079],[146.0149,-18.9108,737.3179],[146.0112,-18.9065,741.0589],[146.0024,-18.9034,745.0674],[146.0078,-18.8963,740.1232],[146.0076,-18.886,751.6227],[145.9996,-18.8776,776.8593],[145.9982,-18.8741,801.2375],[145.9913,-18.8818,769.1613],[145.9885,-18.8822,769.8596],[145.9767,-18.8779,776.4083],[145.9658,-18.8795,791.2628],[145.9595,-18.8738,791.3716],[145.96,-18.8675,783.4962],[145.9518,-18.8612,753.6384],[145.9473,-18.8635,790.5485],[145.9378,-18.8598,773.8211],[145.9354,-18.8828,725.1149],[145.8647,-18.8758,683.1973],[145.8657,-18.8625,728.4657],[145.8561,-18.8651,719.0254],[145.8521,-18.8685,732.686],[145.8478,-18.8642,711.2736],[145.8379,-18.8613,705.0922],[145.8377,-18.8559,695.3469],[145.8333,-18.848,664.8695],[145.8296,-18.8494,666.7185],[145.826,-18.8448,660.3222],[145.8197,-18.8423,689.7642],[145.8185,-18.8451,667.8564],[145.7966,-18.843,598.9764],[145.7975,-18.8314,671.8561],[145.7941,-18.8302,655.8467],[145.7853,-18.8206,659.7334],[145.7789,-18.8207,655.5511],[145.7752,-18.8172,686.2607],[145.7771,-18.8064,669.6785],[145.7853,-18.8071,632.6814],[145.791,-18.8039,652.7441],[145.792,-18.8017,665.0889],[145.7906,-18.7996,674.1652],[145.7928,-18.7788,647.9871],[145.8019,-18.7781,662.8038],[145.8028,-18.7708,650.5614],[145.8017,-18.7684,644.8691],[145.7993,-18.7646,637.6068],[145.7958,-18.7643,619.0339],[145.7922,-18.7607,633.5319],[145.7936,-18.7563,655.6761],[145.7958,-18.7549,680.0477],[145.7958,-18.7511,698.8427],[145.8018,-18.7506,692.432],[145.8164,-18.6173,596.5364],[145.8048,-18.6162,564.6681],[145.8059,-18.6118,559.6724],[145.8022,-18.609,563.0611],[145.8024,-18.6075,571.0372],[145.7922,-18.6065,609.2742],[145.7956,-18.5773,435.5712],[145.8106,-18.5787,386.9621],[145.8098,-18.5859,459.9372],[145.8324,-18.5987,601.3319],[145.8417,-18.5961,609.5468],[145.8441,-18.5925,575.2631],[145.8362,-18.5794,597.2633],[145.8365,-18.5773,578.7869],[145.8338,-18.5768,605.4547],[145.8335,-18.5727,523.1416],[145.832,-18.5718,579.9246],[145.8335,-18.5676,607.6985],[145.8259,-18.5632,591.9864],[145.8253,-18.5605,585.5436],[145.8196,-18.5571,595.8331],[145.8189,-18.5541,592.6879],[145.8142,-18.5512,543.176],[145.8134,-18.5465,496.339],[145.8108,-18.5432,386.9712],[145.8147,-18.5362,409.7356],[145.8136,-18.5308,427.9705],[145.7908,-18.5008,572.2975],[145.7721,-18.5237,568.6687],[145.7601,-18.5147,554.4094],[145.7789,-18.492,139.9223],[145.7444,-18.4667,636.8334],[145.7448,-18.462,610.1555],[145.7412,-18.4616,646.5029],[145.7378,-18.4528,595.0839],[145.7361,-18.4573,693.5594],[145.7292,-18.4535,680.0959],[145.7324,-18.4618,639.9878],[145.7288,-18.4656,647.5916],[145.7252,-18.4662,652.9091],[145.7251,-18.4683,659.6266],[145.7126,-18.4679,667.7942],[145.7081,-18.4709,742.9009],[145.7143,-18.4803,686.8354],[145.7143,-18.4837,710.9001],[145.7169,-18.4877,733.5587],[145.7148,-18.4887,712.0284],[145.4997,-18.4624,563.3481],[145.4942,-18.577,658.1884],[145.3904,-18.565,547.7173],[145.384,-18.5704,552.8558],[145.3579,-18.5365,546.0069],[145.297,-18.4642,515.9174],[145.3024,-18.4556,517.4791],[145.2791,-18.4396,548.6233],[145.2865,-18.43,577.7871],[145.26,-18.4273,594.9461],[145.268,-18.355,657.7911],[145.1955,-18.3477,634.6282],[145.1947,-18.3495,640.6903],[145.1669,-18.3467,633.2455],[145.1595,-18.3517,620.1673],[145.16,-18.3544,619.6479],[145.1577,-18.3578,617.2402],[145.1582,-18.363,617.1457],[145.1564,-18.3643,617.1457],[145.1497,-18.3653,620.5161],[145.1449,-18.3608,617.4834],[145.1388,-18.3578,620.1891],[145.1375,-18.3596,607.4781],[145.1391,-18.3615,607.8177],[145.1353,-18.3615,606.6707],[145.1325,-18.3686,608.1602],[145.1324,-18.3718,607.7031],[145.1354,-18.3772,602.7273],[145.1327,-18.378,611.7439],[145.1327,-18.3795,611.7439],[145.1342,-18.385,599.2925],[145.1387,-18.3906,598.4377],[145.1501,-18.3941,588.2499],[145.1521,-18.3924,595.1353],[145.1617,-18.3917,574.7377],[145.1633,-18.3954,569.578],[145.1608,-18.4004,569.5635],[145.1641,-18.415,568.1648],[145.1833,-18.4318,544.0081],[145.18,-18.4461,567.2583],[145.1823,-18.4488,572.2213],[145.182,-18.4721,551.4383],[145.1857,-18.4798,548.3767],[145.1781,-18.4791,547.5941],[145.1728,-18.489,508.3321],[145.1748,-18.4913,506.493],[145.1743,-18.4939,506.4734],[145.1842,-18.4948,544.9874],[145.1825,-18.5114,502.0768],[145.179,-18.5123,509.2679],[145.1702,-18.5264,521.5001],[145.1609,-18.5344,496.9802],[145.1576,-18.5397,497.1332],[145.1578,-18.5457,495.7738],[145.1394,-18.5643,493.4102],[145.1397,-18.5727,492.6017],[145.1335,-18.5783,494.5747],[145.131,-18.5725,497.3495],[145.1339,-18.5687,520.8442],[145.134,-18.565,526.6028],[145.1279,-18.5578,527.947],[145.1161,-18.556,506.8053],[145.1125,-18.5575,505.7982],[145.1129,-18.5587,506.2435],[145.1102,-18.5607,507.6261],[145.1042,-18.562,508.5141],[145.0995,-18.5672,514.248],[145.096,-18.5657,518.1689],[145.0919,-18.5666,521.1713],[145.0879,-18.5608,529.2951],[145.0793,-18.5601,535.9678],[145.0748,-18.5541,549.976],[145.0618,-18.5539,557.8772],[145.058,-18.5495,564.9614],[145.0549,-18.549,567.8113],[145.0535,-18.5439,567.0483],[145.0565,-18.5414,567.8968],[145.0503,-18.5349,575.6827],[145.0531,-18.5316,578.8159],[145.0499,-18.5262,580.4019],[145.0521,-18.5175,583.278],[145.0484,-18.514,585.692],[144.9811,-18.5071,602.808],[144.982,-18.4947,612.8409],[144.974,-18.4894,618.6205],[144.9748,-18.4856,619.9187],[144.9708,-18.4745,629.5557],[144.9712,-18.4719,634.483],[144.9689,-18.4691,637.2667],[144.9629,-18.4742,633.3844],[144.9642,-18.4821,631.095],[144.9619,-18.4859,629.9476],[144.9572,-18.4834,630.9336],[144.9551,-18.478,633.1312],[144.9513,-18.4772,635.5362],[144.953,-18.4844,631.3199],[144.9471,-18.498,620.9972],[144.9516,-18.5043,618.7988],[144.9222,-18.5015,627.2913],[144.9199,-18.5165,609.153],[144.9241,-18.5229,603.2888],[144.8783,-18.518,642.8081],[144.8805,-18.4975,650.4958],[144.8366,-18.4932,672.2307],[144.8383,-18.4361,742.4323],[144.8444,-18.4082,758.0718],[144.8519,-18.4002,764.7047],[144.8552,-18.3696,809.7887],[144.8481,-18.369,806.6021],[144.8395,-18.3726,795.3363],[144.8272,-18.3719,819.9929],[144.7926,-18.3586,900.0699],[144.7601,-18.3563,929.9412],[144.7408,-18.3186,960.9207],[144.687,-18.3137,892.7318],[144.6598,-18.5652,631.0296],[144.6516,-18.6266,561.8258],[144.7641,-18.6385,540.4081],[144.7871,-18.6613,516.7109],[144.7417,-18.7027,496.3738],[144.7469,-18.7075,489.9234],[144.7439,-18.7125,491.7885],[144.7451,-18.7219,484.5613],[144.7509,-18.7251,482.6063],[144.7556,-18.7253,482.1746],[144.758,-18.7285,481.065],[144.7654,-18.7286,479.6575],[144.7775,-18.7407,474.7931],[144.7867,-18.734,473.2998],[144.792,-18.7332,477.9502],[144.8025,-18.7444,474.4844],[144.8006,-18.7496,468.4091],[144.8059,-18.7523,466.7507],[144.8068,-18.7573,470.2479],[144.8046,-18.7618,464.4637],[144.8076,-18.7645,465.173],[144.8084,-18.7696,472.683],[144.7454,-18.818,582.5957],[144.7903,-18.871,499.3768],[144.7074,-18.9359,627.0775],[144.6979,-18.9959,593.358],[144.6987,-19.0005,580.3762],[144.6997,-19.0052,574.5192],[144.7153,-19.0168,567.8796],[144.7744,-19.148,596.3776],[144.7944,-19.1622,567.7943],[144.812,-19.1563,556.239],[144.8251,-19.1578,532.7556],[144.8324,-19.1609,529.4545],[144.772,-19.2056,544.6002],[144.7508,-19.1807,571.0671],[144.6874,-19.2393,616.1238],[144.6335,-19.2853,661.1017],[144.6236,-19.2964,708.9191],[144.6194,-19.3062,686.171],[144.6178,-19.3196,764.1991],[144.5986,-19.3178,679.4832],[144.5915,-19.3797,763.7716],[144.4746,-19.3707,672.4708],[144.4681,-19.4474,819.3083],[144.4508,-19.4413,758.2435],[144.3875,-19.4307,794.2456],[144.3696,-19.4301,752.7699],[144.3517,-19.4239,717.4414],[144.3449,-19.5015,829.2744],[144.3026,-19.4974,908.6354],[144.2957,-19.5665,920.8799],[144.2852,-19.5733,964.6917],[144.2939,-19.5787,934.9379],[144.3087,-19.5761,907.7549],[144.3201,-19.5762,897.5419],[144.3313,-19.5777,887.7932],[144.3549,-19.5843,894.0313],[144.3551,-19.5823,895.2534],[144.4256,-19.6109,858.294],[144.3957,-19.9346,963.5101],[144.4013,-19.9393,957.3978],[144.4101,-19.9418,957.4796],[144.4102,-19.9465,942.9791],[144.4184,-19.9509,964.0414],[144.426,-19.965,960.772],[144.4265,-19.9699,971.6033],[144.4309,-19.9763,961.9315],[144.4512,-19.976,922.2402],[144.4529,-19.973,912.2269],[144.4599,-19.9713,919.4404],[144.4634,-19.9734,923.52],[144.4742,-19.9742,924.6703],[144.4745,-19.9697,916.812],[144.4776,-19.964,933.1021],[144.4798,-19.9626,937.8236],[144.4856,-19.9632,934.7919],[144.4915,-19.9535,929.2285],[144.5588,-19.953,900.1663],[144.5799,-19.9876,912.0599],[144.5917,-19.9914,895.5361],[144.6204,-19.9919,927.0802],[144.6221,-19.9693,928.7578],[144.6669,-20.0284,771.0236],[144.6636,-20.0583,741.8558],[144.7756,-20.0666,719.0186],[144.7722,-20.1041,723.8909],[144.774,-20.1054,712.3181],[144.7719,-20.129,668.1354],[144.8133,-20.169,688.4915],[144.84,-20.2052,689.8027],[144.8415,-20.2146,685.5315],[144.8248,-20.2331,746.28],[144.8208,-20.2456,690.5391],[144.8206,-20.2635,639.4357],[144.8304,-20.2767,611.2167],[144.8323,-20.2932,594.8989],[144.8259,-20.3168,583.3383],[144.8201,-20.3296,570.9832],[144.8204,-20.3325,585.9131],[144.9088,-20.3726,628.3733],[144.9055,-20.4073,684.5365],[144.9316,-20.4094,682.2749],[144.9326,-20.4124,684.6038],[144.9325,-20.4145,695.5641],[144.9244,-20.4152,692.1887],[144.9157,-20.4231,687.3232],[144.9093,-20.4381,754.2009],[144.9112,-20.4445,761.9859],[144.9182,-20.4472,755.6458],[144.9191,-20.457,693.9315],[144.9224,-20.4623,746.2693],[144.9342,-20.4585,724.7051],[144.9455,-20.4636,718.8323],[144.9478,-20.4679,709.475],[144.9581,-20.4713,659.4818],[144.9608,-20.4675,684.649],[144.9712,-20.4682,670.0626],[144.9735,-20.4724,643.1489],[144.9736,-20.4775,647.3557],[144.9841,-20.4831,612.6801],[144.988,-20.4871,621.8729],[144.993,-20.4882,615.5862],[144.9983,-20.4916,609.0844],[145.0031,-20.4981,571.3295],[145.0044,-20.509,586.9596],[145.0086,-20.5138,562.5493],[145.0092,-20.5164,558.9175],[145.006,-20.523,555.5298],[145.0062,-20.5286,548.6846],[145.0101,-20.5368,520.1525],[145.0206,-20.5503,562.2452],[145.026,-20.5538,583.9133],[145.0287,-20.56,543.5311],[145.0359,-20.5689,527.4421],[145.0483,-20.5809,529.6807],[145.0635,-20.5892,565.5448],[145.0975,-20.6195,591.6827],[145.0973,-20.6278,590.9589],[145.1894,-20.6338,494.7406],[145.1829,-20.7286,558.6095],[145.1806,-20.7292,557.8753],[145.1815,-20.7326,554.3893],[145.184,-20.7319,553.8677],[145.1637,-20.9703,407.679],[145.2274,-20.9748,404.3114],[145.2196,-21.0653,399.0814],[145.173,-21.0618,380.6175],[145.1811,-21.0913,376.0361],[145.2177,-21.1217,364.8485],[145.2211,-21.1718,356.2084],[145.2563,-21.1745,366.8968],[145.2433,-21.2773,334.2515],[145.2503,-21.2768,333.2232],[145.2559,-21.2806,331.9323],[145.2496,-21.315,333.1762],[145.2575,-21.3399,329.0343],[145.2626,-21.3489,336.0392],[145.2797,-21.3944,334.0453],[145.2897,-21.4082,334.8217],[145.2904,-21.4144,334.7383],[145.2905,-21.4259,324.6299],[145.2751,-21.4461,300.8338],[145.262,-21.4582,298.9737],[145.3239,-21.4643,306.078],[145.3268,-21.468,303.0451],[145.3295,-21.4682,305.8611],[145.3352,-21.4654,311.3903],[145.3563,-21.4675,349.3452],[145.3582,-21.4538,346.7831],[145.4648,-21.4614,383.551],[145.4529,-21.5662,329.1648],[145.5396,-21.5748,385.1826],[145.5328,-21.6583,311.8723],[145.6785,-21.6682,366.5362],[145.6738,-21.7187,406.7119],[145.6618,-21.7243,383.3724],[145.6458,-21.7975,342.809],[145.6406,-21.894,368.2892],[145.6302,-21.8929,364.5946],[145.6272,-21.9267,379.7524],[145.6683,-21.932,372.5273],[145.6612,-22.0412,428.2583],[145.7701,-22.0485,376.7028],[145.7696,-22.0666,414.0571],[145.8806,-22.0804,342.7183],[145.8803,-22.0847,336.239],[146.0314,-22.1048,288.9992]]]]}}