{"type":"Feature","properties":{"GID_2":"AUS.11.20_1","GID_0":"AUS","country":"Australia","GID_1":"AUS.11_1","state":"WesternAustralia","NL_NAME_1":"NA","county":"Capel","VARNAME_2":"NA","NL_NAME_2":"NA","TYPE_2":"Shire","ENGTYPE_2":"Shire","CC_2":"51400","HASC_2":"AU.WA.CP","name":"Capel.county"},
"geometry":{"type": "MultiPolygon","coordinates": [[[[115.6097,-33.3813,7.9187],[115.5934,-33.4215,5.7835],[115.5736,-33.4538,1.3456],[115.5663,-33.4624,3.8026],[115.5606,-33.4652,0.0],[115.5573,-33.4703,1.7336],[115.5503,-33.4755,1.7994],[115.5394,-33.4902,6.8267],[115.532,-33.4964,2.9866],[115.4872,-33.5463,4.8406],[115.4533,-33.5806,2.0445],[115.4575,-33.5841,-0.3491],[115.4628,-33.5807,0.367],[115.4706,-33.5851,4.1538],[115.4715,-33.5862,3.5065],[115.4685,-33.5914,2.5787],[115.4745,-33.596,5.1489],[115.4745,-33.6004,4.6143],[115.4773,-33.6002,10.9612],[115.4795,-33.6035,13.9009],[115.4816,-33.6043,14.8021],[115.4854,-33.6014,12.3428],[115.491,-33.6012,10.2124],[115.4917,-33.6113,11.7757],[115.5025,-33.6113,19.1274],[115.5025,-33.603,11.8323],[115.5489,-33.6025,27.0333],[115.5492,-33.6102,28.2794],[115.5614,-33.6103,29.88],[115.5658,-33.6126,38.9808],[115.5674,-33.6173,33.7991],[115.5705,-33.6178,32.9548],[115.5714,-33.6195,36.0013],[115.5766,-33.6188,39.866],[115.5832,-33.6219,34.6764],[115.5836,-33.6388,37.4836],[115.5874,-33.6388,37.9259],[115.5874,-33.6406,38.4964],[115.5852,-33.6407,38.3167],[115.5854,-33.6479,42.3724],[115.5876,-33.6479,41.8002],[115.5879,-33.666,52.2915],[115.5956,-33.6661,53.8329],[115.5975,-33.6678,58.5479],[115.6023,-33.6683,67.446],[115.6077,-33.6728,60.0139],[115.6078,-33.6668,69.3509],[115.7016,-33.6668,100.037],[115.7015,-33.6715,89.8095],[115.7079,-33.6716,83.9212],[115.7079,-33.6593,93.1025],[115.715,-33.6593,93.9237],[115.7172,-33.6634,89.0785],[115.7212,-33.6633,79.9925],[115.7215,-33.6564,61.6716],[115.7181,-33.655,64.1961],[115.7173,-33.6512,63.0626],[115.7158,-33.6512,61.8231],[115.7158,-33.6434,106.8995],[115.7198,-33.6434,129.8487],[115.7198,-33.6463,96.4174],[115.7277,-33.6459,113.2058],[115.7278,-33.5467,129.3413],[115.7304,-33.5467,134.2295],[115.7304,-33.5333,91.4762],[115.7588,-33.5333,54.005],[115.7539,-33.5257,50.0743],[115.7559,-33.5257,46.8282],[115.7549,-33.5214,48.4034],[115.7773,-33.5214,111.9803],[115.7774,-33.4904,57.8286],[115.7829,-33.4828,97.5159],[115.7774,-33.4811,114.799],[115.7775,-33.4528,83.4227],[115.7381,-33.4518,35.9261],[115.7381,-33.4478,33.2254],[115.7253,-33.4478,33.4941],[115.7278,-33.4429,28.4076],[115.7238,-33.441,30.6094],[115.7243,-33.4386,28.8872],[115.7212,-33.4359,27.3786],[115.7201,-33.4316,28.842],[115.7165,-33.431,31.769],[115.7105,-33.4264,28.6122],[115.7111,-33.422,22.6763],[115.7061,-33.4197,23.1195],[115.7057,-33.4145,19.4511],[115.7086,-33.4126,21.8015],[115.7048,-33.409,19.8792],[115.7059,-33.4062,18.4296],[115.703,-33.4039,18.427],[115.7027,-33.4088,18.7324],[115.6975,-33.3995,17.1226],[115.6881,-33.3928,15.87],[115.6855,-33.3863,15.6684],[115.636,-33.3854,8.7636],[115.6306,-33.3858,21.4758],[115.6301,-33.3873,13.066],[115.6097,-33.3813,7.9187]]]]}}