{"type":"Feature","properties":{"GID_2":"AUS.11.48_1","GID_0":"AUS","country":"Australia","GID_1":"AUS.11_1","state":"WesternAustralia","NL_NAME_1":"NA","county":"Exmouth","VARNAME_2":"NA","NL_NAME_2":"NA","TYPE_2":"Shire","ENGTYPE_2":"Shire","CC_2":"53360","HASC_2":"AU.WA.EX","name":"Exmouth.county"},
"geometry":{"type": "MultiPolygon","coordinates": [[[[114.1721,-22.449,3.4322],[114.1724,-22.4463,2.1892],[114.168,-22.4464,0.0],[114.1696,-22.4551,3.4491],[114.1507,-22.4796,0.0],[114.147,-22.4875,0.0],[114.1476,-22.4894,0.688],[114.1519,-22.4826,0.8667],[114.1589,-22.4759,2.9211],[114.1666,-22.4738,6.4334],[114.1691,-22.462,1.071],[114.1709,-22.461,0.0],[114.1723,-22.4567,2.7382],[114.1721,-22.449,3.4322]]],
[[[114.1318,-22.4574,1.7411],[114.1312,-22.4596,0.0],[114.132,-22.4602,0.4429],[114.1331,-22.4569,1.7411],[114.1318,-22.4574,1.7411]]],
[[[114.1386,-22.4482,1.7365],[114.1379,-22.4453,2.529],[114.1401,-22.4442,2.6538],[114.1418,-22.4372,0.0],[114.138,-22.4403,2.3379],[114.136,-22.4472,3.465],[114.1367,-22.4504,1.0982],[114.1386,-22.4482,1.7365]]],
[[[114.1516,-22.4426,0.0],[114.1508,-22.4423,0.0],[114.1502,-22.443,0.0],[114.1511,-22.4435,0.4808],[114.1516,-22.4426,0.0]]],
[[[114.3039,-22.4283,0.3155],[114.3037,-22.4293,0.3155],[114.3051,-22.4302,0.3197],[114.3052,-22.4292,0.0],[114.3039,-22.4283,0.3155]]],
[[[114.1824,-22.4152,1.2744],[114.1819,-22.4237,2.0509],[114.1849,-22.425,1.6489],[114.1888,-22.4224,2.5015],[114.1869,-22.4138,5.1989],[114.1816,-22.4107,1.213],[114.1806,-22.4135,0.0],[114.1824,-22.4152,1.2744]]],
[[[114.1838,-22.3986,1.5529],[114.1827,-22.4002,0.0],[114.1833,-22.4011,3.0845],[114.1844,-22.3999,3.0845],[114.1838,-22.3986,1.5529]]],
[[[114.6138,-22.5047,15.4176],[114.5587,-22.5046,11.1833],[114.5589,-22.2778,0.0],[114.432,-22.2781,0.0],[114.434,-22.2806,0.4558],[114.4337,-22.286,2.4971],[114.4396,-22.2906,0.6077],[114.4473,-22.2928,1.3711],[114.4534,-22.2914,0.7632],[114.4614,-22.2926,1.0214],[114.4565,-22.2933,0.9843],[114.449,-22.3001,1.3317],[114.4514,-22.3028,1.2131],[114.4497,-22.3028,0.8726],[114.451,-22.306,1.3811],[114.454,-22.3065,0.8849],[114.456,-22.3093,1.3766],[114.4554,-22.3115,1.1742],[114.4542,-22.3078,0.8849],[114.4507,-22.3068,1.3301],[114.4516,-22.3161,1.2889],[114.458,-22.3211,0.3793],[114.4614,-22.3277,1.1729],[114.4605,-22.3297,0.741],[114.4542,-22.3206,0.8765],[114.4491,-22.3171,0.0],[114.447,-22.3042,0.313],[114.4336,-22.295,1.386],[114.4309,-22.2974,0.3564],[114.4397,-22.304,0.6071],[114.4252,-22.2997,0.548],[114.4231,-22.3006,0.0],[114.4166,-22.3096,1.1401],[114.4182,-22.3139,1.1954],[114.4262,-22.3202,1.1359],[114.4199,-22.3161,0.5556],[114.4147,-22.3162,0.4687],[114.412,-22.3188,0.562],[114.4087,-22.3312,0.6688],[114.4098,-22.3328,1.0672],[114.4156,-22.3324,1.1878],[114.4125,-22.3348,0.5303],[114.4142,-22.3396,0.6079],[114.4242,-22.3462,1.5082],[114.4356,-22.3457,0.9801],[114.4433,-22.3429,1.4904],[114.4317,-22.349,0.0],[114.4309,-22.3517,0.1363],[114.4408,-22.3584,0.8086],[114.448,-22.3574,0.6264],[114.4516,-22.3626,1.361],[114.448,-22.3584,1.5609],[114.4391,-22.3592,0.3133],[114.4366,-22.3571,0.419],[114.4358,-22.3584,0.0],[114.4372,-22.3602,0.1992],[114.4457,-22.3637,1.3789],[114.4399,-22.3629,0.3397],[114.4408,-22.3675,1.4281],[114.4383,-22.3629,1.3791],[114.4246,-22.3523,0.3181],[114.41,-22.35,0.681],[114.407,-22.3509,0.1632],[114.4062,-22.3528,0.7514],[114.406,-22.3567,0.6081],[114.4088,-22.3621,0.3303],[114.4114,-22.3639,1.1322],[114.417,-22.3635,0.7919],[114.4108,-22.365,0.7796],[114.4044,-22.3586,0.4818],[114.4009,-22.3599,0.0],[114.3969,-22.3717,0.0],[114.3974,-22.3853,1.9298],[114.3993,-22.3869,0.397],[114.4055,-22.3866,1.43],[114.4193,-22.3954,0.9568],[114.4224,-22.3938,1.5928],[114.4233,-22.3957,1.7409],[114.4186,-22.3966,1.6189],[114.4145,-22.3953,0.6793],[114.4165,-22.3991,1.5535],[114.4063,-22.3918,0.0],[114.3943,-22.3904,0.0],[114.3928,-22.3922,0.0],[114.3955,-22.4026,1.5066],[114.4021,-22.403,1.6549],[114.4011,-22.4046,1.5025],[114.3973,-22.4048,1.4114],[114.392,-22.4018,0.2161],[114.3904,-22.4026,0.7625],[114.3898,-22.4121,0.9802],[114.3924,-22.4215,0.1722],[114.4025,-22.4264,0.9803],[114.4026,-22.4282,0.6388],[114.4079,-22.4292,1.6032],[114.4032,-22.4302,1.6423],[114.3985,-22.4269,0.744],[114.3923,-22.4266,0.0],[114.3913,-22.428,0.9829],[114.386,-22.4266,0.426],[114.3848,-22.4293,0.8401],[114.3863,-22.4341,0.2533],[114.3911,-22.4371,0.4985],[114.4053,-22.4389,1.6982],[114.3997,-22.4407,1.2864],[114.3917,-22.439,0.457],[114.393,-22.4463,1.4993],[114.3882,-22.439,0.2163],[114.3821,-22.4386,0.4927],[114.3803,-22.4413,0.7979],[114.3814,-22.4457,0.9853],[114.3858,-22.4501,0.9314],[114.3852,-22.4522,0.4532],[114.3883,-22.4527,0.9383],[114.3918,-22.457,0.5803],[114.39,-22.461,1.0537],[114.4003,-22.4633,1.1723],[114.4038,-22.4694,1.6505],[114.396,-22.464,0.7582],[114.3871,-22.4634,0.6575],[114.3836,-22.4648,1.5964],[114.3817,-22.4764,0.8905],[114.3771,-22.4761,0.0],[114.3827,-22.482,1.9288],[114.3873,-22.4825,1.5368],[114.384,-22.4833,1.3497],[114.3861,-22.4846,1.0444],[114.3832,-22.4846,1.3217],[114.3747,-22.4793,0.0],[114.3726,-22.483,1.5909],[114.3738,-22.4881,0.4433],[114.3838,-22.4908,1.566],[114.3787,-22.4922,0.7124],[114.3726,-22.4898,0.8982],[114.3646,-22.4903,0.9143],[114.3771,-22.4981,1.4031],[114.3692,-22.4954,0.8129],[114.3703,-22.4985,1.4255],[114.3679,-22.5002,1.3764],[114.3672,-22.4955,0.3828],[114.36279999999999,-22.4928,0.0],[114.3619,-22.4964,1.7308],[114.3598,-22.4959,0.0],[114.3613,-22.5029,1.6042],[114.3598,-22.5015,2.0727],[114.3587,-22.5039,1.3058],[114.3594,-22.4985,1.5868],[114.3577,-22.4943,0.0],[114.3563,-22.4947,1.8696],[114.3549,-22.5006,1.058],[114.3458,-22.4898,0.0],[114.3403,-22.4979,2.8447],[114.3419,-22.5048,1.0316],[114.3458,-22.5098,1.6945],[114.3426,-22.5069,1.2525],[114.3405,-22.5079,0.8706],[114.3403,-22.5163,1.6288],[114.3391,-22.5095,0.9543],[114.3401,-22.5035,0.5461],[114.3371,-22.497,1.6044],[114.339,-22.4921,0.359],[114.3335,-22.4944,0.9707],[114.332,-22.4876,0.0],[114.3272,-22.4897,1.7667],[114.324,-22.4796,1.7568],[114.3209,-22.4873,0.0],[114.3252,-22.498,1.7985],[114.3233,-22.5019,2.25],[114.3236,-22.5054,1.5562],[114.3224,-22.5021,1.7126],[114.3244,-22.4971,1.3681],[114.3188,-22.4888,1.036],[114.3187,-22.4777,0.9631],[114.3225,-22.463,0.6384],[114.3212,-22.4547,0.0],[114.3183,-22.4496,0.2819],[114.3174,-22.4406,0.0],[114.3091,-22.435,0.3224],[114.29,-22.4368,3.7072],[114.2824,-22.4338,0.0],[114.2728,-22.4355,0.0],[114.262,-22.4406,0.8403],[114.2528,-22.4519,0.2371],[114.2412,-22.4592,0.6198],[114.2338,-22.4595,0.0],[114.2256,-22.4574,0.7154],[114.2235,-22.4633,3.118],[114.2251,-22.467,3.6909],[114.2306,-22.4701,3.4403],[114.2307,-22.4733,3.1256],[114.2262,-22.4717,0.4119],[114.2162,-22.486,2.0384],[114.2186,-22.4972,1.317],[114.2018,-22.5132,2.4331],[114.1888,-22.5208,0.0],[114.1732,-22.5244,0.0],[114.1607,-22.5238,1.7642],[114.1618,-22.534,2.0827],[114.1589,-22.5309,2.0212],[114.1599,-22.5275,2.2499],[114.157,-22.5235,0.7542],[114.1544,-22.528,2.2452],[114.1544,-22.5236,0.0],[114.1521,-22.5217,2.2798],[114.151,-22.5171,0.6924],[114.1496,-22.5201,1.007],[114.1457,-22.5227,0.9094],[114.1437,-22.53,1.5134],[114.1465,-22.536,1.9969],[114.1438,-22.5381,1.85],[114.145,-22.536,1.1738],[114.143,-22.5325,1.6361],[114.1432,-22.5265,1.0671],[114.145,-22.5209,2.328],[114.1488,-22.5186,1.2771],[114.1461,-22.5121,0.0],[114.1434,-22.5163,2.1676],[114.1439,-22.5067,0.4884],[114.1397,-22.5052,1.476],[114.1355,-22.5006,0.0],[114.133,-22.5071,1.5905],[114.1252,-22.5116,1.9389],[114.1327,-22.5058,2.1618],[114.1347,-22.4991,2.3782],[114.1386,-22.4975,0.0],[114.1306,-22.4893,1.0436],[114.1218,-22.4727,0.0],[114.1226,-22.4538,1.7512],[114.1283,-22.4417,0.3376],[114.123,-22.4321,1.8979],[114.1221,-22.4158,1.18],[114.1251,-22.4099,2.3151],[114.1282,-22.4078,2.6932],[114.1409,-22.4092,2.8728],[114.147,-22.3968,0.4076],[114.1389,-22.402,1.1427],[114.1354,-22.4017,2.0655],[114.1332,-22.3996,2.4458],[114.1299,-22.3999,1.5581],[114.1349,-22.3972,1.2616],[114.1376,-22.3994,1.0124],[114.1401,-22.398,1.0145],[114.1405,-22.396,2.2731],[114.1355,-22.3932,2.5709],[114.1392,-22.3924,2.6911],[114.1405,-22.3943,2.7234],[114.1458,-22.3903,1.3588],[114.1524,-22.3767,0.0],[114.1596,-22.3669,4.9998],[114.1696,-22.3619,0.7292],[114.1782,-22.3534,0.0],[114.1791,-22.3474,0.5717],[114.1824,-22.3435,0.8731],[114.1766,-22.3311,5.4077],[114.1742,-22.3162,5.2575],[114.1785,-22.3054,0.636],[114.1775,-22.3032,0.0],[114.1495,-22.3015,1.3681],[114.144,-22.3052,0.8709],[114.1446,-22.309,4.2094],[114.1429,-22.3121,4.405],[114.1356,-22.3163,1.4127],[114.1327,-22.3198,1.0892],[114.1281,-22.3208,0.0],[114.1247,-22.3244,2.7419],[114.1248,-22.3218,2.0629],[114.122,-22.3194,0.0],[114.1197,-22.327,2.8338],[114.1208,-22.328,2.0312],[114.1176,-22.3273,0.0],[114.1158,-22.3312,3.3491],[114.1141,-22.3251,2.3739],[114.1171,-22.3149,1.322],[114.1212,-22.3119,1.8179],[114.1264,-22.3139,0.0],[114.1267,-22.3048,1.5585],[114.129,-22.3023,1.9584],[114.1251,-22.2994,3.5627],[114.1253,-22.2973,3.1738],[114.1271,-22.2977,0.0],[114.1271,-22.294,0.4664],[114.1238,-22.2792,1.8404],[114.1263,-22.2718,0.0],[114.1323,-22.266,5.2768],[114.133,-22.2616,5.4072],[114.1161,-22.2439,0.5234],[114.1131,-22.2355,2.6859],[114.1153,-22.2321,0.0],[114.1134,-22.2251,0.6954],[114.092,-22.2034,3.1591],[114.0848,-22.1913,0.6537],[114.082,-22.1695,3.0383],[114.083,-22.164,0.0],[114.0803,-22.1541,0.0],[114.0842,-22.1453,4.2027],[114.0893,-22.1192,6.1228],[114.0941,-22.1118,2.0936],[114.102,-22.074,3.3286],[114.1085,-22.066,1.5849],[114.115,-22.0487,5.2332],[114.116,-22.031,0.0],[114.1193,-22.0192,5.0509],[114.1226,-22.0163,2.1431],[114.1283,-21.9853,2.7431],[114.1381,-21.9578,2.9358],[114.1408,-21.943,4.1277],[114.1391,-21.9354,6.671],[114.1391,-21.9209,4.3845],[114.1424,-21.9112,0.0],[114.1495,-21.8761,3.9527],[114.1489,-21.8667,1.7284],[114.1548,-21.86,0.0],[114.1568,-21.8537,0.8287],[114.165,-21.8456,0.0],[114.1765,-21.8266,5.9537],[114.1819,-21.8211,7.5377],[114.191,-21.8154,1.0285],[114.1759,-21.8028,2.7263],[114.1697,-21.789,0.0],[114.1652,-21.7858,0.9693],[114.1612,-21.7862,0.0],[114.1316,-21.8056,2.5576],[114.119,-21.8071,4.6968],[114.108,-21.8033,7.946],[114.0872,-21.8118,2.7218],[114.0777,-21.8169,0.0],[114.0721,-21.8276,4.4809],[114.057,-21.8322,1.4914],[114.0381,-21.847,4.5903],[114.0346,-21.8467,2.0682],[114.0239,-21.8512,0.0],[114.0143,-21.8632,2.8514],[113.9951,-21.8755,0.0],[113.9947,-21.8838,3.716],[113.992,-21.8901,3.4647],[113.9863,-21.8954,3.8083],[113.9855,-21.9006,0.0],[113.9819,-21.9049,1.1401],[113.9796,-21.9111,2.1412],[113.9696,-21.9202,3.6233],[113.9639,-21.938,2.3445],[113.9591,-21.9401,2.2235],[113.9479,-21.9507,0.0],[113.9453,-21.9546,1.0237],[113.9438,-21.9627,1.2889],[113.9409,-21.9647,1.661],[113.942,-21.9702,1.9226],[113.9336,-21.9732,1.8883],[113.9319,-21.9798,0.0],[113.9346,-21.9863,6.1277],[113.9333,-21.9987,4.3288],[113.9282,-22.0054,2.7154],[113.9268,-22.0041,0.0],[113.9249,-22.007,3.0351],[113.9207,-22.0238,1.1096],[113.9187,-22.0244,0.0],[113.9178,-22.0293,3.835],[113.9121,-22.0361,1.2461],[113.9073,-22.0544,1.8084],[113.8938,-22.0833,2.0981],[113.8904,-22.0965,3.3352],[113.8862,-22.0983,0.0],[113.8869,-22.1057,2.8368],[113.8821,-22.1239,3.5787],[113.8669,-22.1511,1.0095],[113.8665,-22.157,5.7808],[113.8581,-22.177,2.7334],[113.8557,-22.1896,1.5572],[113.8569,-22.1938,4.3045],[113.8549,-22.1938,1.8486],[113.8471,-22.2174,2.177],[113.847,-22.2248,2.113],[113.843,-22.2306,0.0],[113.8395,-22.2318,1.8202],[113.8409,-22.2345,0.4982],[113.8358,-22.2417,6.0947],[113.8318,-22.2614,4.7589],[113.8335,-22.2661,4.3829],[113.8329,-22.2746,0.4926],[113.828,-22.2885,6.5757],[113.8236,-22.2937,1.224],[113.8208,-22.3058,1.3222],[113.8162,-22.3157,0.0],[113.8048,-22.3329,1.6284],[113.8033,-22.3395,2.7037],[113.7957,-22.353,3.6044],[113.7897,-22.3605,0.0],[113.7818,-22.3664,0.0],[113.7803,-22.3768,3.8305],[113.7732,-22.3836,0.0],[113.7655,-22.3843,0.0],[113.765,-22.3874,0.0],[113.7621,-22.3892,0.8994],[113.7571,-22.4006,0.0],[113.7494,-22.4084,4.5891],[113.7486,-22.4113,1.7028],[113.751,-22.4157,2.1345],[113.7469,-22.4451,5.7445],[113.7377,-22.471,0.0],[113.723,-22.4962,0.5334],[113.7185,-22.4977,0.0],[113.7118,-22.4957,0.0],[113.7079,-22.4967,2.5651],[113.7165,-22.5103,1.461],[113.7138,-22.518,2.0872],[113.7073,-22.5261,0.0],[113.7016,-22.5299,0.0],[113.6971,-22.5378,0.0],[113.6931,-22.541,0.0],[113.6859,-22.5429,0.0],[113.6814,-22.5416,3.5674],[113.6761,-22.5455,0.0],[113.6678,-22.5485,0.855],[113.6639,-22.5521,1.2148],[113.6601,-22.5597,0.0],[113.6592,-22.5664,1.2523],[113.6541,-22.5788,1.6089],[113.654,-22.5834,0.0],[113.6667,-22.5887,1.7321],[113.6709,-22.592,2.6991],[113.6736,-22.5969,5.3762],[113.6745,-22.6135,0.4566],[113.6688,-22.6239,5.5936],[113.6683,-22.6287,0.0],[113.6737,-22.6407,1.5606],[113.6815,-22.6506,4.0322],[113.6864,-22.6644,0.0],[113.6858,-22.6734,1.5118],[113.6823,-22.677,0.989],[113.6801,-22.6848,2.6938],[113.6735,-22.6931,0.5996],[113.671,-22.699,6.9923],[113.6733,-22.7108,8.0008],[113.6705,-22.7171,0.0],[113.6771,-22.723,0.0],[113.6943,-22.7161,4.3412],[113.7094,-22.7153,1.9651],[113.7258,-22.726,4.121],[113.7319,-22.7327,1.9183],[113.7406,-22.7385,0.0],[113.7553,-22.7562,3.4067],[113.7714,-22.7853,0.0],[113.7736,-22.7927,0.0],[113.7737,-22.8013,19.503],[113.7775,-22.8111,3.8771],[113.7879,-22.8277,2.4122],[113.7938,-22.8427,16.8137],[113.7942,-22.856,4.7029],[113.7969,-22.8642,10.3789],[113.799,-22.8808,3.8785],[113.8021,-22.8885,2.0781],[113.8167,-22.9069,0.0],[113.8188,-22.9272,0.0],[113.8939,-22.9272,39.1912],[113.8939,-22.7909,50.41],[114.2002,-22.7907,134.2069],[114.2002,-22.8548,146.2108],[114.4557,-22.8546,38.5392],[114.4794,-22.8999,45.9],[114.5026,-22.9303,52.7286],[114.5316,-22.9622,59.6754],[114.5561,-22.9832,70.5357],[114.5977,-23.0113,79.0173],[114.5977,-22.9688,69.7494],[114.6448,-22.9688,75.6544],[114.6548,-22.95,77.1044],[114.6614,-22.933,72.6822],[114.7093,-22.933,71.5344],[114.7093,-22.9062,67.4176],[114.6713,-22.9062,68.2716],[114.6789,-22.8862,69.1654],[114.6817,-22.8569,63.0893],[114.6922,-22.824,56.6567],[114.7015,-22.8008,53.9],[114.7247,-22.7628,53.0875],[114.7419,-22.7294,50.6329],[114.7505,-22.7163,58.1319],[114.754,-22.7054,48.6934],[114.754,-22.6682,45.5671],[114.6367,-22.6682,42.9406],[114.6368,-22.5047,19.0276],[114.6138,-22.5047,15.4176]]],
[[[114.1976,-22.3533,3.4205],[114.1993,-22.3539,3.4205],[114.2027,-22.3494,0.0],[114.202,-22.3491,0.0],[114.1976,-22.3533,3.4205]]],
[[[114.3903,-22.4009,0.0],[114.39,-22.4007,0.0],[114.3896,-22.4015,0.7625],[114.3903,-22.4015,0.7625],[114.3903,-22.4009,0.0]]],
[[[114.3869,-22.4022,0.2712],[114.3872,-22.3995,0.0],[114.3843,-22.3988,0.9836],[114.3823,-22.3953,0.2789],[114.3772,-22.3991,0.3207],[114.3778,-22.4,0.0],[114.3869,-22.4022,0.2712]]],
[[[114.3809,-22.3935,0.0],[114.3804,-22.393,0.0],[114.3801,-22.3932,0.0],[114.3806,-22.3938,0.0],[114.3809,-22.3935,0.0]]],
[[[114.3078,-21.6998,2.1874],[114.3046,-21.7039,5.9034],[114.304,-21.7076,2.252],[114.306,-21.7116,0.0],[114.3228,-21.6939,6.486],[114.3261,-21.6867,7.983],[114.3343,-21.6779,7.789],[114.3345,-21.6752,7.7908],[114.3452,-21.6718,0.0],[114.3516,-21.6666,3.8366],[114.3496,-21.6638,3.6546],[114.3502,-21.6602,2.3556],[114.3433,-21.6619,0.0],[114.3325,-21.6739,0.0],[114.3176,-21.6856,7.2069],[114.3078,-21.6998,2.1874]]],
[[[114.3573,-22.4875,0.2529],[114.3567,-22.4872,0.2529],[114.3565,-22.4875,0.2529],[114.3569,-22.4879,0.2529],[114.3573,-22.4875,0.2529]]],
[[[114.3398,-22.4861,0.0],[114.3391,-22.4866,1.2409],[114.3392,-22.4879,1.2409],[114.3403,-22.4866,0.5804],[114.3398,-22.4861,0.0]]],
[[[114.3796,-22.4374,0.0],[114.379,-22.4382,0.0],[114.38,-22.439,0.0],[114.3802,-22.4376,0.0],[114.3796,-22.4374,0.0]]],
[[[114.3756,-22.4362,0.0],[114.3751,-22.4366,0.3203],[114.3767,-22.4375,0.0],[114.3766,-22.4368,0.0],[114.3756,-22.4362,0.0]]],
[[[114.398,-22.4633,1.0624],[114.3977,-22.464,1.0624],[114.4008,-22.4653,1.2674],[114.3994,-22.4636,1.1723],[114.398,-22.4633,1.0624]]],
[[[114.4581,-22.3223,0.8767],[114.4576,-22.3235,0.8892],[114.4588,-22.3248,0.8912],[114.4593,-22.3241,1.1965],[114.4581,-22.3223,0.8767]]],
[[[114.4152,-22.3123,0.8715],[114.4139,-22.3151,0.4687],[114.4183,-22.315,0.5417],[114.4161,-22.3118,1.1596],[114.4152,-22.3123,0.8715]]],
[[[114.4415,-22.2936,1.4573],[114.4439,-22.2976,0.9863],[114.4494,-22.2973,0.0],[114.4504,-22.2956,0.0],[114.4442,-22.2935,1.1174],[114.4415,-22.2936,1.4573]]],
[[[114.4538,-22.2926,0.7632],[114.4528,-22.2935,0.4421],[114.4534,-22.2942,0.4421],[114.455,-22.2933,0.9843],[114.4538,-22.2926,0.7632]]],
[[[114.4285,-22.2889,1.5789],[114.4285,-22.2921,0.9022],[114.4336,-22.2933,0.0],[114.4313,-22.2875,0.6549],[114.4295,-22.2872,0.9132],[114.4285,-22.2889,1.5789]]],
[[[114.4183,-21.7025,1.7608],[114.4191,-21.705,0.0],[114.4214,-21.7043,4.2561],[114.4211,-21.7021,3.7592],[114.4183,-21.7025,1.7608]]],
[[[114.392,-21.6329,0.0],[114.3925,-21.6283,5.3275],[114.3889,-21.6244,0.0],[114.3835,-21.6269,6.0925],[114.3753,-21.628,4.9526],[114.3692,-21.6362,2.488],[114.3637,-21.6405,0.8496],[114.3593,-21.6468,0.0],[114.3582,-21.6512,3.7348],[114.3611,-21.6496,0.0],[114.3698,-21.6519,0.0],[114.3757,-21.6447,1.591],[114.392,-21.6329,0.0]]]]}}