{"type":"Feature","properties":{"GID_2":"AUS.7.27_1","GID_0":"AUS","country":"Australia","GID_1":"AUS.7_1","state":"Queensland","NL_NAME_1":"NA","county":"Gladstone","VARNAME_2":"NA","NL_NAME_2":"NA","TYPE_2":"Region","ENGTYPE_2":"Region","CC_2":"33360","HASC_2":"AU.QL.GL","name":"Gladstone.county"},
"geometry":{"type": "MultiPolygon","coordinates": [[[[152.0495,-24.5183,4.1728],[152.0502,-24.5185,2.1769],[152.0509,-24.5183,2.1769],[152.0499,-24.518,2.1769],[152.0495,-24.5183,4.1728]]],
[[[152.0477,-24.5184,4.1728],[152.0473,-24.5187,4.0212],[152.0472,-24.5189,4.0212],[152.0477,-24.5187,4.1728],[152.0477,-24.5184,4.1728]]],
[[[152.0479,-24.5183,4.1728],[152.0484,-24.5188,4.1728],[152.0493,-24.5184,4.1728],[152.0488,-24.5181,4.1728],[152.0479,-24.5183,4.1728]]],
[[[152.7154,-24.1097,1.4294],[152.7127,-24.1137,2.7163],[152.7136,-24.1164,0.0],[152.7184,-24.1131,1.7305],[152.7154,-24.1097,1.4294]]],
[[[151.8763,-24.1659,0.0],[151.8753,-24.1652,0.0],[151.8799,-24.1627,0.0],[151.8746,-24.1644,0.0],[151.871,-24.1684,0.0],[151.8763,-24.1679,0.0],[151.8763,-24.1659,0.0]]],
[[[151.537,-24.0795,1.0077],[151.5362,-24.0822,0.9914],[151.5411,-24.0851,1.7945],[151.5464,-24.0829,1.3998],[151.5477,-24.0784,0.0],[151.5425,-24.0744,0.0],[151.537,-24.0795,1.0077]]],
[[[151.4695,-24.0667,0.9791],[151.4692,-24.0654,1.2492],[151.4679,-24.0652,1.2492],[151.4684,-24.0672,1.0688],[151.4695,-24.0667,0.9791]]],
[[[151.4709,-24.0633,0.6782],[151.4705,-24.0609,0.6792],[151.4682,-24.0615,2.0555],[151.469,-24.0639,0.7038],[151.4709,-24.0633,0.6782]]],
[[[151.7283,-24.0605,2.1738],[151.7274,-24.0603,2.1738],[151.727,-24.0613,0.7463],[151.7287,-24.0618,0.7463],[151.7283,-24.0605,2.1738]]],
[[[151.4613,-24.0604,1.5062],[151.4606,-24.06,1.3897],[151.4598,-24.0601,1.3897],[151.4612,-24.0618,0.3586],[151.4613,-24.0604,1.5062]]],
[[[151.4604,-24.057,1.1944],[151.4587,-24.0567,1.2955],[151.458,-24.0584,2.1444],[151.4595,-24.0597,1.3897],[151.4612,-24.0596,1.3897],[151.4604,-24.057,1.1944]]],
[[[151.677,-24.0558,1.3865],[151.675,-24.0549,2.6326],[151.6734,-24.0545,0.3918],[151.6765,-24.0563,0.0],[151.677,-24.0558,1.3865]]],
[[[151.6707,-24.0541,2.592],[151.669,-24.0534,2.0882],[151.6686,-24.0538,2.0882],[151.6703,-24.0547,0.0],[151.6707,-24.0541,2.592]]],
[[[151.4318,-24.0529,1.4025],[151.432,-24.0514,1.4025],[151.4298,-24.0501,1.7622],[151.4306,-24.052,1.4025],[151.4318,-24.0529,1.4025]]],
[[[151.665,-24.0497,3.2817],[151.6632,-24.0508,3.2628],[151.6628,-24.0527,1.6013],[151.6663,-24.0517,3.056],[151.665,-24.0497,3.2817]]],
[[[151.4356,-24.0375,2.0276],[151.4347,-24.0362,0.0],[151.4303,-24.0375,0.0],[151.429,-24.0389,0.7051],[151.4309,-24.041,2.5484],[151.4297,-24.0412,3.2019],[151.4287,-24.0392,0.7051],[151.4268,-24.0439,1.8642],[151.4284,-24.0476,2.743],[151.4366,-24.054,1.9656],[151.4391,-24.0518,0.0],[151.4399,-24.0454,0.0],[151.4368,-24.0371,0.0],[151.4377,-24.0413,2.0551],[151.434,-24.0465,2.9506],[151.4336,-24.0447,2.5838],[151.4373,-24.0415,2.0551],[151.4356,-24.0375,2.0276]]],
[[[151.7369,-24.0337,0.0],[151.7375,-24.0331,0.0],[151.7367,-24.0321,0.0],[151.7356,-24.0331,0.0],[151.7369,-24.0337,0.0]]],
[[[151.633,-24.0234,3.6073],[151.6343,-24.0251,0.2653],[151.6353,-24.0233,2.6042],[151.6241,-24.0221,3.8647],[151.6247,-24.0238,3.9334],[151.633,-24.0234,3.6073]]],
[[[151.4617,-24.0453,0.6669],[151.4615,-24.0415,0.0],[151.4597,-24.0394,0.0],[151.4573,-24.0502,2.9095],[151.4595,-24.0565,1.1944],[151.4615,-24.0545,0.0],[151.4617,-24.0453,0.6669]]],
[[[151.7277,-24.0453,1.2836],[151.7254,-24.0455,1.0049],[151.7233,-24.0488,1.4614],[151.724,-24.0494,1.4614],[151.7277,-24.0453,1.2836]]],
[[[151.6572,-24.0508,2.0214],[151.6614,-24.0525,1.6013],[151.6641,-24.0482,0.5001],[151.6611,-24.043,1.4905],[151.6565,-24.0453,1.4611],[151.6511,-24.0436,0.0],[151.6489,-24.0445,1.512],[151.6493,-24.0457,0.0],[151.6572,-24.0508,2.0214]]],
[[[151.4661,-24.038,0.8349],[151.4641,-24.0379,0.0],[151.4655,-24.0409,3.8634],[151.4752,-24.0537,0.6311],[151.4758,-24.0488,0.0],[151.4661,-24.038,0.8349]]],
[[[151.6469,-24.0391,3.2431],[151.65,-24.0396,0.0],[151.6531,-24.043,0.8087],[151.6565,-24.0427,3.3212],[151.6563,-24.0401,3.2797],[151.6528,-24.0363,2.0639],[151.6442,-24.0367,0.8558],[151.6469,-24.0391,3.2431]]],
[[[151.7331,-24.0179,0.0],[151.7333,-24.017,0.0],[151.732,-24.017,0.0],[151.7327,-24.0183,0.0],[151.7331,-24.0179,0.0]]],
[[[151.6267,-24.0154,0.1379],[151.6261,-24.0143,0.2144],[151.6251,-24.016,0.8014],[151.6259,-24.0166,0.0],[151.6267,-24.0154,0.1379]]],
[[[152.3933,-23.9046,2.0417],[152.3901,-23.9073,2.5819],[152.3937,-23.9076,9.9271],[152.3944,-23.9049,7.6808],[152.3933,-23.9046,2.0417]]],
[[[152.3661,-23.8624,0.0],[152.3652,-23.8632,0.0],[152.3664,-23.8641,0.0],[152.367,-23.8631,0.0],[152.3661,-23.8624,0.0]]],
[[[152.3684,-23.8564,0.6707],[152.3676,-23.8569,0.6707],[152.3678,-23.8579,0.6707],[152.3693,-23.8575,0.0],[152.3684,-23.8564,0.6707]]],
[[[152.3796,-23.8518,0.4089],[152.3726,-23.8567,0.613],[152.3792,-23.8542,2.8251],[152.3807,-23.8526,0.4089],[152.3796,-23.8518,0.4089]]],
[[[151.731,-23.5385,9.9123],[151.7252,-23.5369,6.0799],[151.7204,-23.5378,0.0],[151.7231,-23.5403,0.0],[151.7306,-23.5402,3.2701],[151.731,-23.5385,9.9123]]],
[[[151.9126,-23.4416,5.0693],[151.9165,-23.4437,6.348],[151.9186,-23.4425,1.5824],[151.9137,-23.4406,0.8935],[151.9126,-23.4416,5.0693]]],
[[[151.0493,-23.4262,0.0],[151.0489,-23.4291,0.0],[151.0499,-23.4315,0.0],[151.0505,-23.4258,0.0],[151.0493,-23.4262,0.0]]],
[[[151.145,-23.3989,24.3189],[151.1561,-23.4056,28.7051],[151.1626,-23.4004,2.4019],[151.163,-23.3967,0.0],[151.1582,-23.3964,32.625],[151.1554,-23.4001,22.1989],[151.1473,-23.3981,25.765],[151.145,-23.3989,24.3189]]],
[[[151.9575,-23.3317,22.5522],[151.9555,-23.3329,0.0],[151.9555,-23.3333,25.5496],[151.96,-23.3316,7.1438],[151.9575,-23.3317,22.5522]]],
[[[151.9156,-23.3038,11.015],[151.9144,-23.305,6.8982],[151.9147,-23.3057,6.8982],[151.9171,-23.3048,10.1316],[151.9156,-23.3038,11.015]]],
[[[151.7023,-23.2941,1.9869],[151.7007,-23.2952,0.0],[151.7008,-23.2988,2.9155],[151.7067,-23.3011,1.7287],[151.7135,-23.3006,0.0],[151.7171,-23.2948,0.0],[151.7127,-23.2922,1.9092],[151.7023,-23.2941,1.9869]]],
[[[151.7801,-23.2455,0.4887],[151.7778,-23.2462,0.0],[151.7747,-23.2486,0.0],[151.7819,-23.2465,2.0211],[151.7801,-23.2455,0.4887]]],
[[[151.2721,-23.5368,0.0],[151.272,-23.5348,0.0],[151.2704,-23.535,0.0],[151.2704,-23.5358,0.0],[151.2721,-23.5368,0.0]]],
[[[151.2781,-23.5322,0.0],[151.2779,-23.5317,2.4375],[151.2755,-23.5332,0.0],[151.2778,-23.5336,0.0],[151.2781,-23.5322,0.0]]],
[[[152.0918,-23.5055,0.0],[152.0897,-23.5063,1.3229],[152.0913,-23.5085,2.1202],[152.0925,-23.5079,3.146],[152.0918,-23.5055,0.0]]],
[[[151.207,-23.5046,0.0],[151.1928,-23.4987,0.0],[151.179,-23.495,0.0],[151.174,-23.4978,0.0],[151.1782,-23.4963,0.0],[151.1924,-23.4994,0.0],[151.207,-23.5046,0.0]]],
[[[151.1031,-23.4821,3.5734],[151.1,-23.4812,2.3353],[151.0983,-23.4828,3.6725],[151.0985,-23.4833,3.4726],[151.1031,-23.4821,3.5734]]],
[[[151.1044,-23.4805,1.7226],[151.1002,-23.4766,0.0],[151.0995,-23.4766,0.0],[151.101,-23.4791,1.9688],[151.1044,-23.4805,1.7226]]],
[[[151.7715,-23.5015,0.0],[151.7702,-23.5021,0.0],[151.7726,-23.5026,0.5587],[151.7723,-23.5017,0.5587],[151.7715,-23.5015,0.0]]],
[[[151.0779,-23.4646,9.6497],[151.0754,-23.4607,0.0],[151.057,-23.4477,0.0],[151.0523,-23.4486,0.0],[151.0479,-23.4525,0.2645],[151.0521,-23.4513,2.2728],[151.0508,-23.4541,1.9498],[151.0526,-23.4544,2.2823],[151.0516,-23.4562,2.5544],[151.0431,-23.4563,3.0252],[151.0171,-23.4523,0.0],[151.0152,-23.4545,0.0],[151.0163,-23.462,0.0],[151.0121,-23.4692,1.8392],[151.0139,-23.4736,2.62],[151.01,-23.4765,2.0344],[150.9913,-23.4797,1.2079],[150.991,-23.4838,0.9672],[150.9836,-23.4862,0.0],[150.9787,-23.4897,4.2177],[150.9808,-23.4947,0.0],[150.9896,-23.4976,1.3113],[150.9897,-23.5039,0.0],[150.9941,-23.5093,0.0],[150.9947,-23.5172,2.8554],[151.0007,-23.527,3.6467],[151.0027,-23.5349,1.0153],[151.0049,-23.5368,2.6564],[151.0126,-23.5537,0.0],[151.015,-23.5559,2.9288],[151.0178,-23.5559,3.3475],[151.0183,-23.5588,0.0],[151.0325,-23.5704,0.8443],[151.0359,-23.5791,2.9773],[151.0366,-23.5933,1.503],[151.0439,-23.6087,1.9268],[151.0449,-23.6143,0.0],[151.0539,-23.6156,2.6284],[151.0522,-23.6216,3.1775],[151.0503,-23.6211,3.8447],[151.0497,-23.6162,1.8221],[151.0458,-23.6164,2.0867],[151.0464,-23.6212,2.2389],[151.0508,-23.6247,0.0],[151.0563,-23.626,2.4957],[151.0577,-23.6244,3.3131],[151.0579,-23.6248,5.3174],[151.0578,-23.6255,2.4957],[151.0568,-23.6263,0.655],[151.0615,-23.6286,1.3243],[151.0653,-23.6329,11.9278],[151.0797,-23.6392,2.8934],[151.0839,-23.6429,2.7702],[151.0901,-23.6456,1.2733],[151.092,-23.6448,2.5441],[151.0919,-23.6453,2.5441],[151.0907,-23.6457,1.2733],[151.093,-23.6479,2.692],[151.0967,-23.6573,0.0],[151.1025,-23.6582,0.0],[151.10171649484536,-23.65281340206187,2.312],[151.1024,-23.6541,0.9788],[151.1034,-23.6496,2.4474],[151.1042,-23.6581,0.0],[151.1074,-23.6589,1.5868],[151.1091,-23.6576,3.2142],[151.1092,-23.6579,3.2142],[151.1085,-23.6591,1.5868],[151.1109,-23.6598,0.0],[151.1121,-23.6579,3.4121],[151.1133,-23.6586,2.3848],[151.1127,-23.6605,0.5908],[151.1204,-23.6616,0.8619],[151.1268,-23.6682,0.6626],[151.1297,-23.6692,1.5026],[151.1315,-23.6741,0.0],[151.1366,-23.6778,1.4039],[151.1371,-23.6833,0.723],[151.142,-23.6892,0.0],[151.1421,-23.6934,0.0],[151.1441,-23.6942,3.8689],[151.1433,-23.6968,0.5904],[151.1487,-23.6995,7.652],[151.1549,-23.7131,0.6782],[151.1584,-23.7152,0.0],[151.1608,-23.7191,37.7018],[151.1628,-23.7286,0.0],[151.1722,-23.7452,0.0],[151.1887,-23.7645,5.1752],[151.1922,-23.7732,0.6295],[151.1973,-23.7769,1.7794],[151.1984,-23.7797,0.0],[151.2085,-23.7813,0.5633],[151.2123,-23.7844,3.3362],[151.2158,-23.7834,2.9931],[151.2114,-23.7889,0.0],[151.2145,-23.7944,3.9132],[151.2172,-23.7944,3.2865],[151.222,-23.7994,15.5014],[151.2252,-23.7989,0.8141],[151.225,-23.7928,2.3371],[151.2273,-23.7903,2.6402],[151.2318,-23.795,0.0],[151.2338,-23.7947,0.0],[151.2342,-23.7908,5.1704],[151.2365,-23.7898,1.7445],[151.24,-23.7924,0.0],[151.24,-23.7909,3.0799],[151.2418,-23.7905,7.6573],[151.2452,-23.7941,1.4546],[151.243,-23.7876,5.959],[151.2452,-23.7802,0.958],[151.2419,-23.7753,2.1162],[151.2451,-23.7729,2.5386],[151.2454,-23.7706,2.9039],[151.2473,-23.7714,3.0518],[151.2466,-23.7707,2.9039],[151.2462,-23.7689,2.8601],[151.2453,-23.7694,2.8601],[151.2446,-23.7689,2.3899],[151.2446,-23.7684,2.3899],[151.2458,-23.7675,2.3701],[151.2459,-23.7679,2.3701],[151.2448,-23.7687,2.3899],[151.2464,-23.7688,2.8601],[151.2471,-23.7697,2.9039],[151.2468,-23.7706,2.9039],[151.2475,-23.7713,3.0518],[151.2471,-23.7717,2.7199],[151.2467,-23.7717,2.7199],[151.2455,-23.7707,2.9039],[151.2453,-23.7729,2.7199],[151.244,-23.7742,2.557],[151.2422,-23.7752,2.1162],[151.2452,-23.7797,0.958],[151.2524,-23.7791,1.8075],[151.2502,-23.7765,2.9672],[151.2526,-23.7776,2.9874],[151.2547,-23.7796,0.0],[151.2568,-23.7793,0.7903],[151.2609,-23.7738,1.414],[151.2613,-23.7699,2.8829],[151.2564,-23.7696,3.0673],[151.2549,-23.7669,2.118],[151.2572,-23.7689,1.3439],[151.2563,-23.7656,2.2706],[151.2571,-23.7663,2.0315],[151.2575,-23.7683,1.0198],[151.261,-23.7688,1.3929],[151.2618,-23.7651,0.0],[151.2603,-23.7645,1.9569],[151.2617,-23.7638,0.0],[151.2598,-23.7619,1.5086],[151.2611,-23.7617,1.5086],[151.2606,-23.7586,1.0962],[151.2589,-23.7578,1.9423],[151.2602,-23.7571,0.0],[151.2581,-23.7547,1.7708],[151.2525,-23.7569,2.0378],[151.2528,-23.756,2.0368],[151.2553,-23.7556,1.9874],[151.2539,-23.7547,1.9874],[151.2557,-23.7555,2.5366],[151.2584,-23.7531,1.0643],[151.2595,-23.7544,1.0643],[151.2634,-23.7489,2.2331],[151.2634,-23.7519,1.429],[151.2608,-23.7542,0.9633],[151.261,-23.7558,0.3494],[151.2624,-23.7554,1.9827],[151.2622,-23.7574,0.5086],[151.2653,-23.7566,0.0],[151.2663,-23.7531,1.0136],[151.2684,-23.7537,0.9599],[151.2715,-23.7514,1.579],[151.2716,-23.7493,3.232],[151.2722,-23.7498,2.0369],[151.2718,-23.7509,2.4659],[151.2727,-23.7521,2.3686],[151.2746,-23.7525,2.5168],[151.2742,-23.7535,2.8401],[151.2705,-23.7524,1.579],[151.2705,-23.7563,2.6897],[151.2699,-23.7544,2.1064],[151.2676,-23.7551,0.5318],[151.2676,-23.7576,1.9393],[151.2659,-23.7573,1.9393],[151.2675,-23.7589,1.8911],[151.2659,-23.7607,2.4198],[151.2656,-23.7604,2.3229],[151.2658,-23.7597,2.4198],[151.2667,-23.7591,1.8911],[151.2654,-23.7578,0.0],[151.2626,-23.7587,0.2195],[151.2638,-23.7661,12.7325],[151.2626,-23.7746,0.0],[151.264,-23.7766,0.4722],[151.2653,-23.776,0.7138],[151.2679,-23.7722,1.3168],[151.2675,-23.7692,2.2486],[151.2691,-23.7696,0.0],[151.2682,-23.7674,1.3456],[151.2698,-23.768,0.7867],[151.2688,-23.7657,1.7608],[151.2702,-23.7664,0.9105],[151.2715,-23.7636,2.4387],[151.2735,-23.7627,2.2996],[151.272,-23.7652,2.4403],[151.2748,-23.7671,2.8349],[151.2755,-23.765,2.4994],[151.2763,-23.7647,2.3402],[151.2767,-23.7653,2.3402],[151.2766,-23.7655,2.3402],[151.2763,-23.7654,2.3402],[151.2762,-23.7648,2.3402],[151.2756,-23.7651,2.4994],[151.2764,-23.7657,2.3402],[151.2754,-23.7671,2.8349],[151.2746,-23.7673,2.8349],[151.2755,-23.769,2.5032],[151.275,-23.7704,2.2926],[151.2743,-23.7697,2.2926],[151.2745,-23.7688,2.5032],[151.2754,-23.7692,2.5032],[151.2748,-23.7687,2.5032],[151.2744,-23.7669,2.8349],[151.2709,-23.766,0.7841],[151.2714,-23.7681,1.7088],[151.27,-23.7695,1.7088],[151.2711,-23.7708,2.0536],[151.2698,-23.7702,0.0],[151.2679,-23.7739,2.2968],[151.2696,-23.774,2.2968],[151.2648,-23.7779,0.4722],[151.2789,-23.7914,0.0],[151.2805,-23.7909,5.2174],[151.2854,-23.7973,1.726],[151.2843,-23.7884,0.0],[151.2882,-23.784,4.698],[151.2904,-23.7845,0.2852],[151.2857,-23.7749,7.2547],[151.2876,-23.7714,2.1226],[151.2868,-23.7676,3.3738],[151.2923,-23.7625,0.0],[151.2904,-23.7621,7.4395],[151.2908,-23.7605,0.9902],[151.2943,-23.7605,0.2677],[151.2976,-23.758,0.2679],[151.2964,-23.754,3.0709],[151.2968,-23.754,3.2677],[151.297,-23.7542,3.2677],[151.2988,-23.7571,0.0],[151.3006,-23.7542,3.6811],[151.3036,-23.7585,2.0114],[151.3116,-23.7587,5.4679],[151.3139,-23.7608,4.2518],[151.3153,-23.7592,2.0789],[151.3144,-23.757,6.7454],[151.309,-23.7546,7.2835],[151.3037,-23.749,1.9164],[151.2985,-23.7375,5.7152],[151.2963,-23.7382,8.9386],[151.2974,-23.7372,5.7152],[151.2984,-23.7367,5.7152],[151.2949,-23.715699999999998,0.0],[151.2957,-23.7131,6.8675],[151.2893,-23.6988,24.892],[151.2866,-23.6841,0.0],[151.2789,-23.6801,22.86],[151.2768,-23.6692,0.8229],[151.2722,-23.6629,0.0],[151.269,-23.6633,19.7379],[151.2674,-23.6616,2.6997],[151.2667,-23.6703,7.7025],[151.2643,-23.6712,3.948],[151.265,-23.6692,3.0036],[151.2633,-23.6687,10.3337],[151.267,-23.6657,4.0502],[151.2631,-23.6665,6.9752],[151.2584,-23.6652,1.749],[151.2515,-23.6572,2.5185],[151.2484,-23.6569,5.1293],[151.2466,-23.653,8.6301],[151.2478,-23.6506,0.0],[151.2446,-23.6494,13.6925],[151.2464,-23.648,1.4579],[151.2455,-23.6459,0.0],[151.2439,-23.6459,6.782],[151.2432,-23.6431,0.0],[151.2413,-23.6446,21.371],[151.2394,-23.6431,2.075],[151.2391,-23.6413,0.0],[151.2408,-23.6402,0.0],[151.2375,-23.6366,4.5429],[151.2384,-23.6322,0.0],[151.2363,-23.629,25.5416],[151.2379,-23.627,0.0],[151.2367,-23.622,28.3282],[151.2345,-23.6186,17.7664],[151.2272,-23.614,10.895],[151.2273,-23.6109,1.0607],[151.2256,-23.6095,0.0],[151.2244,-23.5966,13.3667],[151.2267,-23.5875,0.8197],[151.2244,-23.5797,10.0167],[151.2254,-23.5662,0.0],[151.2356,-23.5309,0.0],[151.2351,-23.5103,4.6436],[151.2368,-23.5078,30.0562],[151.2352,-23.5038,7.3215],[151.2352,-23.4936,0.0],[151.2364,-23.4904,4.929],[151.2392,-23.49,0.0],[151.2392,-23.4881,0.0],[151.2352,-23.4837,6.5831],[151.2331,-23.4838,21.0547],[151.2296,-23.4902,0.0],[151.2323,-23.4924,9.3247],[151.2321,-23.4946,14.8948],[151.2251,-23.5008,0.0],[151.2186,-23.5035,2.0981],[151.2221,-23.5094,0.0],[151.2176,-23.5139,0.0],[151.2174,-23.5184,4.4607],[151.2025,-23.5307,3.248],[151.1942,-23.5333,4.4677],[151.192,-23.5391,2.6933],[151.1902,-23.5396,3.0733],[151.1907,-23.5371,3.6458],[151.1834,-23.5413,2.6727],[151.1906,-23.5352,1.925],[151.1931,-23.531,4.8525],[151.1865,-23.5319,3.6218],[151.1848,-23.5343,2.9237],[151.1837,-23.5313,3.5],[151.1887,-23.5309,3.3268],[151.1935,-23.5275,5.0645],[151.1843,-23.5257,3.7189],[151.1825,-23.5244,2.8491],[151.1826,-23.5209,3.3301],[151.1861,-23.5248,2.3657],[151.1915,-23.5243,3.865],[151.1904,-23.5204,4.0418],[151.1955,-23.5234,3.3413],[151.1915,-23.5187,4.207],[151.1993,-23.5201,3.9325],[151.2033,-23.5147,0.0],[151.2024,-23.5121,2.747],[151.1996,-23.5104,5.3672],[151.1902,-23.5093,2.0151],[151.1739,-23.5111,0.0],[151.1583,-23.5101,1.6012],[151.1552,-23.5113,2.3233],[151.1565,-23.5103,2.8584],[151.1561,-23.508,2.8353],[151.153,-23.5072,1.1949],[151.149,-23.5085,2.9196],[151.1478,-23.5063,2.7877],[151.1505,-23.5058,0.0],[151.1231,-23.4907,0.8082],[151.1215,-23.4918,0.0],[151.1257,-23.4989,1.3756],[151.1199,-23.494,1.2476],[151.1117,-23.4913,2.0689],[151.1069,-23.4858,2.8694],[151.1009,-23.4885,3.7823],[151.0868,-23.4799,2.6394],[151.0846,-23.4815,0.9162],[151.085,-23.4879,2.235],[151.0812,-23.4865,3.2531],[151.0754,-23.4888,2.4902],[151.0727,-23.4884,1.5941],[151.0779,-23.4828,4.6852],[151.0719,-23.4737,3.0965],[151.0752,-23.4701,6.0602],[151.0807,-23.4682,0.0],[151.0809,-23.4666,0.0],[151.0779,-23.4646,9.6497]],
[[151.10171649484536,-23.65281340206187,2.312],[151.10164577464786,-23.652680281690142,2.312],[151.1017,-23.6527,2.312],[151.10171649484536,-23.65281340206187,2.312]],
[[151.10164577464786,-23.652680281690142,2.312],[151.0984,-23.6515,2.0241],[151.1007,-23.6509,3.3193],[151.10164577464786,-23.652680281690142,2.312]]],
[[[150.9787,-24.4714,877.7581],[150.9831,-24.4718,848.2119],[150.9856,-24.4698,853.4233],[150.9887,-24.4562,872.8356],[150.9881,-24.447,867.7799],[150.9932,-24.4427,884.2762],[150.9942,-24.4242,890.0051],[150.9939,-24.419,931.3652],[150.9919,-24.4165,895.0026],[150.9931,-24.4097,902.5737],[150.9995,-24.406,908.2003],[151.0006,-24.3989,893.9875],[151.005,-24.3946,894.7733],[151.0168,-24.397,898.6597],[151.0218,-24.3938,914.5225],[151.0283,-24.3941,877.8547],[151.0296,-24.3922,885.7124],[151.0369,-24.3921,886.0021],[151.0414,-24.396,898.9089],[151.0451,-24.3949,899.3928],[151.0478,-24.4017,913.8274],[151.0445,-24.4065,912.87],[151.0453,-24.4129,892.8328],[151.0513,-24.4174,852.1088],[151.0524,-24.4202,813.3698],[151.0549,-24.4203,685.013],[151.0574,-24.4276,706.6232],[151.061,-24.4262,589.4977],[151.0633,-24.4274,563.0164],[151.0669,-24.4319,580.309],[151.0697,-24.4326,566.0421],[151.072,-24.4379,531.9963],[151.0899,-24.441,626.5905],[151.0915,-24.4437,668.4117],[151.0932,-24.4435,653.8177],[151.0981,-24.4503,568.4858],[151.0998,-24.4585,493.8423],[151.1061,-24.4625,511.348],[151.107,-24.4702,702.02],[151.1137,-24.4745,691.6793],[151.1149,-24.4746,700.9457],[151.1181,-24.4671,650.4292],[151.1225,-24.4684,620.2766],[151.1329,-24.4648,550.9564],[151.1341,-24.4638,574.0841],[151.1335,-24.4612,570.4778],[151.1356,-24.4604,600.0128],[151.1379,-24.4556,573.2606],[151.1475,-24.4604,637.7881],[151.1537,-24.4609,666.0944],[151.1542,-24.4655,641.3841],[151.1693,-24.479,590.8562],[151.1689,-24.4846,647.9313],[151.1643,-24.4867,554.8334],[151.1616,-24.4933,627.2274],[151.1614,-24.4989,612.6279],[151.1588,-24.4999,568.2361],[151.1541,-24.5128,612.3218],[151.1559,-24.5217,636.1945],[151.1529,-24.5236,599.7582],[151.1523,-24.5269,582.4382],[151.1543,-24.5321,583.4904],[151.1529,-24.5377,557.5858],[151.1568,-24.5413,618.8369],[151.1575,-24.547,624.3289],[151.1621,-24.5503,615.4915],[151.1689,-24.5497,567.6433],[151.1735,-24.5455,535.3631],[151.179,-24.543,576.8696],[151.1995,-24.5398,575.1218],[151.2021,-24.5312,562.1261],[151.2092,-24.5328,568.6594],[151.2213,-24.5296,553.2969],[151.2266,-24.53,541.5682],[151.2293,-24.5277,527.3828],[151.2244,-24.5642,597.5488],[151.2257,-24.5685,581.806],[151.2185,-24.5755,536.2089],[151.2207,-24.5796,387.9689],[151.2195,-24.5838,342.7681],[151.2212,-24.5846,396.4763],[151.2187,-24.5861,335.8228],[151.2302,-24.6279,428.6211],[151.2235,-24.6278,477.6574],[151.216,-24.6245,500.571],[151.2077,-24.6246,553.3561],[151.2044,-24.6279,565.4957],[151.1983,-24.6298,620.5512],[151.1932,-24.6351,658.6633],[151.1947,-24.6425,705.3328],[151.1992,-24.6439,655.0762],[151.2065,-24.6403,524.041],[151.2064,-24.638,531.1404],[151.2095,-24.6375,458.5827],[151.2111,-24.6354,447.823],[151.2201,-24.6339,482.4052],[151.2243,-24.6386,446.4368],[151.2276,-24.6377,389.52],[151.2302,-24.639,431.9101],[151.231,-24.646,396.6129],[151.2374,-24.6533,521.9396],[151.2432,-24.6546,510.8577],[151.2458,-24.6523,514.7234],[151.2536,-24.666,532.5659],[151.2557,-24.6625,445.3765],[151.2641,-24.6599,477.5481],[151.2669,-24.6538,462.5146],[151.272,-24.6561,406.0688],[151.2746,-24.6539,408.7897],[151.2777,-24.6557,413.0976],[151.2814,-24.6547,415.2248],[151.2919,-24.6576,465.9494],[151.2973,-24.6677,475.6108],[151.3023,-24.6682,502.8698],[151.3065,-24.6666,490.2643],[151.307,-24.6579,472.817],[151.3103,-24.6565,466.2582],[151.3094,-24.6524,469.2293],[151.3155,-24.6473,439.8152],[151.3214,-24.6473,468.0103],[151.3225,-24.6445,448.2993],[151.3267,-24.6458,536.0899],[151.3325,-24.6452,616.4689],[151.3416,-24.6496,674.04],[151.3448,-24.6467,595.4272],[151.3448,-24.6439,559.7445],[151.3496,-24.6373,423.0545],[151.3577,-24.6307,387.6161],[151.3585,-24.6253,369.5145],[151.3612,-24.6236,334.46],[151.367,-24.6122,389.4498],[151.3718,-24.6083,402.9205],[151.3756,-24.6125,343.1803],[151.3809,-24.6117,303.1584],[151.384,-24.6079,350.1366],[151.3903,-24.6143,296.1334],[151.3942,-24.6145,299.757],[151.3972,-24.6168,315.9159],[151.4061,-24.6152,374.4473],[151.4078,-24.6129,363.8147],[151.4069,-24.6096,383.1162],[151.4102,-24.605,378.0748],[151.4113,-24.5952,335.0106],[151.4243,-24.5953,272.9397],[151.4303,-24.5935,261.0177],[151.4371,-24.5861,262.6939],[151.4419,-24.5777,260.7586],[151.4355,-24.571,284.1848],[151.4335,-24.5635,319.4305],[151.4388,-24.5631,271.5442],[151.453,-24.5706,247.1169],[151.4573,-24.5707,264.9698],[151.4664,-24.554,475.4316],[151.4659,-24.5514,489.9847],[151.4686,-24.5434,550.6251],[151.4663,-24.5395,587.2361],[151.4706,-24.5367,608.5278],[151.4775,-24.536,571.0834],[151.4836,-24.5384,546.2729],[151.4888,-24.544,627.9178],[151.4884,-24.5477,667.0865],[151.4853,-24.5524,663.6869],[151.4901,-24.5615,690.5013],[151.4893,-24.5642,672.324],[151.4983,-24.5695,687.1522],[151.4966,-24.5717,714.6983],[151.4979,-24.5758,688.0554],[151.5013,-24.5764,681.2715],[151.5087,-24.5827,696.9337],[151.5095,-24.5875,722.7518],[151.5051,-24.5948,704.2275],[151.5087,-24.5959,694.876],[151.5146,-24.6012,697.21],[151.5181,-24.5995,723.4705],[151.52,-24.6013,672.7886],[151.5263,-24.602,694.7574],[151.5346,-24.6083,538.3637],[151.5375,-24.6113,569.2785],[151.5377,-24.6147,609.7076],[151.5437,-24.6189,541.4444],[151.5412,-24.6268,581.6259],[151.5432,-24.6287,565.4594],[151.5434,-24.6326,558.2679],[151.5399,-24.6394,366.489],[151.5398,-24.6425,464.4291],[151.5421,-24.6457,563.3167],[151.5339,-24.6557,451.7933],[151.5331,-24.6605,536.1061],[151.5283,-24.6611,616.68],[151.5274,-24.6671,700.1339],[151.519,-24.6639,560.66],[151.5167,-24.6651,728.0778],[151.5149,-24.6692,693.9896],[151.5167,-24.6739,682.24],[151.5204,-24.6761,645.2707],[151.5212,-24.6815,532.9727],[151.5248,-24.6848,473.0486],[151.5273,-24.6919,452.6936],[151.5318,-24.6962,285.8184],[151.5336,-24.6956,256.3346],[151.5439,-24.6999,210.6859],[151.5528,-24.6977,201.8246],[151.5609,-24.7026,235.5953],[151.5654,-24.71,242.259],[151.5693,-24.7097,248.485],[151.5763,-24.7015,205.6823],[151.5802,-24.7038,226.5981],[151.5954,-24.6994,198.6466],[151.606,-24.7048,526.6869],[151.6088,-24.7044,545.2278],[151.6088,-24.7066,528.5537],[151.6115,-24.7085,497.8744],[151.6144,-24.7083,484.7853],[151.6257,-24.7192,311.3627],[151.6266,-24.7218,309.2947],[151.6345,-24.7248,165.1088],[151.6391,-24.7303,98.0311],[151.646,-24.7281,93.761],[151.6513,-24.7235,92.0111],[151.6509,-24.7162,105.8706],[151.6488,-24.715,90.556],[151.6462,-24.7163,94.333],[151.6442,-24.7144,118.7173],[151.6506,-24.7079,88.3202],[151.6544,-24.7063,85.6181],[151.6595,-24.7071,90.2428],[151.6639,-24.7059,89.199],[151.6734,-24.6967,82.9268],[151.6779,-24.6961,86.2193],[151.6812,-24.6987,76.9546],[151.6863,-24.71,78.1158],[151.6976,-24.7121,79.6823],[151.7003,-24.7166,75.5],[151.7062,-24.7206,83.5355],[151.7099,-24.7288,81.6996],[151.7189,-24.7356,76.1645],[151.7259,-24.7518,75.0],[151.7324,-24.7582,76.3551],[151.7417,-24.764,75.2034],[151.7457,-24.7714,75.0],[151.7509,-24.7359,148.1592],[151.7888,-24.7407,122.5584],[151.8008,-24.7462,133.4491],[151.806,-24.7558,129.6307],[151.8114,-24.7592,133.052],[151.8143,-24.766,133.5217],[151.8256,-24.7684,146.4071],[151.8264,-24.7719,150.3195],[151.8284,-24.7736,152.0669],[151.8317,-24.7733,149.6697],[151.8417,-24.7792,148.508],[151.8399,-24.79,153.9137],[151.843,-24.7919,146.9087],[151.8464,-24.7906,150.0559],[151.8494,-24.7864,149.2529],[151.8629,-24.7861,121.1342],[151.8654,-24.784,129.4965],[151.8654,-24.7801,128.5324],[151.8672,-24.7777,123.3462],[151.8707,-24.7773,116.3769],[151.8721,-24.7755,112.283],[151.8757,-24.7762,111.2386],[151.8844,-24.7687,109.3273],[151.8884,-24.7583,133.3255],[151.894,-24.7537,154.2262],[151.8933,-24.7497,139.0801],[151.8901,-24.7459,163.7382],[151.8924,-24.7425,181.7553],[151.8944,-24.7417,181.2557],[151.8988,-24.7442,157.7881],[151.9231,-24.7387,316.8769],[151.919,-24.7326,268.1749],[151.9193,-24.7282,279.0832],[151.9286,-24.7087,153.3511],[151.9423,-24.7077,121.6163],[151.9476,-24.7051,173.1935],[151.9529,-24.7046,197.428],[151.9535,-24.702,228.4704],[151.9621,-24.7029,365.4832],[151.9598,-24.6892,216.1414],[151.9616,-24.679,126.7089],[151.9607,-24.6765,146.0154],[151.9908,-24.681,62.3087],[151.9943,-24.6567,73.9806],[151.9864,-24.6557,51.9865],[151.9875,-24.6485,58.7274],[151.9954,-24.6495,48.4147],[151.9961,-24.6449,51.2675],[151.9813,-24.6448,72.4047],[151.9696,-24.6412,55.495],[151.9592,-24.6413,58.0785],[151.9605,-24.6308,34.7199],[151.9646,-24.6329,48.1545],[151.9659,-24.6247,48.6913],[151.9613,-24.6165,45.5809],[151.9585,-24.6162,39.2577],[151.9583,-24.6141,40.4921],[151.9613,-24.6128,31.48],[151.96,-24.6082,35.347],[151.9857,-24.6112,35.1218],[151.9886,-24.5915,30.4225],[151.9592,-24.587,12.6847],[151.9638,-24.5851,7.6595],[151.9661,-24.581,8.3913],[151.9687,-24.5802,9.2608],[151.9683,-24.5763,10.2196],[151.9702,-24.5736,9.396],[151.9685,-24.5706,7.588],[151.9692,-24.5687,6.7276],[151.9753,-24.5619,5.7788],[151.9776,-24.5563,6.2521],[151.984,-24.5535,7.6304],[151.9821,-24.5496,5.4305],[151.9844,-24.5507,4.493],[151.9869,-24.5495,5.6029],[151.9877,-24.544,4.443],[151.9852,-24.5435,6.6276],[151.9851,-24.5422,6.3198],[151.9881,-24.5404,6.9382],[151.992,-24.5414,10.8674],[151.9929,-24.5404,4.574],[151.9907,-24.5385,5.6975],[151.9868,-24.538,9.7638],[151.9865,-24.5363,7.2062],[151.9885,-24.5353,6.6266],[151.9942,-24.5365,9.8766],[151.9964,-24.535,8.6827],[151.9906,-24.527,0.8473],[151.9928,-24.5248,5.0921],[151.993,-24.522,1.4072],[151.9995,-24.5155,0.0],[152.0143,-24.5144,0.0],[152.0268,-24.5283,0.0],[152.0316,-24.53,0.0],[152.0466,-24.527,0.0],[152.044,-24.525,0.0],[152.0457,-24.5229,2.4557],[152.0432,-24.5235,4.3361],[152.045,-24.5226,3.6159],[152.0466,-24.5227,2.4557],[152.049,-24.5213,0.0],[152.0513,-24.5187,2.1769],[152.0459,-24.52,4.509],[152.0472,-24.5193,4.0212],[152.047,-24.5188,4.0212],[152.048,-24.5181,4.1728],[152.0542,-24.5173,0.0],[152.0576,-24.5127,0.0],[152.0405,-24.4976,6.7408],[152.0059,-24.4337,0.0],[151.9835,-24.3741,12.282],[151.9786,-24.3531,0.0],[151.9747,-24.3453,0.0],[151.9677,-24.3198,0.0],[151.9615,-24.3102,1.372],[151.9565,-24.2923,14.9298],[151.9537,-24.2876,8.4611],[151.9496,-24.2712,3.516],[151.9486,-24.2579,26.9916],[151.9459,-24.2529,3.6816],[151.9434,-24.2401,0.5887],[151.9374,-24.2331,5.9799],[151.933,-24.233,1.1576],[151.9284,-24.2279,0.0],[151.9247,-24.2224,0.0],[151.9228,-24.2142,0.0],[151.9204,-24.2109,0.5845],[151.9172,-24.209,0.0],[151.9143,-24.2095,0.0],[151.911,-24.2069,0.654],[151.9084,-24.2088,9.2287],[151.9061,-24.208,3.285],[151.8999,-24.1966,1.817],[151.8952,-24.183,17.8486],[151.8918,-24.1641,0.0],[151.8863,-24.1494,6.6696],[151.8848,-24.1502,0.0],[151.8853,-24.1552,18.8415],[151.8826,-24.16,0.888],[151.8841,-24.1611,14.8142],[151.8836,-24.1656,8.5892],[151.8809,-24.1686,0.5422],[151.8827,-24.1703,0.4556],[151.8828,-24.1755,0.6489],[151.8775,-24.1811,1.21],[151.8704,-24.1855,1.9835],[151.869,-24.1896,2.6492],[151.8696,-24.1916,1.6017],[151.8777,-24.1922,2.6765],[151.879,-24.1937,16.1451],[151.8702,-24.1948,2.8356],[151.8674,-24.1995,3.6893],[151.8589,-24.2064,2.9107],[151.8567,-24.2106,2.4288],[151.8517,-24.2133,1.2454],[151.853,-24.2163,2.4288],[151.8491,-24.2185,3.3384],[151.8507,-24.2162,3.1384],[151.8486,-24.2155,2.3922],[151.8495,-24.2128,2.1792],[151.8516,-24.2114,1.0382],[151.8494,-24.2086,2.3296],[151.853,-24.2083,1.2559],[151.8631,-24.1941,0.0],[151.8634,-24.1862,2.6751],[151.8658,-24.1793,4.3386],[151.8695,-24.1779,1.5287],[151.8758,-24.1715,0.3797],[151.8741,-24.1702,0.0],[151.8695,-24.1718,1.0924],[151.8688,-24.17,0.0],[151.8607,-24.1738,3.1907],[151.846,-24.1725,0.0],[151.8447,-24.175,2.6871],[151.8399,-24.1777,2.2053],[151.8359,-24.1769,3.7958],[151.8234,-24.1703,2.2413],[151.8213,-24.1654,4.3838],[151.8277,-24.1675,11.3704],[151.8295,-24.171,0.0],[151.8329,-24.1713,0.7699],[151.8337,-24.1729,2.8002],[151.8406,-24.1707,0.0],[151.8244,-24.1623,1.617],[151.8047,-24.1458,12.1194],[151.7931,-24.1263,1.2564],[151.7847,-24.1219,0.6301],[151.7877,-24.1256,1.0986],[151.7851,-24.1294,2.0754],[151.7854,-24.1248,8.0912],[151.7842,-24.1243,1.3421],[151.7801,-24.1293,2.0646],[151.7733,-24.1271,2.6511],[151.7715,-24.1295,0.5407],[151.7717,-24.1247,0.0],[151.7793,-24.1284,2.0646],[151.7778,-24.1267,1.797],[151.7823,-24.1212,0.1757],[151.7846,-24.1212,0.151],[151.7841,-24.1191,0.0],[151.7867,-24.1177,0.0],[151.7742,-24.0833,0.0],[151.7679,-24.0602,3.006],[151.7669,-24.0403,0.0],[151.7625,-24.0342,0.0],[151.7634,-24.0314,0.0],[151.7659,-24.0321,1.1032],[151.7691,-24.0288,9.12],[151.7679,-24.0241,5.5099],[151.769,-24.0218,3.1448],[151.7658,-24.0188,4.3081],[151.7646,-24.0152,0.6316],[151.7622,-24.0147,0.6402],[151.7579,-24.019,6.509],[151.7534,-24.0184,10.911],[151.7475,-24.0133,0.0],[151.7427,-24.0015,8.9203],[151.7404,-24.0011,0.0],[151.7403,-24.0032,7.3906],[151.7384,-24.0033,0.0],[151.7406,-24.0176,0.0],[151.7451,-24.0233,0.0],[151.7449,-24.032,0.0],[151.743,-24.0362,0.0],[151.7349,-24.0419,1.8628],[151.7382,-24.0451,2.0699],[151.7377,-24.042,2.0727],[151.7414,-24.0423,2.6628],[151.7409,-24.0441,2.6235],[151.7386,-24.0432,2.137],[151.7398,-24.045,2.2532],[151.7383,-24.0468,10.21],[151.7349,-24.0481,3.1726],[151.7349,-24.0465,4.3066],[151.7311,-24.0444,2.4179],[151.7253,-24.0498,3.1919],[151.7268,-24.0548,2.1181],[151.7321,-24.0619,3.1456],[151.7249,-24.07,2.3653],[151.7247,-24.0735,2.2554],[151.7214,-24.0777,2.2314],[151.7223,-24.0809,2.0334],[151.7196,-24.0807,1.6672],[151.7175,-24.0825,1.1673],[151.7159,-24.0873,2.4656],[151.7155,-24.0815,0.0],[151.7208,-24.069,0.0],[151.7158,-24.0581,2.1479],[151.7049,-24.0579,1.8845],[151.7028,-24.0564,4.273],[151.7102,-24.0558,1.1858],[151.7115,-24.0524,4.8158],[151.7099,-24.0455,1.118],[151.706,-24.0463,3.0272],[151.7046,-24.0398,2.2578],[151.7112,-24.0398,2.161],[151.7199,-24.0354,6.1092],[151.7245,-24.0309,2.4801],[151.7244,-24.0289,2.623],[151.7259,-24.0298,2.0525],[151.7273,-24.0245,11.4691],[151.7303,-24.0225,0.0],[151.7256,-24.02,0.0],[151.7153,-24.0194,0.0],[151.6976,-24.0116,7.8544],[151.6888,-24.0058,1.3729],[151.6731,-23.9894,5.5566],[151.6668,-23.9868,0.0],[151.6616,-23.9873,4.5111],[151.656,-23.9836,12.8718],[151.6505,-23.9825,15.8343],[151.6443,-23.9774,2.3694],[151.6369,-23.9816,4.5017],[151.6314,-23.9799,13.3313],[151.6257,-23.9742,4.3684],[151.6235,-23.9748,0.0],[151.6234,-23.9775,0.0],[151.6211,-23.9794,0.0],[151.6106,-23.9793,0.0],[151.6057,-23.9884,12.5011],[151.6069,-23.9957,3.0775],[151.6035,-24.0021,0.4311],[151.603,-24.0066,0.0],[151.6044,-24.0088,0.9777],[151.617,-24.0074,4.7205],[151.6217,-24.01,2.0627],[151.6254,-24.0092,10.1637],[151.6284,-24.0132,0.0],[151.6302,-24.0131,0.942],[151.6336,-24.0052,1.3539],[151.6339,-23.999,2.1767],[151.637,-23.9989,3.1672],[151.6397,-24.0012,3.491],[151.6367,-23.9966,3.0342],[151.6382,-23.9969,3.1802],[151.6416,-24.0026,7.3922],[151.6391,-24.0031,2.2524],[151.6354,-23.9998,3.4706],[151.6367,-24.0043,3.0034],[151.6329,-24.0113,2.1178],[151.6368,-24.0127,2.8687],[151.6384,-24.011,1.9741],[151.6399,-24.0119,1.7295],[151.6413,-24.0146,2.6175],[151.6364,-24.0138,1.7778],[151.6357,-24.0164,2.4077],[151.6468,-24.0276,0.8835],[151.6382,-24.0292,2.4656],[151.6367,-24.0305,0.0],[151.6376,-24.0329,0.0],[151.652,-24.0322,1.1891],[151.6614,-24.038,2.4767],[151.6691,-24.0519,0.0],[151.6718,-24.0525,0.0],[151.6743,-24.0488,1.5204],[151.6775,-24.0496,2.3458],[151.6768,-24.0514,1.5547],[151.6806,-24.0558,0.7736],[151.6814,-24.0603,1.5589],[151.6857,-24.0673,2.3329],[151.6805,-24.0643,1.8034],[151.6755,-24.0662,1.9298],[151.676,-24.0621,0.3371],[151.6704,-24.0575,0.0],[151.6663,-24.0575,0.0],[151.6647,-24.0605,0.0],[151.6662,-24.066,0.0],[151.6696,-24.067,2.4529],[151.6675,-24.0694,2.8288],[151.6778,-24.0766,7.6963],[151.6753,-24.0801,4.5081],[151.6805,-24.0875,4.4393],[151.6841,-24.0889,0.0],[151.6825,-24.1041,1.557],[151.6783,-24.1103,0.0],[151.678,-24.1033,1.449],[151.6801,-24.0999,0.0],[151.6799,-24.097,0.0],[151.6789,-24.092,0.0],[151.6755,-24.0885,0.0],[151.6723,-24.0893,0.6291],[151.6712,-24.0986,2.1125],[151.6698,-24.0904,1.1744],[151.6653,-24.0847,0.0],[151.6603,-24.0848,0.6468],[151.6595,-24.087,3.6082],[151.6615,-24.0904,1.3362],[151.6573,-24.0905,2.6629],[151.6579,-24.0889,0.681],[151.6535,-24.0822,1.0482],[151.654,-24.0762,0.0],[151.6519,-24.0736,0.2748],[151.6489,-24.0752,0.65],[151.6491,-24.0821,1.119],[151.645,-24.0804,0.8173],[151.6432,-24.0778,1.045],[151.6433,-24.0745,0.0],[151.6353,-24.0647,0.0],[151.6375,-24.0641,11.8204],[151.6383,-24.0617,0.0],[151.6347,-24.0558,0.0],[151.621,-24.055,2.8119],[151.6182,-24.0496,0.0],[151.6104,-24.0425,0.6754],[151.6051,-24.0481,3.3065],[151.5997,-24.0476,1.0833],[151.5955,-24.0446,15.7512],[151.5933,-24.0488,4.1297],[151.5881,-24.0476,0.0],[151.5827,-24.0499,1.8725],[151.5778,-24.0462,1.1054],[151.5737,-24.0357,0.0],[151.5649,-24.0369,9.9918],[151.5661,-24.0457,0.2525],[151.5593,-24.0557,1.6381],[151.5598,-24.0578,1.4213],[151.5553,-24.07,8.0438],[151.557,-24.0717,6.3675],[151.5616,-24.0718,1.5163],[151.5759,-24.0776,0.0],[151.5791,-24.0822,0.0],[151.5801,-24.0871,1.7155],[151.5757,-24.0874,2.0856],[151.5738,-24.0814,2.826],[151.5717,-24.0811,0.0],[151.5678,-24.0767,3.6397],[151.5605,-24.0736,0.0],[151.5595,-24.0774,3.1103],[151.5628,-24.085,1.6462],[151.5636,-24.1114,0.0],[151.5621,-24.111,0.0],[151.5599,-24.0998,3.2927],[151.5582,-24.1086,2.8515],[151.5571,-24.1105,1.1035],[151.5551,-24.1091,0.7455],[151.5554,-24.0881,0.9859],[151.5528,-24.0817,0.8079],[151.5508,-24.0847,2.4565],[151.5518,-24.0952,1.3719],[151.5474,-24.1011,2.0989],[151.5483,-24.104,1.467],[151.552,-24.1068,0.9891],[151.5521,-24.1103,1.3387],[151.55,-24.1125,3.3186],[151.5454,-24.1133,1.342],[151.5502,-24.1086,0.8307],[151.5452,-24.1037,1.332],[151.5452,-24.1003,1.9766],[151.5482,-24.0951,0.8744],[151.5477,-24.0894,0.0],[151.546,-24.0874,1.4185],[151.5389,-24.0901,3.0812],[151.5247,-24.0889,1.4019],[151.5248,-24.0846,3.0642],[151.5185,-24.076,3.8849],[151.5173,-24.0703,1.7521],[151.5191,-24.0678,0.9372],[151.5274,-24.0638,0.0],[151.5268,-24.0603,2.8726],[151.5206,-24.0519,2.7938],[151.5156,-24.051,3.6863],[151.5109,-24.0471,0.0],[151.5011,-24.045,0.5266],[151.5011,-24.0398,0.3391],[151.5097,-24.0416,1.1923],[151.5089,-24.0397,2.8824],[151.5135,-24.0379,7.8202],[151.5154,-24.0397,1.6564],[151.5268,-24.0351,2.0178],[151.5444,-24.0375,4.7657],[151.5459,-24.0342,0.0],[151.5439,-24.0293,1.3496],[151.5077,-24.0172,1.3569],[151.4917,-24.0067,11.8542],[151.4676,-23.9947,6.6091],[151.4647,-23.998,8.6098],[151.4549,-23.9984,11.9114],[151.4405,-23.992,8.5857],[151.4377,-23.9939,0.0],[151.4375,-23.997,0.0],[151.4381,-24.0037,0.0],[151.4391,-24.0027,14.0775],[151.4386,-24.0087,13.2578],[151.4427,-24.0148,4.813],[151.4416,-24.0158,0.0],[151.4502,-24.0242,2.7272],[151.4592,-24.0274,2.9932],[151.4582,-24.028199999999998,1.089],[151.4659,-24.0349,0.896],[151.4682,-24.0326,2.3996],[151.4686,-24.0339,3.3957],[151.467,-24.0353,0.896],[151.4704,-24.0382,0.0],[151.4714,-24.0371,3.2914],[151.4699,-24.0358,1.5606],[151.4748,-24.0336,2.7522],[151.4749,-24.0345,2.7522],[151.4713,-24.0352,1.5606],[151.4721,-24.0364,2.7315],[151.4714,-24.0389,0.0],[151.4753,-24.0369,3.3185],[151.4724,-24.0399,0.0],[151.4776,-24.0448,0.0],[151.4785,-24.0497,0.6366],[151.4812,-24.0497,2.6315],[151.4787,-24.052,1.3777],[151.4812,-24.0534,2.3532],[151.4794,-24.0539,0.0],[151.4798,-24.0557,2.0164],[151.4827,-24.0571,3.0973],[151.4796,-24.0575,0.0],[151.4795,-24.0607,0.0],[151.4839,-24.0605,2.5586],[151.4838,-24.0611,1.5657],[151.4807,-24.0618,0.0],[151.487,-24.0632,3.1761],[151.4853,-24.0655,1.6382],[151.4874,-24.0675,1.5419],[151.4938,-24.067,2.1733],[151.4899,-24.0688,0.0],[151.4908,-24.07,2.7804],[151.4878,-24.0695,0.0],[151.488,-24.0725,1.5057],[151.4843,-24.0747,0.9141],[151.4845,-24.0711,0.0],[151.4805,-24.0645,0.0],[151.4764,-24.0639,1.6133],[151.4779,-24.0661,2.472],[151.4719,-24.0639,1.4611],[151.4703,-24.0663,0.9791],[151.4725,-24.0711,2.1884],[151.4718,-24.0728,2.1509],[151.4676,-24.0693,0.0],[151.4658,-24.072,2.3631],[151.4646,-24.0709,2.1303],[151.4672,-24.0678,0.5596],[151.466,-24.0669,0.5596],[151.4668,-24.0593,0.0],[151.4638,-24.0553,1.0016],[151.4619,-24.055,1.593],[151.4621,-24.0616,1.2124],[151.4636,-24.0637,2.7914],[151.4628,-24.0636,2.2502],[151.4619,-24.0624,1.2124],[151.4605,-24.065,2.9833],[151.4602,-24.0637,2.0815],[151.4611,-24.0626,0.3586],[151.458,-24.0607,0.5216],[151.4574,-24.0559,2.1418],[151.4554,-24.0568,1.1615],[151.4555,-24.0553,3.013],[151.4573,-24.0549,2.1418],[151.4562,-24.0473,0.8772],[151.4545,-24.0471,2.3129],[151.4577,-24.0427,0.0],[151.4573,-24.0374,0.0],[151.453,-24.0317,0.7761],[151.4507,-24.0318,2.7571],[151.4503,-24.0296,2.0108],[151.4435,-24.026,0.0],[151.4404,-24.0352,1.3135],[151.4444,-24.0462,0.5276],[151.4482,-24.0473,2.614],[151.4473,-24.0478,2.614],[151.4437,-24.046,0.5276],[151.4457,-24.0485,3.7164],[151.4443,-24.049,0.0],[151.4423,-24.0585,0.9981],[151.4434,-24.0619,1.5171],[151.448,-24.0624,3.269],[151.4456,-24.063,0.7898],[151.447,-24.0649,3.6995],[151.4464,-24.0667,1.5971],[151.4432,-24.0665,3.2872],[151.4436,-24.0727,1.8202],[151.4454,-24.0743,1.9253],[151.4433,-24.0748,2.4747],[151.443,-24.0773,2.6263],[151.4379,-24.0769,1.9635],[151.4402,-24.076,0.0],[151.4353,-24.0581,1.7627],[151.4246,-24.046,0.915],[151.4276,-24.0372,1.0898],[151.4264,-24.0368,1.0898],[151.4325,-24.0324,0.0],[151.4333,-24.0307,0.0],[151.4314,-24.0301,2.8088],[151.4335,-24.0301,0.0],[151.4354,-24.0264,0.8677],[151.4319,-24.0207,0.0],[151.4304,-24.0216,5.4406],[151.4302,-24.0228,3.2508],[151.4292,-24.0235,2.8892],[151.43,-24.0228,3.2508],[151.4302,-24.0216,3.2508],[151.4316,-24.0201,0.0],[151.4307,-24.0153,0.0],[151.4282,-24.0146,2.5539],[151.428,-24.0122,1.3877],[151.4297,-24.0117,2.9199],[151.4327,-24.0059,0.0],[151.4269,-23.9875,0.9743],[151.4069,-23.9677,0.0],[151.3854,-23.956,1.2894],[151.3664,-23.9374,3.5941],[151.3575,-23.9374,0.953],[151.3548,-23.9358,0.0],[151.3477,-23.9211,1.147],[151.3413,-23.9163,5.8452],[151.3347,-23.9067,0.0],[151.3268,-23.888,2.3473],[151.3241,-23.875,3.6246],[151.3214,-23.875,0.0],[151.32,-23.8786,0.0],[151.3147,-23.884,0.5566],[151.3125,-23.8916,0.0],[151.3056,-23.8997,0.0],[151.304,-23.8991,0.0],[151.3018,-23.8908,0.0],[151.3027,-23.8735,0.0],[151.3064,-23.8704,0.0],[151.3152,-23.8826,0.7864],[151.3154,-23.8776,4.0051],[151.3182,-23.874,0.0],[151.3171,-23.8733,5.5149],[151.3181,-23.8714,0.0],[151.3172,-23.8717,0.0],[151.3192,-23.8596,2.4956],[151.3179,-23.86,2.4956],[151.3184,-23.8625,2.3501],[151.3177,-23.8619,2.3501],[151.3171,-23.8583,8.6515],[151.3158,-23.8574,3.4794],[151.318,-23.8546,0.0],[151.3152,-23.8566,3.4794],[151.3118,-23.8524,0.0],[151.3081,-23.8563,0.478],[151.2976,-23.8604,3.4802],[151.2956,-23.8577,1.1983],[151.2962,-23.8538,0.4544],[151.2924,-23.8573,1.009],[151.2868,-23.8539,1.0579],[151.2852,-23.8539,0.839],[151.2847,-23.8559,2.7943],[151.278,-23.8544,1.1167],[151.276,-23.8493,4.6797],[151.2727,-23.8464,0.7173],[151.273,-23.8408,0.0],[151.2714,-23.8373,2.6314],[151.2596,-23.8327,0.321],[151.2609,-23.8326,0.321],[151.2556,-23.8315,2.034],[151.2529,-23.833,0.0],[151.2466,-23.828,0.0],[151.2466,-23.8284,0.0],[151.2505,-23.8312,1.4382],[151.2509,-23.8346,5.8522],[151.233,-23.8306,4.6282],[151.2321,-23.8268,6.0056],[151.2357,-23.8202,3.8603],[151.2449,-23.8269,1.3325],[151.2359,-23.8199,3.8603],[151.2366,-23.818,1.7189],[151.2356,-23.8197,3.8603],[151.2313,-23.8183,5.125],[151.2212,-23.8228,0.4174],[151.2153,-23.8237,0.589],[151.2081,-23.8212,0.0],[151.1955,-23.8268,4.0979],[151.19282334293948,-23.82699827089337,1.6004],[151.1921,-23.8317,2.9353],[151.1917,-23.827,1.6004],[151.1927,-23.8241,2.8406],[151.1914,-23.8214,4.8773],[151.1876,-23.8222,1.9838],[151.1797,-23.8199,3.8961],[151.1729,-23.8159,3.2852],[151.1696,-23.8078,2.8147],[151.1714,-23.8065,0.0],[151.171,-23.8049,1.8337],[151.1692,-23.804,0.0],[151.1635,-23.7925,4.1287],[151.16,-23.7886,1.7783],[151.1501,-23.783,8.0365],[151.1499,-23.7788,3.3396],[151.1442,-23.77,1.4806],[151.145,-23.765,0.6982],[151.1594,-23.7476,0.0],[151.1568,-23.7423,0.5226],[151.1522,-23.7379,1.3147],[151.1532,-23.7338,0.0],[151.1511,-23.7284,0.0],[151.1453,-23.7215,1.3829],[151.1349,-23.7165,0.3479],[151.1324,-23.7139,0.0],[151.134,-23.7092,1.1503],[151.1327,-23.7073,0.0],[151.1266,-23.7124,1.7191],[151.1238,-23.713,2.3231],[151.1243,-23.7123,1.7291],[151.1268,-23.7117,1.7191],[151.128,-23.71,2.0422],[151.1275,-23.7103,0.5427],[151.1265,-23.7117,1.7191],[151.1246,-23.7102,1.6304],[151.1218,-23.7125,2.1047],[151.1242,-23.7096,1.6304],[151.1227,-23.707,2.4749],[151.1241,-23.7043,0.0],[151.1223,-23.7063,2.4749],[151.1223,-23.7045,0.0],[151.1203,-23.7042,0.0],[151.1189,-23.7063,2.0743],[151.1184,-23.7031,1.3832],[151.1148,-23.7066,2.3764],[151.115,-23.7045,1.5816],[151.1096,-23.7041,1.8128],[151.1153,-23.7037,1.5816],[151.1169,-23.7021,0.0],[151.1145,-23.701,3.0557],[151.1171,-23.7015,0.0],[151.1177,-23.7003,0.0],[151.114,-23.6998,3.0557],[151.1111,-23.6964,2.5212],[151.1165,-23.6984,0.0],[151.1173,-23.6973,2.3878],[151.1228,-23.7015,0.0],[151.1278,-23.6999,0.9938],[151.1246,-23.6973,5.5448],[151.1255,-23.6974,5.5448],[151.1281,-23.6996,1.4033],[151.1284,-23.7004,1.4033],[151.1305,-23.7009,2.947],[151.1346,-23.6984,0.0],[151.1341,-23.6949,0.0],[151.1261,-23.6854,0.0],[151.1218,-23.6714,1.7129],[151.1095,-23.6614,3.0013],[151.1044,-23.6603,0.2896],[151.1016,-23.6629,0.845],[151.0996,-23.6618,1.7447],[151.1036,-23.6604,0.2896],[151.0982,-23.6592,0.2273],[151.0916,-23.6599,2.9732],[151.0909,-23.6586,1.6259],[151.0887,-23.6602,2.8449],[151.088,-23.6596,2.8449],[151.0907,-23.6581,1.9842],[151.0972,-23.6588,0.2273],[151.0927,-23.6546,2.3528],[151.0869,-23.6553,2.709],[151.0865,-23.6571,2.7584],[151.0867,-23.6549,2.9055],[151.0885,-23.6548,2.709],[151.088,-23.6538,2.9544],[151.0923,-23.6544,0.4981],[151.0898,-23.6505,0.5324],[151.0858,-23.6484,1.2609],[151.0837,-23.6498,2.0034],[151.0823,-23.654,2.4649],[151.0812,-23.6544,2.4649],[151.0797,-23.6536,3.1809],[151.08,-23.6533,3.1809],[151.0805,-23.6531,3.1809],[151.0815,-23.6542,2.4649],[151.0824,-23.6535,2.4649],[151.083,-23.6501,2.0034],[151.0847,-23.6474,0.0],[151.0806,-23.6444,0.0],[151.0775,-23.6448,2.3756],[151.0685,-23.6384,2.367],[151.0652,-23.6375,0.0],[151.0651,-23.6389,2.0574],[151.0643,-23.6374,0.0],[151.0584,-23.6364,1.0953],[151.0587,-23.6391,1.8171],[151.0478,-23.6299,0.5774],[151.0457,-23.6345,0.3074],[151.0403,-23.637,2.5011],[151.041,-23.6361,2.6672],[151.0458,-23.6339,0.3074],[151.0467,-23.6296,0.0],[151.0417,-23.6198,0.7945],[151.0398,-23.6234,1.7147],[151.038,-23.6236,1.0963],[151.0397,-23.6203,0.5272],[151.0388,-23.6118,1.7189],[151.0347,-23.6028,1.2077],[151.0323,-23.6023,1.7144],[151.0304,-23.5963,2.1505],[151.0286,-23.5956,2.6147],[151.0301,-23.5946,1.2817],[151.0301,-23.5798,1.4626],[151.0266,-23.572,3.1539],[151.0208,-23.5678,1.4253],[151.0152,-23.5653,1.7595],[151.009,-23.569,4.6117],[151.0069,-23.5667,4.742],[150.9754,-23.5554,0.0],[150.9738,-23.5569,0.0],[150.9725,-23.569,0.0],[150.9716,-23.5912,1.6777],[150.968,-23.6051,4.7137],[150.9605,-23.6108,0.0],[150.9395,-23.6146,4.1809],[150.9383,-23.6171,2.1882],[150.935,-23.6178,1.2889],[150.9301,-23.6232,0.0],[150.9253,-23.6228,0.0],[150.9246,-23.6183,0.0],[150.9325,-23.6097,0.0],[150.9542,-23.6043,1.2036],[150.9592,-23.5986,0.0],[150.9565,-23.5783,39.9741],[150.9584,-23.5632,0.0],[150.9568,-23.5599,0.5992],[150.959,-23.5577,0.9323],[150.9591,-23.5535,1.5074],[150.9544,-23.5484,1.9584],[150.9377,-23.5436,1.5423],[150.9328,-23.5447,2.8372],[150.9202,-23.5544,1.142],[150.9083,-23.5591,0.0],[150.9013,-23.5638,0.0],[150.8988,-23.5675,2.1333],[150.8904,-23.5722,2.2736],[150.8748,-23.5768,3.8835],[150.8668,-23.5882,2.2578],[150.8654,-23.6049,2.1782],[150.8616,-23.6183,2.5129],[150.8572,-23.6208,3.2534],[150.8564,-23.618,0.0],[150.843,-23.6119,0.0],[150.8358,-23.605,0.0],[150.8308,-23.6068,0.0],[150.8259,-23.6125,0.6137],[150.8242,-23.6161,0.0],[150.8264,-23.6221,2.6474],[150.8301,-23.6259,0.7419],[150.8378,-23.6286,0.6892],[150.839,-23.6312,2.3051],[150.8352,-23.634,2.432],[150.8234,-23.6315,4.3627],[150.8203,-23.6341,2.0604],[150.8203,-23.6372,1.0875],[150.8264,-23.6413,1.501],[150.8311,-23.6411,3.0782],[150.8354,-23.6383,0.0],[150.837,-23.6392,0.5638],[150.84,-23.6455,1.181],[150.8402,-23.6524,0.0],[150.837,-23.6558,1.6418],[150.833,-23.6548,2.7134],[150.8318,-23.6525,1.6407],[150.8328,-23.6468,1.8333],[150.831,-23.6454,1.6617],[150.8272,-23.6496,2.8695],[150.8194,-23.652,3.5143],[150.8182,-23.6601,0.9658],[150.8197,-23.6651,1.2813],[150.8259,-23.6683,2.1106],[150.8275,-23.6672,2.9098],[150.8293,-23.6598,1.298],[150.8334,-23.6591,2.2085],[150.8347,-23.6714,2.1176],[150.8294,-23.6738,0.9195],[150.8263,-23.6703,1.8255],[150.8176,-23.6725,1.9129],[150.8191,-23.6752,1.9956],[150.8288,-23.6808,6.1445],[150.8272,-23.6834,1.5227],[150.8208,-23.6849,3.0354],[150.8194,-23.6841,4.3376],[150.8198,-23.6796,9.5595],[150.8168,-23.6758,3.3154],[150.8079,-23.6795,3.5139],[150.8,-23.677,3.4579],[150.8017,-23.6807,3.3367],[150.8066,-23.6831,4.3044],[150.8074,-23.6849,5.0172],[150.8033,-23.6896,3.4794],[150.8101,-23.6909,6.4311],[150.8183,-23.7011,10.4126],[150.8187,-23.7038,4.3202],[150.8156,-23.7062,6.7621],[150.8149,-23.7046,7.4935],[150.8124,-23.7049,9.7279],[150.8116,-23.7029,6.3214],[150.8074,-23.7076,10.5541],[150.8028,-23.7079,11.3095],[150.8023,-23.7101,10.5697],[150.7988,-23.7088,12.1897],[150.7992,-23.7135,12.0682],[150.7922,-23.7167,15.7767],[150.7908,-23.7278,24.2866],[150.7844,-23.7303,19.4075],[150.7855,-23.732,19.1418],[150.7825,-23.7359,23.0143],[150.7772,-23.7367,26.438],[150.7777,-23.7393,25.1892],[150.772,-23.7417,28.863],[150.7711,-23.7446,32.9067],[150.7723,-23.7485,33.4117],[150.7697,-23.751,35.4213],[150.7693,-23.7586,42.1495],[150.7652,-23.7595,44.2836],[150.7636,-23.7626,53.3525],[150.7584,-23.7624,60.8854],[150.7565,-23.7676,61.6066],[150.7513,-23.7655,71.097],[150.7495,-23.763,76.0109],[150.7333,-23.761,124.736],[150.726,-23.758,133.0172],[150.7182,-23.7584,250.486],[150.7171,-23.7603,280.6482],[150.7206,-23.7661,243.3273],[150.7101,-23.7759,369.6585],[150.6959,-23.7808,371.1232],[150.6928,-23.7793,279.7198],[150.6817,-23.7817,236.1594],[150.6793,-23.7846,220.531],[150.6814,-23.788,160.9009],[150.6789,-23.7901,131.6939],[150.6801,-23.7952,104.9215],[150.6787,-23.7974,104.4138],[150.6766,-23.797,113.7057],[150.6699,-23.8013,154.7392],[150.6636,-23.7986,152.7857],[150.6619,-23.8012,162.763],[150.6558,-23.8026,283.3254],[150.6559,-23.8043,307.606],[150.6516,-23.808,152.7871],[150.6505,-23.8151,123.5363],[150.6547,-23.8156,130.0251],[150.6543,-23.8187,104.3406],[150.6598,-23.8195,176.7863],[150.659,-23.8246,122.3929],[150.6557,-23.8241,137.7907],[150.6541,-23.8297,132.6458],[150.6475,-23.8317,114.6262],[150.6466,-23.8384,100.8786],[150.6332,-23.8368,106.2374],[150.6279,-23.8421,118.939],[150.6101,-23.8392,295.6003],[150.6026,-23.8336,465.9266],[150.6001,-23.8356,405.6895],[150.6002,-23.8419,362.4184],[150.598,-23.844,391.2299],[150.5983,-23.8486,473.8157],[150.6033,-23.854,434.6354],[150.6031,-23.8565,352.9626],[150.6073,-23.864,404.3656],[150.612,-23.869,374.8245],[150.6115,-23.8723,386.0263],[150.618,-23.8842,315.2706],[150.6176,-23.8911,376.5812],[150.6231,-23.8965,356.6763],[150.6202,-23.9052,388.5599],[150.6259,-23.9074,408.8436],[150.6287,-23.9104,411.8871],[150.6293,-23.9147,398.2811],[150.6337,-23.9179,453.6809],[150.6344,-23.9203,468.7651],[150.6331,-23.9223,557.3282],[150.642,-23.9292,573.5936],[150.6487,-23.9323,572.922],[150.6549,-23.9275,523.3997],[150.6614,-23.9295,563.1222],[150.666,-23.9347,624.9806],[150.6771,-23.9393,567.5879],[150.6786,-23.9451,627.6909],[150.6848,-23.9484,642.2015],[150.6865,-23.9595,603.6894],[150.6895,-23.9627,547.5589],[150.6903,-23.9673,500.9649],[150.6891,-23.9699,543.4327],[150.6922,-23.9712,490.8572],[150.6929,-23.9742,420.0693],[150.6948,-23.975,403.598],[150.6947,-23.9825,311.8114],[150.7022,-23.9875,317.933],[150.7023,-23.992,267.0198],[150.6979,-23.9952,295.4566],[150.6974,-24.0027,319.3533],[150.6951,-24.0062,281.7309],[150.6977,-24.01,270.4767],[150.6993,-24.036,257.5067],[150.6976,-24.0425,268.7318],[150.7004,-24.0422,262.715],[150.702,-24.0482,262.9559],[150.7049,-24.0518,273.0534],[150.7037,-24.0527,274.944],[150.7049,-24.0535,274.4147],[150.7049,-24.0635,296.6499],[150.7071,-24.0634,290.0086],[150.7122,-24.0682,272.8941],[150.7133,-24.0722,282.3824],[150.7206,-24.0752,336.089],[150.7175,-24.0941,299.1031],[150.7197,-24.0959,307.4201],[150.718,-24.1013,333.8717],[150.719,-24.1053,369.5831],[150.7164,-24.1079,395.7374],[150.7235,-24.1181,393.3813],[150.7237,-24.1199,422.7348],[150.7196,-24.1239,366.947],[150.7193,-24.1279,345.7836],[150.723,-24.1377,309.2131],[150.7316,-24.1384,334.4334],[150.737,-24.1412,346.6048],[150.7462,-24.1413,360.1396],[150.7522,-24.1449,409.733],[150.7564,-24.1427,439.52],[150.7699,-24.1488,443.905],[150.7821,-24.1451,226.4641],[150.7807,-24.1539,517.6375],[150.7829,-24.1546,521.6543],[150.786,-24.1528,478.9584],[150.7899,-24.1597,497.7251],[150.7936,-24.1615,535.3982],[150.7962,-24.1673,521.4661],[150.8095,-24.1756,456.5048],[150.8124,-24.1809,504.1607],[150.8142,-24.1799,509.0028],[150.8122,-24.1886,498.1664],[150.8092,-24.1914,495.1434],[150.8099,-24.1975,507.2912],[150.8028,-24.2037,646.0522],[150.8029,-24.214,718.7007],[150.8081,-24.2182,751.8649],[150.8016,-24.2289,722.6654],[150.8001,-24.2436,508.2067],[150.798,-24.247,580.3282],[150.7994,-24.2546,525.4471],[150.7898,-24.257,545.6843],[150.7863,-24.2604,474.2605],[150.7855,-24.2682,502.8165],[150.7829,-24.2702,483.6051],[150.7779,-24.2702,555.3011],[150.7775,-24.275,541.9803],[150.7909,-24.2869,573.4236],[150.7907,-24.2909,540.8365],[150.7858,-24.2954,382.7668],[150.7861,-24.299,352.8204],[150.7844,-24.3016,383.6375],[150.7818,-24.3022,349.4011],[150.7791,-24.3061,319.1921],[150.7795,-24.3165,287.8302],[150.7837,-24.3184,398.353],[150.7829,-24.3228,421.2582],[150.7795,-24.3262,309.9633],[150.7773,-24.3316,267.3246],[150.777,-24.3395,327.4215],[150.7789,-24.3415,430.5598],[150.7751,-24.3495,398.7465],[150.7702,-24.3538,495.8763],[150.7824,-24.3623,509.3289],[150.7838,-24.3676,492.26369999999997],[150.7819,-24.3714,511.819],[150.786,-24.3719,495.7289],[150.7928,-24.3678,482.4808],[150.7979,-24.3668,513.1858],[150.801,-24.3702,540.5944],[150.8062,-24.368,554.1398],[150.815,-24.369,545.1314],[150.8172,-24.3675,565.3304],[150.8261,-24.3669,564.8862],[150.8291,-24.3704,551.2359],[150.8323,-24.371,549.2474],[150.8389,-24.3645,554.2102],[150.8427,-24.3631,551.035],[150.8421,-24.3608,600.1569],[150.8444,-24.357,587.2286],[150.8567,-24.3551,559.8833],[150.8577,-24.3531,580.332],[150.8621,-24.3538,562.212],[150.8635,-24.3552,570.1588],[150.8626,-24.3587,530.7257],[150.8573,-24.3665,374.5657],[150.8578,-24.3706,364.7264],[150.8559,-24.3748,345.6669],[150.8488,-24.3815,326.1846],[150.8608,-24.3927,446.324],[150.8684,-24.4023,618.4689],[150.8627,-24.4048,667.0766],[150.8605,-24.4082,669.1584],[150.8616,-24.4098,663.6859],[150.8646,-24.4103,648.1672],[150.8784,-24.4202,723.6036],[150.8812,-24.4169,730.8295],[150.8862,-24.4153,747.592],[150.8897,-24.4175,714.075],[150.8964,-24.4163,713.9274],[150.9046,-24.4225,730.2726],[150.9074,-24.4214,727.0056],[150.9134,-24.4229,753.9844],[150.9161,-24.4203,786.9988],[150.9154,-24.4185,793.2941],[150.9181,-24.4182,740.3542],[150.9223,-24.4135,825.7579],[150.9248,-24.4069,869.3056],[150.9379,-24.4034,799.3629],[150.939,-24.4089,715.4176],[150.9652,-24.4604,754.6013],[150.9657,-24.4676,865.5763],[150.9787,-24.4714,877.7581]],
[[151.4682,-24.0326,2.3996],[151.4692,-24.0316,2.3996],[151.4695,-24.0321,3.0208],[151.4682,-24.0326,2.3996]]],
[[[151.3385,-23.8399,0.0],[151.3372,-23.8381,0.0],[151.3357,-23.839,0.0],[151.3369,-23.8388,0.0],[151.3385,-23.8399,0.0]]],
[[[151.3412,-23.8263,1.7612],[151.3391,-23.8266,1.6668],[151.3365,-23.8296,3.751],[151.3375,-23.836,0.0],[151.3387,-23.8342,0.2987],[151.3379,-23.8312,3.0895],[151.3413,-23.8296,0.3399],[151.3412,-23.8263,1.7612]]],
[[[151.19282334293948,-23.82699827089337,1.6004],[151.1931,-23.8252,1.9379],[151.1928,-23.827,1.6004],[151.19282334293948,-23.82699827089337,1.6004]]],
[[[151.2214,-23.8189,0.9208],[151.2228,-23.8176,0.0],[151.2207,-23.8169,1.2129],[151.2161,-23.8184,0.0],[151.2184,-23.8205,0.9352],[151.2214,-23.8189,0.9208]]],
[[[151.227,-23.8136,0.6187],[151.2258,-23.8129,0.0],[151.2251,-23.8133,0.0],[151.2269,-23.8146,0.0],[151.227,-23.8136,0.6187]]],
[[[152.2893,-23.8057,0.0],[152.2874,-23.8071,0.0],[152.2877,-23.8087,0.0],[152.2926,-23.8053,0.0],[152.2893,-23.8057,0.0]]],
[[[151.2459,-23.8129,5.495],[151.2471,-23.8109,4.5918],[151.2451,-23.8079,0.0],[151.2454,-23.8128,5.495],[151.2459,-23.8129,5.495]]],
[[[152.3016,-23.8003,0.5284],[152.3004,-23.7997,1.8134],[152.2993,-23.8002,1.8134],[152.3002,-23.8015,1.3251],[152.3016,-23.8003,0.5284]]],
[[[151.3375,-23.7599,4.4117],[151.3357,-23.7558,0.0],[151.3332,-23.7542,1.331],[151.3303,-23.7557,2.3976],[151.3328,-23.7681,0.4396],[151.3303,-23.7718,2.9325],[151.3255,-23.7728,7.2397],[151.3258,-23.7753,11.9604],[151.3233,-23.7773,0.0],[151.3264,-23.7797,9.909],[151.3255,-23.7821,19.7553],[151.3266,-23.7869,8.1633],[151.3253,-23.7867,0.0],[151.3251,-23.7881,0.0],[151.3264,-23.7873,8.1633],[151.3278,-23.7902,9.5033],[151.328,-23.7981,3.3869],[151.3322,-23.8011,9.6741],[151.3308,-23.803,0.0],[151.3331,-23.8029,2.2294],[151.3326,-23.8048,0.0],[151.3334,-23.8041,1.2757],[151.336,-23.8073,2.1926],[151.3398,-23.8061,3.7942],[151.3374,-23.8074,2.1926],[151.3364,-23.8076,2.1926],[151.3367,-23.8134,2.8692],[151.3348,-23.8154,2.048],[151.3364,-23.8247,0.0],[151.3382,-23.8261,1.6667],[151.3392,-23.8254,1.6667],[151.343,-23.8257,0.5252],[151.3453,-23.8246,0.0],[151.3446,-23.8222,1.5943],[151.3454,-23.8235,0.3354],[151.354,-23.819,1.2709],[151.3607,-23.8241,2.0557],[151.3603,-23.8283,0.0],[151.3611,-23.8291,6.9257],[151.3615,-23.8258,2.2378],[151.3642,-23.8475,0.0],[151.3684,-23.8444,8.5236],[151.3689,-23.842,2.3271],[151.3693,-23.8418,2.3271],[151.3697,-23.8421,2.3271],[151.369,-23.842,2.3271],[151.3687,-23.8443,1.6881],[151.3669,-23.8461,1.8764],[151.3655,-23.8554,2.3889],[151.3662,-23.854,0.9877],[151.3642,-23.8587,2.2545],[151.3629,-23.8599,5.2217],[151.3666,-23.8659,6.6401],[151.3657,-23.8688,1.7327],[151.3682,-23.8744,1.6845],[151.3664,-23.8749,0.0],[151.3727,-23.8771,3.6165],[151.374,-23.8811,5.9544],[151.3802,-23.8804,2.1147],[151.385,-23.8748,4.0161],[151.3893,-23.8756,0.0],[151.3888,-23.8681,3.4898],[151.3942,-23.8648,3.3692],[151.3924,-23.8637,13.76],[151.3869,-23.8457,9.7764],[151.3859,-23.8466,9.7889],[151.385,-23.838,10.8427],[151.3778,-23.8283,6.1744],[151.3737,-23.8126,1.2341],[151.3671,-23.8084,5.6145],[151.3597,-23.7982,7.4757],[151.3501,-23.7961,0.7083],[151.3409,-23.7851,5.4948],[151.3412,-23.785,5.4948],[151.3417,-23.7852,5.4948],[151.3419,-23.7849,2.7771],[151.3387,-23.775,4.4877],[151.3375,-23.7599,4.4117]],
[[151.3826,-23.8775,7.2536],[151.3824,-23.8777,7.2536],[151.3822,-23.8776,7.2536],[151.3824,-23.8773,7.2536],[151.3826,-23.8775,7.2536]]],
[[[151.2854,-23.8021,6.3293],[151.2818,-23.8015,0.0],[151.2846,-23.804,17.841],[151.2861,-23.8187,0.0],[151.2886,-23.8049,2.7301],[151.2854,-23.8021,6.3293]]],
[[[151.2559,-23.807,0.2458],[151.2572,-23.8067,0.2458],[151.2555,-23.8027,0.0],[151.2533,-23.806,0.0],[151.2549,-23.8098,0.0],[151.2559,-23.807,0.2458]]],
[[[151.2411,-23.8023,3.6561],[151.2417,-23.8039,4.6539],[151.243,-23.8039,4.6539],[151.2423,-23.8026,3.6561],[151.2411,-23.8023,3.6561]]],
[[[151.2596,-23.7811,0.0],[151.2548,-23.7818,0.0],[151.2562,-23.7876,36.8089],[151.2615,-23.7931,0.0],[151.2623,-23.7922,3.5577],[151.2605,-23.7867,5.8924],[151.2615,-23.7854,8.7863],[151.2596,-23.7811,0.0]]],
[[[151.3193,-23.7651,0.0],[151.3177,-23.764,0.6109],[151.3165,-23.7646,0.0],[151.3185,-23.7653,1.1281],[151.3193,-23.7651,0.0]]],
[[[151.2273,-23.8015,0.0],[151.2285,-23.8029,0.0],[151.2305,-23.8016,1.4139],[151.2291,-23.7989,0.0],[151.2273,-23.8015,0.0]]],
[[[151.2646,-23.7966,1.5592],[151.2633,-23.7959,0.0],[151.2629,-23.7975,0.0],[151.2649,-23.8017,0.0],[151.2659,-23.7987,0.0],[151.2646,-23.7966,1.5592]]]]}}