{"type": "Feature","bbox": [138.4758,-34.8895,138.6695,-34.7634],"geometry": {"type": "MultiPolygon","coordinates": [[[[138.6684,-34.8679,66.1493],[138.6676,-34.8574,95.0013],[138.6661,-34.8575,94.7449],[138.6657,-34.8536,103.0274],[138.6636,-34.8536,99.8851],[138.6597,-34.8456,92.151],[138.6695,-34.845,91.8639],[138.669,-34.8398,89.043],[138.6468,-34.8409,67.1593],[138.6452,-34.8439,67.0082],[138.6395,-34.8429,65.1359],[138.6324,-34.8444,56.3524],[138.6274,-34.8421,57.6854],[138.6283,-34.8409,47.9215],[138.6247,-34.8385,37.6675],[138.5907,-34.8319,4.0434],[138.587,-34.8328,2.4095],[138.5879,-34.8315,2.4095],[138.5754,-34.8321,1.4918],[138.5666,-34.8253,0.1814],[138.5615,-34.8265,1.1175],[138.5585,-34.8252,3.0219],[138.5457,-34.8106,2.157],[138.5407,-34.8131,3.3139],[138.5403,-34.8154,2.6033],[138.542,-34.8169,2.3507],[138.5336,-34.8151,0.0],[138.5336,-34.8199,-0.0592],[138.5308,-34.8226,-0.1745],[138.5329,-34.815,0.0],[138.5161,-34.8109,0.4148],[138.5164,-34.8165,4.286],[138.5096,-34.8281,0.0],[138.5123,-34.832,3.0064],[138.5091,-34.8312,0.0],[138.5085,-34.8359,2.0176],[138.5118,-34.8372,1.6213],[138.5083,-34.8368,2.0901],[138.5072,-34.8406,0.6921],[138.5108,-34.8423,1.9565],[138.5067,-34.8413,4.3224],[138.4983,-34.8438,1.6815],[138.4989,-34.8506,0.4841],[138.4971,-34.8506,1.1002],[138.4956,-34.8421,0.6101],[138.4969,-34.8404,2.6989],[138.4972,-34.8422,0.6101],[138.5033,-34.8409,2.7566],[138.5059,-34.8385,0.4457],[138.5063,-34.8263,0.0],[138.5116,-34.8181,3.0443],[138.5121,-34.8077,1.6944],[138.5096,-34.8008,3.8287],[138.5154,-34.7702,0.0],[138.5134,-34.7663,2.0211],[138.507,-34.7634,0.877],[138.4963,-34.7646,2.4921],[138.4876,-34.7706,5.1304],[138.478,-34.7829,0.0],[138.4854,-34.7905,2.523],[138.4817,-34.7957,0.0],[138.4884,-34.7971,3.331],[138.4902,-34.8123,3.9613],[138.4884,-34.82,4.2541],[138.4787,-34.838,0.0],[138.4758,-34.85,0.0],[138.5022,-34.8525,3.1039],[138.5029,-34.8592,3.0927],[138.5189,-34.8698,5.0715],[138.5168,-34.8664,4.8472],[138.5217,-34.8646,4.9952],[138.5202,-34.8628,5.0278],[138.5234,-34.86,6.0033],[138.5238,-34.8557,3.2113],[138.5291,-34.8555,3.8896],[138.5289,-34.8514,3.3708],[138.5467,-34.8506,6.5805],[138.5482,-34.8724,9.2375],[138.5572,-34.872,8.6192],[138.5576,-34.8808,11.1349],[138.5669,-34.8865,13.5162],[138.5759,-34.886,14.084],[138.5762,-34.8895,12.7055],[138.5836,-34.889,13.5865],[138.5808,-34.8709,9.8661],[138.6017,-34.8699,37.062],[138.6022,-34.8775,49.4328],[138.6195,-34.8764,60.7476],[138.62,-34.8843,55.6142],[138.6264,-34.8794,62.1985],[138.6352,-34.8874,45.5506],[138.6384,-34.8883,44.368899999999996],[138.6475,-34.8842,47.9795],[138.649,-34.879,50.385],[138.6471,-34.8761,53.1649],[138.6561,-34.8716,58.8227],[138.6552,-34.8696,54.9784],[138.6576,-34.8684,55.8636],[138.6568,-34.8657,59.2482],[138.6605,-34.8648,59.1364],[138.6684,-34.8679,66.1493]]]]}
,"properties": {"GID_2": "AUS.8.46_1","GID_0": "AUS","country": "Australia","GID_1": "AUS.8_1","state": "SouthAustralia","NL_NAME_1": "NA","county": "PortAdelaideEnfield","VARNAME_2": "NA","NL_NAME_2": "NA","TYPE_2": "City","ENGTYPE_2": "City","CC_2": "45890","HASC_2": "AU.SA.PE","name": "PortAdelaideEnfield.county","area_km2": 91.89765,"hist_schema_id": "Elevation0-9000","hist_area_km2": {"0": 64.20078,"25": 5.32404,"50": 8.31515,"75": 11.95231,"100": 2.10537}}}