{"type":"Feature","properties":{"GID_2":"AUS.5.151_1","GID_0":"AUS","country":"Australia","GID_1":"AUS.5_1","state":"NewSouthWales","NL_NAME_1":"NA","county":"Wyong","VARNAME_2":"NA","NL_NAME_2":"NA","TYPE_2":"Area","ENGTYPE_2":"Area","CC_2":"18550","HASC_2":"AU.NS.WY","name":"Wyong.county"},
"geometry":{"type": "MultiPolygon","coordinates": [[[[151.5721,-33.2899,0.1467],[151.5712,-33.2893,0.0],[151.5705,-33.2902,0.1467],[151.5725,-33.2913,0.0],[151.5721,-33.2899,0.1467]]],
[[[151.2027,-33.1386,355.7757],[151.204,-33.1469,331.5254],[151.2091,-33.1534,347.6483],[151.2074,-33.1557,347.1118],[151.2017,-33.1573,340.3387],[151.2033,-33.1611,347.7825],[151.2012,-33.1646,350.9696],[151.2015,-33.1675,339.4626],[151.2072,-33.1729,357.7387],[151.2092,-33.179,369.6049],[151.2031,-33.1869,334.5315],[151.1996,-33.1958,323.928],[151.1992,-33.2006,329.7098],[151.2029,-33.2098,345.2972],[151.213,-33.2189,352.1738],[151.2132,-33.2176,338.4915],[151.2235,-33.2191,322.3607],[151.2221,-33.2264,351.2404],[151.2167,-33.233,350.7192],[151.2167,-33.2484,327.1779],[151.2289,-33.25,245.4991],[151.2261,-33.2641,316.984],[151.2334,-33.2651,309.1982],[151.2325,-33.2703,328.4714],[151.239,-33.2713,296.2209],[151.2363,-33.2854,335.05],[151.2471,-33.2869,283.2577],[151.2469,-33.2884,286.869],[151.2515,-33.289,242.7529],[151.2505,-33.2944,259.938],[151.2666,-33.2966,233.1138],[151.2639,-33.3106,233.623],[151.2813,-33.313,155.5398],[151.28,-33.3199,237.9157],[151.2963,-33.3222,107.4255],[151.2969,-33.3194,53.6795],[151.3001,-33.3199,130.3789],[151.2985,-33.3278,120.4021],[151.3025,-33.3284,103.4559],[151.3001,-33.3403,158.6984],[151.2932,-33.3392,251.5535],[151.2909,-33.3502,274.2199],[151.2955,-33.3512,252.051],[151.2983,-33.3542,254.3205],[151.3003,-33.3609,244.9305],[151.312,-33.3648,212.1922],[151.3211,-33.3653,197.4162],[151.3231,-33.3668,190.0761],[151.3302,-33.3645,175.401],[151.3766,-33.3713,22.6822],[151.3765,-33.3739,23.8381],[151.3784,-33.3735,25.7475],[151.3789,-33.375,26.3834],[151.3835,-33.3737,40.5902],[151.3942,-33.38,95.2622],[151.3987,-33.3794,72.3229],[151.4064,-33.3814,167.1338],[151.4092,-33.3843,163.0095],[151.4141,-33.3831,169.8136],[151.4228,-33.3843,175.8466],[151.4297,-33.3826,184.1809],[151.4356,-33.3847,137.1044],[151.4386,-33.39,155.3163],[151.4415,-33.3896,131.6251],[151.4458,-33.383,46.3435],[151.4523,-33.3924,22.5967],[151.4517,-33.3963,33.2205],[151.4562,-33.3969,35.2712],[151.4554,-33.4008,20.2563],[151.4593,-33.4025,11.4791],[151.4614,-33.4022,11.8683],[151.4623,-33.3989,31.7235],[151.476,-33.4009,78.6197],[151.4767,-33.3974,72.5758],[151.485,-33.3986,0.0],[151.4845,-33.3946,0.0],[151.4866,-33.3942,0.3277],[151.4872,-33.3909,0.4878],[151.4834,-33.3843,25.5655],[151.4887,-33.3818,0.1579],[151.4861,-33.3791,0.0],[151.4894,-33.3716,3.3046],[151.4995,-33.3649,0.0],[151.5003,-33.3626,19.2686],[151.503,-33.3635,0.0],[151.5044,-33.3625,0.0],[151.5032,-33.3612,0.0],[151.5017,-33.3623,0.0],[151.5002,-33.3604,21.0593],[151.5021,-33.3547,0.0],[151.5049,-33.3541,0.0],[151.5032,-33.3489,0.0],[151.5043,-33.3454,0.0],[151.5022,-33.3455,4.6928],[151.4981,-33.3383,3.5474],[151.494,-33.3365,2.1509],[151.4908,-33.3381,1.2186],[151.4905,-33.3432,3.2328],[151.4857,-33.3534,1.6516],[151.4742,-33.3657,5.327],[151.4736,-33.3646,5.327],[151.4689,-33.3653,1.5957],[151.4552,-33.359,1.1715],[151.4488,-33.3546,4.3985],[151.4399,-33.3442,0.0],[151.4389,-33.3408,0.0],[151.4403,-33.3323,1.6481],[151.4435,-33.3281,0.0],[151.4522,-33.3253,1.9587],[151.4654,-33.3276,1.5447],[151.4665,-33.3297,0.0],[151.4686,-33.3285,0.0],[151.449,-33.3199,0.2815],[151.445,-33.3122,1.2155],[151.445,-33.3089,0.0],[151.443,-33.3076,0.0],[151.4441,-33.3099,4.1193],[151.4412,-33.309,0.0],[151.4417,-33.3069,2.2677],[151.4525,-33.2986,2.6099],[151.4605,-33.2983,0.5011],[151.465,-33.3019,0.0],[151.4679,-33.2995,0.0],[151.4652,-33.2979,2.4175],[151.4659,-33.2951,0.0],[151.4723,-33.2948,0.0],[151.4719,-33.2908,2.4058],[151.4736,-33.2898,0.0],[151.4735,-33.2852,3.5862],[151.4753,-33.2823,2.0978],[151.4862,-33.282,0.0],[151.4881,-33.2806,0.0],[151.4891,-33.277,6.4887],[151.4914,-33.2758,12.7008],[151.4913,-33.2687,15.8683],[151.4946,-33.2638,3.2588],[151.4999,-33.2624,6.1875],[151.5068,-33.2635,0.0],[151.5093,-33.26,0.9084],[151.5191,-33.2616,0.0],[151.5144,-33.2493,6.1255],[151.5161,-33.2425,5.3101],[151.507,-33.2321,2.5712],[151.507,-33.225,1.9029],[151.5086,-33.2227,6.5444],[151.5197,-33.2194,5.7608],[151.5264,-33.2201,2.4189],[151.5251,-33.2225,0.0],[151.5273,-33.2203,9.6963],[151.5269,-33.2253,0.0],[151.53,-33.2277,10.1161],[151.5285,-33.2319,3.6307],[151.5347,-33.2394,3.0686],[151.5382,-33.2357,6.6817],[151.5439,-33.236,1.5978],[151.5443,-33.2338,4.4776],[151.5476,-33.2331,0.0],[151.5609,-33.2398,0.0],[151.5622,-33.2373,3.6785],[151.5642,-33.2433,3.413],[151.5575,-33.25,0.0],[151.5579,-33.252,2.9385],[151.5563,-33.2508,0.0],[151.557,-33.2453,0.4832],[151.5532,-33.2442,0.0],[151.5533,-33.2461,2.6745],[151.5392,-33.2615,5.2969],[151.5204,-33.2627,0.0],[151.522,-33.2648,0.0],[151.5235,-33.2631,0.0],[151.529,-33.2632,0.0],[151.5373,-33.267,1.173],[151.5439,-33.2723,2.0768],[151.5456,-33.2777,13.094],[151.543,-33.2821,0.0],[151.522,-33.3012,1.228],[151.5154,-33.318,5.9127],[151.5104,-33.3255,0.0],[151.5028,-33.3269,1.8773],[151.5019,-33.3438,0.0],[151.5031,-33.3439,0.4897],[151.5091,-33.3314,2.0915],[151.5253,-33.315,0.8869],[151.5503,-33.2998,0.0],[151.5579,-33.2966,0.5749],[151.564,-33.2966,0.0834],[151.5626,-33.2944,0.0],[151.5642,-33.2918,0.0],[151.5703,-33.2895,0.0],[151.5717,-33.2857,1.1973],[151.579,-33.2822,0.3602],[151.5765,-33.2794,0.0],[151.574,-33.2807,4.8315],[151.5722,-33.2787,0.0],[151.5675,-33.2785,12.5345],[151.5674,-33.2762,1.2063],[151.5636,-33.2717,10.4855],[151.5618,-33.2621,4.4516],[151.5658,-33.2457,3.1181],[151.5739,-33.2339,4.2187],[151.5997,-33.2107,0.9555],[151.6121,-33.2021,2.1438],[151.6164,-33.2024,0.9648],[151.6203,-33.198,6.8044],[151.6251,-33.198,0.0],[151.6223,-33.1956,27.6888],[151.6241,-33.194,0.0],[151.622,-33.1894,0.7178],[151.6241,-33.1869,4.4158],[151.6284,-33.1878,7.8253],[151.6287,-33.1846,11.5279],[151.6301,-33.185,0.0],[151.6283,-33.1791,9.3402],[151.6306,-33.1771,0.0],[151.597,-33.172,33.1306],[151.5987,-33.1637,12.7514],[151.5959,-33.1633,10.365],[151.5949,-33.1573,14.5105],[151.5879,-33.1499,17.0836],[151.5913,-33.1414,0.0],[151.5873,-33.1375,4.2583],[151.5912,-33.1317,0.0],[151.5871,-33.1309,1.0599],[151.5844,-33.1267,14.3686],[151.5898,-33.1223,0.0],[151.5895,-33.1157,0.0],[151.5805,-33.1053,0.0],[151.5813,-33.1026,0.0],[151.5792,-33.1041,0.0],[151.583,-33.1102,12.3212],[151.5851,-33.1192,9.2268],[151.5839,-33.1229,0.0],[151.5796,-33.1248,0.0],[151.5775,-33.1289,3.4469],[151.5727,-33.1323,7.3104],[151.5667,-33.1303,0.0],[151.5685,-33.1341,4.3261],[151.5667,-33.1363,4.8834],[151.5572,-33.1316,2.1669],[151.556,-33.1409,16.0361],[151.5528,-33.1457,0.0],[151.5673,-33.1506,6.318],[151.5719,-33.1548,3.9441],[151.5719,-33.1574,6.0892],[151.5647,-33.1676,2.9877],[151.5676,-33.1672,4.4054],[151.5689,-33.1686,3.9701],[151.5679,-33.1753,0.0],[151.5594,-33.1715,13.4741],[151.5535,-33.1629,8.4141],[151.5537,-33.1598,14.2313],[151.5482,-33.1572,1.9248],[151.5449,-33.1574,6.2533],[151.5442,-33.1508,1.4711],[151.5411,-33.1482,4.3202],[151.5417,-33.1443,0.0],[151.5359,-33.1433,1.0995],[151.5377,-33.1454,9.4532],[151.5352,-33.1482,0.0],[151.535,-33.1521,0.0],[151.5311,-33.1599,3.2892],[151.5302,-33.1608,3.2892],[151.5279,-33.1591,0.0],[151.5284,-33.1558,0.0],[151.5262,-33.1575,0.5],[151.5297,-33.1694,12.7272],[151.5263,-33.174,15.5],[151.5276,-33.18,15.5],[151.5155,-33.1839,13.0],[151.5122,-33.1943,42.9246],[151.5029,-33.1924,42.0978],[151.4905,-33.1868,46.6781],[151.488,-33.1891,38.7431],[151.4746,-33.1896,55.3021],[151.4684,-33.1934,46.1959],[151.4644,-33.1939,57.4044],[151.4611,-33.1997,54.225],[151.4551,-33.2028,55.0495],[151.4432,-33.201,71.406],[151.4447,-33.1934,53.3765],[151.4386,-33.1954,45.0182],[151.4354,-33.1999,61.8989],[151.4315,-33.1993,67.551],[151.4332,-33.1942,71.0275],[151.4185,-33.1921,84.3285],[151.4179,-33.1952,86.9314],[151.411,-33.1941,66.2773],[151.4124,-33.1893,147.7161],[151.4111,-33.1875,150.6268],[151.3986,-33.1857,77.3147],[151.4006,-33.1759,248.2657],[151.4035,-33.1763,202.6275],[151.4041,-33.1736,201.0472],[151.3994,-33.1729,183.1351],[151.3978,-33.1702,175.5719],[151.39,-33.1699,104.2219],[151.3961,-33.1672,113.4875],[151.3975,-33.165,120.1938],[151.3925,-33.1578,190.3831],[151.3923,-33.1521,198.0853],[151.3883,-33.1501,172.8376],[151.3874,-33.1432,186.8335],[151.3829,-33.1393,206.6783],[151.3839,-33.1296,256.9239],[151.3809,-33.1267,254.4501],[151.38,-33.1208,272.0595],[151.3822,-33.1164,288.4793],[151.3804,-33.1131,293.5786],[151.3824,-33.1091,297.3541],[151.38,-33.1066,315.3554],[151.379,-33.0998,356.2436],[151.3741,-33.097,355.4838],[151.3728,-33.0946,363.4462],[151.3694,-33.0956,374.0279],[151.3682,-33.094,404.6216],[151.3639,-33.0943,408.2416],[151.3607,-33.0908,410.0958],[151.3566,-33.09,437.4527],[151.3571,-33.0818,432.05],[151.3333,-33.0695,448.0762],[151.3315,-33.0622,433.6836],[151.3258,-33.0598,417.6724],[151.3233,-33.0553,401.2639],[151.3192,-33.053,403.1729],[151.3157,-33.0485,419.2765],[151.309,-33.0473,430.0642],[151.3054,-33.0437,438.6073],[151.3017,-33.0453,445.7234],[151.3,-33.0514,423.8998],[151.2959,-33.0549,443.1542],[151.2888,-33.0552,429.654],[151.2816,-33.0584,464.331],[151.278,-33.0567,460.8379],[151.2664,-33.0576,565.3596],[151.2663,-33.0686,488.5048],[151.2622,-33.075,467.6099],[151.2643,-33.0794,432.0789],[151.2623,-33.0847,403.795],[151.2637,-33.0896,381.6205],[151.2601,-33.0943,407.9267],[151.2618,-33.0987,396.9435],[151.2559,-33.1012,404.3398],[151.2488,-33.1001,374.8513],[151.241,-33.1079,327.7836],[151.2323,-33.1085,310.768],[151.2311,-33.11,308.1759],[151.2315,-33.1145,337.3425],[151.2214,-33.1203,316.0045],[151.2189,-33.1236,329.6295],[151.2191,-33.1302,378.7476],[151.214,-33.1293,368.0671],[151.205,-33.1342,373.4929],[151.205,-33.1366,358.4343],[151.2027,-33.1386,355.7757]]]]}}