{"type":"Feature","properties":{"GID_2":"AUS.7.68_1","GID_0":"AUS","country":"Australia","GID_1":"AUS.7_1","state":"Queensland","NL_NAME_1":"NA","county":"Weipa","VARNAME_2":"NA","NL_NAME_2":"NA","TYPE_2":"Town","ENGTYPE_2":"Town","CC_2":"37300","HASC_2":"NA","name":"Weipa.county"},
"geometry":{"type": "MultiPolygon","coordinates": [[[[141.9205,-12.68,17.608],[141.923,-12.6821,17.2874],[141.9214,-12.6844,13.8204],[141.9258,-12.6874,16.487],[141.9289,-12.6829,18.4282],[141.9337,-12.6862,17.8672],[141.9348,-12.6846,19.6793],[141.9245,-12.6777,20.5396],[141.9294,-12.6707,19.3188],[141.9277,-12.6696,19.3188],[141.9229,-12.6766,17.9422],[141.9158,-12.6719,17.7211],[141.9147,-12.6735,14.2136],[141.9218,-12.6782,18.3441],[141.9205,-12.68,17.608]]],
[[[141.8457,-12.6633,7.8528],[141.8463,-12.6663,0.0],[141.86,-12.6652,1.5004],[141.8614,-12.6639,7.3514],[141.8557,-12.6596,10.1239],[141.8546,-12.6571,9.6747],[141.8642,-12.6506,19.852],[141.8656,-12.6424,9.9911],[141.8718,-12.643,18.956],[141.8801,-12.6402,21.0843],[141.89,-12.6401,15.2993],[141.892,-12.6156,7.3252],[141.8969,-12.605,3.5857],[141.8948,-12.6021,0.6741],[141.8861,-12.6173,0.0],[141.8815,-12.6201,3.4939],[141.8768,-12.6192,0.0],[141.8729,-12.6275,2.0786],[141.8662,-12.6275,0.0],[141.861,-12.6365,1.6235],[141.8519,-12.6386,2.6845],[141.8601,-12.6385,9.3643],[141.8521,-12.6405,11.7156],[141.8516,-12.6442,5.9885],[141.8622,-12.6475,9.1005],[141.855,-12.6514,12.6806],[141.8543,-12.658,9.5032],[141.8498,-12.6577,11.7297],[141.8457,-12.6633,7.8528]]]]}}