{"type": "Feature","bbox": [147.2968,-33.7206,148.4321,-33.0375],"geometry": {"type": "MultiPolygon","coordinates": [[[[147.5121,-33.7056,205.8199],[147.5173,-33.7063,207.3649],[147.5256,-33.6858,206.9835],[147.5311,-33.6796,207.3106],[147.5657,-33.6662,207.0969],[147.5854,-33.6349,207.5844],[147.6045,-33.625,207.8742],[147.6095,-33.6149,209.203],[147.6826,-33.6239,231.3835],[147.6803,-33.6294,245.3194],[147.6718,-33.6408,241.7692],[147.671,-33.6453,232.0797],[147.6642,-33.6567,230.8752],[147.6777,-33.6584,222.1024],[147.6711,-33.6954,215.571],[147.6965,-33.7038,227.2663],[147.7384,-33.7039,241.2726],[147.7638,-33.7071,279.5416],[147.7742,-33.6945,266.6264],[147.7782,-33.6867,258.4227],[147.7925,-33.6863,263.0157],[147.8035,-33.6938,279.7891],[147.8284,-33.6943,277.6746],[147.8663,-33.6999,264.7917],[147.8684,-33.6968,262.8594],[147.8793,-33.7004,280.4114],[147.8932,-33.7021,261.1888],[147.8941,-33.7002,259.9918],[147.9008,-33.7011,258.8689],[147.9438,-33.7087,291.3584],[147.948,-33.7009,290.7347],[148.0833,-33.7206,268.6082],[148.0831,-33.7174,267.7169],[148.0808,-33.7163,268.4238],[148.0824,-33.7142,267.0238],[148.0787,-33.7101,267.1013],[148.0791,-33.7058,266.9643],[148.077,-33.7041,265.1847],[148.0791,-33.7042,266.0458],[148.0801,-33.7025,265.3625],[148.081,-33.6977,265.124],[148.0836,-33.6953,262.9221],[148.0823,-33.6932,266.3818],[148.0853,-33.6922,261.7123],[148.0844,-33.6902,265.2622],[148.0897,-33.6858,260.789],[148.0894,-33.6786,258.552],[148.0871,-33.6774,259.6385],[148.0898,-33.6758,258.7779],[148.0903,-33.6715,258.4231],[148.0939,-33.6674,256.8258],[148.0948,-33.6643,255.9018],[148.0935,-33.6578,255.133],[148.0975,-33.6546,254.1548],[148.1002,-33.6483,252.7306],[148.1518,-33.6547,259.6698],[148.1527,-33.6496,260.282],[148.1692,-33.6517,265.531],[148.1725,-33.6326,262.302],[148.1738,-33.6325,262.7056],[148.1871,-33.6415,269.0986],[148.2401,-33.6362,293.2054],[148.2491,-33.638,304.9368],[148.2564,-33.6441,316.2625],[148.2578,-33.6443,319.2862],[148.2588,-33.6398,315.2392],[148.2716,-33.6415,351.0629],[148.2699,-33.6489,348.6633],[148.3243,-33.6557,281.5938],[148.3272,-33.6549,281.6071],[148.3282,-33.6523,281.9238],[148.3267,-33.651,278.5493],[148.3285,-33.6482,280.5359],[148.3342,-33.6458,280.8552],[148.3339,-33.6439,280.1489],[148.3367,-33.6443,280.8361],[148.339,-33.6396,277.6388],[148.3411,-33.64,276.9571],[148.3409,-33.6363,277.3364],[148.3389,-33.6349,274.7049],[148.3418,-33.6319,274.7025],[148.3402,-33.6287,274.2817],[148.3427,-33.6268,275.3599],[148.3417,-33.6247,273.7686],[148.3436,-33.624,273.3365],[148.3427,-33.6232,273.3365],[148.3449,-33.6175,271.7838],[148.3437,-33.6158,270.664],[148.3482,-33.6125,271.202],[148.3503,-33.6088,271.0945],[148.3535,-33.6095,272.5083],[148.3562,-33.6083,270.5995],[148.3598,-33.6103,268.133],[148.369,-33.6077,267.5661],[148.3734,-33.6091,266.5826],[148.3737,-33.6073,266.0195],[148.3711,-33.6071,267.4573],[148.3723,-33.604,270.475],[148.3896,-33.6063,265.5064],[148.3868,-33.6007,264.2359],[148.4138,-33.6043,263.1755],[148.418,-33.5967,261.4642],[148.4138,-33.596,265.515],[148.4024,-33.5863,261.6015],[148.3961,-33.5848,261.3014],[148.3935,-33.5817,260.1694],[148.3885,-33.5797,262.8847],[148.3879,-33.5725,260.6894],[148.3905,-33.5677,260.204],[148.3933,-33.5672,261.0035],[148.3982,-33.5697,260.9494],[148.4014,-33.5676,260.2826],[148.4095,-33.5703,258.8093],[148.4145,-33.5669,261.8704],[148.4168,-33.5711,259.698],[148.4133,-33.5725,259.9104],[148.4167,-33.574,260.7785],[148.4223,-33.5693,260.7338],[148.4236,-33.5652,261.8609],[148.4209,-33.5626,258.0484],[148.4213,-33.5596,257.7828],[148.4179,-33.5571,260.4683],[148.4138,-33.556,259.9226],[148.4113,-33.5587,260.2499],[148.4073,-33.5555,259.182],[148.4026,-33.5573,258.9514],[148.3966,-33.5539,262.4343],[148.3913,-33.547,258.2438],[148.3904,-33.54,256.6009],[148.4002,-33.5351,254.3289],[148.3928,-33.5187,262.8913],[148.3848,-33.5187,257.7703],[148.3754,-33.5128,257.7168],[148.3696,-33.5119,254.0217],[148.3667,-33.5139,257.4428],[148.3593,-33.5124,256.3488],[148.3571,-33.5105,253.2944],[148.3564,-33.5023,255.5588],[148.3513,-33.4941,254.4781],[148.3429,-33.4971,255.1606],[148.3397,-33.4917,253.5785],[148.3359,-33.4925,253.3384],[148.3295,-33.4906,255.9157],[148.3259,-33.4923,252.3201],[148.3232,-33.4912,254.8321],[148.3223,-33.4924,252.6554],[148.3249,-33.4974,254.0708],[148.3152,-33.4999,251.3695],[148.3127,-33.496,252.0945],[148.3098,-33.5002,251.6014],[148.3083,-33.4989,254.9781],[148.308,-33.4941,251.1606],[148.3045,-33.4938,252.053],[148.3033,-33.4971,249.9676],[148.3011,-33.4981,254.1187],[148.2984,-33.4967,254.953],[148.2978,-33.4942,252.038],[148.2906,-33.4919,252.3902],[148.2902,-33.4866,253.9759],[148.2939,-33.4773,256.3109],[148.3001,-33.4737,254.3374],[148.3006,-33.4706,254.9194],[148.2983,-33.4681,254.6535],[148.3,-33.4671,255.1355],[148.3044,-33.4692,256.9142],[148.3068,-33.4674,256.5261],[148.3073,-33.4657,258.714],[148.3052,-33.4626,257.8379],[148.3076,-33.462,258.1163],[148.3128,-33.4665,257.0861],[148.3161,-33.4662,257.7123],[148.3158,-33.4605,258.7034],[148.3082,-33.4579,257.0188],[148.3117,-33.4564,258.4211],[148.3132,-33.4532,260.3663],[148.3197,-33.4525,259.6335],[148.3186,-33.4492,260.1295],[148.3232,-33.4488,259.95],[148.3242,-33.4543,261.9156],[148.3293,-33.4559,262.8135],[148.3311,-33.4543,262.3921],[148.3303,-33.4532,262.3921],[148.3284,-33.4545,262.0681],[148.3293,-33.4516,262.162],[148.3335,-33.4483,265.0548],[148.3315,-33.4459,264.4672],[148.3333,-33.4455,264.4672],[148.333,-33.4442,261.9688],[148.3472,-33.4501,267.249],[148.3458,-33.4518,266.6223],[148.3473,-33.453,266.9727],[148.3481,-33.4516,267.4735],[148.35,-33.4536,269.2077],[148.3498,-33.4437,265.4448],[148.3525,-33.4439,265.6172],[148.3564,-33.4487,267.1895],[148.3574,-33.4473,268.1328],[148.3595,-33.4495,267.5434],[148.3616,-33.4492,268.9672],[148.3605,-33.4463,268.5881],[148.3653,-33.4354,271.0879],[148.355,-33.434,266.2204],[148.3555,-33.431,269.3359],[148.3441,-33.4295,273.8986],[148.3459,-33.4209,292.5045],[148.3572,-33.4217,353.3066],[148.3576,-33.4196,361.3197],[148.3678,-33.4208,299.5256],[148.3679,-33.4108,310.1286],[148.384,-33.413,278.523],[148.3852,-33.412,277.1849],[148.3874,-33.4137,280.7039],[148.3906,-33.406,292.3844],[148.3958,-33.4046,276.517],[148.3958,-33.4023,280.7316],[148.3982,-33.4011,278.2944],[148.4064,-33.4055,285.2133],[148.4084,-33.4014,286.0527],[148.4058,-33.398,280.7131],[148.4012,-33.3971,279.602],[148.4031,-33.3924,280.5345],[148.4071,-33.3927,279.8284],[148.4079,-33.3957,281.0275],[148.4107,-33.3958,281.0065],[148.4127,-33.3944,281.9253],[148.4107,-33.39,281.6823],[148.4182,-33.385,283.6372],[148.4174,-33.3804,283.9277],[148.413,-33.3799,284.7076],[148.4147,-33.3703,286.5429],[148.4032,-33.3689,291.1426],[148.402,-33.3649,292.8351],[148.3969,-33.364,310.3881],[148.3957,-33.3607,295.8211],[148.3929,-33.3603,303.3826],[148.3939,-33.3587,297.2542],[148.3865,-33.3569,307.7354],[148.384,-33.3533,301.9828],[148.3863,-33.3503,302.9122],[148.3919,-33.3473,308.0681],[148.3934,-33.3415,310.776],[148.397,-33.3388,335.1212],[148.3974,-33.3359,318.5951],[148.4036,-33.331,325.8241],[148.4031,-33.3289,340.3887],[148.4057,-33.3291,357.3297],[148.4059,-33.3275,336.249],[148.4097,-33.3265,331.6743],[148.4121,-33.3289,338.3028],[148.4156,-33.3276,336.7582],[148.4131,-33.3142,352.7155],[148.4107,-33.3127,354.1292],[148.4103,-33.3092,366.9304],[148.4079,-33.3092,358.1606],[148.4076,-33.3061,409.5673],[148.4049,-33.3056,380.6406],[148.402,-33.2999,378.4688],[148.4034,-33.2971,378.4893],[148.4008,-33.294,385.0998],[148.4007,-33.2876,390.124],[148.3985,-33.2835,394.3786],[148.4,-33.2802,401.8858],[148.3972,-33.27,418.7955],[148.4017,-33.2668,417.8641],[148.4017,-33.2596,424.321],[148.4042,-33.26,428.5193],[148.405,-33.2568,432.2831],[148.4148,-33.2507,443.8025],[148.4165,-33.2468,446.7255],[148.4221,-33.2428,455.2747],[148.4262,-33.2419,459.4316],[148.4283,-33.2389,461.2744],[148.4319,-33.2319,469.0376],[148.4321,-33.2263,474.6465],[148.4282,-33.2216,482.4518],[148.4307,-33.2162,502.9234],[148.4161,-33.2181,499.6143],[148.4119,-33.2224,510.407],[148.4032,-33.2257,522.5659],[148.3808,-33.2196,498.1588],[148.3661,-33.2184,471.3281],[148.3617,-33.2156,472.1995],[148.3563,-33.2196,457.4228],[148.3488,-33.2174,440.2659],[148.3441,-33.2237,423.9711],[148.3378,-33.224,423.358],[148.3101,-33.2072,361.4893],[148.3064,-33.2113,358.4222],[148.3051,-33.2108,358.5585],[148.2997,-33.2054,347.6058],[148.2996,-33.2023,346.4839],[148.2947,-33.1996,341.0869],[148.2924,-33.2003,340.0135],[148.2876,-33.1982,335.4513],[148.2864,-33.2047,338.6264],[148.2706,-33.2028,332.0036],[148.271,-33.2008,327.5106],[148.2591,-33.2003,323.2665],[148.2523,-33.1982,319.4384],[148.2401,-33.1985,315.2684],[148.2366,-33.2006,317.2002],[148.237,-33.2045,312.9227],[148.2352,-33.2088,311.6278],[148.2461,-33.2259,334.3827],[148.2483,-33.2354,357.3701],[148.2517,-33.2376,365.9785],[148.2542,-33.2457,387.0164],[148.233,-33.2433,377.5502],[148.2269,-33.2758,359.2748],[148.1952,-33.2716,317.4031],[148.1719,-33.2536,299.0842],[148.1656,-33.2527,291.8405],[148.165,-33.2565,290.5804],[148.1007,-33.2714,285.7766],[148.097,-33.2774,288.7349],[148.0847,-33.2758,281.742],[148.0894,-33.2672,275.0499],[148.079,-33.2657,274.3287],[148.0799,-33.2644,274.0637],[148.0083,-33.2539,256.211],[148.0069,-33.2615,258.4069],[147.9953,-33.2599,251.952],[147.997,-33.2518,251.8795],[147.9892,-33.2505,249.3311],[147.9887,-33.2532,250.6001],[147.9753,-33.2514,246.6292],[147.9769,-33.249,247.2933],[147.9476,-33.245,242.462],[147.9469,-33.2481,247.9405],[147.9206,-33.2445,239.4958],[147.9246,-33.2249,240.7788],[147.9181,-33.224,240.1665],[147.9202,-33.2123,240.7047],[147.9149,-33.2116,239.7776],[147.9159,-33.2046,241.2086],[147.9129,-33.2067,241.8403],[147.9136,-33.2099,243.5869],[147.9115,-33.2098,244.0446],[147.9083,-33.2135,242.0151],[147.9003,-33.2146,239.3593],[147.8969,-33.2128,237.3971],[147.8955,-33.2144,243.7446],[147.8862,-33.2102,242.1447],[147.8792,-33.2117,242.1742],[147.8796,-33.2082,237.7551],[147.8816,-33.2065,237.0105],[147.8804,-33.2048,237.7499],[147.8453,-33.2002,353.8499],[147.8452,-33.2116,334.844],[147.6357,-33.1861,209.9583],[147.6405,-33.1577,212.701],[147.6536,-33.1593,213.3474],[147.6549,-33.1509,213.6886],[147.6429,-33.1496,213.3586],[147.6436,-33.1383,213.4037],[147.5658,-33.1287,208.3744],[147.5725,-33.0818,215.6216],[147.5647,-33.0821,213.2535],[147.5635,-33.0891,213.3396],[147.5487,-33.0875,215.7723],[147.555,-33.0482,216.7559],[147.4704,-33.0381,218.6184],[147.4693,-33.0448,216.057],[147.4568,-33.0434,218.9735],[147.4574,-33.0398,219.7441],[147.444,-33.0382,222.3969],[147.4433,-33.0418,222.0323],[147.4053,-33.0375,243.7725],[147.3885,-33.1394,200.8917],[147.381,-33.1366,202.7145],[147.3824,-33.1324,204.3124],[147.3868,-33.1328,204.0472],[147.3853,-33.1301,202.7335],[147.377,-33.1294,199.6612],[147.377,-33.1319,201.7745],[147.3718,-33.1298,201.6326],[147.3712,-33.132,201.7641],[147.3692,-33.1318,200.3158],[147.3639,-33.1274,200.999],[147.3622,-33.1232,199.7995],[147.3609,-33.1226,199.2959],[147.3602,-33.1248,202.3765],[147.3576,-33.1212,199.5442],[147.3543,-33.1205,201.1276],[147.3512,-33.1248,202.6123],[147.3407,-33.1233,204.116],[147.3402,-33.1212,198.6107],[147.3431,-33.1181,199.1106],[147.3424,-33.1143,201.7507],[147.3311,-33.1128,199.2435],[147.3305,-33.1101,199.7388],[147.3292,-33.1105,198.0974],[147.3291,-33.1132,199.2116],[147.3272,-33.1114,198.9235],[147.3246,-33.1119,198.5565],[147.3252,-33.1133,198.1283],[147.3212,-33.1134,199.1642],[147.3174,-33.1174,198.6759],[147.312,-33.1093,200.6124],[147.3124,-33.1031,197.4807],[147.3102,-33.1028,197.973],[147.3081,-33.1044,199.1697],[147.2968,-33.1716,198.2098],[147.2974,-33.1761,197.2707],[147.2999,-33.1789,197.3393],[147.3056,-33.1785,198.7882],[147.3062,-33.1803,197.9119],[147.3038,-33.1834,197.2166],[147.302,-33.1829,197.915],[147.2996,-33.1874,199.3243],[147.2975,-33.1865,199.4267],[147.2978,-33.1912,198.3763],[147.2994,-33.1939,199.0555],[147.3007,-33.1924,198.92],[147.3027,-33.1936,199.2761],[147.3024,-33.1954,198.9484],[147.3062,-33.1962,199.2151],[147.311,-33.1948,199.2714],[147.3119,-33.1983,199.1639],[147.3144,-33.1991,199.8103],[147.3107,-33.202,200.7391],[147.308,-33.2018,198.8026],[147.3088,-33.2071,200.2913],[147.3149,-33.2063,201.2896],[147.3151,-33.2046,204.2941],[147.3192,-33.205,200.3809],[147.3194,-33.207,199.6741],[147.3259,-33.2081,201.4949],[147.3263,-33.2112,199.8086],[147.3302,-33.2146,201.1979],[147.3345,-33.2135,202.318],[147.3414,-33.2149,200.9332],[147.3407,-33.2133,201.4951],[147.3419,-33.2124,202.5833],[147.3517,-33.2164,202.2748],[147.3482,-33.2189,201.6993],[147.3477,-33.2215,200.9771],[147.3537,-33.2186,201.9574],[147.3572,-33.2245,203.3744],[147.3632,-33.2244,204.0999],[147.3652,-33.22,204.5969],[147.3682,-33.2192,203.7713],[147.3682,-33.2172,201.4081],[147.3762,-33.2195,203.3436],[147.3788,-33.2156,203.1783],[147.3787,-33.2175,203.8608],[147.3816,-33.2202,202.7334],[147.3868,-33.2188,203.7148],[147.3999,-33.2228,203.8801],[147.4044,-33.2209,203.7586],[147.4102,-33.2256,204.7022],[147.4209,-33.2282,205.5687],[147.4278,-33.2273,205.7319],[147.4285,-33.2253,206.068],[147.433,-33.2233,206.882],[147.4434,-33.2229,205.9963],[147.4454,-33.2247,206.6177],[147.4427,-33.2284,206.8995],[147.4425,-33.2308,206.4973],[147.444,-33.2315,208.023],[147.4496,-33.2304,207.0183],[147.4516,-33.2268,207.9879],[147.4575,-33.2262,206.9201],[147.4588,-33.2283,206.3999],[147.4648,-33.2274,205.9848],[147.4657,-33.2297,205.5799],[147.4631,-33.2342,206.1603],[147.4713,-33.2405,206.3355],[147.4719,-33.2445,212.5725],[147.4774,-33.2442,206.6112],[147.4788,-33.246,212.0659],[147.4806,-33.2452,208.2969],[147.4855,-33.2466,206.6042],[147.4828,-33.2512,207.5417],[147.4837,-33.2558,207.4107],[147.4823,-33.2582,207.4548],[147.4873,-33.2577,207.0721],[147.4894,-33.2592,206.1621],[147.4935,-33.2569,206.6758],[147.497,-33.2573,206.8333],[147.4962,-33.2622,210.1248],[147.4977,-33.265,207.3443],[147.4993,-33.2637,206.6743],[147.5048,-33.2639,206.2181],[147.5039,-33.2614,205.6459],[147.5064,-33.2595,210.1965],[147.509,-33.2638,206.8929],[147.5147,-33.2631,207.0942],[147.4862,-33.4223,208.8645],[147.4839,-33.4233,209.2016],[147.4804,-33.4417,208.4872],[147.4264,-33.4346,207.5176],[147.4234,-33.4497,206.5112],[147.4191,-33.4559,206.9256],[147.4155,-33.4653,207.215],[147.4112,-33.4907,212.2651],[147.4092,-33.4904,207.9124],[147.4133,-33.4935,206.6278],[147.414,-33.4969,209.0377],[147.4075,-33.4962,206.9927],[147.4035,-33.5274,208.4085],[147.4078,-33.5307,207.4472],[147.4171,-33.5319,204.0],[147.4441,-33.6127,204.0],[147.4693,-33.6744,204.0],[147.4688,-33.6789,204.0],[147.4715,-33.6824,204.0],[147.4716,-33.6858,205.8265],[147.4791,-33.6889,204.9884],[147.4834,-33.6879,204.4395],[147.4821,-33.7035,205.0845],[147.4961,-33.7033,206.0532],[147.4973,-33.7077,205.372],[147.4987,-33.708,206.7093],[147.5003,-33.7053,205.6398],[147.5024,-33.7093,205.9599],[147.509,-33.7052,205.0993],[147.5121,-33.7056,205.8199]]]]}
,"properties": {"GID_2": "AUS.5.48_1","GID_0": "AUS","country": "Australia","GID_1": "AUS.5_1","state": "NewSouthWales","NL_NAME_1": "NA","county": "Forbes","VARNAME_2": "NA","NL_NAME_2": "NA","TYPE_2": "Area","ENGTYPE_2": "Area","CC_2": "12900","HASC_2": "AU.NS.FO","name": "Forbes.county","area_km2": 4721.462,"hist_schema_id": "Elevation0-9000","hist_area_km2": {"200": 1048.736,"225": 1655.316,"250": 1083.032,"275": 414.846,"300": 142.164,"325": 75.324,"350": 60.194,"375": 55.783,"400": 46.7,"425": 32.809,"450": 24.274,"475": 20.665,"500": 21.609,"525": 16.894,"550": 10.584,"575": 7.304,"600": 3.368,"625": 1.453,"650": 0.408}}}