{"type": "Feature","bbox": [117.5699,-31.8311,118.0413,-31.3231],"geometry": {"type": "MultiPolygon","coordinates": [[[[117.9815,-31.7009,302.4121],[117.9694,-31.7009,297.2624],[117.9682,-31.6145,246.4977],[117.9692,-31.5933,246.3106],[117.9657,-31.5816,245.3773],[117.9743,-31.5819,245.2773],[117.9747,-31.5862,244.9832],[117.9853,-31.5862,244.9577],[117.9853,-31.5813,245.6864],[118.0002,-31.582,249.7956],[118.0099,-31.58,256.6739],[118.0152,-31.5775,265.2862],[118.0208,-31.572,275.6995],[118.0391,-31.5625,282.2552],[118.0391,-31.5392,267.5358],[118.0362,-31.5397,271.4124],[118.0362,-31.5339,259.8452],[118.0371,-31.5297,256.9805],[118.0413,-31.5297,254.3835],[118.0413,-31.4892,256.8837],[118.0293,-31.4892,264.3627],[118.0356,-31.4863,259.071],[118.0356,-31.4658,303.3182],[118.0092,-31.465699999999998,297.4991],[118.0092,-31.4523,324.5999],[118.002,-31.4523,329.9476],[118.002,-31.4431,325.0549],[118.0056,-31.443,325.7895],[118.0055,-31.425,310.6641],[118.0077,-31.4248,311.6972],[118.0077,-31.4067,274.9615],[118.0335,-31.4066,289.0339],[118.0335,-31.3704,256.2394],[118.032,-31.365,258.5859],[118.0334,-31.3614,259.2325],[118.0153,-31.3339,258.9725],[117.9924,-31.3231,258.4709],[117.9844,-31.3355,257.9096],[117.9731,-31.33,257.6063],[117.9731,-31.3371,258.5031],[117.9572,-31.3371,259.7239],[117.9572,-31.3339,259.7958],[117.8387,-31.3337,296.754],[117.8387,-31.344,293.9338],[117.8128,-31.344,318.9134],[117.8128,-31.3399,331.472],[117.792,-31.3399,348.7651],[117.7908,-31.3521,336.5009],[117.7792,-31.3602,341.0098],[117.7807,-31.3617,338.426],[117.7642,-31.3731,381.3682],[117.7619,-31.3723,389.5979],[117.7619,-31.3793,385.6612],[117.7535,-31.3793,373.0367],[117.7533,-31.3904,373.567],[117.7419,-31.392,356.5444],[117.6816,-31.392,317.6462],[117.6812,-31.3847,312.2327],[117.6696,-31.3846,321.1203],[117.6696,-31.3783,311.9673],[117.622,-31.3783,293.5939],[117.622,-31.3907,325.0078],[117.6044,-31.3907,307.8439],[117.6044,-31.4263,289.4953],[117.6099,-31.4263,301.0843],[117.61,-31.4444,309.1721],[117.6163,-31.4464,322.6483],[117.6164,-31.4724,285.3446],[117.6115,-31.4723,286.2755],[117.6116,-31.5038,277.914],[117.6199,-31.5038,281.3439],[117.6189,-31.5232,297.9302],[117.6136,-31.5232,303.0407],[117.6136,-31.538,310.0253],[117.617,-31.538,302.28],[117.617,-31.5562,343.5532],[117.6181,-31.5562,338.9385],[117.6181,-31.5938,346.1671],[117.6159,-31.5938,350.4076],[117.6159,-31.606,314.4202],[117.6171,-31.606,314.4202],[117.6171,-31.6104,312.5142],[117.621,-31.6104,310.0463],[117.6216,-31.6674,305.4572],[117.6267,-31.6727,283.6161],[117.6179,-31.6727,303.5924],[117.6179,-31.6839,320.1346],[117.613,-31.684,302.4384],[117.613,-31.6874,305.171],[117.6098,-31.6874,300.3857],[117.6098,-31.6946,301.4552],[117.6041,-31.6946,289.3633],[117.6042,-31.7251,280.0413],[117.5991,-31.7251,277.0029],[117.5991,-31.7288,279.5205],[117.6023,-31.7288,279.0586],[117.6023,-31.7602,328.5681],[117.6073,-31.7627,314.4605],[117.6025,-31.7709,309.6434],[117.6047,-31.7773,285.6432],[117.598,-31.7931,246.0223],[117.5954,-31.8159,226.9331],[117.5784,-31.8159,226.7794],[117.5784,-31.813,228.1856],[117.5701,-31.813,232.2197],[117.5699,-31.8295,224.9117],[117.5739,-31.8295,226.2702],[117.5739,-31.8265,225.6932],[117.5841,-31.8265,227.8504],[117.5841,-31.8311,230.5271],[117.5872,-31.8311,231.7914],[117.5872,-31.8255,227.3066],[117.5978,-31.8255,228.6292],[117.5978,-31.822,226.1034],[117.6095,-31.822,227.2208],[117.6095,-31.8192,226.854],[117.6266,-31.8192,229.0965],[117.6267,-31.8175,227.9198],[117.6292,-31.816,227.447],[117.6468,-31.8158,228.6274],[117.6487,-31.8139,227.8335],[117.6625,-31.8193,228.2142],[117.6781,-31.819,227.8993],[117.6781,-31.8224,228.1105],[117.6818,-31.8234,228.0299],[117.6897,-31.8214,228.9713],[117.6956,-31.8178,227.8976],[117.7102,-31.8153,228.7488],[117.7229,-31.81,229.2655],[117.749,-31.8204,230.1383],[117.7473,-31.8167,230.2193],[117.7882,-31.8158,279.9503],[117.7939,-31.8114,284.9503],[117.8788,-31.8116,303.2146],[117.8792,-31.8286,294.9677],[117.9921,-31.8287,292.8357],[117.9919,-31.7087,309.2263],[117.9816,-31.7087,297.282],[117.9815,-31.7009,302.4121]]]]}
,"properties": {"GID_2": "AUS.11.63_1","GID_0": "AUS","country": "Australia","GID_1": "AUS.11_1","state": "WesternAustralia","NL_NAME_1": "NA","county": "Kellerberrin","VARNAME_2": "NA","NL_NAME_2": "NA","TYPE_2": "Shire","ENGTYPE_2": "Shire","CC_2": "54410","HASC_2": "AU.WA.KE","name": "Kellerberrin.county","area_km2": 1917.575,"hist_schema_id": "Elevation0-9000","hist_area_km2": {"225": 92.334,"250": 394.318,"275": 378.882,"300": 402.174,"325": 355.588,"350": 217.445,"375": 68.225,"400": 8.61}}}