{"type":"Feature","properties":{"GID_2":"AUS.5.136_1","GID_0":"AUS","country":"Australia","GID_1":"AUS.5_1","state":"NewSouthWales","NL_NAME_1":"NA","county":"Wakool","VARNAME_2":"NA","NL_NAME_2":"NA","TYPE_2":"Area","ENGTYPE_2":"Area","CC_2":"17800","HASC_2":"AU.NS.WK","name":"Wakool.county"},
"geometry":{"type": "MultiPolygon","coordinates": [[[[143.3526,-34.8582,47.8021],[143.3479,-34.8621,51.1373],[143.3486,-34.8648,52.0119],[143.3435,-34.8659,56.9177],[143.3384,-34.8703,50.7512],[143.3373,-34.8748,48.1561],[143.3424,-34.8758,51.3272],[143.3408,-34.8778,61.2441],[143.3429,-34.8788,50.0782],[143.3417,-34.8811,52.347],[143.3389,-34.8814,54.2208],[143.3367,-34.8792,62.0359],[143.336,-34.8832,51.3097],[143.3341,-34.8846,49.4562],[143.3357,-34.886,49.2848],[143.3326,-34.8882,51.0529],[143.3336,-34.8855,49.4562],[143.328,-34.8822,59.5804],[143.3266,-34.8839,55.1918],[143.3237,-34.8838,55.8358],[143.3215,-34.888,50.0898],[143.3227,-34.8918,58.054],[143.3281,-34.895,54.355],[143.3262,-34.8982,61.6022],[143.3324,-34.9045,59.2447],[143.3299,-34.9064,55.0139],[143.332,-34.9075,54.4747],[143.3334,-34.9113,57.5341],[143.3362,-34.9134,58.9002],[143.3405,-34.9137,56.0668],[143.3419,-34.919,56.6907],[143.3389,-34.9259,59.781],[143.3428,-34.9325,57.3252],[143.3409,-34.9354,59.1146],[143.3376,-34.9366,55.2619],[143.3375,-34.9402,54.5136],[143.3414,-34.9403,58.8717],[143.3395,-34.9436,61.2399],[143.3366,-34.9448,60.0674],[143.3334,-34.9385,58.8586],[143.3318,-34.9411,55.1534],[143.3295,-34.9399,57.4884],[143.3273,-34.9424,58.703],[143.322,-34.9423,61.8858],[143.3225,-34.9462,56.1507],[143.3199,-34.9477,57.0206],[143.3227,-34.9509,58.8532],[143.3177,-34.9526,60.5555],[143.3198,-34.956,60.6016],[143.3196,-34.9687,60.4937],[143.323,-34.9702,61.7337],[143.3213,-34.9738,58.8338],[143.3237,-34.9791,59.0164],[143.3232,-34.9815,60.2179],[143.3178,-34.9864,62.9442],[143.3188,-34.9929,63.2403],[143.3235,-34.9945,60.5166],[143.3263,-34.9931,62.3534],[143.3297,-34.9957,61.901],[143.3358,-35.003,61.2064],[143.3381,-35.0109,61.4066],[143.3341,-35.0151,64.3913],[143.3333,-35.0182,62.2226],[143.3351,-35.0206,63.9672],[143.3319,-35.0238,61.3707],[143.3349,-35.0263,61.9075],[143.3329,-35.0279,66.0043],[143.3352,-35.0294,61.869],[143.3345,-35.0329,62.0962],[143.336,-35.0374,64.9534],[143.3305,-35.0374,60.923],[143.3277,-35.0339,64.2236],[143.3221,-35.0367,61.2096],[143.3278,-35.0379,61.6288],[143.3244,-35.042,62.9821],[143.3296,-35.0416,61.8212],[143.3278,-35.0442,67.4372],[143.3287,-35.0459,61.9948],[143.3365,-35.0432,78.8295],[143.3335,-35.0459,60.403],[143.3305,-35.0539,61.6447],[143.3342,-35.0545,61.9432],[143.3343,-35.0493,61.0017],[143.3373,-35.0486,62.1482],[143.3399,-35.055,62.6419],[143.3368,-35.0597,63.5537],[143.3377,-35.0613,60.7136],[143.3416,-35.0624,64.4286],[143.3408,-35.0593,61.8001],[143.342,-35.0587,72.1331],[143.3508,-35.0647,73.6083],[143.3497,-35.0699,61.2465],[143.347,-35.0683,64.1416],[143.3468,-35.0658,65.4646],[143.3419,-35.0645,64.3216],[143.3391,-35.0682,61.8631],[143.339,-35.0704,66.0401],[143.3455,-35.0741,64.7101],[143.3428,-35.0767,63.3054],[143.343,-35.0791,65.0124],[143.3374,-35.0804,60.2543],[143.3437,-35.0825,61.5025],[143.3416,-35.0851,69.6154],[143.345,-35.0868,72.7773],[143.3409,-35.0885,66.9291],[143.3459,-35.0938,72.8075],[143.3409,-35.0957,62.7383],[143.3446,-35.0964,63.2164],[143.3444,-35.0995,62.2781],[143.3481,-35.1054,62.8615],[143.3501,-35.1044,63.553],[143.3486,-35.1008,61.302],[143.3529,-35.103,67.0198],[143.3529,-35.0996,60.7039],[143.3608,-35.103,66.0247],[143.3577,-35.1049,66.9841],[143.3597,-35.109,69.7837],[143.359,-35.1113,70.1657],[143.3621,-35.1144,63.0824],[143.362,-35.1169,61.7184],[143.366,-35.1203,67.8872],[143.3688,-35.1198,65.988],[143.3739,-35.1226,62.5226],[143.3766,-35.129,61.8638],[143.387,-35.1376,64.7827],[143.3867,-35.1432,66.1354],[143.3905,-35.1448,66.3854],[143.3911,-35.1472,63.3063],[143.3895,-35.1502,64.6849],[143.3846,-35.1528,63.6161],[143.3823,-35.1561,65.3759],[143.3869,-35.1598,62.4591],[143.3834,-35.1608,63.409],[143.3826,-35.1628,60.1469],[143.3875,-35.1623,60.0735],[143.3819,-35.1729,67.3888],[143.3843,-35.1741,62.0321],[143.3847,-35.1714,62.0091],[143.3877,-35.1725,63.4709],[143.3898,-35.1711,70.5429],[143.3918,-35.1726,66.4689],[143.3937,-35.1781,63.0703],[143.387,-35.1835,70.8464],[143.3888,-35.1863,86.3742],[143.3911,-35.1848,71.0293],[143.3931,-35.1855,62.9692],[143.391,-35.1887,61.669],[143.3947,-35.1924,80.2126],[143.3967,-35.1931,84.1327],[143.4005,-35.1899,74.4021],[143.4042,-35.1937,76.1442],[143.4122,-35.1933,71.5133],[143.4175,-35.1949,80.4872],[143.4258,-35.1894,66.2698],[143.4285,-35.1937,63.0168],[143.4316,-35.195,64.1326],[143.4339,-35.1935,65.4737],[143.4338,-35.1907,63.1847],[143.4495,-35.1891,65.1246],[143.4502,-35.1939,67.5771],[143.456,-35.1964,65.3438],[143.4582,-35.1988,64.8824],[143.4592,-35.2034,65.9113],[143.4647,-35.2026,63.6664],[143.4661,-35.2147,68.263],[143.4715,-35.2193,67.4869],[143.4841,-35.2184,64.8436],[143.494,-35.22,67.9832],[143.5014,-35.2179,64.9454],[143.5049,-35.2139,66.3391],[143.5183,-35.2116,67.8048],[143.5228,-35.2183,64.6245],[143.5292,-35.2199,68.7715],[143.5483,-35.2138,66.5925],[143.5496,-35.2112,66.0862],[143.5465,-35.2076,66.3782],[143.547,-35.2062,67.7919],[143.5639,-35.2026,71.2347],[143.5798,-35.214,70.7758],[143.581,-35.2192,69.8782],[143.5759,-35.2264,64.9347],[143.5762,-35.2303,66.6466],[143.5781,-35.2317,65.0731],[143.5749,-35.2327,66.8726],[143.5738,-35.2349,66.5697],[143.5639,-35.2369,70.9867],[143.5667,-35.2402,65.594],[143.5637,-35.2435,68.0049],[143.5699,-35.2464,64.7779],[143.5701,-35.2507,65.6217],[143.5741,-35.2565,68.9061],[143.5712,-35.2669,65.2001],[143.5738,-35.2692,65.0561],[143.5752,-35.2685,72.3671],[143.5751,-35.2654,68.4974],[143.5784,-35.2674,67.9207],[143.5835,-35.265,64.0984],[143.5808,-35.2691,67.801],[143.5824,-35.2728,66.9401],[143.5897,-35.2722,66.8026],[143.5908,-35.2738,67.1858],[143.5877,-35.2769,65.5915],[143.5853,-35.2768,67.1829],[143.5845,-35.2793,66.2327],[143.5903,-35.2804,67.4233],[143.5909,-35.2817,69.7773],[143.5867,-35.2846,64.5],[143.5867,-35.2865,68.8396],[143.5821,-35.2878,66.7395],[143.5797,-35.2956,66.6825],[143.5823,-35.2981,68.4175],[143.5771,-35.2984,65.5095],[143.5779,-35.3032,67.8856],[143.5741,-35.3034,69.1359],[143.5711,-35.3013,66.3935],[143.569,-35.3024,69.2549],[143.5725,-35.306,67.0468],[143.5677,-35.3083,67.6958],[143.5665,-35.3139,65.0],[143.5636,-35.3164,69.5599],[143.5637,-35.3224,69.1727],[143.5617,-35.3253,65.7346],[143.5643,-35.3285,71.002],[143.5618,-35.3372,66.3781],[143.5668,-35.3436,72.2329],[143.5704,-35.3427,70.8376],[143.5727,-35.3374,66.9026],[143.575,-35.3408,70.0914],[143.58,-35.3397,70.5217],[143.5845,-35.346,67.6967],[143.5894,-35.3471,67.0133],[143.5903,-35.3503,67.8984],[143.5962,-35.3505,70.6388],[143.5984,-35.3521,68.9689],[143.5975,-35.3552,69.9444],[143.6038,-35.3621,67.4695],[143.603,-35.3654,68.0497],[143.6085,-35.3666,68.8747],[143.6098,-35.37,69.2223],[143.6136,-35.3677,67.4419],[143.616,-35.3689,70.861],[143.6165,-35.3722,70.1016],[143.6133,-35.377,68.7684],[143.619,-35.3821,67.6138],[143.6187,-35.3853,66.8122],[143.6204,-35.3877,67.7803],[143.6247,-35.3879,68.0008],[143.6242,-35.3831,67.7522],[143.6263,-35.381,68.4981],[143.6299,-35.3848,70.5569],[143.633,-35.3835,71.9117],[143.6346,-35.3866,69.9447],[143.6294,-35.3924,68.8229],[143.6312,-35.3955,69.3296],[143.6376,-35.3961,69.415],[143.64,-35.4009,69.6885],[143.6423,-35.401,68.766],[143.6473,-35.3987,69.4755],[143.649,-35.3954,69.033],[143.6539,-35.3949,69.7121],[143.6524,-35.3915,72.9491],[143.6558,-35.3907,69.0547],[143.6571,-35.385,71.9277],[143.6681,-35.3857,70.5834],[143.6658,-35.3822,69.5373],[143.6667,-35.3791,70.9097],[143.6642,-35.3777,72.2475],[143.6666,-35.3764,71.9386],[143.6679,-35.3716,69.2097],[143.6766,-35.3707,70.9208],[143.679,-35.3735,75.1449],[143.6826,-35.3741,74.2898],[143.6833,-35.369,70.559],[143.6845,-35.3684,70.559],[143.6884,-35.3707,72.3251],[143.6893,-35.3773,72.5577],[143.6929,-35.3779,72.8399],[143.6931,-35.3839,71.1759],[143.697,-35.3838,70.8204],[143.7023,-35.3779,70.5215],[143.704,-35.3798,71.0536],[143.7013,-35.387,70.3342],[143.7034,-35.3894,72.4345],[143.7056,-35.389,74.1528],[143.7092,-35.384,71.781],[143.7117,-35.3847,76.594],[143.7118,-35.3866,74.7366],[143.7092,-35.3886,74.5203],[143.7092,-35.3925,71.8756],[143.715,-35.3929,74.264],[143.7269,-35.3902,74.2083],[143.7304,-35.3905,76.7378],[143.732,-35.3941,72.4592],[143.735,-35.3929,71.1445],[143.7396,-35.3936,71.3069],[143.7443,-35.3904,73.2901],[143.7449,-35.3865,68.8923],[143.7459,-35.3887,70.692],[143.751,-35.3878,77.631],[143.7516,-35.3925,71.7294],[143.7572,-35.3945,72.6829],[143.7624,-35.3921,70.6888],[143.7644,-35.3926,71.9672],[143.7629,-35.4006,75.4775],[143.7688,-35.4018,72.0448],[143.767,-35.404,70.5349],[143.7686,-35.4084,70.5163],[143.7616,-35.4103,70.7702],[143.7588,-35.4154,70.1502],[143.7602,-35.4175,73.446],[143.766,-35.4159,71.1837],[143.7625,-35.4214,70.5965],[143.7628,-35.4231,72.9241],[143.7689,-35.4218,72.0989],[143.772,-35.424,71.2514],[143.7767,-35.4241,71.2004],[143.7901,-35.4225,70.63],[143.7937,-35.4294,70.9262],[143.7969,-35.4297,73.5287],[143.8002,-35.4334,75.3747],[143.8038,-35.4345,72.3145],[143.8086,-35.4333,74.4012],[143.818,-35.4375,77.074],[143.8189,-35.4399,81.0673],[143.813,-35.4434,73.6332],[143.813,-35.4463,73.5767],[143.8221,-35.4459,75.7402],[143.8218,-35.4493,70.3472],[143.827,-35.4551,71.5001],[143.84,-35.4577,71.4913],[143.846,-35.4633,71.6996],[143.8554,-35.4618,71.833],[143.8561,-35.4643,71.798],[143.8539,-35.4688,74.8286],[143.8604,-35.4745,71.2224],[143.8582,-35.4775,70.6167],[143.8588,-35.48,72.1708],[143.8611,-35.4801,71.9998],[143.8639,-35.4772,70.8883],[143.8697,-35.4817,72.6626],[143.8698,-35.4787,72.6874],[143.8714,-35.4778,71.4876],[143.8766,-35.4862,73.8905],[143.8806,-35.4873,71.4262],[143.8875,-35.4853,74.2928],[143.8994,-35.4953,72.2799],[143.9077,-35.4942,73.0112],[143.9039,-35.4953,74.4151],[143.9062,-35.5,73.8758],[143.9088,-35.4985,71.5595],[143.9124,-35.4993,71.1002],[143.9122,-35.4949,72.6032],[143.9173,-35.497,70.6545],[143.9165,-35.499,70.7126],[143.9183,-35.5008,71.7098],[143.922,-35.4996,71.7771],[143.9241,-35.5016,73.4397],[143.9299,-35.5016,74.4128],[143.935,-35.4993,71.9383],[143.9357,-35.501,71.5525],[143.9323,-35.5022,71.7594],[143.9333,-35.5066,73.9121],[143.9359,-35.5059,70.3986],[143.9368,-35.5029,72.4655],[143.9419,-35.5017,71.7161],[143.9488,-35.5008,70.9309],[143.9531,-35.5038,71.131],[143.959,-35.5045,71.8871],[143.961,-35.5034,74.3832],[143.961,-35.499,73.5799],[143.9669,-35.5029,72.2449],[143.9683,-35.5023,73.3767],[143.9675,-35.5005,70.4883],[143.9701,-35.5001,71.1667],[143.9687,-35.5053,71.6436],[143.9725,-35.5093,73.3293],[143.9686,-35.5103,70.8351],[143.967,-35.5083,73.5603],[143.9648,-35.5084,74.3748],[143.9624,-35.514,72.2474],[143.9709,-35.52,74.1751],[143.9693,-35.5231,75.2402],[143.9715,-35.5247,74.0225],[143.9747,-35.5326,72.8878],[143.9893,-35.5354,74.4912],[143.992,-35.534,74.5765],[143.9967,-35.5359,73.7062],[143.9956,-35.5422,73.0227],[143.9992,-35.5454,74.7692],[143.9964,-35.5493,73.6789],[143.9904,-35.5522,73.9315],[143.9899,-35.5547,74.4561],[143.993,-35.556399999999996,75.286],[143.9967,-35.556,74.6485],[144.0031,-35.5608,72.4808],[144.0096,-35.5633,74.6341],[144.0123,-35.5623,74.7003],[144.0094,-35.5581,74.5468],[144.0127,-35.5541,73.6126],[144.0152,-35.5547,75.6853],[144.0189,-35.5529,75.5793],[144.0294,-35.5563,75.5272],[144.0318,-35.5538,72.8428],[144.0341,-35.556,73.0569],[144.039,-35.5492,72.9363],[144.04,-35.5503,72.4215],[144.0388,-35.5534,75.5683],[144.0415,-35.5558,73.7479],[144.0459,-35.5523,73.3493],[144.0479,-35.5563,73.7152],[144.0466,-35.563,78.6204],[144.0633,-35.5699,76.7421],[144.0642,-35.5712,74.4033],[144.0625,-35.5727,74.8144],[144.0623,-35.5768,75.3242],[144.0661,-35.5777,74.7811],[144.0685,-35.5802,74.4189],[144.0719,-35.5783,72.8586],[144.0726,-35.5806,75.4995],[144.0759,-35.581,73.3617],[144.0796,-35.5843,72.4674],[144.0858,-35.5843,72.2233],[144.092,-35.5875,73.1809],[144.0963,-35.5871,72.7928],[144.1004,-35.5887,72.0714],[144.102,-35.5916,74.5584],[144.1052,-35.5909,70.803],[144.1062,-35.5954,73.0893],[144.1033,-35.598,76.3456],[144.1098,-35.5984,71.0231],[144.1111,-35.5989,74.3258],[144.1089,-35.6002,74.0303],[144.1097,-35.6021,72.8745],[144.1135,-35.6022,72.4951],[144.1142,-35.6053,72.9945],[144.111,-35.6074,72.4561],[144.1159,-35.6129,72.8398],[144.1136,-35.6167,73.4544],[144.1148,-35.6197,78.1421],[144.1199,-35.621,73.9939],[144.1176,-35.6261,76.6972],[144.1264,-35.6316,72.0065],[144.1278,-35.6346,78.7479],[144.1315,-35.6335,73.8262],[144.1313,-35.6406,77.7343],[144.1381,-35.6408,75.0248],[144.1411,-35.6469,78.4517],[144.1474,-35.6472,72.3639],[144.1481,-35.6455,74.0432],[144.1467,-35.6444,73.3483],[144.1526,-35.6427,76.8609],[144.1496,-35.646,74.0432],[144.1535,-35.6462,74.266],[144.157,-35.6511,71.8575],[144.154,-35.6501,72.3705],[144.1515,-35.6534,77.7158],[144.1544,-35.6575,74.2402],[144.1584,-35.6582,72.5831],[144.1583,-35.6614,76.6441],[144.1626,-35.668,76.239],[144.1623,-35.6715,78.0215],[144.1718,-35.6718,72.0256],[144.1744,-35.6746,77.9063],[144.1768,-35.6724,74.8065],[144.1802,-35.6735,74.4043],[144.1868,-35.6704,72.8151],[144.1867,-35.6729,76.7988],[144.1899,-35.6739,74.6794],[144.1864,-35.6752,77.6897],[144.1897,-35.6768,75.951],[144.1883,-35.6805,73.0482],[144.1915,-35.6808,76.3114],[144.1951,-35.6859,77.0024],[144.1994,-35.6865,76.6204],[144.2028,-35.6844,75.6489],[144.2039,-35.6878,73.4387],[144.2066,-35.6858,75.2955],[144.209,-35.6875,74.1712],[144.2132,-35.6865,74.9034],[144.2151,-35.6921,75.2808],[144.2213,-35.6932,76.237],[144.2214,-35.6944,76.237],[144.2162,-35.6964,72.0],[144.2197,-35.6989,76.9422],[144.2157,-35.7012,77.4057],[144.216,-35.7065,75.631],[144.2256,-35.7103,73.2843],[144.2306,-35.7155,75.9116],[144.2482,-35.721,75.6382],[144.2475,-35.7292,78.2887],[144.2494,-35.7306,76.0683],[144.2533,-35.7299,75.4955],[144.2516,-35.7326,73.3877],[144.2547,-35.7353,82.0796],[144.2539,-35.7384,77.6863],[144.2619,-35.7458,76.426],[144.2613,-35.7491,75.0832],[144.2703,-35.7541,74.7414],[144.2743,-35.7465,75.1622],[144.2784,-35.7442,77.3326],[144.2778,-35.7408,76.4595],[144.2823,-35.7399,78.4097],[144.2855,-35.737,75.0845],[144.2894,-35.7386,78.5578],[144.2963,-35.7371,76.0005],[144.3013,-35.743,77.6917],[144.2945,-35.7507,75.5893],[144.2949,-35.7541,76.4939],[144.297,-35.7545,77.2197],[144.298,-35.7521,78.058],[144.3,-35.7518,75.8346],[144.3034,-35.7562,75.895],[144.3068,-35.7572,79.2273],[144.3099,-35.7503,78.3653],[144.3117,-35.7494,77.8538],[144.3139,-35.7503,76.0254],[144.3128,-35.7545,77.0732],[144.3148,-35.757,78.7185],[144.3165,-35.7565,78.7185],[144.3178,-35.7521,76.5224],[144.328,-35.7527,77.7076],[144.3291,-35.7539,79.6602],[144.328,-35.7557,78.1075],[144.3216,-35.7579,79.9381],[144.3225,-35.7637,78.5551],[144.3188,-35.7648,78.9732],[144.3186,-35.7665,82.1699],[144.3245,-35.7686,80.0529],[144.3302,-35.7648,84.4541],[144.3349,-35.7701,85.0201],[144.3375,-35.7697,86.9151],[144.34,-35.7644,77.1712],[144.3371,-35.7591,81.4163],[144.3346,-35.7127,81.3117],[144.3401,-35.6881,85.3993],[144.3434,-35.6875,82.2209],[144.3463,-35.6827,81.6936],[144.3482,-35.6823,80.7384],[144.351,-35.685,80.3027],[144.353,-35.6834,79.9346],[144.3531,-35.6799,80.7765],[144.3497,-35.6736,79.6013],[144.3518,-35.6733,79.3725],[144.3522,-35.6717,79.5479],[144.355,-35.6718,79.2903],[144.354,-35.6685,80.344],[144.3557,-35.6666,81.5991],[144.3502,-35.6531,74.4321],[144.3384,-35.6489,76.1379],[144.3361,-35.6465,77.4857],[144.3358,-35.6437,77.6278],[144.3386,-35.6376,77.9277],[144.3372,-35.6347,76.951],[144.3196,-35.6263,79.5121],[144.3179,-35.6194,77.4073],[144.324,-35.6182,77.3759],[144.3245,-35.6147,76.9976],[144.3098,-35.6126,76.7079],[144.3041,-35.6084,77.834],[144.3036,-35.6064,78.9139],[144.3062,-35.6068,79.6078],[144.3112,-35.6041,78.312],[144.3084,-35.6,79.4748],[144.3105,-35.5966,79.1778],[144.3076,-35.5913,77.4616],[144.3129,-35.5933,77.2971],[144.3124,-35.588,77.1973],[144.3169,-35.5849,77.6636],[144.3233,-35.5874,77.9754],[144.3267,-35.5862,77.7845],[144.3239,-35.5822,77.3156],[144.3274,-35.578,77.3957],[144.3229,-35.5705,78.2117],[144.3296,-35.5702,77.6372],[144.3317,-35.5681,77.8539],[144.3269,-35.5638,79.5273],[144.3269,-35.5588,80.9389],[144.3288,-35.5589,78.045],[144.331,-35.5659,78.56],[144.3354,-35.5678,78.2472],[144.3384,-35.5657,77.8588],[144.3386,-35.5637,78.2913],[144.3346,-35.5639,79.0802],[144.3324,-35.5608,77.7019],[144.3356,-35.5585,78.5177],[144.3365,-35.5548,78.4934],[144.3395,-35.5559,80.4168],[144.3403,-35.5623,78.6103],[144.3441,-35.5639,78.9942],[144.3459,-35.5628,79.8865],[144.3434,-35.5596,80.0748],[144.3473,-35.557,79.303],[144.3493,-35.5519,79.6583],[144.3569,-35.5532,78.1055],[144.3599,-35.5517,79.2129],[144.3581,-35.5486,78.6881],[144.3541,-35.5472,79.3666],[144.3556,-35.5427,79.7229],[144.3579,-35.5433,79.984],[144.3599,-35.548,78.6881],[144.3675,-35.5477,79.9216],[144.368,-35.5456,78.383],[144.3638,-35.5443,80.6892],[144.3641,-35.542,78.1704],[144.3687,-35.5432,78.5811],[144.3723,-35.5406,78.9802],[144.3656,-35.5351,78.19],[144.3667,-35.5325,77.9081],[144.3691,-35.5348,79.6426],[144.373,-35.5353,78.3074],[144.3751,-35.5287,77.7004],[144.3819,-35.5292,76.5931],[144.3848,-35.5239,78.365],[144.3884,-35.522,77.7411],[144.3902,-35.5231,79.4234],[144.3889,-35.5261,80.4993],[144.3899,-35.5292,81.052],[144.3926,-35.5312,81.1493],[144.3964,-35.531,81.6862],[144.3943,-35.5221,79.4502],[144.3961,-35.5205,79.0587],[144.4012,-35.5234,79.1166],[144.3992,-35.5189,80.311],[144.4013,-35.5168,79.9654],[144.4039,-35.5164,79.7304],[144.4045,-35.5186,80.5518],[144.4084,-35.5201,80.9008],[144.41,-35.5191,79.9074],[144.4136,-35.522,79.6792],[144.4142,-35.5201,79.9392],[144.4169,-35.5193,79.7434],[144.4162,-35.5164,80.7435],[144.4224,-35.5164,79.5174],[144.4198,-35.5151,80.3696],[144.4199,-35.5127,79.2075],[144.4326,-35.5081,80.2454],[144.4388,-35.5138,80.0051],[144.4427,-35.5133,79.6014],[144.4443,-35.5102,77.9943],[144.4412,-35.509,79.9962],[144.4398,-35.5046,79.2557],[144.4411,-35.5039,79.623],[144.4458,-35.5078,82.0943],[144.4484,-35.507,80.9506],[144.4503,-35.4959,79.6078],[144.4541,-35.4955,79.2302],[144.4589,-35.499,82.2475],[144.4631,-35.4991,79.7173],[144.4713,-35.4457,80.9732],[144.4689,-35.4456,80.3531],[144.472,-35.4259,79.4019],[144.46,-35.4246,79.109],[144.4754,-35.3428,79.5749],[144.4984,-35.3456,79.356],[144.4992,-35.3409,79.206],[144.4894,-35.3399,78.8263],[144.4915,-35.3279,78.4364],[144.4876,-35.3272,78.3474],[144.4894,-35.3169,80.9659],[144.4871,-35.3178,80.1938],[144.4837,-35.3161,80.1266],[144.4873,-35.2946,79.31],[144.4926,-35.2836,78.1024],[144.4881,-35.2848,77.5264],[144.4886,-35.2894,78.54],[144.4875,-35.2902,78.8357],[144.4837,-35.2877,78.4998],[144.4836,-35.2851,78.5226],[144.4805,-35.2877,77.8753],[144.4794,-35.2871,77.8753],[144.4796,-35.2848,81.321],[144.4776,-35.2825,80.1679],[144.4799,-35.2784,78.7633],[144.4778,-35.2785,78.283],[144.4742,-35.283,78.4834],[144.4715,-35.2837,79.2959],[144.4694,-35.2792,79.2572],[144.4695,-35.2743,77.6242],[144.4727,-35.2754,78.4374],[144.4742,-35.278,78.6496],[144.4753,-35.2757,77.5995],[144.47,-35.2724,81.0796],[144.4658,-35.2738,80.8117],[144.4651,-35.2715,77.3738],[144.4628,-35.2707,77.1861],[144.4664,-35.2676,75.6431],[144.4693,-35.2673,77.9675],[144.4651,-35.2671,75.6431],[144.4633,-35.2655,78.4664],[144.4567,-35.2663,79.2615],[144.4574,-35.2608,80.1103],[144.452,-35.2635,75.8233],[144.4496,-35.261,77.2797],[144.4454,-35.2633,78.5671],[144.4466,-35.2586,77.3198],[144.449,-35.2573,75.5365],[144.4456,-35.2562,77.185],[144.4449,-35.2544,80.7891],[144.4417,-35.2555,73.2989],[144.4384,-35.2539,79.0347],[144.437,-35.2574,75.8969],[144.4337,-35.2593,76.8293],[144.4354,-35.2531,75.6494],[144.4299,-35.2547,79.0407],[144.4289,-35.2533,78.4643],[144.4336,-35.2522,78.537],[144.4349,-35.2501,79.4414],[144.4377,-35.2506,78.3913],[144.4372,-35.248,78.5642],[144.4329,-35.2449,78.1457],[144.4283,-35.2476,77.899],[144.4259,-35.2429,79.8552],[144.4224,-35.2458,78.4435],[144.4208,-35.2441,80.033],[144.4281,-35.2412,77.9012],[144.4276,-35.2373,79.9245],[144.4313,-35.2377,78.9376],[144.4375,-35.2337,78.0524],[144.4341,-35.2309,77.4332],[144.4358,-35.2294,79.9848],[144.4349,-35.2281,79.9848],[144.4294,-35.228,78.9896],[144.4273,-35.2228,77.583],[144.4314,-35.221,77.9591],[144.4325,-35.2166,78.9816],[144.4265,-35.2166,78.6972],[144.4249,-35.2139,77.7796],[144.422,-35.2149,78.5953],[144.4201,-35.2113,78.3412],[144.4167,-35.2123,81.0257],[144.4144,-35.2095,79.6069],[144.4103,-35.2138,77.8228],[144.4119,-35.2074,76.7665],[144.3995,-35.2109,78.774],[144.3992,-35.2088,78.3394],[144.4025,-35.2048,74.7465],[144.3987,-35.2011,75.3568],[144.402,-35.1988,76.1344],[144.3944,-35.201,74.5703],[144.3943,-35.1961,80.1739],[144.3895,-35.1979,76.4459],[144.3898,-35.1928,77.1402],[144.3869,-35.1931,78.3471],[144.3846,-35.198,79.57],[144.3868,-35.2,75.4395],[144.3912,-35.1987,76.2829],[144.3919,-35.201,76.2151],[144.3808,-35.2033,78.0045],[144.3826,-35.1947,78.864],[144.3804,-35.1889,74.4975],[144.372,-35.1938,82.6909],[144.3677,-35.1909,73.5465],[144.3674,-35.1857,75.4688],[144.364,-35.1915,75.9412],[144.3613,-35.1922,75.9499],[144.36,-35.1893,72.8045],[144.3615,-35.1851,76.6329],[144.3603,-35.1843,75.9643],[144.3584,-35.1844,77.2721],[144.3569,-35.1886,75.9704],[144.3531,-35.1887,74.9696],[144.3527,-35.1909,79.2332],[144.3472,-35.1892,73.0214],[144.3454,-35.1864,75.8474],[144.3393,-35.1873,77.9511],[144.3348,-35.1857,74.3464],[144.3337,-35.1829,76.3832],[144.3289,-35.1867,74.4524],[144.322,-35.1823,73.8846],[144.3204,-35.1845,74.0832],[144.3195,-35.1822,72.5132],[144.3225,-35.1806,74.9512],[144.3214,-35.1797,74.9512],[144.3152,-35.1823,72.9572],[144.3186,-35.1847,77.3958],[144.3146,-35.1858,76.5206],[144.307,-35.179,73.5667],[144.3051,-35.1808,73.2991],[144.3041,-35.1887,73.8528],[144.3023,-35.1895,78.8886],[144.2985,-35.1857,75.9789],[144.2947,-35.1847,74.0089],[144.2959,-35.1804,73.9397],[144.2937,-35.1787,73.6596],[144.2895,-35.1782,73.814],[144.2855,-35.181,77.1221],[144.2827,-35.1764,72.5184],[144.2802,-35.1819,73.1328],[144.2788,-35.1819,74.8499],[144.2735,-35.1742,75.3385],[144.2706,-35.1786,73.0661],[144.2654,-35.181,73.9474],[144.2629,-35.1784,75.0524],[144.2636,-35.1743,73.5196],[144.259,-35.1763,73.4842],[144.2577,-35.1806,72.7447],[144.2586,-35.1837,71.7392],[144.2568,-35.1842,74.9903],[144.2543,-35.1829,73.1168],[144.2538,-35.178,74.8753],[144.248,-35.1737,75.1951],[144.242,-35.1756,74.0816],[144.2428,-35.1715,74.6964],[144.2474,-35.1692,74.5548],[144.246,-35.1678,73.4436],[144.2418,-35.1683,73.5722],[144.2373,-35.1734,74.5364],[144.2335,-35.1695,76.6741],[144.236,-35.1655,75.9681],[144.235,-35.1642,73.4742],[144.2322,-35.1646,74.5727],[144.2294,-35.1698,75.0947],[144.2273,-35.1708,77.4197],[144.2239,-35.1651,74.633],[144.2163,-35.1667,74.8676],[144.2129,-35.1639,71.6067],[144.2204,-35.1603,74.0796],[144.2234,-35.1563,71.8619],[144.2165,-35.1573,73.8952],[144.2139,-35.1603,75.6162],[144.2103,-35.1609,76.2766],[144.2089,-35.1603,72.5639],[144.208,-35.1554,75.5341],[144.2109,-35.1522,74.0483],[144.2036,-35.1513,76.1556],[144.1931,-35.157,73.4048],[144.1928,-35.1544,78.2389],[144.1948,-35.1524,73.4925],[144.1916,-35.1518,74.051],[144.1881,-35.1532,74.7584],[144.1873,-35.1564,77.8278],[144.1833,-35.1555,73.8511],[144.1831,-35.1573,75.2712],[144.1854,-35.1586,70.2943],[144.1825,-35.1588,73.5531],[144.1803,-35.1565,72.926],[144.1796,-35.1512,73.1667],[144.1743,-35.1556,71.6652],[144.1751,-35.1589,71.7606],[144.1725,-35.1582,70.2815],[144.1733,-35.1543,74.6292],[144.1713,-35.1526,71.2027],[144.1698,-35.1565,71.3537],[144.1719,-35.1581,70.2815],[144.1715,-35.1596,73.2285],[144.1647,-35.1594,74.3445],[144.1609,-35.1572,75.8351],[144.1558,-35.1503,70.4486],[144.1586,-35.1479,72.5707],[144.1572,-35.1463,77.6752],[144.1521,-35.1447,72.1809],[144.1504,-35.1488,77.0047],[144.1516,-35.1524,73.6916],[144.1497,-35.1533,73.3149],[144.1399,-35.1494,73.95],[144.1399,-35.148,73.95],[144.1431,-35.1467,70.1836],[144.1389,-35.1464,79.5448],[144.1387,-35.1419,73.6846],[144.1426,-35.139,70.808],[144.1383,-35.1377,75.0096],[144.1377,-35.1345,73.7518],[144.1265,-35.1353,73.0501],[144.1275,-35.1332,73.3222],[144.13,-35.1327,70.9703],[144.1284,-35.1314,69.8345],[144.1227,-35.1314,72.6276],[144.1232,-35.1343,73.6337],[144.1221,-35.1346,70.4185],[144.1192,-35.131,72.3157],[144.1155,-35.1326,73.3254],[144.1136,-35.1301,72.2922],[144.1142,-35.1268,73.0442],[144.1119,-35.1275,73.0548],[144.1115,-35.1298,76.8968],[144.1084,-35.1321,71.9751],[144.1085,-35.1282,71.619],[144.112,-35.1254,70.6625],[144.1126,-35.1227,69.117],[144.106,-35.1226,74.6689],[144.1039,-35.1242,71.986],[144.1001,-35.1232,71.2665],[144.0995,-35.1216,75.2515],[144.1022,-35.1184,71.1611],[144.0924,-35.118899999999996,69.6066],[144.0912,-35.1155,68.1741],[144.0885,-35.1165,69.5124],[144.0834,-35.1128,66.5512],[144.0834,-35.111,68.8522],[144.0813,-35.1109,72.8798],[144.0839,-35.1084,71.0309],[144.0809,-35.1063,73.9496],[144.0757,-35.1047,73.9477],[144.0704,-35.107,68.875],[144.0689,-35.1028,70.3138],[144.054,-35.1067,69.1178],[144.0546,-35.1045,73.3993],[144.0601,-35.1,69.8183],[144.0601,-35.0978,69.9259],[144.0486,-35.097,71.5874],[144.0497,-35.0904,69.8548],[144.0578,-35.0919,69.3305],[144.0618,-35.0897,70.2862],[144.0663,-35.0899,70.1025],[144.0711,-35.0861,70.1253],[144.0758,-35.0854,69.5131],[144.0808,-35.0803,68.7473],[144.0833,-35.0834,70.0056],[144.0877,-35.0832,69.4299],[144.0846,-35.08,68.2845],[144.0898,-35.0796,70.172],[144.0885,-35.0748,69.4122],[144.0961,-35.0759,69.5697],[144.1024,-35.0697,69.4256],[144.1085,-35.0677,70.7371],[144.1062,-35.065,70.292],[144.1015,-35.0638,69.5475],[144.1033,-35.0597,69.6567],[144.0983,-35.0618,70.7334],[144.0952,-35.0587,68.9324],[144.0998,-35.0587,70.2003],[144.1009,-35.0547,72.0467],[144.1049,-35.0543,69.9336],[144.1065,-35.0514,70.164],[144.1081,-35.0553,70.5928],[144.1087,-35.0507,70.1105],[144.1126,-35.0512,70.7645],[144.1099,-35.054,70.3057],[144.1108,-35.0554,70.6686],[144.1149,-35.0522,70.4729],[144.1172,-35.0541,70.9979],[144.119,-35.0519,70.8889],[144.1279,-35.0535,71.3361],[144.1287,-35.05,69.6269],[144.1233,-35.0512,71.397],[144.1268,-35.0448,70.8089],[144.1281,-35.0444,71.1509],[144.129,-35.0468,71.0237],[144.1324,-35.0484,71.5669],[144.1353,-35.0435,70.5539],[144.1368,-35.0446,71.4016],[144.145,-34.9989,71.5197],[144.1465,-34.9985,71.6725],[144.1633,-34.8942,72.9753],[144.1246,-34.8868,71.4791],[144.1391,-34.792,71.1531],[144.1437,-34.7762,72.3751],[144.1436,-34.7693,72.4255],[144.1494,-34.7398,72.3512],[143.9011,-34.6537,68.2908],[143.9237,-34.517,68.0932],[143.9394,-34.5188,69.1258],[143.9411,-34.5074,68.8346],[143.9256,-34.5057,67.9653],[143.9351,-34.4485,68.2468],[143.9319,-34.4481,68.2959],[143.9391,-34.4042,68.8987],[143.9239,-34.4022,68.2048],[143.9256,-34.3878,68.5825],[143.9231,-34.3867,69.1389],[143.9247,-34.3747,68.892],[143.9429,-34.3765,68.2285],[143.9457,-34.3565,66.2459],[143.9417,-34.3589,72.9165],[143.9385,-34.3582,64.8518],[143.9409,-34.361,67.7735],[143.9362,-34.3604,70.6887],[143.9334,-34.3634,68.2836],[143.9309,-34.3633,68.5902],[143.9304,-34.3599,67.3826],[143.9259,-34.3599,74.4861],[143.925,-34.3566,70.5692],[143.9215,-34.3528,69.5284],[143.9154,-34.3531,71.07],[143.9166,-34.3492,68.9592],[143.9138,-34.3461,71.0063],[143.9137,-34.3433,72.7271],[143.9173,-34.343,71.5487],[143.9178,-34.341,67.9214],[143.9135,-34.3388,68.662],[143.9148,-34.3364,72.0173],[143.913,-34.3323,70.607],[143.909,-34.331,71.3518],[143.9061,-34.336,68.5198],[143.9052,-34.3312,70.4224],[143.899,-34.3305,68.7794],[143.8985,-34.3334,71.942],[143.8879,-34.3357,68.3214],[143.8902,-34.3374,74.7199],[143.8904,-34.3397,69.727],[143.8863,-34.3451,71.5068],[143.8837,-34.3451,68.3326],[143.8844,-34.3483,69.181],[143.8828,-34.3497,69.1832],[143.8782,-34.3485,67.9349],[143.8776,-34.3508,67.3319],[143.8732,-34.349,71.0494],[143.8686,-34.352,70.7443],[143.8593,-34.3496,70.3039],[143.8591,-34.3535,64.6927],[143.856,-34.3515,71.5014],[143.8448,-34.3547,69.9962],[143.8427,-34.3534,67.4337],[143.8403,-34.3574,70.2521],[143.8458,-34.3629,70.0414],[143.8407,-34.3636,68.4734],[143.8417,-34.3672,66.9879],[143.8403,-34.3689,70.1768],[143.8352,-34.3662,68.4486],[143.831,-34.3683,66.9111],[143.8265,-34.3646,75.5712],[143.8244,-34.366,70.0427],[143.8237,-34.3706,68.636],[143.8197,-34.3705,67.9752],[143.8164,-34.3742,67.0127],[143.8142,-34.3703,67.6725],[143.8123,-34.3702,68.2855],[143.8095,-34.3756,69.655],[143.8055,-34.3793,73.4792],[143.802,-34.3767,74.0536],[143.8008,-34.3724,68.24],[143.7954,-34.3728,69.0737],[143.7894,-34.3762,70.789],[143.7857,-34.375,67.403],[143.7844,-34.378,70.2914],[143.7809,-34.3794,66.1276],[143.7816,-34.3828,69.7852],[143.7774,-34.3838,65.6534],[143.7793,-34.3875,67.5792],[143.7861,-34.3855,70.1893],[143.787,-34.3868,69.1081],[143.7852,-34.3918,67.178],[143.7798,-34.3894,68.8917],[143.7756,-34.391,66.9245],[143.7722,-34.389,68.4252],[143.7657,-34.393,70.2172],[143.766,-34.3961,65.553],[143.762,-34.3972,67.5406],[143.7602,-34.3956,65.6973],[143.7573,-34.3989,71.3704],[143.7551,-34.3965,63.3762],[143.7514,-34.4013,68.331],[143.7534,-34.4066,70.6661],[143.75,-34.4068,63.9227],[143.7515,-34.4093,69.3953],[143.747,-34.4086,66.6478],[143.7482,-34.4115,66.938],[143.7441,-34.4104,65.3407],[143.7435,-34.414,66.3152],[143.7393,-34.4121,63.9698],[143.7391,-34.4166,69.0638],[143.7355,-34.4179,67.1278],[143.7415,-34.421,66.8471],[143.7366,-34.423,68.3072],[143.7334,-34.4212,63.8177],[143.7319,-34.4224,64.2098],[143.7356,-34.4286,64.1923],[143.7392,-34.4262,68.2145],[143.7394,-34.4282,67.6335],[143.7356,-34.4321,65.9735],[143.7265,-34.4305,65.8347],[143.7292,-34.435,64.201],[143.7334,-34.4372,68.7805],[143.7337,-34.4394,67.3694],[143.7328,-34.4435,69.2146],[143.7258,-34.4453,65.5889],[143.7242,-34.4471,65.7124],[143.7312,-34.4533,70.1173],[143.7311,-34.456,71.4521],[143.7285,-34.4578,66.5832],[143.7305,-34.4623,67.1614],[143.7253,-34.4628,64.8177],[143.7269,-34.4651,70.5292],[143.724,-34.4658,67.4064],[143.7155,-34.4658,62.9061],[143.716,-34.4631,67.2048],[143.7133,-34.4634,64.406],[143.7126,-34.4697,62.0599],[143.7146,-34.4732,66.027],[143.7121,-34.477,61.913],[143.7168,-34.4797,63.1872],[143.7168,-34.4822,66.9408],[143.7101,-34.4827,68.6661],[143.7112,-34.4868,66.2947],[143.7068,-34.4866,75.8073],[143.7078,-34.4899,65.3433],[143.7041,-34.4888,61.0546],[143.7048,-34.4911,63.2664],[143.7032,-34.4919,66.7184],[143.6958,-34.4895,63.5411],[143.6916,-34.4852,63.1816],[143.6926,-34.4833,62.0938],[143.6877,-34.4876,66.1575],[143.6833,-34.4858,62.4695],[143.6869,-34.4893,61.7168],[143.6875,-34.4924,69.1427],[143.6818,-34.493899999999996,63.3856],[143.6825,-34.4973,65.1372],[143.6867,-34.4981,64.8517],[143.681,-34.5006,64.7243],[143.6837,-34.5021,67.504],[143.683,-34.5039,65.5871],[143.676,-34.5066,65.9285],[143.6787,-34.5081,66.6235],[143.6828,-34.5071,69.119],[143.6873,-34.5107,65.1842],[143.6847,-34.5136,65.7014],[143.6895,-34.5137,63.8705],[143.687,-34.5172,65.8224],[143.6848,-34.5157,63.5048],[143.6807,-34.517,64.235],[143.6834,-34.5212,64.3604],[143.6786,-34.5208,63.2607],[143.6765,-34.5253,67.1906],[143.6741,-34.5231,67.5533],[143.67,-34.523,62.1501],[143.6674,-34.5267,63.5118],[143.666,-34.5226,64.3041],[143.6641,-34.5238,64.2512],[143.6637,-34.5269,63.3043],[143.6609,-34.5226,65.8728],[143.6587,-34.5224,64.1592],[143.6565,-34.5262,62.1805],[143.6588,-34.529,61.7326],[143.6558,-34.5305,62.2601],[143.6595,-34.533,67.8022],[143.6582,-34.5352,66.791],[143.6548,-34.5362,62.4336],[143.6569,-34.5389,62.3127],[143.6472,-34.5379,65.4789],[143.6459,-34.5391,63.7384],[143.6487,-34.5466,63.8265],[143.6528,-34.546,66.2682],[143.6532,-34.5471,66.6504],[143.6446,-34.5509,61.6107],[143.6411,-34.5493,65.4878],[143.6439,-34.5547,68.0615],[143.642,-34.5566,58.5906],[143.6392,-34.5549,60.7427],[143.6391,-34.5568,61.8648],[143.6452,-34.5586,63.0501],[143.6348,-34.5612,66.2873],[143.6358,-34.5652,72.5527],[143.6418,-34.5666,62.232],[143.642,-34.5727,64.7088],[143.6488,-34.5722,60.2403],[143.65,-34.5676,67.7714],[143.6532,-34.5718,64.8525],[143.6518,-34.5758,63.9339],[143.6414,-34.5774,63.2846],[143.6368,-34.5823,60.2926],[143.6365,-34.5852,61.4253],[143.6323,-34.5849,63.3703],[143.6361,-34.5869,63.8659],[143.6414,-34.5843,67.1022],[143.6402,-34.5884,64.1472],[143.6412,-34.5913,65.8882],[143.6376,-34.591,63.9585],[143.6375,-34.5941,62.6797],[143.6453,-34.5953,63.0026],[143.6473,-34.5921,59.7721],[143.651,-34.5926,63.3201],[143.6517,-34.5938,69.8945],[143.6485,-34.5963,58.0861],[143.6469,-34.6006,60.3238],[143.6537,-34.598,59.3393],[143.6526,-34.6038,58.5231],[143.6572,-34.6023,57.1922],[143.6576,-34.6038,51.2072],[143.6536,-34.6064,60.7059],[143.6492,-34.6041,60.4777],[143.6463,-34.6053,65.8733],[143.646,-34.6076,72.0778],[143.651,-34.6123,58.1997],[143.6455,-34.6146,60.4477],[143.6432,-34.611,65.2401],[143.6434,-34.617,65.8975],[143.6394,-34.6157,60.9124],[143.641,-34.6106,59.7418],[143.6363,-34.6129,60.2563],[143.6365,-34.6173,54.7275],[143.6387,-34.6181,60.6518],[143.6385,-34.6195,60.6518],[143.6362,-34.6208,60.4542],[143.632,-34.6197,53.658],[143.6353,-34.6229,55.9717],[143.6302,-34.6206,59.9855],[143.6296,-34.6243,57.5878],[143.6275,-34.6236,54.1603],[143.627,-34.6261,56.6264],[143.6226,-34.6209,63.8208],[143.622,-34.6248,59.1787],[143.624,-34.6288,48.8132],[143.6214,-34.6293,55.6794],[143.6268,-34.6307,52.5703],[143.6154,-34.6305,57.2264],[143.6157,-34.6327,56.9093],[143.6359,-34.635,63.7223],[143.6277,-34.6894,63.7253],[143.6005,-34.6863,61.2868],[143.5992,-34.6955,62.7135],[143.5839,-34.6934,65.9832],[143.5881,-34.6996,63.9656],[143.59,-34.6998,62.9084],[143.5901,-34.7047,63.1535],[143.5809,-34.7148,62.4147],[143.58,-34.7193,62.6825],[143.5827,-34.7254,59.5],[143.5748,-34.7356,60.4455],[143.542,-34.7318,71.4762],[143.5384,-34.7449,65.4154],[143.5413,-34.7537,66.3032],[143.54,-34.7625,65.7136],[143.5241,-34.7829,63.1456],[143.5087,-34.8212,68.582],[143.489,-34.9448,66.0126],[143.4951,-34.9456,64.2621],[143.491,-34.9724,62.9966],[143.4847,-34.9717,62.7989],[143.4836,-34.9694,60.335],[143.479,-34.9693,59.2089],[143.4772,-34.9662,63.4585],[143.4759,-34.9687,61.5828],[143.474,-34.9681,63.6406],[143.4787,-34.9586,57.5872],[143.4808,-34.9481,59.3315],[143.4692,-34.937,58.8788],[143.4659,-34.926,55.1763],[143.4721,-34.9208,53.3698],[143.4812,-34.9229,56.5881],[143.4823,-34.9195,48.4155],[143.4814,-34.914,52.2632],[143.4736,-34.9068,47.8802],[143.468,-34.9036,45.7713],[143.4594,-34.9056,49.0712],[143.4543,-34.9022,51.362],[143.4529,-34.9039,54.012],[143.4546,-34.9079,50.4534],[143.4495,-34.9093,48.4531],[143.447,-34.9081,52.0618],[143.4448,-34.9018,47.3473],[143.4493,-34.8997,47.8174],[143.4467,-34.8971,53.219],[143.4368,-34.898,52.6076],[143.4323,-34.8931,49.541],[143.426,-34.897,48.8687],[143.4217,-34.8931,48.2174],[143.4175,-34.8947,49.6325],[143.4149,-34.8823,50.1253],[143.4066,-34.8801,54.8493],[143.3989,-34.8759,48.583],[143.3952,-34.8684,47.8748],[143.3847,-34.8706,47.205],[143.3831,-34.8757,46.5467],[143.3763,-34.8722,49.8268],[143.3711,-34.8727,45.2834],[143.3702,-34.8712,47.5418],[143.3747,-34.8609,54.62],[143.3728,-34.8584,53.8019],[143.3668,-34.8607,50.5829],[143.366,-34.8699,50.9949],[143.3622,-34.8762,48.5272],[143.3544,-34.8761,53.0806],[143.3514,-34.8719,60.613],[143.3551,-34.862,50.6007],[143.3526,-34.8582,47.8021]]]]}}