{"type":"Feature","properties":{"GID_2":"AUS.10.37_1","GID_0":"AUS","country":"Australia","GID_1":"AUS.10_1","state":"Victoria","NL_NAME_1":"NA","county":"Latrobe","VARNAME_2":"NA","NL_NAME_2":"NA","TYPE_2":"City","ENGTYPE_2":"City","CC_2":"23810","HASC_2":"AU.VI.LA","name":"Latrobe.county"},
"geometry":{"type": "MultiPolygon","coordinates": [[[[146.2302,-38.3217,253.9568],[146.2286,-38.3239,249.3603],[146.2505,-38.3267,244.1308],[146.2496,-38.3313,272.6602],[146.2509,-38.3314,272.6602],[146.2496,-38.3382,231.2183],[146.2474,-38.3379,254.1481],[146.2435,-38.3561,178.5224],[146.2315,-38.3542,172.912],[146.2235,-38.3659,191.5663],[146.2105,-38.3704,169.0103],[146.2199,-38.3744,135.3657],[146.2367,-38.3756,135.2989],[146.2409,-38.3792,115.2806],[146.2344,-38.3807,170.5169],[146.2359,-38.3847,161.9679],[146.2345,-38.3849,194.6015],[146.2287,-38.4135,293.2739],[146.2328,-38.414,219.9993],[146.2307,-38.4251,171.4132],[146.2265,-38.4248,169.0755],[146.2232,-38.44,210.5446],[146.2722,-38.4464,291.3145],[146.2696,-38.4569,254.0282],[146.2372,-38.4529,211.3698],[146.2355,-38.4603,147.1698],[146.2399,-38.4608,174.5051],[146.2384,-38.468,199.3383],[146.2626,-38.471,237.4753],[146.2599,-38.4837,284.4324],[146.2575,-38.4834,249.2586],[146.2548,-38.4961,254.8283],[146.2918,-38.5001,367.9598],[146.2928,-38.5024,344.3232],[146.291,-38.5047,384.1483],[146.2853,-38.5064,370.8376],[146.285,-38.5132,387.1864],[146.2865,-38.5139,394.0674],[146.2836,-38.517,363.2992],[146.2856,-38.5209,391.7088],[146.2845,-38.5236,373.7933],[146.2882,-38.524,379.1826],[146.2903,-38.5279,392.2455],[146.2932,-38.5255,432.3011],[146.2978,-38.5264,455.5613],[146.3048,-38.5208,462.8157],[146.3072,-38.5215,463.6389],[146.3134,-38.5196,475.3374],[146.3138,-38.5208,475.3374],[146.3183,-38.5208,451.9117],[146.3229,-38.5276,477.0579],[146.3301,-38.5321,513.5485],[146.3444,-38.5363,490.173],[146.3495,-38.5353,505.3765],[146.3543,-38.5365,501.5041],[146.3682,-38.5333,482.1022],[146.3674,-38.5324,436.3685],[146.371,-38.5314,517.1376],[146.3698,-38.5295,428.4808],[146.3732,-38.529,484.5916],[146.3748,-38.5269,491.2434],[146.3701,-38.5245,436.2823],[146.3676,-38.5204,450.2716],[146.3689,-38.5157,447.124],[146.3669,-38.5135,434.5847],[146.3718,-38.5113,402.5955],[146.3733,-38.5076,375.0756],[146.3786,-38.5077,403.477],[146.3806,-38.5045,346.4922],[146.384,-38.504,359.0189],[146.3803,-38.4975,414.3533],[146.3869,-38.4963,389.2671],[146.3896,-38.4943,382.0307],[146.3933,-38.4949,376.299],[146.3952,-38.4925,396.0325],[146.3991,-38.4915,396.6009],[146.4036,-38.4853,401.6663],[146.4069,-38.4846,408.0793],[146.4082,-38.487,396.7928],[146.4122,-38.4868,390.4849],[146.4239,-38.4825,425.8888],[146.4262,-38.4798,411.1374],[146.4245,-38.4776,448.9396],[146.4276,-38.4745,464.6026],[146.4247,-38.4723,475.4165],[146.4394,-38.4664,486.509],[146.4448,-38.466,480.4522],[146.4482,-38.4632,479.6869],[146.4567,-38.4655,521.7424],[146.4573,-38.4602,527.6194],[146.4592,-38.4592,547.049],[146.4726,-38.4592,570.3848],[146.4759,-38.4563,615.0071],[146.4828,-38.4559,582.9042],[146.4854,-38.4525,549.4568],[146.4807,-38.45,537.3853],[146.4847,-38.4491,544.0905],[146.4811,-38.4441,508.2879],[146.4864,-38.4422,527.1555],[146.4892,-38.4393,462.6613],[146.492,-38.4413,537.9909],[146.4894,-38.4443,582.2573],[146.4915,-38.4471,583.9874],[146.4948,-38.4454,566.8176],[146.4979,-38.446,566.2162],[146.4998,-38.442,544.8387],[146.5088,-38.4424,607.9586],[146.5223,-38.4377,527.1737],[146.5273,-38.4385,572.1949],[146.5279,-38.4349,541.7409],[146.5261,-38.4321,555.1702],[146.5323,-38.4298,579.0589],[146.547,-38.431399999999996,599.7372],[146.5652,-38.4293,643.3763],[146.5686,-38.4248,644.6246],[146.563,-38.4224,667.8722],[146.5663,-38.4205,730.6],[146.567,-38.4162,673.067],[146.5657,-38.4126,678.0549],[146.579,-38.4144,563.0267],[146.5862,-38.3742,359.4719],[146.5918,-38.3546,247.2695],[146.5905,-38.3545,331.4626],[146.5943,-38.3504,243.8961],[146.5957,-38.3463,250.416],[146.5934,-38.3443,247.0845],[146.598,-38.3423,217.6992],[146.5988,-38.3396,231.4504],[146.6008,-38.3392,207.0135],[146.5995,-38.337,199.5867],[146.6022,-38.335,196.4626],[146.6005,-38.3309,194.4847],[146.602,-38.3242,185.5808],[146.599,-38.3215,178.528],[146.5998,-38.3207,181.7184],[146.5967,-38.3155,174.4044],[146.5976,-38.3104,166.0749],[146.6007,-38.3097,147.8621],[146.6086,-38.3009,159.9745],[146.6144,-38.3001,130.4912],[146.6182,-38.2947,123.4761],[146.6226,-38.2924,118.2141],[146.6251,-38.2881,113.3088],[146.6238,-38.2814,111.709],[146.6293,-38.2738,100.7339],[146.6294,-38.2693,98.272],[146.6278,-38.2691,98.272],[146.6291,-38.2657,110.8128],[146.6318,-38.2647,97.2532],[146.6334,-38.2597,93.3285],[146.6321,-38.2584,92.1442],[146.6343,-38.2551,88.6028],[146.6427,-38.2482,83.3834],[146.6466,-38.2482,84.3808],[146.6496,-38.2425,78.3688],[146.6569,-38.2403,77.5694],[146.6556,-38.2344,72.7381],[146.6572,-38.2329,73.1572],[146.6543,-38.2298,72.8312],[146.6565,-38.2269,71.7198],[146.6551,-38.2254,67.6388],[146.6562,-38.2238,70.0817],[146.6609,-38.2213,64.4594],[146.6647,-38.2223,65.6234],[146.6683,-38.2174,70.3072],[146.6758,-38.2173,59.287],[146.6807,-38.2126,56.4963],[146.6823,-38.21,56.1116],[146.6787,-38.2068,53.7605],[146.68,-38.2024,52.9497],[146.6842,-38.2009,50.2251],[146.6893,-38.1918,44.3808],[146.6953,-38.1876,40.5876],[146.6944,-38.1856,38.5144],[146.6969,-38.182,35.3303],[146.7048,-38.1776,33.2525],[146.7106,-38.165,26.129],[146.7092,-38.162,30.3994],[146.712,-38.1552,22.8254],[146.7079,-38.1529,17.7803],[146.7046,-38.1531,21.003],[146.7048,-38.1512,20.6359],[146.7023,-38.1491,17.7913],[146.7005,-38.1505,17.8615],[146.7009,-38.1542,23.9223],[146.6972,-38.1566,19.6],[146.6933,-38.1558,25.597],[146.6936,-38.1542,20.0448],[146.6894,-38.1507,17.3599],[146.6871,-38.1514,18.2825],[146.6874,-38.1497,18.4561],[146.6826,-38.1527,23.0927],[146.6753,-38.1538,20.0004],[146.6727,-38.1517,18.7841],[146.6682,-38.1521,19.3603],[146.6686,-38.1547,19.2281],[146.6673,-38.155,19.2281],[146.667,-38.1525,19.3603],[146.6654,-38.1538,18.9583],[146.6631,-38.153,18.9747],[146.6655,-38.1521,19.6499],[146.6651,-38.1509,19.4156],[146.6625,-38.1513,19.7289],[146.6626,-38.1528,19.4379],[146.6575,-38.151,21.3002],[146.6514,-38.1529,19.6781],[146.6503,-38.1513,19.6781],[146.6471,-38.1519,19.9474],[146.645,-38.1503,19.6312],[146.6447,-38.1482,19.7779],[146.6473,-38.1486,20.5566],[146.6473,-38.1474,21.5958],[146.6372,-38.1458,21.9112],[146.6381,-38.1493,20.4044],[146.634,-38.1504,20.6561],[146.6327,-38.1529,20.381],[146.6308,-38.1516,20.9278],[146.6289,-38.1533,20.2415],[146.625,-38.1531,21.3822],[146.6262,-38.1545,21.3055],[146.6243,-38.1578,20.9537],[146.6137,-38.1592,21.4918],[146.6053,-38.1633,22.0492],[146.6065,-38.1615,22.8222],[146.6046,-38.1612,23.3944],[146.6051,-38.1585,22.6531],[146.603,-38.1608,23.3944],[146.6024,-38.1592,22.3854],[146.6003,-38.1619,23.4211],[146.5963,-38.1579,22.6043],[146.5965,-38.1558,23.3084],[146.5934,-38.1577,23.6754],[146.5923,-38.1558,25.9912],[146.5898,-38.1557,24.6102],[146.5896,-38.1541,25.2813],[146.582,-38.1543,27.7103],[146.5794,-38.1558,23.7432],[146.5712,-38.1534,25.7937],[146.5737,-38.1492,26.3074],[146.5719,-38.1467,29.0755],[146.5773,-38.1454,28.0091],[146.5768,-38.1433,28.3559],[146.5844,-38.144,31.3344],[146.5838,-38.1388,33.2184],[146.5801,-38.1387,33.2069],[146.5814,-38.1382,33.1518],[146.579,-38.134,35.943],[146.5808,-38.1335,36.7454],[146.5814,-38.132,37.2059],[146.5798,-38.1312,37.8371],[146.5811,-38.1296,38.9871],[146.5784,-38.1296,37.8371],[146.5795,-38.1282,38.5914],[146.5779,-38.1264,40.0641],[146.5799,-38.1261,40.6537],[146.5788,-38.1246,40.6537],[146.5797,-38.1227,44.491],[146.5813,-38.1231,42.7362],[146.5847,-38.1203,44.7646],[146.5829,-38.1187,44.9764],[146.5837,-38.1165,45.3771],[146.5906,-38.1147,48.6676],[146.5932,-38.1092,52.0548],[146.5914,-38.1073,53.4921],[146.5936,-38.1021,54.2103],[146.6162,-38.0687,70.3565],[146.651,-38.0734,55.3055],[146.6535,-38.0612,60.071],[146.6624,-38.0575,57.8563],[146.6631,-38.0542,56.8389],[146.6243,-38.0492,82.4073],[146.6265,-38.035,101.3114],[146.6528,-38.0108,75.5518],[146.6556,-37.9968,65.1586],[146.6446,-37.9982,75.9806],[146.6377,-37.9951,117.2044],[146.6244,-37.9754,110.6866],[146.6283,-37.9738,108.5288],[146.6266,-37.9712,144.4163],[146.622,-37.9728,130.0212],[146.6178,-37.9716,115.7355],[146.615,-37.9773,166.8678],[146.6117,-37.9797,140.0723],[146.6099,-37.9789,121.3245],[146.6099,-37.9766,132.1059],[146.6134,-37.9739,133.7239],[146.6111,-37.9719,117.1181],[146.6067,-37.9716,135.3825],[146.6053,-37.9749,147.9383],[146.5987,-37.9738,206.8077],[146.5998,-37.9779,169.6708],[146.5986,-37.9802,133.4857],[146.5968,-37.9799,133.4857],[146.5956,-37.9754,129.7402],[146.5904,-37.9746,146.8761],[146.5873,-37.9781,141.9061],[146.5753,-38.0301,302.9729],[146.5675,-38.029,333.7546],[146.567,-38.0307,335.7586],[146.5697,-38.0353,326.7881],[146.5673,-38.04,320.525],[146.5724,-38.0433,297.7511],[146.5695,-38.0581,270.9686],[146.5525,-38.056,182.2581],[146.5504,-38.059,231.3321],[146.5348,-38.057,334.6855],[146.5279,-38.0843,275.9994],[146.5166,-38.0809,299.6744],[146.5066,-38.0801,355.2262],[146.5064,-38.0813,339.142],[146.4965,-38.078,355.6477],[146.4885,-38.0778,339.5974],[146.4837,-38.0755,299.4597],[146.4757,-38.0753,166.1139],[146.4775,-38.0785,178.434],[146.4767,-38.0872,133.7656],[146.4792,-38.0901,140.6238],[146.4775,-38.0986,117.0979],[146.4799,-38.0997,148.5926],[146.479,-38.1038,152.2181],[146.4244,-38.0965,253.1893],[146.4217,-38.1094,137.6118],[146.4231,-38.1089,105.9075],[146.424,-38.1108,138.9949],[146.4245,-38.1191,113.3175],[146.423,-38.1217,145.2243],[146.4252,-38.1226,111.6007],[146.4249,-38.1245,105.4639],[146.43,-38.1235,100.3837],[146.4284,-38.1203,103.6114],[146.4256,-38.12,105.7658],[146.4282,-38.1182,93.1053],[146.4316,-38.1211,93.127],[146.4309,-38.1256,162.8026],[146.4263,-38.1298,216.0871],[146.4105,-38.1327,202.8512],[146.406,-38.1357,195.338],[146.395,-38.1388,214.2272],[146.3848,-38.1335,268.9243],[146.3818,-38.1335,257.0927],[146.3735,-38.1197,275.3313],[146.3748,-38.1175,277.4999],[146.3738,-38.113,264.8449],[146.3715,-38.1108,273.6952],[146.3613,-38.1071,257.6858],[146.3491,-38.1113,200.8201],[146.3351,-38.118899999999996,159.1219],[146.3286,-38.1198,165.1071],[146.3179,-38.119,160.9623],[146.3071,-38.1145,143.4076],[146.2903,-38.1106,108.2837],[146.2876,-38.1151,86.6452],[146.2734,-38.1254,55.8069],[146.2754,-38.133,73.0627],[146.2714,-38.1373,59.703],[146.2608,-38.1403,73.6369],[146.2561,-38.1434,52.7892],[146.2565,-38.1463,55.2124],[146.2524,-38.1518,81.1106],[146.2545,-38.1543,60.7229],[146.2565,-38.1639,53.7554],[146.2518,-38.1666,55.3169],[146.2483,-38.1725,60.6281],[146.2445,-38.1741,56.0798],[146.2397,-38.1731,58.715],[146.2368,-38.1755,56.7951],[146.2287,-38.1754,57.0812],[146.2233,-38.1779,56.7859],[146.226,-38.1878,73.1133],[146.2239,-38.1885,74.909],[146.2236,-38.2004,158.534],[146.2275,-38.2025,176.3001],[146.2232,-38.2067,209.4648],[146.2224,-38.2097,226.8199],[146.2176,-38.2125,314.1094],[146.216,-38.2192,326.8398],[146.2341,-38.2218,402.5829],[146.2323,-38.2305,273.7339],[146.2467,-38.2326,226.9108],[146.2477,-38.2279,285.852],[146.2575,-38.2291,200.3741],[146.257,-38.2311,262.9666],[146.2677,-38.2325,130.422],[146.2671,-38.2309,103.8727],[146.2724,-38.2276,119.2675],[146.2729,-38.2249,109.0858],[146.2913,-38.2272,276.8126],[146.2863,-38.2308,310.5826],[146.286,-38.2329,296.9506],[146.2889,-38.2363,312.8461],[146.2872,-38.2396,336.902],[146.2788,-38.2464,341.6012],[146.2783,-38.2492,343.8343],[146.2747,-38.2532,317.9767],[146.2686,-38.2554,315.0256],[146.2582,-38.2648,292.8488],[146.2623,-38.2726,258.5004],[146.2589,-38.2778,210.5085],[146.2561,-38.2792,255.7624],[146.2523,-38.2986,209.1392],[146.2395,-38.3067,262.3196],[146.236,-38.3141,242.8221],[146.2323,-38.3164,267.6565],[146.2302,-38.3217,253.9568]]]]}}