{"type": "Feature","bbox": [129.0005,-18.6827,132.5229,-13.1757],"geometry": {"type": "MultiPolygon","coordinates": [[[[132.402,-16.6505,287.0612],[132.402,-16.5832,288.7832],[132.5229,-16.5833,267.8948],[132.5229,-16.2208,245.1086],[132.5203,-16.0755,228.226],[132.3041,-16.0687,230.5711],[132.0897,-16.066,247.1609],[132.0919,-15.8574,220.3177],[132.0925,-15.0673,231.6158],[131.8916,-15.0677,174.5539],[131.8917,-14.6634,106.1707],[131.7284,-14.664,67.3392],[131.7128,-14.6589,68.3743],[131.7077,-14.6589,67.0482],[131.7047,-14.6568,60.6423],[131.706,-14.6537,68.5227],[131.7063,-14.633,71.9262],[131.7012,-14.6197,63.9082],[131.7074,-14.606,70.0141],[131.7135,-14.5976,60.661],[131.7139,-14.594,65.8543],[131.7114,-14.5894,67.1178],[131.7065,-14.5876,69.3448],[131.6949,-14.5694,60.1568],[131.7028,-14.5656,62.4756],[131.7074,-14.561,60.5667],[131.7077,-14.5544,58.6153],[131.7029,-14.5491,60.4886],[131.6991,-14.5388,65.4639],[131.6893,-14.5325,66.3015],[131.6857,-14.5198,57.7505],[131.6822,-14.5177,66.5373],[131.674,-14.5042,58.3977],[131.6705,-14.485,60.618],[131.6764,-14.4622,54.0743],[131.677,-14.451599999999999,61.1439],[131.6727,-14.4472,58.262],[131.6723,-14.439,57.2242],[131.668,-14.435,57.9329],[131.6626,-14.4139,61.3721],[131.6598,-14.4127,48.6841],[131.6626,-14.4097,49.508],[131.6602,-14.4048,57.334],[131.6606,-14.4021,54.7544],[131.6744,-14.3996,62.5465],[131.6797,-14.3888,59.6794],[131.6861,-14.3909,57.5314],[131.6891,-14.3902,57.2206],[131.6936,-14.3859,57.2822],[131.6958,-14.3796,57.4645],[131.7131,-14.3706,56.5905],[131.7211,-14.3605,64.1615],[131.734,-14.3582,61.094],[131.7518,-14.3616,61.6027],[131.7621,-14.3586,65.1971],[131.7699,-14.3518,69.3641],[131.7745,-14.3498,67.8126],[131.7827,-14.351,65.9627],[131.7891,-14.355,71.2],[131.7999,-14.3442,69.8574],[131.8103,-14.3224,76.7316],[131.8264,-14.3199,77.2495],[131.8315,-14.3166,72.8438],[131.8379,-14.3157,70.1922],[131.8446,-14.3115,70.1791],[131.8475,-14.3117,76.1983],[131.8634,-14.2975,79.5223],[131.8694,-14.2946,77.2998],[131.8707,-14.2909,79.1883],[131.8762,-14.2866,80.6472],[131.8759,-14.2688,80.9842],[131.8779,-14.2646,82.5764],[131.8854,-14.2597,81.4183],[131.8873,-14.2614,87.1411],[131.8889,-14.2606,84.2142],[131.8914,-14.2572,85.8733],[131.8919,-14.2529,89.0907],[131.9029,-14.2426,88.7123],[131.9059,-14.2416,90.4371],[131.9085,-14.2431,90.0399],[131.912,-14.2394,90.9265],[131.919,-14.2393,90.0712],[131.9268,-14.2303,94.0784],[131.9277,-14.2234,89.403],[131.9321,-14.2164,94.3547],[131.9371,-14.2146,92.1203],[131.9438,-14.2084,91.7775],[131.9576,-14.2015,91.162],[131.9611,-14.1942,92.5972],[131.9773,-14.1903,91.9914],[131.9823,-14.1914,96.6335],[131.9863,-14.1952,91.3828],[131.9951,-14.1974,95.5724],[132.0011,-14.1978,98.2354],[132.0054,-14.1958,97.662],[132.0137,-14.1966,94.0988],[132.0169,-14.1928,102.6541],[132.0225,-14.1907,99.4291],[132.0264,-14.1858,97.4385],[132.0372,-14.1957,115.7681],[132.0382,-14.1986,113.4381],[132.037,-14.1899,109.737],[132.0345,-14.1843,101.755],[132.02,-14.1725,119.2532],[131.9979,-14.1369,142.8228],[131.9938,-14.1227,153.3587],[131.9882,-14.1104,143.9644],[131.9898,-14.0899,127.1722],[131.988,-14.0822,124.9739],[131.9675,-14.0599,142.3301],[131.9609,-14.0483,148.1131],[131.9459,-14.0339,128.6716],[132.0214,-14.0339,134.0341],[132.0214,-13.8085,187.2277],[132.3652,-13.8085,206.8628],[132.3689,-13.7961,195.3731],[132.3678,-13.7854,195.0743],[132.3697,-13.7687,192.197],[132.3685,-13.7621,174.7455],[132.3664,-13.7584,172.4394],[132.3567,-13.7528,200.6508],[132.357,-13.7437,175.4387],[132.3552,-13.7406,163.7872],[132.3516,-13.7394,188.2903],[132.3519,-13.7363,181.0578],[132.349,-13.7288,157.2502],[132.3323,-13.7254,158.4337],[132.3266,-13.7207,168.7069],[132.3257,-13.7149,179.1902],[132.3275,-13.7037,153.5666],[132.3259,-13.6974,151.9051],[132.3292,-13.6925,145.0629],[132.3255,-13.6856,145.4902],[132.3268,-13.6747,140.8855],[132.3093,-13.6643,145.4258],[132.3066,-13.6407,134.7659],[132.2973,-13.6364,131.7108],[132.2899,-13.636,132.5677],[132.2879,-13.641,130.1162],[132.2856,-13.6426,133.3315],[132.282,-13.6421,131.3609],[132.2739,-13.638,127.363],[132.2579,-13.6243,121.1298],[132.2464,-13.6174,118.4211],[132.2297,-13.6136,116.9186],[132.2252,-13.6036,113.9498],[132.2163,-13.6029,113.0122],[132.2081,-13.5971,114.5035],[132.1995,-13.5976,112.4463],[132.1895,-13.5936,111.0495],[132.1823,-13.6011,104.1096],[132.1762,-13.6034,104.454],[132.1695,-13.6021,104.5168],[132.1598,-13.5946,106.6104],[132.1499,-13.5973,103.8977],[132.1412,-13.6022,99.4283],[132.1366,-13.6024,98.7328],[132.1281,-13.5936,98.5627],[132.1261,-13.5831,99.6076],[132.1236,-13.579,94.6032],[132.114,-13.5773,93.2024],[132.1065,-13.5668,90.3204],[132.0883,-13.5562,89.2387],[132.0684,-13.5362,85.9145],[132.0497,-13.5282,81.189],[132.0408,-13.5125,82.7119],[132.0296,-13.5095,82.8328],[132.0265,-13.507,80.6566],[132.0227,-13.498,75.6194],[132.0237,-13.4752,73.6726],[132.0185,-13.4629,67.8361],[132.0016,-13.4429,65.6778],[131.9996,-13.4378,68.4085],[131.9947,-13.4319,65.4685],[131.9817,-13.4287,61.6449],[131.9772,-13.4214,65.9767],[131.9644,-13.4117,60.898],[131.9684,-13.3966,63.3622],[131.9554,-13.3621,57.9797],[131.9572,-13.3483,58.4125],[131.9505,-13.3415,54.5321],[131.9483,-13.335,56.3341],[131.9382,-13.3242,57.1975],[131.9356,-13.3058,53.9987],[131.9362,-13.2901,52.1409],[131.9272,-13.2861,51.0465],[131.9249,-13.2795,53.6694],[131.9156,-13.2783,49.3144],[131.9094,-13.2743,52.6372],[131.9078,-13.2697,45.9334],[131.9069,-13.2523,47.9889],[131.9076,-13.2308,46.7816],[131.8993,-13.2133,42.5472],[131.8871,-13.2015,43.739],[131.8789,-13.1757,38.5824],[131.8545,-13.1757,51.5278],[131.8545,-13.248,94.9449],[131.3524,-13.2479,71.0106],[131.3524,-13.4103,70.1315],[131.4561,-13.4103,123.0301],[131.4564,-13.4376,133.0443],[131.4895,-13.4376,106.3497],[131.4895,-13.4724,107.8168],[131.5916,-13.4859,104.8983],[131.652,-13.5055,126.9057],[131.6843,-13.5233,102.3242],[131.6963,-13.5333,96.3345],[131.6956,-13.5375,101.2658],[131.6989,-13.5375,98.9165],[131.6989,-13.5394,110.7873],[131.702,-13.5399,102.6826],[131.702,-13.5434,99.5738],[131.7073,-13.5433,92.8998],[131.7123,-13.5495,88.6476],[131.5631,-13.5504,146.3591],[131.563,-13.7398,101.5817],[131.5754,-13.739,167.9219],[131.5758,-13.747,189.5966],[131.5712,-13.7503,117.38],[131.5866,-13.7701,145.5292],[131.5851,-13.7718,121.2905],[131.5626,-13.7687,108.4265],[131.5625,-13.947,131.2646],[131.5966,-13.947,133.3867],[131.5975,-13.976,111.4559],[131.4797,-13.976,107.501],[131.4797,-14.2428,73.1528],[131.4172,-14.2429,42.1894],[131.4167,-14.2407,61.1282],[131.4223,-14.2343,40.7016],[131.423,-14.2314,47.8857],[131.4222,-14.2179,44.0892],[131.4235,-14.2071,44.7183],[131.4205,-14.2011,44.5983],[131.4159,-14.1963,54.9696],[131.4153,-14.1932,42.646],[131.4125,-14.1913,46.2309],[131.4069,-14.1924,43.7942],[131.3996,-14.1856,45.8664],[131.3749,-14.1865,52.536],[131.3674,-14.1826,53.6909],[131.3593,-14.1678,47.5008],[131.3643,-14.1576,39.9393],[131.3635,-14.1552,39.0776],[131.3604,-14.1532,42.9164],[131.3433,-14.1532,45.4792],[131.3258,-14.1615,36.0905],[131.3148,-14.1738,38.5995],[131.3112,-14.1728,39.1275],[131.3017,-14.1416,38.8282],[131.3042,-14.1256,50.9002],[131.3033,-14.1216,50.2156],[131.3002,-14.1202,36.4039],[131.2967,-14.121,38.3879],[131.2926,-14.129,33.2258],[131.2891,-14.1289,34.1768],[131.2856,-14.1237,46.1368],[131.2858,-14.1148,48.4112],[131.2824,-14.1079,34.685],[131.2742,-14.1057,34.8846],[131.2695,-14.1003,40.4224],[131.2645,-14.0976,43.519],[131.2597,-14.097,35.9895],[131.2521,-14.0989,34.2496],[131.2471,-14.0954,33.0759],[131.2463,-14.0881,40.5648],[131.2538,-14.0763,28.7014],[131.253,-14.0718,32.6725],[131.2432,-14.0707,34.6396],[131.2365,-14.0731,39.2868],[131.2303,-14.0727,37.7497],[131.2276,-14.0696,38.2101],[131.2234,-14.0579,41.4091],[131.2097,-14.0504,34.4311],[131.2093,-14.0462,37.2169],[131.2158,-14.0362,32.9911],[131.2174,-14.0242,38.0562],[131.2215,-14.0216,37.3144],[131.2372,-14.0189,32.6014],[131.2417,-14.0142,44.842],[131.2423,-14.0084,30.7668],[131.2402,-14.0047,31.8131],[131.2268,-13.9973,29.6581],[131.2266,-13.9872,32.488],[131.2249,-13.9842,33.868899999999996],[131.2139,-13.9816,32.7638],[131.2142,-13.9723,30.206],[131.2128,-13.9687,33.7867],[131.2084,-13.9671,31.7192],[131.1993,-13.9688,29.8085],[131.1954,-13.9673,27.2261],[131.1932,-13.9608,30.7387],[131.1947,-13.9456,36.0939],[131.1842,-13.9402,33.5422],[131.1813,-13.9343,37.4086],[131.1848,-13.9285,32.4343],[131.2001,-13.9227,26.9092],[131.2071,-13.9056,27.7061],[131.2198,-13.8966,31.201],[131.2211,-13.8911,30.6367],[131.218,-13.872,32.2551],[131.2135,-13.8688,32.6575],[131.1975,-13.8697,36.3746],[131.1865,-13.8621,30.0858],[131.1673,-13.8772,25.0876],[131.1618,-13.8766,27.9134],[131.1583,-13.8701,26.5428],[131.1568,-13.8546,23.6408],[131.1472,-13.845,32.2012],[131.1417,-13.8369,23.791],[131.145,-13.8365,30.9608],[131.1495,-13.8405,29.6913],[131.1608,-13.8361,34.7088],[131.1662,-13.8372,36.409],[131.171,-13.8335,35.2835],[131.1818,-13.8299,37.6765],[131.1856,-13.8268,39.2413],[131.1861,-13.4889,157.5617],[131.0135,-13.4889,153.5793],[131.0135,-13.4423,123.5876],[130.9937,-13.4429,136.398],[130.9895,-13.4346,127.8739],[130.9804,-13.4363,106.6994],[130.9539,-13.4193,122.0108],[130.9499,-13.4119,133.0208],[130.933,-13.4113,160.2614],[130.9209,-13.4249,147.1791],[130.9079,-13.4723,152.3693],[130.9153,-13.5034,124.7295],[130.9059,-13.5013,130.3776],[130.9034,-13.5021,126.1752],[130.8972,-13.5088,113.7532],[130.8915,-13.5115,113.1168],[130.8868,-13.5216,95.4437],[130.88,-13.5242,101.1327],[130.8728,-13.5298,98.2879],[130.8709,-13.5378,85.765],[130.8614,-13.5376,87.2468],[130.8446,-13.542,109.6321],[130.8401,-13.5393,111.1484],[130.8321,-13.5268,84.326],[130.8078,-13.5258,69.0281],[130.758,-13.583,38.0229],[130.6946,-13.5828,17.9052],[130.6945,-13.601,17.8913],[130.6754,-13.601,11.6654],[130.6755,-13.6094,12.984],[130.6611,-13.6094,8.769],[130.6609,-13.5144,22.1021],[130.4728,-13.5149,11.7085],[130.4652,-13.5088,10.0177],[130.4667,-13.5055,10.2692],[130.472,-13.5034,11.8137],[130.4746,-13.5002,6.1082],[130.4725,-13.4925,4.4587],[130.4644,-13.4834,11.8601],[130.4476,-13.4767,5.6777],[130.4406,-13.4715,4.176],[130.4281,-13.4746,1.5158],[130.4234,-13.4781,0.0],[130.4191,-13.4766,4.5598],[130.4158,-13.4784,1.545],[130.4144,-13.4849,0.0],[130.4182,-13.4948,7.3211],[130.424,-13.5034,6.8087],[130.4232,-13.5051,3.2792],[130.4173,-13.5035,4.0337],[130.3934,-13.4912,0.6424],[130.3856,-13.4916,2.9293],[130.3792,-13.4949,0.0],[130.3749,-13.4953,6.766],[130.3713,-13.4918,7.0786],[130.3734,-13.4772,0.0],[130.3728,-13.4661,0.0],[130.3711,-13.4609,0.0],[130.3679,-13.4578,5.2605],[130.3621,-13.4561,12.9709],[130.357,-13.4567,11.4519],[130.3392,-13.4646,0.0],[130.3263,-13.4578,5.2533],[130.3178,-13.4503,0.0],[130.3102,-13.44,0.0],[130.3036,-13.4347,0.0],[130.2872,-13.4287,0.0],[130.2852,-13.4264,0.0],[130.2858,-13.4207,0.0],[130.2904,-13.4137,0.0],[130.305,-13.398,0.0],[130.3162,-13.3807,0.0],[130.3229,-13.3696,2.0987],[130.3239,-13.3604,0.0],[130.3088,-13.3203,0.0],[130.3028,-13.3146,0.0],[130.2841,-13.3058,1.4269],[130.2813,-13.314,0.0],[130.2779,-13.3349,4.2344],[130.2639,-13.3327,2.4616],[130.2422,-13.3358,0.0],[130.23,-13.3446,1.0764],[130.2144,-13.3682,0.0],[130.2062,-13.3731,2.9188],[130.1998,-13.373,6.028],[130.1984,-13.3742,0.0],[130.1905,-13.3934,27.3811],[130.1822,-13.4086,30.0329],[130.1575,-13.4427,3.1648],[130.1416,-13.4571,3.0996],[130.1252,-13.4662,0.0],[130.1173,-13.4659,0.0],[130.1129,-13.4606,0.0],[130.1088,-13.4603,3.8625],[130.1064,-13.4563,5.3097],[130.072,-13.4904,2.0279],[130.0641,-13.5037,3.8079],[130.0615,-13.4996,0.0],[130.0587,-13.4994,0.0],[130.0424,-13.5155,11.3517],[130.0193,-13.5288,4.0448],[130.0133,-13.5282,0.0],[130.0125,-13.531,1.6803],[130.0084,-13.5333,10.524],[130.0018,-13.5344,2.4271],[129.9998,-13.5329,0.0],[130.0032,-13.532,0.0],[130.0011,-13.5306,0.0],[129.9953,-13.5354,0.0],[129.9885,-13.5362,0.0],[129.9729,-13.5353,3.4891],[129.9843,-13.5347,0.8836],[129.984,-13.5336,0.4936],[129.9767,-13.5333,1.566],[129.9568,-13.5358,0.0],[129.9485,-13.5318,2.7148],[129.9286,-13.5283,4.1483],[129.9241,-13.5213,1.0931],[129.9216,-13.5212,0.0],[129.9151,-13.5162,0.0],[129.9099,-13.5143,2.8314],[129.9011,-13.5009,0.985],[129.9,-13.4919,6.9626],[129.9026,-13.4872,0.0],[129.8999,-13.4779,19.1733],[129.9015,-13.4702,12.0955],[129.8976,-13.4646,16.1511],[129.9007,-13.4604,0.3277],[129.8965,-13.4565,3.205],[129.8975,-13.4534,1.1909],[129.8952,-13.4503,2.1412],[129.8959,-13.4477,11.3758],[129.8981,-13.4472,3.5306],[129.8974,-13.4404,2.6803],[129.8915,-13.4431,1.4809],[129.8844,-13.4532,14.8205],[129.8837,-13.4581,7.3274],[129.8784,-13.4602,9.2188],[129.8774,-13.4664,8.3687],[129.8694,-13.4798,3.6652],[129.8711,-13.4834,3.8323],[129.8687,-13.4876,5.4489],[129.8712,-13.4934,0.9455],[129.8793,-13.4994,5.197],[129.8797,-13.5021,2.3425],[129.885,-13.5014,8.348],[129.8853,-13.5032,7.4632],[129.8825,-13.5018,6.2959],[129.8782,-13.5045,1.8837],[129.8786,-13.503,1.8837],[129.8756,-13.5024,0.7977],[129.8732,-13.4991,0.0],[129.8641,-13.5012,0.0],[129.8544,-13.5076,0.0],[129.8472,-13.5097,1.6484],[129.8312,-13.5115,3.1703],[129.8261,-13.5102,2.0121],[129.8236,-13.5069,0.5359],[129.8231,-13.5024,0.0],[129.8193,-13.501,1.5011],[129.8173,-13.5018,3.3793],[129.8166,-13.5068,3.8196],[129.8232,-13.5099,1.5315],[129.8277,-13.5181,0.0],[129.8323,-13.5567,0.0],[129.8348,-13.5612,0.0],[129.8319,-13.5633,0.0],[129.828,-13.5796,0.0],[129.8143,-13.6161,7.0317],[129.7902,-13.6669,5.2686],[129.7897,-13.677,12.5871],[129.7858,-13.6929,0.0],[129.784,-13.7201,1.7548],[129.7891,-13.7228,5.1633],[129.7914,-13.7318,4.1147],[129.7851,-13.7682,0.0],[129.7893,-13.7768,0.0],[129.794,-13.7792,0.0],[129.7948,-13.7895,0.0],[129.7863,-13.7879,0.0],[129.7818,-13.7894,1.1331],[129.7739,-13.7961,0.8491],[129.7623,-13.8114,22.4209],[129.74,-13.8269,4.6209],[129.7314,-13.8396,3.0892],[129.7226,-13.8479,2.4913],[129.7193,-13.8618,7.8331],[129.72,-13.8666,6.2572],[129.7155,-13.8789,3.433],[129.7151,-13.8935,2.4278],[129.7169,-13.8963,0.0],[129.7194,-13.8976,1.1693],[129.7264,-13.8964,0.0],[129.7351,-13.8972,1.4403],[129.7412,-13.9061,0.0],[129.7426,-13.9141,1.0697],[129.7473,-13.9192,5.9085],[129.746,-13.929,11.7396],[129.7486,-13.9357,1.9116],[129.7459,-13.947,11.8219],[129.7509,-13.9495,7.065],[129.7524,-13.9522,7.2665],[129.7464,-13.969,2.4419],[129.746,-13.9751,1.8046],[129.7421,-13.9757,10.5685],[129.74,-13.9826,5.4078],[129.7316,-13.9923,1.5676],[129.7248,-14.0069,0.0],[129.7265,-14.0082,3.3488],[129.7213,-14.0134,3.0242],[129.7125,-14.017,2.3127],[129.7073,-14.0145,3.3409],[129.7,-14.021,2.1634],[129.6964,-14.0196,9.1002],[129.6809,-14.0297,16.6341],[129.6655,-14.0355,0.2387],[129.6556,-14.043,6.645],[129.6409,-14.0472,0.9077],[129.6287,-14.0459,0.0],[129.6205,-14.042,0.0],[129.6182,-14.0382,2.2727],[129.6144,-14.0384,1.8467],[129.6093,-14.0356,0.6796],[129.6005,-14.0238,0.7006],[129.6017,-14.0172,5.6461],[129.5998,-14.0112,0.1362],[129.5981,-14.0111,1.4618],[129.5961,-14.026,6.7618],[129.5906,-14.0329,0.2967],[129.5971,-14.0352,2.5096],[129.5976,-14.038,0.5798],[129.6117,-14.0536,0.1902],[129.6122,-14.0577,3.449],[129.6093,-14.0696,2.6671],[129.5988,-14.0825,0.8569],[129.5962,-14.0834,2.9323],[129.5949,-14.0912,1.9081],[129.5902,-14.0911,3.0892],[129.5905,-14.0874,0.0],[129.5888,-14.0872,0.0],[129.5851,-14.0903,0.0],[129.5853,-14.0919,0.0],[129.5822,-14.0928,0.9557],[129.5793,-14.0858,0.0],[129.5725,-14.0815,0.3915],[129.5672,-14.0839,0.3838],[129.5588,-14.0955,3.5219],[129.5548,-14.1119,3.5554],[129.5567,-14.1422,1.336],[129.542,-14.1445,5.5108],[129.5389,-14.1377,0.0],[129.5345,-14.1344,0.0],[129.53,-14.1344,0.3226],[129.5277,-14.13,4.5712],[129.5298,-14.1285,0.0],[129.5317,-14.1233,6.5553],[129.5305,-14.1142,2.8548],[129.5322,-14.1064,1.2708],[129.5365,-14.0979,3.4615],[129.5415,-14.0951,3.4636],[129.5422,-14.0911,0.0],[129.5399,-14.0862,0.9357],[129.5351,-14.0814,6.5211],[129.5357,-14.0755,10.545],[129.5386,-14.0705,1.9072],[129.538,-14.0625,0.0871],[129.5356,-14.0584,0.0017],[129.5344,-14.0606,0.4179],[129.5339,-14.0569,7.8513],[129.5251,-14.0523,0.6686],[129.5255,-14.0553,0.8139],[129.5289,-14.0552,4.015],[129.5281,-14.058,9.1488],[129.5175,-14.0678,2.4965],[129.5185,-14.072,3.467],[129.5158,-14.0754,2.6583],[129.5172,-14.0695,0.7477],[129.5141,-14.0704,1.2676],[129.506,-14.0683,4.3622],[129.5066,-14.0671,0.4612],[129.5049,-14.0671,1.1441],[129.4981,-14.0606,3.0476],[129.4914,-14.0474,0.0],[129.4833,-14.0459,-0.067],[129.479,-14.0479,0.484],[129.4775,-14.0509,0.3489],[129.4815,-14.0551,-0.0075],[129.482,-14.0529,7.3068],[129.4836,-14.0535,6.0296],[129.4865,-14.0583,0.8777],[129.4863,-14.0785,0.6732],[129.4914,-14.0757,6.8081],[129.4995,-14.079,11.1862],[129.5025,-14.0882,0.0],[129.5025,-14.102,0.0],[129.5061,-14.1044,4.7482],[129.5079,-14.1036,5.8834],[129.5049,-14.1084,7.5222],[129.5055,-14.1052,2.3629],[129.5032,-14.1042,0.0],[129.5015,-14.1053,0.6785],[129.4983,-14.1165,0.0],[129.501,-14.1205,1.1655],[129.5068,-14.1244,0.0],[129.5079,-14.1242,1.6864],[129.5068,-14.1225,0.7585],[129.5088,-14.1232,1.6864],[129.512,-14.127,7.4256],[129.5081,-14.1275,3.4493],[129.5088,-14.1305,5.0449],[129.5071,-14.1332,8.1198],[129.5034,-14.1314,5.0675],[129.5009,-14.1278,0.0],[129.4964,-14.1279,0.0],[129.4879,-14.1419,0.0],[129.4722,-14.1769,5.781],[129.4642,-14.1884,4.371],[129.4639,-14.1937,0.0],[129.4568,-14.1957,0.0],[129.4532,-14.1912,0.0],[129.4488,-14.1975,0.0],[129.4418,-14.2132,4.2867],[129.4311,-14.2264,1.4083],[129.4222,-14.2327,0.5361],[129.4204,-14.2322,2.0097],[129.4217,-14.2311,0.0],[129.4157,-14.2301,1.934],[129.4093,-14.2359,0.8426],[129.4115,-14.2415,3.9742],[129.4076,-14.2473,0.0],[129.4096,-14.2494,2.5677],[129.41,-14.2581,0.1203],[129.4126,-14.2636,7.3886],[129.4116,-14.2795,0.0],[129.4158,-14.2755,5.0974],[129.4184,-14.2771,4.4533],[129.418,-14.2797,11.3564],[129.4159,-14.2782,1.6435],[129.4145,-14.2825,0.0],[129.4162,-14.2883,0.0],[129.4196,-14.2895,6.1877],[129.4194,-14.2911,4.9598],[129.418,-14.2926,4.9894],[129.4186,-14.2902,3.8221],[129.4118,-14.2873,0.0],[129.4105,-14.2883,6.1985],[129.3935,-14.3168,1.1996],[129.3863,-14.3226,0.0],[129.3819,-14.3218,5.5523],[129.3749,-14.3312,0.6717],[129.3689,-14.3337,4.9576],[129.3667,-14.3397,1.3611],[129.3723,-14.3443,2.9317],[129.3739,-14.3547,6.045],[129.3698,-14.3646,5.7959],[129.3702,-14.3667,6.049],[129.3613,-14.3801,12.3217],[129.3598,-14.3926,7.325],[129.3617,-14.3983,7.8885],[129.3556,-14.42,3.5294],[129.3572,-14.424,2.1534],[129.363,-14.4241,0.111],[129.3667,-14.424,6.9069],[129.3693,-14.4203,0.9563],[129.3842,-14.42,0.4318],[129.3979,-14.4265,0.0],[129.4018,-14.4219,2.7212],[129.398,-14.4182,3.4891],[129.3978,-14.4161,1.9305],[129.4024,-14.4215,4.9666],[129.4006,-14.4283,0.0],[129.4069,-14.4327,0.8219],[129.4099,-14.4379,0.0],[129.4129,-14.4391,1.0903],[129.4133,-14.4418,0.8559],[129.4162,-14.4431,-0.1799],[129.4207,-14.4499,4.9555],[129.4182,-14.4497,0.0],[129.4193,-14.4541,4.8623],[129.4182,-14.4587,0.0],[129.4199,-14.4617,1.0889],[129.4216,-14.4606,8.8157],[129.4227,-14.4673,1.2593],[129.4344,-14.4788,0.5891],[129.4446,-14.476,4.4314],[129.4462,-14.4772,4.128],[129.4432,-14.4786,0.0],[129.4474,-14.4831,0.0],[129.4493,-14.4819,2.4233],[129.4512,-14.4836,0.0],[129.4516,-14.4873,5.7264],[129.4472,-14.4897,0.0],[129.4493,-14.4918,0.2025],[129.45,-14.4969,2.0035],[129.4474,-14.4996,0.0],[129.4497,-14.5001,1.612],[129.451,-14.5037,0.0277],[129.4532,-14.5051,0.1963],[129.4643,-14.4982,0.1381],[129.4693,-14.4979,0.0],[129.4734,-14.4941,0.703],[129.4745,-14.491,0.0],[129.4728,-14.4718,0.0],[129.4686,-14.4606,1.953],[129.4586,-14.4493,1.4401],[129.454,-14.4464,3.2682],[129.4577,-14.4469,1.093],[129.4626,-14.4511,3.3986],[129.4648,-14.4418,2.5874],[129.464,-14.4515,4.6526],[129.47,-14.4582,0.0],[129.4817,-14.4496,2.813],[129.4807,-14.4529,4.5621],[129.4732,-14.4566,2.1064],[129.4719,-14.4594,0.5581],[129.4758,-14.4712,1.4056],[129.4775,-14.4954,0.2687],[129.4814,-14.4981,1.9957],[129.4827,-14.5009,2.1511],[129.4966,-14.4907,3.586],[129.5069,-14.4717,3.3885],[129.5042,-14.4666,4.2166],[129.4996,-14.463,3.2183],[129.4932,-14.4647,4.4729],[129.4904,-14.4602,3.386],[129.4937,-14.462,1.3888],[129.4989,-14.4609,3.3747],[129.5023,-14.4622,2.0283],[129.5064,-14.4664,0.6799],[129.5089,-14.472,0.9306],[129.5231,-14.4656,4.0788],[129.5137,-14.4719,1.5429],[129.5168,-14.4744,2.6587],[129.5121,-14.4727,0.0],[129.5081,-14.4748,3.1963],[129.5012,-14.4908,3.5634],[129.4923,-14.4979,0.0],[129.4882,-14.5033,0.0],[129.4945,-14.5076,4.0783],[129.494,-14.5098,0.4605],[129.4966,-14.511,2.5867],[129.4954,-14.5133,0.1258],[129.4967,-14.5147,0.0],[129.5103,-14.5253,1.4025],[129.5108,-14.5286,0.0],[129.5143,-14.5301,3.5491],[129.5193,-14.5425,0.1993],[129.5216,-14.5446,1.081],[129.5214,-14.5468,0.0],[129.5263,-14.5523,0.0],[129.5318,-14.5478,6.5977],[129.5522,-14.5514,0.0],[129.5569,-14.5508,3.4718],[129.5576,-14.5533,0.0],[129.5603,-14.5541,1.1576],[129.5597,-14.5572,0.0],[129.5668,-14.5625,0.0],[129.5811,-14.5655,0.0],[129.5848,-14.5641,0.0],[129.5866,-14.5664,0.0],[129.5945,-14.5677,0.0],[129.6102,-14.5681,0.0],[129.6538,-14.5797,0.0],[129.6693,-14.5805,1.7011],[129.6755,-14.5788,0.0],[129.6877,-14.5698,2.1379],[129.7011,-14.5636,0.0],[129.7626,-14.5446,1.0],[129.7715,-14.5387,1.921],[129.7754,-14.5442,1.0],[129.7739,-14.5476,2.3254],[129.7563,-14.5648,6.4796],[129.7549,-14.5673,1.6644],[129.7563,-14.5697,1.5093],[129.7519,-14.569,0.5],[129.7474,-14.5751,0.0],[129.7412,-14.5791,1.5131],[129.7375,-14.5777,0.0],[129.7303,-14.5779,0.0],[129.7189,-14.5828,0.7334],[129.713,-14.5921,1.3132],[129.6924,-14.6128,1.8764],[129.679,-14.6138,1.362],[129.6667,-14.6114,1.7618],[129.6368,-14.6106,1.1059],[129.6126,-14.6132,2.8609],[129.6078,-14.6151,0.5553],[129.59,-14.6129,0.0],[129.5851,-14.6138,0.0],[129.5813,-14.623,0.0],[129.5807,-14.6379,0.0],[129.5811,-14.6411,0.0],[129.5842,-14.6432,0.0],[129.5892,-14.6613,0.0],[129.5978,-14.6744,1.2169],[129.6096,-14.6795,1.2106],[129.6174,-14.6786,0.3315],[129.6193,-14.6797,0.0],[129.6235,-14.6888,0.4312],[129.6337,-14.6981,0.0],[129.6367,-14.7053,0.0],[129.6449,-14.7153,0.0],[129.6538,-14.7224,0.9362],[129.6647,-14.7261,0.0],[129.6673,-14.7327,1.6681],[129.6628,-14.7346,0.8755],[129.6622,-14.7462,0.6039],[129.6659,-14.7555,3.7494],[129.6726,-14.7608,1.9096],[129.6724,-14.7635,0.0],[129.6928,-14.7705,7.4814],[129.7099,-14.7788,4.2638],[129.7133,-14.7843,6.0148],[129.7246,-14.7915,0.0],[129.7344,-14.794,0.0],[129.7515,-14.7874,4.7506],[129.7585,-14.782,1.1601],[129.7614,-14.7851,3.8884],[129.7747,-14.7831,0.0],[129.7732,-14.7774,0.8799],[129.776,-14.7713,7.5875],[129.7859,-14.7652,7.0541],[129.7941,-14.7564,5.5075],[129.7982,-14.7573,4.875],[129.7968,-14.763,1.5],[129.8007,-14.7668,4.0907],[129.8081,-14.7635,2.2877],[129.81,-14.7603,4.175],[129.81,-14.7633,4.7177],[129.806,-14.7652,7.0577],[129.8061,-14.7675,3.8342],[129.804,-14.7694,1.0],[129.7995,-14.768,4.2188],[129.7938,-14.7691,1.0],[129.7915,-14.7745,5.924],[129.7955,-14.7753,4.5724],[129.7862,-14.78,0.0],[129.7768,-14.7954,3.7145],[129.773,-14.7979,0.924],[129.7541,-14.803,4.7876],[129.7495,-14.8097,0.0],[129.7489,-14.8143,4.1365],[129.7578,-14.8244,10.8995],[129.7636,-14.8249,0.0],[129.769,-14.828,0.0],[129.7846,-14.8271,3.4846],[129.7918,-14.8218,0.9563],[129.8008,-14.8189,2.4841],[129.8127,-14.8229,1.0643],[129.8107,-14.8204,2.6414],[129.8116,-14.8193,5.7513],[129.8212,-14.8182,0.0],[129.8359,-14.8133,0.0],[129.8349,-14.8097,0.0],[129.8373,-14.8043,3.7958],[129.855,-14.7869,0.944],[129.8683,-14.7762,3.8996],[129.8774,-14.7723,3.6025],[129.8899,-14.7703,5.7509],[129.9028,-14.7732,10.9826],[129.9023,-14.7811,0.0],[129.8923,-14.7855,28.6154],[129.8826,-14.7994,1.3279],[129.8781,-14.8018,5.2402],[129.8717,-14.7992,0.0],[129.8636,-14.8025,7.5543],[129.8644,-14.8106,2.6925],[129.8687,-14.8079,7.8876],[129.8763,-14.8069,2.4674],[129.8856,-14.8139,1.7332],[129.8814,-14.8201,3.8442],[129.8732,-14.8192,0.0],[129.8463,-14.829,0.0],[129.8478,-14.8335,1.8164],[129.8535,-14.8411,19.8977],[129.8501,-14.8433,1.9885],[129.8437,-14.8432,4.9022],[129.8182,-14.8547,4.6186],[129.8006,-14.8581,1.0089],[129.7924,-14.8554,1.3018],[129.7865,-14.8516,10.2055],[129.7702,-14.8483,5.0413],[129.768,-14.8453,4.1836],[129.7682,-14.8414,17.1199],[129.7635,-14.8443,3.3551],[129.7436,-14.85,0.9554],[129.7446,-14.8523,5.003],[129.7386,-14.8506,0.7141],[129.711,-14.8524,2.2586],[129.6883,-14.8481,2.8865],[129.6849,-14.8488,1.5628],[129.6583,-14.8363,3.61],[129.6486,-14.8344,0.4408],[129.644,-14.8356,0.0],[129.6437,-14.8418,2.142],[129.6321,-14.8439,1.5616],[129.6261,-14.834,3.9769],[129.6176,-14.8255,1.394],[129.5829,-14.7996,0.7054],[129.5775,-14.7983,0.0],[129.5745,-14.8008,0.0],[129.5741,-14.8068,0.0],[129.581,-14.8223,2.2799],[129.5862,-14.8394,3.9313],[129.5994,-14.8561,0.8677],[129.6125,-14.8633,2.9441],[129.6171,-14.8695,5.1062],[129.6184,-14.8756,7.2246],[129.618,-14.8816,0.0],[129.6063,-14.887,3.31],[129.5921,-14.891,0.0],[129.5844,-14.878,3.2434],[129.5756,-14.8563,1.365],[129.57,-14.8476,0.0],[129.5663,-14.845,3.5864],[129.5642,-14.8407,2.394],[129.5566,-14.8326,0.0],[129.5501,-14.8284,8.4623],[129.5483,-14.8241,1.6883],[129.5338,-14.8068,0.0],[129.5062,-14.7888,0.0],[129.4997,-14.7901,0.0],[129.4984,-14.7943,0.0],[129.5003,-14.8032,0.0],[129.5061,-14.8083,0.0],[129.5077,-14.8131,2.1548],[129.5144,-14.82,2.61],[129.5304,-14.8439,0.5018],[129.5379,-14.8625,0.0],[129.5365,-14.869,1.1924],[129.5455,-14.8787,0.9055],[129.5479,-14.8785,3.0994],[129.547,-14.8811,3.4684],[129.5549,-14.895,1.9475],[129.5706,-14.9181,2.1127],[129.5839,-14.9421,3.1021],[129.5902,-14.9621,3.282],[129.5932,-14.9671,0.0],[129.5981,-14.9697,1.6533],[129.5981,-14.9713,0.0],[129.5995,-14.9704,1.6533],[129.5964,-14.9569,0.0],[129.6085,-14.9477,1.163],[129.6194,-14.9486,0.0],[129.623,-14.9533,0.0],[129.6246,-14.9715,4.7801],[129.6206,-14.9894,3.7429],[129.6211,-14.9986,5.0167],[129.6339,-15.0306,1.2035],[129.6369,-15.0342,1.2463],[129.6396,-15.0341,2.3811],[129.651,-15.0248,4.2264],[129.6563,-15.0233,4.5593],[129.6622,-15.0265,3.1968],[129.664,-15.0301,1.5859],[129.6611,-15.0342,2.8598],[129.6582,-15.0344,8.1089],[129.6573,-15.0323,1.7486],[129.6553,-15.0323,5.8193],[129.6486,-15.0408,6.9406],[129.6405,-15.0422,2.7166],[129.6413,-15.0631,4.168],[129.6397,-15.0703,4.5333],[129.6416,-15.079,5.2331],[129.6545,-15.102,0.5],[129.6689,-15.1179,3.9024],[129.6857,-15.131,7.1295],[129.685,-15.1427,0.5],[129.683,-15.1446,1.6349],[129.6709,-15.1485,1.2904],[129.6567,-15.1395,0.5],[129.6386,-15.1365,0.5],[129.6297,-15.1387,0.5],[129.6262,-15.138,0.5],[129.6228,-15.1432,2.1189],[129.6117,-15.1537,0.5],[129.5817,-15.1542,1.5],[129.5771,-15.1573,1.5],[129.5763,-15.1616,4.9657],[129.5702,-15.1691,5.4699],[129.5694,-15.1773,2.763],[129.5636,-15.1799,2.6605],[129.5573,-15.1705,3.0981],[129.5602,-15.1551,1.5],[129.5635,-15.1504,1.5],[129.5662,-15.1491,3.5045],[129.5712,-15.1501,1.5],[129.5858,-15.142,1.5566],[129.6022,-15.1289,1.252],[129.6056,-15.1189,2.8426],[129.6028,-15.1144,0.5],[129.6039,-15.108,0.5],[129.5873,-15.0856,0.0],[129.5794,-15.0783,0.0],[129.5711,-15.0642,0.0],[129.5607,-15.0538,0.0],[129.5582,-15.0537,2.1441],[129.5561,-15.0487,0.0],[129.5376,-15.0339,2.7636],[129.5248,-15.0281,2.778],[129.526,-15.0186,0.6201],[129.5223,-15.0057,3.8339],[129.5063,-14.979,3.9943],[129.4961,-14.9665,3.6082],[129.4825,-14.9411,0.0],[129.4749,-14.9366,3.3422],[129.4633,-14.9347,3.978],[129.4591,-14.9307,3.4086],[129.4453,-14.9269,3.8244],[129.4353,-14.9214,2.5364],[129.4312,-14.9218,3.4655],[129.4095,-14.9176,3.9377],[129.4086,-14.9249,3.4445],[129.4081,-14.9178,0.7966],[129.4016,-14.9167,2.9685],[129.4001,-14.9141,0.0],[129.3922,-14.9091,0.0],[129.3805,-14.909,0.0],[129.3779,-14.9068,0.0],[129.3673,-14.9032,2.3439],[129.3646,-14.894,2.3656],[129.3597,-14.8883,4.0268],[129.36,-14.8854,0.0],[129.3501,-14.8737,0.0],[129.3471,-14.8724,0.2047],[129.3408,-14.8739,3.2185],[129.3389,-14.8721,2.895],[129.3349,-14.873,3.9727],[129.3346,-14.8681,0.9602],[129.3292,-14.8648,4.5908],[129.3227,-14.8639,1.7428],[129.3174,-14.8595,0.1325],[129.3042,-14.8567,0.0],[129.2902,-14.8573,0.0],[129.2671,-14.8649,0.9217],[129.2573,-14.865,2.6498],[129.2623,-14.8563,0.0],[129.2629,-14.8501,0.0],[129.2576,-14.8472,0.0],[129.2439,-14.8453,0.0],[129.2408,-14.8526,3.1432],[129.2432,-14.8413,1.625],[129.2337,-14.8391,0.0],[129.2253,-14.8406,0.0],[129.2217,-14.8459,3.8275],[129.2213,-14.8499,3.0714],[129.2223,-14.8571,0.0],[129.2289,-14.8697,2.571],[129.232,-14.8964,2.0234],[129.2418,-14.9107,2.1112],[129.2399,-14.9133,2.6526],[129.2361,-14.9124,2.3804],[129.2349,-14.9141,0.0],[129.2339,-14.9244,0.6934],[129.233,-14.9572,0.0],[129.2408,-14.9804,0.0],[129.2414,-14.9865,0.0],[129.2383,-14.9987,3.5682],[129.2328,-15.0038,1.2567],[129.2335,-15.0083,2.4492],[129.2363,-15.0136,1.137],[129.2511,-15.0191,0.9494],[129.2651,-15.0329,7.9773],[129.2813,-15.0268,2.006],[129.2931,-15.0405,2.0928],[129.2995,-15.0356,2.5004],[129.3016,-15.0365,2.9029],[129.293,-15.0418,3.1195],[129.2844,-15.0341,2.8859],[129.2813,-15.029,1.7876],[129.2782,-15.0293,1.3762],[129.2713,-15.0338,7.9739],[129.2616,-15.0435,7.2179],[129.2563,-15.062,7.059],[129.2549,-15.0577,6.066],[129.2569,-15.048,7.5189],[129.2619,-15.0384,7.2373],[129.2583,-15.0342,0.0],[129.256,-15.034,0.0],[129.2543,-15.037,1.2536],[129.2553,-15.0484,2.5206],[129.2515,-15.056,4.3581],[129.2365,-15.0678,0.0],[129.2387,-15.0776,0.0],[129.2448,-15.0884,0.0],[129.2494,-15.0915,0.0],[129.2459,-15.0917,0.0],[129.2473,-15.0956,0.0],[129.2411,-15.1032,0.0],[129.2374,-15.1028,0.0],[129.2352,-15.1086,0.0],[129.239,-15.1104,1.0867],[129.2376,-15.1155,5.7776],[129.2381,-15.1287,6.6897],[129.2303,-15.1349,0.8817],[129.2293,-15.1334,2.9371],[129.2274,-15.1346,1.4625],[129.2203,-15.149,1.6316],[129.2155,-15.1538,0.0],[129.2269,-15.1618,4.3762],[129.2312,-15.1759,4.3371],[129.2256,-15.1772,0.5],[129.2205,-15.1724,0.5],[129.2176,-15.1717,0.5],[129.2174,-15.1698,0.125],[129.2062,-15.159,0.0],[129.1956,-15.1593,0.0],[129.2011,-15.153,0.0],[129.2037,-15.1471,0.0],[129.1996,-15.1467,0.3563],[129.1939,-15.1558,0.0],[129.1866,-15.1739,0.5],[129.1852,-15.1852,0.5],[129.1877,-15.1894,0.5],[129.1847,-15.1898,0.5],[129.1805,-15.1831,0.5],[129.1727,-15.1919,0.5],[129.1711,-15.1957,0.5],[129.1582,-15.1976,0.5],[129.1564,-15.1892,4.3356],[129.1575,-15.1844,4.2739],[129.1681,-15.1762,4.6561],[129.1708,-15.1705,4.5655],[129.1749,-15.1684,1.7777],[129.1734,-15.1619,4.8637],[129.1747,-15.1475,2.0842],[129.1854,-15.1421,3.4736],[129.1858,-15.1385,6.3557],[129.1895,-15.1353,2.872],[129.1946,-15.1256,0.605],[129.2005,-15.1226,3.5122],[129.1975,-15.1149,2.9687],[129.1983,-15.1106,3.7557],[129.1958,-15.1078,0.9874],[129.1967,-15.1057,0.0],[129.1954,-15.1027,0.0],[129.1926,-15.0994,0.0],[129.1886,-15.0995,3.9837],[129.1888,-15.0966,5.0495],[129.1854,-15.0915,3.5686],[129.1776,-15.0889,2.3374],[129.181,-15.0844,2.9811],[129.1804,-15.0764,0.4372],[129.1695,-15.0515,3.8147],[129.1697,-15.0358,0.0],[129.1799,-15.0248,1.0693],[129.1821,-15.009,0.0],[129.1889,-14.9872,1.1333],[129.1757,-14.9768,3.1199],[129.1582,-14.9693,0.0],[129.1567,-14.9788,3.3185],[129.1533,-14.9834,2.5877],[129.1559,-14.9779,2.0061],[129.1568,-14.9691,0.0],[129.1508,-14.9658,0.2727],[129.1307,-14.949,0.0],[129.1249,-14.9504,3.4392],[129.1226,-14.9531,2.6437],[129.1114,-14.9763,0.0],[129.1109,-14.9828,0.0],[129.1132,-14.9875,2.4078],[129.1084,-14.9892,0.427],[129.106,-14.9778,0.0],[129.1103,-14.9608,0.7271],[129.1128,-14.943,0.0],[129.1128,-14.9365,0.0],[129.1113,-14.9359,4.307],[129.1127,-14.9344,0.0],[129.1013,-14.9151,0.0],[129.0957,-14.9102,0.0],[129.093,-14.9114,2.8015],[129.0919,-14.9067,0.0],[129.077,-14.8963,3.0017],[129.0659,-14.8911,0.0],[129.0601,-14.8908,0.0],[129.0541,-14.8953,0.0],[129.0566,-14.9079,0.4101],[129.0525,-14.91,2.3612],[129.0441,-14.9075,0.0],[129.0439,-14.9018,0.0],[129.0317,-14.8864,1.1978],[129.0204,-14.8825,0.0],[129.0012,-14.8795,0.0],[129.0005,-18.6826,421.0502],[130.1234,-18.6827,410.8079],[130.1234,-17.9453,391.6295],[130.6354,-17.9452,254.3853],[130.6354,-18.3233,323.3676],[131.6461,-18.3244,211.0054],[131.6466,-17.8181,210.0615],[132.1223,-17.818,207.2002],[132.1223,-17.5964,224.4677],[132.0928,-17.5964,225.0875],[132.0923,-17.3062,239.841],[132.402,-17.3063,254.877],[132.402,-16.6505,287.0612]]],
[[[129.5715,-15.1578,1.5],[129.57,-15.1669,5.6827],[129.5752,-15.1602,1.5],[129.5742,-15.1567,1.5],[129.5715,-15.1578,1.5]]],
[[[129.2339,-15.1211,0.0],[129.2365,-15.1257,4.4624],[129.2369,-15.1195,2.4121],[129.2353,-15.1188,0.0],[129.2339,-15.1211,0.0]]],
[[[129.2338,-15.1142,0.0],[129.2349,-15.1172,0.0],[129.2371,-15.1106,0.0],[129.2358,-15.1107,0.0],[129.2338,-15.1142,0.0]]],
[[[129.1589,-15.1856,4.7636],[129.1581,-15.1936,3.285],[129.1608,-15.1906,4.0822],[129.161,-15.1865,4.5177],[129.1634,-15.183,4.4972],[129.1589,-15.1856,4.7636]]],
[[[129.1847,-15.1883,0.5],[129.1863,-15.1888,0.5],[129.184,-15.1852,0.5],[129.1837,-15.1861,0.5],[129.1847,-15.1883,0.5]]],
[[[129.1998,-15.1558,0.0],[129.1986,-15.1572,0.0],[129.2036,-15.1569,0.0],[129.2015,-15.1546,0.0],[129.1998,-15.1558,0.0]]],
[[[129.2111,-15.1504,0.0],[129.2135,-15.1522,0.0],[129.2188,-15.1472,0.0],[129.2231,-15.1349,0.0],[129.2194,-15.1347,0.0],[129.211,-15.1478,0.0],[129.2111,-15.1504,0.0]]],
[[[129.2303,-15.1326,1.5554],[129.2319,-15.1318,0.0],[129.2313,-15.1307,1.546],[129.2303,-15.1312,1.546],[129.2303,-15.1326,1.5554]]],
[[[129.2316,-15.1283,0.0],[129.2334,-15.1291,0.0],[129.2345,-15.128,0.407],[129.2323,-15.1272,0.0],[129.2316,-15.1283,0.0]]],
[[[129.7198,-14.8133,0.0],[129.7308,-14.8089,0.647],[129.7321,-14.8041,0.0],[129.7014,-14.7892,0.0],[129.6813,-14.7859,1.7005],[129.6736,-14.7831,1.005],[129.6707,-14.7844,0.0],[129.6712,-14.7893,0.0],[129.6952,-14.8079,3.7158],[129.7094,-14.8128,3.8944],[129.7198,-14.8133,0.0]]]]}
,"properties": {"GID_2": "AUS.6.15_1","GID_0": "AUS","country": "Australia","GID_1": "AUS.6_1","state": "NorthernTerritory","NL_NAME_1": "NA","county": "Victoria-Daly","VARNAME_2": "NA","NL_NAME_2": "NA","TYPE_2": "Shire","ENGTYPE_2": "Shire","CC_2": "74500","HASC_2": "NA","name": "Victoria-Daly.county","area_km2": 167884.82,"hist_schema_id": "Elevation0-9000","hist_area_km2": {"0": 8389.88,"25": 10015.68,"50": 8566.08,"75": 8172.34,"100": 9094.24,"125": 11110.57,"150": 11555.76,"175": 12443.13,"200": 16154.64,"225": 16017.62,"250": 14292.96,"275": 9333.16,"300": 6506.5,"325": 4362.33,"350": 4021.02,"375": 5738.01,"400": 6142.42,"425": 4040.24,"450": 1677.49,"475": 234.48,"500": 16.28}}}