{"type": "Feature","bbox": [142.3535,-37.8366,143.2908,-37.1419],"geometry": {"type": "MultiPolygon","coordinates": [[[[143.1807,-37.7315,226.028],[143.0609,-37.7182,242.1537],[143.0647,-37.7165,238.1264],[143.0744,-37.7031,240.4594],[143.0768,-37.692,241.5267],[143.0758,-37.6831,243.3955],[143.0789,-37.6723,245.4875],[143.0821,-37.6634,246.444],[143.0898,-37.6514,249.8964],[143.1026,-37.6446,251.0814],[143.1085,-37.638,252.5271],[143.1164,-37.6205,298.2704],[143.1345,-37.6002,282.8486],[143.1391,-37.5871,287.2463],[143.1515,-37.5756,284.0037],[143.1565,-37.5687,288.9214],[143.1697,-37.5608,294.5278],[143.1837,-37.5332,296.0798],[143.193,-37.5265,302.4526],[143.1793,-37.5246,293.1209],[143.1917,-37.4665,333.396],[143.1973,-37.4263,327.2399],[143.2069,-37.4286,328.8083],[143.2104,-37.4263,329.8134],[143.2133,-37.4212,334.0785],[143.2189,-37.4203,334.3417],[143.2199,-37.4156,338.8565],[143.2229,-37.4132,337.9763],[143.2441,-37.4025,348.1447],[143.251,-37.3928,355.6643],[143.2512,-37.3885,358.9576],[143.2365,-37.3843,360.0407],[143.2405,-37.3755,388.2927],[143.2487,-37.3648,411.8989],[143.2486,-37.3621,429.3772],[143.231,-37.3576,443.0446],[143.2315,-37.3565,443.0446],[143.2017,-37.3565,362.1611],[143.2016,-37.3244,384.4084],[143.1943,-37.321,381.0771],[143.204,-37.3147,402.5992],[143.2139,-37.3129,463.7775],[143.2139,-37.3102,453.8548],[143.2216,-37.3101,499.3279],[143.2217,-37.3154,558.3256],[143.2256,-37.3154,578.2097],[143.2297,-37.3102,609.2884],[143.2319,-37.3039,856.568],[143.2317,-37.3005,892.1023],[143.2266,-37.2911,939.45],[143.2348,-37.2856,887.0833],[143.244,-37.283,937.0145],[143.2473,-37.2839,943.5043],[143.258,-37.2798,816.1438],[143.265,-37.2828,782.3563],[143.2749,-37.284,678.5438],[143.2796,-37.2867,589.7968],[143.2847,-37.2867,503.1518],[143.2908,-37.2821,444.7911],[143.2891,-37.2718,395.3359],[143.2837,-37.2601,387.0682],[143.2862,-37.2477,346.9679],[143.2858,-37.2347,327.2733],[143.2823,-37.2265,320.2682],[143.2717,-37.2166,309.6885],[143.2722,-37.2132,308.4747],[143.2693,-37.2099,312.0824],[143.2697,-37.2061,309.7995],[143.2672,-37.2024,305.6643],[143.2708,-37.1966,300.9749],[143.2646,-37.1883,296.1289],[143.2637,-37.1817,294.0111],[143.2529,-37.1772,291.2132],[143.2491,-37.1721,288.4901],[143.2426,-37.1739,287.5797],[143.2343,-37.1687,292.0357],[143.2326,-37.1644,282.123],[143.2335,-37.1609,283.2847],[143.2218,-37.1526,283.3165],[143.2174,-37.1537,278.3026],[143.2089,-37.1601,275.442],[143.2056,-37.1595,274.9799],[143.2049,-37.1616,274.2585],[143.2024,-37.1611,272.7257],[143.2017,-37.1633,273.5526],[143.2032,-37.1649,272.099],[143.1986,-37.1666,270.8221],[143.1977,-37.1712,269.988],[143.1932,-37.1701,272.2177],[143.1917,-37.1725,268.9777],[143.1959,-37.1778,268.9745],[143.1909,-37.1785,267.3589],[143.1914,-37.1814,266.9384],[143.1862,-37.1832,269.7325],[143.1842,-37.1853,274.3476],[143.1849,-37.1879,269.4543],[143.1817,-37.1886,272.4712],[143.1689,-37.184,259.3991],[143.1697,-37.1821,258.7805],[143.1675,-37.1813,261.4014],[143.168,-37.1786,259.6394],[143.1652,-37.1757,262.7159],[143.1586,-37.1756,263.0934],[143.1569,-37.1769,257.9274],[143.1522,-37.1746,255.3824],[143.1521,-37.1718,254.9637],[143.1503,-37.1707,264.7767],[143.144,-37.1723,256.0771],[143.1383,-37.1711,266.9873],[143.1372,-37.1744,254.0784],[143.1276,-37.1734,249.2849],[143.1252,-37.1693,248.1437],[143.1212,-37.1679,248.0627],[143.1141,-37.1604,250.7215],[143.1134,-37.1575,246.7871],[143.0904,-37.1552,250.8787],[143.0837,-37.1487,246.088],[143.0796,-37.1506,243.9785],[143.0799,-37.149,241.9317],[143.0669,-37.1474,241.6124],[143.0591,-37.1872,270.2653],[143.0493,-37.186,264.9766],[143.0489,-37.1898,269.1457],[142.9935,-37.1831,397.952],[142.9945,-37.1773,432.7964],[142.9726,-37.1748,403.6314],[142.9734,-37.1702,455.4853],[142.9704,-37.1673,469.6263],[142.9613,-37.167,419.2733],[142.9605,-37.1714,395.3737],[142.9577,-37.1711,410.5251],[142.9593,-37.1749,382.1845],[142.954,-37.2078,344.173],[142.9246,-37.2043,316.7575],[142.9234,-37.2055,305.3674],[142.9194,-37.2028,304.4265],[142.8834,-37.1997,274.2227],[142.884,-37.1983,272.4421],[142.8763,-37.1974,277.5115],[142.8767,-37.1954,286.7134],[142.8379,-37.1916,299.7702],[142.8316,-37.1755,264.9998],[142.8234,-37.1744,301.8155],[142.8239,-37.1717,295.4515],[142.795,-37.1683,282.2378],[142.7946,-37.1702,287.8359],[142.7837,-37.1689,276.622],[142.7818,-37.1577,314.9563],[142.7769,-37.1572,329.1952],[142.7772,-37.1554,327.9761],[142.7684,-37.1544,411.3272],[142.7696,-37.1484,488.4798],[142.7678,-37.1482,488.0634],[142.7687,-37.1428,495.1346],[142.7665,-37.1421,519.7916],[142.7648,-37.1419,503.6533],[142.7636,-37.1446,523.4967],[142.7619,-37.1431,509.1328],[142.7586,-37.1448,485.763],[142.7564,-37.1509,358.5492],[142.7505,-37.1472,320.1404],[142.7465,-37.149,298.5654],[142.7404,-37.1483,292.928],[142.7397,-37.1453,305.1915],[142.735,-37.1428,321.8801],[142.717,-37.1429,256.3517],[142.7171,-37.1573,238.6872],[142.5428,-37.1574,509.1609],[142.5608,-37.1763,523.5464],[142.5657,-37.1842,550.7205],[142.5775,-37.1974,537.7106],[142.5872,-37.2142,650.4899],[142.5952,-37.2176,648.8256],[142.5982,-37.2244,639.9483],[142.5991,-37.232,681.8911],[142.6012,-37.2341,691.8846],[142.5954,-37.2359,706.3082],[142.593,-37.2406,718.5099],[142.5969,-37.2554,902.4299],[142.5962,-37.2571,914.0411],[142.593,-37.2577,899.6827],[142.597,-37.2622,966.2305],[142.5825,-37.2689,814.2533],[142.5808,-37.2727,722.1503],[142.5853,-37.2769,777.8119],[142.5819,-37.2775,780.2823],[142.5859,-37.2804,841.0779],[142.588,-37.2846,834.7866],[142.5941,-37.2867,939.9625],[142.5922,-37.2906,992.2266],[142.5954,-37.2889,1044.6377],[142.5989,-37.2929,1118.71],[142.5164,-37.2932,712.5762],[142.5139,-37.2986,718.117],[142.5142,-37.3057,718.077],[142.511,-37.3086,713.0166],[142.5081,-37.3149,704.5376],[142.5051,-37.3163,710.7834],[142.5051,-37.3184,703.9851],[142.5004,-37.3203,894.8392],[142.5002,-37.3302,653.6219],[142.4971,-37.3376,585.6066],[142.4973,-37.3438,503.1543],[142.4957,-37.3475,480.2785],[142.4962,-37.3549,495.1935],[142.4935,-37.3609,549.8693],[142.495,-37.365,530.438],[142.4938,-37.3699,431.1772],[142.492,-37.3748,496.3593],[142.4872,-37.3788,540.9418],[142.4871,-37.3812,530.5616],[142.4834,-37.3822,514.0738],[142.482,-37.3928,473.5254],[142.478,-37.4009,482.554],[142.4698,-37.4112,679.2571],[142.467,-37.4125,754.6843],[142.4659,-37.4163,656.5188],[142.4593,-37.4209,497.8945],[142.4581,-37.4253,438.6615],[142.4523,-37.4334,559.6016],[142.4466,-37.4338,641.5015],[142.4342,-37.4443,648.5799],[142.4361,-37.4488,483.8057],[142.4294,-37.4535,569.3279],[142.4268,-37.4584,661.6774],[142.427,-37.4677,640.3649],[142.4187,-37.4707,594.4517],[142.4185,-37.4759,504.0136],[142.4145,-37.4788,642.588],[142.4072,-37.489,553.252],[142.3929,-37.4933,512.1377],[142.3914,-37.4963,469.3604],[142.3874,-37.4985,525.4352],[142.3791,-37.5106,633.3015],[142.3753,-37.5236,669.6201],[142.3726,-37.5248,628.2003],[142.3707,-37.5331,649.6556],[142.3642,-37.5449,580.31],[142.3671,-37.5575,428.7796],[142.366,-37.5597,423.792],[142.3691,-37.5638,411.2957],[142.3673,-37.5656,394.2606],[142.3667,-37.5708,400.8459],[142.3577,-37.5854,581.4452],[142.3551,-37.5871,624.5266],[142.3561,-37.5942,622.3961],[142.3535,-37.598,762.5899],[142.4578,-37.611,244.2389],[142.4585,-37.6149,254.0867],[142.4677,-37.6148,248.3208],[142.4666,-37.612,251.2776],[142.4816,-37.6128,248.554],[142.4836,-37.6144,245.3966],[142.5872,-37.6271,265.2512],[142.5873,-37.6357,278.2219],[142.6188,-37.6468,280.9118],[142.6191,-37.6731,272.4363],[142.6159,-37.6886,270.5286],[142.6019,-37.6997,287.6784],[142.5989,-37.7128,290.3412],[142.5947,-37.7191,276.3628],[142.594,-37.7274,257.9475],[142.5964,-37.7335,268.1184],[142.5961,-37.7412,268.5376],[142.5902,-37.7654,213.0302],[142.5932,-37.776,243.473],[142.5977,-37.7809,260.0789],[142.6081,-37.7853,244.6288],[142.6125,-37.7916,226.9637],[142.6147,-37.8103,187.6219],[142.6165,-37.8093,186.3125],[142.643,-37.8133,192.1645],[142.6522,-37.8133,191.7115],[142.6611,-37.8173,176.7864],[142.6627,-37.8152,184.1247],[142.6731,-37.8166,190.7239],[142.6648,-37.83,187.2383],[142.7017,-37.8347,187.3724],[142.7498,-37.8194,207.4843],[142.7577,-37.8127,202.337],[142.8397,-37.8221,205.9851],[142.8422,-37.8079,212.84],[142.8608,-37.8099,211.3173],[142.8614,-37.8065,207.3709],[142.8795,-37.8084,220.6591],[142.8753,-37.8317,212.8974],[142.8794,-37.8366,209.5781],[142.9026,-37.8166,216.3061],[142.9234,-37.8072,224.4725],[142.9268,-37.8013,227.3779],[142.9297,-37.8007,228.7435],[142.9346,-37.8029,226.4234],[142.9384,-37.8016,229.2907],[142.9513,-37.7895,235.9289],[142.9624,-37.7872,237.4508],[142.9848,-37.7728,253.5399],[143.0072,-37.7656,241.2244],[143.0166,-37.7667,235.9507],[143.0131,-37.7869,230.6598],[143.0246,-37.7887,228.6097],[143.0353,-37.7928,220.9409],[143.0314,-37.8145,207.2574],[143.0448,-37.8161,206.5552],[143.0483,-37.8233,200.5112],[143.0621,-37.8249,207.8568],[143.064,-37.8142,213.2393],[143.0762,-37.8157,211.1519],[143.0939,-37.8293,202.1137],[143.1058,-37.8335,190.8993],[143.1049,-37.8307,194.2439],[143.1009,-37.8292,197.6167],[143.1019,-37.8273,193.6862],[143.1007,-37.8244,205.5702],[143.0996,-37.8225,197.2091],[143.096,-37.8216,203.641],[143.0952,-37.8185,194.4118],[143.0973,-37.8149,199.0857],[143.1007,-37.815,216.3236],[143.0991,-37.8093,209.8757],[143.1018,-37.8052,207.4551],[143.1083,-37.8009,214.1137],[143.1076,-37.7969,212.78],[143.1103,-37.7932,211.0338],[143.1062,-37.792,217.8726],[143.1059,-37.7893,213.9734],[143.1083,-37.7785,214.8459],[143.1165,-37.774,217.2249],[143.1199,-37.7749,211.6346],[143.1208,-37.7772,212.6176],[143.1258,-37.7797,215.2705],[143.1316,-37.7791,212.793],[143.1363,-37.7761,218.5981],[143.1343,-37.7737,214.8371],[143.137,-37.7708,215.138],[143.1419,-37.77,218.3113],[143.1427,-37.7679,220.8972],[143.1456,-37.7685,216.1915],[143.1462,-37.7649,218.9512],[143.1492,-37.7617,216.4623],[143.1607,-37.7618,222.2916],[143.1655,-37.7653,218.421],[143.1671,-37.7639,218.5865],[143.1651,-37.7619,218.6296],[143.165,-37.7549,219.313],[143.1686,-37.7539,219.0032],[143.1672,-37.7496,220.7068],[143.1707,-37.7505,225.8831],[143.1679,-37.7441,224.3399],[143.1742,-37.7434,221.8928],[143.1807,-37.7315,226.028]]]]}
,"properties": {"GID_2": "AUS.10.2_1","GID_0": "AUS","country": "Australia","GID_1": "AUS.10_1","state": "Victoria","NL_NAME_1": "NA","county": "Ararat","VARNAME_2": "NA","NL_NAME_2": "NA","TYPE_2": "RuralCity","ENGTYPE_2": "RuralCity","CC_2": "20260","HASC_2": "AU.VI.AR","name": "Ararat.county","area_km2": 4210.01,"hist_schema_id": "Elevation0-9000","hist_area_km2": {"150": 0.05,"175": 18.88,"200": 147.254,"225": 604.127,"250": 1062.762,"275": 741.476,"300": 480.88,"325": 402.281,"350": 293.937,"375": 121.971,"400": 70.969,"425": 45.15,"450": 30.972,"475": 23.572,"500": 19.036,"525": 17.251,"550": 14.654,"575": 13.558,"600": 11.669,"625": 10.338,"650": 9.023,"675": 9.024,"700": 8.502,"725": 7.557,"750": 6.866,"775": 5.87,"800": 5.449,"825": 4.2,"850": 3.812,"875": 3.508,"900": 3.053,"925": 2.327,"950": 1.771,"975": 1.163,"1000": 1.433,"1025": 1.281,"1050": 1.349,"1075": 1.248,"1100": 0.86,"1125": 0.59,"1150": 0.337}}}