{"type": "Feature","bbox": [139.6196,-35.2918,140.4301,-34.5651],"geometry": {"type": "MultiPolygon","coordinates": [[[[139.6199,-35.183,88.1121],[139.6196,-35.2187,33.151],[139.8942,-35.2186,68.3411],[139.8942,-35.291,83.8527],[140.2532,-35.2918,83.1008],[140.2529,-35.1079,81.2941],[140.4301,-35.1077,88.6096],[140.4297,-34.8702,72.0586],[140.3672,-34.87,67.8368],[140.3676,-34.6945,68.9367],[140.1771,-34.6947,72.0513],[140.1772,-34.6614,69.2376],[140.188,-34.6607,68.7189],[140.1882,-34.5651,65.1559],[140.1541,-34.5651,63.5842],[140.1017,-34.5755,66.0444],[140.0642,-34.5755,67.3347],[140.0642,-34.5997,58.2675],[139.9677,-34.6205,55.9258],[139.9287,-34.6136,61.86],[139.9144,-34.6144,55.5453],[139.8988,-34.6101,59.0746],[139.8837,-34.6081,57.749],[139.8577,-34.6122,58.156],[139.8411,-34.613,59.2074],[139.7679,-34.609,50.178],[139.7588,-34.6069,44.9212],[139.7597,-34.8675,64.0253],[139.6337,-34.8673,0.6321],[139.6355,-34.8712,3.0809],[139.6434,-34.8788,2.2592],[139.6443,-34.8832,17.6791],[139.64,-34.8862,1.51],[139.633,-34.8868,14.5891],[139.6348,-34.8919,48.393],[139.6238,-34.893,39.1069],[139.6199,-34.896,31.3075],[139.6199,-35.0547,75.3128],[139.6224,-35.0629,80.7774],[139.6199,-35.0685,60.2596],[139.6199,-35.183,88.1121]]]]}
,"properties": {"GID_2": "AUS.8.24_1","GID_0": "AUS","country": "Australia","GID_1": "AUS.8_1","state": "SouthAustralia","NL_NAME_1": "NA","county": "KaroondaEastMurray","VARNAME_2": "NA","NL_NAME_2": "NA","TYPE_2": "DistrictCouncil","ENGTYPE_2": "DistrictCouncil","CC_2": "43080","HASC_2": "NA","name": "KaroondaEastMurray.county","area_km2": 4421.379,"hist_schema_id": "Elevation0-9000","hist_area_km2": {"0": 1.583,"25": 15.661,"50": 786.881,"75": 3127.722,"100": 452.958,"125": 36.557}}}