{"type":"Feature","properties":{"GID_2":"AUS.5.98_1","GID_0":"AUS","country":"Australia","GID_1":"AUS.5_1","state":"NewSouthWales","NL_NAME_1":"NA","county":"Narrandera","VARNAME_2":"NA","NL_NAME_2":"NA","TYPE_2":"Area","ENGTYPE_2":"Area","CC_2":"15800","HASC_2":"AU.NS.ND","name":"Narrandera.county"},
"geometry":{"type": "MultiPolygon","coordinates": [[[[146.4646,-34.0951,153.9027],[146.4468,-34.0939,153.2684],[146.445,-34.0953,152.3606],[146.4412,-34.0933,152.3163],[146.3595,-34.0837,185.4959],[146.3286,-34.2636,138.3567],[146.3048,-34.2607,138.8032],[146.3001,-34.2894,136.3553],[146.3116,-34.3115,136.5324],[146.3073,-34.3351,136.7587],[146.3907,-34.3449,142.3863],[146.3858,-34.3727,140.0781],[146.389,-34.3731,140.2994],[146.3868,-34.3853,140.8841],[146.3969,-34.3867,147.1224],[146.3925,-34.4109,202.7075],[146.3895,-34.4105,173.0694],[146.3876,-34.421,202.7054],[146.4001,-34.4225,203.9048],[146.3975,-34.4371,147.3094],[146.401,-34.4376,148.4252],[146.4003,-34.4416,165.5478],[146.4207,-34.4442,153.7413],[146.4214,-34.4401,160.9069],[146.4413,-34.4426,169.306],[146.439,-34.4552,155.1635],[146.4685,-34.4594,307.8883],[146.4681,-34.4614,252.3833],[146.4827,-34.4631,202.9998],[146.4818,-34.4763,176.1629],[146.4731,-34.4753,205.5041],[146.4725,-34.4791,174.0823],[146.4788,-34.4798,175.6303],[146.4706,-34.5256,143.0778],[146.5142,-34.5311,177.5559],[146.5103,-34.5528,162.4289],[146.5167,-34.5536,166.8862],[146.4874,-34.709,145.0795],[146.4854,-34.7088,144.0435],[146.4842,-34.7154,136.5742],[146.4823,-34.7147,138.6864],[146.4778,-34.7169,139.6874],[146.4658,-34.725,145.7048],[146.4622,-34.7228,134.0],[146.4618,-34.7197,133.75],[146.4592,-34.7181,137.0255],[146.4545,-34.7207,136.3379],[146.45,-34.7153,135.4711],[146.4463,-34.7177,136.731],[146.4447,-34.7152,135.391],[146.4409,-34.7148,136.8293],[146.4368,-34.7101,135.966],[146.432,-34.7076,133.7818],[146.427,-34.7079,134.198],[146.4283,-34.7029,137.893],[146.4252,-34.7,133.8218],[146.4205,-34.7019,133.7332],[146.4217,-34.7037,139.9078],[146.4198,-34.7056,136.0393],[146.4104,-34.706,141.9629],[146.4084,-34.7053,139.272],[146.4081,-34.7023,143.7736],[146.4027,-34.7013,142.8558],[146.4026,-34.7047,141.7791],[146.3942,-34.6982,140.6282],[146.3873,-34.6988,142.7751],[146.3828,-34.696,139.4143],[146.3762,-34.6947,141.6999],[146.3574,-34.7004,138.7943],[146.3449,-34.6993,138.0893],[146.3359,-34.6903,138.019],[146.3324,-34.689,137.9593],[146.2188,-34.6751,133.5181],[146.198,-34.788,131.9615],[146.1794,-34.7857,130.7637],[146.1784,-34.7911,131.3842],[146.1744,-34.7906,131.0714],[146.1524,-34.9017,127.7908],[146.1924,-34.9236,126.672],[146.2335,-34.8734,131.146],[146.258,-34.8869,131.2085],[146.263,-34.8807,130.6262],[146.27,-34.8847,131.8049],[146.2795,-34.8853,132.0047],[146.309,-34.8953,131.0695],[146.3086,-34.8972,130.9372],[146.3173,-34.8982,131.1271],[146.3163,-34.9037,131.0979],[146.3346,-34.9059,130.8414],[146.3341,-34.9087,130.2856],[146.3559,-34.9114,131.5021],[146.3556,-34.9131,131.0319],[146.3692,-34.9147,131.6335],[146.672,-35.0599,160.0393],[146.6779,-35.0541,162.0756],[146.6913,-35.056,168.2937],[146.6886,-35.068,177.0111],[146.7615,-35.0764,191.9198],[146.772,-35.0877,199.68],[146.7703,-35.0973,224.3074],[146.7788,-35.0984,234.8445],[146.7842,-35.0701,178.2517],[146.7888,-35.0706,177.1599],[146.7916,-35.0562,167.881],[146.7942,-35.0582,170.1973],[146.8089,-34.9851,160.8601],[146.808,-34.9761,161.1239],[146.8042,-34.9725,161.4649],[146.8043,-34.9693,162.4691],[146.8008,-34.9681,162.485],[146.7988,-34.9706,162.1084],[146.7966,-34.9696,162.828],[146.7935,-34.9584,159.3202],[146.7878,-34.9559,159.1962],[146.7879,-34.9535,158.9815],[146.7851,-34.9528,160.4376],[146.7796,-34.947,158.0533],[146.7791,-34.9396,157.6917],[146.7826,-34.9347,156.2533],[146.7845,-34.9241,156.3499],[146.8319,-34.9051,163.0721],[146.8327,-34.9065,166.0484],[146.8424,-34.9027,153.7372],[146.8437,-34.8988,160.9579],[146.8384,-34.892,153.0888],[146.8343,-34.8941,153.9636],[146.8328,-34.8933,156.7382],[146.8358,-34.8884,162.3785],[146.8416,-34.8861,154.2426],[146.8416,-34.8811,162.1905],[146.8379,-34.8791,155.0428],[146.8349,-34.8814,151.7471],[146.8311,-34.8809,156.4863],[146.8293,-34.8775,173.0087],[146.8328,-34.8729,155.103],[146.8354,-34.8601,156.5382],[146.8396,-34.8606,156.0764],[146.8463,-34.8445,160.3252],[146.8466,-34.8424,160.7605],[146.8426,-34.8378,160.5724],[146.9116,-34.4826,220.3779],[146.8353,-34.4727,222.8125],[146.8347,-34.4755,223.7629],[146.7959,-34.4708,200.4127],[146.7917,-34.4723,199.8264],[146.7962,-34.4473,206.4341],[146.7918,-34.4468,204.1344],[146.7926,-34.4422,200.729],[146.797,-34.4428,204.2014],[146.8,-34.4265,207.1753],[146.8027,-34.4269,207.3638],[146.823,-34.3109,246.4921],[146.7188,-34.2981,180.095],[146.729,-34.2368,182.0576],[146.6239,-34.2247,163.4587],[146.6354,-34.1512,163.8506],[146.5974,-34.1472,160.2021],[146.5985,-34.1409,158.2354],[146.5915,-34.1401,158.1032],[146.5897,-34.1449,158.5165],[146.5855,-34.1463,158.3696],[146.458,-34.1329,149.442],[146.4646,-34.0951,153.9027]]]]}}