{"type":"Feature","properties":{"GID_2":"AUS.11.56_1","GID_0":"AUS","country":"Australia","GID_1":"AUS.11_1","state":"WesternAustralia","NL_NAME_1":"NA","county":"Harvey","VARNAME_2":"NA","NL_NAME_2":"NA","TYPE_2":"Shire","ENGTYPE_2":"Shire","CC_2":"53990","HASC_2":"AU.WA.HA","name":"Harvey.county"},
"geometry":{"type": "MultiPolygon","coordinates": [[[[116.18,-32.9431,161.3466],[116.1652,-32.9417,166.3165],[116.1732,-32.9355,158.5494],[116.1719,-32.9265,163.5439],[116.1679,-32.9301,172.3983],[116.1643,-32.9301,190.2639],[116.164,-32.9336,186.3762],[116.1506,-32.9355,220.1754],[116.0216,-32.9358,441.2606],[116.0216,-32.9402,433.216],[116.0003,-32.9399,333.6407],[116.0003,-32.9424,335.8417],[115.9944,-32.9424,335.1553],[115.9944,-32.9384,333.4747],[115.9893,-32.9384,328.4795],[115.9934,-32.9333,317.8859],[115.9564,-32.9329,286.0049],[115.9564,-32.9384,302.3565],[115.9513,-32.9384,282.9225],[115.9513,-32.9423,272.0461],[115.9478,-32.9423,239.1545],[115.9467,-32.9384,226.1276],[115.9427,-32.9362,215.0785],[115.94,-32.937,182.9464],[115.94,-32.941,228.4381],[115.9244,-32.9411,121.6605],[115.9243,-32.9381,112.5972],[115.9001,-32.937,30.105],[115.8745,-32.938,14.2536],[115.8745,-32.935,14.4565],[115.8692,-32.935,14.2626],[115.8692,-32.9422,16.1699],[115.868,-32.9422,15.8202],[115.853,-32.9314,14.0016],[115.8497,-32.9337,15.0086],[115.8497,-32.9356,19.9542],[115.8387,-32.9357,13.7077],[115.8358,-32.9288,13.9046],[115.8238,-32.9288,14.8213],[115.8238,-32.9259,13.1693],[115.8129,-32.9259,13.2954],[115.8131,-32.9365,14.4158],[115.7808,-32.9366,15.5005],[115.7808,-32.93,16.3237],[115.7638,-32.93,13.7581],[115.7638,-32.922,13.5153],[115.7529,-32.9207,29.5829],[115.7192,-32.9211,6.5358],[115.72,-32.9252,7.1034],[115.7085,-32.9252,8.7489],[115.7083,-32.9293,11.2228],[115.7013,-32.9297,9.6242],[115.7003,-32.9317,6.9322],[115.6937,-32.9309,13.3409],[115.6863,-32.9316,6.8635],[115.6871,-32.9331,2.3801],[115.6585,-32.9331,0.0],[115.6737,-32.9988,2.4787],[115.6812,-33.0513,5.1355],[115.6888,-33.1218,0.0],[115.6887,-33.1377,1.992],[115.6853,-33.1494,7.2244],[115.6831,-33.1762,0.0],[115.6834,-33.2163,5.759],[115.681,-33.2753,0.0],[115.6786,-33.2886,0.9927],[115.6737,-33.2994,0.0],[115.6702,-33.3029,0.0],[115.6766,-33.3043,1.8597],[115.6912,-33.3042,0.0],[115.6956,-33.3089,0.6787],[115.7023,-33.3119,1.0188],[115.7145,-33.3121,0.9235],[115.7194,-33.3081,1.0094],[115.7211,-33.2983,1.8224],[115.7195,-33.2924,7.271],[115.7233,-33.2901,1.4318],[115.7297,-33.291,0.4327],[115.7358,-33.2956,3.8923],[115.7359,-33.2995,3.907],[115.7375,-33.3002,4.7105],[115.7447,-33.2983,5.9238],[115.7467,-33.2946,3.9891],[115.7483,-33.2949,3.7234],[115.7482,-33.2975,5.2913],[115.7499,-33.2985,5.4884],[115.7563,-33.2956,5.0588],[115.7611,-33.2973,9.9306],[115.7648,-33.2953,9.009],[115.7669,-33.2975,8.39],[115.7672,-33.3016,8.5393],[115.7725,-33.3015,2.1169],[115.7743,-33.304,5.629],[115.7792,-33.3051,4.1096],[115.7824,-33.3087,8.4802],[115.7856,-33.3082,4.8096],[115.7891,-33.3036,8.9079],[115.7881,-33.3021,7.506],[115.7915,-33.3004,7.8862],[115.7975,-33.3015,5.3384],[115.8038,-33.2996,6.9778],[115.8047,-33.3015,10.1944],[115.8079,-33.3024,9.8864],[115.8139,-33.3,8.002],[115.8366,-33.3168,14.7765],[115.8414,-33.3187,15.49],[115.86,-33.3195,22.8194],[115.8635,-33.3215,17.8015],[115.867,-33.3204,17.808],[115.8733,-33.3242,18.1755],[115.8795,-33.3213,16.3538],[115.884,-33.3248,30.8813],[115.8876,-33.325,20.2101],[115.892,-33.3216,27.7811],[115.9008,-33.32,31.7968],[115.9001,-33.3258,34.6219],[115.9027,-33.3282,47.3506],[115.8944,-33.337,51.933],[115.8944,-33.3407,77.9952],[115.8962,-33.3426,63.7396],[115.8941,-33.3452,79.0626],[115.9033,-33.3544,78.6103],[115.9041,-33.3583,88.3867],[115.9112,-33.3637,87.4183],[115.9128,-33.3666,87.8032],[115.912,-33.3711,95.7638],[115.9153,-33.374,100.2657],[115.9166,-33.3786,98.8516],[115.9188,-33.3787,98.4088],[115.919,-33.3489,215.5676],[115.9279,-33.3489,220.5728],[115.9279,-33.3417,166.086],[115.9243,-33.3417,158.3436],[115.9243,-33.3391,184.4794],[115.9189,-33.3391,152.0669],[115.9186,-33.29,241.4575],[115.947,-33.2899,288.2304],[115.9463,-33.2219,150.5466],[115.9501,-33.2204,160.7928],[115.955,-33.223,179.8458],[115.9622,-33.2221,167.1788],[115.9684,-33.2168,174.1358],[115.9712,-33.2176,178.2879],[115.9736,-33.214,193.6479],[115.9804,-33.2126,195.1656],[115.9828,-33.21,190.1529],[115.987,-33.2097,196.8454],[115.9892,-33.2122,193.3357],[115.9926,-33.2127,203.9392],[115.9976,-33.2101,199.8607],[116.002,-33.2101,201.9651],[116.0032,-33.207,206.3799],[116.0133,-33.2039,205.8694],[116.0137,-33.2013,219.3795],[116.0101,-33.1904,233.1755],[116.0125,-33.1877,225.195],[116.0133,-33.1835,226.1592],[116.0154,-33.1829,231.0624],[116.0194,-33.1847,236.932],[116.0187,-33.1862,236.932],[116.0212,-33.1888,247.5891],[116.0305,-33.1914,252.8141],[116.0312,-33.213,302.9461],[116.0085,-33.2319,234.5957],[116.145,-33.2319,217.0],[116.1423,-33.2242,230.4969],[116.1467,-33.2242,259.7258],[116.1469,-33.0849,302.9012],[116.2091,-33.0851,259.4009],[116.2089,-32.9842,165.7167],[116.2044,-32.9799,167.793],[116.2044,-32.9763,169.4165],[116.2,-32.9706,160.726],[116.1996,-32.9671,160.8616],[116.1943,-32.9659,164.743],[116.1925,-32.9671,163.563],[116.1925,-32.9719,163.8904],[116.1891,-32.9713,166.8837],[116.1869,-32.9666,160.111],[116.1871,-32.9597,161.9605],[116.1826,-32.9528,168.3338],[116.1787,-32.9504,159.7462],[116.185,-32.9439,159.3277],[116.18,-32.9431,161.3466]]]]}}