{"type": "Feature","bbox": [138.6157,-34.9762,138.701,-34.9129],"geometry": {"type": "MultiPolygon","coordinates": [[[[138.6851,-34.9129,163.2067],[138.6405,-34.9148,60.2517],[138.641,-34.921,68.5433],[138.6498,-34.9206,83.0858],[138.6508,-34.9326,96.1447],[138.6419,-34.933,81.6243],[138.6415,-34.927,76.4783],[138.6236,-34.9279,55.1695],[138.6245,-34.9402,62.1447],[138.6157,-34.9406,53.3523],[138.6345,-34.9519,84.6386],[138.6438,-34.9632,146.4575],[138.6482,-34.9659,194.2139],[138.6519,-34.9726,225.3725],[138.6548,-34.9728,234.0827],[138.6687,-34.9671,306.3383],[138.6714,-34.9679,351.5279],[138.6715,-34.9743,405.4173],[138.6731,-34.9735,415.9847],[138.6852,-34.9762,452.1766],[138.6859,-34.9746,452.1766],[138.6767,-34.9608,241.6498],[138.6767,-34.9558,336.7269],[138.6724,-34.9511,207.4208],[138.6718,-34.9421,231.0862],[138.6755,-34.9387,216.3685],[138.6852,-34.9381,334.9895],[138.6847,-34.9309,310.2541],[138.6935,-34.9292,383.0414],[138.6976,-34.9319,385.6707],[138.701,-34.9282,272.3805],[138.6978,-34.9267,256.13],[138.6978,-34.9212,262.3919],[138.6933,-34.9156,191.9755],[138.6851,-34.9129,163.2067]]]]}
,"properties": {"GID_2": "AUS.8.8_1","GID_0": "AUS","country": "Australia","GID_1": "AUS.8_1","state": "SouthAustralia","NL_NAME_1": "NA","county": "Burnside","VARNAME_2": "NA","NL_NAME_2": "NA","TYPE_2": "City","ENGTYPE_2": "City","CC_2": "40700","HASC_2": "AU.SA.BU","name": "Burnside.county","area_km2": 27.23532,"hist_schema_id": "Elevation0-9000","hist_area_km2": {"50": 0.79954,"75": 4.34545,"100": 4.13691,"125": 3.4068,"150": 2.76365,"175": 2.01617,"200": 1.79018,"225": 1.52945,"250": 1.35558,"275": 1.18181,"300": 0.86891,"325": 0.95574,"350": 0.90358,"375": 0.85142,"400": 0.19113,"425": 0.08687,"450": 0.05212}}}