{"type": "Feature","bbox": [151.1286,-33.934,151.1816,-33.8868],"geometry": {"type": "MultiPolygon","coordinates": [[[[151.1286,-33.9047,47.4432],[151.1344,-33.9058,39.0751],[151.135,-33.9132,2.4429],[151.14,-33.9163,2.2758],[151.1371,-33.9213,14.9443],[151.1417,-33.9228,3.2379],[151.1474,-33.9211,10.0728],[151.1536,-33.923,3.1051],[151.157,-33.9293,0.6102],[151.156,-33.9316,4.5141],[151.1605,-33.934,0.9837],[151.1659,-33.9301,3.8138],[151.1692,-33.9309,1.796],[151.1719,-33.9292,1.4112],[151.1713,-33.9279,1.3034],[151.1794,-33.9202,5.1125],[151.1767,-33.9178,5.6793],[151.1813,-33.9159,9.4236],[151.1816,-33.9069,19.7712],[151.1778,-33.8991,35.243],[151.1812,-33.8957,45.1664],[151.1765,-33.8868,22.5163],[151.1449,-33.8897,12.068],[151.1425,-33.8953,19.422],[151.1385,-33.8956,28.8271],[151.1286,-33.9047,47.4432]]]]}
,"properties": {"GID_2": "AUS.5.89_1","GID_0": "AUS","country": "Australia","GID_1": "AUS.5_1","state": "NewSouthWales","NL_NAME_1": "NA","county": "Marrickville","VARNAME_2": "NA","NL_NAME_2": "NA","TYPE_2": "Area","ENGTYPE_2": "Area","CC_2": "15200","HASC_2": "AU.NS.MV","name": "Marrickville.county","area_km2": 16.5231,"hist_schema_id": "Elevation0-9000","hist_area_km2": {"0": 5.26077,"25": 9.76644,"50": 1.49589}}}