{"type": "Feature","bbox": [144.9111,-43.3226,146.1342,-41.5825],"geometry": {"type": "MultiPolygon","coordinates": [[[[145.618825,-43.0149,0.342],[145.6189,-43.0149,0.342],[145.61893673469388,-43.014936734693876,0.342],[145.6243,-43.0167,7.6507],[145.6246,-43.0183,0.0],[145.6266,-43.0176,17.8244],[145.6305,-43.0193,18.4121],[145.641,-43.0268,6.1939],[145.644,-43.0248,21.8888],[145.6422,-43.0273,19.8111],[145.6391,-43.0265,2.0454],[145.6392,-43.0311,1.5622],[145.6378,-43.0324,0.0],[145.6401,-43.0327,13.1918],[145.6429,-43.0375,14.2233],[145.641,-43.0415,0.0],[145.6466,-43.042,10.9795],[145.6459,-43.0456,0.0],[145.6476,-43.0485,0.1214],[145.6519,-43.0495,2.7139],[145.657,-43.0444,11.3672],[145.66,-43.0438,7.6663],[145.6744,-43.0527,3.6763],[145.6822,-43.0505,3.3587],[145.681,-43.0512,3.4921],[145.6845,-43.0535,0.0],[145.6869,-43.0586,0.0],[145.6845,-43.0685,1.0676],[145.6884,-43.0692,11.4984],[145.6912,-43.0675,5.9985],[145.6858,-43.0713,6.1098],[145.6836,-43.07,11.4209],[145.6832,-43.0673,0.0],[145.6808,-43.0667,2.4626],[145.6749,-43.0705,5.8618],[145.6746,-43.0741,0.0],[145.6763,-43.0768,5.0732],[145.6725,-43.078,4.3034],[145.6698,-43.0812,3.7199],[145.6767,-43.0911,0.0707],[145.674,-43.0947,12.0052],[145.6647,-43.0935,4.3013],[145.6649,-43.0962,5.8336],[145.6662,-43.0957,5.8336],[145.6661,-43.0971,0.2465],[145.6678,-43.0957,7.1921],[145.6681,-43.0982,0.0],[145.6716,-43.0998,10.7506],[145.6715,-43.102,1.3525],[145.6736,-43.1025,9.286],[145.6734,-43.1067,0.1602],[145.6765,-43.1014,18.445],[145.6788,-43.1032,0.0],[145.6788,-43.101,15.6047],[145.6802,-43.101,20.9641],[145.6817,-43.1032,0.0],[145.6834,-43.1004,24.3877],[145.6845,-43.1041,0.0],[145.6881,-43.1069,23.0248],[145.6868,-43.1084,0.0],[145.6905,-43.1128,5.7564],[145.6915,-43.1123,11.4369],[145.6907,-43.1137,0.4539],[145.6918,-43.1138,7.5625],[145.6934,-43.1155,14.1425],[145.6942,-43.1184,0.0],[145.6964,-43.1167,11.9338],[145.6966,-43.1183,0.0],[145.6967,-43.1168,11.9338],[145.6988,-43.1191,2.2474],[145.7005,-43.1148,7.5605],[145.7011,-43.1204,0.0],[145.7035,-43.1183,11.7957],[145.705,-43.1188,1.1075],[145.7052,-43.1155,18.3768],[145.7086,-43.1184,0.0],[145.7117,-43.112,34.4489],[145.7136,-43.1122,16.9835],[145.716,-43.106,7.8723],[145.7168,-43.1067,16.8483],[145.7154,-43.1118,0.8258],[145.7208,-43.1096,0.944],[145.7273,-43.1119,0.0],[145.7311,-43.1139,21.2619],[145.7328,-43.1199,19.8614],[145.7362,-43.1167,11.3198],[145.7336,-43.12,19.8614],[145.7321,-43.1201,11.0552],[145.7307,-43.1194,1.3835],[145.7287,-43.1217,17.1839],[145.725,-43.1225,5.1898],[145.7241,-43.1248,0.0],[145.7261,-43.1244,19.9589],[145.7265,-43.1252,17.8221],[145.7252,-43.1291,9.4614],[145.726,-43.1323,0.0],[145.7215,-43.1343,0.0],[145.7217,-43.1363,0.0],[145.7241,-43.1359,21.6319],[145.7245,-43.138,0.0],[145.7264,-43.1369,15.2176],[145.7272,-43.1397,0.0],[145.7336,-43.1375,19.4038],[145.7344,-43.1411,0.3437],[145.7375,-43.141,14.4642],[145.7374,-43.1431,0.0],[145.741,-43.1435,22.8649],[145.7412,-43.1483,4.6644],[145.7438,-43.1485,13.451],[145.7436,-43.152,2.5474],[145.746,-43.1527,11.8262],[145.745,-43.1546,11.1861],[145.7446,-43.1546,0.0],[145.7461,-43.1563,1.0464],[145.7452,-43.1569,1.0464],[145.7474,-43.1562,25.0167],[145.7469,-43.1582,0.0],[145.7497,-43.1577,22.6727],[145.753,-43.1625,0.0732],[145.7579,-43.1648,11.5197],[145.7592,-43.1694,7.8803],[145.7555,-43.1698,4.2829],[145.7548,-43.1723,0.0],[145.7577,-43.1744,25.1052],[145.7598,-43.1802,10.7256],[145.7609,-43.1844,6.6301],[145.7584,-43.1842,0.0491],[145.7587,-43.1876,4.5898],[145.7574,-43.1876,4.5898],[145.7616,-43.1933,1.6911],[145.7632,-43.194,1.6911],[145.7638,-43.1922,10.5284],[145.7656,-43.1938,0.7876],[145.7676,-43.1934,0.0],[145.7688,-43.1856,13.0022],[145.7721,-43.1889,4.2421],[145.7742,-43.1883,8.0468],[145.7757,-43.1897,0.0],[145.778,-43.1872,7.5164],[145.7829,-43.1866,4.5705],[145.7952,-43.1923,10.107],[145.7926,-43.195,17.2692],[145.7914,-43.1942,0.0],[145.7927,-43.1961,17.2692],[145.7887,-43.1979,0.0],[145.7899,-43.2008,0.0],[145.7963,-43.2005,23.505],[145.7929,-43.2024,1.6732],[145.797,-43.2011,23.505],[145.7971,-43.2022,12.5941],[145.7937,-43.2038,0.2605],[145.799,-43.2041,12.157],[145.7977,-43.2057,0.2009],[145.8028,-43.2068,9.2992],[145.8035,-43.2104,0.0],[145.8044,-43.208,0.0],[145.8066,-43.2078,4.8827],[145.8079,-43.2095,6.0804],[145.8047,-43.2089,9.2297],[145.8035,-43.2151,11.1331],[145.8014,-43.2179,7.0721],[145.7967,-43.2189,1.8427],[145.8023,-43.2271,0.8038],[145.8044,-43.2263,3.6314],[145.8088,-43.2292,25.4949],[145.811,-43.2345,15.554],[145.8084,-43.2365,13.5268],[145.8042,-43.2353,0.8721],[145.808,-43.2422,1.8321],[145.8025,-43.2432,3.5953],[145.8085,-43.2468,1.1347],[145.8068,-43.2492,5.2201],[145.814,-43.2484,3.798],[145.8206,-43.2501,11.0369],[145.8163,-43.2517,0.089],[145.8184,-43.2543,2.683],[145.8187,-43.2581,0.0084],[145.8148,-43.2662,2.3666],[145.818,-43.2718,0.3235],[145.8156,-43.2784,0.0],[145.8209,-43.2824,2.9377],[145.8228,-43.2805,22.4253],[145.8288,-43.2815,0.0],[145.8298,-43.283,15.5739],[145.8278,-43.2842,7.5258],[145.8287,-43.2869,2.9791],[145.8317,-43.2886,0.6128],[145.8335,-43.2873,13.0795],[145.8344,-43.2895,0.766],[145.8352,-43.2884,0.766],[145.8392,-43.2947,0.0],[145.8402,-43.2927,53.3705],[145.8415,-43.2942,5.8845],[145.8462,-43.2913,5.748],[145.8478,-43.2936,1.2769],[145.8506,-43.2927,26.3558],[145.8501,-43.2969,5.7268],[145.8519,-43.2973,20.0425],[145.8532,-43.3015,6.4489],[145.8494,-43.3057,8.401],[145.8436,-43.3042,2.1858],[145.8424,-43.3066,0.0],[145.8456,-43.3104,11.963],[145.8394,-43.3098,3.9665],[145.8415,-43.3105,30.5136],[145.8386,-43.3109,3.9665],[145.8401,-43.3132,18.886],[145.8391,-43.3143,1.7305],[145.8411,-43.3135,18.886],[145.8424,-43.3153,1.7061],[145.8434,-43.3132,35.3943],[145.8472,-43.314,3.9692],[145.8463,-43.3108,15.3141],[145.8505,-43.3068,14.0013],[145.8547,-43.3093,39.2468],[145.8549,-43.312,13.2136],[145.8599,-43.318,0.0],[145.8628,-43.3178,107.5137],[145.8705,-43.3226,1.406],[145.8725,-43.321,0.0],[145.8715,-43.32,19.9525],[145.8733,-43.3198,0.0],[145.8724,-43.3176,9.0353],[145.8756,-43.3148,4.2366],[145.8743,-43.3134,56.0656],[145.8787,-43.3108,37.3554],[145.8886,-43.3117,9.4795],[145.8897,-43.3129,16.5385],[145.8904,-43.3118,16.5385],[145.8933,-43.3146,0.0],[145.8943,-43.3135,11.8856],[145.8952,-43.3145,0.8853],[145.8942,-43.3127,39.1653],[145.8961,-43.3133,0.8853],[145.8947,-43.3117,39.1653],[145.896,-43.3111,15.9405],[145.8943,-43.3046,50.6183],[145.8992,-43.3003,13.6812],[145.9023,-43.3009,5.3808],[145.9025,-43.2996,5.3808],[145.9087,-43.2986,6.8703],[145.9172,-43.3025,4.6905],[145.9182,-43.3014,5.9549],[145.9227,-43.3031,0.0],[145.9212,-43.3017,12.1089],[145.9229,-43.3019,8.7632],[145.9221,-43.2998,27.0088],[145.925,-43.302,1.2116],[145.9239,-43.3007,17.3839],[145.9266,-43.3004,0.0],[145.9205,-43.2952,18.6818],[145.9201,-43.292,9.5683],[145.9201,-43.2857,7.5165],[145.9223,-43.284,1.9869],[145.9207,-43.2804,23.4307],[145.9238,-43.278,14.2459],[145.9226,-43.2765,16.1648],[145.9265,-43.2725,1.3287],[145.924,-43.2674,0.0],[145.9011,-43.2655,0.0],[145.9037,-43.2674,1.6036],[145.9045,-43.2718,2.2083],[145.8992,-43.2756,9.6273],[145.8976,-43.2816,4.6619],[145.8918,-43.2843,1.7313],[145.889,-43.2828,0.0],[145.8874,-43.2861,0.0],[145.8806,-43.2897,3.8823],[145.8718,-43.2861,0.306],[145.8693,-43.2812,0.5642],[145.8649,-43.2778,0.0],[145.8645,-43.2719,0.5605],[145.8625,-43.273,3.0919],[145.8628,-43.2726,2.439],[145.8638,-43.2722,2.439],[145.8642,-43.2717,0.5605],[145.8695,-43.2713,1.0166],[145.8757,-43.2732,0.0],[145.8767,-43.2711,0.0],[145.8752,-43.2691,3.6609],[145.8769,-43.2672,0.0],[145.873,-43.2681,5.6596],[145.8697,-43.2654,7.207],[145.8712,-43.2614,0.0],[145.8701,-43.26,2.1203],[145.8718,-43.2587,0.7691],[145.876,-43.2603,0.7247],[145.8807,-43.2593,3.857],[145.8839,-43.2616,0.0],[145.8851,-43.2609,0.0],[145.8844,-43.2588,2.3396],[145.8859,-43.2583,6.2827],[145.8846,-43.259,2.3396],[145.8882,-43.2626,0.0],[145.8971,-43.2641,2.6662],[145.8988,-43.2634,2.6662],[145.9018,-43.2559,4.6288],[145.9075,-43.2484,0.0],[145.9114,-43.2474,1.2227],[145.915,-43.2497,0.0],[145.9174,-43.2478,15.7313],[145.9268,-43.2476,3.9332],[145.9266,-43.2457,7.7888],[145.9285,-43.2452,0.0],[145.9268,-43.2422,5.1257],[145.9285,-43.2382,0.0],[145.9226,-43.2279,14.8128],[145.9248,-43.2249,0.0],[145.9208,-43.2229,1.6874],[145.9196,-43.2156,0.0],[145.9139,-43.2178,15.1951],[145.9164,-43.2154,0.0],[145.9137,-43.2085,2.0107],[145.9168,-43.2047,0.0],[145.9207,-43.2048,1.8251],[145.9138,-43.2012,1.8362],[145.91,-43.1941,0.354],[145.9114,-43.1898,3.9705],[145.9125,-43.1893,3.8994],[145.9131,-43.1931,0.0],[145.9134,-43.1903,1.0358],[145.9158,-43.1883,5.6114],[145.9098,-43.1877,2.7082],[145.9086,-43.187,3.764],[145.9097,-43.1857,3.751],[145.9113,-43.1847,3.751],[145.9111,-43.1851,3.751],[145.9089,-43.1867,3.764],[145.909,-43.1872,3.764],[145.9158,-43.1877,18.2678],[145.916,-43.1888,5.6114],[145.9137,-43.1906,0.7546],[145.9139,-43.1919,0.0],[145.9186,-43.1885,2.6144],[145.925,-43.1902,1.0331],[145.9274,-43.1888,3.7008],[145.9257,-43.1833,4.0853],[145.9284,-43.1779,0.0],[145.9217,-43.1745,15.9083],[145.9195,-43.1716,14.9941],[145.9205,-43.1612,3.0213],[145.9262,-43.1567,1.5865],[145.9337,-43.1558,34.5114],[145.936,-43.1513,19.6554],[145.9423,-43.1499,63.6578],[145.9455,-43.1436,42.0361],[145.9559,-43.1394,23.7765],[145.9558,-43.1351,26.7996],[145.9604,-43.1282,25.4131],[145.9641,-43.1275,52.1542],[145.966,-43.1312,32.4261],[145.9775,-43.1312,38.3755],[145.9788,-43.1349,26.5014],[145.9827,-43.1349,32.3103],[145.9796,-43.1276,38.6327],[145.9826,-43.1254,39.61],[145.9854,-43.1193,20.6328],[145.9839,-43.1162,21.3138],[145.9861,-43.1146,62.8549],[145.989,-43.1065,21.8379],[145.9924,-43.1047,33.1376],[145.9927,-43.1006,22.9073],[145.9884,-43.0977,26.0258],[145.9903,-43.0941,25.6388],[145.9886,-43.0913,26.1118],[145.9848,-43.0925,26.3571],[145.9853,-43.0886,25.6669],[145.98,-43.0904,28.2434],[145.9793,-43.0851,26.8783],[145.9772,-43.0842,27.9423],[145.9739,-43.0777,28.9258],[145.9717,-43.0766,29.7331],[145.9779,-43.0755,29.1163],[145.9785,-43.0737,29.4713],[145.982,-43.0724,26.565],[145.9794,-43.0696,31.3088],[145.9808,-43.0675,30.3377],[145.9785,-43.0623,37.3487],[145.9763,-43.0609,30.7574],[145.9746,-43.062,33.5167],[145.9749,-43.0557,36.8411],[145.9765,-43.0543,38.7774],[145.9752,-43.0484,30.4398],[145.9796,-43.0431,40.1668],[145.9782,-43.0384,38.9266],[145.9748,-43.0362,39.2192],[145.9758,-43.0316,39.5507],[145.9799,-43.0268,46.2121],[145.9782,-43.0175,49.7937],[145.9878,-43.0102,52.6009],[145.9914,-43.0045,57.9906],[145.9899,-42.9965,55.8199],[145.993,-42.9922,58.4602],[145.9925,-42.982,68.2474],[145.995,-42.9804,59.756],[145.993,-42.9787,58.0624],[145.989,-42.9787,70.7556],[145.977,-42.9625,71.8845],[145.9729,-42.9605,110.894],[145.9728,-42.9583,79.0149],[145.9567,-42.947,111.1711],[145.9571,-42.9455,84.176],[145.9543,-42.9439,85.5894],[145.9513,-42.9383,89.8191],[145.9406,-42.9307,91.5361],[145.9399,-42.9226,94.6336],[145.9347,-42.9174,98.3642],[145.9343,-42.9052,109.1654],[145.9394,-42.9037,147.9974],[145.9442,-42.9072,150.6662],[145.9495,-42.906,133.8419],[145.8543,-42.743,63.4421],[145.852,-42.7417,39.4565],[145.8495,-42.7332,53.6956],[145.8427,-42.725,40.0754],[145.8325,-42.7175,41.6283],[145.8413,-42.7163,70.3548],[145.845,-42.7194,53.5202],[145.8493,-42.7164,69.0918],[145.859,-42.7136,86.058],[145.8635,-42.7154,76.2945],[145.8667,-42.7148,75.8311],[145.8681,-42.7172,109.0803],[145.8709,-42.7166,71.9916],[145.8736,-42.7132,62.2991],[145.8706,-42.7083,70.9133],[145.8719,-42.7046,64.7533],[145.8678,-42.7024,76.6761],[145.8685,-42.7001,66.6926],[145.8668,-42.6984,70.1068],[145.8683,-42.6949,64.5749],[145.867,-42.692,69.0933],[145.8699,-42.6903,68.8233],[145.8857,-42.6997,105.3587],[145.8932,-42.698,91.7571],[145.9025,-42.6931,80.816],[145.9047,-42.6841,91.4924],[145.9073,-42.6841,78.3659],[145.9098,-42.6815,76.7988],[145.9169,-42.6816,77.8779],[145.9176,-42.6796,77.6658],[145.9218,-42.6819,95.95],[145.928,-42.682,104.1695],[145.9343,-42.6694,137.177],[145.9547,-42.6656,151.8861],[145.9599,-42.6583,159.0091],[145.9657,-42.6586,129.9961],[145.9664,-42.6562,138.3123],[145.9641,-42.6527,155.8354],[145.9672,-42.6477,175.5615],[145.9611,-42.6462,187.0171],[145.9621,-42.6387,161.0394],[145.9669,-42.6333,159.2],[145.9676,-42.6386,136.4833],[145.9705,-42.639,132.4961],[145.9693,-42.6344,139.0335],[145.9725,-42.6327,136.6201],[145.9713,-42.631,137.5154],[145.9721,-42.6243,151.9849],[145.9799,-42.6276,160.2413],[145.9848,-42.6263,142.834],[145.9839,-42.6206,155.384],[145.9854,-42.6175,232.8584],[145.9878,-42.6171,146.1451],[145.9884,-42.6121,151.0629],[145.9913,-42.6114,147.1779],[145.9919,-42.6092,147.268],[145.9942,-42.6097,148.9661],[145.9961,-42.6072,150.3976],[145.9967,-42.601,149.6144],[145.9928,-42.5987,160.9203],[145.9926,-42.5951,158.7125],[145.9962,-42.5901,160.1328],[146.0011,-42.5891,155.0816],[146.001,-42.5837,161.6232],[146.0045,-42.5822,187.7972],[146.0005,-42.5812,172.41],[146.001,-42.5799,172.41],[146.0069,-42.5804,165.0975],[146.0132,-42.5772,161.7479],[146.0143,-42.5731,164.9769],[146.0179,-42.573,164.2563],[146.017,-42.5644,164.7836],[146.019,-42.5618,164.5534],[146.0219,-42.5615,169.5058],[146.0211,-42.56,165.9896],[146.0262,-42.5599,167.9712],[146.023,-42.5563,169.2322],[146.0298,-42.5541,178.6908],[146.0303,-42.5491,172.5248],[146.0327,-42.5476,171.7241],[146.0315,-42.5437,173.1044],[146.0286,-42.5414,177.375],[146.0293,-42.5382,178.3436],[146.0314,-42.5376,179.4596],[146.032,-42.5354,174.8035],[146.0396,-42.5331,178.7703],[146.042,-42.5306,182.4095],[146.0534,-42.5286,182.1837],[146.0591,-42.5208,190.4451],[146.0624,-42.5208,190.1382],[146.0617,-42.5193,189.3728],[146.0668,-42.5175,192.2182],[146.0674,-42.5147,189.595],[146.0735,-42.5112,193.39],[146.0718,-42.5091,201.7211],[146.0732,-42.5079,196.8548],[146.073,-42.5039,195.8856],[146.0812,-42.5033,201.2881],[146.0816,-42.4993,199.684],[146.0865,-42.496,201.2791],[146.0897,-42.49,201.7938],[146.0882,-42.4886,207.8409],[146.078,-42.4871,234.7103],[146.0813,-42.4855,234.8568],[146.0854,-42.4858,220.3379],[146.0878,-42.4837,216.614],[146.0846,-42.4813,217.9128],[146.0774,-42.4835,245.5242],[146.0753,-42.4779,229.3415],[146.0845,-42.4749,231.4972],[146.0862,-42.4759,231.4972],[146.0887,-42.4704,233.4138],[146.0939,-42.4676,234.0162],[146.0996,-42.4587,236.6506],[146.1038,-42.4581,231.8221],[146.1071,-42.4547,309.0767],[146.1093,-42.4505,270.0286],[146.107,-42.4508,241.3557],[146.109,-42.4451,248.4767],[146.1128,-42.4439,245.3451],[146.1135,-42.4418,244.1831],[146.1166,-42.4421,248.1393],[146.1171,-42.4399,246.525],[146.1205,-42.4408,254.726],[146.1258,-42.4367,260.8999],[146.1256,-42.4351,246.8232],[146.1231,-42.4346,258.9509],[146.1245,-42.4308,278.027],[146.1268,-42.4292,255.9828],[146.1261,-42.4268,259.1334],[146.1324,-42.4238,261.9033],[146.1342,-42.4251,254.7113],[146.1297,-42.4182,264.5926],[146.1341,-42.4178,265.3463],[146.1328,-42.4166,266.1924],[146.1338,-42.4145,266.4566],[146.1296,-42.4103,294.1662],[146.1302,-42.4074,273.8336],[146.1245,-42.4058,276.1489],[146.1216,-42.4069,283.4454],[146.1177,-42.404,281.5905],[146.114,-42.4068,285.7067],[146.1091,-42.4059,287.3782],[146.1059,-42.4079,289.9366],[146.0995,-42.4026,295.3757],[146.103,-42.3984,320.0569],[146.1068,-42.3976,319.7057],[146.1056,-42.3921,325.342],[146.1113,-42.3902,334.0456],[146.1125,-42.3883,326.9772],[146.1108,-42.3847,346.2535],[146.1149,-42.3806,339.7899],[146.1085,-42.3783,358.0379],[146.1103,-42.3755,348.5212],[146.1088,-42.373,365.2476],[146.0985,-42.3708,423.8148],[146.0994,-42.3642,435.8873],[146.097,-42.3568,416.4019],[146.099,-42.3541,462.2103],[146.0969,-42.3522,438.7827],[146.0987,-42.3514,438.7827],[146.0977,-42.3423,447.8021],[146.0961,-42.3409,466.3956],[146.099,-42.335,522.895],[146.0996,-42.3293,515.0728],[146.1028,-42.3267,511.4863],[146.107,-42.3056,603.2944],[146.1041,-42.3012,631.4099],[146.1006,-42.2996,633.1035],[146.0985,-42.2948,652.1999],[146.0898,-42.2906,727.5707],[146.0886,-42.2877,792.8478],[146.0911,-42.2816,994.4418],[146.0898,-42.2795,1119.4417],[146.0753,-42.2105,953.4265],[145.9998,-42.0669,1403.8514],[146.0234,-42.0394,1181.2843],[146.0149,-42.0053,1266.7246],[146.0505,-41.9746,1434.798],[146.0364,-41.9309,1175.2767],[145.9513,-41.6847,1500.4862],[145.8524,-41.5825,693.9276],[145.8441,-41.5851,611.5686],[145.8419,-41.5883,574.1145],[145.8396,-41.5866,544.5686],[145.8331,-41.5875,552.899],[145.8292,-41.5921,513.3469],[145.8268,-41.5922,487.6959],[145.8162,-41.5999,431.0691],[145.8112,-41.6005,424.485],[145.8087,-41.6027,420.1723],[145.801,-41.6018,366.6393],[145.7956,-41.5963,296.5249],[145.7919,-41.5971,299.3704],[145.7905,-41.6008,281.3442],[145.7883,-41.6012,290.6012],[145.7843,-41.6058,275.1594],[145.7849,-41.608,277.1712],[145.7813,-41.6109,299.6479],[145.7831,-41.6135,266.7472],[145.7819,-41.6176,259.7756],[145.7797,-41.6171,289.8733],[145.7787,-41.6203,264.8134],[145.7803,-41.624,247.6393],[145.7726,-41.6298,245.9524],[145.7552,-41.6291,222.0],[145.7371,-41.6332,222.0],[145.7162,-41.6349,222.0],[145.7054,-41.6423,222.0],[145.6971,-41.6452,222.6593],[145.6957,-41.6463,222.6695],[145.6951,-41.6554,222.0],[145.6826,-41.6727,222.0],[145.674,-41.6789,222.0],[145.6685,-41.6805,222.0],[145.6553,-41.6823,222.0],[145.6499,-41.6808,417.2161],[145.6339,-41.7076,273.3491],[145.3367,-41.685,910.8771],[145.1013,-41.6459,18.2677],[145.0969,-41.6496,78.6205],[145.0922,-41.6494,26.6237],[145.0904,-41.6511,29.2101],[145.0914,-41.6534,4.3772],[145.0977,-41.6526,38.5485],[145.1037,-41.6546,4.8365],[145.1038,-41.6559,4.8365],[145.0947,-41.6533,11.0759],[145.0816,-41.6572,20.8455],[145.0767,-41.6524,1.5],[145.0667,-41.6512,5.0022],[145.0621,-41.648,10.6207],[145.0614,-41.6433,15.6867],[145.066,-41.6364,1.5],[145.0594,-41.6277,3.8347],[145.0573,-41.6275,1.5],[145.054,-41.6305,8.6484],[145.0516,-41.6302,12.1048],[145.0499,-41.6251,8.704],[145.0355,-41.6186,6.7756],[145.0149,-41.6175,1.5],[145.0042,-41.6181,76.3142],[144.9987,-41.6214,75.3875],[144.9939,-41.6273,39.0707],[144.9761,-41.6301,5.6779],[144.964,-41.6384,12.7989],[144.9555,-41.6493,4.5832],[144.9379,-41.6565,3.424],[144.9305,-41.6618,0.0],[144.9297,-41.6641,0.0],[144.9249,-41.6656,0.3251],[144.9263,-41.6728,2.0293],[144.927,-41.6713,2.0293],[144.9277,-41.6712,7.3275],[144.9285,-41.6718,5.8429],[144.9282,-41.6718,5.8429],[144.9278,-41.6714,2.0293],[144.9273,-41.6716,2.0293],[144.9272,-41.6759,2.5592],[144.9221,-41.6804,4.3582],[144.9128,-41.6836,1.2498],[144.9133,-41.6855,2.8788],[144.9111,-41.6867,1.1738],[144.9122,-41.6889,5.6348],[144.9112,-41.6912,0.1245],[144.9127,-41.6917,1.7682],[144.912,-41.6939,2.3436],[144.9138,-41.6938,6.0754],[144.9153,-41.6959,2.3546],[144.9154,-41.7007,0.0],[144.9188,-41.7042,5.5366],[144.9191,-41.7074,1.592],[144.9172,-41.7092,0.6725],[144.9194,-41.7106,1.7022],[144.9218,-41.7161,3.1112],[144.9288,-41.7196,1.9208],[144.9265,-41.7206,0.4681],[144.9312,-41.7213,0.3421],[144.934,-41.7245,2.2938],[144.938,-41.7244,5.5419],[144.9443,-41.7177,11.4052],[144.9549,-41.7168,3.8856],[144.9623,-41.7206,2.1015],[144.9722,-41.7302,0.368],[144.9754,-41.7296,8.0486],[144.9726,-41.7321,0.1569],[144.9742,-41.7323,1.6548],[144.9786,-41.7381,0.0],[144.9841,-41.7361,11.7009],[144.9801,-41.7395,4.1766],[144.9884,-41.7464,0.0],[144.9932,-41.7464,12.6861],[144.9906,-41.748,1.7297],[144.9963,-41.7569,5.3242],[144.9969,-41.7551,3.7434],[144.9976,-41.7549,3.7434],[144.999,-41.7551,7.8301],[144.9987,-41.7552,7.8301],[144.9976,-41.755,3.7434],[144.9972,-41.7552,3.7434],[144.9976,-41.757,5.3242],[144.9946,-41.7591,3.8552],[144.9949,-41.7621,4.3229],[145.0038,-41.7665,1.4963],[145.0043,-41.7682,3.927],[145.0094,-41.7669,6.911],[145.0071,-41.7684,9.9224],[145.0046,-41.7687,3.927],[145.0081,-41.7727,0.0],[145.0053,-41.7739,0.6342],[145.0067,-41.7764,3.574],[145.0048,-41.7788,0.3298],[145.0067,-41.7794,8.5309],[145.0071,-41.7837,2.7709],[145.011,-41.7862,7.9677],[145.0095,-41.7864,0.0],[145.0129,-41.7874,14.6737],[145.0106,-41.7902,0.127],[145.0152,-41.791,10.3518],[145.015,-41.7932,3.9526],[145.0132,-41.7932,0.7117],[145.0156,-41.7938,3.9526],[145.0146,-41.7949,2.4121],[145.0157,-41.7962,2.4121],[145.019,-41.7953,4.0593],[145.0211,-41.7967,13.8239],[145.0179,-41.7995,0.0],[145.0202,-41.7989,0.3228],[145.0237,-41.8045,7.5331],[145.0329,-41.806,8.9695],[145.0316,-41.81,6.8633],[145.0268,-41.8098,2.4378],[145.0282,-41.813,0.0],[145.0342,-41.8139,2.4592],[145.0358,-41.815,0.0],[145.0393,-41.8129,15.5388],[145.0452,-41.8206,0.7902],[145.0568,-41.8241,15.4349],[145.0555,-41.8244,15.4349],[145.0619,-41.8335,2.1117],[145.0685,-41.8361,28.1027],[145.0676,-41.8408,0.0],[145.0691,-41.8422,3.7609],[145.0686,-41.8449,1.0774],[145.0714,-41.8547,0.0],[145.0798,-41.8598,0.5699],[145.0789,-41.8606,0.5699],[145.0816,-41.8629,2.6191],[145.0845,-41.8634,15.7508],[145.0871,-41.8674,5.2488],[145.095,-41.8722,7.4098],[145.1013,-41.8736,27.0095],[145.1049,-41.8782,0.0],[145.1091,-41.8771,53.3428],[145.1073,-41.8779,34.7867],[145.1086,-41.8806,4.5616],[145.1141,-41.8834,16.4724],[145.1122,-41.8856,0.0],[145.1178,-41.8867,24.7744],[145.1214,-41.8904,26.1783],[145.1216,-41.8969,3.571],[145.1238,-41.8979,32.1802],[145.1244,-41.9005,0.6015],[145.1372,-41.9071,8.4237],[145.1409,-41.911,1.4814],[145.1519,-41.9138,3.4927],[145.1567,-41.9232,1.6146],[145.174,-41.9285,2.0975],[145.1739,-41.9316,0.0],[145.1788,-41.9333,0.0],[145.1807,-41.936,2.4418],[145.1803,-41.9389,0.6585],[145.1875,-41.9412,15.7364],[145.189,-41.9444,1.7677],[145.1939,-41.9463,1.5083],[145.1948,-41.9489,0.0],[145.2004,-41.9417,6.752],[145.1995,-41.9394,40.9225],[145.2041,-41.9368,25.4969],[145.1998,-41.9396,12.3304],[145.2008,-41.9418,6.752],[145.1969,-41.9487,2.2196],[145.2024,-41.9589,0.0],[145.1967,-41.9505,0.0],[145.1906,-41.9461,0.0],[145.2147,-41.9845,1.1315],[145.2325,-42.0177,9.1126],[145.2519,-42.0601,0.0],[145.253,-42.0588,0.0],[145.2512,-42.0526,2.2281],[145.2465,-42.0422,0.0],[145.2448,-42.0311,0.0],[145.2457,-42.0277,2.8567],[145.249,-42.0212,2.9769],[145.2533,-42.0186,4.3125],[145.2559,-42.019,8.0256],[145.2601,-42.0223,6.5663],[145.2677,-42.0229,16.7191],[145.2594,-42.0226,6.5663],[145.2557,-42.0196,14.0306],[145.2533,-42.0195,4.3125],[145.2459,-42.0313,0.0],[145.2479,-42.0384,0.0],[145.2468,-42.0404,7.3194],[145.2535,-42.0577,2.969],[145.2535,-42.0599,0.0],[145.252,-42.0626,0.0],[145.2598,-42.0873,16.937],[145.2637,-42.1123,6.6834],[145.2641,-42.1448,3.8933],[145.2596,-42.1681,8.5089],[145.2568,-42.1781,0.0],[145.2499,-42.1904,5.1992],[145.2413,-42.2,17.2339],[145.2245,-42.2138,2.4971],[145.2226,-42.2175,2.112],[145.2238,-42.2194,1.5059],[145.2301,-42.2216,0.7782],[145.2492,-42.2209,20.7917],[145.2569,-42.2253,0.0],[145.2605,-42.2296,0.0],[145.2741,-42.2329,16.9557],[145.2824,-42.2313,0.0],[145.2897,-42.2273,17.3102],[145.2896,-42.224,20.091],[145.2859,-42.2172,3.7418],[145.288,-42.2124,0.0],[145.2877,-42.2085,0.0],[145.2898,-42.2064,0.0],[145.2879,-42.2014,0.0],[145.2902,-42.1966,3.2176],[145.2836,-42.198,0.0],[145.2877,-42.2002,1.9583],[145.2879,-42.2056,0.0],[145.2892,-42.2067,0.0],[145.2851,-42.2101,7.8532],[145.2746,-42.2088,1.3038],[145.2681,-42.2025,1.2297],[145.2767,-42.1944,0.0],[145.2771,-42.1916,1.6413],[145.2818,-42.1867,6.0952],[145.2869,-42.1833,0.3769],[145.2916,-42.1832,1.8514],[145.2937,-42.1792,2.455],[145.3023,-42.1791,2.2801],[145.3032,-42.1819,0.0],[145.3095,-42.1765,0.0],[145.3102,-42.1734,2.1645],[145.3119,-42.1739,6.5539],[145.3119,-42.1758,2.4642],[145.3182,-42.1762,3.1239],[145.3185,-42.173,7.6601],[145.3118,-42.1604,0.9937],[145.3135,-42.1588,4.2486],[145.3163,-42.1604,3.2573],[145.3158,-42.1578,0.0],[145.3125,-42.1574,1.5505],[145.3114,-42.1542,0.0],[145.3078,-42.1525,0.4895],[145.3036,-42.1528,3.5357],[145.3079,-42.1489,5.8663],[145.3114,-42.1518,0.9665],[145.3127,-42.1511,2.3008],[145.3116,-42.1521,0.9665],[145.314,-42.1543,1.496],[145.3199,-42.1538,3.3242],[145.323,-42.1566,0.0],[145.3339,-42.1518,2.0478],[145.3343,-42.1555,0.9797],[145.326,-42.1607,0.0],[145.3293,-42.167,17.2209],[145.3291,-42.1733,0.0],[145.3332,-42.1737,7.9528],[145.3363,-42.1671,6.4269],[145.3469,-42.1686,3.9899],[145.352,-42.1734,3.7199],[145.3573,-42.1748,0.7857],[145.3597,-42.1774,1.2424],[145.3602,-42.1885,2.4385],[145.3563,-42.1912,2.0633],[145.3717,-42.1939,23.8494],[145.3776,-42.1966,5.2071],[145.3868,-42.1964,12.1401],[145.3911,-42.1932,2.5472],[145.396,-42.1957,7.2005],[145.4016,-42.195,13.5025],[145.4087,-42.1978,50.6449],[145.4196,-42.1968,31.019],[145.4193,-42.1926,46.9446],[145.4205,-42.1909,42.0528],[145.4242,-42.1893,37.0758],[145.4286,-42.1887,21.4954],[145.4321,-42.1915,26.843],[145.4338,-42.1883,13.7927],[145.4435,-42.1905,27.2413],[145.4471,-42.194,30.6338],[145.4468,-42.1969,7.5724],[145.4491,-42.1994,20.0238],[145.4641,-42.1923,37.9169],[145.4697,-42.1967,43.0006],[145.4711,-42.1934,28.3769],[145.4676,-42.1889,31.987],[145.4682,-42.1883,31.987],[145.4714,-42.193,73.9279],[145.4707,-42.1965,43.0006],[145.4698,-42.1971,43.0006],[145.4639,-42.1926,37.9169],[145.4601,-42.1954,34.9836],[145.449,-42.1998,76.7374],[145.4464,-42.1978,42.9698],[145.4467,-42.1941,30.6338],[145.4437,-42.1923,12.9479],[145.4434,-42.1909,27.2413],[145.438,-42.1901,22.9385],[145.434,-42.1887,13.7927],[145.4324,-42.1919,26.843],[145.4282,-42.1891,21.4954],[145.4237,-42.1898,24.9038],[145.4198,-42.1924,21.8217],[145.421,-42.1958,9.5544],[145.4205,-42.197,30.3582],[145.4112,-42.1984,47.0237],[145.4077,-42.1982,42.2233],[145.401,-42.1954,23.286],[145.3968,-42.1965,119.8957],[145.3912,-42.1937,2.5472],[145.388,-42.1968,12.1401],[145.3846,-42.1979,2.8669],[145.3754,-42.1971,13.2449],[145.3681,-42.1941,3.9301],[145.3597,-42.1957,7.5502],[145.3563,-42.1941,0.4599],[145.3531,-42.1967,0.0],[145.3508,-42.2015,9.0969],[145.3482,-42.2025,2.9266],[145.3461,-42.2068,9.378],[145.3517,-42.2107,0.9397],[145.3573,-42.2071,6.4558],[145.3559,-42.2037,0.0],[145.3574,-42.202,2.3551],[145.3655,-42.2048,0.0],[145.3723,-42.2021,6.9105],[145.3692,-42.2047,0.0],[145.3712,-42.2058,16.8574],[145.3699,-42.2074,0.0],[145.364,-42.2099,0.0],[145.3692,-42.2147,0.0],[145.3718,-42.2244,11.6767],[145.3711,-42.2274,32.6279],[145.3643,-42.2304,13.5095],[145.3609,-42.2338,0.0],[145.3607,-42.2354,0.0],[145.3669,-42.2421,5.58],[145.3664,-42.2472,4.9237],[145.364,-42.2499,0.0],[145.3648,-42.2517,1.5953],[145.3716,-42.2502,3.3067],[145.3774,-42.2517,2.0173],[145.386,-42.2625,8.5758],[145.3895,-42.2633,35.3015],[145.3944,-42.2712,0.9704],[145.4034,-42.2805,25.6066],[145.4099,-42.2836,41.9426],[145.4137,-42.2875,27.138],[145.423,-42.29,0.0],[145.4263,-42.2936,12.4654],[145.4278,-42.3015,0.0],[145.4304,-42.3054,19.5334],[145.4299,-42.3097,0.0],[145.4324,-42.3143,55.6744],[145.454,-42.3194,41.7848],[145.4633,-42.3234,16.7048],[145.4676,-42.3461,40.5329],[145.4783,-42.3487,22.1771],[145.4809,-42.3645,3.5996],[145.4864,-42.3632,0.0],[145.4882,-42.3592,7.3324],[145.4926,-42.3559,1.0013],[145.489,-42.3573,6.9162],[145.4848,-42.3565,22.0718],[145.4899,-42.3525,0.0],[145.4861,-42.3504,0.0],[145.4833,-42.351,15.8697],[145.48,-42.3489,5.2608],[145.4805,-42.3472,6.6972],[145.4841,-42.3469,7.6968],[145.485,-42.344,16.4601],[145.4893,-42.3446,0.0],[145.4897,-42.3432,0.0],[145.4876,-42.343,6.8679],[145.4876,-42.3415,1.2278],[145.4935,-42.3435,0.0],[145.4979,-42.3424,0.0],[145.4948,-42.339,2.258],[145.4987,-42.3384,0.0],[145.4914,-42.3368,4.0586],[145.4907,-42.3354,3.407],[145.4964,-42.3343,0.0],[145.493,-42.3311,8.8814],[145.4927,-42.3272,7.7544],[145.4942,-42.3251,0.0],[145.4921,-42.3241,4.8831],[145.4936,-42.324,4.8831],[145.4941,-42.322,4.7754],[145.4973,-42.325,2.1747],[145.4968,-42.3282,1.2213],[145.5006,-42.3309,8.2751],[145.4994,-42.3323,0.0],[145.5119,-42.3348,0.5546],[145.5166,-42.3387,17.3808],[145.5175,-42.3409,1.4746],[145.5131,-42.3415,2.9482],[145.5162,-42.3441,6.4549],[145.5183,-42.3498,0.0],[145.5267,-42.3605,21.5831],[145.5258,-42.3646,8.8552],[145.5196,-42.3681,15.4462],[145.5152,-42.3668,9.9102],[145.5096,-42.3674,11.9149],[145.5026,-42.364,3.2627],[145.503,-42.3667,7.215],[145.5118,-42.372,12.5264],[145.5124,-42.3742,12.2214],[145.5181,-42.3731,0.0],[145.5228,-42.375,0.0],[145.5302,-42.3726,0.0],[145.5327,-42.3631,27.0151],[145.5413,-42.3592,0.0],[145.5419,-42.3562,10.3742],[145.5442,-42.3546,1.9164],[145.5414,-42.3538,5.5138],[145.5444,-42.3539,0.0],[145.5429,-42.3531,5.5138],[145.5438,-42.3521,6.413],[145.5473,-42.3526,30.0211],[145.5495,-42.3553,14.7556],[145.5576,-42.357,12.7583],[145.5532,-42.359,0.0],[145.5567,-42.361,9.5038],[145.5558,-42.364,15.348],[145.5475,-42.3698,32.4656],[145.5438,-42.3701,12.4532],[145.5434,-42.368,0.0],[145.5426,-42.3692,0.0],[145.5432,-42.3749,17.7592],[145.5454,-42.3783,5.7561],[145.5427,-42.3831,0.0],[145.5499,-42.388,18.8057],[145.5457,-42.391,2.7621],[145.5362,-42.3871,0.0],[145.5339,-42.3924,0.0],[145.5354,-42.3959,22.8442],[145.5335,-42.397,0.7984],[145.5367,-42.3997,0.0],[145.5357,-42.4036,10.5142],[145.5336,-42.4042,0.4048],[145.5348,-42.4055,0.0],[145.5288,-42.4131,11.4617],[145.5196,-42.419,0.0],[145.5204,-42.4209,0.0],[145.5248,-42.4217,8.316],[145.5255,-42.4236,5.1911],[145.5225,-42.4274,0.0],[145.5157,-42.4309,0.0],[145.5131,-42.4345,0.6774],[145.5234,-42.441,20.3778],[145.5245,-42.4435,0.0],[145.5342,-42.4474,5.7211],[145.5391,-42.4417,0.0],[145.5444,-42.4386,13.2601],[145.5562,-42.436,27.604],[145.5789,-42.444,6.197],[145.5802,-42.4462,5.6216],[145.575,-42.4442,0.5897],[145.5814,-42.4481,0.0],[145.5936,-42.4507,27.4987],[145.5965,-42.4498,10.1586],[145.5982,-42.4464,40.8687],[145.6014,-42.4456,8.6619],[145.6083,-42.4507,6.3028],[145.6164,-42.4455,36.7502],[145.6093,-42.4365,0.0],[145.6129,-42.4344,9.7609],[145.6156,-42.4352,2.3349],[145.6212,-42.4424,0.0],[145.6258,-42.4445,28.4536],[145.635,-42.44,0.5],[145.6387,-42.4364,0.5],[145.6458,-42.4343,16.4435],[145.6585,-42.4369,13.4269],[145.6642,-42.4408,18.4776],[145.6735,-42.443,5.082],[145.677,-42.4648,57.5575],[145.6744,-42.472,1.0],[145.6754,-42.4748,16.8745],[145.6735,-42.4829,15.7878],[145.6742,-42.4921,1.0],[145.6788,-42.502,16.1841],[145.6782,-42.5064,37.9332],[145.6742,-42.5096,1.5],[145.6757,-42.518,17.0965],[145.6671,-42.5277,2.9931],[145.6728,-42.5315,18.3023],[145.6741,-42.5341,15.1694],[145.6733,-42.5365,24.9703],[145.6674,-42.5379,1.5],[145.6719,-42.5428,15.767],[145.6738,-42.548,16.9509],[145.6718,-42.5607,9.1926],[145.6746,-42.5632,5.7323],[145.6793,-42.5635,26.0536],[145.6834,-42.5693,8.3939],[145.6906,-42.5684,6.7021],[145.7012,-42.5716,17.9859],[145.7072,-42.5768,10.8473],[145.711,-42.5851,18.5232],[145.7187,-42.5895,41.5263],[145.7222,-42.5891,30.4597],[145.7293,-42.582,31.5759],[145.7367,-42.5893,40.6763],[145.7414,-42.5911,21.2536],[145.7375,-42.5906,13.1694],[145.7297,-42.5828,31.5759],[145.7222,-42.59,92.1278],[145.7181,-42.59,28.4952],[145.7095,-42.5845,43.4686],[145.7069,-42.5774,10.8473],[145.6986,-42.5709,17.0375],[145.6897,-42.5698,41.4335],[145.6836,-42.571,4.0278],[145.6798,-42.5659,5.0967],[145.671,-42.5624,2.0],[145.6703,-42.5537,6.2071],[145.6722,-42.5477,4.8385],[145.6662,-42.5382,48.6847],[145.6674,-42.5358,31.5491],[145.6725,-42.5343,5.3292],[145.6653,-42.5275,9.0228],[145.6739,-42.5174,6.196],[145.6722,-42.5086,7.3235],[145.6771,-42.5041,18.7935],[145.6757,-42.4972,25.9964],[145.6723,-42.4922,19.6839],[145.6725,-42.4701,19.1585],[145.6748,-42.4651,34.4564],[145.6714,-42.4478,0.5],[145.672,-42.4449,3.6506],[145.671,-42.4435,1.6356],[145.6628,-42.4424,0.5],[145.6581,-42.4383,45.3307],[145.6482,-42.4358,3.3881],[145.6417,-42.4371,0.5],[145.6263,-42.4459,6.0353],[145.6199,-42.4433,39.204],[145.6141,-42.4365,15.5452],[145.6115,-42.4358,1.4906],[145.6182,-42.4455,60.2276],[145.614,-42.4505,2.668],[145.6082,-42.453,10.4092],[145.6043,-42.4512,13.3004],[145.6035,-42.4481,6.0298],[145.6015,-42.4471,5.5667],[145.5973,-42.451,3.6178],[145.5922,-42.452,33.5858],[145.5794,-42.4499,26.9464],[145.5703,-42.4448,9.0646],[145.5547,-42.4404,3.9634],[145.544,-42.4422,1.8227],[145.5368,-42.4486,2.7787],[145.5311,-42.4495,0.0],[145.5242,-42.4463,72.58],[145.5156,-42.4393,1.0788],[145.509,-42.4362,0.0],[145.5048,-42.436,0.5248],[145.5022,-42.4319,0.0],[145.4952,-42.4296,14.5389],[145.4937,-42.4235,19.6622],[145.4919,-42.4223,4.4598],[145.4863,-42.4226,1.3852],[145.4782,-42.4289,6.8864],[145.4581,-42.4348,2.1381],[145.4532,-42.4392,4.3709],[145.4527,-42.442,14.8803],[145.4604,-42.4407,3.8877],[145.4612,-42.4381,3.6224],[145.4739,-42.4406,11.1733],[145.464,-42.4425,0.0],[145.471,-42.4504,2.6903],[145.4724,-42.4639,0.0],[145.4755,-42.4661,30.2778],[145.4753,-42.4711,10.5927],[145.4732,-42.4736,4.6559],[145.4785,-42.4738,3.9623],[145.4802,-42.4756,4.0141],[145.4773,-42.4787,9.6053],[145.4787,-42.4798,4.7047],[145.4767,-42.4859,4.3711],[145.4784,-42.489,12.619],[145.475,-42.4919,0.0],[145.4727,-42.4978,0.0],[145.4745,-42.4991,3.3055],[145.4723,-42.5009,0.0],[145.478,-42.5061,18.7229],[145.4759,-42.5131,8.2904],[145.4805,-42.5178,22.4941],[145.4818,-42.5257,5.3648],[145.4739,-42.5258,2.3775],[145.4712,-42.5215,1.176],[145.4676,-42.521,0.0],[145.4661,-42.5191,3.7635],[145.467,-42.5163,4.0584],[145.4656,-42.5078,1.3953],[145.4619,-42.5006,16.5846],[145.4623,-42.4946,13.822],[145.4654,-42.492,0.0],[145.4644,-42.4911,16.5074],[145.4659,-42.487,10.4362],[145.4624,-42.4813,14.8487],[145.4637,-42.4778,0.0],[145.4602,-42.4682,6.5807],[145.4591,-42.4628,0.0],[145.4601,-42.4621,0.0],[145.4579,-42.4606,29.656],[145.4592,-42.4582,0.0],[145.4466,-42.4374,5.0551],[145.4465,-42.4291,3.3249],[145.4484,-42.4249,24.8361],[145.4476,-42.4199,22.9292],[145.4483,-42.4175,29.7945],[145.4508,-42.4167,0.0],[145.4517,-42.4136,0.0],[145.4506,-42.4099,0.0],[145.4533,-42.4045,0.0],[145.4481,-42.4041,23.9402],[145.4424,-42.4012,0.0],[145.4392,-42.3971,24.329],[145.4397,-42.3931,16.0981],[145.4365,-42.3889,0.0],[145.4349,-42.3893,5.6845],[145.4354,-42.3864,0.0],[145.432,-42.3861,32.4883],[145.4307,-42.3819,2.5387],[145.4285,-42.3833,25.733],[145.4274,-42.3812,0.0],[145.4249,-42.3812,0.0],[145.424,-42.3771,0.0],[145.4205,-42.3781,38.094],[145.419,-42.3743,0.0],[145.4157,-42.3735,5.277],[145.4157,-42.3718,0.0],[145.4127,-42.3717,39.5618],[145.412,-42.3699,7.5857],[145.4049,-42.3734,14.8486],[145.3935,-42.3743,0.0],[145.3903,-42.3719,14.236],[145.3896,-42.3678,0.0],[145.3863,-42.3677,10.4733],[145.3838,-42.3652,3.3432],[145.3811,-42.3648,7.0276],[145.3788,-42.3608,0.0],[145.3734,-42.3603,13.4105],[145.3729,-42.3558,0.0],[145.37,-42.3535,2.6045],[145.3662,-42.3557,26.1711],[145.3642,-42.3549,8.6959],[145.3639,-42.3521,3.9043],[145.36,-42.3488,8.4043],[145.3551,-42.3482,17.2224],[145.3557,-42.3469,5.8629],[145.3535,-42.3439,3.7745],[145.3519,-42.3442,3.7745],[145.3492,-42.3416,7.8394],[145.3473,-42.3428,3.0369],[145.3443,-42.3415,26.8431],[145.3403,-42.3371,3.6326],[145.3412,-42.3433,14.01],[145.338,-42.3444,3.7292],[145.3371,-42.3395,0.0],[145.3318,-42.3387,10.3708],[145.331,-42.3304,8.9116],[145.3204,-42.3276,4.8625],[145.3163,-42.3251,39.1264],[145.316,-42.3232,16.9363],[145.3101,-42.3205,7.9618],[145.3094,-42.3159,0.0],[145.3116,-42.2989,3.7377],[145.3175,-42.2853,1.8664],[145.3153,-42.2859,1.7445],[145.316,-42.2879,1.7536],[145.3067,-42.2954,2.9773],[145.2995,-42.2966,2.143],[145.2926,-42.2958,0.0],[145.2902,-42.2908,4.2303],[145.2919,-42.2884,14.2459],[145.2912,-42.2845,7.367],[145.2896,-42.2829,0.0],[145.2792,-42.2816,16.9012],[145.2715,-42.2846,0.0],[145.2706,-42.2894,1.5789],[145.2663,-42.291,1.4421],[145.2535,-42.2885,11.0471],[145.2502,-42.2818,3.7172],[145.2547,-42.2785,8.3195],[145.2561,-42.2673,3.8931],[145.2469,-42.2642,0.0],[145.2371,-42.2634,7.1429],[145.2345,-42.2573,0.0],[145.2357,-42.2523,11.397],[145.2325,-42.2479,0.0],[145.2358,-42.2441,2.9837],[145.2335,-42.2425,0.0],[145.2258,-42.2438,2.711],[145.221,-42.2421,13.8288],[145.2203,-42.2348,8.4707],[145.2221,-42.2319,34.2503],[145.2239,-42.2318,4.0779],[145.2249,-42.2284,0.0],[145.2211,-42.2267,10.872],[145.2207,-42.2229,0.9937],[145.2144,-42.2188,0.0],[145.215,-42.2121,0.0],[145.2091,-42.2101,6.758],[145.2086,-42.2026,0.0],[145.2073,-42.2001,0.0],[145.2088,-42.2074,0.0],[145.2,-42.2079,0.5822],[145.1984,-42.2056,2.6163],[145.1998,-42.2042,0.0],[145.1994,-42.2008,14.4329],[145.1963,-42.197,1.6352],[145.186,-42.1945,0.0],[145.1843,-42.1961,10.7915],[145.1836,-42.1942,0.3396],[145.1771,-42.1931,6.4971],[145.1752,-42.1949,6.9976],[145.1755,-42.197,6.8808],[145.1709,-42.1976,3.189],[145.1676,-42.196,0.1392],[145.1671,-42.1974,4.0094],[145.1655,-42.1971,0.3556],[145.1664,-42.1997,0.0],[145.1673,-42.1977,4.0094],[145.1707,-42.2006,14.8233],[145.172,-42.2045,3.275],[145.1764,-42.2064,3.138],[145.1735,-42.2082,1.1302],[145.174,-42.2099,0.0],[145.1785,-42.2076,12.0719],[145.1813,-42.2077,17.2557],[145.1817,-42.2091,3.8226],[145.1866,-42.2072,10.7838],[145.1901,-42.208,8.7966],[145.1879,-42.211,4.308],[145.1911,-42.2109,3.1921],[145.1917,-42.2133,10.2414],[145.1904,-42.2158,4.9722],[145.1882,-42.2155,2.817],[145.1861,-42.2217,0.0],[145.192,-42.225,1.3029],[145.1936,-42.2283,4.5418],[145.1922,-42.232,5.5246],[145.1899,-42.2337,2.3579],[145.1907,-42.2399,4.1107],[145.1892,-42.2426,0.0],[145.195,-42.245,1.1521],[145.1947,-42.247,0.0],[145.1992,-42.2477,15.6127],[145.1994,-42.2499,0.0],[145.2059,-42.2544,24.5602],[145.2057,-42.2617,2.6501],[145.2091,-42.2632,6.1763],[145.2081,-42.2665,5.2493],[145.2137,-42.2777,0.0],[145.214,-42.2824,26.142],[145.2117,-42.2855,1.4485],[145.2102,-42.2852,1.4485],[145.2111,-42.2873,3.0384],[145.2092,-42.2888,0.6411],[145.2112,-42.2894,6.3744],[145.2111,-42.2952,0.0],[145.2138,-42.2983,0.0],[145.2094,-42.3041,0.0],[145.2011,-42.3076,0.2239],[145.1983,-42.3095,0.0],[145.1985,-42.3112,2.6961],[145.194,-42.3121,1.1276],[145.1966,-42.3144,7.3794],[145.1954,-42.3174,17.2205],[145.1973,-42.3199,4.6421],[145.1963,-42.3222,7.4833],[145.1974,-42.3261,3.8717],[145.1961,-42.3278,4.5515],[145.1972,-42.3273,4.5515],[145.1974,-42.3294,1.5222],[145.2042,-42.3333,17.4197],[145.2051,-42.3362,5.6419],[145.2112,-42.3392,4.3051],[145.2099,-42.3413,0.7398],[145.2122,-42.3423,11.0818],[145.2119,-42.346,2.2476],[145.2146,-42.3507,0.0],[145.2149,-42.3502,0.0],[145.2149,-42.3489,19.364],[145.2175,-42.3495,36.8132],[145.2231,-42.3552,7.1024],[145.2208,-42.362,0.0],[145.2223,-42.3627,26.3134],[145.2179,-42.3612,0.0],[145.2179,-42.364,0.3732],[145.2153,-42.3659,1.1891],[145.2179,-42.368,0.0],[145.2233,-42.3662,15.2832],[145.2264,-42.3669,17.6255],[145.2266,-42.3696,0.5281],[145.2291,-42.372,5.0153],[145.2291,-42.3758,2.3041],[145.2251,-42.3815,6.0641],[145.2243,-42.3864,0.6642],[145.2282,-42.3866,0.0],[145.2355,-42.3947,0.0],[145.2353,-42.3915,0.0],[145.237,-42.39,9.9652],[145.2375,-42.3953,4.2868],[145.2343,-42.3992,0.0],[145.2359,-42.4044,0.9922],[145.2378,-42.4067,0.167],[145.2404,-42.406,12.1669],[145.245,-42.4062,46.4153],[145.2447,-42.4064,40.2062],[145.2418,-42.4067,22.7444],[145.241,-42.4064,22.7444],[145.24,-42.4069,10.6473],[145.2384,-42.4067,0.167],[145.2384,-42.4112,0.1255],[145.241,-42.413,12.8832],[145.2367,-42.4135,0.919],[145.237,-42.4167,4.2983],[145.2346,-42.4175,0.3541],[145.2378,-42.4181,0.2304],[145.2413,-42.4216,9.1807],[145.2401,-42.4254,0.1962],[145.2437,-42.4258,6.2516],[145.2456,-42.43,4.5992],[145.243,-42.431399999999996,0.3786],[145.244,-42.4327,0.3786],[145.2451,-42.4328,7.4362],[145.2433,-42.4346,0.6183],[145.2523,-42.4392,0.0],[145.2502,-42.4415,0.236],[145.2539,-42.4435,3.2034],[145.2537,-42.4453,4.083],[145.2517,-42.4461,0.3614],[145.254,-42.4481,4.2184],[145.2519,-42.452,1.6918],[145.2531,-42.4534,20.3106],[145.2475,-42.4532,0.9645],[145.2449,-42.4646,14.1455],[145.2429,-42.4665,11.7108],[145.2395,-42.4658,0.4354],[145.2359,-42.4712,0.0],[145.2401,-42.4754,5.4638],[145.2421,-42.482,0.8417],[145.2474,-42.4819,4.4419],[145.244,-42.4842,0.5902],[145.2445,-42.4867,0.0],[145.252,-42.4862,7.1247],[145.2548,-42.4884,0.0],[145.2533,-42.4951,0.6126],[145.2573,-42.4963,7.3699],[145.2573,-42.4998,1.2279],[145.2594,-42.5004,10.8786],[145.2612,-42.504,0.0],[145.259,-42.5063,0.0],[145.2599,-42.5111,12.3522],[145.2582,-42.5175,4.6466],[145.2547,-42.5179,0.0],[145.2528,-42.5221,0.062],[145.2538,-42.5241,0.6792],[145.2557,-42.5217,2.583],[145.258,-42.5223,5.6592],[145.261,-42.5258,1.4739],[145.2675,-42.5286,7.7752],[145.2668,-42.5352,2.1518],[145.2711,-42.5384,0.7775],[145.2709,-42.5436,0.2348],[145.2742,-42.5459,14.8852],[145.2762,-42.5519,0.1688],[145.2794,-42.5512,13.362],[145.2807,-42.5529,4.3189],[145.2791,-42.5552,5.6911],[145.275,-42.5552,3.6305],[145.2801,-42.558,7.3261],[145.2772,-42.5617,0.6567],[145.2777,-42.5632,0.4386],[145.2819,-42.5647,0.085],[145.2849,-42.5636,4.561],[145.2882,-42.5695,7.069],[145.2917,-42.5674,19.1154],[145.295,-42.5675,13.9409],[145.3044,-42.5712,30.1772],[145.3006,-42.5732,10.2134],[145.2992,-42.5772,0.1958],[145.3019,-42.58,7.0282],[145.3014,-42.5841,7.4833],[145.3043,-42.586,2.6769],[145.3017,-42.5866,13.6055],[145.2993,-42.5924,0.7126],[145.2954,-42.5952,1.6126],[145.2987,-42.5958,12.5209],[145.3017,-42.5991,12.1525],[145.299,-42.6012,0.957],[145.2973,-42.6003,1.547],[145.2938,-42.6017,0.4003],[145.2949,-42.6034,9.5386],[145.2938,-42.6047,11.2011],[145.2859,-42.6101,4.6206],[145.2843,-42.6096,4.6206],[145.285,-42.612,7.6323],[145.2809,-42.6149,8.6133],[145.275,-42.6142,2.2556],[145.2732,-42.6124,0.9525],[145.2693,-42.6144,3.7636],[145.2664,-42.612,2.4545],[145.263,-42.6127,0.0],[145.2641,-42.6159,6.4398],[145.2626,-42.617,1.8151],[145.2635,-42.619,12.1922],[145.2621,-42.619,0.7933],[145.263,-42.6216,0.0],[145.2646,-42.6209,13.0852],[145.2661,-42.623,0.0],[145.2675,-42.6219,18.3407],[145.2682,-42.6238,5.3327],[145.2707,-42.624,14.5882],[145.2686,-42.6249,1.7694],[145.2702,-42.6249,23.7587],[145.2689,-42.6272,0.5084],[145.2713,-42.6281,2.8636],[145.27,-42.6293,2.8636],[145.2742,-42.6311,1.4732],[145.2793,-42.6273,8.8318],[145.2854,-42.6324,2.4822],[145.2864,-42.6317,0.0],[145.285,-42.6285,4.5602],[145.2881,-42.629,0.0],[145.2883,-42.6239,1.2248],[145.29,-42.6225,9.9421],[145.3018,-42.6195,11.0218],[145.3118,-42.6207,9.0975],[145.3122,-42.6223,0.0],[145.3192,-42.627,7.0968],[145.3234,-42.6276,8.9435],[145.3242,-42.63,0.3826],[145.3296,-42.6286,6.8861],[145.3331,-42.6296,0.0],[145.3358,-42.6326,19.8545],[145.3359,-42.637,6.6176],[145.3314,-42.6371,7.4895],[145.3307,-42.6433,4.64],[145.3278,-42.6461,7.4126],[145.3314,-42.6464,8.1874],[145.3327,-42.6481,1.4642],[145.3336,-42.6578,1.6412],[145.3383,-42.651,20.7507],[145.3398,-42.6515,8.9643],[145.3409,-42.655,0.0],[145.3463,-42.6509,9.4022],[145.3662,-42.6565,14.1548],[145.3675,-42.6598,16.8217],[145.3653,-42.6647,2.3536],[145.3667,-42.6676,21.5928],[145.3653,-42.67,2.8794],[145.3672,-42.681399999999996,8.464],[145.366,-42.6826,0.1551],[145.366,-42.6897,0.0],[145.3692,-42.6935,0.2905],[145.3723,-42.693,0.3093],[145.374,-42.6945,8.8407],[145.3726,-42.6983,5.8669],[145.3747,-42.699,28.6495],[145.3772,-42.7039,17.2706],[145.3761,-42.7088,0.0],[145.3794,-42.7094,41.3738],[145.3779,-42.7102,0.0],[145.3779,-42.7154,0.0],[145.3804,-42.7197,0.2879],[145.3795,-42.7208,0.2879],[145.3813,-42.7209,61.472],[145.3801,-42.7229,0.0],[145.3807,-42.7228,11.0212],[145.3816,-42.7213,11.0212],[145.3818,-42.7228,11.0212],[145.3834,-42.7226,46.8619],[145.3833,-42.7282,0.0],[145.3864,-42.7283,0.0],[145.3887,-42.7246,58.1323],[145.3927,-42.7244,9.2718],[145.3942,-42.7213,1.6878],[145.3918,-42.732,4.9337],[145.3927,-42.7347,0.0],[145.3967,-42.7364,9.4895],[145.3942,-42.7375,17.2453],[145.392,-42.7362,0.0],[145.3911,-42.7375,41.3455],[145.389,-42.7355,0.0],[145.3876,-42.7385,0.0],[145.3913,-42.743,72.2855],[145.3875,-42.7435,15.2481],[145.3868,-42.7424,0.0],[145.3864,-42.746,2.7662],[145.3845,-42.7451,0.8135],[145.3806,-42.7482,19.3013],[145.3811,-42.7509,25.6685],[145.3793,-42.7536,0.4573],[145.3817,-42.7573,30.0289],[145.3798,-42.7577,0.0],[145.381,-42.7594,25.3824],[145.382,-42.7588,25.3824],[145.3827,-42.7644,12.7688],[145.3844,-42.766,3.1185],[145.3826,-42.7687,0.6318],[145.3856,-42.7722,4.9098],[145.3885,-42.77,18.6713],[145.3948,-42.7762,1.1156],[145.397,-42.7764,0.0],[145.3968,-42.775,8.9979],[145.4019,-42.7782,0.0],[145.4019,-42.7767,14.1006],[145.4023,-42.7781,0.0],[145.4065,-42.7761,26.8173],[145.4079,-42.7771,30.8503],[145.4065,-42.7806,4.1966],[145.4103,-42.7799,9.1364],[145.4142,-42.7808,36.1751],[145.4098,-42.7806,9.1364],[145.407,-42.7825,2.0112],[145.4073,-42.7848,0.418],[145.4116,-42.7864,18.9903],[145.4104,-42.7914,0.8528],[145.4131,-42.7929,10.4401],[145.4134,-42.7964,0.0],[145.419,-42.8021,4.7591],[145.4175,-42.8035,0.7728],[145.4183,-42.8084,4.2684],[145.4211,-42.8126,2.3663],[145.4261,-42.8149,37.6619],[145.4222,-42.8137,8.8662],[145.4197,-42.8148,13.8572],[145.4238,-42.8276,35.9333],[145.4259,-42.8289,40.6095],[145.4229,-42.8295,0.0],[145.4209,-42.8371,0.7773],[145.4221,-42.8386,4.4959],[145.4256,-42.8381,2.0717],[145.4246,-42.8417,3.9411],[145.429,-42.8459,16.5261],[145.4293,-42.8499,0.0],[145.4369,-42.8545,9.1758],[145.4344,-42.8578,3.0749],[145.439,-42.8654,3.7653],[145.4374,-42.8672,0.2042],[145.4437,-42.8691,4.8639],[145.4389,-42.8688,1.5067],[145.4357,-42.8714,1.492],[145.436,-42.8734,0.0],[145.4377,-42.8756,0.0],[145.4416,-42.8761,13.5382],[145.4439,-42.8833,0.3915],[145.4491,-42.887,1.9618],[145.4507,-42.8897,17.8466],[145.4498,-42.8907,0.0],[145.4542,-42.8924,5.2257],[145.4541,-42.8958,3.1734],[145.452,-42.8978,1.9568],[145.4538,-42.8984,2.7105],[145.454,-42.9005,0.9796],[145.4574,-42.9012,4.7446],[145.4588,-42.9054,1.8557],[145.4648,-42.9049,0.0],[145.4682,-42.9064,0.0],[145.4709,-42.9053,5.0189],[145.473,-42.907,0.5722],[145.476,-42.9142,6.0095],[145.4827,-42.9159,6.2737],[145.4833,-42.915,6.2737],[145.4872,-42.9142,14.3156],[145.4871,-42.9145,14.3156],[145.4867,-42.9147,13.7263],[145.4836,-42.9156,3.7267],[145.4842,-42.9173,2.6844],[145.4817,-42.9201,3.6165],[145.4833,-42.9209,3.6165],[145.4824,-42.923,0.8325],[145.4846,-42.9261,1.5389],[145.4816,-42.9311,5.7275],[145.4841,-42.9305,8.9137],[145.4844,-42.9316,0.0],[145.4904,-42.9292,17.5977],[145.489,-42.9321,1.1993],[145.4948,-42.9404,14.7962],[145.4933,-42.9404,0.0],[145.4931,-42.9437,0.4991],[145.4945,-42.9436,24.4332],[145.493,-42.9469,1.6241],[145.4948,-42.9466,13.0309],[145.4953,-42.9498,0.0],[145.4987,-42.9506,5.4446],[145.5009,-42.9483,6.7281],[145.5044,-42.9487,15.228],[145.5013,-42.9489,6.7281],[145.4994,-42.9512,5.4446],[145.4958,-42.9512,0.0],[145.4959,-42.9549,21.3398],[145.4922,-42.956,1.2842],[145.4938,-42.9591,1.8598],[145.4966,-42.958,19.1892],[145.4958,-42.963,0.0],[145.4986,-42.9632,11.5572],[145.4969,-42.9638,2.356],[145.4973,-42.9656,4.3364],[145.4947,-42.9691,12.6104],[145.4966,-42.9705,17.0894],[145.496,-42.9726,31.9731],[145.4936,-42.974,0.0],[145.5035,-42.9764,11.7802],[145.4999,-42.9802,0.0],[145.5013,-42.9806,2.6007],[145.4988,-42.9845,1.37],[145.5004,-42.9858,5.3897],[145.496,-42.988,7.869],[145.4971,-42.9888,7.869],[145.4951,-42.9895,1.4597],[145.4949,-42.9915,0.0],[145.5127,-42.9814,0.0],[145.5324,-42.9834,0.6215],[145.5337,-42.9815,1.3716],[145.5383,-42.9808,2.4716],[145.5404,-42.9776,6.6073],[145.5444,-42.9785,1.8473],[145.5501,-42.9754,4.0552],[145.5546,-42.9772,3.5183],[145.5541,-42.9734,5.0686],[145.5572,-42.9743,10.8711],[145.5613,-42.9711,20.076],[145.5644,-42.9724,1.4928],[145.5771,-42.9711,7.4768],[145.5795,-42.9737,1.3181],[145.5909,-42.9751,8.3971],[145.5906,-42.9725,7.3111],[145.5926,-42.98,4.2871],[145.6014,-42.9868,12.2187],[145.6013,-42.987,12.2187],[145.6005,-42.9872,3.89],[145.6001,-42.9876,3.89],[145.5993,-42.9876,3.89],[145.5999,-42.9905,2.8292],[145.606,-42.9896,2.3152],[145.6075,-42.9907,22.0395],[145.6059,-42.9952,3.0395],[145.6029,-42.9972,3.6406],[145.6061,-42.9994,11.0775],[145.6043,-42.9997,0.4016],[145.605,-43.0012,8.8708],[145.6074,-43.0016,2.5073],[145.6089,-42.9995,28.8305],[145.6085,-43.0016,2.5073],[145.6114,-43.0024,21.8893],[145.6093,-43.0027,12.7099],[145.6121,-43.0042,19.4474],[145.6101,-43.0046,4.0117],[145.6111,-43.0065,28.8718],[145.6099,-43.0092,5.8913],[145.6168,-43.0125,2.9763],[145.617,-43.0143,0.4028],[145.618825,-43.0149,0.342]],
[[145.4682,-42.1883,31.987],[145.4682,-42.1883,31.987],[145.4682,-42.1883,31.987],[145.4682,-42.1883,31.987]],
[[145.4682,-42.1883,31.987],[145.4716,-42.1849,30.6241],[145.4775,-42.1861,21.6708],[145.4831,-42.1837,20.9305],[145.487,-42.1865,40.4803],[145.4922,-42.1842,31.934],[145.4912,-42.1806,113.1809],[145.4924,-42.1789,60.0861],[145.5,-42.1763,96.7013],[145.4982,-42.1778,65.197],[145.4922,-42.1798,39.5983],[145.4924,-42.1846,41.0795],[145.487,-42.1869,40.4803],[145.4852,-42.1866,110.6068],[145.4832,-42.1841,20.9305],[145.4774,-42.1864,95.9951],[145.4715,-42.1854,30.6241],[145.4704,-42.1869,40.522],[145.4682,-42.1883,31.987]]],
[[[145.2236,-42.4196,0.0],[145.2232,-42.419,0.0],[145.2228,-42.419,0.0],[145.2229,-42.4202,0.0],[145.2236,-42.4196,0.0]]],
[[[145.2775,-42.6051,10.1658],[145.2773,-42.6033,6.4891],[145.2751,-42.6035,12.6909],[145.2764,-42.606,10.1658],[145.278,-42.6063,0.0],[145.2775,-42.6051,10.1658]]],
[[[145.2766,-42.5579,3.4809],[145.2748,-42.5566,5.4445],[145.274,-42.5567,5.4445],[145.2743,-42.5589,1.7603],[145.2766,-42.5579,3.4809]]],
[[[145.45,-42.3874,8.3152],[145.4508,-42.3861,0.0],[145.4473,-42.3874,1.7086],[145.4455,-42.3906,0.0],[145.4466,-42.3907,1.8952],[145.448,-42.3897,1.8952],[145.45,-42.3874,8.3152]]],
[[[145.4598,-42.3851,0.0],[145.4595,-42.3844,0.0],[145.4592,-42.3844,0.0],[145.4591,-42.385,0.0],[145.4598,-42.3851,0.0]]],
[[[145.5058,-42.3455,4.6771],[145.4976,-42.3458,0.0],[145.5012,-42.3487,4.9201],[145.5037,-42.3456,2.8246],[145.5058,-42.3455,4.6771]]],
[[[145.454,-42.3353,0.0],[145.4492,-42.3334,18.9412],[145.4476,-42.3344,0.0],[145.4513,-42.3363,0.0],[145.454,-42.3353,0.0]]],
[[[145.1775,-42.3077,0.7338],[145.1776,-42.3083,0.0],[145.1777,-42.3071,0.7338],[145.1773,-42.3065,0.7338],[145.1772,-42.3068,0.7338],[145.1775,-42.3077,0.7338]]],
[[[145.2729,-42.2722,5.7725],[145.2732,-42.2709,0.0],[145.2718,-42.2714,5.7725],[145.2717,-42.2726,5.7725],[145.2729,-42.2722,5.7725]]],
[[[145.1969,-42.2506,0.261],[145.1972,-42.2504,0.261],[145.1968,-42.25,0.261],[145.1967,-42.2505,0.261],[145.1969,-42.2506,0.261]]],
[[[145.1785,-42.3076,0.7338],[145.1786,-42.3068,0.7338],[145.1785,-42.3067,0.7338],[145.1782,-42.3071,0.7338],[145.1785,-42.3076,0.7338]]],
[[[145.6281,-43.0201,0.0],[145.6285,-43.0198,0.0],[145.6284,-43.0193,11.7885],[145.6275,-43.0196,0.0],[145.6281,-43.0201,0.0]]],
[[[145.6084,-43.0108,0.0919],[145.6081,-43.0108,0.0919],[145.6084,-43.0111,0.0919],[145.6086,-43.011,0.0919],[145.6084,-43.0108,0.0919]]],
[[[145.5992,-42.9859,11.4579],[145.5994,-42.9859,11.4579],[145.5991,-42.9857,11.4579],[145.5992,-42.9859,11.4579]]],
[[[145.4902,-42.9698,0.0],[145.4906,-42.9693,0.4511],[145.4884,-42.9696,0.3354],[145.4895,-42.9702,0.3354],[145.4902,-42.9698,0.0]]],
[[[145.4353,-42.8556,1.4764],[145.4354,-42.8556,1.4764],[145.4349,-42.8555,1.4764],[145.4349,-42.8556,1.4764],[145.4353,-42.8556,1.4764]]],
[[[145.3778,-42.7774,0.0],[145.3781,-42.7777,0.0],[145.3789,-42.7774,3.1161],[145.378,-42.7766,0.0],[145.3778,-42.7774,0.0]]],
[[[145.3799,-42.7747,5.6033],[145.378,-42.7745,0.0],[145.3791,-42.7769,3.1161],[145.3803,-42.7755,5.6033],[145.3799,-42.7747,5.6033]]],
[[[145.2859,-42.6347,0.0],[145.2867,-42.6336,1.046],[145.2852,-42.6332,3.0673],[145.2854,-42.6343,3.0673],[145.2859,-42.6347,0.0]]],
[[[145.2697,-42.6291,2.8636],[145.269,-42.6287,2.523],[145.2675,-42.6299,0.0],[145.2693,-42.6294,2.523],[145.2697,-42.6291,2.8636]]],
[[[145.6086391304348,-43.00908260869565,0.3551],[145.6087,-43.0091,0.3551],[145.6089,-43.0091,0.3551],[145.6086391304348,-43.00908260869565,0.3551]]],
[[[145.608,-43.0089,0.3551],[145.6074,-43.009,0.3551],[145.6086391304348,-43.00908260869565,0.3551],[145.608,-43.0089,0.3551]]],
[[[145.8064,-43.3048,0.0],[145.8064,-43.3052,0.0],[145.8069,-43.3054,0.0],[145.8065,-43.3051,0.0],[145.8064,-43.3048,0.0]]],
[[[145.8078,-43.3044,0.0],[145.8084,-43.3048,0.0],[145.8084,-43.3046,0.0],[145.8081,-43.304,0.0],[145.8078,-43.3044,0.0]]],
[[[145.8168,-43.2964,0.0],[145.8158,-43.2948,0.0],[145.817,-43.2977,0.0],[145.8198,-43.2994,0.0],[145.8181,-43.2959,0.0],[145.8168,-43.2964,0.0]]],
[[[145.7855,-43.2226,0.4362],[145.7843,-43.2219,0.4362],[145.7827,-43.2249,0.0],[145.7862,-43.2263,0.0],[145.7856,-43.2248,1.792],[145.7877,-43.2235,3.6605],[145.7855,-43.2226,0.4362]]],
[[[145.9186,-43.2069,0.0],[145.9198,-43.2062,1.8251],[145.9205,-43.2054,1.8251],[145.9188,-43.206,0.0],[145.9186,-43.2069,0.0]]],
[[[145.9122,-43.1964,1.6557],[145.9124,-43.1969,1.6557],[145.9128,-43.197,1.6557],[145.9127,-43.1963,1.6557],[145.9122,-43.1964,1.6557]]],
[[[145.8108,-43.2809,0.0],[145.81,-43.2803,0.0],[145.8096,-43.2804,0.0],[145.8108,-43.2816,0.0],[145.8108,-43.2809,0.0]]],
[[[145.8149,-43.2796,0.0],[145.8137,-43.2786,3.2201],[145.8119,-43.2794,0.928],[145.8151,-43.2812,0.0],[145.8149,-43.2796,0.0]]],
[[[145.7399,-43.1438,4.3697],[145.7399,-43.1439,4.3697],[145.74,-43.1438,4.3697],[145.7399,-43.1437,4.3697],[145.7399,-43.1438,4.3697]]],
[[[145.7318,-43.1388,2.9998],[145.7318,-43.1389,2.9998],[145.7319,-43.1389,2.9998],[145.7318,-43.1388,2.9998]]],
[[[145.7261,-43.125,2.9587],[145.726,-43.1251,2.9587],[145.726,-43.1253,2.9587],[145.7261,-43.1252,2.9587],[145.7261,-43.125,2.9587]]],
[[[145.6914,-43.1143,7.5625],[145.6914,-43.1139,7.5625],[145.6904,-43.1138,0.4539],[145.6907,-43.1144,0.4539],[145.6914,-43.1143,7.5625]]],
[[[145.6888,-43.1125,0.1972],[145.6888,-43.112,0.1972],[145.6881,-43.1114,0.1972],[145.6883,-43.1126,0.1972],[145.6888,-43.1125,0.1972]]],
[[[145.6807,-43.1024,2.7466],[145.6808,-43.1023,2.7466],[145.6808,-43.102,2.7466],[145.6807,-43.1022,2.7466],[145.6807,-43.1024,2.7466]]],
[[[145.6672,-43.0818,0.2141],[145.6673,-43.0823,0.2141],[145.6677,-43.0822,0.2141],[145.6675,-43.082,0.2141],[145.6672,-43.0818,0.2141]]],
[[[145.6687,-43.0813,4.7811],[145.6688,-43.082,4.7811],[145.6693,-43.0823,4.7811],[145.6693,-43.0811,3.7199],[145.6687,-43.0813,4.7811]]],
[[[145.61893673469388,-43.014936734693876,0.342],[145.618825,-43.0149,0.342],[145.6188,-43.0149,0.342],[145.619,-43.015,0.342],[145.61893673469388,-43.014936734693876,0.342]]],
[[[145.197,-42.2497,0.261],[145.1971,-42.2501,0.261],[145.1974,-42.2504,0.261],[145.1975,-42.2503,0.0],[145.197,-42.2497,0.261]]],
[[[145.1979,-42.2498,0.0],[145.1982,-42.2488,0.0],[145.1977,-42.2487,0.0],[145.1972,-42.2496,0.261],[145.1979,-42.2498,0.0]]],
[[[145.1918,-42.2449,0.1261],[145.1922,-42.2451,0.1261],[145.1919,-42.2447,0.1261],[145.1914,-42.2449,0.1261],[145.1918,-42.2449,0.1261]]],
[[[145.1889,-42.2432,0.0],[145.1889,-42.2436,0.0],[145.1891,-42.2437,0.0],[145.1888,-42.2427,0.0],[145.1889,-42.2432,0.0]]],
[[[145.1882,-42.2378,0.0],[145.1884,-42.2383,0.0],[145.1887,-42.2382,0.0],[145.1886,-42.2379,0.0],[145.1882,-42.2378,0.0]]],
[[[145.192,-42.2303,0.4332],[145.1916,-42.2304,0.4332],[145.1919,-42.2307,0.4332],[145.1922,-42.2306,0.4332],[145.192,-42.2303,0.4332]]],
[[[145.2231,-42.2245,0.0],[145.2229,-42.2244,0.0],[145.2229,-42.2246,0.0],[145.223,-42.2247,0.0],[145.2231,-42.2245,0.0]]],
[[[145.188,-42.2235,1.6714],[145.1879,-42.2238,1.6714],[145.1882,-42.224,1.6714],[145.1882,-42.2236,1.6714],[145.188,-42.2235,1.6714]]],
[[[145.2222,-42.2232,0.0],[145.222,-42.2235,12.3476],[145.2223,-42.2237,0.0],[145.2224,-42.2234,0.0],[145.2222,-42.2232,0.0]]],
[[[145.182,-42.219,0.0],[145.1825,-42.2195,0.0],[145.1827,-42.2189,0.0],[145.1823,-42.2188,0.0],[145.182,-42.219,0.0]]],
[[[145.2891,-42.2148,0.0],[145.289,-42.2146,0.0],[145.2884,-42.2147,0.0],[145.2887,-42.2149,0.0],[145.2891,-42.2148,0.0]]],
[[[145.1874,-42.2106,4.308],[145.1873,-42.2112,4.308],[145.1876,-42.2113,0.0],[145.1877,-42.2105,4.308],[145.1874,-42.2106,4.308]]],
[[[145.2162,-42.2114,0.0],[145.2167,-42.2112,0.0],[145.2161,-42.2104,0.0],[145.2154,-42.2109,0.4276],[145.2162,-42.2114,0.0]]],
[[[145.1771,-42.2093,6.6093],[145.1776,-42.2094,6.6093],[145.1782,-42.2081,6.6093],[145.1777,-42.2084,6.6093],[145.1771,-42.2093,6.6093]]],
[[[145.2007,-42.1997,0.0],[145.2007,-42.1995,0.0],[145.2005,-42.1995,0.0],[145.2006,-42.1997,0.0],[145.2007,-42.1997,0.0]]],
[[[145.1648,-42.196,0.0],[145.165,-42.1964,0.3556],[145.1653,-42.1964,0.3556],[145.1653,-42.1958,0.0],[145.1648,-42.196,0.0]]],
[[[145.3589,-42.1943,1.0756],[145.3596,-42.194,1.0756],[145.3586,-42.1936,1.0756],[145.3584,-42.1939,1.0756],[145.3589,-42.1943,1.0756]]],
[[[145.2987,-42.1867,6.365],[145.2949,-42.1853,2.9961],[145.2928,-42.1882,9.2639],[145.2939,-42.1914,0.0],[145.3,-42.1897,3.7523],[145.3007,-42.1869,0.0],[145.2987,-42.1867,6.365]]],
[[[145.2865,-42.1874,0.0],[145.2854,-42.1866,0.1626],[145.2844,-42.1873,0.1626],[145.2859,-42.1881,0.0],[145.2865,-42.1874,0.0]]],
[[[145.1946,-42.196,0.0],[145.1946,-42.1959,0.0],[145.1945,-42.196,0.0],[145.1946,-42.196,0.0]]],
[[[145.1662,-42.1957,0.0],[145.1659,-42.1953,0.0],[145.1665,-42.1965,0.3556],[145.1665,-42.1959,0.0],[145.1662,-42.1957,0.0]]],
[[[145.2902,-42.1844,1.8514],[145.2903,-42.1849,0.0],[145.2909,-42.1848,0.0],[145.2905,-42.1843,1.8514],[145.2902,-42.1844,1.8514]]],
[[[145.2949,-42.1822,0.0],[145.295,-42.1826,0.0],[145.2953,-42.1826,0.0],[145.2952,-42.1821,0.0],[145.2949,-42.1822,0.0]]],
[[[145.3009,-42.1819,0.0],[145.2992,-42.181,0.0],[145.298,-42.1815,0.0],[145.2999,-42.1827,2.8094],[145.3009,-42.1819,0.0]]],
[[[145.3001,-42.181,0.0],[145.3016,-42.1812,0.0],[145.3018,-42.1807,0.0],[145.3009,-42.1803,0.0],[145.3001,-42.181,0.0]]],
[[[145.1477,-41.9136,0.7363],[145.1478,-41.9137,0.7363],[145.1479,-41.9135,0.7363],[145.1478,-41.9136,0.7363],[145.1477,-41.9136,0.7363]]],
[[[145.132,-41.9049,1.5391],[145.1322,-41.9049,1.5391],[145.1323,-41.9048,1.5391],[145.132,-41.9049,1.5391]]],
[[[145.1067,-41.8781,0.0],[145.1065,-41.8783,0.0],[145.107,-41.8785,32.2016],[145.1071,-41.8779,34.7867],[145.1067,-41.8781,0.0]]],
[[[145.0957,-41.8726,7.4098],[145.0958,-41.8728,7.4098],[145.0963,-41.873,0.0],[145.0959,-41.8725,7.4098],[145.0957,-41.8726,7.4098]]],
[[[145.0737,-41.8564,0.0],[145.0739,-41.8568,0.0],[145.0746,-41.8567,1.309],[145.0742,-41.8564,1.309],[145.0737,-41.8564,0.0]]],
[[[145.0679,-41.8443,2.3408],[145.068,-41.8445,2.3408],[145.0685,-41.8444,2.3408],[145.0681,-41.8442,2.3408],[145.0679,-41.8443,2.3408]]],
[[[145.0683,-41.8419,3.7609],[145.0682,-41.8423,3.7609],[145.0684,-41.8424,3.7609],[145.0686,-41.842,3.7609],[145.0683,-41.8419,3.7609]]],
[[[145.0335,-41.815,0.0],[145.034,-41.8153,0.0],[145.0342,-41.8151,0.0],[145.0335,-41.8148,0.0],[145.0335,-41.815,0.0]]],
[[[145.0338,-41.8144,2.4592],[145.0337,-41.8142,2.4592],[145.0335,-41.8144,2.4592],[145.0337,-41.8145,2.4592],[145.0338,-41.8144,2.4592]]],
[[[144.9362,-41.7255,0.3143],[144.9362,-41.7259,0.3143],[144.9367,-41.7258,0.3143],[144.9365,-41.7255,0.3143],[144.9362,-41.7255,0.3143]]],
[[[144.9346,-41.7253,0.6617],[144.9339,-41.7249,0.241],[144.9337,-41.7253,0.241],[144.935,-41.7255,0.6617],[144.9346,-41.7253,0.6617]]],
[[[144.9448,-41.7185,0.6144],[144.9449,-41.719,0.6144],[144.9454,-41.7187,0.6144],[144.9451,-41.7185,0.6144],[144.9448,-41.7185,0.6144]]],
[[[144.9362,-41.7253,0.3143],[144.937,-41.7253,0.3143],[144.9378,-41.725,0.3143],[144.9352,-41.7251,0.6617],[144.9362,-41.7253,0.3143]]],
[[[144.9159,-41.7097,0.0],[144.9161,-41.71,0.0],[144.9165,-41.71,0.0],[144.9163,-41.7096,0.0],[144.9159,-41.7097,0.0]]],
[[[144.9119,-41.7092,0.0],[144.9116,-41.7092,0.0],[144.9114,-41.7094,0.0],[144.9118,-41.7094,0.0],[144.9119,-41.7092,0.0]]],
[[[144.9144,-41.7075,0.0],[144.9143,-41.7077,0.0],[144.9148,-41.7074,0.0],[144.9146,-41.7074,0.0],[144.9144,-41.7075,0.0]]],
[[[145.1802,-42.2092,0.0],[145.1806,-42.2096,0.0],[145.181,-42.2091,3.8226],[145.1805,-42.2089,0.0],[145.1802,-42.2092,0.0]]]]}
,"properties": {"GID_2": "AUS.9.29_1","GID_0": "AUS","country": "Australia","GID_1": "AUS.9_1","state": "Tasmania","NL_NAME_1": "NA","county": "WestCoast","VARNAME_2": "NA","NL_NAME_2": "NA","TYPE_2": "Municipality","ENGTYPE_2": "Municipality","CC_2": "65610","HASC_2": "AU.TS.WC","name": "WestCoast.county","area_km2": 9574.778,"hist_schema_id": "Elevation0-9000","hist_area_km2": {"0": 128.067,"25": 430.002,"50": 429.836,"75": 427.641,"100": 451.027,"125": 490.043,"150": 562.911,"175": 630.58,"200": 590.533,"225": 550.88,"250": 406.566,"275": 335.639,"300": 293.846,"325": 272.724,"350": 235.003,"375": 226.617,"400": 221.399,"425": 203.582,"450": 187.869,"475": 178.782,"500": 169.743,"525": 164.015,"550": 145.128,"575": 131.775,"600": 123.365,"625": 123.547,"650": 115.85,"675": 106.09,"700": 97.72,"725": 95.956,"750": 89.573,"775": 85.732,"800": 82.764,"825": 81.966,"850": 84.896,"875": 76.399,"900": 72.432,"925": 66.11,"950": 63.653,"975": 60.939,"1000": 53.029,"1025": 47.722,"1050": 42.006,"1075": 33.455,"1100": 27.522,"1125": 20.033,"1150": 16.637,"1175": 10.826,"1200": 9.011,"1225": 6.408,"1250": 5.398,"1275": 3.408,"1300": 2.066,"1325": 2.223,"1350": 1.183,"1375": 0.93,"1400": 0.836,"1425": 0.442,"1450": 0.221,"1475": 0.126,"1500": 0.079}}}