{"type": "Feature","bbox": [116.1896,-32.8159,116.9438,-32.2359],"geometry": {"type": "MultiPolygon","coordinates": [[[[116.1896,-32.2874,322.5687],[116.1957,-32.2946,300.5989],[116.2139,-32.3233,320.3904],[116.2255,-32.343,333.2829],[116.227,-32.3495,337.6694],[116.231,-32.3561,327.1677],[116.2521,-32.3817,322.1249],[116.2633,-32.3925,323.3737],[116.2637,-32.4981,286.4344],[116.3596,-32.4981,318.5241],[116.3657,-32.5026,309.7755],[116.3759,-32.5132,297.5128],[116.3916,-32.5252,296.8408],[116.4002,-32.5354,311.5608],[116.4402,-32.5742,319.034],[116.4766,-32.6282,346.1811],[116.4817,-32.6315,376.2329],[116.4827,-32.6349,358.9531],[116.4984,-32.6535,279.1565],[116.5059,-32.6583,273.7999],[116.5102,-32.6637,263.9611],[116.521,-32.6822,272.5753],[116.5224,-32.691,253.3916],[116.5409,-32.7049,251.9114],[116.5483,-32.7161,272.7372],[116.5691,-32.7336,273.3125],[116.5756,-32.7512,240.3636],[116.5907,-32.7718,226.3486],[116.5947,-32.7709,228.9041],[116.5985,-32.7741,222.4578],[116.6053,-32.7694,239.3622],[116.6168,-32.7725,225.7861],[116.6256,-32.7714,226.4161],[116.6342,-32.7775,228.8393],[116.6396,-32.7775,229.8908],[116.6454,-32.782,226.4421],[116.6516,-32.783,227.2487],[116.6543,-32.7818,229.6997],[116.6543,-32.7925,263.2857],[116.6529,-32.7927,263.2857],[116.6542,-32.7999,244.8129],[116.6567,-32.8032,257.0778],[116.6583,-32.8159,309.3795],[116.6697,-32.8159,276.521],[116.6699,-32.7999,311.7059],[116.7284,-32.8013,274.6775],[116.7286,-32.8114,253.6901],[116.7575,-32.8112,278.7201],[116.7625,-32.8129,280.6766],[116.7628,-32.7875,276.3688],[116.7715,-32.7935,248.0505],[116.7905,-32.7933,263.4219],[116.7905,-32.8014,274.0592],[116.7948,-32.8014,280.3152],[116.7947,-32.7849,316.6488],[116.8301,-32.7658,290.8106],[116.878,-32.7662,338.6783],[116.8779,-32.7617,328.2472],[116.8788,-32.7635,321.7136],[116.8901,-32.7635,296.8024],[116.909,-32.7631,312.83],[116.909,-32.7613,322.4846],[116.9435,-32.761,341.6103],[116.9438,-32.7565,335.8538],[116.9403,-32.7565,336.9164],[116.9402,-32.745,327.1514],[116.934,-32.7394,325.211],[116.934,-32.7316,305.2636],[116.9292,-32.7316,308.3474],[116.9292,-32.7255,299.3841],[116.9237,-32.7255,299.809],[116.9236,-32.706,295.6794],[116.916,-32.706,299.009],[116.916,-32.6846,289.0646],[116.9117,-32.6844,293.9754],[116.9124,-32.6669,264.3497],[116.9079,-32.6664,263.0352],[116.907,-32.6556,273.7692],[116.9043,-32.6555,272.8685],[116.9064,-32.647,300.7457],[116.91,-32.6041,295.267],[116.9169,-32.581,308.2348],[116.9121,-32.5738,310.629],[116.8897,-32.56,352.4064],[116.8867,-32.5556,338.02],[116.885,-32.5478,322.3001],[116.8787,-32.5395,318.0901],[116.8643,-32.5335,316.882],[116.8603,-32.5303,301.0998],[116.8558,-32.5213,291.9582],[116.8469,-32.5145,297.4636],[116.8263,-32.4901,277.8488],[116.8234,-32.4885,278.7469],[116.7917,-32.487,283.5429],[116.7761,-32.4925,281.2831],[116.7704,-32.4831,279.2806],[116.7613,-32.487,301.666],[116.7527,-32.4836,304.8384],[116.74,-32.4875,302.7635],[116.7281,-32.4839,315.9127],[116.7097,-32.4847,303.5894],[116.704,-32.4867,314.4815],[116.5349,-32.4867,391.2533],[116.5343,-32.3576,314.8466],[116.3838,-32.3574,304.8562],[116.3839,-32.2364,357.1329],[116.2249,-32.2359,328.9335],[116.1896,-32.2874,322.5687]]]]}
,"properties": {"GID_2": "AUS.11.126_1","GID_0": "AUS","country": "Australia","GID_1": "AUS.11_1","state": "WesternAustralia","NL_NAME_1": "NA","county": "Wandering","VARNAME_2": "NA","NL_NAME_2": "NA","TYPE_2": "Shire","ENGTYPE_2": "Shire","CC_2": "58680","HASC_2": "AU.WA.WD","name": "Wandering.county","area_km2": 1900.318,"hist_schema_id": "Elevation0-9000","hist_area_km2": {"225": 16.368,"250": 137.99,"275": 271.347,"300": 332.431,"325": 367.356,"350": 378.466,"375": 270.166,"400": 101.965,"425": 16.657,"450": 4.422,"475": 2.022,"500": 0.627,"525": 0.358,"550": 0.107,"575": 0.036}}}