{"type":"Feature","properties":{"GID_2":"AUS.8.54_1","GID_0":"AUS","country":"Australia","GID_1":"AUS.8_1","state":"SouthAustralia","NL_NAME_1":"NA","county":"Salisbury","VARNAME_2":"NA","NL_NAME_2":"NA","TYPE_2":"City","ENGTYPE_2":"City","CC_2":"47140","HASC_2":"AU.SA.SA","name":"Salisbury.county"},
"geometry":{"type": "MultiPolygon","coordinates": [[[[138.5173,-34.7324,1.0494],[138.5254,-34.7375,2.5452],[138.5276,-34.7374,3.7677],[138.5297,-34.7349,3.9488],[138.5311,-34.7358,3.3234],[138.5349,-34.7406,2.732],[138.5298,-34.7452,0.0],[138.5303,-34.7452,0.0],[138.5326,-34.7443,2.0802],[138.5414,-34.753,4.0471],[138.541,-34.7546,2.2774],[138.5465,-34.7651,0.0],[138.5465,-34.7667,0.0],[138.5453,-34.7666,0.0],[138.5468,-34.7698,3.2061],[138.545,-34.7715,2.7902],[138.5462,-34.7748,4.3813],[138.5442,-34.7735,1.0312],[138.5435,-34.7748,1.0213],[138.549,-34.7853,3.0698],[138.5529,-34.7874,2.0613],[138.5513,-34.7884,1.6332],[138.5539,-34.7899,3.8062],[138.5517,-34.7905,1.765],[138.5512,-34.7931,3.2842],[138.5539,-34.7979,3.0783],[138.5522,-34.8008,0.0],[138.5495,-34.8014,0.0],[138.5475,-34.8095,0.0],[138.5587,-34.8227,2.6424],[138.5662,-34.8248,0.1814],[138.5754,-34.8321,1.4918],[138.5879,-34.8315,2.4095],[138.587,-34.8328,2.4095],[138.5907,-34.8319,4.0434],[138.6247,-34.8385,37.6675],[138.6283,-34.8409,47.9215],[138.6274,-34.8421,57.6854],[138.6324,-34.8444,56.3524],[138.6395,-34.8429,65.1359],[138.6452,-34.8439,67.0082],[138.6468,-34.8409,67.1593],[138.669,-34.8398,89.043],[138.6663,-34.8082,108.8258],[138.6731,-34.8078,140.244],[138.6718,-34.7921,109.2657],[138.6849,-34.7915,191.474],[138.6845,-34.7861,165.5182],[138.6908,-34.7858,204.7481],[138.69,-34.7755,131.3848],[138.6874,-34.7719,134.2754],[138.6918,-34.7656,153.8378],[138.6939,-34.7659,159.6879],[138.6933,-34.7634,172.5504],[138.6976,-34.7596,181.7647],[138.6992,-34.7548,84.8955],[138.6806,-34.7557,56.0273],[138.6779,-34.7529,56.4999],[138.6749,-34.7524,55.045],[138.6718,-34.7546,49.9924],[138.671,-34.7529,51.1139],[138.6683,-34.7524,49.1865],[138.6679,-34.7546,47.3491],[138.6627,-34.7536,47.1896],[138.6576,-34.7556,43.2923],[138.6557,-34.7544,40.7214],[138.6541,-34.7569,43.6574],[138.6441,-34.7508,30.8548],[138.6668,-34.7139,28.4619],[138.6161,-34.6922,17.7914],[138.594,-34.7268,10.6177],[138.5773,-34.7166,9.2907],[138.5778,-34.7182,9.9085],[138.5173,-34.7324,1.0494]]]]}}