{"type": "Feature","bbox": [130.8151,-12.4694,130.9385,-12.3303],"geometry": {"type": "MultiPolygon","coordinates": [[[[130.8501,-12.4416,4.5624],[130.8501,-12.4415,4.5624],[130.8498,-12.4415,4.5624],[130.8499,-12.4416,4.5624],[130.8501,-12.4416,4.5624]]],
[[[130.8497,-12.4415,4.5624],[130.8496,-12.4414,4.5624],[130.8494,-12.4414,4.5624],[130.8495,-12.4415,4.5624],[130.8497,-12.4415,4.5624]]],
[[[130.8491,-12.4417,4.5624],[130.8501,-12.4388,6.5352],[130.8553,-12.4421,4.3162],[130.8646,-12.4429,6.878],[130.8662,-12.4403,5.2121],[130.8638,-12.439,4.9281],[130.8639,-12.4325,6.0526],[130.8864,-12.4323,16.2083],[130.8866,-12.4474,5.3822],[130.8884,-12.4469,6.0355],[130.8943,-12.4393,9.2701],[130.8961,-12.4401,6.3449],[130.8934,-12.4467,5.5058],[130.9027,-12.4467,22.9085],[130.9027,-12.4509,9.7249],[130.9086,-12.4487,7.9908],[130.9162,-12.4487,8.1093],[130.9162,-12.4466,9.6512],[130.9274,-12.4465,26.5879],[130.9273,-12.4399,37.9628],[130.931,-12.44,37.4659],[130.9309,-12.4359,37.0294],[130.9234,-12.4331,37.0075],[130.9227,-12.4099,39.413],[130.9382,-12.4096,23.4471],[130.9385,-12.3655,6.8574],[130.937,-12.3655,3.4223],[130.9366,-12.3426,0.0],[130.9261,-12.3448,2.5496],[130.9214,-12.3442,5.7547],[130.9244,-12.3431,1.7354],[130.9094,-12.3379,1.1815],[130.907,-12.3355,1.5466],[130.8954,-12.3303,4.9645],[130.8882,-12.3405,18.839],[130.8829,-12.3428,0.0],[130.8705,-12.3554,4.2305],[130.8638,-12.3669,4.9072],[130.8611,-12.3758,1.9531],[130.8529,-12.374,0.0],[130.8512,-12.3759,8.9104],[130.8478,-12.3761,0.0],[130.8457,-12.3792,1.2155],[130.8421,-12.3789,1.2823],[130.8412,-12.381,6.6484],[130.8435,-12.3871,4.8746],[130.8487,-12.3906,2.9472],[130.8458,-12.4026,4.3153],[130.8421,-12.4066,2.7283],[130.8432,-12.4078,7.7081],[130.8397,-12.4079,0.0],[130.8377,-12.4116,2.9114],[130.8287,-12.4061,0.0],[130.8219,-12.4045,0.0],[130.8171,-12.4061,1.4507],[130.8164,-12.4079,9.1713],[130.8196,-12.4146,0.0],[130.8282,-12.4116,3.2587],[130.8356,-12.4269,5.2976],[130.8316,-12.4389,8.1751],[130.8321,-12.443,5.7653],[130.8279,-12.4493,4.7061],[130.8231,-12.4472,0.0],[130.8218,-12.4504,0.9957],[130.8192,-12.4504,0.0],[130.8186,-12.4517,0.0],[130.8204,-12.4509,0.9957],[130.8205,-12.4522,2.0531],[130.8154,-12.453,5.5073],[130.8151,-12.4542,5.5073],[130.8183,-12.4557,13.6487],[130.8185,-12.4599,1.6144],[130.8211,-12.4619,0.0],[130.8233,-12.4621,0.0],[130.821,-12.4616,0.0],[130.8209,-12.4603,5.2699],[130.8261,-12.4603,8.9756],[130.8266,-12.4615,0.0],[130.8326,-12.4598,16.7343],[130.8396,-12.4673,0.0],[130.8438,-12.4694,14.3147],[130.8478,-12.4657,17.6677],[130.848,-12.4629,9.0741],[130.8513,-12.4629,0.0],[130.8513,-12.4592,0.0],[130.8492,-12.459,0.0],[130.8504,-12.4564,1.3053],[130.8488,-12.4559,2.7295],[130.8527,-12.4484,1.6116],[130.8492,-12.4454,4.8349],[130.8491,-12.4417,4.5624]]]]}
,"properties": {"GID_2": "AUS.6.6_1","GID_0": "AUS","country": "Australia","GID_1": "AUS.6_1","state": "NorthernTerritory","NL_NAME_1": "NA","county": "Darwin","VARNAME_2": "NA","NL_NAME_2": "NA","TYPE_2": "City","ENGTYPE_2": "City","CC_2": "71000","HASC_2": "AU.NT.DR","name": "Darwin.county","area_km2": 112.19445,"hist_schema_id": "Elevation0-9000","hist_area_km2": {"0": 39.8641,"25": 69.36945,"50": 2.9609}}}