{"type":"Feature","properties":{"GID_2":"AUS.5.85_1","GID_0":"AUS","country":"Australia","GID_1":"AUS.5_1","state":"NewSouthWales","NL_NAME_1":"NA","county":"LiverpoolPlains","VARNAME_2":"NA","NL_NAME_2":"NA","TYPE_2":"Area","ENGTYPE_2":"Area","CC_2":"14920","HASC_2":"NA","name":"LiverpoolPlains.county"},
"geometry":{"type": "MultiPolygon","coordinates": [[[[149.913,-31.4534,369.886],[149.8965,-31.4511,379.7852],[149.8829,-31.452,403.9288],[149.8669,-31.5373,439.7816],[149.8745,-31.5383,431.868],[149.876,-31.535,419.014],[149.8926,-31.5371,403.4606],[149.8904,-31.5353,403.6631],[149.9044,-31.5369,399.003],[149.9036,-31.5386,399.4205],[149.9061,-31.5433,401.7967],[149.9032,-31.5456,402.8639],[149.9108,-31.5516,405.2056],[149.9148,-31.5595,408.51],[149.9132,-31.5611,409.4627],[149.9148,-31.5631,410.6755],[149.9128,-31.5636,411.1176],[149.9123,-31.5665,412.7322],[149.9147,-31.5711,414.613],[149.9137,-31.5729,417.6248],[149.9113,-31.5727,416.1405],[149.9117,-31.5775,420.1196],[149.9081,-31.5767,420.3076],[149.907,-31.5791,422.1773],[149.9042,-31.5793,423.4625],[149.9017,-31.5842,427.6359],[149.8992,-31.5845,427.9774],[149.8929,-31.5926,434.3188],[149.8927,-31.5961,436.4932],[149.8968,-31.6025,442.5168],[149.8959,-31.6052,445.2268],[149.8972,-31.608,449.0246],[149.8952,-31.6093,451.0217],[149.8971,-31.6111,449.4904],[149.8954,-31.6133,451.6978],[149.899,-31.6178,454.7618],[149.8966,-31.6201,457.6523],[149.9011,-31.6244,462.8347],[149.8721,-31.6189,545.5634],[149.8636,-31.6178,582.5905],[149.8633,-31.6198,571.2038],[149.8409,-31.6161,743.0499],[149.8436,-31.6204,855.1737],[149.8497,-31.624,831.1398],[149.8514,-31.6287,797.3639],[149.8582,-31.6318,776.6074],[149.8656,-31.638,890.2587],[149.8631,-31.6434,886.28],[149.8665,-31.6515,783.2939],[149.8647,-31.6551,771.7784],[149.8636,-31.6674,990.9152],[149.8663,-31.679,1031.5187],[149.8702,-31.683,973.5955],[149.8778,-31.6833,951.8439],[149.8797,-31.6925,1006.2787],[149.8901,-31.6956,995.7539],[149.8926,-31.6985,999.0864],[149.8973,-31.6986,925.77739999999994],[149.9067,-31.7072,840.0492],[149.9194,-31.7063,934.2719],[149.9293,-31.6982,1067.2837],[149.9322,-31.7019,998.032],[149.9319,-31.7037,1007.0523],[149.9393,-31.7065,1111.3538],[149.9394,-31.7097,1102.3054],[149.9417,-31.711,1092.9722],[149.9452,-31.709,1109.2926],[149.9444,-31.7064,1093.9844],[149.947,-31.7023,1066.2242],[149.9583,-31.7002,1024.6199],[149.9655,-31.701,1052.8806],[149.9718,-31.7061,1060.3606],[149.9716,-31.7095,1023.9097],[149.9809,-31.7188,1064.8378],[149.9819,-31.7231,1051.8463],[149.9797,-31.7259,1043.0763],[149.9802,-31.7277,1046.0653],[149.9841,-31.7279,1030.8043],[149.9937,-31.7218,795.1215],[149.9905,-31.714,741.0815],[149.9958,-31.7147,872.0473],[150.0027,-31.7076,1111.3817],[150.0044,-31.7026,1103.5341],[150.01,-31.707,1122.3398],[150.0139,-31.7048,1071.2689],[150.0137,-31.6976,1071.0072],[150.0275,-31.6933,1059.2065],[150.0283,-31.6852,945.8992],[150.0309,-31.6915,1037.7957],[150.0385,-31.6943,996.6416],[150.0402,-31.6931,1036.6918],[150.04,-31.691,963.5892],[150.0476,-31.6977,904.342],[150.0522,-31.698,1003.4612],[150.0506,-31.7007,1054.1576],[150.052,-31.7044,1010.4675],[150.0502,-31.7044,1101.5831],[150.0447,-31.7109,1112.6782],[150.0458,-31.7142,1116.303],[150.0515,-31.7212,1142.7443],[150.0541,-31.7218,1154.0681],[150.0576,-31.7197,1153.6794],[150.0751,-31.7399,1198.4617],[150.0787,-31.7417,1159.4111],[150.0871,-31.7423,1183.1746],[150.105,-31.7396,1216.3671],[150.1041,-31.743,1202.0217],[150.1104,-31.7459,1193.6781],[150.1156,-31.7529,1201.3582],[150.1247,-31.7539,1198.9862],[150.1272,-31.7596,1215.3571],[150.1256,-31.7628,1213.0098],[150.1351,-31.7685,1213.2085],[150.1517,-31.7659,1223.5422],[150.1614,-31.7796,1156.8762],[150.1628,-31.7843,1186.5089],[150.171,-31.7905,1132.2983],[150.1723,-31.795,1161.0298],[150.1774,-31.7982,1135.667],[150.1825,-31.7992,1157.6792],[150.1842,-31.8012,1169.0387],[150.1817,-31.8043,1186.4438],[150.1855,-31.8098,1127.8074],[150.1851,-31.8137,1153.1166],[150.1973,-31.8213,1163.0278],[150.1999,-31.8212,1103.5039],[150.1994,-31.8237,1178.7339],[150.2097,-31.8224,1125.1382],[150.2361,-31.8271,1097.2046],[150.2418,-31.8255,1171.6403],[150.2547,-31.8359,1205.4055],[150.2638,-31.8368,908.0693],[150.2724,-31.8415,907.1048],[150.2811,-31.844,943.991],[150.2858,-31.8427,975.8884],[150.2937,-31.8489,1055.2101],[150.2988,-31.8478,995.0724],[150.3066,-31.8427,1013.3873],[150.3063,-31.8378,944.1155],[150.3116,-31.8337,860.4344],[150.3199,-31.8321,877.8291],[150.3255,-31.8271,895.6465],[150.3346,-31.8254,935.6393],[150.3582,-31.8314,903.0182],[150.3615,-31.8384,910.819],[150.3677,-31.8425,872.8436],[150.3737,-31.8388,895.4346],[150.3767,-31.8417,808.4785],[150.3828,-31.842,797.8724],[150.3917,-31.8381,755.9646],[150.3978,-31.8389,801.8241],[150.4055,-31.8338,853.1344],[150.4107,-31.834,854.9452],[150.4163,-31.8399,812.7269],[150.4262,-31.8408,769.077],[150.4309,-31.843,853.1412],[150.4328,-31.8501,851.034],[150.4389,-31.8517,801.9559],[150.4431,-31.8548,817.9468],[150.4575,-31.8515,807.1937],[150.4709,-31.8397,795.8561],[150.4719,-31.8367,820.6028],[150.4823,-31.8315,822.0094],[150.4863,-31.8311,922.5722],[150.4914,-31.8345,934.8242],[150.4954,-31.8334,902.2211],[150.5062,-31.8344,814.3113],[150.5075,-31.8382,805.991],[150.5184,-31.8437,837.5162],[150.5249,-31.8439,951.2578],[150.5247,-31.8467,894.9374],[150.5278,-31.8501,937.997],[150.5325,-31.8511,995.0726],[150.5361,-31.8551,961.3419],[150.5466,-31.8582,949.0398],[150.5529,-31.8547,854.6205],[150.5542,-31.8494,937.084],[150.5636,-31.8468,884.4276],[150.5675,-31.8441,894.1985],[150.5732,-31.8463,988.1236],[150.5843,-31.8433,962.3916],[150.5942,-31.8467,957.0388],[150.5967,-31.8435,957.2543],[150.6039,-31.8416,1023.2527],[150.609,-31.8473,1093.0481],[150.6119,-31.8477,1077.325],[150.6276,-31.8381,1076.241],[150.6349,-31.8447,901.0423],[150.6469,-31.8421,881.6259],[150.6518,-31.8447,882.5639],[150.6601,-31.8422,997.7634],[150.6711,-31.8445,1008.6237],[150.6739,-31.8412,1023.0475],[150.679,-31.8423,993.3397],[150.6892,-31.839,822.8322],[150.6999,-31.8424,984.4835],[150.7033,-31.8415,1000.9794],[150.7065,-31.8383,1086.5583],[150.71,-31.8398,1049.3992],[150.7234,-31.8386,1223.7393],[150.7251,-31.8336,1163.7932],[150.723,-31.8275,1169.6818],[150.7271,-31.8251,1215.8357],[150.7302,-31.8206,1257.8595],[150.7288,-31.8203,1257.8595],[150.7302,-31.8137,1200.0168],[150.7241,-31.8123,1105.1896],[150.7129,-31.8047,1162.6333],[150.7166,-31.8012,1086.778],[150.7171,-31.7976,1208.7917],[150.7267,-31.7918,1134.2198],[150.7355,-31.79,1084.3497],[150.7386,-31.7793,840.6158],[150.7599,-31.7823,828.9306],[150.7624,-31.7704,1075.8665],[150.7666,-31.7708,1035.0231],[150.7673,-31.7673,970.8243],[150.7698,-31.7676,980.8082],[150.7705,-31.7643,922.0164],[150.779,-31.7656,697.564],[150.7805,-31.7576,838.1804],[150.7771,-31.7571,933.7076],[150.7896,-31.7475,763.1981],[150.7928,-31.7472,743.9731],[150.7928,-31.74,692.1534],[150.7958,-31.7423,691.5369],[150.7969,-31.7365,746.4408],[150.8023,-31.7332,919.6008],[150.8098,-31.7311,929.1068],[150.8139,-31.7325,967.2537],[150.818,-31.7312,945.2437],[150.8259,-31.7315,1018.3856],[150.8312,-31.7337,1027.1183],[150.8404,-31.7288,1163.7107],[150.849,-31.7305,1004.5664],[150.8521,-31.7166,924.7327],[150.8549,-31.717,944.1536],[150.8554,-31.7143,1007.9113],[150.8625,-31.7154,977.1068],[150.8658,-31.6993,1054.4199],[150.8711,-31.6992,990.8837],[150.8755,-31.697,884.1045],[150.8788,-31.7002,850.2574],[150.8865,-31.7022,763.3278],[150.8806,-31.6935,883.1581],[150.8799,-31.689,957.5953],[150.8868,-31.6888,937.572],[150.8892,-31.6969,724.3459],[150.8995,-31.6911,713.7474],[150.8958,-31.6814,920.2167],[150.904,-31.6816,705.3145],[150.9064,-31.6691,738.1246],[150.9108,-31.6697,683.99],[150.9107,-31.6677,714.9579],[150.8937,-31.6647,992.311],[150.9002,-31.6617,913.223],[150.9044,-31.6558,968.8251],[150.9087,-31.6552,956.9395],[150.9133,-31.6515,964.6677],[150.914,-31.6479,993.8723],[150.9301,-31.6501,749.0388],[150.932,-31.64,771.6632],[150.9541,-31.6438,1064.7828],[150.9594,-31.6431,1010.7678],[150.9724,-31.6469,1156.0131],[150.9775,-31.645,1077.8901],[150.9797,-31.6424,1023.8038],[150.9854,-31.6421,991.3651],[150.9963,-31.6384,1171.5261],[150.9991,-31.635,1170.0333],[150.9915,-31.6206,1074.6102],[150.9944,-31.6148,1145.4878],[150.9939,-31.612,1214.655],[150.9988,-31.6027,1362.8752],[150.9901,-31.5935,1322.3188],[150.9921,-31.5886,1365.2094],[150.9948,-31.588,1346.0054],[150.9931,-31.5792,1304.5363],[150.9951,-31.5756,1324.1606],[150.9834,-31.5706,1169.0682],[150.982,-31.564,1206.6394],[150.9797,-31.5622,1232.903],[150.9686,-31.5595,1132.0194],[150.9704,-31.551,985.6864],[150.9574,-31.5398,1055.4307],[150.9564,-31.5365,1018.6016],[150.9533,-31.5342,1057.514],[150.9491,-31.5337,1029.359],[150.9397,-31.5156,996.0509],[150.9206,-31.5131,884.1064],[150.9232,-31.5,842.5748],[150.9167,-31.499,749.4077],[150.9183,-31.4918,765.067],[150.9131,-31.491,749.1833],[150.9124,-31.487,726.9976],[150.9092,-31.4825,722.749],[150.909,-31.4703,746.3486],[150.9052,-31.4631,868.0809],[150.8995,-31.4563,963.8801],[150.8812,-31.4529,777.0356],[150.8777,-31.4403,700.5303],[150.872,-31.4382,808.8932],[150.8733,-31.4313,794.4429],[150.8673,-31.4304,775.6904],[150.868,-31.4271,710.9512],[150.8656,-31.4267,741.8331],[150.8662,-31.4236,700.8935],[150.8643,-31.4233,758.4977],[150.8655,-31.4177,659.5884],[150.8569,-31.4164,786.5333],[150.8573,-31.4142,816.772],[150.836,-31.4116,801.2957],[150.8373,-31.4057,918.8765],[150.8421,-31.4064,850.6823],[150.8423,-31.4051,881.4078],[150.8163,-31.4014,752.9518],[150.822,-31.3805,773.5412],[150.8195,-31.3801,787.8271],[150.8174,-31.3764,873.0608],[150.8188,-31.371,968.724],[150.8148,-31.3654,985.1804],[150.8192,-31.3661,836.6811],[150.8199,-31.3629,707.5985],[150.7912,-31.3588,731.6212],[150.7917,-31.3564,722.6846],[150.7879,-31.3559,733.2338],[150.7906,-31.3419,610.2346],[150.7843,-31.341,634.5956],[150.7854,-31.3353,615.9191],[150.7807,-31.3346,610.1986],[150.7813,-31.3316,591.0168],[150.7783,-31.3312,580.2054],[150.7776,-31.3348,605.5211],[150.7734,-31.3341,596.6526],[150.7748,-31.3276,575.1132],[150.787,-31.3294,571.3586],[150.7879,-31.3275,577.1094],[150.7897,-31.3275,569.203],[150.7897,-31.3171,546.3061],[150.7881,-31.3119,537.2986],[150.7896,-31.3087,531.2592],[150.7917,-31.3089,530.4761],[150.7947,-31.3056,517.1244],[150.778,-31.3029,519.6338],[150.7785,-31.3004,532.4741],[150.7821,-31.301,531.6461],[150.7838,-31.293,541.0574],[150.7852,-31.2845,564.9229],[150.7839,-31.2843,594.4813],[150.7845,-31.2815,538.1523],[150.7818,-31.2811,538.9897],[150.7847,-31.2687,471.2565],[150.7826,-31.2695,468.9576],[150.782,-31.2679,469.6932],[150.7802,-31.269,465.3351],[150.7791,-31.268,465.6933],[150.7768,-31.2717,463.9834],[150.7754,-31.2717,461.1347],[150.7777,-31.2603,500.2943],[150.7736,-31.2595,488.0665],[150.7743,-31.2559,531.093],[150.7717,-31.2555,590.1753],[150.7724,-31.2517,565.7022],[150.7684,-31.2511,609.0628],[150.769,-31.2475,539.2005],[150.7671,-31.2472,527.4093],[150.7678,-31.2436,516.5793],[150.776,-31.2449,507.0934],[150.7767,-31.2417,499.3578],[150.7795,-31.2421,497.6441],[150.7807,-31.2364,514.8636],[150.7535,-31.2325,534.6877],[150.753,-31.2348,532.1925],[150.7498,-31.2344,501.0328],[150.7547,-31.2101,579.1497],[150.7279,-31.2062,842.6257],[150.7306,-31.1929,590.694],[150.726,-31.1912,599.0673],[150.7188,-31.1833,553.6029],[150.7089,-31.1818,546.4476],[150.7028,-31.185,625.0986],[150.6973,-31.1827,700.4475],[150.6936,-31.1776,718.8588],[150.6917,-31.1784,723.0861],[150.6922,-31.176,686.4095],[150.6831,-31.1687,677.1288],[150.6828,-31.1596,623.0807],[150.6793,-31.1579,671.902],[150.6761,-31.1503,701.5529],[150.6712,-31.144,679.6179],[150.6638,-31.1368,775.7196],[150.66,-31.1371,814.2836],[150.6605,-31.1345,724.7416],[150.6527,-31.1313,818.9564],[150.649,-31.1242,872.5251],[150.6468,-31.1261,844.1368],[150.6405,-31.1248,792.9795],[150.6376,-31.1188,755.2628],[150.6398,-31.1154,773.6362],[150.6369,-31.1112,784.2852],[150.6307,-31.1103,668.9317],[150.6317,-31.1052,806.0783],[150.6221,-31.0958,781.0632],[150.6189,-31.0873,746.7234],[150.6151,-31.0855,696.0824],[150.5924,-31.0822,604.8842],[150.5809,-31.1412,373.2662],[150.5905,-31.1425,412.9317],[150.5895,-31.1473,373.3288],[150.5797,-31.1471,352.4754],[150.5714,-31.2082,384.195],[150.5867,-31.2104,469.2247],[150.5855,-31.2176,380.1584],[150.5809,-31.2183,360.8911],[150.5802,-31.2223,346.0815],[150.569,-31.2208,337.3733],[150.5695,-31.2184,341.8168],[150.562,-31.2173,339.6591],[150.5605,-31.2253,320.5517],[150.5642,-31.2258,324.2988],[150.5623,-31.2359,331.2521],[150.5838,-31.2285,338.1605],[150.5737,-31.2814,489.9064],[150.5504,-31.2781,461.6085],[150.549,-31.2854,337.4754],[150.5508,-31.2857,350.0955],[150.5505,-31.2895,338.2219],[150.5468,-31.3096,309.9377],[150.5516,-31.3103,310.1411],[150.5499,-31.3192,307.9229],[150.5481,-31.319,307.0715],[150.5461,-31.3292,308.9159],[150.5377,-31.3281,307.7465],[150.5346,-31.3431,309.2579],[150.5499,-31.344,315.8065],[150.547,-31.3575,314.3496],[150.5445,-31.3571,314.3219],[150.5433,-31.3629,311.8367],[150.5182,-31.3583,307.1373],[150.5167,-31.3667,309.0346],[150.5057,-31.3673,307.3325],[150.5076,-31.3569,305.647],[150.498,-31.3556,305.6237],[150.4988,-31.351,304.2636],[150.4855,-31.3492,303.7599],[150.4842,-31.3562,304.1035],[150.4683,-31.354,302.3547],[150.4696,-31.347,301.7271],[150.4195,-31.34,294.6205],[150.4195,-31.3429,295.3893],[150.4228,-31.3435,296.6541],[150.4296,-31.3519,295.2634],[150.4273,-31.3538,296.6132],[150.4268,-31.3577,296.0827],[150.4344,-31.3654,296.3057],[150.4326,-31.3674,298.8721],[150.4333,-31.3744,298.6563],[150.4318,-31.3781,298.4716],[150.4334,-31.3805,299.6893],[150.4296,-31.3844,302.1346],[150.4342,-31.3861,301.0659],[150.4308,-31.3888,300.6544],[150.4319,-31.3907,300.4435],[150.4339,-31.3908,300.8936],[150.4346,-31.3933,303.0524],[150.4189,-31.391,303.9785],[150.4177,-31.3976,311.954],[150.3825,-31.3927,347.3086],[150.3837,-31.3861,341.4104],[150.3704,-31.3842,312.6823],[150.3707,-31.3823,309.3878],[150.3671,-31.3818,307.2424],[150.3663,-31.3865,308.8417],[150.3519,-31.3845,306.5944],[150.351,-31.3893,307.2508],[150.3386,-31.3876,308.3119],[150.3389,-31.3862,307.9513],[150.3034,-31.3813,307.2597],[150.3042,-31.3773,306.3149],[150.2857,-31.375,304.179],[150.2859,-31.3738,304.1463],[150.238,-31.3672,307.6976],[150.2372,-31.3712,308.7277],[150.2265,-31.3697,309.05],[150.2271,-31.3664,308.0128],[150.2003,-31.3629,328.739],[150.2017,-31.3541,328.383],[150.1929,-31.353,347.3525],[150.192,-31.3584,351.4272],[150.161,-31.355,456.2475],[150.1633,-31.3415,389.7502],[150.1589,-31.341,386.4207],[150.1609,-31.3291,351.9505],[150.1568,-31.3286,354.1192],[150.1594,-31.3138,321.4785],[150.1515,-31.3128,318.4198],[150.153,-31.3044,309.2597],[150.1487,-31.3038,310.275],[150.1579,-31.2524,294.5],[150.1545,-31.2519,294.5],[150.1563,-31.2423,294.5],[150.1633,-31.2433,294.5],[150.1653,-31.233,294.5],[150.1597,-31.2323,296.4875],[150.1585,-31.2377,294.5],[150.153,-31.2369,294.5],[150.1535,-31.2342,296.413],[150.1496,-31.2337,296.8469],[150.1489,-31.2373,294.5],[150.1448,-31.2367,294.5],[150.1477,-31.2252,299.7876],[150.1383,-31.2239,299.2558],[150.1346,-31.2443,294.5],[150.1034,-31.24,298.823],[150.0964,-31.2783,301.9063],[150.095,-31.2781,301.9063],[150.0914,-31.2979,302.9407],[150.0865,-31.2973,303.7068],[150.0788,-31.3381,315.1085],[150.0399,-31.3328,321.6957],[150.0413,-31.325,317.8972],[150.0066,-31.3208,329.5742],[150.0056,-31.3262,334.6158],[149.9946,-31.3248,337.9025],[149.9867,-31.3293,348.2288],[149.9987,-31.3446,397.718],[149.9958,-31.3601,456.7547],[149.9992,-31.3616,446.9094],[149.9881,-31.4274,415.3548],[150.0044,-31.4296,385.0807],[150.0023,-31.4456,402.8305],[149.9863,-31.4544,415.3982],[149.9704,-31.4582,393.4755],[149.9444,-31.4551,372.6693],[149.9377,-31.4569,373.1915],[149.913,-31.4534,369.886]]]]}}