{"type":"Feature","properties":{"GID_2":"AUS.7.38_1","GID_0":"AUS","country":"Australia","GID_1":"AUS.7_1","state":"Queensland","NL_NAME_1":"NA","county":"Logan","VARNAME_2":"NA","NL_NAME_2":"NA","TYPE_2":"City","ENGTYPE_2":"City","CC_2":"34590","HASC_2":"AU.QL.LG","name":"Logan.county"},
"geometry":{"type": "MultiPolygon","coordinates": [[[[152.9407,-27.6287,51.8192],[152.9374,-27.6432,69.5522],[152.9247,-27.6577,82.2628],[152.9315,-27.6661,79.9237],[152.9235,-27.7076,136.8183],[152.8907,-27.7036,110.4655],[152.8828,-27.7474,185.9129],[152.8746,-27.7463,100.5473],[152.8733,-27.7534,94.4323],[152.8579,-27.7511,217.4528],[152.8568,-27.7573,145.8746],[152.836,-27.7557,133.623],[152.8339,-27.7527,115.5937],[152.8346,-27.7476,122.9976],[152.8293,-27.7468,90.604],[152.8282,-27.7527,122.2751],[152.823,-27.752,141.8712],[152.8223,-27.7564,153.7473],[152.8114,-27.7549,130.6442],[152.8111,-27.759,143.9329],[152.808,-27.7587,134.5686],[152.8033,-27.7856,329.8134],[152.8114,-27.7868,253.4109],[152.8118,-27.7843,261.6718],[152.8219,-27.785,305.5397],[152.8218,-27.7891,279.427],[152.8257,-27.7981,252.575],[152.8252,-27.8066,321.5077],[152.8265,-27.8075,385.2385],[152.825,-27.8093,324.2261],[152.8274,-27.8097,306.0954],[152.8264,-27.8151,233.2381],[152.8164,-27.8136,430.9561],[152.8141,-27.8262,334.2646],[152.804,-27.8249,291.0548],[152.8027,-27.8319,231.1169],[152.8006,-27.8316,198.5286],[152.7999,-27.8348,172.0637],[152.8015,-27.8357,175.6548],[152.7993,-27.8392,160.4601],[152.8008,-27.8392,160.4601],[152.8018,-27.8424,160.6701],[152.8007,-27.8442,149.7754],[152.8055,-27.8456,133.1328],[152.8078,-27.8441,141.6962],[152.8092,-27.8456,145.3473],[152.8085,-27.847,124.6631],[152.8122,-27.8473,122.355],[152.8118,-27.8487,110.8796],[152.8137,-27.849,117.8775],[152.8141,-27.8506,113.9858],[152.8172,-27.8485,106.5331],[152.8169,-27.8514,99.3509],[152.8136,-27.8552,94.0947],[152.8161,-27.8562,92.9433],[152.815,-27.8582,91.8267],[152.8197,-27.8589,109.2179],[152.8193,-27.8653,82.027],[152.8224,-27.8642,92.8318],[152.8246,-27.8665,79.0778],[152.8243,-27.8637,88.343],[152.8276,-27.8659,70.8328],[152.8302,-27.8648,67.912],[152.8351,-27.8699,77.1952],[152.8396,-27.8672,59.469],[152.8394,-27.8649,66.8934],[152.841,-27.8646,54.9072],[152.8441,-27.8685,61.8352],[152.847,-27.8682,69.678],[152.8487,-27.8659,58.0695],[152.8529,-27.8659,57.6477],[152.856,-27.862,52.193],[152.8556,-27.8601,51.3974],[152.8596,-27.8616,55.9622],[152.863,-27.8604,62.4222],[152.8591,-27.8578,60.1824],[152.8611,-27.8569,48.9292],[152.8717,-27.8545,50.768],[152.875,-27.8556,51.9096],[152.8749,-27.8529,51.2061],[152.8707,-27.8528,44.8334],[152.8706,-27.8514,44.8334],[152.8725,-27.8504,38.8915],[152.8804,-27.8518,37.8972],[152.8811,-27.8483,35.6857],[152.8928,-27.8505,36.1031],[152.8915,-27.854,35.4014],[152.8949,-27.854,34.2732],[152.8954,-27.8567,42.8593],[152.8974,-27.8576,32.7907],[152.9,-27.8531,30.2107],[152.9182,-27.8487,29.0388],[152.9242,-27.8422,28.4775],[152.9308,-27.8398,29.9403],[152.9462,-27.8429,32.8331],[152.9447,-27.8447,28.8145],[152.9449,-27.8495,24.5232],[152.9507,-27.8521,24.4079],[152.9476,-27.8545,25.0911],[152.9517,-27.8569,25.884],[152.9426,-27.8621,27.8727],[152.9447,-27.8653,29.7234],[152.9439,-27.8683,27.581],[152.9461,-27.8774,29.7583],[152.9501,-27.882,30.0668],[152.9514,-27.886,32.4805],[152.9515,-27.8921,29.3335],[152.9501,-27.895,31.0368],[152.9471,-27.8964,34.3764],[152.9493,-27.9016,30.9766],[152.9534,-27.9011,30.5772],[152.9548,-27.903,30.3733],[152.9528,-27.9064,35.2409],[152.9556,-27.91,30.7591],[152.9549,-27.9116,35.7303],[152.9594,-27.9131,35.1844],[152.9597,-27.9214,33.2164],[152.9826,-27.9241,44.5787],[152.9845,-27.912,50.8281],[152.9906,-27.9151,76.0793],[152.9996,-27.9164,66.3549],[153.0043,-27.9195,63.9847],[153.0127,-27.9206,80.2702],[153.0136,-27.9064,89.8412],[153.0153,-27.9008,123.1112],[153.0175,-27.9001,130.8657],[153.0315,-27.9026,222.4477],[153.031,-27.9157,163.6606],[153.034,-27.9179,178.4134],[153.0361,-27.9169,202.6671],[153.04,-27.9229,242.4482],[153.0486,-27.9238,188.2936],[153.0474,-27.9356,181.2469],[153.0702,-27.9386,65.394],[153.0705,-27.9371,61.4529],[153.0752,-27.9357,60.4355],[153.0754,-27.9342,59.6528],[153.0809,-27.9326,54.7217],[153.0848,-27.9334,46.1832],[153.0883,-27.9309,47.0061],[153.0906,-27.9256,45.3161],[153.0956,-27.9236,43.7118],[153.0939,-27.9182,44.7695],[153.1007,-27.9179,42.5106],[153.102,-27.914,44.9137],[153.1064,-27.9112,44.2537],[153.1012,-27.907,41.3275],[153.1028,-27.9026,40.864],[153.0983,-27.901,41.5451],[153.0976,-27.8992,40.8802],[153.0993,-27.8915,41.1485],[153.1035,-27.8914,40.0773],[153.1011,-27.8879,39.7457],[153.1029,-27.8856,39.7519],[153.1115,-27.8833,40.125],[153.1041,-27.8813,46.1334],[153.1021,-27.8792,35.5068],[153.1032,-27.875,37.6517],[153.1009,-27.8721,43.0769],[153.1057,-27.8733,36.1097],[153.1072,-27.872,33.6143],[153.1072,-27.8689,33.5679],[153.1043,-27.868,36.2423],[153.1145,-27.8605,40.4602],[153.1227,-27.8662,32.6507],[153.1241,-27.8658,34.454],[153.1239,-27.8628,39.2239],[153.1341,-27.8627,30.3419],[153.1323,-27.8553,33.3677],[153.1374,-27.8524,31.7059],[153.1417,-27.8547,33.1279],[153.1454,-27.8532,35.297],[153.1525,-27.8587,30.4466],[153.1572,-27.8595,28.5048],[153.157,-27.8541,31.5],[153.1511,-27.8499,27.1128],[153.1581,-27.847,24.5312],[153.1608,-27.8435,27.6394],[153.1693,-27.8418,24.2479],[153.1688,-27.8386,24.4312],[153.1833,-27.8201,18.2615],[153.1802,-27.8146,18.636],[153.1775,-27.8137,14.2014],[153.1778,-27.8108,16.5358],[153.1757,-27.808,16.029],[153.1692,-27.8033,14.6891],[153.1691,-27.8004,24.7818],[153.1822,-27.795,12.7679],[153.184,-27.789,12.7184],[153.1929,-27.7801,8.5102],[153.1916,-27.7775,11.5698],[153.1876,-27.7771,9.5407],[153.1864,-27.7753,5.9005],[153.1936,-27.7729,7.4806],[153.1935,-27.7677,19.5326],[153.1981,-27.7641,7.3867],[153.1974,-27.7473,5.0167],[153.2017,-27.7398,4.237],[153.2101,-27.7397,5.194],[153.218,-27.7373,7.2785],[153.2199,-27.7345,5.2172],[153.2166,-27.727,6.2136],[153.2202,-27.7269,8.1288],[153.2266,-27.7232,4.4304],[153.2288,-27.7274,2.8043],[153.2328,-27.7236,2.3008],[153.221,-27.7184,4.8192],[153.2156,-27.7183,4.1426],[153.2131,-27.7143,7.866],[153.2272,-27.7154,5.6121],[153.2298,-27.7119,2.4953],[153.2336,-27.7108,3.228],[153.232,-27.7063,2.3926],[153.2362,-27.7037,2.2435],[153.2336,-27.6979,2.1853],[153.2344,-27.6939,2.3571],[153.241,-27.6959,3.4347],[153.2411,-27.6978,2.248],[153.2433,-27.6983,2.3187],[153.254,-27.6967,0.0],[153.2565,-27.6919,0.0],[153.2662,-27.6927,2.4089],[153.2735,-27.698,1.2514],[153.285,-27.695,0.6435],[153.2884,-27.6917,1.6994],[153.2865,-27.6878,13.1494],[153.2905,-27.6883,2.6337],[153.286,-27.6866,10.4239],[153.2823,-27.6871,9.5625],[153.283,-27.6835,19.2698],[153.281,-27.6832,13.1758],[153.2827,-27.6741,25.3015],[153.2805,-27.6726,13.3025],[153.2823,-27.6715,13.3025],[153.2812,-27.669,11.941],[153.2828,-27.667,20.3682],[153.2805,-27.6634,17.345],[153.2805,-27.6582,25.5682],[153.2629,-27.656,16.9427],[153.2622,-27.654,18.6875],[153.2544,-27.6528,31.981],[153.255,-27.6496,30.2075],[153.2389,-27.6474,37.0319],[153.2389,-27.6493,40.1311],[153.2081,-27.6452,93.7396],[153.2061,-27.644,111.388],[153.207,-27.6412,99.4883],[153.1939,-27.6395,103.8569],[153.1936,-27.6416,102.8699],[153.1875,-27.6407,124.7769],[153.1831,-27.6384,109.7725],[153.1838,-27.6355,141.0599],[153.1823,-27.6342,145.3353],[153.1738,-27.6344,122.4174],[153.1758,-27.6234,107.7368],[153.1815,-27.6242,94.369],[153.1836,-27.6128,93.2391],[153.1807,-27.6093,88.3964],[153.1732,-27.6061,79.2845],[153.1562,-27.5918,72.2857],[153.1423,-27.5912,43.9954],[153.1402,-27.5897,56.5524],[153.1233,-27.5873,74.464],[153.122,-27.5954,57.3511],[153.1058,-27.5932,46.0495],[153.101,-27.6182,35.7582],[153.0947,-27.6175,36.4206],[153.0937,-27.6208,39.3241],[153.0975,-27.6229,54.5389],[153.0967,-27.6272,54.4352],[153.0915,-27.6263,61.0894],[153.091,-27.6289,69.4254],[153.0946,-27.6318,58.8555],[153.0949,-27.63,69.9271],[153.0962,-27.6303,68.6236],[153.0946,-27.6393,37.7128],[153.0965,-27.6396,30.1999],[153.0968,-27.642,33.9261],[153.0945,-27.6429,31.024],[153.0954,-27.645,27.3728],[153.0778,-27.652,25.485],[153.0725,-27.6509,21.6459],[153.0695,-27.6529,29.4763],[153.068,-27.6509,38.345],[153.0588,-27.6568,52.7746],[153.0405,-27.6541,59.0947],[153.0378,-27.6603,37.6457],[153.0003,-27.6551,24.3829],[152.9787,-27.6463,68.0208],[152.9702,-27.6369,35.6711],[152.9499,-27.633,74.1986],[152.9444,-27.6292,63.4394],[152.9407,-27.6287,51.8192]]]]}}