{"type": "Feature","bbox": [145.0677,-37.7416,145.3664,-37.4877],"geometry": {"type": "MultiPolygon","coordinates": [[[[145.1356,-37.7409,24.7568],[145.1377,-37.7383,21.2327],[145.1429,-37.7389,21.753],[145.1484,-37.7372,21.4647],[145.15,-37.7384,23.568],[145.1517,-37.7357,35.36],[145.1554,-37.7339,28.0656],[145.1624,-37.7377,24.4843],[145.165,-37.7343,30.362],[145.1761,-37.7349,24.7088],[145.1777,-37.7384,27.563],[145.1798,-37.7374,23.1956],[145.1784,-37.7338,47.3281],[145.1818,-37.7298,30.1395],[145.1879,-37.7303,34.2763],[145.1902,-37.7323,29.0454],[145.1939,-37.7318,28.9972],[145.1918,-37.7349,28.7253],[145.1919,-37.738,30.9342],[145.1974,-37.7414,64.2044],[145.1987,-37.74,33.3623],[145.1984,-37.7337,40.7567],[145.2016,-37.7304,36.8458],[145.2062,-37.7311,33.1225],[145.212,-37.7296,30.7981],[145.2154,-37.7322,36.6907],[145.2149,-37.7341,40.6767],[145.2114,-37.7358,35.8608],[145.2025,-37.7375,60.9274],[145.2015,-37.7393,52.0615],[145.2045,-37.7416,37.8702],[145.2161,-37.7389,34.1285],[145.2202,-37.7361,50.8956],[145.2256,-37.7361,58.4193],[145.2298,-37.7388,41.6272],[145.2304,-37.7376,53.7116],[145.227,-37.7331,45.3512],[145.2289,-37.7316,37.0729],[145.236,-37.7314,42.3438],[145.2415,-37.7361,41.7736],[145.2432,-37.7352,53.152],[145.2403,-37.7316,42.7237],[145.2422,-37.7279,60.6766],[145.2366,-37.7271,44.8504],[145.2351,-37.7206,48.7833],[145.2366,-37.7199,44.9499],[145.2425,-37.7254,48.9233],[145.2432,-37.719,39.9868],[145.2487,-37.7207,43.5529],[145.2498,-37.7184,47.2662],[145.2538,-37.7171,49.7685],[145.256,-37.7143,50.2435],[145.2565,-37.7122,50.3374],[145.2548,-37.7101,53.5357],[145.2682,-37.7075,53.7157],[145.2704,-37.7055,54.334],[145.2676,-37.7056,53.2366],[145.2678,-37.7033,54.3328],[145.2723,-37.7038,55.1864],[145.2727,-37.7084,79.9171],[145.2758,-37.7101,93.8237],[145.2725,-37.716,72.4265],[145.2769,-37.7159,57.687],[145.2775,-37.7134,63.2432],[145.2813,-37.7138,64.4244],[145.2834,-37.7189,88.8872],[145.287,-37.7149,60.3276],[145.2851,-37.7143,58.1673],[145.2827,-37.7086,76.813],[145.287,-37.7032,62.9757],[145.2923,-37.7024,110.0049],[145.2893,-37.7093,85.0066],[145.2923,-37.7088,105.0546],[145.2933,-37.7098,77.4521],[145.2916,-37.7117,94.2345],[145.2959,-37.7139,60.5455],[145.2995,-37.7128,65.0116],[145.3027,-37.7167,63.9363],[145.3124,-37.7156,60.476],[145.3113,-37.7091,59.7335],[145.3139,-37.71,61.7197],[145.3142,-37.7088,59.9825],[145.3124,-37.7084,59.7335],[145.3141,-37.7081,59.9825],[145.3142,-37.7066,60.5042],[145.3219,-37.7076,60.4836],[145.3149,-37.6996,67.428],[145.319,-37.6967,113.4218],[145.3193,-37.6935,101.5973],[145.317,-37.692,73.6524],[145.3266,-37.689,92.4202],[145.331,-37.6922,63.603],[145.3314,-37.6875,63.9206],[145.3356,-37.6821,64.9345],[145.3324,-37.68,149.4917],[145.3304,-37.6719,224.9924],[145.3326,-37.6706,237.6034],[145.3355,-37.6624,291.7963],[145.3458,-37.6557,269.6565],[145.3478,-37.6487,298.1903],[145.3539,-37.6439,263.3024],[145.3532,-37.6399,287.8165],[145.3556,-37.6308,306.5597],[145.3584,-37.6275,278.8365],[145.3561,-37.6226,244.4052],[145.3578,-37.6187,285.1693],[145.3526,-37.6154,297.1887],[145.3563,-37.6139,288.7233],[145.3553,-37.6119,287.0934],[145.3566,-37.6055,300.9259],[145.355,-37.6007,323.5161],[145.3644,-37.5628,252.9479],[145.3664,-37.5451,514.0305],[145.3479,-37.5413,425.2881],[145.3474,-37.5441,456.5197],[145.3413,-37.5435,496.4512],[145.3388,-37.5402,515.0526],[145.3326,-37.5396,401.3811],[145.3338,-37.5326,533.402],[145.328,-37.532,378.5667],[145.3285,-37.5291,505.3141],[145.3206,-37.5282,561.1119],[145.321,-37.5252,609.9647],[145.3124,-37.5246,545.8922],[145.3146,-37.523,598.4966],[145.3048,-37.5219,471.4692],[145.3138,-37.5156,609.8243],[145.2971,-37.5137,535.9172],[145.298,-37.5083,575.2704],[145.2928,-37.5069,555.1127],[145.2944,-37.4986,549.1622],[145.2763,-37.4965,407.81],[145.2755,-37.501,426.6456],[145.2674,-37.5,520.6188],[145.2645,-37.5013,514.2342],[145.2624,-37.5119,396.765],[145.2517,-37.5106,558.6971],[145.2539,-37.5073,543.9703],[145.2567,-37.492,453.9009],[145.2478,-37.491,490.186],[145.2481,-37.4892,492.7061],[145.2393,-37.4877,480.2667],[145.2375,-37.4967,303.8691],[145.2352,-37.4988,289.495],[145.2356,-37.5036,277.762],[145.2312,-37.503,396.6244],[145.2263,-37.5087,453.6889],[145.2355,-37.5101,265.7202],[145.2344,-37.5173,259.4113],[145.2267,-37.5159,506.4745],[145.2284,-37.5214,445.7078],[145.2117,-37.5194,417.6907],[145.2107,-37.5252,403.2965],[145.1967,-37.5237,450.6729],[145.1968,-37.527,364.2641],[145.194,-37.5305,273.1007],[145.2068,-37.5319,342.8557],[145.2055,-37.5392,278.3494],[145.1799,-37.5364,243.993],[145.1752,-37.5431,244.5585],[145.1669,-37.5482,230.1822],[145.1689,-37.5513,214.8611],[145.165,-37.558,208.6913],[145.1495,-37.5653,194.8003],[145.1445,-37.5703,204.0762],[145.1358,-37.6199,202.689],[145.1287,-37.6192,163.8519],[145.128,-37.623,167.0185],[145.1225,-37.6225,131.1738],[145.1224,-37.6267,141.4823],[145.1201,-37.6263,136.7236],[145.1186,-37.628,150.8343],[145.115,-37.6272,139.8678],[145.1132,-37.6283,128.1508],[145.1143,-37.6306,134.3594],[145.1087,-37.6312,130.948],[145.1115,-37.6328,147.7086],[145.1089,-37.6333,127.0619],[145.1097,-37.635,132.1843],[145.1081,-37.6379,115.3405],[145.1102,-37.6374,137.9028],[145.1097,-37.639,135.3189],[145.1078,-37.6401,119.0076],[145.1022,-37.6384,110.8606],[145.1015,-37.6403,110.7005],[145.1046,-37.6406,116.8698],[145.103,-37.6427,116.9269],[145.1057,-37.6451,114.1773],[145.1044,-37.6469,124.2637],[145.1077,-37.6485,151.2776],[145.1033,-37.6504,104.7843],[145.1038,-37.6522,106.4165],[145.1076,-37.6535,142.0198],[145.105,-37.6542,106.692],[145.1025,-37.6527,123.0001],[145.1019,-37.6547,120.1356],[145.1078,-37.6582,131.5725],[145.1035,-37.657,101.18],[145.1037,-37.6612,101.8867],[145.0978,-37.6626,113.7177],[145.0966,-37.6648,103.7873],[145.0951,-37.6619,85.6361],[145.0933,-37.6642,78.6881],[145.0904,-37.6633,98.1121],[145.0892,-37.6643,98.1121],[145.0919,-37.6653,76.4146],[145.092,-37.6674,79.281],[145.0839,-37.6691,84.5587],[145.0891,-37.6742,75.3173],[145.0857,-37.6743,82.6189],[145.0866,-37.6776,68.4896],[145.0835,-37.6768,64.0714],[145.0844,-37.6803,71.915],[145.0865,-37.6813,78.5733],[145.0916,-37.6794,78.2987],[145.0902,-37.681399999999996,83.2189],[145.102,-37.682,64.7549],[145.1037,-37.6832,61.7865],[145.102,-37.684,50.9318],[145.1019,-37.6872,52.5088],[145.0996,-37.6895,51.8441],[145.0677,-37.6869,110.6664],[145.0773,-37.6877,113.1142],[145.0882,-37.6911,105.6345],[145.0921,-37.6952,75.1793],[145.0955,-37.6929,84.7186],[145.1077,-37.6916,102.753],[145.1188,-37.6874,107.9798],[145.1437,-37.6826,82.4328],[145.1404,-37.7013,88.0355],[145.1316,-37.7004,85.6233],[145.128,-37.7023,68.3001],[145.1281,-37.7047,65.1519],[145.1304,-37.7059,54.1248],[145.1336,-37.7133,53.1372],[145.1378,-37.718,33.1395],[145.1349,-37.7321,38.5075],[145.1377,-37.7332,40.4833],[145.1351,-37.7343,46.5231],[145.1342,-37.7382,44.6551],[145.1356,-37.7409,24.7568]]]]}
,"properties": {"GID_2": "AUS.10.57_1","GID_0": "AUS","country": "Australia","GID_1": "AUS.10_1","state": "Victoria","NL_NAME_1": "NA","county": "Nillumbik","VARNAME_2": "NA","NL_NAME_2": "NA","TYPE_2": "Shire","ENGTYPE_2": "Shire","CC_2": "25710","HASC_2": "AU.VI.NI","name": "Nillumbik.county","area_km2": 431.986,"hist_schema_id": "Elevation0-9000","hist_area_km2": {"25": 3.3203,"50": 15.1134,"75": 26.6433,"100": 41.4193,"125": 55.8169,"150": 64.4781,"175": 65.2096,"200": 41.2886,"225": 29.6536,"250": 22.0111,"275": 16.652,"300": 12.0824,"325": 8.7064,"350": 6.1855,"375": 4.3203,"400": 4.2032,"425": 3.0768,"450": 3.178,"475": 2.4889,"500": 2.2871,"525": 1.8162,"550": 1.4631,"575": 0.4204,"600": 0.1513}}}