{"type": "Feature","bbox": [115.7244,-32.0821,115.8032,-32.0212],"geometry": {"type": "MultiPolygon","coordinates": [[[[115.8024,-32.0747,45.439],[115.8032,-32.0564,34.9525],[115.7796,-32.0549,39.8953],[115.7795,-32.047,32.1261],[115.7581,-32.0473,36.5362],[115.758,-32.0412,0.0],[115.7525,-32.0423,0.0],[115.7423,-32.0524,0.0],[115.7379,-32.0546,0.0],[115.7377,-32.0563,0.0],[115.7322,-32.0558,0.0],[115.7409,-32.057,4.3106],[115.7414,-32.0594,1.7676],[115.7394,-32.0601,0.0],[115.7381,-32.062,0.0],[115.7396,-32.0636,0.0],[115.7383,-32.0622,0.0],[115.7397,-32.0602,0.0],[115.7414,-32.0609,1.2228],[115.7404,-32.0628,0.6472],[115.739,-32.0624,0.6472],[115.7402,-32.063,0.0],[115.7435,-32.0611,0.0],[115.7424,-32.0586,1.7676],[115.7454,-32.0608,1.0642],[115.7472,-32.0603,3.561],[115.7488,-32.064,1.2959],[115.7479,-32.0656,2.7512],[115.744,-32.0644,0.0],[115.7426,-32.0624,0.5617],[115.7438,-32.0645,0.0],[115.7449,-32.0649,0.0],[115.7443,-32.066,0.0],[115.7446,-32.066,0.0],[115.7451,-32.065,0.242],[115.7485,-32.0668,0.9258],[115.7494,-32.0705,2.2318],[115.7456,-32.0693,0.0],[115.7427,-32.0648,0.0],[115.7429,-32.0659,0.0],[115.7442,-32.0684,0.0],[115.7458,-32.0697,0.0],[115.7506,-32.0714,0.6879],[115.7511,-32.0781,0.0],[115.7578,-32.0782,14.2863],[115.7578,-32.0821,13.6518],[115.7611,-32.0821,14.3675],[115.7611,-32.0782,14.5936],[115.7657,-32.0782,8.8305],[115.7656,-32.0746,13.4421],[115.8024,-32.0747,45.439]]],
[[[115.7587,-32.0241,9.6724],[115.7575,-32.0212,40.84],[115.7509,-32.0216,0.0],[115.7497,-32.026,2.6494],[115.738,-32.0452,4.0419],[115.7325,-32.0452,1.0965],[115.7273,-32.0529,0.0],[115.7244,-32.0541,0.0],[115.7275,-32.0538,0.0],[115.7316,-32.0475,2.2821],[115.7335,-32.0489,2.6849],[115.7285,-32.0537,0.0],[115.737,-32.0528,2.9652],[115.7485,-32.0401,1.2797],[115.7584,-32.0389,0.6859],[115.7605,-32.0328,1.0743],[115.7552,-32.0264,12.6922],[115.7587,-32.0241,9.6724]]]]}
,"properties": {"GID_2": "AUS.11.49_1","GID_0": "AUS","country": "Australia","GID_1": "AUS.11_1","state": "WesternAustralia","NL_NAME_1": "NA","county": "Fremantle","VARNAME_2": "NA","NL_NAME_2": "NA","TYPE_2": "City","ENGTYPE_2": "City","CC_2": "53430","HASC_2": "AU.WA.FR","name": "Fremantle.county","area_km2": 18.81374,"hist_schema_id": "Elevation0-9000","hist_area_km2": {"0": 6.39749,"25": 7.76253,"50": 4.65371}}}