{"type":"Feature","properties":{"GID_2":"AUS.10.16_1","GID_0":"AUS","country":"Australia","GID_1":"AUS.10_1","state":"Victoria","NL_NAME_1":"NA","county":"Colac-Otway","VARNAME_2":"NA","NL_NAME_2":"NA","TYPE_2":"Shire","ENGTYPE_2":"Shire","CC_2":"21750","HASC_2":"AU.VI.CO","name":"Colac-Otway.county"},
"geometry":{"type": "MultiPolygon","coordinates": [[[[143.4026,-38.7815,0.0],[143.4029,-38.7814,0.0],[143.4029,-38.7811,5.7625],[143.4026,-38.7811,5.7625],[143.4026,-38.7815,0.0]]],
[[[143.857,-38.1355,105.428],[143.8575,-38.1334,106.7627],[143.8099,-38.1277,115.6989],[143.8109,-38.1206,121.4157],[143.8219,-38.1043,120.2175],[143.8243,-38.0919,121.948],[143.8284,-38.0922,123.6219],[143.8246,-38.081,120.4234],[143.8186,-38.0802,127.305],[143.8297,-38.0224,142.8794],[143.7681,-38.0198,145.1613],[143.7361,-38.0273,141.1535],[143.7079,-38.027,145.7993],[143.6724,-38.0294,136.0035],[143.6289,-38.0234,125.5926],[143.6299,-38.0279,124.6404],[143.6261,-38.0341,126.7897],[143.6224,-38.0306,119.9826],[143.6211,-38.0323,123.4899],[143.622,-38.0361,121.1401],[143.6192,-38.0385,122.0351],[143.6173,-38.0369,120.0791],[143.6177,-38.0333,120.2687],[143.6163,-38.0324,120.0892],[143.6119,-38.0352,119.2186],[143.6124,-38.0393,119.9596],[143.6156,-38.0419,118.7181],[143.6119,-38.0503,117.4476],[143.6131,-38.0538,117.8625],[143.6195,-38.0541,119.9614],[143.6165,-38.0574,117.9207],[143.6157,-38.061,116.6458],[143.6297,-38.0713,116.4898],[143.6319,-38.0769,116.7944],[143.6349,-38.0771,117.4599],[143.636,-38.0872,119.239],[143.6338,-38.0898,117.0781],[143.63,-38.0903,115.0],[143.6292,-38.0925,115.0],[143.6241,-38.0944,115.0],[143.603,-38.094,115.57],[143.6021,-38.0956,115.0],[143.6044,-38.1028,115.0],[143.6009,-38.1016,115.0],[143.6001,-38.1056,115.0],[143.5948,-38.1082,116.2375],[143.5766,-38.1074,115.0],[143.5735,-38.1047,116.1352],[143.5748,-38.1015,115.0],[143.5732,-38.101,115.0],[143.5603,-38.0997,115.0],[143.5526,-38.1016,116.6866],[143.5496,-38.1038,116.4878],[143.5461,-38.104,115.5278],[143.5432,-38.1078,116.4716],[143.5406,-38.1079,114.9832],[143.5331,-38.1213,120.8687],[143.5253,-38.1252,119.7634],[143.5173,-38.1248,116.8707],[143.5138,-38.1291,116.9428],[143.5108,-38.13,118.1083],[143.4994,-38.1285,116.7795],[143.4897,-38.1323,116.5284],[143.477,-38.1303,117.5204],[143.4738,-38.1276,116.0491],[143.4748,-38.1238,116.6277],[143.4738,-38.1211,112.5974],[143.4692,-38.1213,117.1709],[143.4687,-38.1256,113.1274],[143.4672,-38.1259,113.1274],[143.4691,-38.1295,117.0379],[143.4649,-38.1348,115.8822],[143.4666,-38.1367,113.7164],[143.4673,-38.1449,116.0711],[143.4645,-38.1491,112.0],[143.4707,-38.1526,117.0815],[143.4751,-38.1591,115.1391],[143.4758,-38.1649,116.1009],[143.473,-38.1774,115.7356],[143.4683,-38.1833,115.7896],[143.4603,-38.1896,118.9986],[143.4568,-38.1906,114.7685],[143.4578,-38.1934,115.4799],[143.4601,-38.1929,118.7001],[143.4555,-38.1973,115.8931],[143.4505,-38.1977,115.3734],[143.4454,-38.1931,116.3375],[143.446,-38.1902,115.7102],[143.4424,-38.1913,116.9636],[143.4379,-38.187,114.6013],[143.4369,-38.1883,116.8222],[143.435,-38.1876,114.053],[143.4364,-38.1914,116.5954],[143.4328,-38.1919,115.8129],[143.4335,-38.1936,116.5306],[143.4308,-38.1954,116.7766],[143.4269,-38.1951,116.8835],[143.4257,-38.1929,113.3122],[143.4258,-38.194,115.2738],[143.4238,-38.1938,115.7765],[143.4225,-38.1977,115.3404],[143.4178,-38.2001,119.0097],[143.4107,-38.1997,116.2966],[143.4095,-38.202,117.3367],[143.4114,-38.203,117.157],[143.4111,-38.2045,113.6304],[143.4151,-38.2052,114.3825],[143.416,-38.2074,118.9744],[143.4149,-38.2079,113.7983],[143.4177,-38.2104,119.7295],[143.4136,-38.2157,115.4664],[143.4164,-38.2169,117.3618],[143.4166,-38.2194,116.3174],[143.4193,-38.2217,115.9093],[143.4185,-38.2232,115.3145],[143.421,-38.2252,116.028],[143.4182,-38.2265,115.6002],[143.4187,-38.2287,117.7762],[143.4147,-38.231,112.4419],[143.414,-38.2346,118.1804],[143.4082,-38.2347,114.5172],[143.4078,-38.2358,114.5172],[143.4093,-38.2348,115.9218],[143.4107,-38.2362,115.9218],[143.4099,-38.2397,117.2677],[143.4074,-38.2388,115.1611],[143.4057,-38.2403,114.8092],[143.406,-38.242,112.4755],[143.4073,-38.2404,116.4127],[143.4102,-38.2427,118.2443],[143.4091,-38.2435,114.0389],[143.4098,-38.2475,116.8673],[143.4147,-38.2462,116.4597],[143.4172,-38.2472,116.9461],[143.4155,-38.2488,116.0663],[143.4173,-38.2506,115.0031],[143.4141,-38.2513,114.3226],[143.4149,-38.2522,114.3226],[143.4218,-38.2515,113.2153],[143.4278,-38.2486,116.3525],[143.4288,-38.2448,115.6389],[143.4232,-38.242,118.4997],[143.4219,-38.2393,119.6253],[143.423,-38.238,119.6253],[143.4252,-38.2384,115.1495],[143.4273,-38.2356,116.9552],[143.4367,-38.2347,115.973],[143.4379,-38.236,115.973],[143.4366,-38.2379,116.3191],[143.4349,-38.2371,115.6889],[143.4328,-38.2387,116.6964],[143.4337,-38.241,116.2546],[143.4401,-38.2394,118.6919],[143.4397,-38.2415,112.861],[143.4421,-38.2417,114.7193],[143.4402,-38.244,116.4658],[143.4465,-38.244,120.3682],[143.4485,-38.2464,116.8933],[143.4465,-38.2468,115.6752],[143.4485,-38.2495,117.6321],[143.4477,-38.2509,116.22],[143.4456,-38.2487,115.8723],[143.4369,-38.2506,115.2828],[143.4418,-38.2519,116.2461],[143.4445,-38.2546,112.5778],[143.4515,-38.2521,116.5216],[143.4564,-38.2525,115.1227],[143.4593,-38.2504,117.529],[143.4603,-38.2526,116.1016],[143.465,-38.2516,116.0004],[143.4652,-38.2581,112.4844],[143.4674,-38.2579,116.8574],[143.4688,-38.2555,117.6819],[143.4713,-38.2555,112.8988],[143.4728,-38.2518,116.4454],[143.4764,-38.2526,116.297],[143.4789,-38.2542,116.4224],[143.4829,-38.2616,114.2931],[143.4829,-38.2701,115.0761],[143.4818,-38.2725,116.9199],[143.4798,-38.2722,116.3438],[143.4759,-38.275,113.3825],[143.4779,-38.2761,119.1482],[143.4761,-38.2789,118.3997],[143.4736,-38.2786,116.9978],[143.4712,-38.2815,121.8376],[143.4682,-38.2801,114.9722],[143.4667,-38.2846,121.8638],[143.4637,-38.2845,114.388],[143.4612,-38.2821,112.4955],[143.4565,-38.2833,112.0],[143.4611,-38.2857,119.3576],[143.4586,-38.2869,112.0],[143.457,-38.2917,119.5242],[143.4526,-38.2918,116.1247],[143.4566,-38.2963,117.4422],[143.4522,-38.3035,116.6562],[143.4474,-38.3059,115.6161],[143.431,-38.3088,115.6013],[143.4297,-38.3136,114.1694],[143.4356,-38.3157,116.4394],[143.4346,-38.3294,116.5744],[143.4281,-38.3387,116.521],[143.4233,-38.3404,115.9886],[143.422,-38.3487,123.1298],[143.4124,-38.3473,143.1377],[143.3977,-38.3493,145.2421],[143.3907,-38.3448,142.7461],[143.3672,-38.3398,141.9429],[143.3624,-38.3401,145.7838],[143.3407,-38.326,143.2688],[143.3237,-38.3245,152.1893],[143.2964,-38.3316,157.3819],[143.286,-38.3316,169.0854],[143.2846,-38.3394,166.157],[143.2809,-38.3407,172.0336],[143.2761,-38.3471,169.1012],[143.2766,-38.3509,167.3412],[143.2788,-38.3534,162.8656],[143.2817,-38.3527,164.3624],[143.2838,-38.3543,163.2075],[143.2817,-38.3621,164.6959],[143.2824,-38.3679,158.2435],[143.2795,-38.3692,157.9393],[143.2798,-38.3751,164.9852],[143.2778,-38.3774,167.3686],[143.2793,-38.3803,162.5032],[143.2762,-38.3843,158.6348],[143.2638,-38.4468,166.4671],[143.3209,-38.4539,173.0403],[143.3235,-38.4632,173.2812],[143.3387,-38.4668,109.8372],[143.3616,-38.4847,152.9497],[143.3644,-38.4957,175.4413],[143.3528,-38.4935,123.4611],[143.3446,-38.4979,161.7889],[143.3512,-38.5172,161.6958],[143.3559,-38.5181,212.4211],[143.3593,-38.5211,236.1545],[143.3624,-38.5209,235.3894],[143.3585,-38.5298,239.74],[143.3477,-38.5405,241.0956],[143.348,-38.545,237.6635],[143.3446,-38.5456,212.2952],[143.3266,-38.556,221.8103],[143.3042,-38.56,207.7767],[143.2778,-38.567,137.4865],[143.2761,-38.5737,127.5944],[143.2746,-38.5744,122.8445],[143.2664,-38.5734,130.4092],[143.2693,-38.5796,105.5204],[143.2789,-38.5875,116.4123],[143.2817,-38.5988,115.9822],[143.2815,-38.6047,124.0385],[143.2916,-38.6122,39.2895],[143.2924,-38.6151,38.391],[143.2845,-38.6191,31.0654],[143.2802,-38.6242,19.5741],[143.2725,-38.6248,13.4252],[143.2712,-38.6231,23.2049],[143.2724,-38.6272,13.1059],[143.2653,-38.6284,11.9579],[143.2659,-38.6309,11.6074],[143.2678,-38.6308,11.313],[143.2659,-38.6316,12.4234],[143.2681,-38.6322,11.3031],[143.2655,-38.633,12.463],[143.2654,-38.6344,12.463],[143.263,-38.6335,19.5648],[143.2628,-38.6363,18.8415],[143.2645,-38.6353,10.643],[143.2648,-38.6368,10.47],[143.2625,-38.6388,18.9819],[143.2695,-38.6439,18.9599],[143.266,-38.6473,10.3039],[143.2749,-38.6482,9.6992],[143.2772,-38.6498,11.6196],[143.2775,-38.6536,9.2588],[143.2794,-38.6544,11.5682],[143.2765,-38.6551,9.4312],[143.2775,-38.6562,9.4312],[143.2759,-38.6567,8.3782],[143.2764,-38.658,9.7809],[143.2727,-38.6587,7.9878],[143.2744,-38.6601,9.0084],[143.2724,-38.661,8.0511],[143.2736,-38.6621,12.9904],[143.2709,-38.6614,6.8389],[143.2708,-38.666,8.2277],[143.2626,-38.6685,18.7925],[143.2626,-38.6714,46.4775],[143.2652,-38.6751,16.1594],[143.2612,-38.6756,20.9793],[143.2595,-38.6773,43.295],[143.2537,-38.6774,34.3174],[143.2553,-38.679,17.1965],[143.2519,-38.6818,8.5782],[143.2523,-38.6836,12.0189],[143.2543,-38.6823,12.3258],[143.2585,-38.6868,22.0014],[143.2524,-38.6875,6.4742],[143.2522,-38.6888,32.1274],[143.2505,-38.6875,11.5598],[143.2473,-38.6883,27.201],[143.2484,-38.6934,29.4818],[143.2511,-38.695,43.8113],[143.2491,-38.6962,12.5412],[143.2489,-38.6986,17.636],[143.2569,-38.7036,11.0011],[143.2536,-38.7062,15.2099],[143.2537,-38.7081,27.5561],[143.2593,-38.7131,49.7743],[143.2588,-38.7163,26.8806],[143.2548,-38.72,6.5677],[143.2547,-38.7244,9.4188],[143.2518,-38.7244,15.8577],[143.2507,-38.7273,9.8196],[143.2534,-38.7315,29.9629],[143.2505,-38.7373,97.8131],[143.2524,-38.742,137.0777],[143.2589,-38.7474,193.9674],[143.2619,-38.7478,184.7715],[143.265,-38.7458,199.6732],[143.2802,-38.7473,200.5538],[143.2871,-38.7575,37.6991],[143.2964,-38.7553,0.5836],[143.2962,-38.7537,1.2411],[143.299,-38.7515,3.3457],[143.3034,-38.7501,5.4703],[143.3127,-38.7514,0.0],[143.3275,-38.7572,6.8905],[143.3307,-38.755,32.8767],[143.3345,-38.7565,0.0],[143.3391,-38.7548,15.8497],[143.3476,-38.7558,6.5447],[143.3474,-38.7542,44.1162],[143.3517,-38.7554,20.4306],[143.3566,-38.7539,27.8215],[143.373,-38.7597,3.6123],[143.3962,-38.7719,2.8891],[143.4018,-38.7763,28.9614],[143.4015,-38.7801,5.7625],[143.4031,-38.781,15.045],[143.4054,-38.7795,53.0255],[143.4083,-38.7828,32.522],[143.4158,-38.7809,53.9388],[143.4202,-38.783,0.1891],[143.4228,-38.7818,16.8918],[143.4292,-38.7837,3.1344],[143.4334,-38.7892,22.8687],[143.4641,-38.8089,1.9857],[143.4682,-38.8148,0.0],[143.492,-38.8362,15.3972],[143.4938,-38.8407,68.3132],[143.4928,-38.8439,0.0],[143.4993,-38.8471,12.8928],[143.5022,-38.8495,47.0917],[143.5027,-38.8526,2.3312],[143.5109,-38.8576,13.2887],[143.5187,-38.8551,10.2346],[143.5275,-38.8561,33.6268],[143.5436,-38.8534,3.6946],[143.5539,-38.8557,4.6274],[143.5615,-38.8484,35.598],[143.5607,-38.8455,3.4153],[143.5649,-38.8452,4.8056],[143.5799,-38.8357,71.1151],[143.5845,-38.8298,0.0],[143.5831,-38.8265,1.37],[143.5856,-38.8218,17.2868],[143.5952,-38.8154,9.5856],[143.5975,-38.8129,12.6596],[143.5971,-38.8113,12.6596],[143.616,-38.7955,19.9362],[143.6222,-38.7925,24.3923],[143.6464,-38.7913,0.0],[143.666,-38.7794,5.4543],[143.6642,-38.7773,5.7192],[143.6667,-38.7684,0.0],[143.6799,-38.7608,0.0],[143.6746,-38.7589,4.6231],[143.6747,-38.7572,0.0],[143.6721,-38.7576,0.9497],[143.6704,-38.7524,6.3212],[143.672,-38.7476,0.7898],[143.6815,-38.7375,2.4541],[143.7046,-38.7281,2.1174],[143.7095,-38.7276,3.3571],[143.7111,-38.7254,2.2082],[143.7168,-38.7256,2.3744],[143.7227,-38.7223,3.504],[143.7267,-38.7218,0.3084],[143.7267,-38.7191,3.1542],[143.7286,-38.7178,6.6391],[143.75,-38.7132,0.0],[143.7567,-38.7067,29.423],[143.7608,-38.7068,3.4682],[143.7644,-38.7048,0.0],[143.7684,-38.7065,0.0],[143.7724,-38.7047,1.1003],[143.7749,-38.7054,3.7345],[143.7766,-38.7025,14.0595],[143.7944,-38.6976,5.3116],[143.8018,-38.6978,5.7961],[143.8104,-38.693,3.5791],[143.815,-38.6937,0.197],[143.819,-38.6919,20.1134],[143.837,-38.6928,38.8099],[143.8409,-38.6902,7.6293],[143.84,-38.6827,5.928],[143.8421,-38.679,14.0132],[143.8662,-38.6717,0.0],[143.8635,-38.6695,0.0],[143.8631,-38.6668,0.0],[143.8649,-38.6615,0.3239],[143.8709,-38.6569,0.3627],[143.8703,-38.6553,1.8809],[143.8732,-38.6522,7.9133],[143.884,-38.6478,8.0651],[143.8873,-38.6434,7.5585],[143.8943,-38.6415,3.2894],[143.8922,-38.6394,7.6656],[143.8914,-38.6352,0.0],[143.8993,-38.6301,0.0],[143.9032,-38.6293,9.0325],[143.9102,-38.6231,0.8282],[143.9127,-38.6176,37.0827],[143.9162,-38.6144,0.0],[143.9157,-38.6117,0.0],[143.9214,-38.6018,20.2181],[143.9196,-38.5968,0.0],[143.9262,-38.5908,11.4487],[143.9335,-38.5883,2.8761],[143.9382,-38.5833,1.5015],[143.9461,-38.5794,72.3736],[143.8245,-38.5666,535.1542],[143.8262,-38.5573,598.5082],[143.8379,-38.5588,587.9911],[143.8432,-38.5553,524.0458],[143.8427,-38.5534,520.8541],[143.8452,-38.5487,550.0121],[143.8506,-38.5469,636.9568],[143.8519,-38.5447,644.4808],[143.851,-38.5299,594.6474],[143.8553,-38.524,593.2587],[143.845,-38.5228,475.8376],[143.8471,-38.5118,417.3887],[143.8349,-38.5106,447.7625],[143.8788,-38.2762,125.2617],[143.8338,-38.291,106.2851],[143.834,-38.2824,122.0384],[143.8413,-38.2429,139.7576],[143.8398,-38.2319,140.0797],[143.8459,-38.1994,102.3335],[143.8453,-38.1849,95.1153],[143.851,-38.1751,97.7511],[143.8503,-38.1708,99.772],[143.857,-38.1355,105.428]]],
[[[143.4682,-38.2798,114.9722],[143.4682,-38.28,114.9722],[143.4683,-38.2797,114.9722],[143.4682,-38.2797,114.9722],[143.4682,-38.2798,114.9722]]]]}}