{"type":"Feature","properties":{"GID_2":"AUS.11.76_1","GID_0":"AUS","country":"Australia","GID_1":"AUS.11_1","state":"WesternAustralia","NL_NAME_1":"NA","county":"Melville","VARNAME_2":"NA","NL_NAME_2":"NA","TYPE_2":"City","ENGTYPE_2":"City","CC_2":"55320","HASC_2":"AU.WA.MV","name":"Melville.county"},
"geometry":{"type": "MultiPolygon","coordinates": [[[[115.8614,-32.0458,2.1249],[115.8599,-32.0453,5.0827],[115.8596,-32.041,5.5824],[115.8535,-32.0331,2.0185],[115.8526,-32.0273,0.0],[115.8549,-32.0236,0.0],[115.8504,-32.0192,3.9657],[115.8527,-32.0114,0.0],[115.8483,-32.0088,1.1969],[115.8462,-32.0017,0.0],[115.8416,-32.0025,0.0],[115.8369,-32.0066,5.7718],[115.8287,-32.0065,1.5768],[115.8291,-32.0138,0.0],[115.8269,-32.0213,0.0],[115.8165,-32.0285,0.7912],[115.8125,-32.0287,2.3924],[115.8122,-32.0267,0.9539],[115.8154,-32.0257,0.4325],[115.8134,-32.0223,0.3968],[115.7979,-32.0168,5.3114],[115.7867,-32.011,0.0],[115.7855,-32.0186,7.8311],[115.7762,-32.0288,7.3603],[115.7763,-32.047,32.5335],[115.7795,-32.047,32.1261],[115.7796,-32.0549,39.8953],[115.8032,-32.0564,34.9525],[115.8032,-32.0747,48.0315],[115.8159,-32.0745,44.4312],[115.8173,-32.0772,34.6205],[115.8255,-32.074,20.5099],[115.8351,-32.0797,21.4555],[115.8492,-32.0787,30.5791],[115.849,-32.0816,31.1052],[115.8669,-32.0814,29.4699],[115.8669,-32.0848,28.6363],[115.8752,-32.0824,30.0867],[115.8921,-32.0822,27.9515],[115.8815,-32.0724,29.0791],[115.8885,-32.0667,24.6276],[115.8796,-32.0674,28.5585],[115.871,-32.0658,26.5222],[115.8731,-32.0451,15.2887],[115.8687,-32.0451,12.8293],[115.865,-32.0476,8.3553],[115.8613,-32.0473,8.07],[115.8614,-32.0458,2.1249]]]]}}