{"type":"Feature","properties":{"GID_2":"AUS.5.106_1","GID_0":"AUS","country":"Australia","GID_1":"AUS.5_1","state":"NewSouthWales","NL_NAME_1":"NA","county":"Parramatta","VARNAME_2":"NA","NL_NAME_2":"NA","TYPE_2":"City","ENGTYPE_2":"City","CC_2":"16250","HASC_2":"AU.NS.PA","name":"Parramatta.county"},
"geometry":{"type": "MultiPolygon","coordinates": [[[[151.0511,-33.8242,3.0855],[151.0645,-33.824,1.0074],[151.0739,-33.8178,9.9555],[151.0702,-33.8062,46.1848],[151.0661,-33.8028,60.0765],[151.065,-33.7954,100.4475],[151.0658,-33.7909,112.2865],[151.0766,-33.7874,89.1462],[151.0824,-33.7888,67.6746],[151.0843,-33.7779,96.6267],[151.0815,-33.7709,96.5752],[151.0601,-33.7757,124.926],[151.0604,-33.7771,127.8124],[151.0522,-33.7789,127.0552],[151.0498,-33.7824,108.6197],[151.0284,-33.7877,85.4668],[151.0289,-33.7923,63.7936],[151.0263,-33.7963,51.9261],[151.0281,-33.798,39.9497],[151.0268,-33.8043,19.9583],[151.0238,-33.8042,22.6398],[151.0245,-33.7994,43.3437],[151.0161,-33.8007,28.9247],[151.013,-33.7854,67.6865],[151.0145,-33.7851,67.6865],[151.0137,-33.7816,58.1789],[151.0103,-33.7834,54.5767],[151.0105,-33.7848,52.3281],[151.009,-33.7843,54.5767],[151.0078,-33.7881,47.1215],[150.9998,-33.7934,17.8001],[150.9952,-33.7888,42.9488],[150.9975,-33.7805,67.2094],[151.0013,-33.7753,75.5623],[151.0008,-33.7704,79.6137],[150.9988,-33.7681,89.7011],[150.9822,-33.7723,84.1987],[150.9711,-33.7735,67.5049],[150.959,-33.7683,42.2964],[150.9654,-33.7794,44.7975],[150.9608,-33.7785,30.6212],[150.9565,-33.78,25.2096],[150.9518,-33.7766,31.7282],[150.9476,-33.7804,39.3144],[150.951,-33.786,33.054],[150.953,-33.7971,38.8407],[150.9572,-33.8021,50.2067],[150.9751,-33.808,21.1698],[150.9898,-33.8092,31.7891],[150.994,-33.8151,42.9003],[150.9929,-33.8161,42.9003],[150.9941,-33.8214,21.7604],[150.9957,-33.8215,20.9717],[150.995,-33.8241,25.9022],[150.9965,-33.8257,33.5155],[151.0073,-33.8245,19.8944],[151.0092,-33.8309,11.8755],[151.0019,-33.8297,15.8379],[150.9918,-33.8373,21.9279],[150.991,-33.8447,24.2379],[150.9825,-33.8572,38.1134],[150.9947,-33.8684,47.7695],[151.0132,-33.8784,19.5761],[151.0125,-33.871,16.9875],[151.0146,-33.8694,19.1605],[151.0134,-33.8672,18.3217],[151.0151,-33.8632,16.8356],[151.0139,-33.8601,13.4428],[151.0164,-33.8563,12.602],[151.0168,-33.8535,9.7772],[151.0156,-33.8528,10.6926],[151.0179,-33.85,8.4918],[151.0164,-33.8467,9.208],[151.018,-33.8384,12.582],[151.0236,-33.8345,7.8649],[151.0297,-33.8353,6.6531],[151.0355,-33.8317,6.9998],[151.0384,-33.8321,6.0307],[151.0456,-33.8294,5.6865],[151.0485,-33.825,2.0093],[151.0511,-33.8242,3.0855]]]]}}