{"type": "Feature","bbox": [115.5607,-31.8507,115.8835,-31.4551],"geometry": {"type": "MultiPolygon","coordinates": [[[[115.8558,-31.4743,75.7471],[115.6784,-31.477,41.9538],[115.6716,-31.4665,44.0705],[115.6701,-31.4551,46.8144],[115.5607,-31.4552,0.0],[115.5639,-31.4651,7.0504],[115.5698,-31.4697,0.0],[115.5809,-31.4868,10.9322],[115.5826,-31.4927,14.1142],[115.5796,-31.4949,0.0],[115.5798,-31.4963,0.0],[115.5844,-31.4995,0.3605],[115.5844,-31.5026,0.0],[115.5896,-31.5047,3.1979],[115.6011,-31.5162,11.6569],[115.6085,-31.532,0.0],[115.6228,-31.5474,0.0],[115.6266,-31.5561,4.3398],[115.6352,-31.5656,2.5303],[115.638,-31.5739,6.0694],[115.6495,-31.5935,0.0],[115.6531,-31.6026,5.6874],[115.6629,-31.6143,13.174],[115.6636,-31.6218,0.0],[115.6687,-31.6315,0.0],[115.6803,-31.6441,6.1671],[115.6852,-31.6527,0.0],[115.6897,-31.6656,9.7284],[115.6905,-31.6745,0.0],[115.6978,-31.6824,12.9476],[115.6996,-31.6889,0.0],[115.6979,-31.6893,0.0],[115.7049,-31.7019,4.8391],[115.7066,-31.712,3.539],[115.748,-31.712,31.315],[115.7497,-31.7224,35.0818],[115.7738,-31.7172,24.7111],[115.7743,-31.723,16.0],[115.7923,-31.743,19.7907],[115.7878,-31.7519,16.0],[115.7897,-31.7566,16.0],[115.7957,-31.7624,16.0],[115.7991,-31.7704,16.9951],[115.7961,-31.7767,18.5377],[115.7974,-31.7772,20.168],[115.7965,-31.7831,27.0147],[115.8043,-31.7873,21.6723],[115.8078,-31.7913,22.545],[115.8116,-31.8015,29.0194],[115.8168,-31.7997,37.3902],[115.8196,-31.8054,45.8132],[115.8234,-31.8425,35.2959],[115.827,-31.8425,42.0138],[115.8376,-31.8484,60.9592],[115.8687,-31.8486,42.5746],[115.8777,-31.8507,40.8952],[115.8771,-31.8207,45.7653],[115.8827,-31.8208,42.3214],[115.8831,-31.7322,63.9822],[115.8802,-31.7322,71.7357],[115.8802,-31.7249,68.0846],[115.8833,-31.7249,69.6013],[115.8835,-31.6275,79.1131],[115.8596,-31.6272,64.8342],[115.8598,-31.5736,74.0146],[115.8552,-31.5737,72.9389],[115.8558,-31.4743,75.7471]]]]}
,"properties": {"GID_2": "AUS.11.127_1","GID_0": "AUS","country": "Australia","GID_1": "AUS.11_1","state": "WesternAustralia","NL_NAME_1": "NA","county": "Wanneroo","VARNAME_2": "NA","NL_NAME_2": "NA","TYPE_2": "City","ENGTYPE_2": "City","CC_2": "58760","HASC_2": "AU.WA.WR","name": "Wanneroo.county","area_km2": 686.4036,"hist_schema_id": "Elevation0-9000","hist_area_km2": {"0": 11.9942,"25": 144.8462,"50": 309.0531,"75": 209.8353,"100": 10.6748}}}