{"type": "Feature","bbox": [151.3508,-29.0686,152.4926,-27.937],"geometry": {"type": "MultiPolygon","coordinates": [[[[152.4876,-28.2539,1134.7999],[152.487,-28.248,1024.1008],[152.4926,-28.2425,946.3842],[152.488,-28.2347,778.1732],[152.4802,-28.2287,815.3727],[152.4763,-28.2282,847.4109],[152.4754,-28.2337,812.3544],[152.4739,-28.2338,812.3544],[152.4695,-28.232,911.6223],[152.4699,-28.2289,922.2712],[152.4586,-28.2266,1331.0251],[152.4582,-28.221,1356.5903],[152.4602,-28.2184,1359.0785],[152.4656,-28.2168,1228.6509],[152.4732,-28.2053,1266.4783],[152.4707,-28.2003,1195.4163],[152.4709,-28.195,1195.2314],[152.4582,-28.1944,1104.7963],[152.4558,-28.1956,1181.681],[152.4476,-28.1893,1012.2685],[152.4418,-28.1777,915.4126],[152.4465,-28.1639,1072.0005],[152.4401,-28.1614,1112.6877],[152.4355,-28.1563,1282.0105],[152.4349,-28.1475,1096.0809],[152.4321,-28.1426,1215.7291],[152.4341,-28.131,907.105],[152.4261,-28.1291,923.7001],[152.4215,-28.1244,997.0739],[152.4196,-28.1191,974.0289],[152.4117,-28.1139,1078.2006],[152.4117,-28.1057,983.756],[152.4083,-28.0995,1134.7673],[152.4108,-28.0936,873.0615],[152.4171,-28.090699999999998,799.364],[152.4185,-28.0885,799.1843],[152.4147,-28.0787,861.5141],[152.4163,-28.0698,817.7156],[152.4106,-28.0688,840.3425],[152.39,-28.0593,1116.105],[152.395,-28.049,804.3914],[152.3934,-28.0417,1073.4893],[152.3882,-28.036,1118.6453],[152.3903,-28.0309,1153.1815],[152.383,-28.0247,1126.6528],[152.3749,-28.0127,1059.6305],[152.3768,-28.0078,957.7801],[152.378,-27.9906,995.5457],[152.3837,-27.9835,1040.2632],[152.3828,-27.9788,1118.3314],[152.3891,-27.9741,1126.4934],[152.3823,-27.9656,1031.866],[152.3775,-27.9662,1013.6941],[152.357,-27.9623,991.4848],[152.3474,-27.9654,999.1697],[152.3431,-27.961,912.2543],[152.3277,-27.9666,912.9473],[152.3219,-27.9646,914.4346],[152.3163,-27.9656,928.3779],[152.3084,-27.9628,861.9423],[152.2987,-27.9564,899.5532],[152.2935,-27.956,957.9831],[152.2936,-27.961,955.6738],[152.286,-27.9629,929.1861],[152.2842,-27.9659,936.6221],[152.2805,-27.9663,948.2175],[152.2769,-27.9697,953.1266],[152.2699,-27.969,988.6334],[152.2696,-27.9674,981.2136],[152.2624,-27.9647,960.0922],[152.2605,-27.962,921.2944],[152.2566,-27.9608,920.4197],[152.2544,-27.9561,825.4466],[152.2514,-27.9548,830.2628],[152.2505,-27.9602,805.4479],[152.2395,-27.953,771.0989],[152.2343,-27.953,768.0004],[152.2299,-27.9497,738.453],[152.2192,-27.951,708.6363],[152.213,-27.9491,712.7798],[152.212,-27.9502,703.5267],[152.2099,-27.9459,686.5297],[152.205,-27.9439,682.6727],[152.206,-27.9434,682.6727],[152.1969,-27.9452,673.1054],[152.1958,-27.9467,670.5231],[152.1953,-27.9454,673.1705],[152.1933,-27.9472,666.3173],[152.1922,-27.9465,666.3173],[152.1904,-27.9496,660.3398],[152.185,-27.9504,650.5038],[152.1832,-27.9477,646.5151],[152.1809,-27.9478,654.1776],[152.1777,-27.9502,640.4005],[152.1787,-27.9509,640.4005],[152.1769,-27.9533,641.948],[152.1728,-27.9547,628.1736],[152.1727,-27.9528,628.6917],[152.1711,-27.9525,628.2891],[152.1697,-27.9547,629.4723],[152.1644,-27.9542,619.7622],[152.1638,-27.9557,613.4612],[152.159,-27.9528,619.6754],[152.154,-27.947,600.916],[152.1494,-27.937,589.0672],[152.1392,-27.9442,671.1011],[152.1067,-27.9397,599.7676],[152.0981,-27.9446,586.0845],[152.098,-27.947,593.6087],[152.0904,-27.954,578.4146],[152.0744,-27.9613,549.9308],[152.0255,-27.9546,509.0513],[152.024,-27.9631,505.8246],[151.9948,-27.9595,487.1055],[151.9984,-27.9704,524.9938],[151.976,-27.9674,505.4969],[151.9735,-27.98,506.7672],[151.9221,-27.9731,486.1778],[151.9191,-27.99,476.0585],[151.9092,-27.9849,460.0249],[151.9073,-27.9918,465.9951],[151.9167,-28.0078,469.0692],[151.9171,-28.0126,465.3997],[151.8078,-27.997,438.0831],[151.8063,-28.0061,419.8226],[151.798,-28.0025,420.1647],[151.7966,-28.0003,419.8244],[151.7926,-28.0,419.6321],[151.7851,-28.0102,443.4475],[151.7904,-28.0148,445.359],[151.7776,-28.0233,419.1582],[151.7699,-28.0136,416.3838],[151.77,-28.0115,416.9376],[151.7664,-28.0106,415.3508],[151.7676,-28.0079,416.8286],[151.7649,-28.0084,417.1876],[151.7647,-28.0031,414.9906],[151.7574,-28.0061,445.9834],[151.7531,-28.0047,471.3508],[151.7483,-27.9994,445.8914],[151.7276,-27.9951,427.6196],[151.722,-27.9924,425.1113],[151.7215,-27.9944,429.5234],[151.6935,-27.992,413.8731],[151.5434,-27.9741,422.3643],[151.5365,-28.0191,424.8742],[151.5071,-28.0156,434.4677],[151.4956,-28.0896,467.845],[151.4731,-28.087,516.6172],[151.4637,-28.093,498.3477],[151.4598,-28.107,512.5428],[151.4524,-28.1043,504.4871],[151.4456,-28.1049,512.0123],[151.4426,-28.1112,485.1786],[151.4465,-28.1167,489.4817],[151.4438,-28.1212,496.5243],[151.4453,-28.1228,493.6069],[151.4399,-28.1366,513.6279],[151.4417,-28.1523,525.7271],[151.4648,-28.1802,555.3632],[151.4778,-28.1863,557.186],[151.4814,-28.19,564.3978],[151.4837,-28.195,561.4232],[151.4823,-28.2031,567.8094],[151.478,-28.2079,571.2601],[151.4838,-28.2206,624.4822],[151.483,-28.2221,635.5778],[151.4895,-28.2279,653.9351],[151.4957,-28.2287,613.8893],[151.5043,-28.2343,610.0815],[151.506,-28.2376,602.683],[151.5046,-28.2407,626.8624],[151.5087,-28.26,578.7542],[151.5149,-28.2624,576.4356],[151.5173,-28.2658,581.9285],[151.5251,-28.2672,566.2164],[151.5241,-28.2686,567.8779],[151.5251,-28.2729,588.8599],[151.5321,-28.278199999999998,597.8074],[151.5361,-28.2763,598.5653],[151.5404,-28.2798,603.9716],[151.5439,-28.2892,597.9965],[151.5465,-28.2894,601.679],[151.5518,-28.2857,603.191],[151.5589,-28.2863,603.0494],[151.5697,-28.2797,593.7913],[151.5831,-28.2801,605.1595],[151.5891,-28.2741,628.4989],[151.5943,-28.2739,638.8751],[151.6053,-28.2774,644.6089],[151.6129,-28.2751,657.5685],[151.6149,-28.2774,659.6044],[151.6203,-28.2774,665.8303],[151.6206,-28.2762,663.0815],[151.6298,-28.2739,650.9977],[151.6401,-28.2805,656.7969],[151.6406,-28.2862,655.9673],[151.6478,-28.2932,653.3591],[151.6486,-28.2984,659.0275],[151.6521,-28.3018,669.3075],[151.6608,-28.3014,671.174],[151.665,-28.303,676.2855],[151.6689,-28.3007,681.0577],[151.675,-28.3033,682.2891],[151.6781,-28.3009,694.8812],[151.6823,-28.3061,697.303],[151.6832,-28.3097,693.153],[151.6869,-28.3116,713.1904],[151.6907,-28.3104,729.4829],[151.7015,-28.3197,736.5593],[151.7045,-28.3265,749.3599],[151.7022,-28.331,750.8403],[151.7069,-28.3362,757.8013],[151.7074,-28.3388,756.3953],[151.7035,-28.3434,744.6551],[151.6961,-28.3472,748.0078],[151.6967,-28.3503,754.5713],[151.6932,-28.3517,754.3126],[151.6957,-28.3559,758.3354],[151.6948,-28.3661,773.0766],[151.6961,-28.3731,774.3279],[151.6994,-28.378,778.7292],[151.6994,-28.3825,787.2291],[151.7024,-28.3874,786.1281],[151.6993,-28.396,775.0232],[151.6949,-28.4024,780.375],[151.6877,-28.4087,781.2457],[151.6808,-28.412,789.5012],[151.6783,-28.4285,725.272],[151.6718,-28.4306,726.7321],[151.6617,-28.4437,772.2567],[151.6499,-28.4422,745.1891],[151.6489,-28.4462,733.5964],[151.639,-28.4528,729.9611],[151.6413,-28.4613,735.0647],[151.6391,-28.4761,724.5829],[151.646,-28.4941,691.7675],[151.643,-28.5083,673.6703],[151.6396,-28.5162,650.5342],[151.6395,-28.5245,664.8555],[151.6156,-28.5455,661.235],[151.5948,-28.5515,673.4653],[151.5964,-28.5558,676.4299],[151.6013,-28.5581,664.7508],[151.6008,-28.5667,671.8087],[151.6048,-28.5751,677.268],[151.5992,-28.5851,671.95],[151.5973,-28.5857,663.9169],[151.5906,-28.5825,654.8759],[151.5813,-28.5861,669.831],[151.5752,-28.592,677.2815],[151.576,-28.5971,660.4072],[151.5713,-28.5994,658.1772],[151.5696,-28.6021,652.4107],[151.5709,-28.6086,660.0795],[151.5647,-28.6147,656.204],[151.5615,-28.6206,667.4572],[151.5578,-28.623,693.2117],[151.5506,-28.6227,698.2383],[151.5453,-28.6244,682.1569],[151.5458,-28.6374,669.6201],[151.536,-28.6488,684.8329],[151.5317,-28.6484,675.8234],[151.5254,-28.6791,682.6997],[151.5173,-28.6909,683.9246],[151.5008,-28.7054,658.1285],[151.4967,-28.7148,703.5364],[151.4939,-28.7146,708.0629],[151.4915,-28.7197,677.8859],[151.4878,-28.723,676.1825],[151.474,-28.7316,623.2335],[151.479,-28.7415,625.5037],[151.4787,-28.7448,633.4833],[151.4679,-28.7532,630.3921],[151.4577,-28.7561,640.6649],[151.4536,-28.7593,633.7072],[151.4505,-28.7718,621.0846],[151.4402,-28.7799,639.9945],[151.4353,-28.7872,665.0945],[151.4297,-28.785,678.0051],[151.427,-28.7859,672.7901],[151.4192,-28.7941,679.9855],[151.4186,-28.7993,687.4129],[151.4222,-28.8077,623.4117],[151.4187,-28.8122,597.3096],[151.4182,-28.8161,577.8942],[151.4051,-28.8294,595.6237],[151.393,-28.8344,575.422],[151.3902,-28.8405,585.279],[151.3927,-28.851,578.8276],[151.3915,-28.8542,574.9134],[151.3868,-28.8562,584.3477],[151.3853,-28.8596,571.8637],[151.3862,-28.866,562.9053],[151.3851,-28.8716,581.7531],[151.3826,-28.8745,572.4964],[151.3844,-28.8873,637.4407],[151.3815,-28.8914,628.1388],[151.384,-28.8933,609.9897],[151.3853,-28.901,592.6607],[151.3876,-28.9013,584.0631],[151.3833,-28.9175,587.5451],[151.3797,-28.9228,602.7021],[151.3808,-28.926,609.1271],[151.3783,-28.9283,629.117],[151.3799,-28.9452,589.1946],[151.3793,-28.9623,598.078],[151.3822,-28.9691,585.4924],[151.3782,-28.9763,525.4017],[151.3792,-28.9798,522.8025],[151.378,-28.9921,514.8497],[151.371,-29.0027,554.9171],[151.3632,-29.0029,549.0863],[151.3625,-29.0065,534.7893],[151.365,-29.0097,526.9043],[151.3666,-29.0168,530.3264],[151.3658,-29.0204,547.6208],[151.3625,-29.0229,555.6488],[151.3556,-29.0226,568.3502],[151.3543,-29.0264,611.4454],[151.3508,-29.0286,603.86],[151.3517,-29.0329,597.2592],[151.3566,-29.0386,606.252],[151.3605,-29.047,603.0458],[151.3638,-29.0477,588.4661],[151.3677,-29.0453,561.7495],[151.3756,-29.0495,561.6936],[151.3752,-29.059,615.0012],[151.3798,-29.0588,588.1576],[151.3838,-29.0622,613.2217],[151.3857,-29.0599,603.9484],[151.385,-29.0551,606.0002],[151.3876,-29.0538,584.9381],[151.3904,-29.055,581.6212],[151.3987,-29.0539,589.2033],[151.4035,-29.0563,594.9255],[151.4059,-29.0596,614.8182],[151.4125,-29.0602,640.5128],[151.419,-29.0641,674.0895],[151.4218,-29.0617,662.922],[151.4257,-29.0616,666.7609],[151.4287,-29.0649,664.045],[151.4321,-29.0637,678.249],[151.4336,-29.0686,686.6556],[151.4386,-29.0633,659.1962],[151.4411,-29.0627,669.0247],[151.4422,-29.0642,677.771],[151.4468,-29.0601,662.7557],[151.4463,-29.0565,658.9915],[151.4484,-29.0518,627.47],[151.4476,-29.046,622.328],[151.4498,-29.0434,603.8255],[151.4436,-29.0323,620.7605],[151.4433,-29.0255,583.4534],[151.4467,-29.0177,572.2855],[151.4555,-29.0106,573.666],[151.4549,-29.0056,620.1854],[151.4583,-28.9992,634.0069],[151.4672,-28.9987,623.4521],[151.4754,-29.0054,620.7758],[151.4849,-29.0015,555.4203],[151.4931,-29.0037,533.2776],[151.4953,-29.0071,530.1979],[151.5058,-29.0099,356.0551],[151.5159,-28.998,362.6736],[151.522,-28.9961,360.734],[151.5247,-28.9888,360.2714],[151.5361,-28.9806,370.2144],[151.5376,-28.9737,367.7687],[151.5447,-28.9612,370.215],[151.5458,-28.9528,374.03],[151.5493,-28.9523,373.9513],[151.5668,-28.9417,458.1327],[151.5705,-28.9441,485.7914],[151.5751,-28.9435,565.6969],[151.5771,-28.945,575.8197],[151.584,-28.9392,532.6265],[151.5884,-28.9319,573.4302],[151.6034,-28.9274,635.9792],[151.6051,-28.9251,646.8502],[151.6096,-28.9233,689.6497],[151.6168,-28.9261,738.4022],[151.6258,-28.9237,836.7979],[151.6331,-28.9297,842.799],[151.6347,-28.9292,858.2545],[151.6367,-28.9221,824.5167],[151.6444,-28.9168,840.1868],[151.6514,-28.917,903.892],[151.6663,-28.9054,983.8492],[151.6748,-28.9076,1023.1646],[151.6774,-28.9039,1008.054],[151.6777,-28.9002,1024.4663],[151.6851,-28.893,1014.7867],[151.6861,-28.8889,958.8074],[151.6884,-28.8869,994.9318],[151.6957,-28.8884,934.5461],[151.6955,-28.8844,964.0797],[151.7021,-28.8823,998.1171],[151.7065,-28.8718,1019.1756],[151.7113,-28.8713,1002.6222],[151.7136,-28.8754,1062.8081],[151.7168,-28.8749,1024.4132],[151.7226,-28.8703,1077.7277],[151.7229,-28.8685,1067.9922],[151.7266,-28.8669,1072.9692],[151.7339,-28.8716,1078.5341],[151.7338,-28.8784,1067.52],[151.7318,-28.8827,1062.9615],[151.737,-28.8957,1001.3479],[151.7409,-28.8975,991.4041],[151.7401,-28.9022,969.3099],[151.7463,-28.9138,942.4327],[151.7453,-28.9177,937.107],[151.7435,-28.9186,948.494],[151.7505,-28.9227,968.8802],[151.7546,-28.9223,941.1658],[151.7554,-28.925,922.4321],[151.7594,-28.9264,947.4774],[151.758,-28.9299,945.4484],[151.7624,-28.9341,924.3508],[151.7727,-28.9383,1144.7189],[151.7732,-28.9474,1125.3999],[151.7702,-28.9558,1143.3318],[151.7778,-28.9599,1073.703],[151.7783,-28.958,1081.2977],[151.7836,-28.9545,1074.856],[151.7899,-28.9537,1170.896],[151.7938,-28.9497,1181.9941],[151.8064,-28.9446,1173.6014],[151.8083,-28.945,1164.6846],[151.8101,-28.9479,1161.087],[151.8095,-28.9498,1168.2114],[151.815,-28.9508,1182.0615],[151.8155,-28.9541,1203.2727],[151.8126,-28.9561,1203.8362],[151.8138,-28.9594,1212.2726],[151.8256,-28.9633,1290.3571],[151.8322,-28.9598,1243.4692],[151.8342,-28.9572,1262.8811],[151.8357,-28.9486,1297.7358],[151.8396,-28.9427,1180.395],[151.8394,-28.9397,1163.2118],[151.8364,-28.9368,1121.0706],[151.8348,-28.9323,1125.2627],[151.8361,-28.9309,1104.4539],[151.8379,-28.9165,1167.7543],[151.8414,-28.9116,1239.0762],[151.8494,-28.9079,1075.276],[151.8591,-28.9072,1036.8241],[151.8651,-28.9097,971.8998],[151.8683,-28.9139,964.5972],[151.8713,-28.9145,940.4588],[151.878,-28.915,893.927],[151.8816,-28.9119,882.2651],[151.8926,-28.9158,854.1848],[151.8958,-28.9137,849.488],[151.8971,-28.9152,849.0171],[151.9004,-28.915,847.8636],[151.9134,-28.9206,886.0212],[151.9167,-28.9251,910.0647],[151.916,-28.9293,918.4528],[151.9224,-28.9284,901.8964],[151.9274,-28.9254,891.464],[151.9518,-28.9192,913.6568],[151.9562,-28.9168,929.8209],[151.9613,-28.9188,982.9191],[151.9682,-28.9166,1086.6958],[151.9741,-28.9091,1130.7715],[151.9818,-28.9089,1138.7261],[151.9969,-28.898,1183.2595],[151.9976,-28.8955,1218.9799],[152.0009,-28.8993,1200.9369],[152.0011,-28.9097,1181.4668],[152.004,-28.9101,1175.5542],[152.0097,-28.9077,1181.198],[152.0125,-28.9009,1202.342],[152.0163,-28.8971,1199.6321],[152.0167,-28.8925,1217.6191],[152.0245,-28.8899,1166.4061],[152.024,-28.8868,1156.2855],[152.0284,-28.8768,1162.9482],[152.0315,-28.8742,1152.1021],[152.0309,-28.8695,1169.9772],[152.0342,-28.866,1202.4692],[152.0381,-28.8647,1201.0698],[152.0359,-28.8587,1170.5745],[152.0396,-28.8546,1202.2722],[152.0369,-28.8518,1191.3687],[152.0295,-28.8546,1156.2214],[152.026,-28.8583,1158.7013],[152.0229,-28.8547,1099.2417],[152.0155,-28.852,1140.0363],[152.0151,-28.8506,1128.7249],[152.0183,-28.8458,1113.8953],[152.0171,-28.8385,1097.951],[152.0201,-28.8379,1105.0234],[152.0232,-28.8316,1103.3535],[152.028,-28.8324,1097.9324],[152.0327,-28.829,1086.0123],[152.0373,-28.8192,1117.4619],[152.0355,-28.8162,1110.7094],[152.0365,-28.8129,1090.3616],[152.0355,-28.8071,1073.546],[152.0383,-28.797,1052.4846],[152.0347,-28.7907,1056.1382],[152.0398,-28.785,1034.1345],[152.0417,-28.7786,1026.2068],[152.0369,-28.7761,1021.3507],[152.0387,-28.7648,1016.6953],[152.0363,-28.757,1009.286],[152.041,-28.7537,1021.3391],[152.0416,-28.7463,1012.1551],[152.0438,-28.7461,996.808],[152.0477,-28.7403,988.8706],[152.0463,-28.7342,998.552],[152.0427,-28.7316,1003.8662],[152.0539,-28.7254,975.848],[152.0621,-28.7182,1004.5176],[152.0712,-28.7149,1004.6088],[152.076,-28.7082,1025.802],[152.0661,-28.6975,1011.7882],[152.0646,-28.6906,1078.6476],[152.068,-28.6849,1064.6279],[152.0664,-28.681,1009.9255],[152.062,-28.6791,1017.9985],[152.0526,-28.6819,1016.1265],[152.0445,-28.6729,1008.4135],[152.0458,-28.6706,996.5509],[152.045,-28.6682,1000.1708],[152.0392,-28.6644,970.6227],[152.0315,-28.6662,965.1692],[152.0205,-28.6638,972.2981],[152.0139,-28.6658,980.1837],[152.0102,-28.665,973.0159],[152.0114,-28.6618,976.8803],[152.0058,-28.6513,951.396],[152.002,-28.6501,962.5888],[152.0018,-28.6399,920.2706],[151.9908,-28.6244,900.5861],[151.9939,-28.6113,909.3629],[151.9891,-28.6038,919.0898],[151.9918,-28.5947,910.7049],[151.9884,-28.5918,909.1326],[151.986,-28.5815,920.9911],[151.9764,-28.573,924.4199],[151.9678,-28.5718,927.1349],[151.965,-28.5674,934.1364],[151.9608,-28.5666,937.0474],[151.9577,-28.5634,929.5222],[151.9585,-28.5568,930.2411],[151.9547,-28.5516,939.4435],[151.9571,-28.5438,921.3459],[151.9539,-28.5399,921.7783],[151.9554,-28.5325,928.7063],[151.9587,-28.5272,930.2007],[151.9569,-28.5254,925.8118],[151.9556,-28.5189,927.7643],[151.9583,-28.5162,932.7004],[151.9648,-28.5145,934.2262],[151.9731,-28.5076,944.9082],[151.9736,-28.5053,930.2261],[151.9785,-28.5032,937.4539],[151.9829,-28.5034,939.887],[151.9859,-28.5098,950.3414],[151.9844,-28.5165,930.2482],[151.989,-28.5256,941.0188],[151.9921,-28.5247,934.4492],[151.9951,-28.5268,912.2546],[151.9996,-28.5272,884.0613],[151.9995,-28.5285,881.0264],[152.0169,-28.5253,896.9938],[152.0201,-28.521,903.1367],[152.019,-28.5178,914.5718],[152.0243,-28.5131,905.7542],[152.027,-28.5129,893.108],[152.0359,-28.5073,882.5654],[152.0457,-28.495,927.9532],[152.0554,-28.49,925.4377],[152.0596,-28.4907,916.7182],[152.067,-28.4856,925.2046],[152.0669,-28.4793,926.0944],[152.0702,-28.468,933.6161],[152.0727,-28.4689,945.8821],[152.0747,-28.4677,925.9736],[152.0761,-28.4696,957.2145],[152.0796,-28.4702,953.8103],[152.0847,-28.4676,945.3934],[152.0877,-28.4694,938.2932],[152.0941,-28.469,880.4996],[152.0962,-28.4659,898.5537],[152.1015,-28.4648,860.2551],[152.1028,-28.463,865.5491],[152.1115,-28.4639,830.0691],[152.1211,-28.4627,710.331],[152.1279,-28.4537,679.3038],[152.1352,-28.4521,648.1095],[152.142,-28.4422,571.7395],[152.1466,-28.4391,567.3073],[152.1546,-28.4379,562.5075],[152.1567,-28.4344,560.9823],[152.1605,-28.4331,570.029],[152.1649,-28.4326,575.1434],[152.1683,-28.4344,559.7245],[152.1747,-28.4348,557.7241],[152.1845,-28.4389,588.6092],[152.1903,-28.4339,579.6259],[152.2047,-28.4382,589.7148],[152.2073,-28.4454,614.6328],[152.2139,-28.4461,604.8835],[152.2172,-28.4492,607.9314],[152.2217,-28.4449,588.2562],[152.222,-28.442,596.3786],[152.2256,-28.4372,616.073],[152.2285,-28.437,610.8344],[152.2306,-28.4298,581.4384],[152.2379,-28.4234,582.3897],[152.2393,-28.4176,617.6085],[152.2522,-28.4104,609.4629],[152.2525,-28.4074,612.1534],[152.2607,-28.4004,639.1778],[152.2676,-28.39,660.769],[152.2771,-28.393,632.7006],[152.2884,-28.3932,765.9025],[152.2907,-28.3825,736.51],[152.3022,-28.3746,748.874],[152.3001,-28.3743,816.9918],[152.3021,-28.3727,796.2153],[152.3049,-28.372,750.3314],[152.3097,-28.3632,715.071],[152.3135,-28.3631,677.9393],[152.3208,-28.3672,640.3613],[152.3269,-28.3666,660.1541],[152.3313,-28.3681,727.7758],[152.3361,-28.3664,890.6222],[152.3416,-28.3679,882.2802],[152.3559,-28.3612,893.441],[152.3648,-28.3661,945.342],[152.3774,-28.3658,956.5312],[152.3862,-28.3686,981.8303],[152.3931,-28.3605,972.5491],[152.4001,-28.3476,1023.9344],[152.4095,-28.3417,1081.353],[152.4173,-28.3331,1061.1077],[152.4172,-28.3301,1071.8198],[152.4112,-28.3211,956.4922],[152.4095,-28.3157,1002.5626],[152.4107,-28.3102,980.822],[152.4135,-28.3074,999.9723],[152.4128,-28.3019,1056.249],[152.4146,-28.2981,1079.1948],[152.4172,-28.2968,1112.0073],[152.4243,-28.2994,1052.9189],[152.428,-28.2977,1035.8101],[152.4448,-28.2988,1059.9303],[152.4429,-28.2904,863.3204],[152.4481,-28.2812,870.1405],[152.455,-28.2778,779.8947],[152.4579,-28.2724,748.1012],[152.4615,-28.2696,738.7953],[152.4597,-28.2662,740.5368],[152.4618,-28.2606,746.7159],[152.4712,-28.257,796.6918],[152.4824,-28.2579,924.7568],[152.4876,-28.2539,1134.7999]]]]}
,"properties": {"GID_2": "AUS.7.61_1","GID_0": "AUS","country": "Australia","GID_1": "AUS.7_1","state": "Queensland","NL_NAME_1": "NA","county": "SouthernDowns","VARNAME_2": "NA","NL_NAME_2": "NA","TYPE_2": "Region","ENGTYPE_2": "Region","CC_2": "36660","HASC_2": "NA","name": "SouthernDowns.county","area_km2": 7122.166,"hist_schema_id": "Elevation0-9000","hist_area_km2": {"350": 2.318,"375": 13.523,"400": 35.664,"425": 217.918,"450": 455.025,"475": 619.872,"500": 616.029,"525": 568.073,"550": 422.36,"575": 332.058,"600": 299.603,"625": 270.921,"650": 260.915,"675": 255.776,"700": 288.732,"725": 302.013,"750": 253.579,"775": 229.294,"800": 208.159,"825": 209.274,"850": 192.227,"875": 203.874,"900": 211.168,"925": 177.678,"950": 122.678,"975": 80.292,"1000": 68.646,"1025": 51.544,"1050": 40.145,"1075": 37.007,"1100": 29.608,"1125": 17.779,"1150": 12.155,"1175": 7.285,"1200": 3.756,"1225": 1.767,"1250": 1.379,"1275": 0.728,"1300": 0.616,"1325": 0.448,"1350": 0.224,"1375": 0.056}}}