{"type":"Feature","properties":{"GID_2":"AUS.7.46_1","GID_0":"AUS","country":"Australia","GID_1":"AUS.7_1","state":"Queensland","NL_NAME_1":"NA","county":"MountIsa","VARNAME_2":"NA","NL_NAME_2":"NA","TYPE_2":"City","ENGTYPE_2":"City","CC_2":"35300","HASC_2":"AU.QL.MI","name":"MountIsa.county"},
"geometry":{"type": "MultiPolygon","coordinates": [[[[137.9972,-21.1943,191.4671],[138.1598,-21.2036,185.045],[138.1781,-20.9983,226.6972],[138.3424,-20.9984,201.8641],[138.3156,-21.0211,205.7798],[138.4196,-21.1293,206.1724],[138.3642,-21.1767,203.0851],[138.4901,-21.3131,203.8863],[138.53,-21.315,200.586],[138.6849,-21.147,221.7772],[138.7438,-21.1235,229.7016],[138.8884,-20.9984,263.9369],[138.9903,-20.9128,296.9074],[138.9866,-20.9087,295.6706],[139.041,-20.8645,309.2639],[139.1289,-20.9602,350.3768],[139.3967,-20.9677,386.8247],[139.4005,-20.9373,411.6187],[139.3955,-20.8929,477.7087],[139.4749,-20.8992,413.7112],[139.7234,-20.9058,487.3507],[139.7307,-20.7794,397.4927],[139.7369,-20.7795,387.7215],[139.7434,-20.6666,360.8511],[139.7986,-20.6705,413.4352],[139.8004,-20.6317,337.8543],[139.8945,-20.6348,396.6708],[139.9009,-20.6295,440.9581],[139.9022,-20.626,467.2311],[139.9071,-20.6259,455.9001],[139.9091,-20.6231,438.7049],[139.9097,-20.6154,450.2877],[139.9083,-20.6112,440.5103],[139.9113,-20.6043,437.2741],[139.9075,-20.5934,461.9592],[139.9089,-20.5906,472.5178],[139.9054,-20.5876,470.986],[139.9038,-20.5833,476.8875],[139.9,-20.5845,433.6235],[139.8982,-20.5835,437.8753],[139.8971,-20.5767,442.548],[139.8929,-20.5748,407.6815],[139.8883,-20.5696,403.0623],[139.8888,-20.5662,424.4163],[139.887,-20.5639,429.1743],[139.8834,-20.563,433.4333],[139.8847,-20.5526,441.0794],[139.8868,-20.5501,423.311],[139.8876,-20.5451,454.8693],[139.8794,-20.5312,437.0229],[139.8697,-20.5248,416.6865],[139.8682,-20.5198,462.6015],[139.8685,-20.5051,465.2008],[139.8668,-20.5006,456.9786],[139.8633,-20.4985,472.1461],[139.8688,-20.4931,485.4925],[139.8668,-20.4894,448.5266],[139.868,-20.4866,460.7817],[139.8757,-20.4837,482.2053],[139.8755,-20.4793,476.6601],[139.8817,-20.4696,460.5777],[139.8806,-20.465,438.9304],[139.8822,-20.4622,477.3323],[139.88,-20.4516,430.7031],[139.8814,-20.4461,389.6035],[139.8782,-20.436,426.644],[139.8875,-20.4384,337.6662],[139.9021,-20.4395,499.705],[139.909,-20.4556,500.8025],[139.9127,-20.4553,487.8026],[139.919,-20.4579,472.1341],[139.9216,-20.4618,462.2907],[139.9333,-20.4627,446.0418],[139.9367,-20.4605,450.6333],[139.9418,-20.4619,364.7299],[139.9454,-20.4661,357.3986],[139.9497,-20.4664,339.5372],[139.9505,-20.4735,371.0307],[139.955,-20.4762,354.8341],[139.9706,-20.5003,262.3486],[139.9889,-20.5134,268.3995],[139.9932,-20.5196,277.2977],[140.0018,-20.526,265.3582],[140.0024,-20.53,277.0691],[140.0275,-20.5392,280.9475],[140.0329,-20.5352,313.645],[140.0311,-20.5305,287.1053],[140.0245,-20.5238,278.9304],[140.0187,-20.509,258.4622],[140.0166,-20.5074,255.3157],[140.0231,-20.4364,264.2025],[140.013,-20.4211,246.6441],[139.9742,-20.4048,295.5979],[139.9486,-20.4017,299.7033],[139.9435,-20.3956,385.5356],[139.9435,-20.3904,415.384],[139.9474,-20.3851,332.2843],[139.9539,-20.3816,328.0271],[139.9542,-20.378,324.1281],[139.9526,-20.3731,316.6171],[139.9428,-20.3618,352.0376],[139.9453,-20.3573,412.9645],[139.9459,-20.3515,407.3787],[139.9423,-20.3455,422.6042],[139.9439,-20.3457,422.6042],[139.9439,-20.3438,426.2505],[139.9462,-20.3421,401.5232],[139.9466,-20.3387,411.7144],[139.9444,-20.3257,380.3076],[139.9465,-20.3231,366.5971],[139.9478,-20.3165,397.5863],[139.9439,-20.3073,350.8549],[139.9447,-20.299,363.9671],[139.9477,-20.2995,362.0986],[139.9501,-20.2931,339.2734],[139.9532,-20.294,317.5257],[139.9559,-20.2896,364.8812],[139.9556,-20.2856,355.5739],[139.958,-20.2833,343.1934],[139.9639,-20.2854,347.3003],[139.9693,-20.2847,323.7233],[139.9685,-20.2773,312.8882],[139.9747,-20.2757,321.9703],[139.9768,-20.27,299.0986],[139.9817,-20.2651,280.4202],[139.9768,-20.2571,273.4016],[139.9765,-20.2474,279.7631],[139.9786,-20.2452,276.5622],[139.9764,-20.241,272.3822],[139.9829,-20.2364,260.9613],[139.9836,-20.2331,260.4031],[139.9767,-20.2249,241.9216],[139.9729,-20.223,251.2892],[139.9707,-20.213,221.7777],[139.9582,-20.2097,201.7362],[139.9493,-20.2092,194.3956],[139.938,-20.2124,192.7781],[139.9264,-20.2115,200.2879],[139.8854,-20.2261,217.0345],[139.8656,-20.2278,238.7246],[139.858,-20.2323,275.2054],[139.8485,-20.2286,404.1465],[139.8353,-20.2289,273.674],[139.7997,-20.2251,258.1029],[139.7349,-20.2375,222.0],[139.7333,-20.2331,222.0],[139.7328,-20.2147,222.0],[139.7416,-20.2031,226.4987],[139.7416,-20.1989,223.7607],[139.7408,-20.1963,226.1082],[139.7307,-20.1892,222.0],[139.7317,-20.1849,223.4954],[139.7803,-20.1885,303.4509],[139.7935,-19.9735,285.5244],[139.8041,-19.9738,277.9513],[139.8061,-19.808,246.2714],[139.7956,-19.807,265.742],[139.7965,-19.7965,282.8542],[139.7287,-19.7935,213.7026],[139.726,-19.8479,218.8702],[139.5142,-19.8233,381.6082],[139.5327,-19.7246,256.8272],[139.47,-19.7193,278.4391],[139.4862,-19.4356,281.4614],[139.5143,-19.4381,203.6404],[139.516,-19.2919,243.5103],[139.5414,-19.2937,202.4959],[139.5508,-19.1667,189.6464],[139.2048,-19.1395,272.3303],[139.2086,-19.0845,160.0577],[139.1878,-19.0824,172.7948],[139.1771,-19.0747,175.6681],[139.178,-19.0629,167.3436],[139.1668,-19.0482,173.53],[139.1579,-19.0408,164.0079],[139.1959,-18.983,147.2118],[139.1838,-18.9758,157.6465],[139.2238,-18.915,122.4073],[139.1571,-18.8752,99.3649],[139.0487,-18.9645,145.5206],[138.9846,-18.9045,103.5054],[138.9924,-18.9024,103.0463],[139.0202,-18.8843,99.6312],[139.0325,-18.8825,97.6533],[139.0568,-18.8716,96.8165],[139.0684,-18.8678,99.5172],[139.0769,-18.8671,95.7626],[138.9984,-18.7821,137.4249],[138.7596,-18.9704,139.1056],[138.6043,-18.8165,167.0338],[138.5288,-18.882,196.2878],[138.4747,-18.8251,206.8412],[138.3127,-18.818,199.4164],[138.3159,-18.7847,196.954],[138.1925,-18.7774,180.3914],[138.2128,-18.499,141.3605],[138.2376,-18.1947,142.6817],[138.0012,-18.1816,181.1842],[138.0012,-18.6465,220.2761],[137.9966,-18.8682,249.6556],[137.996,-18.9985,246.8104],[137.9972,-21.1943,191.4671]]]]}}