{"type":"Feature","properties":{"GID_2":"AUS.5.47_1","GID_0":"AUS","country":"Australia","GID_1":"AUS.5_1","state":"NewSouthWales","NL_NAME_1":"NA","county":"Fairfield","VARNAME_2":"NA","NL_NAME_2":"NA","TYPE_2":"City","ENGTYPE_2":"City","CC_2":"12850","HASC_2":"AU.NS.FA","name":"Fairfield.county"},
"geometry":{"type": "MultiPolygon","coordinates": [[[[150.9905,-33.8641,49.1651],[150.9825,-33.8572,38.1134],[150.9614,-33.8699,13.227],[150.96,-33.8687,12.2955],[150.9614,-33.8688,12.3045],[150.9617,-33.8665,14.3409],[150.9599,-33.8646,12.7169],[150.9616,-33.8635,15.7029],[150.9595,-33.8625,17.0969],[150.9597,-33.8608,16.0363],[150.9574,-33.8605,14.5143],[150.9537,-33.854,17.1002],[150.9469,-33.8541,19.4021],[150.9447,-33.8499,20.1605],[150.9377,-33.8493,24.2837],[150.938,-33.846,23.1624],[150.9332,-33.8457,26.5391],[150.9326,-33.8432,24.2414],[150.9297,-33.8417,26.4588],[150.9243,-33.842,30.2844],[150.9226,-33.8395,30.4151],[150.9171,-33.8381,36.3238],[150.9157,-33.8357,36.2987],[150.9124,-33.8347,32.9757],[150.9144,-33.8323,65.4268],[150.9089,-33.8254,56.7224],[150.8959,-33.8286,53.6166],[150.8889,-33.834,62.5532],[150.888,-33.8297,58.9183],[150.8833,-33.8323,65.6195],[150.8843,-33.8275,58.4528],[150.8782,-33.829,73.1444],[150.8777,-33.8269,62.205],[150.8737,-33.8247,64.54],[150.8572,-33.8208,62.5387],[150.8277,-33.8207,71.5796],[150.8129,-33.8224,55.6088],[150.8116,-33.8251,56.4111],[150.8208,-33.8267,66.9878],[150.819,-33.8352,82.0709],[150.8235,-33.8359,89.0813],[150.815,-33.8795,79.0011],[150.8209,-33.8806,103.0782],[150.8287,-33.8756,105.4461],[150.8394,-33.8747,121.0774],[150.8524,-33.8835,64.0543],[150.8646,-33.8835,85.1662],[150.8572,-33.8944,55.837],[150.8678,-33.8958,68.1914],[150.8964,-33.9074,57.46],[150.9037,-33.9086,23.3754],[150.9078,-33.9142,13.1307],[150.9113,-33.9082,11.2006],[150.915,-33.9082,12.6475],[150.9173,-33.9039,15.0931],[150.9187,-33.9056,12.345],[150.9237,-33.9053,10.553],[150.9279,-33.9074,9.3969],[150.9287,-33.9052,8.5694],[150.9297,-33.9072,7.7769],[150.9335,-33.9067,7.0023],[150.9362,-33.9033,7.1224],[150.9383,-33.9042,7.0832],[150.9415,-33.9029,13.8703],[150.9417,-33.9049,7.7484],[150.9392,-33.9048,5.2689],[150.9409,-33.9061,7.7484],[150.9493,-33.9024,9.2477],[150.9497,-33.9055,2.0],[150.9607,-33.8988,5.0618],[150.9665,-33.9005,5.9203],[150.9665,-33.9027,4.9946],[150.9621,-33.9029,2.0],[150.9601,-33.9046,4.6287],[150.9662,-33.9097,4.5985],[150.9695,-33.911,2.1337],[150.9735,-33.9099,1.155],[150.9737,-33.907,5.579],[150.9774,-33.9092,4.1378],[150.9793,-33.9057,4.7066],[150.9734,-33.901,5.0781],[150.9725,-33.8981,5.8662],[150.9684,-33.8965,5.8198],[150.9671,-33.8901,8.9881],[150.9733,-33.8894,30.2402],[150.9905,-33.8641,49.1651]]]]}}