{"type": "Feature","bbox": [151.2875,-31.6381,152.3496,-30.757],"geometry": {"type": "MultiPolygon","coordinates": [[[[151.7199,-30.7958,953.1764],[151.7022,-30.8085,1068.0774],[151.6989,-30.8157,1141.722],[151.6987,-30.8227,1201.8792],[151.6946,-30.825,1207.8307],[151.6915,-30.8241,1182.7178],[151.6886,-30.8329,1300.5944],[151.6825,-30.8343,1281.0074],[151.6764,-30.8312,1169.0398],[151.6723,-30.8343,1155.422],[151.6622,-30.8333,1175.8923],[151.6584,-30.846,1146.6648],[151.657,-30.8471,1149.2875],[151.6543,-30.846,1145.8694],[151.6532,-30.8484,1148.5372],[151.6541,-30.8568,1153.0592],[151.6422,-30.8754,1210.5477],[151.6374,-30.8742,1255.1456],[151.6302,-30.8607,1236.0217],[151.6214,-30.8562,1234.9178],[151.617,-30.848,1166.9982],[151.5904,-30.8443,1136.9674],[151.5886,-30.8537,1111.0037],[151.5669,-30.8507,1106.5432],[151.5653,-30.8592,1109.4619],[151.5471,-30.8566,1098.2023],[151.5491,-30.8627,1105.4098],[151.5145,-30.8578,1078.293],[151.5124,-30.8691,1104.6998],[151.4975,-30.867,1125.8547],[151.4951,-30.8798,1123.6965],[151.4815,-30.8779,1080.297],[151.4799,-30.887,1125.7841],[151.4718,-30.8858,1102.4128],[151.4708,-30.8907,1126.9998],[151.4788,-30.8918,1123.3542],[151.478,-30.8955,1136.8733],[151.4618,-30.8932,1153.5896],[151.461,-30.897,1152.8726],[151.438,-30.8936,1117.0283],[151.443,-30.8678,1112.2373],[151.4304,-30.8659,1117.3319],[151.4319,-30.8587,1101.2449],[151.4058,-30.8548,1118.4928],[151.4084,-30.8485,1105.9218],[151.3988,-30.8472,1108.3594],[151.3997,-30.8428,1111.6331],[151.3955,-30.8421,1123.675],[151.3965,-30.8368,1119.0192],[151.3768,-30.8339,1099.8329],[151.3752,-30.8417,1078.2137],[151.3707,-30.8411,1095.3112],[151.364,-30.8768,982.3045],[151.3619,-30.8791,983.8599],[151.3557,-30.878,981.4457],[151.3539,-30.8727,980.1833],[151.3525,-30.8724,980.1833],[151.3522,-30.8739,973.7401],[151.3444,-30.8796,969.2111],[151.3452,-30.8823,965.1406],[151.3362,-30.8881,958.4888],[151.3383,-30.8903,959.1782],[151.3351,-30.8917,957.6323],[151.3351,-30.8952,959.0135],[151.3333,-30.8976,955.7917],[151.3307,-30.8951,952.9922],[151.3302,-30.8977,953.6255],[151.3287,-30.8981,959.169],[151.3277,-30.8938,953.1296],[151.3255,-30.8958,949.9556],[151.3243,-30.8946,942.5911],[151.3232,-30.8956,951.1345],[151.3239,-30.898,947.5149],[151.3222,-30.8964,932.9862],[151.3171,-30.9011,938.7366],[151.3102,-30.9037,902.9592],[151.3083,-30.9083,909.2815],[151.3029,-30.8995,891.0577],[151.2956,-30.9008,888.3176],[151.2885,-30.9071,885.6449],[151.2875,-30.9105,880.5273],[151.2915,-30.9108,883.2341],[151.2949,-30.9141,882.8358],[151.302,-30.9147,885.1685],[151.3084,-30.9201,888.7268],[151.3093,-30.9278,890.4421],[151.3177,-30.9278,896.2395],[151.3222,-30.9328,895.2543],[151.3249,-30.9397,903.932],[151.3347,-30.942,900.7241],[151.3372,-30.946,903.8367],[151.3431,-30.9464,906.6832],[151.3429,-30.9514,909.0131],[151.3454,-30.9535,903.6879],[151.3444,-30.9565,906.9442],[151.3481,-30.9623,915.849],[151.3467,-30.9651,906.1287],[151.3476,-30.968,908.0392],[151.3307,-30.9686,921.839],[151.3207,-30.9782,891.1877],[151.3134,-30.9828,868.0662],[151.3091,-30.9898,856.0969],[151.3224,-30.9917,1006.9432],[151.3204,-31.0028,992.6735],[151.3282,-31.004,1076.7729],[151.3319,-31.01,1114.5667],[151.3437,-31.0116,1097.6088],[151.3461,-31.0169,1085.8456],[151.3425,-31.019,1118.407],[151.3517,-31.023,1150.0377],[151.3493,-31.0279,1122.4198],[151.35,-31.0318,1100.3943],[151.3434,-31.0352,1094.4773],[151.342,-31.0429,943.1271],[151.3445,-31.0432,1018.174],[151.3439,-31.0458,916.4553],[151.3607,-31.0482,942.5869],[151.357,-31.0675,747.8773],[151.3531,-31.0671,721.9262],[151.3476,-31.0633,703.6366],[151.3414,-31.064,710.9022],[151.336,-31.0675,683.0594],[151.3336,-31.0671,691.8856],[151.3318,-31.0695,673.1735],[151.327,-31.0688,673.6453],[151.3243,-31.0699,665.4522],[151.3236,-31.0728,659.0443],[151.3203,-31.0725,671.4849],[151.318,-31.0742,653.8821],[151.3182,-31.0771,649.2749],[151.3158,-31.0766,646.1877],[151.313,-31.0784,636.7415],[151.3137,-31.0793,637.8859],[151.3112,-31.0794,636.7415],[151.3118,-31.0818,637.525],[151.3058,-31.0807,632.1302],[151.3079,-31.0823,620.225],[151.3035,-31.1027,769.1006],[151.3362,-31.1073,796.6783],[151.3333,-31.1228,768.3494],[151.3365,-31.1212,772.2708],[151.3367,-31.1193,790.6889],[151.3394,-31.1206,782.3293],[151.3345,-31.1468,761.6538],[151.3287,-31.1452,720.8149],[151.325,-31.1467,711.4962],[151.3191,-31.1757,843.2198],[151.3234,-31.1773,903.1998],[151.326,-31.1803,942.0678],[151.3311,-31.1783,937.319],[151.3394,-31.1812,976.2026],[151.3447,-31.1893,1021.0317],[151.3429,-31.1932,1022.312],[151.3448,-31.1948,1037.3674],[151.3445,-31.1969,1037.5734],[151.3507,-31.1972,994.8586],[151.3523,-31.1994,996.6533],[151.3565,-31.2006,1023.2189],[151.362,-31.1994,1019.5547],[151.3606,-31.2102,1051.4363],[151.3667,-31.2112,1087.6479],[151.3726,-31.2094,1114.9563],[151.377,-31.2067,1077.75],[151.3764,-31.2055,1067.1194],[151.3828,-31.2072,1147.3032],[151.3799,-31.2239,1089.0166],[151.3703,-31.2226,1038.749],[151.358,-31.2885,956.2836],[151.3628,-31.2905,993.1271],[151.3641,-31.2937,971.1713],[151.3657,-31.2917,976.1283],[151.3686,-31.298,978.7307],[151.3905,-31.3008,1136.4661],[151.3975,-31.2638,1145.3368],[151.4151,-31.2662,1091.8763],[151.4207,-31.2714,1187.6931],[151.4214,-31.2803,1211.4241],[151.4185,-31.3008,1226.3154],[151.4243,-31.3069,1214.261],[151.4202,-31.3119,1215.4098],[151.4208,-31.3177,1237.8318],[151.4267,-31.3266,1274.4272],[151.4374,-31.3303,1226.4253],[151.442,-31.3355,1233.913],[151.4451,-31.3359,1232.1807],[151.4481,-31.3389,1270.5142],[151.4517,-31.3515,1300.135],[151.4588,-31.356,1300.7754],[151.4571,-31.3652,1312.3372],[151.461,-31.3676,1322.7208],[151.466,-31.3776,1306.6843],[151.4641,-31.3827,1293.0817],[151.4545,-31.3825,1290.6146],[151.4472,-31.3884,1283.5209],[151.4358,-31.387,1302.4308],[151.4336,-31.3891,1293.4058],[151.4226,-31.3799,1312.7845],[151.42,-31.3826,1315.7806],[151.4153,-31.3831,1319.0986],[151.4127,-31.3872,1350.0171],[151.41,-31.3884,1351.2083],[151.4109,-31.395,1319.1787],[151.4073,-31.3973,1318.4271],[151.4111,-31.4045,1317.5554],[151.4131,-31.4056,1322.1086],[151.4145,-31.4102,1320.4183],[151.4211,-31.411,1304.8868],[151.4205,-31.4146,1278.2704],[151.4267,-31.4153,1280.485],[151.4225,-31.418,1268.5042],[151.4175,-31.4279,1294.0145],[151.4102,-31.4332,1349.9324],[151.4138,-31.4333,1340.3527],[151.4128,-31.4357,1304.0978],[151.4149,-31.4359,1314.8774],[151.412,-31.4397,1249.5593],[151.4194,-31.4407,1313.0101],[151.4162,-31.4447,1303.1331],[151.4156,-31.4487,1283.5402],[151.419,-31.4559,1268.9545],[151.4155,-31.4599,1231.8214],[151.4155,-31.4645,1255.0825],[151.4127,-31.4644,1248.575],[151.4111,-31.4664,1234.3196],[151.4115,-31.4716,1243.7009],[151.4091,-31.476,1249.5145],[151.4133,-31.4849,1259.0171],[151.4164,-31.486,1271.0969],[151.4214,-31.4841,1266.2917],[151.4239,-31.4848,1284.879],[151.4241,-31.489,1280.0165],[151.4212,-31.493,1272.3271],[151.4231,-31.496,1262.5364],[151.4277,-31.4987,1283.7034],[151.4267,-31.5006,1280.9938],[151.4188,-31.5026,1244.5312],[151.418,-31.5057,1277.6582],[151.4264,-31.5113,1250.5736],[151.4285,-31.5176,1224.0514],[151.4376,-31.5286,1135.2693],[151.4467,-31.5325,1117.4021],[151.4521,-31.5383,1029.0479],[151.4636,-31.5421,999.3568],[151.4675,-31.5451,978.463],[151.4837,-31.548,915.1067],[151.4846,-31.5526,908.9233],[151.4788,-31.5577,883.052],[151.4806,-31.5614,860.922],[151.4787,-31.5638,831.8437],[151.4818,-31.5663,838.8749],[151.4872,-31.5676,750.7471],[151.4898,-31.571,661.9896],[151.489,-31.5726,664.7295],[151.4937,-31.5739,622.1895],[151.4962,-31.571,632.0581],[151.4984,-31.5753,594.1581],[151.5037,-31.5751,583.3088],[151.5055,-31.5769,583.688],[151.5045,-31.5781,583.4765],[151.5077,-31.5796,605.962],[151.5121,-31.5781,554.6797],[151.5123,-31.5799,562.8384],[151.5146,-31.5809,551.3157],[151.5139,-31.5841,552.451],[151.5118,-31.5855,534.5432],[151.5142,-31.5856,537.5558],[151.513,-31.5881,569.4912],[151.5213,-31.5865,525.5681],[151.5213,-31.5894,528.321],[151.5244,-31.5904,511.2224],[151.5259,-31.5933,536.7834],[151.532,-31.592,501.3195],[151.5303,-31.5942,492.5566],[151.5366,-31.5963,485.9458],[151.5365,-31.5991,480.5287],[151.5407,-31.6008,476.0746],[151.5515,-31.6042,455.3195],[151.5514,-31.6008,498.7942],[151.5575,-31.601,467.0654],[151.5576,-31.6032,469.2256],[151.561,-31.6034,436.1976],[151.5614,-31.6067,472.9549],[151.5656,-31.6061,484.5267],[151.5697,-31.61,454.8245],[151.5711,-31.6062,436.4856],[151.5757,-31.605,437.6564],[151.5768,-31.6023,424.3316],[151.5803,-31.6035,422.2222],[151.58,-31.6049,476.5291],[151.5844,-31.605,438.4205],[151.5853,-31.6027,433.8298],[151.5907,-31.6029,400.9548],[151.594,-31.5992,409.2393],[151.5965,-31.6005,390.8266],[151.6014,-31.5955,395.1791],[151.6027,-31.5972,373.8396],[151.6018,-31.5992,371.0709],[151.6054,-31.5987,407.1491],[151.6095,-31.602,402.5043],[151.6098,-31.6081,358.5925],[151.6149,-31.6067,349.9852],[151.6161,-31.6089,360.0301],[151.6179,-31.6074,378.0628],[151.6197,-31.6085,358.6114],[151.625,-31.6071,343.9688],[151.6283,-31.6087,366.952],[151.6286,-31.612,333.1385],[151.6313,-31.6123,336.6216],[151.6337,-31.6153,327.1803],[151.6372,-31.6102,307.2664],[151.6397,-31.6116,333.2274],[151.6454,-31.6105,296.5052],[151.6426,-31.6085,288.9142],[151.642,-31.6054,298.947],[151.647,-31.6071,280.447],[151.6499,-31.6049,284.0134],[151.6501,-31.6023,296.5361],[151.6514,-31.6024,282.3247],[151.6564,-31.6048,271.3446],[151.6563,-31.6081,296.4884],[151.6592,-31.6081,301.8317],[151.657,-31.6132,266.6575],[151.6609,-31.6122,274.1501],[151.6649,-31.6137,264.4741],[151.6674,-31.6114,273.3745],[151.6741,-31.6132,267.9829],[151.682,-31.6088,256.0003],[151.6852,-31.6121,259.9595],[151.6922,-31.6147,265.9237],[151.6882,-31.6185,244.9244],[151.6906,-31.6228,241.6017],[151.6958,-31.6219,247.3215],[151.6991,-31.6234,259.9893],[151.7012,-31.6199,237.0357],[151.7097,-31.624,237.2129],[151.7132,-31.6206,257.6007],[151.7187,-31.6266,243.128],[151.7237,-31.6288,234.7786],[151.7263,-31.629,222.3117],[151.7269,-31.6268,229.2091],[151.733,-31.6284,226.0186],[151.7396,-31.6358,244.2768],[151.7568,-31.6381,363.1609],[151.7538,-31.6341,427.6818],[151.756,-31.6318,406.7971],[151.7561,-31.6257,626.7405],[151.7587,-31.6251,634.7365],[151.7563,-31.6205,777.9179],[151.7586,-31.6186,805.4189],[151.756,-31.6092,852.9137],[151.7573,-31.6075,872.1272],[151.7567,-31.6017,926.1338],[151.7753,-31.5904,747.8383],[151.7751,-31.5917,776.7073],[151.7816,-31.5926,762.1595],[151.783,-31.5856,703.1885],[151.8025,-31.5739,1018.961],[151.8004,-31.5676,952.1631],[151.7928,-31.5648,978.5559],[151.7882,-31.5593,943.3901],[151.7866,-31.5478,931.5375],[151.7639,-31.5409,945.6451],[151.7585,-31.5354,973.4056],[151.7597,-31.5307,971.5216],[151.7548,-31.527,988.7501],[151.7537,-31.5244,979.2193],[151.7566,-31.5203,973.8291],[151.7533,-31.5143,958.9547],[151.7607,-31.5154,948.1017],[151.7616,-31.5112,933.3844],[151.7744,-31.5131,917.6635],[151.7774,-31.5117,943.7833],[151.7806,-31.5136,941.9851],[151.7893,-31.5149,900.5573],[151.7953,-31.5108,740.0345],[151.7974,-31.5069,671.085],[151.8024,-31.505,611.2267],[151.8428,-31.509,700.5388],[151.8446,-31.4995,759.1265],[151.9158,-31.5101,356.9556],[151.9189,-31.5071,365.442],[151.9171,-31.5042,374.9746],[151.9129,-31.5037,377.9655],[151.9126,-31.5013,383.628],[151.9108,-31.5004,377.5318],[151.9148,-31.4939,423.211],[151.9117,-31.4916,432.0312],[151.9124,-31.4877,402.0763],[151.9092,-31.4878,398.5192],[151.9115,-31.485,406.1815],[151.9152,-31.4839,395.7939],[151.9148,-31.482,406.469],[151.9104,-31.4817,407.2911],[151.9128,-31.4767,419.5421],[151.9805,-31.4874,518.7896],[151.9807,-31.4862,505.0757],[152.0839,-31.5005,303.007],[152.084,-31.4979,344.2051],[152.0871,-31.4962,342.0066],[152.0821,-31.4906,355.9163],[152.0834,-31.4873,365.872],[152.0817,-31.4852,358.1728],[152.0844,-31.4837,367.4541],[152.0807,-31.4799,400.5837],[152.0823,-31.4751,418.6795],[152.0785,-31.4735,475.727],[152.0808,-31.4717,483.493],[152.0799,-31.4621,448.6468],[152.0834,-31.4589,451.1116],[152.0858,-31.4597,469.517],[152.0878,-31.4562,482.9654],[152.0853,-31.4498,504.7682],[152.0769,-31.4447,519.8461],[152.0757,-31.4457,521.4067],[152.0703,-31.4411,549.6138],[152.0684,-31.4427,529.206],[152.0646,-31.4385,541.3717],[152.0658,-31.4334,542.8181],[152.0643,-31.4331,542.8181],[152.0645,-31.4306,594.6997],[152.0619,-31.4292,574.3643],[152.0679,-31.3984,911.8955],[152.0695,-31.3998,907.886],[152.069,-31.4032,892.1763],[152.0706,-31.4037,857.9654],[152.0736,-31.4027,853.8841],[152.0747,-31.4003,850.6295],[152.0769,-31.4013,843.0997],[152.0784,-31.3984,814.595],[152.0873,-31.3917,809.8561],[152.0923,-31.3921,828.9397],[152.0966,-31.3883,805.7344],[152.0996,-31.3931,772.8293],[152.1237,-31.2787,1090.7952],[152.1298,-31.2814,1112.3221],[152.1325,-31.2795,1123.9257],[152.1349,-31.2799,1112.7368],[152.1389,-31.2854,1106.1875],[152.1419,-31.2821,1119.7397],[152.1475,-31.2799,1129.4268],[152.1529,-31.273,1103.042],[152.1523,-31.2686,1127.0447],[152.161,-31.2402,1090.1731],[152.1597,-31.2354,1091.1691],[152.1606,-31.23,1076.5559],[152.1526,-31.2275,1093.0537],[152.1496,-31.2238,1072.8751],[152.1535,-31.219,1055.7783],[152.1527,-31.2148,1054.4238],[152.1541,-31.2093,1073.7856],[152.1525,-31.2059,1084.9734],[152.1482,-31.2048,1077.5824],[152.147,-31.1981,1060.1914],[152.1518,-31.1881,1075.7949],[152.1572,-31.1863,1086.8313],[152.1605,-31.1888,1084.9695],[152.1638,-31.1887,1058.6868],[152.1652,-31.1908,1061.9331],[152.1707,-31.1907,1049.053],[152.1753,-31.1982,1081.3696],[152.179,-31.1995,1079.3817],[152.1997,-31.1936,950.6772],[152.2054,-31.1977,952.7352],[152.2094,-31.1976,927.7138],[152.2125,-31.202,918.0433],[152.2173,-31.2022,852.9407],[152.2234,-31.2079,1009.5723],[152.2321,-31.2055,1091.5072],[152.2324,-31.1996,1069.2004],[152.2341,-31.1975,1062.7463],[152.2402,-31.2009,1015.9128],[152.2427,-31.2045,1066.5267],[152.2517,-31.2063,1051.709],[152.2576,-31.2009,996.6521],[152.2547,-31.1945,982.9368],[152.3166,-31.2029,1017.3654],[152.3309,-31.1275,1117.6418],[152.3331,-31.1277,1105.278],[152.3333,-31.1264,1105.278],[152.3426,-31.1283,1125.1205],[152.3435,-31.1244,1122.7236],[152.3368,-31.1157,1120.8811],[152.3389,-31.114,1160.3665],[152.3424,-31.1146,1182.2704],[152.3452,-31.1173,1191.3416],[152.3488,-31.1174,1210.134],[152.3496,-31.1136,1130.2864],[152.3481,-31.1092,1192.929],[152.3444,-31.1067,1166.1501],[152.3365,-31.1052,1101.9169],[152.3372,-31.1026,1029.5687],[152.3346,-31.0934,1071.2961],[152.3367,-31.0888,1065.6025],[152.3347,-31.0848,1005.1939],[152.3374,-31.0801,1019.3328],[152.3342,-31.0757,1004.9695],[152.3406,-31.0682,986.92],[152.3311,-31.0573,984.3319],[152.3315,-31.0556,1015.7442],[152.3452,-31.0506,1059.2598],[152.3434,-31.0399,1023.011],[152.3387,-31.0355,1019.2524],[152.334,-31.0355,1013.2332],[152.3312,-31.0316,1039.2603],[152.3264,-31.0301,1048.1465],[152.3244,-31.0249,1015.6609],[152.3192,-31.0251,978.6271],[152.3153,-31.0278,1006.2103],[152.3113,-31.025,995.7904],[152.307,-31.0249,1018.1195],[152.2996,-31.0198,969.7496],[152.299,-31.0173,1002.4211],[152.2926,-31.0152,1007.8353],[152.2926,-31.0115,1019.0787],[152.2878,-31.0127,1019.0137],[152.2852,-31.0104,1020.3138],[152.2765,-31.0095,979.0743],[152.2698,-30.9991,943.7157],[152.2708,-30.9963,945.6317],[152.2752,-30.9939,938.2388],[152.2824,-30.9857,965.2516],[152.2836,-30.9797,997.7885],[152.2887,-30.9809,999.7396],[152.2912,-30.9754,979.7124],[152.2941,-30.9731,982.01],[152.2919,-30.972,993.1045],[152.2915,-30.9682,983.8317],[152.288,-30.9669,953.5314],[152.2907,-30.9613,975.129],[152.286,-30.9597,941.7142],[152.2873,-30.9544,915.1849],[152.2843,-30.9491,897.2131],[152.2854,-30.9439,974.8831],[152.2884,-30.9436,985.6304],[152.2881,-30.9413,975.6932],[152.293,-30.9365,957.1054],[152.2935,-30.9332,976.9344],[152.2958,-30.931,992.8558],[152.2005,-30.9152,299.676],[152.1954,-30.9196,271.1866],[152.1921,-30.9175,227.1505],[152.1913,-30.9149,217.823],[152.1846,-30.9155,242.4839],[152.1824,-30.9126,217.6315],[152.1775,-30.9152,223.8764],[152.1788,-30.9109,210.8184],[152.1699,-30.9114,232.495],[152.1676,-30.9093,195.1969],[152.1703,-30.904,194.0704],[152.1698,-30.9013,198.6227],[152.1647,-30.8966,242.67],[152.1628,-30.889,177.0597],[152.1574,-30.8868,207.5641],[152.1576,-30.8824,173.1364],[152.1551,-30.8789,172.8288],[152.1559,-30.876,171.2041],[152.1533,-30.8726,182.2446],[152.1509,-30.8721,168.0426],[152.1518,-30.8685,174.0447],[152.1504,-30.8676,161.7237],[152.1463,-30.8717,173.0148],[152.1428,-30.8722,165.6172],[152.1341,-30.8669,162.3539],[152.1311,-30.8605,163.4995],[152.1253,-30.8587,168.3126],[152.1216,-30.8599,208.6624],[152.1232,-30.8654,168.4743],[152.1224,-30.8691,162.8294],[152.1176,-30.8705,179.8921],[152.1147,-30.8656,167.8168],[152.1056,-30.857,206.7131],[152.1027,-30.8555,174.094],[152.0931,-30.8554,180.8716],[152.0873,-30.8528,171.7679],[152.0854,-30.8505,174.9067],[152.0859,-30.8453,172.7647],[152.0842,-30.8422,177.3781],[152.0811,-30.8435,174.6498],[152.0774,-30.8499,210.1492],[152.0744,-30.8477,181.9979],[152.0623,-30.8474,187.4122],[152.0577,-30.8519,203.7258],[152.0584,-30.8565,195.9791],[152.0566,-30.8588,175.8296],[152.0442,-30.8624,188.3118],[152.0386,-30.8612,185.1193],[152.0359,-30.8587,187.4352],[152.0359,-30.8563,198.9948],[152.0492,-30.8431,188.8311],[152.0495,-30.8399,193.6699],[152.0477,-30.8376,260.7729],[152.0457,-30.838,190.709],[152.0461,-30.842,202.3846],[152.0418,-30.8458,191.3876],[152.0332,-30.8442,210.251],[152.0313,-30.8425,195.2648],[152.0308,-30.8366,191.9616],[152.0262,-30.8328,213.6946],[152.0248,-30.8273,197.2427],[152.0214,-30.825,204.91],[152.0167,-30.8259,206.8227],[152.0147,-30.8247,285.889],[152.0158,-30.8217,203.4494],[152.0201,-30.8196,260.6094],[152.0211,-30.8171,260.5207],[152.015,-30.8105,203.0643],[152.0176,-30.8029,204.8266],[152.0166,-30.8,205.2986],[152.0112,-30.7995,231.6933],[152.0072,-30.8014,213.203],[152.0091,-30.808,295.0993],[152.0038,-30.8122,217.9057],[151.9984,-30.8047,293.6526],[151.9929,-30.8017,217.6344],[151.9895,-30.8037,257.4292],[151.9921,-30.8068,226.5226],[151.9918,-30.8093,224.0725],[151.9859,-30.8082,219.2131],[151.9798,-30.8106,232.6882],[151.9772,-30.8082,242.7853],[151.9803,-30.8054,237.8984],[151.9791,-30.8033,227.0867],[151.9732,-30.8042,240.6617],[151.9719,-30.8015,232.5368],[151.9689,-30.8006,244.8367],[151.9629,-30.8045,228.3155],[151.9595,-30.8039,229.7446],[151.9588,-30.8023,230.8402],[151.9639,-30.7963,244.2399],[151.9643,-30.793,231.582],[151.9612,-30.7914,243.4419],[151.9544,-30.7954,243.0539],[151.952,-30.7944,235.3063],[151.9552,-30.7896,257.172],[151.9545,-30.7864,245.8923],[151.9483,-30.7748,279.7658],[151.9432,-30.7741,252.3295],[151.9431,-30.7714,269.683],[151.9389,-30.7682,278.6454],[151.944,-30.7644,267.3033],[151.9448,-30.7619,301.027],[151.9347,-30.7614,298.3442],[151.9368,-30.757,292.5586],[151.9318,-30.7611,376.9617],[151.9317,-30.7685,619.6606],[151.9181,-30.7663,718.1542],[151.909,-30.7677,375.6638],[151.9028,-30.7645,372.0944],[151.9004,-30.7686,326.2095],[151.8961,-30.7695,331.4947],[151.8896,-30.7675,338.3857],[151.8909,-30.7709,330.7845],[151.8865,-30.7693,364.6376],[151.8865,-30.7729,348.4033],[151.88,-30.771,361.6477],[151.8768,-30.7746,393.8316],[151.8772,-30.7778,360.678],[151.8726,-30.7764,381.5709],[151.8672,-30.7801,397.2283],[151.8654,-30.7795,375.269],[151.8644,-30.7763,387.1788],[151.8621,-30.7765,382.9566],[151.8581,-30.7801,403.0594],[151.8562,-30.7792,404.4066],[151.8548,-30.7745,453.5504],[151.8512,-30.7761,401.239],[151.8486,-30.775,408.5997],[151.8423,-30.7786,416.6877],[151.844,-30.7831,506.7424],[151.8406,-30.7809,446.0343],[151.836,-30.786,450.083],[151.8296,-30.7832,434.3822],[151.8152,-30.7869,459.1001],[151.8132,-30.7895,465.1885],[151.8114,-30.7873,486.465],[151.8132,-30.7847,484.8859],[151.8095,-30.7844,488.8622],[151.8074,-30.7814,508.3074],[151.8036,-30.7826,498.4983],[151.8018,-30.7802,517.0556],[151.7978,-30.78,548.5459],[151.7957,-30.7826,561.3231],[151.7914,-30.7827,576.8494],[151.7846,-30.7796,629.9666],[151.781,-30.78,621.5948],[151.7801,-30.7822,650.1321],[151.7755,-30.7771,632.4545],[151.7714,-30.7795,719.8397],[151.7754,-30.7833,669.1333],[151.7744,-30.7847,759.1237],[151.7596,-30.7836,774.5545],[151.7564,-30.7858,783.6024],[151.7526,-30.7852,804.7513],[151.7445,-30.7897,858.6854],[151.7393,-30.7872,832.3713],[151.7337,-30.7893,813.1705],[151.7314,-30.7884,817.2971],[151.7199,-30.7958,953.1764]]]]}
,"properties": {"GID_2": "AUS.5.137_1","GID_0": "AUS","country": "Australia","GID_1": "AUS.5_1","state": "NewSouthWales","NL_NAME_1": "NA","county": "Walcha","VARNAME_2": "NA","NL_NAME_2": "NA","TYPE_2": "Area","ENGTYPE_2": "Area","CC_2": "17850","HASC_2": "AU.NS.WH","name": "Walcha.county","area_km2": 6268.036,"hist_schema_id": "Elevation0-9000","hist_area_km2": {"150": 0.237,"175": 2.566,"200": 6.024,"225": 9.586,"250": 15.053,"275": 19.857,"300": 24.903,"325": 29.295,"350": 34.125,"375": 37.446,"400": 41.965,"425": 43.919,"450": 48.667,"475": 53.322,"500": 59.368,"525": 63.493,"550": 67.206,"575": 68.83,"600": 69.482,"625": 70.309,"650": 73.206,"675": 74.943,"700": 72.711,"725": 73.817,"750": 71.955,"775": 71.356,"800": 74.15,"825": 77.877,"850": 100.969,"875": 125.747,"900": 161.294,"925": 204.579,"950": 233.174,"975": 234.886,"1000": 233.742,"1025": 282.281,"1050": 365.871,"1075": 435.949,"1100": 477.298,"1125": 441.407,"1150": 379.785,"1175": 298.789,"1200": 227.583,"1225": 188.055,"1250": 185.581,"1275": 144.865,"1300": 91.114,"1325": 43.215,"1350": 24.868,"1375": 19.669,"1400": 8.803,"1425": 1.993,"1450": 0.851}}}