{"type": "Feature","bbox": [145.2133,-37.8439,145.3187,-37.7618],"geometry": {"type": "MultiPolygon","coordinates": [[[[145.318,-37.8439,137.8257],[145.3187,-37.8317,142.066],[145.3168,-37.8182,126.4677],[145.3043,-37.8215,114.4087],[145.3091,-37.7954,105.8969],[145.307,-37.7924,113.7464],[145.3086,-37.7896,93.4385],[145.3057,-37.7892,109.8837],[145.3053,-37.7844,95.8029],[145.3055,-37.7831,95.8029],[145.3074,-37.7837,88.8337],[145.306,-37.7799,86.1696],[145.3079,-37.7775,81.799],[145.3035,-37.7757,80.2125],[145.2973,-37.7704,77.5845],[145.3003,-37.7674,79.1489],[145.2959,-37.7664,76.3021],[145.2964,-37.7635,75.5493],[145.2782,-37.7618,113.3457],[145.2719,-37.7631,148.7515],[145.2654,-37.7669,126.0593],[145.2577,-37.765,101.3204],[145.2538,-37.7663,141.5566],[145.2406,-37.7648,121.6249],[145.236,-37.7901,143.1139],[145.2227,-37.7889,138.6872],[145.2221,-37.7923,132.2895],[145.2202,-37.7926,132.2895],[145.2172,-37.7909,113.6786],[145.2134,-37.8122,112.3307],[145.2133,-37.841,86.3858],[145.2171,-37.8381,80.0261],[145.2321,-37.8401,86.8625],[145.2566,-37.8358,97.1133],[145.2671,-37.837,98.8322],[145.2787,-37.8358,104.1931],[145.2816,-37.833,106.2132],[145.2935,-37.8341,113.8064],[145.3087,-37.8427,131.243],[145.318,-37.8439,137.8257]]]]}
,"properties": {"GID_2": "AUS.10.43_1","GID_0": "AUS","country": "Australia","GID_1": "AUS.10_1","state": "Victoria","NL_NAME_1": "NA","county": "Maroondah","VARNAME_2": "NA","NL_NAME_2": "NA","TYPE_2": "City","ENGTYPE_2": "City","CC_2": "24410","HASC_2": "AU.VI.MH","name": "Maroondah.county","area_km2": 61.39576,"hist_schema_id": "Elevation0-9000","hist_area_km2": {"75": 2.04395,"100": 16.39834,"125": 25.57964,"150": 14.09004,"175": 2.96545,"200": 0.31834}}}