{"type": "Feature","bbox": [115.918,-29.9294,117.1531,-28.8662],"geometry": {"type": "MultiPolygon","coordinates": [[[[116.1629,-29.7489,318.2049],[116.1797,-29.7487,300.5296],[116.18,-29.7636,301.4302],[116.1879,-29.7636,314.4407],[116.1883,-29.7733,310.0748],[116.217,-29.7732,283.7462],[116.217,-29.7636,285.2354],[116.2459,-29.7635,292.4669],[116.2461,-29.7914,276.7576],[116.2732,-29.7913,284.909],[116.2714,-29.8005,271.869],[116.2827,-29.8005,267.9309],[116.2915,-29.8036,268.7928],[116.2967,-29.8003,269.9644],[116.2946,-29.8038,268.5],[116.2969,-29.8065,269.5901],[116.2969,-29.8148,269.1849],[116.3052,-29.8148,275.1891],[116.3052,-29.8204,279.6106],[116.2896,-29.8205,275.4765],[116.2908,-29.8337,266.5369],[116.2953,-29.8334,266.4106],[116.2952,-29.8603,288.2522],[116.3072,-29.8603,295.9072],[116.3075,-29.8951,288.6506],[116.3169,-29.8954,287.1776],[116.3169,-29.9044,295.7873],[116.3202,-29.9045,292.0731],[116.3202,-29.911,297.6498],[116.3221,-29.911,296.5991],[116.3221,-29.9256,320.7777],[116.3455,-29.9256,322.3051],[116.3455,-29.9294,332.5342],[116.3536,-29.9294,348.1611],[116.3536,-29.9219,344.7886],[116.3768,-29.9231,326.3627],[116.3768,-29.9243,326.3627],[116.4501,-29.9241,309.2366],[116.45,-29.9265,314.7402],[116.463,-29.9267,322.4345],[116.463,-29.9198,324.5573],[116.5066,-29.9198,327.5384],[116.5067,-29.9131,331.159],[116.5232,-29.913,349.5464],[116.5215,-29.9101,345.5878],[116.5221,-29.9042,333.9734],[116.5883,-29.9049,334.3999],[116.6055,-29.9074,345.392],[116.7462,-29.9074,285.6536],[116.7401,-29.8968,292.1671],[116.7587,-29.8883,276.8079],[116.7529,-29.8782,278.2464],[116.7689,-29.8711,275.1173],[116.7797,-29.8894,276.4455],[116.8183,-29.8898,277.3475],[116.815,-29.8867,273.4417],[116.7966,-29.8786,273.6866],[116.791,-29.8688,272.7824],[116.7958,-29.8698,273.6165],[116.801,-29.8665,274.4302],[116.8053,-29.8665,275.8478],[116.8096,-29.8643,275.2169],[116.8221,-29.8515,274.7885],[116.8368,-29.8464,275.3074],[116.8423,-29.8399,274.1949],[116.8399,-29.8368,274.2041],[116.8234,-29.8347,271.4666],[116.8178,-29.8317,273.8663],[116.8048,-29.8172,272.9917],[116.8065,-29.8174,272.9917],[116.8055,-29.815,274.07],[116.8031,-29.8136,273.7859],[116.7983,-29.806,271.0],[116.7928,-29.7897,274.6959],[116.7952,-29.7724,273.6642],[116.7919,-29.7638,272.4529],[116.7902,-29.7485,271.0],[116.7921,-29.7433,275.9827],[116.8565,-29.7431,287.7339],[116.8564,-29.7703,314.7841],[116.8575,-29.7734,311.9832],[117.1009,-29.7734,357.0123],[117.1015,-29.4421,313.1164],[117.0289,-29.4406,324.079],[117.0289,-29.2621,315.1511],[117.1531,-29.2621,282.1844],[117.1531,-29.1864,335.4156],[117.0308,-29.1865,356.6634],[117.0306,-29.1429,374.3897],[117.0516,-29.1429,364.6886],[117.0516,-29.1218,351.1791],[117.0648,-29.1218,339.8284],[117.0648,-29.1,347.4592],[117.0516,-29.1,354.3291],[117.0516,-29.0618,367.4226],[116.9592,-29.0618,420.2466],[116.9592,-29.0709,406.0529],[116.9335,-29.0709,376.2018],[116.9337,-28.9604,408.6787],[116.8392,-28.9609,406.2066],[116.8385,-28.8662,369.9865],[116.6255,-28.8667,368.6269],[116.6264,-28.908,350.4001],[116.5463,-28.908,317.2097],[116.5465,-29.0818,316.5516],[116.4804,-29.0818,282.114],[116.4804,-29.0939,282.4823],[116.491,-29.0939,292.0738],[116.4909,-29.194,266.7831],[116.4244,-29.1933,268.6071],[116.3856,-29.1951,266.5927],[116.3863,-29.2593,300.6564],[116.314,-29.2598,292.6641],[116.2922,-29.2662,302.9749],[116.2922,-29.2626,299.6395],[116.2735,-29.2626,354.4902],[116.2735,-29.2743,333.9217],[116.258,-29.2744,328.0167],[116.2533,-29.2775,320.6376],[116.1615,-29.2853,288.738],[116.13,-29.2849,285.0734],[116.1321,-29.2871,284.8925],[116.1178,-29.2871,282.7577],[116.1197,-29.2894,280.6337],[116.1197,-29.324,275.5073],[115.9187,-29.3245,249.7795],[115.918,-29.4058,254.1796],[115.9679,-29.4057,283.6899],[115.9682,-29.4642,282.9017],[116.0181,-29.4641,285.204],[116.018,-29.5158,324.4825],[116.0538,-29.516,333.4217],[116.0796,-29.5252,303.643],[116.076,-29.5289,306.4061],[116.0835,-29.5289,297.8035],[116.0836,-29.5499,318.7573],[116.102,-29.5499,292.5387],[116.1022,-29.5938,277.5823],[116.1169,-29.5939,291.1345],[116.117,-29.6206,290.0137],[116.1058,-29.6207,283.1178],[116.1058,-29.6507,308.0837],[116.1341,-29.6509,298.327],[116.1338,-29.6731,321.0762],[116.1358,-29.6729,315.3858],[116.1359,-29.6814,310.0286],[116.144,-29.6802,310.9243],[116.1439,-29.7195,347.3054],[116.163,-29.7173,316.176],[116.1629,-29.7489,318.2049]]]]}
,"properties": {"GID_2": "AUS.11.100_1","GID_0": "AUS","country": "Australia","GID_1": "AUS.11_1","state": "WesternAustralia","NL_NAME_1": "NA","county": "Perenjori","VARNAME_2": "NA","NL_NAME_2": "NA","TYPE_2": "Shire","ENGTYPE_2": "Shire","CC_2": "57000","HASC_2": "AU.WA.PJ","name": "Perenjori.county","area_km2": 8313.931,"hist_schema_id": "Elevation0-9000","hist_area_km2": {"250": 151.583,"275": 1810.318,"300": 2533.688,"325": 1884.217,"350": 1192.15,"375": 529.969,"400": 178.268,"425": 26.85,"450": 5.073,"475": 1.5,"500": 0.315}}}