{"type": "Feature","bbox": [147.1892,-38.0788,149.9767,-36.6124],"geometry": {"type": "MultiPolygon","coordinates": [[[[149.9056,-37.5487,0.0],[149.9087,-37.5563,5.1484],[149.9082,-37.5585,14.8755],[149.9046,-37.5589,0.0],[149.9056,-37.5665,8.8745],[149.9102,-37.5693,4.9582],[149.9177,-37.5691,5.9093],[149.9162,-37.5633,3.9872],[149.9181,-37.5633,0.0],[149.9181,-37.5612,0.0],[149.9153,-37.5592,3.3078],[149.914,-37.5555,0.0],[149.9056,-37.5487,0.0]]],
[[[149.8466,-37.557,0.0],[149.8448,-37.5546,0.0],[149.8432,-37.5569,0.0],[149.845,-37.5575,0.0],[149.8466,-37.557,0.0]]],
[[[149.3971,-37.279,376.8453],[148.9051,-37.0836,831.9332],[148.1949,-36.7963,1309.2755],[148.1867,-36.8041,1262.1035],[148.1825,-36.8049,1252.4392],[148.1795,-36.7963,1211.829],[148.1761,-36.7967,1182.9261],[148.1682,-36.7925,1179.4207],[148.1639,-36.7948,1176.9351],[148.1638,-36.7924,1156.0809],[148.1585,-36.7932,1171.4375],[148.157,-36.7915,1128.9565],[148.1577,-36.7902,1122.7318],[148.1563,-36.79,1122.5886],[148.1517,-36.7931,1132.4548],[148.1487,-36.7919,1095.2249],[148.149,-36.7942,1097.1147],[148.1464,-36.7954,1100.7478],[148.1368,-36.7945,1069.2595],[148.1365,-36.7958,1033.394],[148.134,-36.7951,1021.7469],[148.1351,-36.7971,1020.041],[148.1297,-36.7957,1005.0708],[148.1268,-36.7965,997.9527],[148.1263,-36.8014,1025.3302],[148.1227,-36.801,999.205],[148.1219,-36.8045,968.4481],[148.1192,-36.8058,958.4226],[148.1129,-36.8002,915.1837],[148.1089,-36.8009,905.5929],[148.108,-36.7988,901.2803],[148.1105,-36.7983,908.6443],[148.1047,-36.7898,869.0551],[148.1002,-36.7916,865.2482],[148.098,-36.7872,888.4761],[148.1016,-36.7889,861.5166],[148.1037,-36.788,886.1098],[148.1055,-36.7848,851.1297],[148.1047,-36.7805,890.1972],[148.1108,-36.774,841.7197],[148.1129,-36.7681,849.0873],[148.1161,-36.7657,841.0421],[148.1216,-36.7647,835.6434],[148.1221,-36.7622,826.8849],[148.1261,-36.7594,855.7833],[148.1202,-36.7594,821.1031],[148.1205,-36.7563,823.5536],[148.1285,-36.7527,816.7103],[148.1286,-36.7504,825.0892],[148.1325,-36.751,811.6195],[148.1332,-36.747,811.4242],[148.1319,-36.7449,810.504],[148.1345,-36.7437,842.0105],[147.9602,-36.6124,1737.2343],[147.5419,-36.7376,1269.6951],[147.5423,-36.7422,1255.6689],[147.5357,-36.7526,1134.6361],[147.5266,-36.7564,1228.9265],[147.5271,-36.7586,1282.6156],[147.5311,-36.7619,1264.507],[147.5286,-36.7696,1209.8019],[147.521,-36.7736,1230.8422],[147.5139,-36.7725,1193.2905],[147.5013,-36.7762,1162.6288],[147.4974,-36.7785,1154.4033],[147.4961,-36.7816,1140.2085],[147.4853,-36.7805,1194.1578],[147.4714,-36.7831,1305.811],[147.4704,-36.7842,1304.6023],[147.4713,-36.7887,1341.0679],[147.4688,-36.7935,1426.5945],[147.4632,-36.7945,1471.2856],[147.4649,-36.7967,1559.9896],[147.464,-36.8017,1618.5372],[147.4585,-36.803,1542.3926],[147.4453,-36.8,1280.2654],[147.4394,-36.8008,1217.7262],[147.4303,-36.7948,1236.1791],[147.4287,-36.7899,1226.9901],[147.4263,-36.7904,1254.4004],[147.4241,-36.7885,1236.5361],[147.4242,-36.7861,1236.1593],[147.4196,-36.7841,1261.1176],[147.42,-36.783,1244.0891],[147.4131,-36.7834,1356.5105],[147.413,-36.7819,1377.8865],[147.4063,-36.7776,1385.5356],[147.409,-36.768,1485.6774],[147.4076,-36.7653,1489.885],[147.3968,-36.7601,1505.5005],[147.3949,-36.7575,1548.8207],[147.3876,-36.7574,1565.8656],[147.3801,-36.7507,1579.7699],[147.3708,-36.7515,1564.0417],[147.36,-36.7493,1580.3225],[147.3418,-36.7505,1748.1772],[147.332,-36.7479,1705.2366],[147.3262,-36.7495,1837.0085],[147.3211,-36.7484,1877.92],[147.3188,-36.7462,1914.9281],[147.3161,-36.741,1928.3491],[147.3161,-36.7334,1933.823],[147.3113,-36.7313,1940.6486],[147.2966,-36.7339,1909.8315],[147.2889,-36.7403,1961.2163],[147.288,-36.7533,1706.1904],[147.2924,-36.7569,1599.9125],[147.2903,-36.7657,1540.556],[147.2858,-36.7684,1470.4177],[147.2798,-36.7676,1352.7723],[147.277,-36.7731,1414.6705],[147.2693,-36.7768,1600.4349],[147.2679,-36.779,1639.6838],[147.2688,-36.7838,1657.1897],[147.2729,-36.7881,1561.043],[147.275,-36.7933,1619.9891],[147.2935,-36.811,1635.348],[147.2921,-36.8226,1661.9846],[147.2829,-36.827,1827.3612],[147.2942,-36.828,1768.6464],[147.3027,-36.8319,1751.7297],[147.3075,-36.8275,1750.7054],[147.3104,-36.8305,1773.3538],[147.3146,-36.8316,1768.4147],[147.3181,-36.8315,1819.1125],[147.3211,-36.8288,1872.8458],[147.3333,-36.8299,1844.6923],[147.3384,-36.838,1855.4504],[147.3354,-36.8419,1859.3685],[147.3358,-36.8445,1864.3176],[147.3421,-36.8509,1755.5952],[147.3398,-36.8566,1749.7014],[147.3417,-36.8618,1742.0009],[147.3376,-36.866,1739.5118],[147.329,-36.8652,1693.4563],[147.3243,-36.8675,1644.8066],[147.323,-36.8712,1623.0355],[147.3173,-36.8742,1612.8396],[147.3175,-36.8762,1605.667],[147.322,-36.8799,1609.9918],[147.3208,-36.8826,1606.165],[147.3166,-36.8848,1638.0466],[147.3071,-36.8829,1627.8861],[147.307,-36.8908,1627.9182],[147.3001,-36.8899,1661.9231],[147.3005,-36.8934,1671.1169],[147.2972,-36.895,1702.7568],[147.2949,-36.901,1716.1875],[147.2892,-36.9052,1694.7806],[147.2894,-36.9101,1693.3801],[147.2928,-36.917,1700.1476],[147.2883,-36.9233,1732.6116],[147.2811,-36.9264,1818.9709],[147.2633,-37.0067,1169.8458],[147.2678,-37.0059,1150.927],[147.2694,-37.0088,1110.1487],[147.2745,-37.009,1081.1927],[147.2807,-37.0084,1082.3914],[147.2849,-37.0053,1073.4677],[147.2938,-37.007,1058.7094],[147.2982,-37.0105,1083.0652],[147.3054,-37.0121,1050.1013],[147.3135,-37.0199,1048.9329],[147.3183,-37.0208,1050.5945],[147.3367,-37.0297,1027.2468],[147.3388,-37.0287,1005.6832],[147.3422,-37.0297,998.301],[147.3421,-37.0319,999.465],[147.349,-37.0326,1003.1964],[147.3493,-37.0361,985.2906],[147.3506,-37.0365,994.2997],[147.3553,-37.0328,1004.9489],[147.3622,-37.0346,1009.8301],[147.3714,-37.03,965.1459],[147.3886,-37.0308,963.0981],[147.3895,-37.0326,965.5733],[147.388,-37.0353,977.2667],[147.3909,-37.0395,947.4004],[147.3879,-37.0416,972.5076],[147.3895,-37.042,960.2431],[147.3902,-37.0452,931.0539],[147.3922,-37.0457,934.6694],[147.3859,-37.0476,974.1121],[147.386,-37.0498,943.6949],[147.3895,-37.0485,963.4574],[147.3905,-37.0524,919.674],[147.3803,-37.0587,1117.9907],[147.3808,-37.0816,1236.3455],[147.3828,-37.0826,1220.6177],[147.3817,-37.0881,1139.8409],[147.3793,-37.0912,1115.5132],[147.3805,-37.0987,1017.3381],[147.3754,-37.1008,1023.1614],[147.3733,-37.1001,1020.2371],[147.37,-37.1033,1043.2368],[147.3672,-37.1011,1038.5514],[147.365,-37.1015,1015.109],[147.3624,-37.107,1044.0851],[147.3636,-37.1098,1027.9167],[147.3592,-37.1143,1048.5712],[147.3157,-37.1138,1255.3418],[147.3254,-37.1214,1241.0527],[147.3235,-37.1253,1254.7156],[147.3277,-37.1281,1251.6577],[147.3285,-37.1333,1211.9352],[147.3251,-37.1417,1174.7418],[147.3287,-37.1437,1202.3136],[147.3293,-37.1471,1246.9602],[147.3322,-37.1496,1269.9048],[147.3315,-37.1531,1266.8801],[147.336,-37.1539,1233.4302],[147.3382,-37.1576,1265.1304],[147.3445,-37.1607,1264.4875],[147.3472,-37.1676,1274.0582],[147.3464,-37.1706,1295.7112],[147.3585,-37.1802,1332.3893],[147.3616,-37.1898,1340.5437],[147.3679,-37.1952,1311.0684],[147.3691,-37.1986,1314.6605],[147.3742,-37.1988,1318.7526],[147.3835,-37.2022,1302.0796],[147.3846,-37.2045,1297.1016],[147.3824,-37.2082,1352.4403],[147.3838,-37.2113,1370.8252],[147.3872,-37.2103,1386.1431],[147.4024,-37.2131,1417.4534],[147.4111,-37.2192,1451.7305],[147.4263,-37.2198,1305.8081],[147.4256,-37.2205,1338.3401],[147.4223,-37.221,1369.6179],[147.4238,-37.2277,1377.3931],[147.4176,-37.2353,1266.4398],[147.4202,-37.237,1266.1479],[147.4204,-37.2412,1248.1416],[147.4256,-37.2486,1289.7588],[147.4256,-37.2533,1302.1985],[147.4294,-37.255,1265.7458],[147.4301,-37.2588,1264.2792],[147.4285,-37.2636,1242.9794],[147.4303,-37.2651,1232.9791],[147.4283,-37.2672,1226.0054],[147.4323,-37.2687,1153.4124],[147.4344,-37.2722,1146.8374],[147.4401,-37.2738,1137.4767],[147.4503,-37.2668,986.959],[147.4582,-37.2697,920.0265],[147.4603,-37.2762,944.1443],[147.4538,-37.2837,981.3292],[147.4574,-37.2862,1004.5034],[147.4378,-37.3981,431.5638],[147.4177,-37.3948,289.5808],[147.4158,-37.4027,293.8494],[147.4127,-37.4034,290.3997],[147.4112,-37.4053,295.7008],[147.4125,-37.407,282.3836],[147.4106,-37.4071,284.246],[147.4098,-37.4094,279.1851],[147.4062,-37.4102,277.3341],[147.4071,-37.4121,283.6111],[147.4048,-37.4137,336.6395],[147.4077,-37.415,287.6218],[147.4091,-37.4189,269.2121],[147.4077,-37.4197,279.0225],[147.4126,-37.4197,270.9481],[147.4172,-37.4249,292.1121],[147.4117,-37.4236,257.6219],[147.4095,-37.4263,272.2376],[147.4106,-37.43,267.127],[147.4077,-37.4301,251.6022],[147.4086,-37.4325,254.3558],[147.405,-37.4305,252.1384],[147.4021,-37.4318,246.3695],[147.4022,-37.4352,253.8937],[147.3994,-37.4376,248.0371],[147.399,-37.4397,281.3141],[147.4034,-37.4409,258.0922],[147.4021,-37.4422,240.9285],[147.4049,-37.4458,232.8845],[147.4028,-37.4456,277.3445],[147.4042,-37.4487,236.213],[147.4014,-37.4491,229.9803],[147.4007,-37.4479,275.8483],[147.3983,-37.4495,237.8774],[147.3993,-37.4526,234.4721],[147.4059,-37.4551,284.1273],[147.397,-37.4553,262.7952],[147.3988,-37.4582,244.2726],[147.3914,-37.459,213.5588],[147.3947,-37.4603,217.766],[147.395,-37.4636,219.523],[147.3895,-37.4626,224.2526],[147.39,-37.4642,209.5943],[147.3942,-37.4653,208.2164],[147.3937,-37.4717,207.6],[147.3993,-37.4769,233.5115],[147.3939,-37.4781,197.8247],[147.3934,-37.4822,203.9498],[147.3893,-37.4818,189.6712],[147.3927,-37.4842,192.4703],[147.3906,-37.4862,205.0206],[147.3927,-37.4868,193.1255],[147.3937,-37.4956,179.1814],[147.3893,-37.4976,181.2136],[147.3936,-37.4999,191.54],[147.3916,-37.5026,184.9532],[147.3926,-37.505,198.1924],[147.3968,-37.5016,177.5175],[147.3984,-37.5066,181.2234],[147.3965,-37.5076,219.0222],[147.4006,-37.5111,176.6736],[147.3985,-37.5146,185.1711],[147.4008,-37.5151,167.1696],[147.4009,-37.5217,184.9934],[147.4055,-37.521,244.513],[147.4031,-37.5233,185.3466],[147.4059,-37.5246,192.3724],[147.4048,-37.531,157.0309],[147.4003,-37.53,154.9613],[147.4024,-37.5322,156.4593],[147.4035,-37.5373,162.2025],[147.3982,-37.5387,146.8641],[147.402,-37.5412,161.9867],[147.3996,-37.5432,160.3561],[147.3502,-37.5373,246.0102],[147.3475,-37.5523,132.6813],[147.3383,-37.5536,131.96],[147.3293,-37.5617,160.1118],[147.3263,-37.5614,193.3121],[147.3219,-37.5568,131.8691],[147.3189,-37.5576,149.2006],[147.3178,-37.5609,136.1408],[147.309,-37.5595,141.9479],[147.3052,-37.5557,135.8543],[147.3038,-37.5565,132.0057],[147.3044,-37.5592,132.5252],[147.2994,-37.5628,134.432],[147.2954,-37.5572,147.4607],[147.2873,-37.5575,137.9057],[147.2849,-37.5563,138.8644],[147.2844,-37.5586,140.9861],[147.2869,-37.5611,151.7786],[147.2853,-37.564,140.8424],[147.2827,-37.5639,142.3809],[147.2795,-37.5605,156.4268],[147.2751,-37.5621,157.697],[147.2655,-37.5681,180.301],[147.2662,-37.5701,183.2598],[147.2615,-37.5731,177.4246],[147.263,-37.5746,181.7582],[147.2619,-37.5758,181.7582],[147.2575,-37.5747,188.7334],[147.2525,-37.5773,197.6871],[147.2527,-37.576,201.9159],[147.2492,-37.5759,215.8393],[147.2459,-37.5772,224.5682],[147.2456,-37.5798,224.7313],[147.2414,-37.5792,236.9389],[147.2409,-37.5813,243.2592],[147.2346,-37.58,266.3539],[147.2326,-37.5781,247.6834],[147.2269,-37.5781,296.4825],[147.2263,-37.5758,279.5381],[147.2238,-37.5762,279.1274],[147.2231,-37.5743,317.5673],[147.2187,-37.5749,295.9962],[147.219,-37.576,295.9962],[147.2176,-37.5756,316.9933],[147.2179,-37.5767,321.4632],[147.2151,-37.5781,322.3767],[147.216,-37.5788,322.3767],[147.2081,-37.5805,324.1862],[147.209,-37.5908,486.0394],[147.1994,-37.5908,554.7021],[147.1995,-37.5943,644.6035],[147.1932,-37.5947,523.2053],[147.194,-37.5966,525.5788],[147.1921,-37.6025,499.4072],[147.1933,-37.6037,495.7347],[147.1893,-37.6052,478.1524],[147.1911,-37.6104,489.114],[147.1892,-37.6149,464.5094],[147.1973,-37.6267,396.4469],[147.2077,-37.6272,363.3384],[147.2127,-37.625,361.5303],[147.2221,-37.6328,350.5458],[147.2034,-37.7175,380.3954],[147.2019,-37.7168,380.3954],[147.1991,-37.7209,362.7228],[147.2005,-37.7226,351.5218],[147.1981,-37.7239,365.9139],[147.1984,-37.7261,363.7024],[147.214,-37.7317,267.4774],[147.2149,-37.739,272.1621],[147.2183,-37.7412,277.707],[147.2152,-37.7434,274.6898],[147.2091,-37.7435,251.2406],[147.2117,-37.7455,243.5291],[147.218,-37.7461,227.2143],[147.2188,-37.7446,228.6538],[147.2228,-37.744,226.8619],[147.224,-37.7462,209.0621],[147.2273,-37.7445,230.9298],[147.2288,-37.7481,209.815],[147.231,-37.7485,202.8623],[147.2348,-37.7458,193.6155],[147.2362,-37.7473,191.9498],[147.2403,-37.7464,180.28],[147.2441,-37.7484,184.0157],[147.2491,-37.7457,176.5625],[147.257,-37.7531,173.9266],[147.262,-37.752,141.8729],[147.2614,-37.7537,139.9318],[147.2632,-37.7547,137.3628],[147.2617,-37.756,137.3628],[147.2567,-37.7565,180.3548],[147.2417,-37.7674,158.3509],[147.2364,-37.7674,164.1286],[147.2336,-37.7694,156.839],[147.2813,-37.7746,125.9539],[147.2708,-37.8282,74.4571],[147.2752,-37.829,74.3765],[147.2753,-37.8331,65.4988],[147.2699,-37.8337,64.0632],[147.2687,-37.8367,64.7488],[147.273,-37.8421,63.6937],[147.27,-37.8452,62.0633],[147.2703,-37.8482,61.7188],[147.2662,-37.8526,59.8249],[147.2685,-37.8528,63.7301],[147.2704,-37.8564,68.0202],[147.2647,-37.8614,63.5956],[147.2702,-37.8648,62.5191],[147.269,-37.8661,57.5582],[147.2698,-37.8676,63.0865],[147.2678,-37.8683,52.7318],[147.2702,-37.8729,53.1265],[147.2762,-37.8733,70.5525],[147.2737,-37.8778,54.8985],[147.2745,-37.8797,60.8472],[147.2775,-37.8766,51.0243],[147.2805,-37.8781,57.3179],[147.2849,-37.8751,55.2402],[147.2859,-37.876,55.2402],[147.2846,-37.8766,49.819],[147.2867,-37.8771,68.5681],[147.2833,-37.8806,50.7846],[147.2836,-37.8847,57.1289],[147.2799,-37.8881,48.3803],[147.2826,-37.8914,46.873],[147.2857,-37.8914,47.7805],[147.2859,-37.893,52.8985],[147.2837,-37.8951,55.1396],[147.2782,-37.8948,45.2078],[147.2769,-37.8989,48.4232],[147.2834,-37.8997,43.4688],[147.286,-37.8971,43.2937],[147.286,-37.9014,40.8955],[147.2874,-37.9018,43.4489],[147.2865,-37.9038,49.4318],[147.2808,-37.9024,45.3488],[147.2784,-37.9055,47.0612],[147.2824,-37.9064,40.5361],[147.2833,-37.9046,41.8536],[147.2862,-37.9065,49.4473],[147.286,-37.9079,39.1123],[147.2797,-37.9092,49.6995],[147.2785,-37.9136,42.342],[147.2727,-37.9161,36.1796],[147.2742,-37.9203,37.4302],[147.2775,-37.9214,47.1946],[147.2831,-37.9203,52.7842],[147.3128,-37.9113,60.2176],[147.3616,-37.9178,26.0675],[147.3606,-37.9202,25.2633],[147.3635,-37.9206,27.2322],[147.3625,-37.9232,23.0547],[147.3656,-37.9233,22.6606],[147.3668,-37.9255,28.6488],[147.3648,-37.9266,21.9707],[147.3661,-37.9278,21.9707],[147.3648,-37.9317,23.0794],[147.3714,-37.9353,22.4547],[147.3721,-37.9395,22.0469],[147.3743,-37.9406,19.765],[147.374,-37.947,19.3811],[147.377,-37.9483,17.3819],[147.3748,-37.9508,17.6094],[147.3761,-37.9542,18.2385],[147.3714,-37.9572,15.8986],[147.3746,-37.9584,15.8148],[147.3713,-37.9621,14.9481],[147.3754,-37.9673,13.1745],[147.373,-37.9699,12.1694],[147.3778,-37.9689,13.1412],[147.3823,-37.9751,13.4534],[147.3807,-37.9773,9.5955],[147.3812,-37.9802,8.778],[147.3864,-37.9809,8.3759],[147.3886,-37.9834,7.609],[147.3928,-37.9808,8.003],[147.3933,-37.9821,8.3823],[147.3961,-37.982,8.4798],[147.3964,-37.9796,7.8357],[147.3981,-37.9789,8.0777],[147.4026,-37.9787,10.4574],[147.4088,-37.9814,11.4051],[147.4107,-37.9858,12.666],[147.4068,-37.9879,4.6019],[147.4089,-37.9915,2.5764],[147.4061,-38.001,1.6191],[147.409,-38.0034,0.7055],[147.4236,-38.0039,1.2066],[147.4371,-38.0092,0.4412],[147.457,-38.0075,0.7912],[147.4639,-38.0132,0.3379],[147.4682,-38.0244,0.3926],[147.4634,-38.0273,0.2677],[147.4619,-38.0325,0.3885],[147.4675,-38.0355,0.0],[147.4695,-38.0452,0.0],[147.4648,-38.0474,3.3276],[147.4644,-38.0499,0.1405],[147.4702,-38.0536,0.0],[147.4633,-38.0557,0.2955],[147.4597,-38.0586,0.1304],[147.4572,-38.0648,0.4104],[147.4607,-38.0691,0.1554],[147.4584,-38.0705,0.0],[147.4607,-38.0697,0.1225],[147.4608,-38.0717,0.0],[147.4488,-38.0741,0.0815],[147.4506,-38.0773,0.3422],[147.4553,-38.0788,0.2368],[147.4693,-38.0724,0.5049],[147.4773,-38.0727,0.0],[147.4861,-38.0686,0.6728],[147.4903,-38.0729,0.0],[147.5004,-38.0731,6.2402],[147.5098,-38.0607,0.0],[147.5144,-38.0572,0.0],[147.5254,-38.0527,0.0],[147.5334,-38.058,4.5875],[147.5433,-38.057,3.5248],[147.5522,-38.053,2.7634],[147.5709,-38.0537,1.3717],[147.5799,-38.0472,0.0],[147.5896,-38.0363,1.4325],[147.5989,-38.0328,10.0424],[147.6114,-38.0254,4.1445],[147.6113,-38.0144,3.1623],[147.6132,-38.0115,0.7838],[147.6158,-38.0101,1.3031],[147.6231,-38.0118,3.7845],[147.6376,-38.0013,2.959],[147.6516,-37.9948,4.3837],[147.652,-37.983,0.968],[147.6601,-37.9766,0.0],[147.682,-37.9693,0.9049],[147.6841,-37.967,0.9598],[147.6922,-37.9658,0.0],[147.7105,-37.9547,4.6227],[147.7124,-37.9543,0.0],[147.7193,-37.9616,9.8279],[147.7227,-37.9696,0.0],[147.7218,-37.9717,0.0],[147.7166,-37.9746,0.0],[147.6996,-37.9812,12.2226],[147.7006,-37.9844,0.0],[147.6971,-37.9898,0.7159],[147.6976,-37.993,1.8584],[147.7058,-37.9964,9.132],[147.7058,-37.9982,2.1021],[147.7513,-37.9733,0.0],[147.8065,-37.9474,5.5318],[147.8509,-37.9294,3.1329],[147.95,-37.8947,0.0],[147.9783,-37.8899,0.0],[148.0035,-37.8803,2.5398],[148.0519,-37.8672,9.9135],[148.0623,-37.8672,8.2401],[148.0696,-37.8653,15.037],[148.1202,-37.8483,3.1837],[148.1768,-37.8322,5.1245],[148.2629,-37.8147,0.0],[148.3676,-37.8039,7.5028],[148.4603,-37.8014,0.0],[148.5482,-37.802,0.0],[148.552,-37.8034,0.0],[148.5821,-37.802,2.422],[148.6111,-37.8037,2.7832],[148.6266,-37.8082,0.0],[148.65,-37.8037,1.5113],[148.6888,-37.8014,0.0],[148.7046,-37.802,5.0761],[148.717,-37.8044,14.6016],[148.7261,-37.8087,0.0],[148.727,-37.8123,2.3615],[148.7257,-37.8136,0.0],[148.7278,-37.8154,0.0],[148.7345,-37.8076,26.2069],[148.7432,-37.8062,0.0],[148.7417,-37.8035,2.8405],[148.7426,-37.8005,7.9569],[148.7492,-37.797,0.0],[148.7685,-37.7923,1.6741],[148.8087,-37.7864,0.0],[148.8608,-37.785,0.0],[148.8842,-37.79,1.2564],[148.8887,-37.7871,3.3605],[148.9007,-37.7845,7.9772],[148.9264,-37.7814,0.0],[149.0179,-37.781,0.0],[149.1228,-37.7773,9.1767],[149.1703,-37.7779,37.7495],[149.1843,-37.7801,0.0],[149.1867,-37.7788,10.8676],[149.1929,-37.7797,0.0],[149.1994,-37.7779,21.2702],[149.2135,-37.7775,8.3662],[149.2467,-37.7805,5.2408],[149.2659,-37.7893,10.7863],[149.2688,-37.7928,5.7397],[149.2654,-37.7985,0.0],[149.2698,-37.7996,13.4009],[149.2695,-37.8017,0.0],[149.2755,-37.8038,1.3712],[149.28,-37.797,22.1878],[149.283,-37.7993,3.7389],[149.2849,-37.7989,0.0],[149.2846,-37.7934,0.0],[149.2925,-37.7875,0.0],[149.3404,-37.7769,0.0],[149.3663,-37.775,2.6082],[149.3858,-37.778,0.0],[149.3944,-37.7754,6.6537],[149.4026,-37.7764,0.0],[149.4055,-37.7738,19.5731],[149.4107,-37.7732,0.0],[149.4208,-37.774,6.1648],[149.422,-37.7766,0.2733],[149.431,-37.7774,1.3899],[149.4391,-37.7721,9.4016],[149.4619,-37.7693,6.2893],[149.4737,-37.7705,8.0854],[149.485,-37.7754,2.3016],[149.4886,-37.7744,8.8495],[149.49,-37.7722,11.7945],[149.4918,-37.7726,11.7945],[149.4913,-37.7711,43.1582],[149.4933,-37.7687,6.9194],[149.4955,-37.7682,0.7992],[149.497,-37.7566,9.3618],[149.4985,-37.7563,0.3784],[149.4965,-37.7561,0.0],[149.4969,-37.7534,0.0],[149.5067,-37.7486,1.0852],[149.5125,-37.7474,0.0],[149.5164,-37.7491,4.502],[149.5196,-37.7451,0.0],[149.5172,-37.7432,5.8932],[149.5255,-37.7373,4.523],[149.5374,-37.7331,2.2965],[149.5414,-37.7345,0.0],[149.5421,-37.7316,3.1696],[149.5432,-37.7329,3.1696],[149.5451,-37.7297,2.2744],[149.5663,-37.7246,0.0],[149.588,-37.7225,5.4901],[149.5958,-37.7266,0.0],[149.5981,-37.7255,0.0],[149.5974,-37.7215,0.0],[149.6002,-37.7171,2.5512],[149.6008,-37.7121,20.3351],[149.6043,-37.7103,4.7305],[149.606,-37.707,23.4184],[149.6166,-37.7006,6.1264],[149.6472,-37.6909,12.2068],[149.6667,-37.6884,0.7463],[149.6765,-37.6841,26.0529],[149.6773,-37.6851,0.0],[149.6777,-37.684,0.0],[149.6767,-37.6819,28.6849],[149.679,-37.6765,6.0045],[149.6779,-37.674,1.7415],[149.6821,-37.6705,0.7587],[149.681,-37.669,21.0556],[149.6831,-37.6673,15.1314],[149.6824,-37.6642,10.1042],[149.6896,-37.6598,0.0],[149.6887,-37.6579,17.7765],[149.6905,-37.6564,3.1525],[149.695,-37.6548,0.0],[149.6945,-37.6527,9.6231],[149.6975,-37.6514,0.6515],[149.7,-37.6472,10.2724],[149.7022,-37.647,3.6482],[149.7024,-37.645,12.9253],[149.7065,-37.6435,1.0129],[149.7129,-37.6281,0.3485],[149.7192,-37.6193,3.4207],[149.7168,-37.6166,12.4846],[149.7184,-37.6156,1.2354],[149.7184,-37.6117,12.3133],[149.7206,-37.6116,0.0],[149.7207,-37.6089,0.0],[149.7231,-37.608,0.0],[149.7227,-37.6066,0.0],[149.7277,-37.6011,17.4047],[149.7321,-37.5992,3.4624],[149.7315,-37.5951,1.4989],[149.7358,-37.5918,2.968],[149.7355,-37.5896,5.7568],[149.7388,-37.585,12.1075],[149.749,-37.5791,6.8909],[149.7654,-37.5739,2.316],[149.7611,-37.5667,4.8601],[149.7753,-37.5578,5.6271],[149.7964,-37.5495,6.1344],[149.8197,-37.5448,0.0],[149.8317,-37.5442,6.9291],[149.8449,-37.5457,2.2047],[149.8584,-37.5419,3.3433],[149.874,-37.5403,3.6867],[149.9066,-37.5429,0.1526],[149.9158,-37.5324,1.4176],[149.9248,-37.5263,0.0],[149.9361,-37.5213,0.0],[149.9576,-37.5152,1.573],[149.9643,-37.518,0.0],[149.9623,-37.5158,0.0],[149.9647,-37.5116,0.0],[149.9767,-37.5051,0.0],[149.3971,-37.279,376.8453]]]]}
,"properties": {"GID_2": "AUS.10.19_1","GID_0": "AUS","country": "Australia","GID_1": "AUS.10_1","state": "Victoria","NL_NAME_1": "NA","county": "EastGippsland","VARNAME_2": "NA","NL_NAME_2": "NA","TYPE_2": "Shire","ENGTYPE_2": "Shire","CC_2": "22110","HASC_2": "AU.VI.EG","name": "EastGippsland.county","area_km2": 20940.75,"hist_schema_id": "Elevation0-9000","hist_area_km2": {"0": 758.49,"25": 713.87,"50": 881.35,"75": 868.47,"100": 833.37,"125": 769.4,"150": 739.83,"175": 678.39,"200": 600.08,"225": 583.91,"250": 556.33,"275": 526.61,"300": 488.09,"325": 453.05,"350": 416.5,"375": 387.49,"400": 374.89,"425": 352.79,"450": 340.15,"475": 320.6,"500": 307.06,"525": 295.94,"550": 293.9,"575": 286.48,"600": 282.79,"625": 280.44,"650": 289.69,"675": 309.32,"700": 357.16,"725": 339.71,"750": 322.07,"775": 319.01,"800": 315.87,"825": 327.01,"850": 325.34,"875": 327.12,"900": 331.32,"925": 314.99,"950": 293.05,"975": 274.38,"1000": 257.7,"1025": 247.27,"1050": 235.04,"1075": 225.16,"1100": 213.41,"1125": 194.17,"1150": 175.9,"1175": 169.19,"1200": 158.43,"1225": 148.24,"1250": 134.17,"1275": 127.65,"1300": 116.04,"1325": 102.74,"1350": 86.29,"1375": 75.92,"1400": 66.34,"1425": 61.57,"1450": 53.3,"1475": 47.59,"1500": 41.68,"1525": 35.89,"1550": 27.65,"1575": 21.95,"1600": 17.05,"1625": 12.66,"1650": 9.79,"1675": 7.72,"1700": 7.18,"1725": 6.58,"1750": 7.16,"1775": 4.75,"1800": 3.0,"1825": 1.51,"1850": 1.36,"1875": 1.0,"1900": 0.44,"1925": 0.58,"1950": 0.32}}}