{"type": "Feature","bbox": [149.1171,-33.9976,149.9222,-32.9486],"geometry": {"type": "MultiPolygon","coordinates": [[[[149.3634,-33.4529,1026.2736],[149.363,-33.4606,1018.2351],[149.3615,-33.4628,1028.1361],[149.3624,-33.4715,998.4601],[149.3697,-33.4729,977.7209],[149.3675,-33.4852,950.709],[149.3589,-33.484,973.7784],[149.3555,-33.5032,1005.8438],[149.357,-33.5034,1000.5111],[149.3578,-33.4987,989.4409],[149.3622,-33.4993,973.0002],[149.358,-33.5209,953.3076],[149.3546,-33.5204,948.5637],[149.3536,-33.5266,917.1344],[149.3587,-33.5272,930.8163],[149.3581,-33.5305,916.9604],[149.364,-33.5314,903.8663],[149.3637,-33.5329,903.8663],[149.3718,-33.534,905.032],[149.372,-33.533,905.032],[149.4061,-33.5373,810.0406],[149.4067,-33.5337,804.2587],[149.411,-33.5342,815.3339],[149.4097,-33.5419,822.0307],[149.4221,-33.5435,847.4067],[149.415,-33.5827,821.1743],[149.4136,-33.5826,846.0247],[149.4108,-33.5977,920.5775],[149.4078,-33.5974,929.0569],[149.406,-33.606,956.3884],[149.413,-33.6083,930.6166],[149.4116,-33.6164,939.7754],[149.4176,-33.6172,934.1831],[149.4191,-33.6196,929.2261],[149.4153,-33.6191,943.5081],[149.4111,-33.6393,928.0082],[149.4094,-33.639,939.6921],[149.4005,-33.6835,971.6358],[149.3943,-33.6932,1034.4666],[149.3851,-33.6958,1039.0276],[149.3723,-33.6963,1048.7578],[149.3685,-33.7015,1051.4827],[149.356,-33.7108,1049.917],[149.3531,-33.7183,1040.2607],[149.347,-33.724,1037.6581],[149.3472,-33.7257,1034.9207],[149.3435,-33.7269,1029.5525],[149.3423,-33.7307,1034.7468],[149.3401,-33.732,1030.9169],[149.3374,-33.7313,1038.0413],[149.3348,-33.7449,980.2756],[149.3172,-33.7425,1018.7956],[149.3207,-33.7245,1028.2983],[149.3167,-33.7239,1056.7953],[149.2982,-33.7371,1053.9678],[149.2949,-33.7369,1052.6875],[149.2899,-33.7398,1049.4003],[149.2876,-33.7402,1043.6964],[149.2864,-33.7377,1024.3748],[149.2841,-33.7391,1019.8376],[149.279,-33.7375,1004.6415],[149.2744,-33.7395,988.2206],[149.263,-33.7385,952.0878],[149.2578,-33.7398,929.2341],[149.2533,-33.7481,922.8678],[149.2425,-33.7595,879.4554],[149.235,-33.7596,841.3398],[149.234,-33.7608,832.7098],[149.231,-33.7682,824.6118],[149.2284,-33.7704,809.4976],[149.224,-33.784,786.3679],[149.22,-33.7868,774.3049],[149.2191,-33.792,720.0742],[149.2086,-33.7996,660.8479],[149.2039,-33.7998,652.8153],[149.2028,-33.8018,646.2676],[149.1967,-33.7979,688.2],[149.1906,-33.799,626.2418],[149.1858,-33.7975,624.2037],[149.1852,-33.8003,632.8544],[149.1824,-33.802,621.0529],[149.1847,-33.8044,616.3564],[149.1804,-33.8064,610.6532],[149.1819,-33.8113,613.1915],[149.1791,-33.8137,612.9572],[149.1825,-33.8158,599.0609],[149.1817,-33.8187,597.4003],[149.1786,-33.8191,587.3269],[149.1798,-33.8218,591.5469],[149.1778,-33.8233,566.4288],[149.1805,-33.8257,565.9438],[149.1796,-33.8285,581.329],[149.1817,-33.8311,553.3821],[149.1811,-33.8351,542.8075],[149.1788,-33.8363,542.2297],[149.1831,-33.8372,542.3605],[149.183,-33.8391,533.9075],[149.1799,-33.84,547.3636],[149.1762,-33.8388,535.056],[149.1775,-33.8405,558.291],[149.1766,-33.8417,542.2921],[149.1703,-33.8409,514.0224],[149.1745,-33.8445,515.6625],[149.1752,-33.8474,500.7005],[149.1729,-33.8477,546.8745],[149.1747,-33.8494,497.1295],[149.1795,-33.8511,488.568],[149.182,-33.8495,512.4214],[149.184,-33.852,475.7425],[149.1817,-33.8581,498.0098],[149.1802,-33.8571,489.0237],[149.1772,-33.8581,510.1446],[149.1752,-33.8562,514.2569],[149.1771,-33.86,463.2651],[149.1718,-33.8594,458.3322],[149.1729,-33.8562,460.524],[149.1701,-33.8575,443.5315],[149.1702,-33.8547,449.7697],[149.1667,-33.8523,475.0919],[149.1672,-33.8552,443.8013],[149.1652,-33.8561,453.8925],[149.1662,-33.8589,442.8797],[149.1605,-33.854,443.5942],[149.1582,-33.8546,467.9855],[149.1559,-33.852,434.7279],[149.1512,-33.8516,431.9448],[149.1508,-33.8497,464.8447],[149.1483,-33.8494,475.3068],[149.1437,-33.8516,423.8718],[149.146,-33.8551,430.8057],[149.1428,-33.8541,416.2405],[149.1426,-33.8566,453.6445],[149.14,-33.8554,429.0253],[149.1404,-33.8578,408.957],[149.1349,-33.8599,413.5616],[149.1398,-33.8608,395.3419],[149.1358,-33.863,409.0599],[149.1375,-33.8648,410.3361],[149.1348,-33.8686,422.1254],[149.1261,-33.8664,391.1703],[149.1206,-33.8684,386.3823],[149.1206,-33.8707,389.4134],[149.1182,-33.8706,384.4584],[149.1203,-33.8751,378.5328],[149.1221,-33.8758,389.3568],[149.1184,-33.8798,385.9138],[149.1244,-33.8823,383.7282],[149.1197,-33.8839,375.6387],[149.1175,-33.883,374.0],[149.1171,-33.8843,374.0],[149.1205,-33.8884,376.0323],[149.1306,-33.8942,374.0],[149.1308,-33.9011,374.5],[149.1368,-33.9016,375.7484],[149.1391,-33.9033,374.5],[149.1377,-33.9102,384.2219],[149.1464,-33.9133,375.0],[149.155,-33.9272,381.4997],[149.1533,-33.936,376.0],[149.1457,-33.9399,376.5],[149.1401,-33.9451,384.4186],[149.1464,-33.9544,393.4975],[149.1441,-33.9574,377.5069],[149.1516,-33.9662,378.9608],[149.1623,-33.9711,385.1709],[149.1646,-33.9778,386.9277],[149.1714,-33.9756,385.2797],[149.1795,-33.9844,392.6354],[149.1988,-33.9842,392.587],[149.2021,-33.9695,406.6736],[149.2084,-33.9684,390.3381],[149.2106,-33.9711,389.8622],[149.2129,-33.9709,399.7718],[149.2181,-33.9636,393.3982],[149.2204,-33.9645,437.2928],[149.2207,-33.9676,406.7656],[149.226,-33.9666,401.9033],[149.2272,-33.9692,399.44],[149.226,-33.9737,408.2297],[149.2304,-33.9746,415.6833],[149.2355,-33.9797,423.3275],[149.2368,-33.977,405.1031],[149.2323,-33.9714,417.7387],[149.2339,-33.9677,414.7952],[149.2439,-33.9698,435.5134],[149.2545,-33.9664,432.7656],[149.2569,-33.9638,407.9915],[149.2632,-33.964,410.3616],[149.266,-33.9604,409.4154],[149.2755,-33.959,410.6053],[149.2748,-33.9551,417.4857],[149.279,-33.9486,408.4536],[149.286,-33.9496,433.4747],[149.2909,-33.9529,416.7107],[149.2992,-33.9462,423.3893],[149.3011,-33.948,451.0945],[149.3016,-33.9536,427.1161],[149.3088,-33.9528,437.0346],[149.3141,-33.9567,432.7412],[149.3183,-33.954,436.4857],[149.3234,-33.956,429.3777],[149.3324,-33.9509,434.7976],[149.3365,-33.9534,436.9483],[149.3478,-33.9533,441.7342],[149.3489,-33.9577,434.9871],[149.3518,-33.9564,437.0117],[149.3539,-33.9586,440.044],[149.3521,-33.9712,444.0802],[149.3546,-33.972,457.4142],[149.3644,-33.9692,448.6367],[149.3634,-33.9769,443.0648],[149.3704,-33.9769,448.7109],[149.3712,-33.9816,446.5684],[149.3758,-33.9844,446.4625],[149.3783,-33.9839,447.7076],[149.3813,-33.9796,450.8265],[149.3836,-33.9796,445.9046],[149.3836,-33.9868,447.5016],[149.3853,-33.991,450.1081],[149.3947,-33.9976,455.9589],[149.3979,-33.9785,668.6165],[149.3999,-33.9787,676.6168],[149.4029,-33.962,728.8625],[149.4055,-33.9478,615.1383],[149.4035,-33.9473,615.1383],[149.4067,-33.9301,686.5171],[149.3997,-33.9353,688.025],[149.3992,-33.933,674.7654],[149.3976,-33.9331,674.7654],[149.3994,-33.924,735.6918],[149.4037,-33.9246,738.1526],[149.4122,-33.8821,883.904],[149.4086,-33.8816,892.7095],[149.4135,-33.8574,839.3504],[149.4442,-33.8614,961.2076],[149.4449,-33.8576,985.9573],[149.4288,-33.8556,943.1469],[149.4302,-33.8481,932.7084],[149.4258,-33.8476,956.4092],[149.4265,-33.844,963.672],[149.431,-33.8445,946.9968],[149.4313,-33.8427,940.9642],[149.434,-33.8429,932.9952],[149.4371,-33.8341,887.5345],[149.4462,-33.8367,935.5878],[149.4442,-33.8439,962.8436],[149.4604,-33.8462,1019.6989],[149.4615,-33.8401,1004.103],[149.4672,-33.8409,979.3202],[149.4665,-33.8441,1042.6289],[149.4836,-33.8463,1044.7971],[149.481,-33.825,1003.183],[149.479,-33.8204,1021.0902],[149.4813,-33.8167,1015.4995],[149.4814,-33.8099,1037.9409],[149.4847,-33.7969,1026.0386],[149.4895,-33.7985,1000.7407],[149.4896,-33.7935,999.0966],[149.4837,-33.7853,993.5186],[149.4863,-33.7854,994.9614],[149.4876,-33.7794,1006.5687],[149.4928,-33.7801,1048.6934],[149.4953,-33.7679,994.3503],[149.4988,-33.7684,1002.7331],[149.502,-33.7534,939.2201],[149.4992,-33.7518,924.3107],[149.4996,-33.748,933.3868],[149.505,-33.7488,956.2921],[149.5063,-33.7518,922.024],[149.5071,-33.7499,914.2524],[149.5088,-33.7519,903.9844],[149.5107,-33.7487,891.5701],[149.514,-33.7478,891.7126],[149.5142,-33.7451,884.1514],[149.5149,-33.7466,892.701],[149.5222,-33.7466,877.2108],[149.5229,-33.7478,875.4177],[149.5239,-33.7461,883.2253],[149.5273,-33.746,879.262],[149.5277,-33.7439,881.8739],[149.5503,-33.7468,826.3083],[149.553,-33.7489,827.1659],[149.5569,-33.7445,825.5765],[149.5596,-33.7379,860.8461],[149.564,-33.7387,850.5792],[149.5619,-33.7427,817.2066],[149.5706,-33.7438,818.1865],[149.5711,-33.7393,827.8835],[149.5736,-33.7361,822.9114],[149.5683,-33.7344,809.9206],[149.5679,-33.7327,832.7661],[149.573,-33.7315,844.7979],[149.5701,-33.7294,846.6876],[149.5733,-33.7289,810.4692],[149.5746,-33.7263,821.0512],[149.5732,-33.724,811.2241],[149.5783,-33.7215,802.2797],[149.5758,-33.7186,812.3375],[149.5762,-33.7151,809.1566],[149.5854,-33.7067,796.5651],[149.5901,-33.7081,800.0297],[149.6033,-33.7062,807.3445],[149.6053,-33.7084,792.4473],[149.6116,-33.7082,804.8599],[149.6155,-33.7027,786.9539],[149.6105,-33.7023,854.8615],[149.616,-33.6969,802.3336],[149.6181,-33.6925,822.1558],[149.6202,-33.6919,813.1593],[149.6179,-33.6883,804.3911],[149.6191,-33.6874,791.5661],[149.6115,-33.6821,823.4953],[149.618,-33.6801,780.9008],[149.6208,-33.6762,792.8319],[149.6272,-33.6737,782.144],[149.6308,-33.6672,811.7888],[149.6344,-33.6691,783.144],[149.6374,-33.6755,776.5355],[149.6397,-33.6765,772.2554],[149.6372,-33.668,767.6963],[149.6472,-33.6695,831.4493],[149.6531,-33.6751,926.7153],[149.6588,-33.6747,898.3983],[149.657,-33.6806,879.2854],[149.6815,-33.684,822.3314],[149.6815,-33.6807,822.8589],[149.6784,-33.6803,816.0786],[149.6815,-33.679,812.1994],[149.6805,-33.6773,823.9451],[149.6858,-33.677,830.8984],[149.6869,-33.6753,807.7673],[149.6916,-33.676,808.2542],[149.6913,-33.6712,815.1923],[149.6939,-33.67,826.7615],[149.6905,-33.6683,798.313],[149.6937,-33.6665,861.0525],[149.6918,-33.6645,787.1965],[149.6935,-33.6628,785.5846],[149.69,-33.6594,790.89],[149.6936,-33.6598,782.2241],[149.6935,-33.6568,781.8193],[149.6914,-33.6562,792.2771],[149.6929,-33.6536,776.5067],[149.6919,-33.6507,778.7523],[149.6957,-33.6483,790.9862],[149.6962,-33.6512,777.4897],[149.6945,-33.6531,778.001],[149.6993,-33.6524,768.9027],[149.7034,-33.6497,766.9583],[149.7058,-33.6458,776.3787],[149.7099,-33.6449,761.6071],[149.7058,-33.6411,776.0743],[149.7081,-33.6367,757.4997],[149.711,-33.6378,757.0605],[149.7107,-33.6353,760.1869],[149.7133,-33.6338,765.8356],[149.7101,-33.6336,758.5335],[149.7119,-33.6303,756.1528],[149.7084,-33.6287,753.7327],[149.7137,-33.6292,752.0928],[149.7191,-33.6267,746.9423],[149.7158,-33.6242,747.9163],[149.717,-33.6222,745.6281],[149.7147,-33.6206,746.7778],[149.7156,-33.6162,749.5875],[149.7104,-33.6143,748.6566],[149.7108,-33.6174,737.1126],[149.7095,-33.6179,737.9127],[149.7074,-33.6107,741.1176],[149.706,-33.6129,732.9911],[149.7018,-33.6112,738.9181],[149.6944,-33.6112,734.0659],[149.6919,-33.609,727.8677],[149.6874,-33.6111,721.3579],[149.6763,-33.6017,714.2759],[149.6682,-33.6027,712.2667],[149.6654,-33.599,712.1694],[149.6689,-33.597,716.1667],[149.6685,-33.5956,714.5486],[149.6639,-33.5959,719.9598],[149.6624,-33.6012,712.0398],[149.6606,-33.6019,714.2502],[149.6573,-33.5991,711.2678],[149.6591,-33.5961,723.2195],[149.6571,-33.5926,710.5],[149.6629,-33.5863,710.5],[149.6598,-33.5832,710.5],[149.6544,-33.5809,710.5],[149.6524,-33.5739,710.5],[149.6429,-33.5649,710.5],[149.6379,-33.5642,710.5],[149.6343,-33.5586,695.0956],[149.6281,-33.5584,689.1908],[149.6271,-33.5621,690.4383],[149.6252,-33.5633,697.3565],[149.6211,-33.5623,693.2076],[149.6189,-33.5576,696.3452],[149.6162,-33.5612,684.7223],[149.6135,-33.5603,685.9955],[149.6135,-33.5565,683.521],[149.6186,-33.5527,683.5266],[149.614,-33.5407,679.6992],[149.6143,-33.5379,679.0092],[149.6116,-33.5374,678.0731],[149.6133,-33.5329,677.8497],[149.6104,-33.5291,678.1244],[149.6119,-33.527,677.6566],[149.6223,-33.5259,674.8956],[149.6223,-33.5226,674.7347],[149.6249,-33.5204,679.0483],[149.6221,-33.5185,673.743],[149.6242,-33.5149,673.7656],[149.623,-33.5129,678.0092],[149.6258,-33.5098,683.153],[149.6232,-33.5041,684.9377],[149.6291,-33.5022,669.2551],[149.628,-33.4984,668.5425],[149.6294,-33.497,668.007],[149.6243,-33.4929,674.9894],[149.6296,-33.4926,674.649],[149.6325,-33.4942,668.0349],[149.6375,-33.492,672.0552],[149.6416,-33.4922,672.6439],[149.6472,-33.4952,671.5052],[149.6567,-33.4893,674.5428],[149.6615,-33.4888,672.7025],[149.6624,-33.4853,673.3289],[149.6646,-33.4849,672.3947],[149.6682,-33.4895,673.8086],[149.6715,-33.4911,675.2717],[149.6737,-33.4976,674.3457],[149.6784,-33.5002,675.9788],[149.6915,-33.5036,678.7832],[149.6965,-33.5073,680.1246],[149.6987,-33.512,684.3636],[149.7057,-33.5139,685.1937],[149.7047,-33.5242,685.0043],[149.7086,-33.5307,687.8306],[149.7113,-33.5308,689.5831],[149.7132,-33.5287,689.9376],[149.7228,-33.5252,689.9684],[149.7268,-33.5287,691.334],[149.7296,-33.5291,691.6998],[149.7295,-33.5358,692.449],[149.7308,-33.5375,692.3325],[149.737,-33.5381,693.0266],[149.744,-33.5418,700.5785],[149.7488,-33.5401,696.6724],[149.7522,-33.5418,700.7683],[149.7553,-33.5402,704.2288],[149.7535,-33.5361,699.9108],[149.7567,-33.5313,701.5103],[149.7689,-33.5306,702.3809],[149.7717,-33.5271,707.8423],[149.7711,-33.5221,721.6917],[149.7731,-33.522,706.1749],[149.7764,-33.526,709.0789],[149.7758,-33.5296,709.265],[149.7826,-33.5353,711.2961],[149.7903,-33.5387,724.7836],[149.7908,-33.5461,728.5692],[149.7928,-33.5477,722.3297],[149.7951,-33.5467,721.6577],[149.7964,-33.5438,731.6456],[149.8004,-33.5426,730.6923],[149.8087,-33.5435,729.106],[149.8103,-33.5395,730.0376],[149.8132,-33.5377,738.7942],[149.8227,-33.5382,735.5461],[149.8278,-33.5341,750.5558],[149.8261,-33.5299,747.1333],[149.8297,-33.5267,740.887],[149.8331,-33.5269,742.5493],[149.8345,-33.5312,747.1298],[149.8374,-33.5315,746.0057],[149.841,-33.529,748.0165],[149.8436,-33.5296,757.9371],[149.8501,-33.5271,751.576],[149.8525,-33.5226,761.426],[149.8559,-33.524,754.065],[149.86,-33.5193,823.2603],[149.8697,-33.5195,757.8816],[149.8717,-33.5091,887.9229],[149.8894,-33.5116,1090.8416],[149.8901,-33.5079,1096.556],[149.9071,-33.5103,837.227],[149.9092,-33.499,887.2977],[149.9066,-33.4987,860.9755],[149.9078,-33.4936,888.7903],[149.9106,-33.4901,909.9894],[149.9142,-33.4906,968.5342],[149.9177,-33.4886,983.0519],[149.9222,-33.4778,1026.571],[149.9129,-33.4765,938.8365],[149.9194,-33.4406,1057.4473],[149.9019,-33.4381,1092.7828],[149.9041,-33.4258,1101.7174],[149.9021,-33.4255,1098.5237],[149.9027,-33.4236,1091.0645],[149.9046,-33.4239,1088.3743],[149.9055,-33.4192,1101.0911],[149.9036,-33.4189,1101.0911],[149.9061,-33.4135,1110.5017],[149.9008,-33.4118,1168.5193],[149.9026,-33.4028,1240.5164],[149.9068,-33.4034,1206.8593],[149.9075,-33.3997,1210.8203],[149.9114,-33.3996,1192.7308],[149.9115,-33.3929,1167.416],[149.9126,-33.393,1164.6849],[149.9138,-33.3871,1133.407],[149.9131,-33.384,1169.5588],[149.915,-33.3836,1164.2886],[149.9137,-33.3771,1220.6948],[149.9065,-33.3794,1211.088],[149.8976,-33.3773,1252.1873],[149.8976,-33.3759,1228.7303],[149.8959,-33.376,1221.2175],[149.8957,-33.3723,1177.2979],[149.8997,-33.3721,1194.7561],[149.8991,-33.3691,1171.7725],[149.8956,-33.3692,1124.4038],[149.8955,-33.3679,1101.7887],[149.8902,-33.368,1128.4423],[149.8904,-33.3714,1077.1089],[149.8855,-33.3707,1178.4313],[149.8814,-33.3646,1166.7432],[149.8822,-33.357,1174.5897],[149.8844,-33.3523,1178.8116],[149.8784,-33.3446,1173.4165],[149.8753,-33.3468,1180.552],[149.8704,-33.3459,1202.8812],[149.8641,-33.3361,1209.985],[149.8625,-33.3362,1209.985],[149.8617,-33.3386,1177.4164],[149.8515,-33.3373,1210.0356],[149.8513,-33.3331,1229.8315],[149.8468,-33.3283,1226.6302],[149.8339,-33.323,1249.095],[149.8266,-33.3124,1237.2583],[149.8215,-33.2991,1231.8518],[149.8277,-33.2999,1170.0935],[149.8364,-33.2574,1052.3619],[149.8081,-33.2535,915.0866],[149.8221,-33.2479,868.1583],[149.8221,-33.2452,865.3477],[149.8243,-33.2437,863.8984],[149.8255,-33.2392,855.3841],[149.8275,-33.2383,892.2929],[149.8267,-33.2356,850.1488],[149.8302,-33.2256,984.2418],[149.8279,-33.2248,1006.2665],[149.8283,-33.2236,1015.7835],[149.8146,-33.2234,1180.0713],[149.8085,-33.2128,1196.7246],[149.8024,-33.2064,1178.192],[149.7985,-33.2055,1174.3618],[149.7924,-33.2075,1171.9156],[149.7894,-33.2058,1116.7216],[149.7806,-33.2086,1005.3298],[149.7792,-33.2057,1018.8315],[149.772,-33.2022,980.9539],[149.769,-33.1933,999.9957],[149.772,-33.1913,1019.2926],[149.7742,-33.1801,837.4613],[149.7519,-33.1773,987.0016],[149.7568,-33.1721,989.6577],[149.7594,-33.1645,1008.6523],[149.7614,-33.1637,1017.1903],[149.7595,-33.1583,944.6536],[149.7614,-33.1548,949.1652],[149.7611,-33.1467,828.5647],[149.7629,-33.1452,835.0721],[149.7644,-33.1366,752.2752],[149.7631,-33.131,730.5286],[149.7651,-33.1231,652.156],[149.772,-33.1158,615.3168],[149.7683,-33.1112,618.5798],[149.7676,-33.1061,613.2036],[149.7655,-33.1045,611.9222],[149.7657,-33.1002,641.2863],[149.7628,-33.0984,610.4586],[149.7557,-33.0994,611.7542],[149.7521,-33.1038,606.7661],[149.7451,-33.1007,621.9499],[149.7416,-33.1054,604.6975],[149.7379,-33.1057,605.8748],[149.7354,-33.1027,608.2393],[149.7369,-33.0993,615.2933],[149.733,-33.0953,605.0322],[149.7305,-33.095,601.8289],[149.7253,-33.099,598.5104],[149.7183,-33.0973,598.2203],[149.7186,-33.092,605.8696],[149.7152,-33.091,625.5481],[149.7102,-33.0926,590.748],[149.7068,-33.0897,586.6558],[149.7052,-33.0845,592.1017],[149.6978,-33.0839,581.6396],[149.6953,-33.0796,581.7933],[149.6868,-33.08,579.7614],[149.6865,-33.0746,576.4232],[149.6837,-33.0757,583.8504],[149.6856,-33.0792,575.9757],[149.6828,-33.0814,587.0143],[149.6767,-33.0758,579.2311],[149.6718,-33.0754,575.5709],[149.6687,-33.0771,574.9658],[149.662,-33.0776,565.6019],[149.661,-33.0756,567.4866],[149.6631,-33.0736,578.6344],[149.6629,-33.0712,622.8292],[149.6508,-33.069,565.4279],[149.6502,-33.0676,586.4108],[149.652,-33.0657,570.3511],[149.6497,-33.0634,585.7144],[149.6507,-33.0595,579.7996],[149.6552,-33.0611,571.0558],[149.6583,-33.0576,582.0049],[149.6575,-33.0557,586.2642],[149.662,-33.0537,579.7032],[149.6614,-33.0517,580.4474],[149.6586,-33.0525,600.8147],[149.6592,-33.0505,596.0934],[149.653,-33.0469,582.2985],[149.652,-33.0447,584.6915],[149.647,-33.0445,592.0247],[149.6515,-33.0417,602.4901],[149.65,-33.0386,591.6836],[149.6453,-33.0405,595.6503],[149.64,-33.0382,623.1646],[149.6439,-33.0345,622.6433],[149.6498,-33.0348,615.2584],[149.6513,-33.0319,606.7994],[149.6543,-33.0318,611.7817],[149.6482,-33.027,624.2794],[149.6464,-33.0208,616.7822],[149.644,-33.0206,617.5178],[149.6421,-33.023,620.491],[149.6412,-33.0204,610.0224],[149.6384,-33.0202,612.0165],[149.6435,-33.0135,618.0551],[149.638,-33.0116,618.2934],[149.6428,-33.0075,631.1239],[149.6416,-33.0038,637.9708],[149.6456,-33.003,624.5291],[149.6467,-32.9965,627.7872],[149.6492,-32.9971,628.5682],[149.651,-32.9956,663.4647],[149.6479,-32.993,632.3083],[149.6415,-32.9943,631.8984],[149.64,-32.9925,637.7086],[149.6408,-32.9902,632.8169],[149.6162,-32.9867,866.9823],[149.6147,-32.9948,945.678],[149.5965,-32.9928,935.6387],[149.5961,-32.9951,916.4476],[149.5865,-32.9938,898.4259],[149.5874,-32.9883,911.5411],[149.5678,-32.9854,838.9093],[149.5662,-32.9816,836.0187],[149.5628,-32.9852,840.2222],[149.5612,-32.9836,831.6312],[149.5551,-32.9842,822.317],[149.5536,-32.9819,820.2219],[149.5495,-32.9808,814.7006],[149.5472,-32.9772,813.7893],[149.5454,-32.9783,821.5302],[149.5399,-32.9765,801.8643],[149.5395,-32.972,797.5057],[149.5353,-32.9729,793.7291],[149.536,-32.9742,793.0457],[149.5335,-32.9776,790.2916],[149.5266,-32.9797,818.0862],[149.5249,-32.9769,783.9121],[149.5188,-32.9795,771.1437],[149.5072,-32.9766,733.7538],[149.5045,-32.9799,744.6528],[149.505,-32.9772,732.4421],[149.5017,-32.9775,729.9077],[149.5004,-32.9754,722.9504],[149.4968,-32.9798,720.2894],[149.4947,-32.9778,703.3207],[149.4962,-32.977,727.4303],[149.4943,-32.9716,721.0629],[149.4895,-32.969,691.6335],[149.4878,-32.9697,698.6171],[149.4843,-32.96,694.3411],[149.4805,-32.9618,682.8136],[149.4739,-32.9571,674.5375],[149.4726,-32.9594,682.4351],[149.4677,-32.9573,682.0812],[149.4605,-32.9577,648.3865],[149.4578,-32.9522,651.3733],[149.4581,-32.9493,657.3793],[149.4565,-32.9486,635.3521],[149.4566,-32.9599,696.2898],[149.4504,-32.9655,754.3403],[149.4442,-32.9675,815.1196],[149.4376,-32.9737,817.5443],[149.4326,-32.9814,860.6373],[149.4273,-32.9856,858.0131],[149.4237,-32.9842,872.5991],[149.4198,-32.9783,865.5718],[149.403,-32.9761,941.8014],[149.4009,-32.9879,819.3417],[149.4036,-32.9883,865.7596],[149.4015,-32.9994,790.9396],[149.3986,-32.9994,785.478],[149.3975,-32.9958,797.1953],[149.3893,-32.9948,753.7173],[149.387,-32.992,732.8601],[149.3846,-32.9917,723.7303],[149.3801,-32.9994,718.869],[149.381,-33.0004,718.9183],[149.3785,-33.0082,708.2599],[149.3765,-33.0098,703.1161],[149.3742,-33.0092,689.4849],[149.3724,-33.0124,681.0432],[149.371,-33.012,681.0432],[149.372,-33.0133,683.9245],[149.3698,-33.0182,676.7248],[149.3625,-33.0203,649.3099],[149.3621,-33.0296,631.9881],[149.3639,-33.0319,605.1124],[149.3531,-33.0357,567.3776],[149.3527,-33.0419,553.2565],[149.3544,-33.0426,613.7654],[149.3543,-33.0477,564.6271],[149.3525,-33.0518,546.3948],[149.3487,-33.0527,519.7219],[149.3495,-33.0541,507.1707],[149.3477,-33.0543,532.8325],[149.3465,-33.0577,516.1804],[149.3447,-33.0584,513.6082],[149.3454,-33.0609,501.5789],[149.3365,-33.0647,434.556],[149.3352,-33.0675,398.9976],[149.3317,-33.0659,414.5503],[149.3275,-33.0599,409.4371],[149.3229,-33.059,399.2117],[149.3244,-33.0657,576.5679],[149.3203,-33.0702,679.9528],[149.3175,-33.0872,643.8259],[149.3156,-33.0905,680.8907],[149.3147,-33.1,761.036],[149.3161,-33.1095,813.3003],[149.3195,-33.1155,816.3071],[149.3226,-33.1169,828.4083],[149.3172,-33.1466,675.7696],[149.3504,-33.1511,887.471],[149.3444,-33.1836,848.2526],[149.3495,-33.1843,829.1299],[149.3419,-33.2237,885.6146],[149.3449,-33.2353,878.9532],[149.3442,-33.2388,881.8123],[149.3421,-33.2403,860.7765],[149.3388,-33.2388,867.8881],[149.3345,-33.2399,868.8021],[149.3138,-33.2371,741.0409],[149.3139,-33.2421,750.0393],[149.3183,-33.2461,759.6526],[149.3178,-33.2538,803.8269],[149.3219,-33.2613,822.6661],[149.3194,-33.2666,865.8803],[149.3111,-33.2722,931.2557],[149.3108,-33.276,973.2498],[149.3134,-33.2796,932.2327],[149.3179,-33.2817,922.5245],[149.3207,-33.2812,903.8047],[149.326,-33.2867,897.8094],[149.3241,-33.2922,913.1624],[149.328,-33.3031,906.7927],[149.3278,-33.3086,911.3688],[149.3325,-33.3139,934.2107],[149.3325,-33.318,913.2073],[149.3371,-33.3282,917.1965],[149.3319,-33.3358,947.9764],[149.319,-33.343,886.1454],[149.3163,-33.3482,870.8486],[149.3128,-33.3506,860.2294],[149.3184,-33.3514,802.6886],[149.3063,-33.4112,956.4563],[149.3051,-33.4125,953.8774],[149.302,-33.4121,959.4149],[149.299,-33.4277,976.7462],[149.3271,-33.4318,971.8853],[149.3415,-33.4324,1011.0308],[149.3396,-33.4419,996.1437],[149.3422,-33.4422,1000.0955],[149.3413,-33.4466,988.9333],[149.355,-33.4502,1015.3198],[149.3591,-33.4499,1024.1992],[149.3631,-33.4515,1026.2736],[149.3634,-33.4529,1026.2736]]]]}
,"properties": {"GID_2": "AUS.5.8_1","GID_0": "AUS","country": "Australia","GID_1": "AUS.5_1","state": "NewSouthWales","NL_NAME_1": "NA","county": "Bathurst","VARNAME_2": "NA","NL_NAME_2": "NA","TYPE_2": "Region","ENGTYPE_2": "Region","CC_2": "10470","HASC_2": "AU.NS.BT","name": "Bathurst.county","area_km2": 3818.554,"hist_schema_id": "Elevation0-9000","hist_area_km2": {"375": 2.428,"400": 5.905,"425": 9.756,"450": 14.614,"475": 21.482,"500": 30.078,"525": 45.01,"550": 60.411,"575": 72.116,"600": 89.76,"625": 106.311,"650": 166.815,"675": 203.777,"700": 245.592,"725": 277.984,"750": 287.79,"775": 253.03,"800": 217.828,"825": 210.03,"850": 205.936,"875": 206.552,"900": 213.416,"925": 198.489,"950": 175.139,"975": 126.388,"1000": 83.836,"1025": 53.629,"1050": 40.3,"1075": 30.048,"1100": 29.282,"1125": 28.965,"1150": 30.083,"1175": 28.809,"1200": 23.316,"1225": 15.225,"1250": 7.434,"1275": 0.991}}}