{"type": "Feature","bbox": [129.0014,-28.1174,133.7449,-25.9986],"geometry": {"type": "MultiPolygon","coordinates": [[[[129.0778,-25.9986,654.8223],[129.0018,-25.9986,644.0564],[129.0014,-28.1159,311.0768],[132.9939,-28.1174,274.2822],[133.3585,-28.115,272.6302],[133.3599,-27.8421,281.8046],[133.6753,-27.8417,244.2926],[133.6758,-27.5604,279.5278],[133.4456,-27.5609,302.6487],[133.4465,-27.2736,387.8464],[133.4928,-27.2738,414.4167],[133.4926,-27.1469,367.5609],[133.4421,-27.0728,377.6468],[133.3715,-26.9991,385.4315],[133.3702,-26.9962,388.6081],[133.3662,-26.9111,399.2443],[133.3568,-26.8768,415.5209],[133.3514,-26.8623,414.0626],[133.3423,-26.8462,409.1091],[133.3319,-26.8081,389.0258],[133.3655,-26.7167,378.2547],[133.0995,-26.7174,475.0674],[133.0471,-26.6313,470.5823],[133.056,-26.5369,457.76369999999997],[133.0543,-26.4815,454.0036],[133.0893,-26.3588,469.2877],[133.1002,-26.3503,456.3929],[133.1088,-26.3517,449.5844],[133.1118,-25.9986,544.6623],[129.0778,-25.9986,654.8223]]],
[[[133.6397,-27.0526,359.4099],[133.6412,-27.0474,377.8579],[133.6745,-27.0249,349.9223],[133.7449,-26.7182,320.3357],[133.5013,-26.7168,353.5255],[133.4367,-26.7182,363.2586],[133.3676,-26.7167,378.2079],[133.3339,-26.8079,389.1763],[133.3424,-26.8424,415.3253],[133.3532,-26.8616,416.0034],[133.3588,-26.8763,413.367],[133.3683,-26.9109,396.4713],[133.371,-26.9696,384.7849],[133.381,-26.9692,380.7474],[133.3812,-26.9737,380.2333],[133.3732,-26.974,385.2772],[133.3713,-26.9768,384.231],[133.3732,-26.9982,386.7507],[133.4438,-27.0718,378.4977],[133.4926,-27.1434,367.8516],[133.4926,-27.1381,369.1013],[133.6428,-27.1376,383.665],[133.6386,-27.1201,386.2659],[133.6354,-27.0678,373.9244],[133.6397,-27.0526,359.4099]]]]}
,"properties": {"GID_2": "AUS.8.4_1","GID_0": "AUS","country": "Australia","GID_1": "AUS.8_1","state": "SouthAustralia","NL_NAME_1": "NA","county": "AnanguPitjantjatjara","VARNAME_2": "NA","NL_NAME_2": "NA","TYPE_2": "AboriginalCouncil","ENGTYPE_2": "AboriginalCouncil","CC_2": "40250","HASC_2": "NA","name": "AnanguPitjantjatjara.county","area_km2": 102442.53,"hist_schema_id": "Elevation0-9000","hist_area_km2": {"250": 336.8,"275": 1175.28,"300": 1338.86,"325": 2843.56,"350": 4434.76,"375": 7268.64,"400": 8361.27,"425": 8524.62,"450": 8298.25,"475": 7423.79,"500": 7512.0,"525": 7830.05,"550": 7965.38,"575": 6396.27,"600": 4956.27,"625": 4450.19,"650": 3625.6,"675": 2584.64,"700": 2275.75,"725": 1441.25,"750": 927.42,"775": 552.38,"800": 357.62,"825": 269.2,"850": 213.49,"875": 180.47,"900": 151.17,"925": 129.52,"950": 113.54,"975": 96.36,"1000": 85.17,"1025": 74.69,"1050": 61.62,"1075": 48.56,"1100": 39.6,"1125": 30.33,"1150": 24.01,"1175": 17.77,"1200": 13.48,"1225": 8.39,"1250": 2.26}}}