{"type": "Feature","bbox": [138.1637,-33.6591,138.7912,-32.9423],"geometry": {"type": "MultiPolygon","coordinates": [[[[138.6975,-33.6587,458.2533],[138.6908,-33.6447,488.6923],[138.6899,-33.6382,480.0587],[138.6936,-33.6308,473.0488],[138.6928,-33.6232,464.4395],[138.6813,-33.6177,471.8163],[138.675,-33.5893,363.9534],[138.6787,-33.5745,399.2836],[138.6835,-33.5731,383.1674],[138.6822,-33.5694,392.4191],[138.6841,-33.5669,404.3407],[138.6823,-33.5629,410.9885],[138.684,-33.5608,419.8139],[138.684,-33.5557,435.3306],[138.6859,-33.5552,435.8391],[138.6887,-33.5405,471.4368],[138.688,-33.538,494.7631],[138.6912,-33.5367,475.7429],[138.7015,-33.5227,511.9713],[138.7009,-33.5198,526.0338],[138.702,-33.518,546.4689],[138.704,-33.5184,535.0936],[138.7117,-33.5079,576.9046],[138.7133,-33.5014,594.9811],[138.7162,-33.4978,558.1367],[138.7156,-33.4881,595.0955],[138.7133,-33.483,610.9921],[138.7151,-33.4809,601.3465],[138.715,-33.475,581.6071],[138.717,-33.4732,588.728],[138.7159,-33.4719,587.3723],[138.7179,-33.4613,640.4493],[138.7218,-33.4521,635.0853],[138.7203,-33.4435,633.5074],[138.7256,-33.4392,649.0508],[138.726,-33.4356,637.281],[138.7211,-33.429,655.7849],[138.7244,-33.4265,636.1594],[138.7251,-33.4232,646.0668],[138.7245,-33.4186,641.3976],[138.7265,-33.4107,660.5763],[138.7247,-33.4041,674.2567],[138.7295,-33.3986,693.2025],[138.729,-33.3952,680.7411],[138.7324,-33.3838,641.3779],[138.7296,-33.3781,688.1899],[138.7332,-33.3718,681.5177],[138.7311,-33.3685,730.7832],[138.7275,-33.3671,733.6213],[138.7273,-33.3627,728.5099],[138.7256,-33.3612,745.1104],[138.7269,-33.3595,721.3917],[138.7255,-33.3519,734.7264],[138.7281,-33.3491,728.6404],[138.7286,-33.3415,689.9131],[138.7307,-33.3415,690.1118],[138.7298,-33.3383,690.2356],[138.7323,-33.3371,672.4677],[138.7343,-33.3285,689.595],[138.7335,-33.3265,707.2921],[138.7698,-33.3261,532.2004],[138.7751,-33.3163,531.403],[138.7834,-33.309,529.02],[138.7912,-33.2816,557.7435],[138.7775,-33.2687,569.1183],[138.761,-33.2647,619.5458],[138.7583,-33.2622,629.9984],[138.7518,-33.2439,619.3329],[138.7541,-33.2211,604.7513],[138.7528,-33.2134,595.4623],[138.7582,-33.1926,585.0197],[138.7626,-33.1816,573.2706],[138.7642,-33.1649,565.7663],[138.7618,-33.1386,546.7552],[138.7559,-33.1115,537.2709],[138.7558,-33.1014,534.5706],[138.6979,-33.1018,593.4613],[138.6979,-33.0945,599.9963],[138.7029,-33.0878,591.8282],[138.707,-33.0779,574.0962],[138.7142,-33.0754,565.8782],[138.7215,-33.0706,566.1327],[138.7207,-32.9423,478.1608],[138.4392,-32.9433,484.7309],[138.4395,-33.1031,405.6022],[138.3032,-33.1036,314.1073],[138.3027,-33.1021,319.3526],[138.293,-33.102,282.1327],[138.2851,-33.1037,293.4781],[138.213,-33.1039,429.4545],[138.213,-33.1064,443.4437],[138.2108,-33.1073,438.4198],[138.2107,-33.1131,452.4061],[138.2003,-33.1113,502.5671],[138.1961,-33.104,467.2191],[138.1637,-33.1041,725.0917],[138.1654,-33.1107,695.0867],[138.1647,-33.1171,648.6458],[138.1703,-33.1285,556.4087],[138.1673,-33.1332,601.0815],[138.1673,-33.1401,608.1281],[138.17,-33.1463,576.0471],[138.1676,-33.1611,580.6385],[138.1695,-33.1658,530.6826],[138.1673,-33.1704,543.6448],[138.1677,-33.1832,489.2416],[138.17,-33.1884,499.653],[138.1729,-33.1884,508.8108],[138.1773,-33.1918,486.3489],[138.1773,-33.1979,441.8278],[138.1839,-33.2001,444.1855],[138.1832,-33.208,435.6269],[138.1798,-33.2088,427.5618],[138.1775,-33.2114,423.5899],[138.1848,-33.2143,421.5876],[138.1842,-33.2172,400.7488],[138.1877,-33.2203,408.8195],[138.1967,-33.2162,424.1285],[138.1989,-33.2211,383.2744],[138.2034,-33.2249,368.8036],[138.2061,-33.2326,354.2195],[138.2052,-33.24,303.2074],[138.2083,-33.2426,333.0574],[138.2052,-33.2467,312.3123],[138.2073,-33.2559,318.1258],[138.2061,-33.2575,330.9631],[138.208,-33.2606,320.518],[138.207,-33.2623,329.6005],[138.2124,-33.2643,325.4279],[138.2117,-33.2674,322.972],[138.2132,-33.2713,303.8425],[138.217,-33.271,296.0598],[138.2212,-33.2733,290.198],[138.2229,-33.2787,272.2109],[138.2266,-33.2816,269.457],[138.2269,-33.2848,267.1924],[138.2312,-33.2862,261.3025],[138.2379,-33.2845,214.5593],[138.2414,-33.2868,205.0923],[138.259,-33.2863,274.0798],[138.2588,-33.473,107.7658],[138.3889,-33.4744,248.7615],[138.3978,-33.4937,290.4807],[138.4033,-33.626,172.4533],[138.5506,-33.6259,498.8751],[138.5479,-33.6323,474.4863],[138.5489,-33.6351,461.5312],[138.5466,-33.6571,459.6563],[138.5445,-33.6591,451.3308],[138.6975,-33.6587,458.2533]]]]}
,"properties": {"GID_2": "AUS.8.40_1","GID_0": "AUS","country": "Australia","GID_1": "AUS.8_1","state": "SouthAustralia","NL_NAME_1": "NA","county": "NorthernAreas","VARNAME_2": "NA","NL_NAME_2": "NA","TYPE_2": "DistrictCouncil","ENGTYPE_2": "DistrictCouncil","CC_2": "45120","HASC_2": "AU.SA.NA","name": "NorthernAreas.county","area_km2": 2989.182,"hist_schema_id": "Elevation0-9000","hist_area_km2": {"100": 4.264,"125": 20.633,"150": 20.575,"175": 52.772,"200": 82.98,"225": 122.196,"250": 155.182,"275": 193.149,"300": 231.504,"325": 226.445,"350": 175.329,"375": 154.568,"400": 162.572,"425": 167.397,"450": 191.389,"475": 190.934,"500": 181.947,"525": 164.285,"550": 140.882,"575": 96.224,"600": 77.555,"625": 68.253,"650": 54.78,"675": 31.312,"700": 16.747,"725": 4.972,"750": 0.337}}}