{"type":"Feature","properties":{"GID_2":"AUS.5.33_1","GID_0":"AUS","country":"Australia","GID_1":"AUS.5_1","state":"NewSouthWales","NL_NAME_1":"NA","county":"ClarenceValley","VARNAME_2":"NA","NL_NAME_2":"NA","TYPE_2":"Area","ENGTYPE_2":"Area","CC_2":"11730","HASC_2":"NA","name":"ClarenceValley.county"},
"geometry":{"type": "MultiPolygon","coordinates": [[[[153.2608,-29.9747,1.0037],[153.2599,-29.9742,0.0],[153.2596,-29.9752,0.0],[153.2605,-29.9755,1.0037],[153.2608,-29.9747,1.0037]]],
[[[153.2595,-29.9732,0.0],[153.2585,-29.9726,0.0],[153.2581,-29.9735,0.0],[153.2592,-29.9743,0.0],[153.2595,-29.9732,0.0]]],
[[[153.2785,-29.9189,0.0],[153.2765,-29.9187,0.0],[153.2757,-29.9202,0.0],[153.2773,-29.9207,0.0],[153.2785,-29.9189,0.0]]],
[[[153.3032,-29.7735,0.0],[153.3039,-29.7739,0.0],[153.304,-29.7729,0.0],[153.3033,-29.7727,0.0],[153.3032,-29.7735,0.0]]],
[[[153.3008,-29.771,0.0],[153.3012,-29.7711,0.0],[153.3014,-29.7707,0.0],[153.3003,-29.7707,0.0],[153.3008,-29.771,0.0]]],
[[[152.4253,-30.4177,1487.3771],[152.4283,-30.4187,1512.8269],[152.4306,-30.4123,1282.0557],[152.4305,-30.4062,1409.7058],[152.4351,-30.4053,1378.2415],[152.438,-30.4002,1365.0732],[152.4463,-30.3984,1332.7554],[152.4489,-30.4009,1319.8163],[152.4539,-30.3968,1396.343],[152.4605,-30.3981,1356.9807],[152.4652,-30.3956,1365.1178],[152.4786,-30.397,1340.5148],[152.4841,-30.3915,1332.0747],[152.4777,-30.3898,1280.199],[152.4774,-30.3791,1214.9073],[152.4789,-30.3779,1196.5374],[152.4769,-30.3732,1196.6405],[152.478,-30.3684,1195.9543],[152.4762,-30.367,1184.941],[152.4766,-30.3617,1180.6836],[152.4749,-30.3566,1173.9193],[152.4765,-30.3548,1180.0403],[152.4769,-30.3476,1171.4749],[152.4794,-30.3479,1172.3584],[152.4821,-30.3455,1165.9583],[152.4788,-30.3379,1155.3008],[152.4823,-30.3374,1137.6996],[152.4805,-30.3324,1148.781],[152.4832,-30.3317,1115.5157],[152.4855,-30.3354,1090.5164],[152.4873,-30.3347,1082.5897],[152.4905,-30.3373,1072.4745],[152.4934,-30.3369,1076.481],[152.4959,-30.3349,1055.3159],[152.4966,-30.3313,1048.4644],[152.5017,-30.3297,1034.3911],[152.5062,-30.3206,904.7865],[152.5105,-30.3196,888.1843],[152.5135,-30.3169,868.3528],[152.5202,-30.3159,836.6804],[152.5259,-30.3116,833.9682],[152.5293,-30.3011,768.9912],[152.5313,-30.3,759.3802],[152.5331,-30.301,759.3802],[152.5329,-30.2973,777.2933],[152.531,-30.2952,794.3985],[152.533,-30.2927,775.7456],[152.5353,-30.2931,762.582],[152.5356,-30.2954,757.1846],[152.5384,-30.2954,752.9246],[152.5391,-30.2929,812.2679],[152.5438,-30.2927,797.7373],[152.5424,-30.2904,747.837],[152.5471,-30.2887,731.3315],[152.5466,-30.2854,724.4667],[152.5504,-30.2813,716.6307],[152.555,-30.2809,741.4264],[152.5502,-30.2777,718.1486],[152.5512,-30.2755,729.4467],[152.5553,-30.2739,706.1726],[152.5573,-30.2623,707.27],[152.5513,-30.2578,716.6392],[152.5525,-30.2552,703.3158],[152.5547,-30.2554,726.9822],[152.5547,-30.2499,704.4139],[152.5597,-30.2454,701.4964],[152.5596,-30.2437,687.1397],[152.5575,-30.2431,697.6765],[152.5579,-30.241,706.9685],[152.5649,-30.2393,669.5128],[152.5612,-30.2336,697.5967],[152.5698,-30.2393,672.4889],[152.5739,-30.2445,664.0856],[152.5805,-30.2422,660.5728],[152.5828,-30.2444,647.2481],[152.5865,-30.2409,641.9189],[152.5898,-30.245,644.327],[152.5968,-30.2468,640.3683],[152.598,-30.2501,637.5255],[152.603,-30.2525,630.1908],[152.6112,-30.2493,635.9312],[152.6131,-30.2551,625.8748],[152.6162,-30.2581,613.7822],[152.6269,-30.26,617.1252],[152.626,-30.2582,602.4043],[152.6306,-30.256,607.3743],[152.6348,-30.2568,602.5892],[152.6331,-30.2537,598.5599],[152.6383,-30.2513,579.3323],[152.6417,-30.2525,572.0742],[152.639,-30.2554,577.6449],[152.6438,-30.2548,573.8164],[152.6447,-30.2565,563.757],[152.6436,-30.2569,571.3082],[152.6466,-30.2582,574.7532],[152.6483,-30.2564,564.1197],[152.6469,-30.2542,559.3825],[152.649,-30.2524,565.146],[152.6554,-30.2553,555.3718],[152.6581,-30.2523,558.2689],[152.6635,-30.2517,540.6733],[152.6634,-30.2472,537.2],[152.6691,-30.2455,543.8857],[152.6711,-30.2389,531.7889],[152.674,-30.2382,530.8553],[152.682,-30.2311,525.7487],[152.6978,-30.2236,488.7443],[152.6932,-30.2183,529.5558],[152.694,-30.2111,474.226],[152.7054,-30.2074,461.7954],[152.7075,-30.2042,437.0205],[152.6965,-30.1981,444.3185],[152.693,-30.189,419.2127],[152.7508,-30.1966,632.7463],[152.75,-30.189,626.6288],[152.7552,-30.1865,623.6239],[152.7541,-30.1847,628.5837],[152.7552,-30.1808,614.718],[152.7679,-30.1824,608.2017],[152.7675,-30.1847,639.3541],[152.8035,-30.1896,465.0679],[152.8038,-30.1857,453.0735],[152.7988,-30.183,458.1239],[152.7996,-30.1784,446.6232],[152.8036,-30.1764,447.9417],[152.8061,-30.1726,424.7295],[152.7999,-30.1706,417.2945],[152.8004,-30.1622,396.4704],[152.7978,-30.1608,410.4769],[152.7957,-30.1559,406.7764],[152.7998,-30.154,401.287],[152.7997,-30.1516,402.2862],[152.804,-30.1484,375.5692],[152.8084,-30.1474,386.5949],[152.8048,-30.1434,435.3052],[152.8087,-30.1387,340.5602],[152.8074,-30.1369,373.9077],[152.8081,-30.1257,362.5232],[152.8135,-30.1285,353.2986],[152.8183,-30.1283,356.659],[152.8245,-30.1308,351.6494],[152.8252,-30.1324,368.7563],[152.8209,-30.1343,385.87],[152.8192,-30.1389,399.3913],[152.8218,-30.1427,409.9847],[152.829,-30.1445,418.9031],[152.8301,-30.1424,424.7499],[152.8335,-30.1425,420.5081],[152.8345,-30.1404,434.8838],[152.8388,-30.1441,419.3778],[152.8388,-30.1425,437.4436],[152.845,-30.1422,439.028],[152.8522,-30.146,438.0318],[152.8567,-30.1462,448.789],[152.8572,-30.1478,434.0641],[152.8619,-30.1457,445.1182],[152.8632,-30.1425,463.6749],[152.8622,-30.1413,455.758],[152.8643,-30.1394,469.5326],[152.8671,-30.1399,461.7238],[152.8666,-30.134,489.864],[152.8694,-30.1358,452.2278],[152.8733,-30.1329,462.5871],[152.8724,-30.1288,473.1572],[152.8782,-30.1279,479.7185],[152.8807,-30.1296,455.9137],[152.8828,-30.1268,506.7013],[152.8879,-30.1343,497.6301],[152.9001,-30.1428,572.9229],[152.907,-30.1437,451.2001],[152.9177,-30.1543,540.4591],[152.9342,-30.1238,163.5218],[152.9354,-30.1259,155.4402],[152.9387,-30.125,181.1177],[152.9733,-30.1299,258.2429],[152.9767,-30.1123,136.9171],[152.972,-30.1056,172.6325],[152.966,-30.1048,298.2964],[152.9687,-30.0974,207.8412],[152.967,-30.093,193.262],[152.9701,-30.0906,168.6457],[152.969,-30.0872,176.7688],[152.9947,-30.0918,89.9998],[152.9938,-30.0962,103.2838],[152.9984,-30.0969,112.3834],[152.999,-30.0938,110.8377],[153.0176,-30.0965,76.8372],[153.0166,-30.0917,68.2337],[153.0189,-30.0918,69.4307],[153.0174,-30.087,76.494],[153.0385,-30.0894,365.5939],[153.0352,-30.0872,379.3188],[153.0371,-30.0742,304.798],[153.0412,-30.0715,264.076],[153.0472,-30.0724,134.4087],[153.0511,-30.0685,122.3955],[153.0517,-30.0649,116.18],[153.0496,-30.0635,143.7108],[153.0529,-30.0609,114.3443],[153.0531,-30.057,114.6655],[153.0503,-30.0499,114.8454],[153.045,-30.047,106.8384],[153.0443,-30.0443,135.2722],[153.0545,-30.0458,298.6911],[153.0569,-30.0387,243.163],[153.0601,-30.0381,234.814],[153.063,-30.0345,225.1553],[153.0834,-30.0371,129.5697],[153.0819,-30.0458,218.9172],[153.0903,-30.047,263.9563],[153.0933,-30.0319,152.2686],[153.1029,-30.0307,156.4027],[153.1021,-30.0292,164.6601],[153.1053,-30.0173,110.0264],[153.1001,-30.0193,103.3463],[153.1008,-30.0152,97.6612],[153.091,-30.0139,122.49],[153.0942,-29.9958,82.3229],[153.0963,-29.9961,84.5912],[153.0966,-29.9948,84.5912],[153.1011,-29.9988,83.8117],[153.1071,-29.9957,93.2119],[153.1092,-29.9963,79.9722],[153.1112,-29.9864,175.5358],[153.1169,-29.9873,128.1685],[153.1177,-29.9832,133.3957],[153.121,-29.9837,124.6165],[153.1224,-29.9763,177.8223],[153.1443,-29.9804,129.4441],[153.1454,-29.9727,167.6113],[153.1423,-29.9705,141.674],[153.1443,-29.9581,113.0031],[153.1371,-29.9565,106.1141],[153.136,-29.9546,106.4531],[153.1352,-29.9525,102.4328],[153.1375,-29.943,133.4022],[153.1283,-29.9422,244.7482],[153.1333,-29.937,146.593],[153.1337,-29.9346,142.2722],[153.1522,-29.9371,60.5321],[153.1551,-29.9213,54.8877],[153.1607,-29.93,53.6074],[153.1664,-29.9238,67.387],[153.1718,-29.9239,42.4152],[153.1803,-29.9133,34.2164],[153.1823,-29.9128,44.8401],[153.2087,-29.9165,39.9184],[153.2083,-29.9082,23.0915],[153.2188,-29.9063,51.5242],[153.2264,-29.9085,68.5448],[153.23,-29.8979,203.9296],[153.2352,-29.8971,128.0494],[153.2383,-29.8973,143.9121],[153.239,-29.9066,87.9293],[153.2417,-29.9073,75.1234],[153.2425,-29.9114,85.2036],[153.2447,-29.9115,72.6689],[153.2437,-29.9167,42.8328],[153.2566,-29.9187,64.2147],[153.2584,-29.9222,33.4499],[153.2581,-29.9321,40.8413],[153.2618,-29.9399,0.0],[153.263,-29.9348,5.706],[153.2611,-29.9306,22.3629],[153.2727,-29.9172,0.0],[153.2713,-29.9132,19.5821],[153.2727,-29.9088,0.0],[153.2719,-29.9036,33.7582],[153.2746,-29.8947,0.0],[153.2769,-29.8933,0.0],[153.2741,-29.8916,0.0],[153.2718,-29.8924,9.9521],[153.2675,-29.8857,0.862],[153.2666,-29.8787,0.0],[153.2677,-29.8649,3.8292],[153.2743,-29.8482,0.0],[153.2825,-29.8338,0.0],[153.2863,-29.8304,3.3682],[153.2887,-29.8308,1.7915],[153.2903,-29.8264,25.5819],[153.2944,-29.8251,3.8968],[153.2873,-29.8056,0.0],[153.288,-29.7983,10.327],[153.295,-29.7851,0.0],[153.2993,-29.7806,1.9327],[153.3016,-29.7808,0.0],[153.3029,-29.7792,0.0],[153.3039,-29.7745,0.0],[153.3011,-29.7744,0.0],[153.2965,-29.769,7.1873],[153.2963,-29.7657,15.6454],[153.2982,-29.7646,0.0],[153.2958,-29.7625,5.7766],[153.2977,-29.7606,0.0],[153.2954,-29.7609,0.0],[153.2931,-29.7586,1.5945],[153.2921,-29.7533,3.2672],[153.2961,-29.7363,4.4554],[153.3052,-29.7154,0.0],[153.3194,-29.6941,0.0],[153.3266,-29.6868,0.0],[153.3299,-29.6862,2.4813],[153.33,-29.6828,8.1561],[153.3316,-29.6817,8.1561],[153.3303,-29.6803,3.4573],[153.334,-29.6746,0.0],[153.331,-29.6731,0.0],[153.3307,-29.6706,0.0],[153.3281,-29.6732,0.0],[153.3238,-29.6716,4.4293],[153.3213,-29.6673,2.2056],[153.3206,-29.6614,0.0],[153.322,-29.6475,1.2052],[153.3269,-29.6329,0.7173],[153.3328,-29.621,6.9675],[153.3365,-29.6157,2.669],[153.3411,-29.6128,13.7024],[153.3428,-29.6083,0.0],[153.341,-29.61,7.1407],[153.3346,-29.6048,0.0],[153.332,-29.5983,0.8546],[153.3324,-29.5866,2.4048],[153.3374,-29.5736,8.7094],[153.3385,-29.5644,1.3887],[153.3472,-29.5502,0.0],[153.3465,-29.5479,0.0],[153.3495,-29.5399,3.9181],[153.3564,-29.5299,0.0],[153.3607,-29.5303,0.0],[153.3598,-29.528,21.0257],[153.3626,-29.5254,0.0],[153.3587,-29.5241,0.0],[153.3576,-29.521,7.895],[153.3584,-29.5167,15.8293],[153.3607,-29.5148,0.0],[153.3599,-29.5101,42.8508],[153.3632,-29.5044,0.0],[153.3587,-29.4961,2.595],[153.3638,-29.4857,0.0],[153.3658,-29.4838,1.3147],[153.3688,-29.4841,0.0],[153.365,-29.482,0.0],[153.364,-29.4779,0.0],[153.3606,-29.4772,0.0],[153.3617,-29.4726,0.0],[153.3592,-29.4716,13.6077],[153.3584,-29.4665,24.3076],[153.3659,-29.4453,1.8075],[153.3701,-29.4401,0.0],[153.3728,-29.4403,0.5714],[153.3724,-29.4377,0.0],[153.3682,-29.4384,9.7622],[153.365,-29.4356,0.0],[153.366,-29.4321,3.1977],[153.364,-29.4302,0.0],[153.3648,-29.4282,0.0],[153.3716,-29.4286,0.0],[153.3728,-29.4251,0.0],[153.3633,-29.4216,0.0],[153.367,-29.4047,0.0],[153.3699,-29.3993,4.7457],[153.3723,-29.3992,2.3222],[153.374,-29.3963,0.0],[153.3729,-29.3943,0.0],[153.3692,-29.3935,0.0],[153.3682,-29.3898,10.072],[153.3702,-29.3852,0.0],[153.3727,-29.3851,0.0],[153.3705,-29.3844,1.2757],[153.3728,-29.3812,0.6975],[153.3703,-29.38,1.5966],[153.3701,-29.3767,0.0],[153.3717,-29.372,0.0],[153.3744,-29.3711,0.2722],[153.3767,-29.3655,0.0],[153.3755,-29.3666,0.2422],[153.374,-29.3628,0.0],[153.3736,-29.3644,0.0],[153.3673,-29.364,0.0],[153.3633,-29.3599,0.0],[153.3644,-29.3574,0.0],[153.3629,-29.3554,0.0],[153.3618,-29.3592,0.0],[153.3595,-29.3597,8.8715],[153.356,-29.359,1.9561],[153.3512,-29.3551,0.0],[153.3433,-29.3414,0.0],[153.341,-29.3326,4.833],[153.3403,-29.3204,0.0],[153.3429,-29.302,0.0],[153.3461,-29.2913,3.87],[153.3598,-29.2637,8.4946],[153.3177,-29.2396,15.2673],[153.3098,-29.2467,20.1903],[153.3054,-29.2463,14.5938],[153.3,-29.2505,8.7025],[153.2884,-29.2514,12.8348],[153.283,-29.2507,16.2737],[153.2809,-29.2488,22.8619],[153.2745,-29.2509,12.3906],[153.2584,-29.2466,14.3975],[153.2579,-29.2491,16.6074],[153.2071,-29.2418,150.8845],[153.2067,-29.2634,227.9928],[153.1805,-29.2599,94.8855],[153.1819,-29.2528,64.1831],[153.1658,-29.2504,26.816],[153.1667,-29.2459,19.6536],[153.143,-29.2425,27.937],[153.1393,-29.2615,48.8193],[153.1466,-29.2626,29.5984],[153.1444,-29.2819,37.3465],[153.1276,-29.2795,73.4328],[153.1282,-29.2767,57.5505],[153.1114,-29.2742,86.8917],[153.1039,-29.3138,98.6878],[153.1006,-29.3169,102.0436],[153.0953,-29.3194,140.0681],[153.0901,-29.3175,184.7724],[153.0875,-29.3184,222.408],[153.083,-29.3129,196.9471],[153.0809,-29.3126,188.5114],[153.0708,-29.3188,137.0534],[153.0688,-29.3233,140.7979],[153.0628,-29.3234,101.5354],[153.06,-29.3253,96.8404],[153.0531,-29.3246,110.3914],[153.0293,-29.3377,89.114],[153.0244,-29.3387,98.6246],[153.0207,-29.343,93.4444],[153.0201,-29.339,95.044],[153.0098,-29.3314,84.7555],[152.9997,-29.3321,92.8122],[152.9977,-29.3287,87.907],[152.9948,-29.3277,86.1379],[152.9844,-29.3279,94.8523],[152.9798,-29.3265,95.118],[152.9767,-29.3286,99.5231],[152.9634,-29.3289,111.9799],[152.9563,-29.3318,113.3474],[152.9475,-29.3327,124.962],[152.9393,-29.3302,159.7831],[152.9394,-29.3249,148.5976],[152.9275,-29.3177,164.9758],[152.9262,-29.3144,144.6302],[152.9231,-29.3148,147.1058],[152.9197,-29.3116,151.0964],[152.9142,-29.3107,162.9137],[152.91,-29.3138,175.0467],[152.9043,-29.3148,155.0494],[152.8974,-29.3215,195.7619],[152.892,-29.3164,178.0049],[152.8887,-29.316,188.6445],[152.8878,-29.3139,172.5304],[152.8824,-29.3109,199.593],[152.8715,-29.3094,210.4421],[152.8689,-29.311,204.8041],[152.8575,-29.3122,269.9843],[152.8576,-29.316,331.4164],[152.8479,-29.3232,404.3633],[152.8413,-29.3222,404.1782],[152.8348,-29.3144,379.0145],[152.8305,-29.3164,385.0448],[152.8253,-29.3142,344.9104],[152.8174,-29.3182,373.9843],[152.8128,-29.3172,494.7581],[152.811,-29.3165,475.8957],[152.8089,-29.2994,253.1132],[152.8124,-29.2966,247.7016],[152.8136,-29.2917,245.8247],[152.8166,-29.2898,241.0057],[152.8197,-29.2806,291.695],[152.8226,-29.2806,286.5467],[152.8245,-29.2744,249.5022],[152.8199,-29.2669,247.1092],[152.8203,-29.2641,353.2478],[152.8225,-29.2644,352.2602],[152.8169,-29.2566,396.7421],[152.8086,-29.2359,289.4519],[152.8043,-29.233,333.5113],[152.7997,-29.2334,373.8852],[152.7958,-29.2274,423.0129],[152.7965,-29.2248,462.1999],[152.7914,-29.2258,496.6368],[152.784,-29.2219,486.7731],[152.774,-29.2195,478.5645],[152.7736,-29.2032,547.3027],[152.763,-29.2008,486.9302],[152.7621,-29.1978,498.1713],[152.7546,-29.1901,495.0573],[152.7498,-29.1902,487.2183],[152.7471,-29.192,386.2884],[152.7408,-29.1909,390.9223],[152.7379,-29.192,379.7347],[152.7273,-29.1887,438.2655],[152.7217,-29.1887,419.6285],[152.72,-29.188,357.2517],[152.718,-29.1823,347.0815],[152.7199,-29.1785,462.2381],[152.7239,-29.1768,451.9549],[152.7211,-29.1759,488.2082],[152.7209,-29.1733,491.0562],[152.724,-29.1682,483.1647],[152.7247,-29.1607,535.0591],[152.7323,-29.1504,473.095],[152.731,-29.1376,497.3037],[152.7343,-29.1335,481.4734],[152.7351,-29.1286,489.1017],[152.7399,-29.1262,530.8134],[152.7424,-29.1178,446.1215],[152.7486,-29.1103,396.3943],[152.7579,-29.1061,499.6318],[152.7591,-29.0904,602.958],[152.7532,-29.0841,605.9933],[152.7434,-29.0759,639.0237],[152.7393,-29.0797,589.6955],[152.7344,-29.0811,431.2779],[152.7237,-29.082,389.851],[152.7207,-29.0796,328.5056],[152.7177,-29.0753,293.6324],[152.7178,-29.0726,299.0844],[152.7128,-29.0657,285.1307],[152.7114,-29.0591,295.5382],[152.7072,-29.0562,315.1538],[152.7068,-29.051,314.597],[152.6971,-29.0442,287.6348],[152.6969,-29.0409,285.3456],[152.69,-29.0352,294.6999],[152.6895,-29.0229,340.1187],[152.6619,-29.0199,471.4514],[152.6646,-29.0045,240.7384],[152.6517,-29.0029,307.4695],[152.6512,-29.0057,309.0419],[152.6465,-29.0051,394.8246],[152.6462,-29.0022,453.7359],[152.5513,-28.989,110.3211],[152.534,-28.9857,173.5869],[152.5331,-28.984,169.2714],[152.53,-28.9885,173.8718],[152.5257,-28.9847,192.46],[152.5166,-28.9836,218.1574],[152.5169,-28.9816,238.1146],[152.5083,-28.9804,255.0505],[152.5096,-28.9733,270.4747],[152.4869,-28.97,529.8527],[152.4894,-28.9752,556.1418],[152.4886,-28.9771,560.4067],[152.4767,-28.9726,398.7453],[152.4721,-28.9725,171.1439],[152.4626,-28.9759,205.2093],[152.4621,-28.9778,176.6711],[152.4636,-28.9792,170.5411],[152.4729,-28.9802,188.1369],[152.4762,-28.9904,231.335],[152.4744,-28.992,194.778],[152.4659,-28.9904,196.3373],[152.4639,-28.992,194.9683],[152.4648,-28.9985,225.9546],[152.4724,-29.0039,183.2621],[152.465,-29.0077,217.5198],[152.4552,-29.0205,198.2908],[152.4541,-29.0245,205.3387],[152.4598,-29.0316,220.7601],[152.4564,-29.0332,213.5734],[152.4461,-29.0283,205.3015],[152.4379,-29.0322,203.4357],[152.4297,-29.0327,215.8901],[152.4238,-29.0366,206.0026],[152.4439,-29.0398,427.306],[152.441,-29.0534,648.5106],[152.4361,-29.0565,614.8407],[152.4357,-29.0594,613.6043],[152.4306,-29.0646,646.2421],[152.4311,-29.072,672.3767],[152.4287,-29.0743,687.7747],[152.4243,-29.0755,705.402],[152.4213,-29.0805,746.2473],[152.419,-29.081,741.0759],[152.421,-29.0841,713.9502],[152.455,-29.089,677.0785],[152.4442,-29.1442,722.8543],[152.4346,-29.1454,737.8844],[152.4289,-29.1505,767.5544],[152.4238,-29.1522,878.7946],[152.4178,-29.1523,892.2313],[152.4138,-29.1613,873.4073],[152.4145,-29.1654,864.816],[152.4189,-29.1688,831.4884],[152.4175,-29.1722,833.9942],[152.4215,-29.1739,819.7266],[152.4251,-29.1784,877.0412],[152.4219,-29.1803,781.88],[152.4185,-29.1902,811.8064],[152.4102,-29.2009,827.6114],[152.4052,-29.2112,922.3846],[152.4111,-29.22,959.9168],[152.4113,-29.226,941.1628],[152.4141,-29.2289,1009.2448],[152.3937,-29.2414,1023.6201],[152.3876,-29.24,868.5921],[152.3805,-29.2453,945.3775],[152.3757,-29.2438,930.4899],[152.3686,-29.2471,872.6041],[152.3653,-29.246,855.9475],[152.3575,-29.2506,1017.1888],[152.3516,-29.2488,949.9597],[152.3472,-29.2537,1031.4384],[152.3445,-29.2538,1038.309],[152.3405,-29.2574,1097.5918],[152.3374,-29.2636,1125.4506],[152.3229,-29.2701,1123.2061],[152.3211,-29.2775,1143.5796],[152.3152,-29.2802,1117.0001],[152.3142,-29.2825,1154.8864],[152.3065,-29.2831,1076.1602],[152.3115,-29.2901,1030.3225],[152.3118,-29.2962,1049.6641],[152.3147,-29.2985,1074.5814],[152.3095,-29.302,1049.1063],[152.3088,-29.3049,1080.4778],[152.3,-29.3045,1117.3381],[152.2983,-29.3074,1077.2737],[152.3014,-29.3108,1066.5288],[152.3001,-29.3136,1063.4572],[152.3073,-29.3209,1124.7358],[152.331,-29.3288,1076.2939],[152.336,-29.3338,1090.3816],[152.3367,-29.3382,1049.9867],[152.3353,-29.3404,1085.869],[152.3315,-29.3418,962.8081],[152.4522,-29.3591,119.5965],[152.4514,-29.3609,120.5394],[152.4467,-29.3611,155.4862],[152.4457,-29.3658,126.647],[152.4429,-29.3679,129.2342],[152.4444,-29.3706,126.626],[152.4406,-29.3721,127.717],[152.4408,-29.3757,140.7966],[152.4344,-29.3786,139.17],[152.436,-29.3821,145.2012],[152.4322,-29.3926,161.3834],[152.426,-29.3928,187.8079],[152.4214,-29.3951,195.2743],[152.4199,-29.3983,208.6889],[152.4135,-29.3996,225.5267],[152.4086,-29.3985,216.391],[152.41,-29.4008,241.1306],[152.4043,-29.4328,266.8583],[152.3972,-29.4318,297.8795],[152.3946,-29.4461,246.8369],[152.3888,-29.4453,298.3254],[152.4125,-29.5069,170.439],[152.409,-29.5087,177.1003],[152.4096,-29.5115,189.5779],[152.4065,-29.5135,207.9674],[152.4053,-29.5168,207.3639],[152.4003,-29.52,235.8275],[152.3943,-29.5205,279.4752],[152.3925,-29.5225,273.6223],[152.3899,-29.5219,279.6427],[152.3868,-29.5243,371.4957],[152.3872,-29.5276,382.4648],[152.3837,-29.5277,402.1196],[152.3809,-29.5313,463.8394],[152.3775,-29.5313,520.7784],[152.3647,-29.5385,865.7361],[152.3596,-29.5398,857.8516],[152.3545,-29.5454,876.7642],[152.3361,-29.6408,238.8357],[152.3266,-29.6478,221.6854],[152.3271,-29.6539,220.9667],[152.3257,-29.6555,237.0398],[152.3125,-29.6514,228.3674],[152.3103,-29.6558,228.8482],[152.3116,-29.6649,266.3369],[152.3078,-29.6648,249.9669],[152.3053,-29.6618,232.0354],[152.3038,-29.6676,237.3543],[152.2941,-29.6693,258.23],[152.2895,-29.6763,270.8615],[152.2857,-29.6732,266.1496],[152.2834,-29.666,286.0066],[152.2807,-29.6659,251.652],[152.2768,-29.6725,254.1546],[152.2761,-29.6822,280.3753],[152.2712,-29.6859,277.8788],[152.2701,-29.6918,276.9969],[152.2624,-29.6968,257.9567],[152.261,-29.7003,269.2131],[152.2626,-29.7024,264.3222],[152.2688,-29.7042,260.9033],[152.2711,-29.7077,262.753],[152.2648,-29.7091,273.5497],[152.2621,-29.7117,267.1331],[152.2656,-29.7274,268.3811],[152.2642,-29.7287,306.6787],[152.2616,-29.7275,272.4368],[152.2551,-29.7334,309.1599],[152.255,-29.7353,341.4454],[152.2592,-29.7395,281.2415],[152.2581,-29.7442,283.3155],[152.2629,-29.747,288.4415],[152.2645,-29.751,304.0501],[152.259,-29.7582,292.8012],[152.2552,-29.7567,299.7136],[152.2538,-29.7521,297.4991],[152.2487,-29.7572,305.5446],[152.2418,-29.7548,305.4454],[152.2343,-29.7569,306.8189],[152.2298,-29.7547,317.5495],[152.2261,-29.7612,319.7298],[152.2168,-29.7605,324.0308],[152.2132,-29.7626,319.2445],[152.2101,-29.7687,333.8845],[152.2051,-29.7718,333.2693],[152.2068,-29.777,347.4457],[152.2016,-29.781,405.044],[152.203,-29.7868,375.5209],[152.1977,-29.7889,368.0991],[152.1927,-29.7875,375.6869],[152.1908,-29.7887,386.0382],[152.1929,-29.7917,374.3249],[152.1905,-29.7932,376.4448],[152.1902,-29.7965,377.8104],[152.1939,-29.8004,474.86],[152.1876,-29.7997,392.271],[152.1865,-29.8026,397.5276],[152.1929,-29.8068,389.6567],[152.186,-29.8047,396.974],[152.1799,-29.8067,402.1959],[152.1796,-29.8098,416.642],[152.1769,-29.8113,399.916],[152.178,-29.8131,424.8973],[152.1764,-29.8173,435.1843],[152.1705,-29.8219,413.7281],[152.1713,-29.8237,413.7665],[152.1757,-29.8221,469.9072],[152.1747,-29.8271,495.5981],[152.1777,-29.8265,447.1294],[152.1774,-29.83,487.1793],[152.1744,-29.8318,457.6293],[152.1759,-29.8357,490.0076],[152.1722,-29.837,440.9488],[152.1702,-29.8406,443.3493],[152.1758,-29.8428,532.8916],[152.1753,-29.8456,501.0664],[152.1777,-29.8478,518.2578],[152.1753,-29.8501,485.1553],[152.1732,-29.8477,476.7622],[152.1712,-29.8524,477.0458],[152.1685,-29.854,462.8796],[152.1702,-29.8628,526.1157],[152.1685,-29.865,543.387],[152.1685,-29.8698,596.5649],[152.1922,-29.8765,559.1732],[152.198,-29.8754,552.8206],[152.1969,-29.8721,536.9956],[152.2001,-29.8684,521.8193],[152.2049,-29.8681,528.9801],[152.2079,-29.8661,551.064],[152.2139,-29.8697,455.4218],[152.214,-29.8714,469.9891],[152.2205,-29.8708,464.5506],[152.2222,-29.872,432.0931],[152.2242,-29.8692,451.998],[152.228,-29.8682,418.3708],[152.2278,-29.8659,436.7067],[152.2342,-29.8639,396.3845],[152.2366,-29.8653,397.7792],[152.2437,-29.8629,403.6017],[152.2511,-29.8651,339.9737],[152.2541,-29.8614,342.1003],[152.2574,-29.8603,324.2562],[152.2625,-29.8525,330.2682],[152.2685,-29.8473,316.7256],[152.2707,-29.849,300.2196],[152.2739,-29.8462,302.8605],[152.2758,-29.8533,274.4915],[152.2819,-29.8568,268.6599],[152.2825,-29.8586,267.5358],[152.2762,-29.8623,265.3086],[152.2774,-29.8676,268.9953],[152.2863,-29.8715,277.427],[152.2876,-29.874,269.9258],[152.2867,-29.8761,273.0567],[152.2807,-29.8778,295.5399],[152.2853,-29.8867,293.7136],[152.2811,-29.8947,304.2082],[152.281,-29.8995,301.1059],[152.2856,-29.9076,274.7027],[152.2804,-29.9114,330.3608],[152.2697,-29.911,316.4216],[152.2686,-29.9134,284.0961],[152.2696,-29.9161,298.7506],[152.2764,-29.9155,297.2529],[152.2788,-29.9182,304.9569],[152.276,-29.9206,287.7374],[152.2692,-29.9221,303.9721],[152.2666,-29.9253,287.9972],[152.2674,-29.9284,321.1861],[152.2708,-29.929,292.1666],[152.279,-29.921,311.3271],[152.2821,-29.9218,299.0606],[152.2839,-29.925,295.0085],[152.2797,-29.9297,312.732],[152.2692,-29.932,332.8983],[152.2693,-29.9355,308.8891],[152.2735,-29.9451,314.4107],[152.2721,-29.9511,341.04],[152.2731,-29.9559,315.4105],[152.2755,-29.9612,310.7091],[152.2817,-29.9656,335.5111],[152.2872,-29.9637,312.3505],[152.2878,-29.9658,318.035],[152.2852,-29.9692,313.3234],[152.292,-29.9771,324.3084],[152.3086,-29.9807,329.2948],[152.3078,-29.9825,325.4329],[152.3022,-29.9834,323.0766],[152.3002,-29.9856,326.2274],[152.3032,-29.9879,336.2293],[152.3082,-29.9871,332.0107],[152.3078,-29.9936,337.9841],[152.3169,-30.001,329.3022],[152.3172,-30.0059,341.5886],[152.3127,-30.015,350.4967],[152.3157,-30.0186,332.2738],[152.3131,-30.0285,383.3976],[152.3155,-30.0346,358.6479],[152.3091,-30.0343,355.4624],[152.3046,-30.0395,365.2667],[152.2972,-30.0389,347.2075],[152.2949,-30.0405,348.2126],[152.2952,-30.0446,383.4332],[152.2996,-30.0463,380.9526],[152.2972,-30.0494,349.2405],[152.2931,-30.0499,351.7732],[152.2924,-30.0523,361.6133],[152.2981,-30.0535,352.1875],[152.3001,-30.0574,379.9035],[152.2934,-30.0601,360.3694],[152.2915,-30.0634,360.1907],[152.2925,-30.0654,374.0921],[152.2986,-30.0681,378.9313],[152.3003,-30.0718,384.5839],[152.2941,-30.0703,361.043],[152.292,-30.0713,365.981],[152.2961,-30.075,361.9525],[152.2919,-30.0774,365.5272],[152.295,-30.0847,422.1481],[152.2794,-30.0878,427.4803],[152.2795,-30.0898,387.7793],[152.2848,-30.0943,452.3618],[152.2793,-30.0991,389.0027],[152.2806,-30.1013,400.6554],[152.2849,-30.1029,415.9965],[152.287,-30.1094,382.9671],[152.2924,-30.1119,386.7747],[152.2921,-30.1169,401.5623],[152.2952,-30.1139,397.7379],[152.298,-30.116,391.1603],[152.2971,-30.1214,418.3618],[152.3004,-30.1232,393.5001],[152.2997,-30.1277,395.4052],[152.3023,-30.1314,403.8024],[152.301,-30.1334,434.8859],[152.2965,-30.1328,468.6887],[152.2969,-30.138,424.2588],[152.299,-30.1398,430.5756],[152.3036,-30.1386,413.8918],[152.3052,-30.1405,421.7867],[152.2978,-30.1445,493.963],[152.2977,-30.1473,427.6822],[152.301,-30.1479,433.0136],[152.3007,-30.1452,425.4724],[152.302,-30.1447,419.0789],[152.3096,-30.1481,455.9765],[152.3048,-30.1576,499.3562],[152.3047,-30.1611,468.7256],[152.3072,-30.1621,437.2378],[152.3076,-30.1587,429.3055],[152.309,-30.158,429.3055],[152.3131,-30.1585,445.7177],[152.3165,-30.1617,432.2119],[152.3152,-30.1631,476.1064],[152.312,-30.161,468.8201],[152.3092,-30.1612,445.7315],[152.3064,-30.1675,502.5554],[152.3095,-30.1681,439.3695],[152.3111,-30.1737,510.6071],[152.3033,-30.1788,444.9462],[152.3098,-30.1812,456.0337],[152.3132,-30.1778,498.9018],[152.3169,-30.1822,461.3354],[152.3123,-30.1844,478.3807],[152.3145,-30.1874,458.1155],[152.311,-30.19,496.6584],[152.3132,-30.1924,484.7967],[152.3095,-30.1958,477.006],[152.3116,-30.1979,509.6528],[152.3104,-30.2007,485.9342],[152.3158,-30.2019,489.5117],[152.3139,-30.2044,510.7183],[152.3157,-30.2091,511.9338],[152.3191,-30.2069,511.2256],[152.319,-30.2104,532.0176],[152.3246,-30.2102,523.5765],[152.3232,-30.213,590.3051],[152.3259,-30.2173,533.2191],[152.3297,-30.2166,553.4],[152.3317,-30.2208,543.6961],[152.3343,-30.219,557.7856],[152.3356,-30.2207,553.7236],[152.3362,-30.2186,542.4817],[152.3379,-30.2186,562.0457],[152.3391,-30.2255,563.7133],[152.3449,-30.2272,606.6361],[152.3439,-30.2295,585.2358],[152.3504,-30.2353,591.6038],[152.3483,-30.2368,605.1377],[152.3464,-30.2422,648.5983],[152.3446,-30.2418,609.7095],[152.3443,-30.2451,668.4147],[152.3424,-30.245,623.7241],[152.3433,-30.2471,648.3486],[152.3401,-30.2474,642.2428],[152.3406,-30.251,636.6877],[152.3374,-30.2526,671.3484],[152.3399,-30.2567,691.4432],[152.3387,-30.2562,653.4828],[152.3374,-30.2581,666.5507],[152.3378,-30.2626,686.2152],[152.3405,-30.2638,669.2088],[152.3392,-30.2654,685.3457],[152.3423,-30.2692,759.3796],[152.3423,-30.2712,736.592],[152.3405,-30.2723,697.5088],[152.3422,-30.276,730.42],[152.339,-30.2788,733.0531],[152.3394,-30.2824,731.572],[152.341,-30.283,736.1157],[152.3441,-30.2903,736.4964],[152.3494,-30.2916,790.1911],[152.3472,-30.2936,912.7684],[152.3472,-30.2999,1038.6537],[152.3445,-30.3016,1045.7439],[152.3419,-30.311,1135.8574],[152.3423,-30.3136,1124.5507],[152.3446,-30.3151,1160.9568],[152.3429,-30.3242,1171.4492],[152.347,-30.3259,1110.1348],[152.3452,-30.3321,1152.618],[152.3512,-30.3337,1151.2413],[152.3495,-30.3395,1181.8521],[152.3548,-30.3404,1020.3893],[152.3518,-30.3554,1281.6997],[152.3551,-30.3559,1231.2832],[152.3608,-30.3535,1282.9668],[152.3656,-30.3541,1276.9357],[152.3646,-30.361,1289.6926],[152.3819,-30.3626,1302.8853],[152.386,-30.3709,1340.0383],[152.3899,-30.3747,1417.9407],[152.3875,-30.3832,1414.9576],[152.3904,-30.3863,1418.5958],[152.3944,-30.387,1419.0474],[152.3968,-30.3926,1337.8644],[152.4092,-30.4002,1355.1147],[152.4253,-30.4177,1487.3771]]],
[[[153.3606,-29.3551,0.0],[153.361,-29.3551,0.0],[153.3613,-29.3547,0.0],[153.3608,-29.3545,0.0],[153.3606,-29.3551,0.0]]],
[[[153.3937,-29.933,0.0],[153.3948,-29.9327,0.0],[153.3928,-29.9274,0.0],[153.3923,-29.9295,3.2057],[153.3937,-29.933,0.0]]],
[[[153.3902,-29.9237,3.4856],[153.3888,-29.9231,10.1396],[153.3882,-29.9248,10.4767],[153.3923,-29.9281,3.2057],[153.3924,-29.9241,0.0],[153.3902,-29.9237,3.4856]]],
[[[153.375,-29.3613,0.0],[153.3743,-29.361,0.0],[153.3742,-29.362,0.0],[153.3744,-29.362,0.0],[153.375,-29.3613,0.0]]],
[[[153.3688,-29.3613,0.0],[153.3692,-29.3616,0.0],[153.3694,-29.361,0.0],[153.3687,-29.361,0.0],[153.3688,-29.3613,0.0]]],
[[[153.3662,-29.3601,0.0],[153.3664,-29.3596,0.0],[153.3655,-29.3598,0.0],[153.3656,-29.3603,0.0],[153.3662,-29.3601,0.0]]],
[[[153.3615,-29.3558,0.0],[153.3614,-29.3561,0.0],[153.3617,-29.3563,0.0],[153.362,-29.3559,0.0],[153.3615,-29.3558,0.0]]]]}}