{"type":"Feature","properties":{"GID_2":"AUS.9.4_1","GID_0":"AUS","country":"Australia","GID_1":"AUS.9_1","state":"Tasmania","NL_NAME_1":"NA","county":"CentralCoast","VARNAME_2":"NA","NL_NAME_2":"NA","TYPE_2":"Municipality","ENGTYPE_2":"Municipality","CC_2":"60810","HASC_2":"AU.TS.CC","name":"CentralCoast.county"},
"geometry":{"type": "MultiPolygon","coordinates": [[[[146.2524,-41.2482,19.0927],[146.2525,-41.2484,19.0927],[146.2524,-41.2481,19.0927],[146.2524,-41.2482,19.0927]]],
[[[146.2465,-41.174,1.055],[146.2463,-41.1741,1.055],[146.2464,-41.1744,1.055],[146.2468,-41.1742,1.055],[146.2465,-41.174,1.055]]],
[[[146.2664,-41.1559,8.8743],[146.2655,-41.1536,0.0],[146.2556,-41.1518,1.5592],[146.2513,-41.1568,2.5338],[146.253,-41.1639,1.0832],[146.2518,-41.1676,5.8784],[146.2554,-41.176,14.2597],[146.25508881118881,-41.176684615384623,5.2849],[146.2543,-41.1756,3.7826],[146.2528,-41.1775,1.6025],[146.2543,-41.1748,3.7826],[146.2532,-41.1734,1.6277],[146.2495,-41.1824,3.3678],[146.2525,-41.1934,9.3552],[146.2571,-41.194,52.4915],[146.2591,-41.1979,114.6715],[146.2595,-41.1959,87.8416],[146.2618,-41.1957,71.7614],[146.2612,-41.1946,87.8416],[146.2683,-41.1955,111.5692],[146.2731,-41.1916,121.8014],[146.2636,-41.1905,107.7943],[146.265,-41.1835,99.763],[146.2597,-41.1828,78.5729],[146.2599,-41.1798,106.7806],[146.2624,-41.1801,114.222],[146.2619,-41.1739,113.9435],[146.2592,-41.1731,102.5825],[146.2602,-41.1684,90.7264],[146.258,-41.1678,68.4777],[146.257,-41.1648,35.6533],[146.2587,-41.161,31.4669],[146.2649,-41.1617,75.5855],[146.2664,-41.1559,8.8743]],
[[146.25508881118881,-41.176684615384623,5.2849],[146.2551,-41.1767,5.2849],[146.2529,-41.1815,2.6906],[146.25508881118881,-41.176684615384623,5.2849]]],
[[[146.2526,-41.1733,2.6169],[146.2514,-41.173,2.6169],[146.2513,-41.1752,3.1494],[146.2528,-41.1741,2.6169],[146.2526,-41.1733,2.6169]]],
[[[146.2518,-41.1724,0.5584],[146.2517,-41.1726,0.5584],[146.252,-41.1725,0.5584],[146.252,-41.1723,0.5584],[146.2518,-41.1724,0.5584]]],
[[[146.2525,-41.1718,0.5584],[146.2532,-41.1716,0.2735],[146.253,-41.1705,0.0],[146.2529,-41.1715,0.5584],[146.2525,-41.1718,0.5584]]],
[[[146.2484,-41.1682,0.1747],[146.2481,-41.1685,0.1747],[146.2482,-41.1687,0.1747],[146.2484,-41.1684,0.1747],[146.2484,-41.1682,0.1747]]],
[[[146.2477,-41.1683,0.1747],[146.2479,-41.1686,0.1747],[146.2486,-41.1675,0.2247],[146.248,-41.1679,0.2247],[146.2477,-41.1683,0.1747]]],
[[[146.1226,-41.1577,1.1287],[146.1226,-41.1576,1.1287],[146.1225,-41.1576,1.1287],[146.1226,-41.1577,1.1287]]],
[[[146.1688,-41.1498,1.4061],[146.1689,-41.1499,1.4061],[146.1688,-41.1496,1.4061],[146.1688,-41.1498,1.4061]]],
[[[146.1688,-41.1481,0.0],[146.1688,-41.1479,0.0],[146.1687,-41.1475,0.0],[146.1687,-41.1482,0.0],[146.1688,-41.1481,0.0]]],
[[[146.1691,-41.1459,0.0],[146.169,-41.1463,0.0],[146.1691,-41.1464,0.0],[146.1692,-41.1458,0.0],[146.1691,-41.1459,0.0]]],
[[[146.1249,-41.1576,6.691],[146.124,-41.1576,6.691],[146.126,-41.1587,0.4639],[146.1284,-41.1586,0.0],[146.1265,-41.1583,0.4639],[146.1249,-41.1576,6.691]]],
[[[145.8466,-41.3542,563.4897],[145.8455,-41.356,562.7073],[145.852,-41.3559,585.2881],[145.8528,-41.4659,632.8295],[145.9541,-41.4518,1323.4918],[146.0832,-41.4564,426.6711],[146.0875,-41.458,478.1972],[146.0889,-41.4567,459.7517],[146.0887,-41.4529,455.1371],[146.092,-41.4516,454.6062],[146.0908,-41.4494,460.7961],[146.0947,-41.444,433.1422],[146.0896,-41.4408,417.7893],[146.0922,-41.439,396.1134],[146.0906,-41.4355,447.2805],[146.092,-41.4322,415.3623],[146.0903,-41.4297,446.2262],[146.0872,-41.4298,436.3212],[146.0848,-41.4275,396.7439],[146.0885,-41.4235,380.0641],[146.0853,-41.4211,356.9268],[146.0936,-41.415,321.9085],[146.092,-41.413,308.5516],[146.0945,-41.4102,288.9567],[146.0928,-41.4088,289.7538],[146.0933,-41.4058,281.9064],[146.1023,-41.4023,253.2158],[146.1081,-41.39,216.7765],[146.1125,-41.3854,210.5973],[146.1174,-41.3843,228.7955],[146.1179,-41.3794,177.9859],[146.1207,-41.3775,200.9558],[146.1137,-41.3782,198.3065],[146.1144,-41.3714,179.188],[146.1196,-41.3715,220.1598],[146.1242,-41.3677,181.5029],[146.1285,-41.3688,165.0198],[146.1309,-41.3658,184.3653],[146.1352,-41.3685,156.3336],[146.1363,-41.367,165.4499],[146.1348,-41.3626,154.4426],[146.1448,-41.3626,152.7845],[146.1485,-41.358,153.2221],[146.1521,-41.3565,144.9116],[146.1546,-41.3573,142.8443],[146.1596,-41.3521,141.114],[146.1639,-41.3517,140.0142],[146.1637,-41.3487,132.1057],[146.1674,-41.3458,126.873],[146.1669,-41.3436,118.253],[146.177,-41.3413,203.9173],[146.1751,-41.338,114.7991],[146.1772,-41.3377,211.4137],[146.1766,-41.3367,117.5271],[146.1831,-41.3282,107.4685],[146.1858,-41.3198,103.4439],[146.1847,-41.3163,97.8025],[146.1933,-41.3176,93.0627],[146.2004,-41.316,95.8939],[146.1965,-41.3126,84.6403],[146.1976,-41.3107,87.5476],[146.205,-41.3118,119.5024],[146.2031,-41.3039,76.7804],[146.1993,-41.3028,125.9053],[146.1959,-41.3045,68.8387],[146.1942,-41.3021,84.4738],[146.197,-41.2956,71.8079],[146.2034,-41.2979,61.8261],[146.202,-41.2946,67.3737],[146.2033,-41.2909,76.0193],[146.1983,-41.2922,65.4861],[146.1964,-41.2908,64.24],[146.2033,-41.2872,75.2278],[146.208,-41.2878,124.7492],[146.2071,-41.2838,59.0149],[146.2101,-41.2824,73.4295],[146.2111,-41.2793,80.2317],[146.2147,-41.2787,76.7203],[146.2165,-41.276,53.2082],[146.2262,-41.2716,36.9139],[146.2308,-41.2737,65.4392],[146.2325,-41.2777,45.1941],[146.2481,-41.2779,39.2487],[146.2502,-41.2729,28.8708],[146.2565,-41.2679,27.6699],[146.2578,-41.2624,25.5259],[146.2536,-41.2619,24.3148],[146.2513,-41.2577,18.9572],[146.2536,-41.2539,25.6932],[146.2518,-41.2523,25.7592],[146.2513,-41.2379,94.7211],[146.244,-41.2332,17.1336],[146.2531,-41.2277,56.1002],[146.2497,-41.2245,11.3805],[146.2524,-41.2159,37.6365],[146.2468,-41.2126,13.8977],[146.2414,-41.2049,7.2482],[146.243,-41.2009,7.6601],[146.2488,-41.198,25.0387],[146.2525,-41.1939,9.3552],[146.2488,-41.1822,1.3835],[146.2509,-41.1712,0.0],[146.2504,-41.1725,1.6617],[146.2493,-41.1717,1.6617],[146.2497,-41.1758,2.0489],[146.2469,-41.176,0.9288],[146.2461,-41.1784,1.7956],[146.2436,-41.1772,1.9724],[146.2481,-41.1702,0.0],[146.2452,-41.1679,2.341],[146.2471,-41.1687,0.1747],[146.2486,-41.1669,0.2247],[146.2457,-41.1658,2.1156],[146.2488,-41.1663,0.2247],[146.2508,-41.1638,1.8129],[146.2487,-41.1625,3.6065],[146.2505,-41.1624,2.3508],[146.2504,-41.1588,1.1187],[146.2477,-41.1569,1.3825],[146.2273,-41.16,4.1859],[146.2167,-41.1542,0.3683],[146.2058,-41.155,2.8702],[146.2028,-41.1515,2.1208],[146.2005,-41.1523,3.9946],[146.2005,-41.1509,0.8096],[146.1858,-41.153,4.3141],[146.1689,-41.1501,1.4061],[146.1701,-41.1545,6.0365],[146.1688,-41.1572,12.8439],[146.1583,-41.1591,0.0],[146.1577,-41.1613,10.7296],[146.155,-41.1627,2.1749],[146.1560875,-41.16330416666667,8.5132],[146.1552,-41.1636,8.5132],[146.1539,-41.1629,0.0],[146.1487,-41.1661,1.7612],[146.1458,-41.1644,10.1859],[146.146,-41.1625,0.0],[146.1442,-41.164,10.1859],[146.1457,-41.1654,10.0824],[146.1433,-41.1668,2.7775],[146.147,-41.1684,5.1478],[146.149,-41.1755,26.2768],[146.1523,-41.1769,5.205],[146.1541,-41.1755,11.0205],[146.1556,-41.1761,19.0941],[146.1553,-41.177,3.3592],[146.1542,-41.1756,11.0205],[146.1537,-41.1763,5.205],[146.1524,-41.177,5.205],[146.1519,-41.1769,41.9021],[146.1488,-41.1756,26.2768],[146.1458,-41.1694,0.4419],[146.1422,-41.1685,1.3499],[146.142,-41.1664,2.7775],[146.1439,-41.1651,4.4307],[146.1423,-41.1644,1.3112],[146.1447,-41.1615,0.0],[146.1355,-41.1632,17.4957],[146.1319,-41.159,2.3668],[146.1296,-41.159,0.0],[146.1254,-41.1649,52.6197],[146.1252,-41.1617,30.5015],[146.1232,-41.1607,11.4846],[146.1217,-41.1624,13.7045],[146.1223,-41.1592,7.6784],[146.1239,-41.1592,0.2933],[146.1208,-41.1557,8.5648],[146.1259,-41.1579,8.9353],[146.1317,-41.1573,0.0],[146.128,-41.1564,0.8134],[146.129,-41.1523,8.9651],[146.1294,-41.1549,0.0],[146.132,-41.1532,11.7328],[146.1308,-41.1553,0.0],[146.1363,-41.1563,11.5932],[146.1349,-41.1578,4.0882],[146.1361,-41.1585,2.4435],[146.1446,-41.1576,12.4688],[146.1476,-41.1611,3.4512],[146.1501,-41.1605,6.3677],[146.1523,-41.1623,0.0],[146.1552,-41.1576,1.1292],[146.1533,-41.1559,3.1385],[146.1543,-41.1544,10.2234],[146.1606,-41.1536,3.8041],[146.1632,-41.1567,0.7178],[146.1678,-41.1561,2.6293],[146.1654,-41.148,3.2033],[146.1673,-41.1468,0.0],[146.163,-41.1446,2.652],[146.1611,-41.1412,0.0],[146.1482,-41.1411,0.0],[146.1428,-41.1399,2.3267],[146.1378,-41.1368,3.6557],[146.1295,-41.1357,8.3557],[146.1253,-41.1323,38.4333],[146.1278,-41.1252,0.0],[146.1198,-41.1217,16.2796],[146.1197,-41.118899999999996,0.0],[146.1155,-41.1209,1.4829],[146.1044,-41.1211,0.0],[146.1021,-41.1203,5.7699],[146.1012,-41.1179,0.0],[146.0773,-41.1156,4.0429],[146.0718,-41.1125,5.8424],[146.0691,-41.1092,5.7939],[146.0701,-41.108,0.8668],[146.0641,-41.1047,7.1662],[146.0643,-41.1027,0.0],[146.0553,-41.1012,0.0],[146.0511,-41.1026,0.0],[146.0466,-41.1019,2.4066],[146.0427,-41.0972,3.0149],[146.0327,-41.0965,7.6779],[146.0286,-41.0943,3.2185],[146.0289,-41.0924,0.0],[146.0211,-41.0922,1.9543],[146.0182,-41.09,5.1797],[146.0125,-41.0888,0.0],[146.0045,-41.0817,4.5685],[146.0035,-41.0789,1.081],[145.9857,-41.0741,0.0],[145.9871,-41.0772,8.5644],[145.9818,-41.0792,7.7354],[145.9785,-41.0786,8.3689],[145.9735,-41.0823,12.2574],[145.9751,-41.0893,16.0033],[145.9718,-41.0892,28.2668],[145.9704,-41.0926,29.4369],[145.972,-41.0953,46.6509],[145.9691,-41.096,29.5547],[145.9694,-41.0982,89.3409],[145.9638,-41.1021,37.3792],[145.967,-41.1044,24.3632],[145.9639,-41.1051,32.1066],[145.9642,-41.1076,23.183],[145.9614,-41.1071,28.1564],[145.9628,-41.1094,33.8857],[145.9619,-41.1121,46.3741],[145.9567,-41.1135,78.8949],[145.9582,-41.1165,38.5323],[145.9527,-41.118,49.2723],[145.9531,-41.1207,45.5824],[145.9517,-41.1222,30.4899],[145.9539,-41.1231,51.7714],[145.9497,-41.1262,87.0992],[145.9515,-41.1269,66.2594],[145.9517,-41.1295,52.0094],[145.9489,-41.1279,59.767],[145.9451,-41.1311,51.1032],[145.9467,-41.1328,78.5102],[145.9437,-41.1336,50.0774],[145.9468,-41.1342,71.6425],[145.9461,-41.1368,73.9721],[145.9496,-41.1362,75.4935],[145.95,-41.138,61.5991],[145.9466,-41.1396,63.6857],[145.9589,-41.1499,97.7762],[145.9571,-41.1564,97.4082],[145.9546,-41.158,83.2737],[145.9584,-41.1596,87.3681],[145.9559,-41.1627,87.3501],[145.9627,-41.1641,81.7975],[145.9556,-41.1661,101.7572],[145.9566,-41.1718,77.8073],[145.9519,-41.1725,85.1516],[145.9516,-41.1769,76.8045],[145.9396,-41.1862,135.0787],[145.9386,-41.1902,141.5097],[145.9323,-41.1913,185.1477],[145.9306,-41.193,151.746],[145.9328,-41.1961,226.7984],[145.9302,-41.1976,186.9601],[145.9276,-41.2057,193.3166],[145.9312,-41.2094,199.7014],[145.9318,-41.2142,246.4036],[145.9285,-41.2147,248.0824],[145.9281,-41.2195,246.5229],[145.9301,-41.2208,275.2133],[145.9291,-41.2227,266.2747],[145.9328,-41.2245,312.9259],[145.9293,-41.2287,282.2041],[145.9296,-41.2326,278.7409],[145.9331,-41.2411,293.5941],[145.9355,-41.243,295.1264],[145.9333,-41.2452,302.5153],[145.9366,-41.2474,297.7896],[145.9324,-41.2495,297.8252],[145.9316,-41.2527,312.9749],[145.9195,-41.2509,344.9164],[145.9193,-41.2533,330.8539],[145.9163,-41.2557,333.6569],[145.9079,-41.2551,357.6209],[145.9068,-41.2568,352.0952],[145.9085,-41.2587,357.4113],[145.9064,-41.2617,389.8685],[145.9038,-41.2615,381.2439],[145.9049,-41.2647,398.1554],[145.9031,-41.2639,385.8163],[145.8965,-41.2709,393.0045],[145.8974,-41.2764,401.7433],[145.8924,-41.2757,392.1681],[145.8925,-41.2794,384.42],[145.887,-41.2773,394.9414],[145.8859,-41.2791,395.3572],[145.8838,-41.2788,394.7341],[145.882,-41.2829,396.1979],[145.8765,-41.2847,402.729],[145.8773,-41.2918,396.5938],[145.8753,-41.2928,404.4534],[145.8743,-41.2962,424.9229],[145.8702,-41.3,412.6647],[145.8709,-41.3011,420.691],[145.8679,-41.3033,415.8588],[145.8681,-41.306399999999996,419.2347],[145.8613,-41.3069,450.0395],[145.8599,-41.3087,447.6929],[145.8536,-41.3097,467.5231],[145.8524,-41.3127,458.2699],[145.8492,-41.3127,479.0639],[145.8515,-41.323,509.1377],[145.8453,-41.3299,523.5304],[145.8455,-41.3317,524.3004],[145.8487,-41.3369,536.6313],[145.852,-41.3392,546.0194],[145.8544,-41.3388,548.9147],[145.8558,-41.3409,544.767],[145.8483,-41.346,554.5675],[145.8461,-41.3496,558.5587],[145.8466,-41.3542,563.4897]],
[[146.1560875,-41.16330416666667,8.5132],[146.1561,-41.1633,8.5132],[146.15610322580648,-41.163312903225808,8.5132],[146.1560875,-41.16330416666667,8.5132]],
[[146.15610322580648,-41.163312903225808,8.5132],[146.1577,-41.1642,12.3259],[146.1563,-41.1641,8.5132],[146.15610322580648,-41.163312903225808,8.5132]]],
[[[146.1693,-41.1455,0.0],[146.1694,-41.1454,0.0],[146.1693,-41.1453,0.0],[146.1692,-41.1456,0.0],[146.1693,-41.1455,0.0]]],
[[[146.1652,-41.1385,0.0],[146.1652,-41.1384,0.0],[146.165,-41.1385,0.0],[146.1651,-41.1386,0.0],[146.1652,-41.1385,0.0]]],
[[[146.1629,-41.1385,0.0],[146.163,-41.1385,0.0],[146.1629,-41.1384,0.0],[146.1629,-41.1385,0.0]]],
[[[146.163,-41.1381,0.0],[146.1633,-41.1385,0.0],[146.1634,-41.1379,0.0],[146.1633,-41.1378,0.0],[146.163,-41.1381,0.0]]],
[[[146.1389,-41.1352,2.0662],[146.1386,-41.1348,2.0662],[146.1377,-41.1353,0.0],[146.1386,-41.1361,2.0662],[146.1389,-41.1352,2.0662]]],
[[[146.1272,-41.1281,0.3626],[146.127,-41.1284,0.3626],[146.1273,-41.1282,0.3626],[146.1272,-41.1278,2.7158],[146.1272,-41.1281,0.3626]]],
[[[146.1282,-41.1245,0.5908],[146.1284,-41.1249,0.0],[146.129,-41.1245,0.5908],[146.1285,-41.1241,0.5908],[146.1282,-41.1245,0.5908]]],
[[[146.1261,-41.1244,0.0],[146.1261,-41.1243,0.0],[146.126,-41.1244,0.0],[146.1261,-41.1244,0.0]]],
[[[146.1216,-41.1216,0.0],[146.1215,-41.1217,0.0],[146.1217,-41.1218,0.0],[146.1217,-41.1216,0.0],[146.1216,-41.1216,0.0]]],
[[[146.1274,-41.1215,0.0],[146.1274,-41.122,0.0],[146.1278,-41.1219,0.0],[146.1277,-41.1212,0.0],[146.1274,-41.1215,0.0]]],
[[[146.1148,-41.1205,3.196],[146.1148,-41.1207,3.196],[146.115,-41.1207,3.196],[146.1149,-41.1205,3.196],[146.1148,-41.1205,3.196]]],
[[[146.1274,-41.1203,0.0],[146.1278,-41.1203,0.0],[146.1283,-41.1197,0.0],[146.1276,-41.1197,0.0],[146.1274,-41.1203,0.0]]],
[[[146.1199,-41.1199,0.0],[146.1201,-41.1201,0.0],[146.1203,-41.12,0.0],[146.1203,-41.1197,0.0],[146.1199,-41.1199,0.0]]],
[[[146.1214,-41.1207,0.0],[146.1212,-41.1203,0.0],[146.1206,-41.1206,0.0],[146.1209,-41.1209,0.0],[146.1214,-41.1207,0.0]]]]}}