{"type": "Feature","bbox": [140.9631,-37.4499,141.8377,-35.7485],"geometry": {"type": "MultiPolygon","coordinates": [[[[140.9715,-37.1785,114.8183],[140.9733,-37.3583,80.2007],[140.9922,-37.3742,82.6977],[141.0036,-37.3776,80.5272],[141.0238,-37.3914,81.5391],[141.0464,-37.4019,83.422],[141.0953,-37.4456,84.5617],[141.0973,-37.4499,81.0947],[141.1682,-37.4199,126.566],[141.2638,-37.4301,61.8559],[141.2639,-37.4282,65.166],[141.2587,-37.4266,60.2035],[141.2597,-37.421,61.0047],[141.2639,-37.4231,61.5894],[141.2665,-37.4227,61.8786],[141.2662,-37.4208,61.6846],[141.2673,-37.4227,64.3374],[141.2686,-37.422,64.3374],[141.2694,-37.4171,63.6019],[141.2716,-37.4167,63.0165],[141.2704,-37.4141,68.6201],[141.2747,-37.4122,63.9119],[141.271,-37.4104,70.742],[141.2739,-37.4069,65.6638],[141.2715,-37.403,71.8249],[141.2762,-37.3972,69.2029],[141.2805,-37.3945,78.8237],[141.2791,-37.3931,67.5634],[141.2722,-37.3923,74.6405],[141.2742,-37.3853,74.6219],[141.2661,-37.3825,65.5575],[141.2616,-37.3769,67.1267],[141.254,-37.3761,66.2523],[141.2507,-37.3741,68.1814],[141.2485,-37.3692,67.6354],[141.2437,-37.3697,67.601],[141.2421,-37.3668,73.0667],[141.2379,-37.3658,67.3636],[141.2327,-37.3674,68.2202],[141.2209,-37.3646,80.8054],[141.2204,-37.3604,69.25],[141.2184,-37.3589,68.9767],[141.2199,-37.3568,76.5209],[141.2172,-37.3554,68.1882],[141.2188,-37.3531,69.6946],[141.2168,-37.3525,67.797],[141.2181,-37.3509,67.5973],[141.2197,-37.3513,69.53],[141.221,-37.3487,67.7075],[141.4315,-37.3723,225.216],[141.4315,-37.2975,181.1398],[141.5314,-37.2977,159.9899],[141.5289,-37.2926,155.185],[141.5299,-37.2912,157.339],[141.5248,-37.29,153.1377],[141.5262,-37.2844,157.2957],[141.5186,-37.281,147.7438],[141.5191,-37.2789,155.4652],[141.5227,-37.2787,157.1581],[141.5237,-37.2755,148.9316],[141.517,-37.269,140.8879],[141.5168,-37.2664,139.2591],[141.5134,-37.2651,140.1907],[141.5109,-37.2607,142.3094],[141.5062,-37.2603,140.8592],[141.5046,-37.2566,142.3051],[141.4988,-37.2568,142.4148],[141.4924,-37.2517,138.3352],[141.4926,-37.2494,136.7624],[141.4895,-37.2465,136.0613],[141.4912,-37.2437,121.4707],[141.4902,-37.2426,127.4658],[141.4971,-37.2383,115.3974],[141.4948,-37.2343,114.1559],[141.4927,-37.2376,108.2392],[141.4898,-37.2355,103.345],[141.4912,-37.2302,111.4196],[141.4965,-37.2264,95.5059],[141.495,-37.2236,94.7408],[141.491,-37.2234,93.5702],[141.4917,-37.2202,95.1796],[141.4949,-37.218,96.8562],[141.5004,-37.2176,99.6637],[141.5082,-37.2117,103.5168],[141.5081,-37.2097,96.4757],[141.5161,-37.2111,97.3049],[141.5291,-37.2042,115.1537],[141.5326,-37.2047,110.5858],[141.5396,-37.201,101.7675],[141.5444,-37.2018,100.3654],[141.5574,-37.1944,107.4356],[141.5634,-37.1918,108.1137],[141.5662,-37.1921,96.4252],[141.5676,-37.1892,102.1749],[141.5687,-37.1904,98.7519],[141.5762,-37.1881,98.6082],[141.5799,-37.1853,99.9923],[141.5793,-37.1825,103.0164],[141.5844,-37.1787,110.0597],[141.5862,-37.1733,103.315],[141.5941,-37.1694,102.2483],[141.5931,-37.1672,101.7988],[141.5956,-37.1663,105.8606],[141.5949,-37.1627,102.3895],[141.5972,-37.1612,102.8892],[141.6084,-37.1635,107.6144],[141.615,-37.1694,104.6721],[141.6165,-37.164,151.489],[141.619,-37.1637,107.2507],[141.6224,-37.1668,106.6017],[141.6315,-37.1553,109.7036],[141.6331,-37.1565,113.7167],[141.6338,-37.1642,110.19],[141.6392,-37.1657,113.613],[141.641,-37.1636,115.9765],[141.6401,-37.1592,115.2604],[141.644,-37.1605,117.6144],[141.6504,-37.158,120.0006],[141.6679,-37.1553,121.7473],[141.6724,-37.1523,116.1074],[141.6726,-37.154,130.136],[141.6684,-37.1575,136.5547],[141.6716,-37.1611,123.6957],[141.6801,-37.1617,122.7854],[141.684,-37.1668,123.0259],[141.687,-37.1642,127.3458],[141.6895,-37.168,141.2903],[141.6909,-37.1651,130.9188],[141.6926,-37.1649,121.3111],[141.6983,-37.1741,126.8726],[141.7029,-37.1749,120.889],[141.7005,-37.1779,130.8444],[141.7025,-37.1811,123.5499],[141.706,-37.1806,144.0443],[141.7056,-37.1845,129.8693],[141.7149,-37.1833,127.3355],[141.7175,-37.186,129.2002],[141.7191,-37.1835,127.1603],[141.7246,-37.1879,137.8735],[141.7272,-37.1864,131.4383],[141.7272,-37.1829,136.3302],[141.7315,-37.1818,132.8264],[141.7309,-37.1804,133.6337],[141.7276,-37.1809,134.5268],[141.7289,-37.1787,135.8589],[141.7312,-37.1781,137.2837],[141.739,-37.1812,138.1712],[141.7433,-37.1812,134.7932],[141.7436,-37.1787,138.7117],[141.7403,-37.1763,167.984],[141.7419,-37.1746,145.4128],[141.7472,-37.1737,139.6361],[141.7469,-37.1779,140.9126],[141.7509,-37.179,150.4274],[141.7527,-37.1732,148.8912],[141.7611,-37.1756,142.9711],[141.763,-37.1747,142.9711],[141.7679,-37.1795,146.0817],[141.7736,-37.1804,143.4113],[141.7759,-37.1799,162.7308],[141.7749,-37.1774,144.3708],[141.7722,-37.1766,149.8737],[141.7728,-37.1729,176.6837],[141.7746,-37.1725,157.3171],[141.7763,-37.1768,143.5179],[141.78,-37.1742,145.7166],[141.777,-37.1737,153.508],[141.7755,-37.1715,142.3081],[141.7764,-37.1692,154.4588],[141.7745,-37.1682,169.4552],[141.7731,-37.162,191.2326],[141.7709,-37.1593,169.7743],[141.7719,-37.156,181.2432],[141.7704,-37.1515,191.7348],[141.7652,-37.1488,196.9694],[141.7702,-37.1152,195.0796],[141.7734,-37.1073,183.1023],[141.7721,-37.1027,169.9545],[141.781,-37.0453,168.0427],[141.7783,-37.0451,167.9178],[141.7808,-37.028,164.7163],[141.7706,-37.027,158.6926],[141.7718,-37.0219,161.2101],[141.7809,-37.0228,163.6375],[141.7863,-36.9886,154.741],[141.7911,-36.989,153.721],[141.7923,-36.9802,153.8942],[141.7858,-36.9796,152.5115],[141.7861,-36.9776,149.8678],[141.7801,-36.9771,150.0963],[141.7739,-36.9721,148.6408],[141.7793,-36.9672,149.7973],[141.6577,-36.9557,180.0471],[141.6688,-36.8837,194.4167],[141.6834,-36.8851,195.5197],[141.6839,-36.8817,200.821],[141.7066,-36.8838,179.9534],[141.7119,-36.8507,175.8772],[141.7026,-36.8498,177.2764],[141.7048,-36.8409,177.0927],[141.7023,-36.8181,174.4563],[141.7035,-36.8095,179.7723],[141.7006,-36.8092,175.6209],[141.7021,-36.7995,168.623],[141.7178,-36.801,156.3414],[141.7255,-36.7504,173.0083],[141.7276,-36.751,169.4303],[141.7303,-36.7334,164.8095],[141.7284,-36.7334,163.443],[141.7408,-36.6522,147.9433],[141.8161,-36.6598,121.6233],[141.821,-36.6282,164.0419],[141.8262,-36.6287,155.0328],[141.8377,-36.5543,162.9901],[141.7287,-36.5445,164.2535],[141.7268,-36.5577,161.4528],[141.6784,-36.5524,160.498],[141.6502,-36.5474,161.2466],[141.6338,-36.5475,159.7391],[141.4736,-36.5311,162.7611],[141.4845,-36.4656,171.2399],[141.4779,-36.4649,180.8046],[141.4839,-36.4277,179.9042],[141.4797,-36.4273,170.9166],[141.4854,-36.3916,170.7674],[141.4843,-36.3915,179.3108],[141.4863,-36.3782,179.3144],[141.496,-36.3793,164.208],[141.4972,-36.3722,169.2525],[141.3791,-36.3597,148.5223],[141.4003,-36.2278,144.7937],[141.4115,-36.2289,145.5303],[141.412,-36.2214,144.4037],[141.4059,-36.213,145.4943],[141.4031,-36.2118,145.4255],[141.4037,-36.2063,145.4398],[141.2266,-36.1877,139.2114],[141.2442,-36.0801,142.1488],[141.2489,-36.0635,137.953],[141.2544,-35.9968,124.8695],[141.2709,-35.9987,124.0683],[141.2792,-35.9988,124.3476],[141.2848,-35.9969,124.2058],[141.3361,-35.9979,123.9801],[141.3527,-36.0083,127.5446],[141.3794,-36.0048,128.4521],[141.374,-35.9437,129.7438],[141.354,-35.913,131.7612],[141.3409,-35.9061,125.067],[141.3354,-35.9051,124.323],[141.3305,-35.7485,116.7453],[140.9631,-35.7485,123.8195],[140.9719,-37.0361,100.4696],[140.9715,-37.1785,114.8183]]]]}
,"properties": {"GID_2": "AUS.10.73_1","GID_0": "AUS","country": "Australia","GID_1": "AUS.10_1","state": "Victoria","NL_NAME_1": "NA","county": "WestWimmera","VARNAME_2": "NA","NL_NAME_2": "NA","TYPE_2": "Shire","ENGTYPE_2": "Shire","CC_2": "26890","HASC_2": "AU.VI.WW","name": "WestWimmera.county","area_km2": 9101.344,"hist_schema_id": "Elevation0-9000","hist_area_km2": {"50": 0.707,"75": 43.632,"100": 752.132,"125": 3761.327,"150": 2309.995,"175": 1896.853,"200": 327.28,"225": 9.417}}}