{"type": "Feature","bbox": [150.6351,-34.5547,151.0662,-34.13],"geometry": {"type": "MultiPolygon","coordinates": [[[[150.9388,-34.4941,1.4539],[150.9373,-34.494,1.762],[150.9366,-34.4944,1.762],[150.9383,-34.4951,1.0324],[150.9388,-34.4941,1.4539]]],
[[[150.9285,-34.4885,5.2702],[150.9272,-34.489,1.4878],[150.9272,-34.4927,4.097],[150.9295,-34.4928,7.4505],[150.9309,-34.4909,3.7862],[150.9339,-34.4936,2.1898],[150.9356,-34.4931,1.2223],[150.9325,-34.4902,0.0],[150.9306,-34.4906,3.7862],[150.9285,-34.4885,5.2702]]],
[[[150.9454,-34.4641,0.0509],[150.9444,-34.4643,0.0],[150.9453,-34.4653,0.0642],[150.9469,-34.4645,0.0],[150.9467,-34.4643,0.0509],[150.9454,-34.4641,0.0509]]],
[[[150.9238,-34.4899,0.0],[150.9232,-34.49,0.0],[150.9234,-34.4906,0.0],[150.9244,-34.4903,0.0],[150.9238,-34.4899,0.0]]],
[[[150.9308,-34.4559,0.0],[150.93,-34.4544,0.0],[150.9291,-34.4544,0.0],[150.9292,-34.457,0.6209],[150.9308,-34.4559,0.0]]],
[[[150.8989,-34.1878,320.4242],[150.907,-34.1931,363.584],[150.9107,-34.1978,374.0414],[150.9046,-34.2092,373.824],[150.9047,-34.2106,376.5759],[150.9089,-34.2112,372.2097],[150.9082,-34.215,375.0661],[150.89,-34.2126,350.181],[150.8938,-34.2215,302.3773],[150.8913,-34.2294,307.2632],[150.8981,-34.2321,314.0139],[150.8922,-34.2359,343.6017],[150.8863,-34.2428,388.4528],[150.8805,-34.2589,426.0463],[150.8763,-34.2597,445.444],[150.8528,-34.28,286.0],[150.8388,-34.2748,286.0],[150.8273,-34.2749,288.555],[150.8156,-34.2695,286.0],[150.8052,-34.2713,286.0],[150.8066,-34.2807,286.0],[150.8156,-34.295,286.0],[150.8143,-34.3005,286.0],[150.8168,-34.3064,289.0939],[150.7928,-34.3033,325.1704],[150.7917,-34.3071,329.3492],[150.7509,-34.3019,334.5309],[150.7457,-34.3374,292.7907],[150.6351,-34.5432,623.1015],[150.6363,-34.5461,630.8807],[150.6488,-34.5481,726.4025],[150.6493,-34.5456,681.6317],[150.6595,-34.5472,668.5135],[150.6664,-34.5487,603.0252],[150.6711,-34.5527,612.6507],[150.6789,-34.5535,543.1721],[150.6814,-34.5521,492.3747],[150.6785,-34.5462,588.8568],[150.6817,-34.543,462.61],[150.6852,-34.5448,338.737],[150.6835,-34.547,324.1396],[150.687,-34.5489,261.9726],[150.6894,-34.5457,270.8808],[150.6933,-34.5478,172.3741],[150.6946,-34.5461,187.8212],[150.7046,-34.5479,67.1514],[150.71,-34.5468,59.694],[150.7129,-34.5489,47.5699],[150.7196,-34.5461,60.0669],[150.7286,-34.5496,30.1739],[150.7386,-34.5493,24.3538],[150.7424,-34.5515,17.8738],[150.7422,-34.5527,17.8738],[150.7458,-34.5523,15.2251],[150.7466,-34.5537,16.0768],[150.7551,-34.5503,12.6897],[150.7569,-34.5518,10.5385],[150.763,-34.5521,7.8765],[150.7652,-34.5547,6.6971],[150.767,-34.5528,10.1237],[150.7705,-34.5536,3.6892],[150.7777,-34.5514,2.9279],[150.7815,-34.5472,2.7262],[150.7917,-34.545,2.5754],[150.7965,-34.5503,2.6337],[150.8028,-34.5529,0.4546],[150.8067,-34.5508,1.5199],[150.8068,-34.5479,0.9209],[150.8049,-34.5471,0.9209],[150.8056,-34.5501,1.5199],[150.8008,-34.5514,0.8252],[150.7969,-34.5458,0.2933],[150.8013,-34.5429,4.2541],[150.8054,-34.5428,3.8968],[150.8091,-34.5372,0.0],[150.8134,-34.5344,0.0],[150.8102,-34.5315,3.437],[150.8076,-34.5251,3.9023],[150.8126,-34.5303,0.0],[150.8089,-34.5249,3.9023],[150.8132,-34.5194,5.7806],[150.8194,-34.5182,0.0],[150.8173,-34.5138,0.0],[150.8121,-34.5101,3.6366],[150.8118,-34.5074,2.3386],[150.8161,-34.5028,1.1547],[150.8154,-34.502,1.1547],[150.8184,-34.5011,2.1484],[150.8207,-34.5008,3.3474],[150.8285,-34.5048,0.0],[150.83,-34.5045,0.0],[150.8304,-34.5014,0.1987],[150.8376,-34.5005,0.5397],[150.8361,-34.4965,0.0],[150.8363,-34.4975,0.0],[150.8338,-34.4958,0.0],[150.8312,-34.4919,5.455],[150.8327,-34.4866,2.2257],[150.8372,-34.4888,4.1795],[150.8461,-34.4845,2.1138],[150.8543,-34.4836,3.9495],[150.8586,-34.4855,7.5675],[150.8586,-34.4882,0.0],[150.8625,-34.488,1.8873],[150.8705,-34.4922,2.7532],[150.8792,-34.493,0.0],[150.8866,-34.4916,0.0],[150.8869,-34.4978,0.0],[150.8788,-34.4998,13.6649],[150.8748,-34.4994,0.0],[150.8752,-34.498,0.0],[150.8735,-34.4988,0.8555],[150.8735,-34.509,1.5842],[150.8694,-34.5247,2.733],[150.8641,-34.5268,0.3301],[150.8627,-34.5291,2.5761],[150.8655,-34.5335,0.6956],[150.8695,-34.535,1.9531],[150.8709,-34.5383,3.3097],[150.8746,-34.5383,1.5166],[150.8798,-34.5225,0.0],[150.886,-34.5125,4.222],[150.8949,-34.503,2.9036],[150.9092,-34.493,0.0],[150.9188,-34.4933,2.7157],[150.9203,-34.4948,0.0],[150.9219,-34.493899999999996,5.155],[150.9214,-34.4921,1.816],[150.9177,-34.491,11.3438],[150.9167,-34.4877,6.7345],[150.9187,-34.4866,0.0],[150.9157,-34.4856,6.5546],[150.9137,-34.481,7.9445],[150.9155,-34.4778,0.06],[150.9131,-34.4748,5.7555],[150.9137,-34.4648,0.0],[150.9128,-34.4742,0.5573],[150.9079,-34.4755,2.6232],[150.9018,-34.4714,3.067],[150.9,-34.4648,1.2281],[150.8957,-34.4639,1.9218],[150.887,-34.4573,0.0],[150.8841,-34.4577,4.9697],[150.8863,-34.4527,5.4431],[150.8881,-34.453,0.9477],[150.8881,-34.4498,5.4346],[150.8896,-34.45,5.5546],[150.8898,-34.4552,0.7098],[150.8929,-34.4561,2.7498],[150.8932,-34.4527,11.2998],[150.8949,-34.451,6.3955],[150.8962,-34.4516,0.8328],[150.8988,-34.462,1.022],[150.9098,-34.4648,0.0],[150.9089,-34.4637,0.0],[150.9075,-34.4632,0.0],[150.9022,-34.4627,1.6938],[150.9011,-34.4593,4.7584],[150.9005,-34.4511,3.6174],[150.9018,-34.4509,0.0],[150.9005,-34.4508,3.6174],[150.8999,-34.4453,0.0],[150.9026,-34.4324,2.5989],[150.9072,-34.4234,1.0363],[150.9108,-34.4214,3.8388],[150.9069,-34.419,0.0],[150.9062,-34.4208,0.3283],[150.9081,-34.4207,2.773],[150.9069,-34.4217,7.9675],[150.9043,-34.4208,0.0],[150.904,-34.4191,0.0],[150.9057,-34.4191,0.0],[150.9022,-34.4172,10.4227],[150.9033,-34.4163,10.4227],[150.9021,-34.4162,1.8857],[150.9031,-34.4111,1.2803],[150.9021,-34.4077,2.957],[150.9043,-34.4001,0.0],[150.9092,-34.3917,1.5603],[150.9136,-34.3868,4.9362],[150.9165,-34.3861,0.0],[150.9157,-34.3842,2.078],[150.92,-34.3786,5.1376],[150.9242,-34.3756,0.807],[150.9267,-34.3757,0.0],[150.9266,-34.3733,0.0],[150.9313,-34.3688,0.0],[150.9253,-34.3676,0.0],[150.9247,-34.3657,0.0],[150.9211,-34.3637,1.9384],[150.9194,-34.3586,3.9946],[150.9213,-34.3492,4.9192],[150.9243,-34.3479,0.0],[150.9227,-34.3463,0.1791],[150.9231,-34.3444,0.0],[150.9256,-34.3401,1.0212],[150.9275,-34.3396,0.0],[150.9253,-34.3376,0.0],[150.9257,-34.3335,1.0585],[150.9279,-34.3312,7.4999],[150.9303,-34.3311,0.8984],[150.9245,-34.3277,0.0],[150.9255,-34.3212,12.2517],[150.9349,-34.3095,0.0],[150.9357,-34.3064,0.0],[150.9434,-34.3013,0.0],[150.9415,-34.2999,1.1646],[150.9418,-34.2975,3.1545],[150.9446,-34.2942,9.1894],[150.9471,-34.2937,0.0],[150.9461,-34.2926,10.7495],[150.9474,-34.2905,3.4476],[150.95,-34.29,0.0],[150.9489,-34.2885,0.0],[150.9497,-34.2864,0.0],[150.9527,-34.285,0.0],[150.954,-34.2818,8.7428],[150.9567,-34.281,7.3399],[150.9562,-34.2783,10.5359],[150.9588,-34.2745,11.2754],[150.9643,-34.2704,3.354],[150.9639,-34.2686,13.0286],[150.968,-34.2672,0.0],[150.9681,-34.2625,20.4813],[150.9737,-34.2585,0.0],[150.9727,-34.2548,80.1896],[150.9774,-34.2517,0.0],[150.9758,-34.2498,0.0],[150.9787,-34.2493,0.1219],[150.9771,-34.2452,2.9173],[150.9859,-34.2369,0.0],[150.9878,-34.2327,5.7994],[150.9933,-34.228,0.0],[151.0003,-34.2263,0.0],[151.0044,-34.221,16.7847],[151.0108,-34.2189,0.0],[151.0129,-34.2131,0.0],[151.0213,-34.2041,8.2402],[151.0258,-34.2028,60.9296],[151.0331,-34.1961,86.7996],[151.0386,-34.1949,0.0],[151.0393,-34.1921,19.7885],[151.0418,-34.1912,5.0809],[151.045,-34.1864,2.4114],[151.0548,-34.1852,0.0],[151.0536,-34.1835,27.6946],[151.0542,-34.1805,3.3695],[151.0575,-34.1783,0.0],[151.0608,-34.1789,4.4391],[151.0632,-34.1768,0.0],[151.0631,-34.1744,10.0755],[151.0662,-34.1723,0.0],[151.0603,-34.1715,36.1677],[151.0608,-34.1685,110.8172],[151.0552,-34.1677,180.0677],[151.0545,-34.1715,96.3759],[151.0159,-34.1664,73.222],[151.014,-34.163,69.2759],[151.0158,-34.1594,76.573],[151.0187,-34.1559,76.508],[151.0226,-34.1558,65.8428],[151.0137,-34.1545,161.3036],[150.9911,-34.146,240.3542],[150.9798,-34.1385,258.1916],[150.9227,-34.13,179.4295],[150.9225,-34.1339,184.5533],[150.9179,-34.1379,200.9723],[150.9197,-34.1418,187.5289],[150.9187,-34.1469,175.6253],[150.9151,-34.1504,179.3004],[150.9167,-34.1526,201.3212],[150.9143,-34.1589,223.0158],[150.9068,-34.1649,213.3537],[150.9041,-34.1847,302.8063],[150.8989,-34.1878,320.4242]]]]}
,"properties": {"GID_2": "AUS.5.149_1","GID_0": "AUS","country": "Australia","GID_1": "AUS.5_1","state": "NewSouthWales","NL_NAME_1": "NA","county": "Wollongong","VARNAME_2": "NA","NL_NAME_2": "NA","TYPE_2": "City","ENGTYPE_2": "City","CC_2": "18450","HASC_2": "AU.NS.WG","name": "Wollongong.county","area_km2": 684.4169,"hist_schema_id": "Elevation0-9000","hist_area_km2": {"0": 57.396,"25": 71.6484,"50": 32.5901,"75": 18.244,"100": 15.4671,"125": 13.0387,"150": 11.7108,"175": 14.997,"200": 18.2952,"225": 19.6489,"250": 24.6118,"275": 27.7097,"300": 30.2318,"325": 38.677,"350": 59.2681,"375": 70.9839,"400": 48.5929,"425": 29.8668,"450": 18.644,"475": 15.7893,"500": 13.2332,"525": 10.6257,"550": 8.2645,"575": 6.0267,"600": 5.1878,"625": 2.445,"650": 0.6811,"675": 0.4017,"700": 0.1397}}}