{"type":"Feature","properties":{"GID_2":"AUS.5.121_1","GID_0":"AUS","country":"Australia","GID_1":"AUS.5_1","state":"NewSouthWales","NL_NAME_1":"NA","county":"Sutherland","VARNAME_2":"NA","NL_NAME_2":"NA","TYPE_2":"Shire","ENGTYPE_2":"Shire","CC_2":"17150","HASC_2":"AU.NS.SU","name":"Sutherland.county"},
"geometry":{"type": "MultiPolygon","coordinates": [[[[150.994,-33.9717,1.8983],[150.9884,-33.9768,12.0906],[150.9922,-33.98,15.2624],[150.9901,-33.989,23.1472],[150.9913,-33.9928,31.3379],[150.9875,-33.9926,31.7532],[150.9882,-33.9953,25.5466],[150.9844,-33.9987,40.2529],[150.9806,-34.0171,101.9003],[150.9684,-34.0258,112.5074],[150.9517,-34.0235,123.7357],[150.9481,-34.0411,134.2694],[150.9408,-34.04,102.0278],[150.9378,-34.0482,94.4384],[150.9357,-34.05,94.4368],[150.9371,-34.0549,88.4921],[150.9343,-34.0586,94.9649],[150.9375,-34.0646,107.86279999999999],[150.9357,-34.0685,120.4504],[150.938,-34.0708,120.8305],[150.9373,-34.0751,133.811],[150.9335,-34.0779,150.1872],[150.9342,-34.0816,156.981],[150.9323,-34.0846,164.2445],[150.9233,-34.0898,218.1255],[150.9253,-34.0933,238.2476],[150.9366,-34.0951,211.0896],[150.9335,-34.1094,163.0],[150.926,-34.1175,163.0],[150.9292,-34.1244,163.0],[150.9227,-34.1264,168.6279],[150.9223,-34.1285,188.5266],[150.9227,-34.13,179.4295],[150.9798,-34.1385,258.1916],[150.9911,-34.146,240.3542],[151.0137,-34.1545,161.3036],[151.0226,-34.1558,65.8428],[151.0187,-34.1559,76.508],[151.0158,-34.1594,76.573],[151.014,-34.163,69.2759],[151.0159,-34.1664,73.222],[151.0545,-34.1715,96.3759],[151.0552,-34.1677,180.0677],[151.0608,-34.1685,110.8172],[151.0603,-34.1715,36.1677],[151.0662,-34.1723,0.0],[151.0722,-34.1685,0.0],[151.0746,-34.1693,1.9026],[151.0811,-34.1668,0.0],[151.0951,-34.1585,0.0],[151.0984,-34.1537,9.9094],[151.1023,-34.1537,0.0],[151.1114,-34.148,0.0],[151.1127,-34.1463,1.4808],[151.1101,-34.1455,8.2235],[151.1171,-34.144,3.9041],[151.118,-34.1414,0.0],[151.1221,-34.1396,0.0],[151.1184,-34.1383,16.427],[151.1187,-34.137,7.8993],[151.1281,-34.1378,0.0],[151.1291,-34.1307,30.9738],[151.1344,-34.1265,0.0],[151.1357,-34.1233,9.6396],[151.1374,-34.1232,0.0],[151.1358,-34.1203,5.9088],[151.1412,-34.1162,5.2312],[151.1438,-34.1171,3.5989],[151.1518,-34.1151,0.0],[151.1518,-34.1097,4.9346],[151.1566,-34.1056,28.0042],[151.1599,-34.0995,28.9285],[151.1657,-34.0959,4.0216],[151.1657,-34.094,8.1573],[151.1718,-34.0865,0.0],[151.1718,-34.0822,0.0],[151.169,-34.0749,2.3414],[151.1652,-34.0779,0.0],[151.166,-34.0796,0.0],[151.1648,-34.0812,0.0],[151.1562,-34.0802,0.0],[151.1542,-34.0827,0.0],[151.15,-34.0837,3.4012],[151.1451,-34.0799,10.6823],[151.1399,-34.0825,0.0],[151.1369,-34.0817,0.9746],[151.1331,-34.0735,0.0],[151.1339,-34.0807,0.0],[151.1325,-34.0831,4.0127],[151.1346,-34.0829,0.6659],[151.1342,-34.0833,6.8581],[151.1335,-34.0834,4.0127],[151.1321,-34.0831,4.0127],[151.131,-34.0844,21.0332],[151.1297,-34.0895,0.0],[151.1257,-34.0901,9.1902],[151.1243,-34.0922,39.4296],[151.1216,-34.0925,47.4857],[151.122,-34.0923,24.3602],[151.1243,-34.092,39.4296],[151.1246,-34.0888,3.1836],[151.1283,-34.0872,0.9975],[151.1312,-34.0833,21.0332],[151.1328,-34.0823,0.6754],[151.1322,-34.076,0.0],[151.1287,-34.0774,1.8943],[151.1258,-34.081,3.061],[151.1245,-34.0759,0.0],[151.1216,-34.0766,0.0],[151.1207,-34.0786,21.5667],[151.1177,-34.0766,7.4077],[151.1164,-34.0792,16.2957],[151.1102,-34.0783,10.8969],[151.1075,-34.0831,53.2074],[151.1001,-34.0838,6.2133],[151.0993,-34.0896,55.1845],[151.0975,-34.0875,0.0],[151.0926,-34.0883,29.8387],[151.0897,-34.0868,9.4817],[151.0868,-34.0896,36.0101],[151.0835,-34.0877,20.4127],[151.0786,-34.0893,30.2783],[151.0791,-34.0886,30.2783],[151.0834,-34.0873,20.4127],[151.0871,-34.0883,3.5397],[151.0893,-34.0861,47.4101],[151.0981,-34.086,0.0],[151.0981,-34.0826,17.3711],[151.1056,-34.0795,0.0],[151.1033,-34.077,6.3136],[151.1034,-34.0749,5.6328],[151.1062,-34.0718,0.0],[151.1032,-34.0691,0.0],[151.1011,-34.0693,24.8194],[151.102,-34.0654,2.4723],[151.0981,-34.065,24.0663],[151.1004,-34.0633,1.6885],[151.0958,-34.058,17.3552],[151.0932,-34.0633,46.5319],[151.0903,-34.0646,4.0105],[151.0915,-34.0671,30.8659],[151.0884,-34.0696,41.8289],[151.0879,-34.0678,0.0],[151.0845,-34.0674,16.321],[151.078,-34.0633,19.4798],[151.063,-34.0647,24.012],[151.0595,-34.068,16.1797],[151.0618,-34.0707,6.3819],[151.0575,-34.0736,9.8324],[151.0568,-34.073,9.8324],[151.0608,-34.0706,6.3819],[151.0589,-34.0683,16.1797],[151.0613,-34.0642,47.64],[151.0822,-34.0625,1.3455],[151.0796,-34.0613,3.2964],[151.0823,-34.0605,15.1109],[151.0855,-34.0651,2.9653],[151.0889,-34.0655,4.0105],[151.0888,-34.064,0.0],[151.0857,-34.0638,10.7918],[151.0865,-34.062,30.8016],[151.0903,-34.0614,0.0],[151.0891,-34.0582,0.0],[151.0856,-34.056,0.5],[151.0834,-34.0579,3.4689],[151.0803,-34.0556,8.8978],[151.0786,-34.0564,34.7459],[151.077,-34.0539,12.1387],[151.0784,-34.0556,11.9491],[151.0802,-34.055,8.8978],[151.0836,-34.0559,12.1719],[151.0858,-34.0539,18.2214],[151.0922,-34.0577,19.5929],[151.0951,-34.052,2.1176],[151.092,-34.0491,28.4571],[151.0978,-34.049,15.2986],[151.097,-34.0471,46.1531],[151.1013,-34.0516,34.0983],[151.1008,-34.0545,0.0],[151.0987,-34.0558,3.4064],[151.1018,-34.059,5.269],[151.1036,-34.0558,20.7966],[151.1065,-34.0543,0.0],[151.1086,-34.0467,1.6272],[151.1052,-34.0421,26.1556],[151.1092,-34.0447,0.0],[151.1121,-34.0432,13.0917],[151.109,-34.0508,0.0],[151.1093,-34.0525,0.0],[151.1116,-34.0529,22.6703],[151.106,-34.0594,5.5432],[151.1068,-34.0617,2.2533],[151.1109,-34.0619,3.271],[151.1144,-34.0595,19.4675],[151.1136,-34.0632,4.767],[151.116,-34.0658,42.311],[151.1122,-34.0662,0.0],[151.1116,-34.0725,6.9277],[151.1189,-34.0708,4.5152],[151.1193,-34.0678,34.7505],[151.1219,-34.0705,3.9069],[151.1297,-34.0693,23.5264],[151.1301,-34.0667,0.0],[151.1263,-34.064,2.0788],[151.1279,-34.0614,15.8494],[151.1292,-34.0641,4.0952],[151.1321,-34.0636,0.0],[151.133,-34.0585,1.8674],[151.135,-34.0581,0.0],[151.1339,-34.0555,16.1306],[151.1383,-34.0562,13.4153],[151.1344,-34.0719,24.1036],[151.1403,-34.0738,3.9977],[151.1412,-34.0671,9.434],[151.1392,-34.0648,12.3554],[151.1435,-34.0598,0.0],[151.1423,-34.0574,5.2373],[151.1488,-34.0546,0.0],[151.1506,-34.0577,17.5678],[151.1467,-34.0621,6.2785],[151.1474,-34.0734,0.0],[151.1534,-34.0732,0.0],[151.1565,-34.0715,4.6342],[151.1584,-34.0669,9.4225],[151.1555,-34.0642,4.6213],[151.1584,-34.0584,15.2108],[151.155,-34.0556,1.5919],[151.1559,-34.0518,7.0107],[151.1655,-34.0407,5.0813],[151.1758,-34.0362,4.4227],[151.1859,-34.0346,0.0],[151.1942,-34.0366,1.0668],[151.1988,-34.0417,0.0],[151.2008,-34.0407,0.2427],[151.2011,-34.0379,7.9597],[151.2032,-34.0402,0.0],[151.2145,-34.0419,0.0],[151.2154,-34.0404,7.0388],[151.2212,-34.0389,0.0],[151.2303,-34.0264,0.0],[151.2286,-34.0246,29.1484],[151.2304,-34.0218,0.0],[151.2299,-34.0189,2.6461],[151.2319,-34.0167,3.4645],[151.2315,-34.0117,0.0],[151.2296,-34.0103,1.3863],[151.2302,-34.0078,0.0],[151.2284,-34.0043,10.6433],[151.2219,-34.0012,0.0],[151.2114,-34.0079,0.0],[151.1868,-34.0075,0.0],[151.1871,-34.0085,0.0],[151.1989,-34.0102,2.581],[151.2001,-34.0118,3.659],[151.1981,-34.0139,1.7056],[151.1998,-34.015,1.385],[151.2016,-34.0149,2.0029],[151.2001,-34.0139,3.7414],[151.2064,-34.014,5.5882],[151.2035,-34.0178,3.3221],[151.1999,-34.018,2.823],[151.1964,-34.0212,1.4894],[151.1931,-34.0208,3.1395],[151.1924,-34.0191,2.3847],[151.19,-34.0206,3.622],[151.1896,-34.0183,1.5674],[151.1858,-34.0196,0.4384],[151.1851,-34.0218,0.0],[151.1794,-34.0261,1.9581],[151.1743,-34.0235,9.2398],[151.1723,-34.0196,11.9002],[151.169,-34.0235,8.7748],[151.1624,-34.0238,1.882],[151.1605,-34.022,1.3447],[151.1595,-34.0232,1.014],[151.1555,-34.0163,1.3952],[151.1582,-34.0146,1.173],[151.1681,-34.013,2.366],[151.1703,-34.0158,1.6749],[151.1754,-34.0151,1.5466],[151.1786,-34.0128,2.7704],[151.1767,-34.0112,3.5611],[151.1724,-34.0114,3.6624],[151.1743,-34.0083,4.2922],[151.1735,-34.0071,2.1093],[151.1621,-34.0,1.2003],[151.1611,-34.0023,4.7265],[151.1556,-34.0058,0.0],[151.1655,-34.003,5.1589],[151.1575,-34.0131,5.1826],[151.1507,-34.0139,2.4863],[151.1493,-34.0162,1.7429],[151.1491,-34.0136,3.1579],[151.1418,-34.0146,0.0],[151.1457,-34.0193,1.7515],[151.1515,-34.0214,1.103],[151.1609,-34.0278,3.3179],[151.1599,-34.0322,3.7998],[151.1549,-34.0354,0.9909],[151.1528,-34.034,3.6284],[151.1546,-34.0358,2.0329],[151.1521,-34.0383,2.2275],[151.1473,-34.0388,3.0476],[151.1476,-34.0368,1.9508],[151.1471,-34.0387,3.0476],[151.1376,-34.037,2.8923],[151.1336,-34.033,3.6358],[151.132,-34.0279,0.0],[151.1316,-34.0261,5.2817],[151.1339,-34.023,1.5106],[151.1302,-34.0222,2.0749],[151.1257,-34.0176,3.6519],[151.1254,-34.0151,1.3817],[151.128,-34.0118,0.0],[151.1269,-34.0099,3.0259],[151.1218,-34.0118,4.844],[151.1202,-34.0158,2.1187],[151.1181,-34.0144,0.0],[151.1173,-34.0164,3.103],[151.1162,-34.0167,3.103],[151.1171,-34.0152,0.8431],[151.1141,-34.0165,0.0],[151.116,-34.0168,3.103],[151.1138,-34.0188,0.5997],[151.1155,-34.0217,3.7406],[151.1129,-34.0202,1.1167],[151.1104,-34.0237,2.4627],[151.111,-34.0221,1.214],[151.1096,-34.0228,1.214],[151.1096,-34.0216,1.214],[151.112,-34.0198,1.1167],[151.1097,-34.0182,2.7051],[151.1123,-34.0187,1.9023],[151.1129,-34.0176,1.4477],[151.1107,-34.0173,1.559],[151.1128,-34.0166,1.4477],[151.1108,-34.0161,1.4056],[151.1095,-34.0178,1.559],[151.11,-34.0158,1.4056],[151.1079,-34.0144,3.5645],[151.1109,-34.0155,1.4056],[151.1128,-34.0134,2.2144],[151.1122,-34.0147,0.0],[151.116,-34.0145,0.6944],[151.1141,-34.0133,2.6067],[151.1174,-34.0137,0.6944],[151.1143,-34.0098,6.5032],[151.1158,-34.0073,0.0],[151.1127,-34.0054,4.0904],[151.1155,-33.9974,0.0],[151.1109,-33.9967,10.0196],[151.1123,-33.9988,2.9224],[151.1093,-34.0005,8.4562],[151.1058,-33.9996,4.3913],[151.1025,-34.0009,0.0],[151.1048,-33.9969,0.0],[151.1042,-33.9942,14.8148],[151.1022,-33.9933,3.1366],[151.1042,-33.9914,12.777],[151.1038,-33.9894,3.4108],[151.1018,-33.9889,1.2805],[151.0992,-33.9935,0.0],[151.0964,-33.9926,0.0],[151.0962,-33.9904,1.4412],[151.0919,-33.991,6.114],[151.0903,-33.9929,8.2767],[151.086,-33.9898,0.0],[151.0902,-33.9857,2.9769],[151.0944,-33.9847,10.2909],[151.0911,-33.9844,15.3752],[151.0902,-33.9825,12.5797],[151.0875,-33.9829,13.4924],[151.0885,-33.9852,21.465699999999998],[151.0822,-33.9891,15.3596],[151.0854,-33.9926,0.0],[151.076,-33.9941,6.9887],[151.0754,-33.9921,9.0167],[151.0717,-33.9943,16.0608],[151.0696,-33.99,0.0],[151.0748,-33.984,17.6034],[151.0711,-33.9836,12.3724],[151.071,-33.9863,5.3847],[151.0676,-33.9861,23.8682],[151.0668,-33.9882,0.0],[151.0641,-33.9873,35.5482],[151.0653,-33.9828,18.8318],[151.0608,-33.9826,32.2082],[151.0575,-33.9862,37.8234],[151.0545,-33.9851,26.7127],[151.0542,-33.9836,21.565],[151.0582,-33.9809,6.8232],[151.0597,-33.9775,11.7372],[151.0643,-33.9765,15.8198],[151.0618,-33.9752,26.4874],[151.0537,-33.9828,7.9817],[151.0494,-33.9802,32.751],[151.0552,-33.9888,0.0],[151.0529,-33.991,42.8088],[151.046,-33.9898,10.5512],[151.0438,-33.9913,0.0],[151.0364,-33.9908,26.8493],[151.034,-33.9871,1.6777],[151.0372,-33.9866,14.7854],[151.0335,-33.9846,6.9721],[151.0397,-33.9835,33.3574],[151.0394,-33.9801,29.7674],[151.0373,-33.9785,0.0],[151.0465,-33.9705,15.4108],[151.0454,-33.9672,2.0576],[151.0465,-33.9661,22.4089],[151.0421,-33.9628,1.7383],[151.0423,-33.9521,1.75],[151.0446,-33.9477,8.4298],[151.0419,-33.9474,6.9945],[151.0425,-33.9505,4.628],[151.0407,-33.9523,8.0517],[151.042,-33.9577,2.7972],[151.0403,-33.9608,6.0451],[151.0446,-33.9695,14.554],[151.0384,-33.9747,0.0],[151.0245,-33.9772,0.0],[151.0251,-33.9712,9.9694],[151.0237,-33.9716,2.5057],[151.0256,-33.9683,7.1975],[151.0226,-33.9641,6.8599],[151.0236,-33.9721,2.5057],[151.0179,-33.9745,8.8184],[151.0211,-33.9746,0.0],[151.0219,-33.9765,1.7748],[151.0157,-33.982,0.0],[151.0121,-33.9836,0.0],[151.0059,-33.9825,0.0],[151.0038,-33.9794,2.245],[150.9992,-33.9829,0.0],[150.9941,-33.979,8.1175],[150.9982,-33.9751,1.5915],[150.994,-33.9717,1.8983]]]]}}