{"type": "Feature","bbox": [115.7066,-31.8473,115.8234,-31.712],"geometry": {"type": "MultiPolygon","coordinates": [[[[115.751,-31.8462,0.0],[115.7624,-31.8473,12.3025],[115.7624,-31.8458,12.0401],[115.7689,-31.845,31.9667],[115.8057,-31.8458,32.9533],[115.8234,-31.8425,35.2959],[115.8199,-31.806,45.8132],[115.8168,-31.7997,37.3902],[115.8116,-31.8015,29.0194],[115.8078,-31.7913,22.545],[115.8043,-31.7873,21.6723],[115.7965,-31.7831,27.0147],[115.7974,-31.7772,20.168],[115.7961,-31.7767,18.5377],[115.7991,-31.7704,16.9951],[115.7957,-31.7624,16.0],[115.7897,-31.7566,16.0],[115.7878,-31.7519,16.0],[115.7923,-31.743,19.7907],[115.7743,-31.723,16.0],[115.7738,-31.7172,24.7111],[115.7497,-31.7224,35.0818],[115.748,-31.712,31.315],[115.7066,-31.712,3.539],[115.7093,-31.7182,0.0],[115.7188,-31.7307,4.307],[115.7246,-31.7476,13.6546],[115.7277,-31.763,0.0],[115.7258,-31.7604,0.0],[115.7273,-31.7634,0.0],[115.7295,-31.7652,0.0],[115.732,-31.7758,2.4713],[115.7323,-31.7943,0.0],[115.7274,-31.8061,0.0],[115.7369,-31.8203,2.6609],[115.7336,-31.8234,0.0],[115.7382,-31.8215,0.6],[115.7407,-31.8241,0.0],[115.7389,-31.8237,0.0],[115.7396,-31.8248,3.9946],[115.7368,-31.8263,1.2548],[115.7351,-31.8242,0.0],[115.732,-31.8238,0.0],[115.7374,-31.8268,1.2548],[115.7421,-31.8261,6.127],[115.7436,-31.8276,6.045],[115.7487,-31.8355,5.4571],[115.751,-31.8462,0.0]]]]}
,"properties": {"GID_2": "AUS.11.59_1","GID_0": "AUS","country": "Australia","GID_1": "AUS.11_1","state": "WesternAustralia","NL_NAME_1": "NA","county": "Joondalup","VARNAME_2": "NA","NL_NAME_2": "NA","TYPE_2": "City","ENGTYPE_2": "City","CC_2": "54170","HASC_2": "AU.WA.JO","name": "Joondalup.county","area_km2": 98.9992,"hist_schema_id": "Elevation0-9000","hist_area_km2": {"0": 6.81183,"25": 59.04034,"50": 32.04714,"75": 1.09988}}}