{"type": "Feature","bbox": [151.1267,-33.8448,151.1803,-33.8152],"geometry": {"type": "MultiPolygon","coordinates": [[[[151.1369,-33.8152,9.83],[151.1358,-33.8157,12.2674],[151.1376,-33.8187,35.9445],[151.1302,-33.8281,33.4464],[151.1267,-33.8302,52.7628],[151.1283,-33.8417,0.0],[151.133,-33.8407,26.1455],[151.1338,-33.8448,0.0],[151.138,-33.8447,0.0],[151.1374,-33.8422,11.8939],[151.1417,-33.8421,4.1567],[151.1437,-33.8401,4.8717],[151.1465,-33.8412,5.8574],[151.1489,-33.8392,2.274],[151.1359,-33.8365,13.8911],[151.1431,-33.8356,14.8271],[151.1515,-33.8377,6.6121],[151.1533,-33.8365,11.4513],[151.1536,-33.8383,1.8289],[151.157,-33.8393,18.4172],[151.1586,-33.8429,0.0],[151.1615,-33.8448,0.0],[151.1622,-33.842,4.5985],[151.168,-33.8436,1.2197],[151.1743,-33.8431,0.0],[151.1736,-33.8388,5.4957],[151.1803,-33.8365,0.0],[151.1774,-33.8352,6.381],[151.1693,-33.8393,3.1918],[151.1622,-33.8376,2.5033],[151.1606,-33.836,10.057],[151.1618,-33.8341,0.0],[151.1585,-33.834,20.9041],[151.153,-33.8308,0.0],[151.149,-33.8319,1.7651],[151.1455,-33.8304,8.4058],[151.1425,-33.827,0.0],[151.1435,-33.8253,13.7369],[151.1449,-33.8264,0.375],[151.147,-33.8254,5.2931],[151.1469,-33.82,3.4244],[151.1437,-33.818,21.8482],[151.1394,-33.8185,19.7283],[151.1388,-33.816,14.3075],[151.1369,-33.8152,9.83]]]]}
,"properties": {"GID_2": "AUS.5.67_1","GID_0": "AUS","country": "Australia","GID_1": "AUS.5_1","state": "NewSouthWales","NL_NAME_1": "NA","county": "HuntersHill","VARNAME_2": "NA","NL_NAME_2": "NA","TYPE_2": "Area","ENGTYPE_2": "Area","CC_2": "14100","HASC_2": "AU.NS.HH","name": "HuntersHill.county","area_km2": 5.424447,"hist_schema_id": "Elevation0-9000","hist_area_km2": {"0": 0.757273,"25": 2.941121,"50": 1.726053}}}