{"type": "Feature","bbox": [134.8205,-33.3333,135.9629,-32.6216],"geometry": {"type": "MultiPolygon","coordinates": [[[[135.8849,-33.3312,97.881],[135.8846,-33.2554,146.1927],[135.8869,-33.2504,140.3224],[135.8866,-33.2448,150.3683],[135.8938,-33.234,130.679],[135.9008,-33.2285,121.902],[135.9109,-33.2142,136.0607],[135.9258,-33.2057,173.2502],[135.9356,-33.1912,169.7857],[135.9615,-33.1677,131.0626],[135.9629,-33.1634,130.0193],[135.9599,-33.1364,126.4269],[135.9612,-33.1337,120.418],[135.8834,-33.1293,174.0701],[135.8523,-33.1127,139.9999],[135.842,-33.1093,158.3248],[135.826,-33.1075,135.1925],[135.8253,-32.9101,192.8967],[135.4808,-32.912,142.6574],[135.4804,-32.7673,128.0309],[135.3085,-32.7675,116.2544],[135.3085,-32.6216,121.8245],[135.1366,-32.6222,120.1636],[135.1365,-32.647,119.2263],[134.975,-32.6472,114.9702],[134.975,-32.7675,115.2205],[134.8205,-32.7673,86.1951],[134.8208,-33.1406,16.0841],[135.1371,-33.1408,81.8792],[135.1374,-33.3333,58.7111],[135.8849,-33.3312,97.881]]]]}
,"properties": {"GID_2": "AUS.8.69_1","GID_0": "AUS","country": "Australia","GID_1": "AUS.8_1","state": "SouthAustralia","NL_NAME_1": "NA","county": "Wudinna","VARNAME_2": "NA","NL_NAME_2": "NA","TYPE_2": "DistrictCouncil","ENGTYPE_2": "DistrictCouncil","CC_2": "48640","HASC_2": "NA","name": "Wudinna.county","area_km2": 5395.966,"hist_schema_id": "Elevation0-9000","hist_area_km2": {"25": 57.782,"50": 587.832,"75": 1827.36,"100": 1280.458,"125": 1069.192,"150": 412.162,"175": 131.32,"200": 29.326,"225": 0.445,"250": 0.089}}}