{"type":"Feature","properties":{"GID_2":"AUS.11.44_1","GID_0":"AUS","country":"Australia","GID_1":"AUS.11_1","state":"WesternAustralia","NL_NAME_1":"NA","county":"Dundas","VARNAME_2":"NA","NL_NAME_2":"NA","TYPE_2":"Shire","ENGTYPE_2":"Shire","CC_2":"53080","HASC_2":"AU.WA.DU","name":"Dundas.county"},
"geometry":{"type": "MultiPolygon","coordinates": [[[[129.0014,-31.3699,117.956],[128.0601,-31.3766,134.3954],[128.0594,-31.2219,146.5729],[127.4407,-31.2222,152.9677],[127.4416,-31.2741,139.3762],[127.181,-31.2757,154.035],[127.1785,-31.3718,151.1576],[127.114,-31.3719,149.1799],[127.0859,-31.3745,150.9247],[127.0629,-31.3729,150.3606],[127.0569,-31.3742,148.545],[126.0014,-31.3811,156.2462],[125.6091,-31.3794,150.7694],[125.6091,-31.4105,150.7557],[125.0913,-31.4105,159.3535],[125.0913,-31.3794,163.4309],[124.1976,-31.3864,172.0751],[123.4961,-31.387,246.217],[123.4873,-31.394,245.3885],[123.0063,-31.3862,323.3195],[122.8302,-31.3789,308.693],[122.3991,-31.3758,289.0555],[122.3977,-31.8667,321.73],[120.5254,-31.868,456.6363],[120.0097,-31.8667,385.7508],[120.0097,-32.7652,388.2475],[120.554,-32.7652,348.0549],[120.554,-32.569,314.0574],[120.7556,-32.57,376.7861],[120.7681,-32.5647,353.8611],[121.0015,-32.5647,379.118],[121.3122,-32.569,287.9317],[121.759,-32.5692,273.5855],[121.9034,-32.569,244.6969],[122.0015,-32.5647,295.741],[123.4866,-32.5647,171.028],[123.4866,-32.6982,181.2619],[123.4522,-32.6982,178.7014],[123.4522,-32.8116,144.3109],[123.47,-32.8598,158.2052],[124.2293,-32.8628,134.4533],[124.2264,-33.0281,0.659],[124.2387,-33.0176,2.0417],[124.3054,-32.9809,0.9264],[124.3544,-32.9601,1.4963],[124.3936,-32.9491,1.695],[124.4583,-32.9356,0.7445],[124.5228,-32.9294,0.0],[124.5358,-32.9266,0.0],[124.5733,-32.9234,0.0],[124.5841,-32.9238,0.0],[124.5959,-32.9207,19.0157],[124.6165,-32.9189,14.2245],[124.6674,-32.9105,23.6635],[124.69,-32.9092,22.8524],[124.7128,-32.904,26.1264],[124.741,-32.9001,0.0],[124.7663,-32.8923,8.4626],[124.7791,-32.8843,52.8635],[124.8203,-32.8702,18.6525],[124.8343,-32.8633,0.0],[124.8438,-32.8545,65.523],[124.877,-32.8431,37.186],[124.8946,-32.8328,33.1801],[124.9002,-32.8286,9.7385],[124.907,-32.8152,37.8369],[124.928,-32.7942,63.4789],[124.958,-32.775,0.0],[124.9782,-32.7669,11.4527],[124.9867,-32.7662,41.8017],[124.9931,-32.7627,12.9904],[125.0071,-32.753,0.0],[125.0151,-32.7408,64.402],[125.0164,-32.7363,59.98],[125.0262,-32.7289,44.9494],[125.0688,-32.7216,10.4466],[125.0884,-32.7201,28.1118],[125.1024,-32.7154,23.2934],[125.1369,-32.6925,31.8763],[125.1504,-32.6856,38.6268],[125.1645,-32.6807,22.5004],[125.1762,-32.6724,27.3395],[125.1807,-32.6717,0.0],[125.1991,-32.6629,48.6464],[125.2303,-32.6432,31.1639],[125.2398,-32.639,44.6805],[125.2523,-32.6363,0.0],[125.2568,-32.6308,32.6393],[125.2633,-32.6305,19.8442],[125.2786,-32.6249,0.0],[125.2937,-32.616,38.4954],[125.3153,-32.6079,59.0408],[125.3271,-32.6059,29.3691],[125.3419,-32.6004,18.3844],[125.3486,-32.6003,0.0],[125.3548,-32.5963,5.6658],[125.3639,-32.5947,0.0],[125.3707,-32.5917,25.9872],[125.3891,-32.5889,25.5257],[125.4192,-32.5878,52.0252],[125.439,-32.5829,34.8069],[125.4509,-32.5765,21.6802],[125.4731,-32.5701,8.6646],[125.4851,-32.5596,6.8793],[125.5106,-32.5553,22.4424],[125.5321,-32.5492,49.8458],[125.5374,-32.5433,25.9763],[125.5602,-32.5341,50.5597],[125.5814,-32.5148,0.0],[125.6151,-32.4903,16.3732],[125.6432,-32.4755,7.3923],[125.6535,-32.4649,11.4199],[125.6636,-32.4591,7.0674],[125.6698,-32.4515,0.0],[125.6794,-32.444,58.2461],[125.6997,-32.4337,36.3336],[125.712,-32.4219,15.3054],[125.7216,-32.4181,5.7156],[125.7429,-32.4032,51.6419],[125.7519,-32.4005,22.4622],[125.7587,-32.3943,49.077],[125.7692,-32.3897,11.6781],[125.7815,-32.3793,30.8123],[125.8012,-32.3667,0.0],[125.8118,-32.3628,38.4593],[125.8218,-32.3552,27.8134],[125.8297,-32.3532,11.8027],[125.8359,-32.3469,39.212],[125.8414,-32.3468,6.0877],[125.8577,-32.3397,22.4167],[125.8708,-32.3366,0.0],[125.899,-32.3168,50.7642],[125.9118,-32.3121,59.1309],[125.9247,-32.3032,8.139],[125.9374,-32.2987,3.4688],[125.951,-32.2905,43.0301],[125.9612,-32.2864,32.0488],[126.0059,-32.2767,14.099],[126.0118,-32.2773,18.4485],[126.0247,-32.2746,0.0],[126.037,-32.2686,35.2405],[126.0578,-32.2729,2.5139],[126.0662,-32.2761,1.9355],[126.0743,-32.2766,0.6366],[126.0812,-32.2751,0.0],[126.114,-32.2646,0.0],[126.1246,-32.2564,0.0],[126.1607,-32.2377,10.2929],[126.1697,-32.2352,0.0],[126.2031,-32.2323,0.2886],[126.2289,-32.2356,4.6174],[126.2406,-32.2415,0.0],[126.2764,-32.2504,0.2903],[126.311,-32.2557,1.8612],[126.3315,-32.2613,0.0],[126.3441,-32.2623,1.3455],[126.3585,-32.2687,0.0],[126.3894,-32.2756,1.9367],[126.4004,-32.2801,0.0],[126.422,-32.2841,6.7457],[126.439,-32.2849,0.6343],[126.4568,-32.2884,0.0],[126.4642,-32.2879,7.4433],[126.5496,-32.2993,0.9086],[126.5717,-32.2999,0.0],[126.5795,-32.3017,0.0],[126.5965,-32.3009,1.2154],[126.6147,-32.3038,0.0],[126.6451,-32.3047,0.0],[126.6728,-32.3084,0.0],[126.7342,-32.3059,0.0],[126.7517,-32.3009,0.5669],[126.7622,-32.2948,0.0],[126.7726,-32.2923,1.6989],[126.8194,-32.2936,2.6119],[126.8489,-32.2984,0.0],[126.8704,-32.2969,0.0],[126.8931,-32.2988,0.0],[126.9393,-32.2986,0.0],[126.9565,-32.2976,0.0],[126.995,-32.2914,0.0],[127.0424,-32.288,0.0],[127.0572,-32.2838,1.4503],[127.0848,-32.2827,1.0235],[127.0893,-32.2806,1.7065],[127.107,-32.282,0.1307],[127.1185,-32.2798,0.0],[127.1238,-32.2809,0.3278],[127.1315,-32.2791,2.664],[127.1644,-32.2776,0.2494],[127.1692,-32.276,2.6159],[127.2021,-32.2768,0.0],[127.2293,-32.2745,0.0],[127.2382,-32.2697,0.4264],[127.2615,-32.2668,3.413],[127.2639,-32.268,0.0],[127.2751,-32.2646,0.3399],[127.2935,-32.2627,1.4208],[127.2999,-32.2595,4.6577],[127.326,-32.2565,0.0],[127.3354,-32.2541,1.2572],[127.3501,-32.2465,2.2222],[127.3805,-32.2413,0.0],[127.3829,-32.2389,9.2932],[127.3973,-32.235,2.3297],[127.4149,-32.2334,0.0],[127.4521,-32.2223,2.6912],[127.4641,-32.2212,5.0088],[127.4819,-32.2165,0.7743],[127.5188,-32.2141,0.5517],[127.5281,-32.2086,-0.213],[127.5322,-32.2019,0.0],[127.5394,-32.2001,0.0],[127.5424,-32.1953,0.0],[127.5486,-32.1908,1.6363],[127.5697,-32.1831,0.0],[127.5854,-32.1751,0.0],[127.6201,-32.1675,3.1653],[127.6248,-32.1632,0.1237],[127.6373,-32.1571,2.0646],[127.6919,-32.143,0.0],[127.7057,-32.1367,0.3797],[127.7559,-32.1278,1.7257],[127.784,-32.1196,0.0],[127.7982,-32.1193,1.3527],[127.832,-32.1124,1.0484],[127.8653,-32.104,1.067],[127.903,-32.1009,0.2028],[127.9404,-32.09,1.0936],[127.9685,-32.0863,0.0],[127.9996,-32.0776,0.7071],[128.0224,-32.074,0.4939],[128.0328,-32.0689,0.6875],[128.0406,-32.068,0.3835],[128.0432,-32.0657,1.0475],[128.0541,-32.0647,0.3407],[128.0736,-32.0562,1.2152],[128.0864,-32.054,0.5122],[128.1004,-32.0463,0.0],[128.1389,-32.0351,0.0],[128.1465,-32.0307,1.2584],[128.162,-32.0257,0.5791],[128.1773,-32.0225,0.1302],[128.1937,-32.0157,0.5357],[128.213,-32.0112,1.3924],[128.2253,-32.0053,0.2439],[128.2475,-32.0018,0.0],[128.254,-31.9969,0.1934],[128.2696,-31.9919,0.5781],[128.2806,-31.9908,0.0],[128.2891,-31.984,1.7887],[128.3017,-31.98,0.9426],[128.3143,-31.9794,0.8153],[128.3251,-31.9731,0.9433],[128.3297,-31.973,0.0],[128.3334,-31.97,1.3249],[128.3949,-31.9445,5.0488],[128.4014,-31.9437,1.1025],[128.411,-31.9382,1.1545],[128.4314,-31.9341,1.088],[128.4356,-31.9348,0.1648],[128.4464,-31.927,1.7066],[128.4575,-31.9253,2.1834],[128.4664,-31.9188,1.5358],[128.4948,-31.9119,0.369],[128.496,-31.9074,2.2411],[128.5019,-31.9029,1.8743],[128.522,-31.8953,0.7962],[128.5275,-31.8949,0.7682],[128.5433,-31.8815,0.5043],[128.5518,-31.8782,0.7811],[128.5716,-31.8737,1.0922],[128.5902,-31.8717,0.0],[128.5966,-31.8631,0.8984],[128.6113,-31.8596,0.0],[128.6201,-31.8558,2.7669],[128.6423,-31.8509,2.6989],[128.6536,-31.845,0.0],[128.6578,-31.8409,0.1458],[128.6614,-31.8338,3.5022],[128.6671,-31.8303,2.0352],[128.6821,-31.8257,0.7078],[128.6952,-31.8166,1.0132],[128.6998,-31.815,1.4132],[128.7067,-31.8087,1.7633],[128.717,-31.8056,0.3789],[128.7393,-31.793,0.3579],[128.7547,-31.7873,0.2735],[128.7754,-31.7736,1.9997],[128.7895,-31.7689,0.7088],[128.7929,-31.7649,0.8831],[128.8034,-31.758,1.2241],[128.8201,-31.7535,1.2686],[128.8264,-31.748,1.3908],[128.8608,-31.7357,1.2481],[128.871,-31.7285,1.1917],[128.8964,-31.717,0.9491],[128.906,-31.7159,1.6387],[128.9127,-31.7121,0.4529],[128.9483,-31.7009,0.4902],[128.9632,-31.6941,2.875],[129.0013,-31.6871,5.53],[129.0014,-31.3699,117.956]]]]}}