{"type":"Feature","properties":{"GID_2":"AUS.11.38_1","GID_0":"AUS","country":"Australia","GID_1":"AUS.11_1","state":"WesternAustralia","NL_NAME_1":"NA","county":"Dardanup","VARNAME_2":"NA","NL_NAME_2":"NA","TYPE_2":"Shire","ENGTYPE_2":"Shire","CC_2":"52660","HASC_2":"AU.WA.DP","name":"Dardanup.county"},
"geometry":{"type": "MultiPolygon","coordinates": [[[[115.703,-33.4039,18.427],[115.7059,-33.4062,18.4296],[115.7048,-33.409,19.8792],[115.7084,-33.4117,21.8015],[115.7057,-33.4145,19.4511],[115.7061,-33.4197,23.1195],[115.7111,-33.422,22.6763],[115.7105,-33.4264,28.6122],[115.7165,-33.431,31.769],[115.7201,-33.4316,28.842],[115.7212,-33.4359,27.3786],[115.7243,-33.4386,28.8872],[115.7238,-33.441,30.6094],[115.7278,-33.4429,28.4076],[115.7253,-33.4478,33.4941],[115.7381,-33.4478,33.2254],[115.7381,-33.4518,35.9261],[115.7775,-33.4528,83.4227],[115.7774,-33.4811,114.799],[115.7829,-33.4828,97.5159],[115.7774,-33.4904,57.8286],[115.7772,-33.5404,67.6027],[115.7917,-33.5404,74.7882],[115.7917,-33.5421,74.5178],[115.815,-33.5419,72.4725],[115.8151,-33.5398,78.6905],[115.8209,-33.5398,87.0966],[115.8209,-33.5318,108.856],[115.8285,-33.5318,113.3574],[115.8286,-33.5252,137.9459],[115.8227,-33.5251,133.7657],[115.8227,-33.5214,112.5715],[115.83,-33.5214,108.5869],[115.8315,-33.5173,169.2893],[115.8339,-33.5173,170.2161],[115.8339,-33.5145,140.3289],[115.8396,-33.5145,121.2147],[115.8396,-33.5214,157.38],[115.844,-33.5214,189.898],[115.8439,-33.5195,175.2447],[115.8544,-33.5195,178.9444],[115.8544,-33.5184,178.9444],[115.8579,-33.5183,194.878],[115.8579,-33.5212,205.5825],[115.8691,-33.5204,234.8802],[115.8691,-33.5104,219.1087],[115.8672,-33.5105,203.8039],[115.8672,-33.505,188.0659],[115.9288,-33.5049,176.3207],[115.9288,-33.5034,194.8421],[115.938,-33.5033,234.8497],[115.9426,-33.5002,228.6374],[115.9479,-33.5006,238.0674],[115.9478,-33.493,239.6606],[115.9498,-33.493,209.9813],[115.9498,-33.4887,232.0051],[115.9736,-33.4886,212.9996],[115.9737,-33.5069,205.8125],[115.9865,-33.5069,234.0567],[115.9865,-33.5111,248.637],[115.9986,-33.5111,209.3148],[115.9988,-33.5052,245.4183],[116.0234,-33.5053,232.0097],[116.0233,-33.3609,243.5757],[116.0579,-33.3607,241.0486],[116.058,-33.3477,169.654],[116.0532,-33.3471,159.0],[116.0545,-33.3508,187.6245],[116.0498,-33.3544,166.1735],[116.0445,-33.3539,184.8026],[116.0442,-33.352,167.9506],[116.0406,-33.3528,174.2185],[116.0329,-33.3472,170.6842],[116.0267,-33.3491,172.2424],[116.0233,-33.3474,160.3582],[116.016,-33.3544,159.0],[116.0169,-33.3561,186.4069],[116.0087,-33.3555,163.3264],[116.0077,-33.3607,164.7336],[116.0007,-33.3634,165.5804],[116.0019,-33.3673,159.6965],[116.0056,-33.3671,177.723],[116.0038,-33.3721,164.5854],[116.0085,-33.3729,201.5971],[116.0071,-33.3752,164.9799],[116.0081,-33.3798,159.0],[116.0098,-33.3815,159.0],[116.012,-33.3803,168.874],[116.0133,-33.384,177.0365],[116.0171,-33.3853,171.4917],[116.0116,-33.3903,169.7225],[116.0156,-33.3922,172.1371],[116.0135,-33.3931,174.0536],[116.0132,-33.3952,181.3907],[116.0105,-33.3938,162.5932],[116.0092,-33.3964,159.0],[116.0113,-33.3989,170.0638],[116.0193,-33.4002,175.5537],[116.0207,-33.4018,161.3066],[116.0201,-33.4033,174.0318],[116.0159,-33.4016,167.3064],[116.0114,-33.4024,161.132],[116.0106,-33.405,182.6427],[116.0067,-33.4039,168.3911],[116.0051,-33.4057,163.0958],[116.01,-33.4083,162.1573],[116.0084,-33.4114,162.2612],[116.0102,-33.4128,162.2612],[116.0086,-33.4136,169.7228],[116.0083,-33.4193,159.0],[116.0055,-33.422,160.6935],[116.0073,-33.4237,162.5925],[116.0121,-33.4224,176.9182],[116.0086,-33.4256,161.0884],[116.0122,-33.4291,170.7109],[116.0185,-33.4303,174.3598],[116.0052,-33.4317,169.3322],[116.0079,-33.4287,169.5919],[116.002,-33.4238,197.7343],[116.0036,-33.4137,161.1757],[116.0008,-33.4109,179.4595],[116.0009,-33.4083,181.9522],[115.9946,-33.4098,188.0089],[115.9932,-33.4034,161.4012],[115.9912,-33.4022,185.9439],[115.9925,-33.399,159.0],[115.9865,-33.4008,167.0128],[115.9863,-33.4056,195.1658],[115.9843,-33.4065,190.9401],[115.9852,-33.4085,179.1742],[115.9831,-33.4118,190.6965],[115.9814,-33.4112,192.0315],[115.9822,-33.4043,161.6743],[115.9783,-33.4031,179.9029],[115.9798,-33.4016,159.0],[115.9678,-33.4018,124.8745],[115.9622,-33.3955,107.7538],[115.9577,-33.3955,103.6726],[115.9546,-33.3925,112.7606],[115.9506,-33.393,122.7379],[115.9483,-33.3904,103.1951],[115.9392,-33.3889,101.4297],[115.9389,-33.3822,102.8648],[115.937,-33.3781,102.8457],[115.9241,-33.3802,101.5805],[115.9208,-33.3784,103.6999],[115.9166,-33.3786,98.8516],[115.9153,-33.374,100.2657],[115.912,-33.3711,95.7638],[115.9121,-33.3649,92.1228],[115.9041,-33.3583,88.3867],[115.9033,-33.3544,78.6103],[115.8941,-33.3452,79.0626],[115.8962,-33.3426,63.7396],[115.8944,-33.3407,77.9952],[115.8944,-33.337,51.933],[115.9027,-33.3282,47.3506],[115.9001,-33.3258,34.6219],[115.9014,-33.3202,36.6809],[115.892,-33.3216,27.7811],[115.8876,-33.325,20.2101],[115.884,-33.3248,30.8813],[115.8795,-33.3213,16.3538],[115.8733,-33.3242,18.1755],[115.867,-33.3204,17.808],[115.8635,-33.3215,17.8015],[115.86,-33.3195,22.8194],[115.8414,-33.3187,15.49],[115.8366,-33.3168,14.7765],[115.8139,-33.3,8.002],[115.8079,-33.3024,9.8864],[115.8047,-33.3015,10.1944],[115.8038,-33.2996,6.9778],[115.7975,-33.3015,5.3384],[115.7915,-33.3004,7.8862],[115.7881,-33.3021,7.506],[115.7891,-33.3036,8.9079],[115.7856,-33.3082,4.8096],[115.7824,-33.3087,8.4802],[115.7792,-33.3051,4.1096],[115.7743,-33.304,5.629],[115.7725,-33.3015,2.1169],[115.7672,-33.3016,8.5393],[115.7669,-33.2975,8.39],[115.7648,-33.2953,9.009],[115.7611,-33.2973,9.9306],[115.7563,-33.2956,5.0588],[115.7499,-33.2985,5.4884],[115.7482,-33.2975,5.2913],[115.7483,-33.2949,3.7234],[115.7467,-33.2946,3.9891],[115.7447,-33.2983,5.9238],[115.7375,-33.3002,4.7105],[115.7359,-33.2995,3.907],[115.7358,-33.2956,3.8923],[115.7297,-33.291,0.4327],[115.7222,-33.2902,3.4479],[115.7195,-33.2924,7.271],[115.7211,-33.2983,1.8224],[115.7194,-33.3081,1.0094],[115.7169,-33.311,0.7187],[115.7049,-33.3125,0.6022],[115.6977,-33.3094,1.2325],[115.6948,-33.315,2.3477],[115.697,-33.3271,17.7605],[115.6985,-33.3284,17.1917],[115.7083,-33.3284,18.3884],[115.7095,-33.3462,12.7317],[115.7146,-33.3446,11.6216],[115.7146,-33.3601,16.3361],[115.6944,-33.3601,16.4714],[115.6924,-33.368,16.3332],[115.6902,-33.3704,16.0496],[115.6913,-33.3718,11.5268],[115.703,-33.3719,14.3889],[115.703,-33.4039,18.427]]]]}}