{"type": "Feature","bbox": [146.6584,-41.4655,147.1238,-41.0633],"geometry": {"type": "MultiPolygon","coordinates": [[[[147.0764,-41.3866,0.6056],[147.0773,-41.3856,1.1424],[147.076,-41.384,0.3143],[147.0757,-41.3845,0.3143],[147.0764,-41.3866,0.6056]]],
[[[147.088,-41.3828,3.6101],[147.0889,-41.3819,0.0],[147.0887,-41.3804,0.0],[147.0885,-41.3811,3.109],[147.088,-41.3828,3.6101]]],
[[[147.0747,-41.3829,0.0],[147.075,-41.383,0.3143],[147.0749,-41.3801,0.0],[147.0744,-41.3814,0.0],[147.0747,-41.3829,0.0]]],
[[[147.0838,-41.3755,1.1017],[147.0792,-41.3728,0.0],[147.0791,-41.377,0.2977],[147.0821,-41.3807,1.5215],[147.0822,-41.3844,1.0832],[147.0839,-41.3852,0.2732],[147.0879,-41.3797,3.109],[147.0868,-41.3769,0.8412],[147.0838,-41.3755,1.1017]]],
[[[146.7065,-41.3198,173.0374],[146.6975,-41.3553,353.5284],[146.7716,-41.3757,301.9156],[146.7836,-41.3772,318.8077],[146.7834,-41.3782,299.9389],[146.7986,-41.3804,360.2963],[146.7993,-41.377,336.9644],[146.8011,-41.3772,289.261],[146.8025,-41.3747,264.3334],[146.8095,-41.3754,236.6465],[146.8096,-41.3782,226.6798],[146.8195,-41.3794,238.1314],[146.819,-41.3824,206.5373],[146.8253,-41.3851,207.1934],[146.8254,-41.3836,232.1674],[146.8728,-41.3912,239.8293],[146.9,-41.3865,242.2942],[146.9103,-41.3778,205.1832],[146.9177,-41.3847,206.8578],[146.9282,-41.3894,232.9065],[146.9288,-41.3902,231.3056],[146.9264,-41.391,243.3921],[146.9313,-41.3994,231.0315],[146.9294,-41.4002,227.2969],[146.9378,-41.4052,229.3544],[146.9343,-41.4085,204.2956],[146.9497,-41.4181,179.4018],[146.966,-41.4249,194.5469],[146.972,-41.429,207.43],[146.9961,-41.4318,328.748],[146.994,-41.4434,213.6247],[147.008,-41.4452,300.3379],[147.0304,-41.4258,170.1442],[147.0297,-41.4276,177.3532],[147.0322,-41.431,187.2132],[147.0313,-41.4332,185.9912],[147.033,-41.4355,191.1187],[147.0318,-41.4373,219.3572],[147.0655,-41.4589,130.4023],[147.0679,-41.4553,126.5],[147.0729,-41.4568,130.7221],[147.069,-41.4542,126.5],[147.0755,-41.4512,132.0082],[147.075,-41.4487,135.8635],[147.0791,-41.4452,131.0657],[147.0862,-41.4476,129.0371],[147.0891,-41.4522,116.7187],[147.0996,-41.4569,119.931],[147.099,-41.4611,146.9123],[147.1042,-41.4655,88.3502],[147.1111,-41.4599,72.9887],[147.1069,-41.458,182.7428],[147.1091,-41.4561,132.782],[147.1123,-41.4588,68.1206],[147.1154,-41.4563,113.4755],[147.1139,-41.4532,40.5986],[147.1147,-41.4497,65.5965],[147.1014,-41.4449,158.6214],[147.1018,-41.4426,190.0217],[147.1129,-41.4437,178.4298],[147.113,-41.4425,172.7657],[147.1073,-41.4395,169.8964],[147.1154,-41.4356,94.2798],[147.1144,-41.4319,125.4698],[147.1169,-41.4308,63.8778],[147.1147,-41.4291,81.391],[147.1189,-41.4259,1.2047],[147.1156,-41.4222,0.5],[147.116,-41.4194,0.5],[147.1123,-41.4217,8.3664],[147.1229,-41.414,2.1658],[147.1238,-41.4113,1.7412],[147.1186,-41.4069,0.9788],[147.119,-41.409,1.6167],[147.1188,-41.4103,2.5855],[147.1188,-41.4089,1.6167],[147.1172,-41.4094,1.2115],[147.1166,-41.4115,2.6349],[147.1173,-41.4062,0.8055],[147.1114,-41.4008,0.7887],[147.0956,-41.3994,1.7043],[147.0895,-41.3974,2.1276],[147.0868,-41.3948,1.7309],[147.0831,-41.3956,2.2626],[147.0854,-41.3948,2.3562],[147.0852,-41.3935,0.4695],[147.0795,-41.3913,2.4245],[147.0761,-41.3875,2.4096],[147.074,-41.3812,1.4986],[147.0753,-41.3682,0.8675],[147.069,-41.3544,1.2003],[147.0724,-41.3478,0.4088],[147.0777,-41.3451,4.2023],[147.0771,-41.3413,2.419],[147.0688,-41.3366,3.0006],[147.0594,-41.3354,0.7979],[147.0549,-41.3409,0.3651],[147.0471,-41.3435,8.376],[147.0459,-41.3457,22.1318],[147.0363,-41.347,0.0],[147.0334,-41.3512,1.1628],[147.0341,-41.3534,3.8829],[147.0296,-41.3453,0.5629],[147.0112,-41.3317,2.2844],[147.0086,-41.3283,3.4699],[147.0097,-41.3265,9.89],[147.0049,-41.3212,0.0],[146.9998,-41.3227,3.1113],[146.9966,-41.3211,0.0],[146.9872,-41.3212,1.0557],[146.9734,-41.3126,2.9653],[146.9703,-41.3069,2.6855],[146.969,-41.3069,12.6113],[146.9714,-41.3041,0.0],[146.9701,-41.2977,0.0],[146.9623,-41.2942,28.7222],[146.97,-41.2962,0.8458],[146.9694,-41.2945,5.9175],[146.9737,-41.2941,3.868],[146.9772,-41.2883,1.5319],[146.9789,-41.2807,3.5202],[146.9773,-41.2764,10.2233],[146.9783,-41.2733,0.6895],[146.9697,-41.2689,1.8438],[146.9676,-41.2633,0.5054],[146.9692,-41.2592,0.4739],[146.974,-41.2549,0.7544],[146.9747,-41.2518,0.1791],[146.9707,-41.2557,5.9562],[146.9708,-41.2544,1.2794],[146.9663,-41.2517,0.9661],[146.9567,-41.2579,0.0],[146.955,-41.2606,2.6793],[146.9464,-41.2599,10.8444],[146.9451,-41.2541,1.3632],[146.9342,-41.243,5.6222],[146.9356,-41.2358,5.2944],[146.9338,-41.2314,3.3591],[146.9278,-41.2288,12.6023],[146.9239,-41.2247,0.0],[146.9158,-41.2221,3.8456],[146.9144,-41.2185,0.0],[146.91,-41.2171,12.7772],[146.9,-41.2083,6.5957],[146.8975,-41.1995,5.0864],[146.8991,-41.1989,5.0864],[146.9008,-41.2004,3.3086],[146.902,-41.2044,11.6618],[146.9072,-41.2062,5.8278],[146.9069,-41.2001,6.7815],[146.9102,-41.201,18.7538],[146.9156,-41.1978,4.7763],[146.9154,-41.1944,5.4009],[146.9173,-41.1917,1.783],[146.9162,-41.19,0.0],[146.9089,-41.1888,9.9242],[146.9108,-41.1859,9.9873],[146.9153,-41.1874,8.0221],[146.917,-41.1824,8.348],[146.9204,-41.1825,12.2752],[146.9234,-41.1792,7.7053],[146.9272,-41.1798,0.0],[146.9291,-41.1785,4.3953],[146.9276,-41.1742,2.356],[146.9246,-41.1728,0.0],[146.9233,-41.1699,12.5287],[146.9117,-41.1662,0.0],[146.9041,-41.1589,6.1462],[146.8993,-41.159,3.3757],[146.8913,-41.1542,0.0],[146.8778,-41.15,1.0609],[146.873,-41.154,1.5783],[146.8688,-41.1609,0.8776],[146.8692,-41.1665,1.7536],[146.868,-41.1669,2.3681],[146.8687,-41.1653,2.0863],[146.8672,-41.1642,0.9357],[146.8653,-41.1644,0.2584],[146.8644,-41.1668,2.1477],[146.8606,-41.1689,0.506],[146.8602,-41.1721,1.419],[146.8575,-41.1712,0.1922],[146.8548,-41.1723,0.9841],[146.8517,-41.1706,14.319],[146.8514,-41.1688,6.5761],[146.8437,-41.1674,0.8534],[146.8362,-41.1626,0.0],[146.8341,-41.1631,0.8295],[146.8356,-41.166,24.8425],[146.8408,-41.1689,8.5776],[146.844,-41.1743,40.2942],[146.8439,-41.18,11.264099999999999],[146.8522,-41.1856,6.1295],[146.8576,-41.193,6.7981],[146.8537,-41.1905,8.2319],[146.8547,-41.1896,1.9786],[146.8527,-41.1883,4.7598],[146.845,-41.1863,6.5673],[146.8386,-41.1917,11.6531],[146.8408,-41.1917,14.1785],[146.837,-41.1924,3.2741],[146.839,-41.2,8.3224],[146.8379,-41.1972,12.1815],[146.836,-41.196,0.0],[146.835,-41.197,10.3178],[146.8341,-41.1954,5.6585],[146.8339,-41.1926,7.2336],[146.8359,-41.1901,0.0],[146.8328,-41.1865,8.6769],[146.8305,-41.1864,10.0465],[146.8338,-41.1855,8.2452],[146.835,-41.1861,8.2452],[146.8346,-41.1835,13.2187],[146.8381,-41.1787,0.0],[146.8379,-41.1765,0.0],[146.8353,-41.1735,2.8446],[146.8342,-41.1746,5.6151],[146.8324,-41.1724,4.0637],[146.827,-41.1718,6.5796],[146.8255,-41.1703,4.0955],[146.8262,-41.1685,3.2875],[146.8235,-41.1706,6.0479],[146.8211,-41.1701,8.2262],[146.8247,-41.1634,12.7199],[146.8233,-41.1597,4.693],[146.8248,-41.1585,1.1577],[146.8224,-41.1564,11.1032],[146.8237,-41.1519,1.7433],[146.825,-41.1523,1.7433],[146.8241,-41.1493,0.0],[146.8233,-41.1503,1.0505],[146.8201,-41.149,1.2336],[146.818,-41.1455,0.0],[146.8156,-41.1446,5.4966],[146.8087,-41.1447,4.8719],[146.807,-41.1406,0.0],[146.8053,-41.1415,1.4365],[146.806,-41.1455,0.0],[146.7985,-41.1486,7.4212],[146.7976,-41.1467,2.5282],[146.7902,-41.1461,0.0],[146.7857,-41.1506,0.0],[146.7877,-41.1543,5.7362],[146.7846,-41.1518,0.9543],[146.7808,-41.1537,1.5168],[146.7785,-41.157,4.2312],[146.774,-41.1589,5.038],[146.7748,-41.1601,9.8671],[146.7734,-41.1615,0.0],[146.775,-41.1634,13.3513],[146.7745,-41.1634,13.3513],[146.7733,-41.1629,0.0],[146.7735,-41.1648,7.6956],[146.7709,-41.1654,9.4132],[146.7706,-41.1595,1.3501],[146.7678,-41.16,12.0145],[146.7713,-41.1571,6.0121],[146.7687,-41.156,5.0839],[146.7686,-41.1538,4.8559],[146.7711,-41.1526,0.0],[146.7654,-41.1526,13.6598],[146.7668,-41.1506,5.3062],[146.7636,-41.1496,7.5271],[146.7641,-41.1494,36.6815],[146.7672,-41.1504,5.3062],[146.7729,-41.1494,10.7478],[146.7782,-41.1515,0.0],[146.7809,-41.1483,2.2526],[146.7803,-41.1469,6.8701],[146.782,-41.1473,0.0],[146.7815,-41.1452,9.6401],[146.783,-41.1457,0.0],[146.7858,-41.1433,1.4741],[146.7858,-41.1412,15.5309],[146.7894,-41.1393,18.1093],[146.7981,-41.14,0.0],[146.8009,-41.1343,21.1864],[146.8054,-41.1363,0.0],[146.8103,-41.1357,15.3067],[146.8109,-41.1384,12.0147],[146.8141,-41.1398,0.0],[146.8183,-41.1369,3.3297],[146.82,-41.1378,0.0],[146.8168,-41.1347,17.2855],[146.8118,-41.1334,7.6043],[146.8103,-41.1308,5.6253],[146.8098,-41.1285,2.3382],[146.8121,-41.1255,2.8493],[146.8101,-41.1219,4.6426],[146.811,-41.118,0.0],[146.8085,-41.116,4.0064],[146.81,-41.1151,0.0],[146.8087,-41.1156,0.0],[146.8066,-41.1128,2.0141],[146.8131,-41.1141,0.4317],[146.8127,-41.1163,0.0],[146.8146,-41.1154,0.8053],[146.8135,-41.1125,0.0],[146.814,-41.1145,0.4317],[146.8109,-41.113,0.4347],[146.8056,-41.1121,2.0141],[146.8041,-41.1108,0.0],[146.8032,-41.1114,1.1539],[146.8061,-41.1155,1.6684],[146.8009,-41.1148,2.3587],[146.7973,-41.117,8.9847],[146.7961,-41.116,6.3537],[146.7962,-41.1112,0.0],[146.7936,-41.1134,3.9155],[146.7881,-41.112,4.6121],[146.792,-41.1118,2.3509],[146.7923,-41.1083,1.4965],[146.7974,-41.1087,1.0453],[146.7975,-41.1058,1.2816],[146.7926,-41.1017,0.3903],[146.7908,-41.0954,2.708],[146.7882,-41.0923,0.8589],[146.7823,-41.0893,0.4001],[146.7752,-41.0824,0.7243],[146.7684,-41.0788,0.7502],[146.7615,-41.0784,2.165],[146.7517,-41.0844,1.2719],[146.7437,-41.0845,0.0],[146.7431,-41.08,0.0],[146.7406,-41.0779,0.8211],[146.73,-41.0771,19.3654],[146.7278,-41.0727,2.1329],[146.7194,-41.0708,10.7513],[146.7188,-41.0666,5.0904],[146.7122,-41.0633,3.7162],[146.7063,-41.065,12.2274],[146.7136,-41.0748,7.2288],[146.7011,-41.0864,4.157],[146.694,-41.0917,4.3225],[146.6795,-41.0996,8.6368],[146.6792,-41.1007,8.6368],[146.678,-41.101,3.5293],[146.6769,-41.101,0.0],[146.679,-41.1005,3.5293],[146.6739,-41.1013,7.4495],[146.6614,-41.0961,0.0],[146.6584,-41.1103,136.9639],[146.6646,-41.111,213.0137],[146.6957,-41.1329,358.6118],[146.6993,-41.1578,186.7693],[146.6956,-41.1703,195.2477],[146.7621,-41.2872,422.8911],[146.7618,-41.2887,418.0358],[146.7516,-41.2875,350.7692],[146.7495,-41.2975,411.4632],[146.7335,-41.296,413.8087],[146.7332,-41.2973,383.289],[146.7283,-41.2967,329.4613],[146.7275,-41.3006,309.2049],[146.7198,-41.2997,242.3932],[146.7184,-41.3059,205.597],[146.7143,-41.3054,268.5517],[146.715,-41.3024,194.9351],[146.7089,-41.3028,249.9869],[146.7052,-41.2978,260.2563],[146.7007,-41.3164,154.9251],[146.7012,-41.3187,183.8327],[146.7065,-41.3198,173.0374]]],
[[[146.8298,-41.1716,6.897],[146.8297,-41.1715,6.897],[146.8296,-41.1717,6.897],[146.8297,-41.1717,6.897],[146.8298,-41.1716,6.897]]],
[[[146.7717,-41.153,0.0],[146.7713,-41.1529,0.0],[146.7713,-41.1534,0.5965],[146.7717,-41.1534,0.0],[146.7717,-41.153,0.0]]],
[[[146.7982,-41.1471,2.5282],[146.7984,-41.1468,0.0],[146.7979,-41.1467,2.5282],[146.7979,-41.1469,2.5282],[146.7982,-41.1471,2.5282]]],
[[[146.9127,-41.2088,0.0],[146.9134,-41.2084,0.0],[146.9133,-41.2079,0.0],[146.9126,-41.2079,0.0],[146.9127,-41.2088,0.0]]],
[[[146.9082,-41.2064,0.0],[146.9079,-41.2062,0.0],[146.9072,-41.2067,0.0],[146.9076,-41.2069,0.0],[146.9082,-41.2064,0.0]]],
[[[146.8636,-41.1444,0.6323],[146.8624,-41.1444,0.6323],[146.861,-41.1476,1.0814],[146.8647,-41.1466,0.0],[146.8636,-41.1444,0.6323]]],
[[[146.8229,-41.1392,0.0],[146.8226,-41.1394,0.0],[146.8231,-41.1395,0.0],[146.823,-41.1393,0.0],[146.8229,-41.1392,0.0]]],
[[[146.7928,-41.109,1.4965],[146.7929,-41.1093,1.4965],[146.7932,-41.1089,1.4965],[146.793,-41.1087,1.4965],[146.7928,-41.109,1.4965]]]]}
,"properties": {"GID_2": "AUS.9.30_1","GID_0": "AUS","country": "Australia","GID_1": "AUS.9_1","state": "Tasmania","NL_NAME_1": "NA","county": "WestTamar","VARNAME_2": "NA","NL_NAME_2": "NA","TYPE_2": "Municipality","ENGTYPE_2": "Municipality","CC_2": "65810","HASC_2": "AU.TS.WT","name": "WestTamar.county","area_km2": 689.8647,"hist_schema_id": "Elevation0-9000","hist_area_km2": {"0": 40.1717,"25": 78.1881,"50": 80.4655,"75": 78.1882,"100": 52.59,"125": 46.4977,"150": 46.0168,"175": 49.2027,"200": 42.2615,"225": 38.7115,"250": 26.4417,"275": 22.4948,"300": 20.1706,"325": 20.4429,"350": 18.787,"375": 12.7213,"400": 7.4679,"425": 4.2196,"450": 2.3568,"475": 1.1943,"500": 0.5414,"525": 0.3663,"550": 0.223,"575": 0.1274,"600": 0.0159}}}