{"type": "Feature","bbox": [152.689,-29.343,153.4835,-28.7107],"geometry": {"type": "MultiPolygon","coordinates": [[[[153.4359,-29.0011,1.6615],[153.4322,-29.0109,0.7128],[153.4256,-29.0169,0.0],[153.4212,-29.0175,3.4932],[153.4152,-29.0158,0.0],[153.4129,-29.0135,0.0],[153.4086,-29.0076,0.0],[153.4052,-28.9989,1.1572],[153.3999,-28.999,0.3777],[153.3899,-29.0133,0.0],[153.3781,-29.0228,0.3997],[153.3755,-29.0272,0.0],[153.3763,-29.0372,0.4618],[153.3809,-29.043,0.3396],[153.3827,-29.0493,0.0],[153.3815,-29.0543,0.0],[153.3753,-29.0603,0.5],[153.3644,-29.0637,0.5],[153.3542,-29.064,2.0717],[153.3465,-29.0696,2.7565],[153.3365,-29.0711,2.4559],[153.3319,-29.0672,0.5],[153.3282,-29.0594,0.6578],[153.3299,-29.0556,0.5],[153.3352,-29.0525,0.5],[153.3348,-29.0447,0.5],[153.332,-29.0406,1.3907],[153.327,-29.0391,1.9386],[153.3194,-29.0423,0.5939],[153.3131,-29.0554,2.0107],[153.3092,-29.0598,3.1424],[153.306,-29.0605,1.8504],[153.3056,-29.0563,1.2941],[153.3031,-29.0537,2.0031],[153.2796,-29.0369,3.3814],[153.279,-29.0329,1.655],[153.2855,-29.024,1.0],[153.269,-29.0129,1.0],[153.2703,-29.0092,1.7491],[153.2803,-29.0014,5.8842],[153.284,-29.0089,2.9489],[153.2977,-29.0037,3.8305],[153.296,-29.0003,4.0196],[153.3007,-28.9943,4.717],[153.2964,-28.9916,4.6325],[153.2964,-28.9867,3.6392],[153.2947,-28.9844,3.9092],[153.2883,-28.984,3.3766],[153.2863,-28.9823,4.7851],[153.2866,-28.9795,3.3893],[153.2909,-28.9773,6.1335],[153.2909,-28.9741,4.9009],[153.2883,-28.9716,5.6512],[153.2799,-28.9698,6.3438],[153.2801,-28.9667,5.3793],[153.275,-28.9634,3.1555],[153.2734,-28.9523,2.5996],[153.2702,-28.9508,4.38],[153.266,-28.954,3.9769],[153.2637,-28.952,6.862],[153.2635,-28.9492,5.9438],[153.2687,-28.9471,3.6503],[153.2694,-28.9442,4.0989],[153.2595,-28.9449,6.8662],[153.2472,-28.9311,8.0653],[153.2437,-28.9343,3.5797],[153.2447,-28.9449,5.238],[153.2417,-28.947,5.3889],[153.2399,-28.9387,6.9578],[153.2284,-28.9354,8.584],[153.2256,-28.9283,5.2053],[153.2164,-28.9313,8.9916],[153.2103,-28.9293,8.6403],[153.2074,-28.9307,4.9719],[153.202,-28.9225,7.0553],[153.1992,-28.9211,7.6494],[153.1923,-28.9209,6.9308],[153.1906,-28.9268,5.705],[153.1884,-28.9282,9.0484],[153.1747,-28.9213,5.1117],[153.1731,-28.9224,6.4217],[153.1735,-28.9204,12.0989],[153.1792,-28.9182,11.9279],[153.1797,-28.9147,11.2788],[153.1752,-28.9141,9.743],[153.1763,-28.9033,11.6335],[153.1829,-28.8641,42.182],[153.1876,-28.8463,24.7585],[153.183,-28.8456,29.554],[153.1837,-28.8417,35.2921],[153.1821,-28.8391,28.4129],[153.1781,-28.8373,31.0029],[153.1774,-28.8339,32.4541],[153.1749,-28.8344,34.2208],[153.1678,-28.83,41.3217],[153.1646,-28.8247,41.0181],[153.1548,-28.8204,47.1531],[153.1499,-28.8202,48.7311],[153.1385,-28.8145,68.9493],[153.1401,-28.8051,129.2303],[153.1439,-28.8055,234.5463],[153.1479,-28.7839,23.1493],[153.1445,-28.7821,26.7053],[153.1394,-28.7833,26.7453],[153.1376,-28.7808,26.7243],[153.1311,-28.7786,26.8333],[153.1259,-28.7801,29.0911],[153.1231,-28.7741,29.9315],[153.1212,-28.776,28.7923],[153.1111,-28.7751,34.0899],[153.1106,-28.7705,34.3032],[153.1074,-28.7688,33.7911],[153.1088,-28.7639,37.3952],[153.1064,-28.7636,36.5225],[153.1065,-28.7619,36.916],[153.0997,-28.7607,36.7356],[153.1004,-28.7594,37.6789],[153.0948,-28.7575,41.2845],[153.0927,-28.7542,38.8478],[153.0896,-28.7562,40.1383],[153.0888,-28.7548,46.5086],[153.0871,-28.7556,46.5086],[153.0834,-28.7505,44.246],[153.0792,-28.749,45.4391],[153.0797,-28.7473,44.5893],[153.0773,-28.746,59.5278],[153.0793,-28.7444,49.5174],[153.0787,-28.7408,65.0009],[153.0735,-28.7367,46.3515],[153.0766,-28.7332,50.3761],[153.0742,-28.7332,48.1768],[153.0699,-28.7296,64.1336],[153.0656,-28.7305,81.2393],[153.0649,-28.7344,113.1923],[153.0544,-28.7331,114.9599],[153.0564,-28.7221,80.0035],[153.0546,-28.7274,151.352],[153.0165,-28.7219,50.2486],[153.0158,-28.7254,46.8313],[153.0057,-28.724,44.9624],[153.0044,-28.7313,40.6],[153.0004,-28.7307,40.8371],[153.0013,-28.726,41.0769],[152.995,-28.7251,41.5155],[152.9957,-28.7216,45.9016],[152.9172,-28.7107,46.8558],[152.9162,-28.7133,47.0098],[152.9099,-28.7118,45.3009],[152.9059,-28.7136,46.9323],[152.9049,-28.7162,44.7307],[152.9077,-28.7226,41.9655],[152.9055,-28.7303,44.114],[152.912,-28.734,45.6719],[152.9116,-28.7361,43.9066],[152.9156,-28.7367,41.3488],[152.9178,-28.7508,39.2225],[152.9219,-28.7515,41.7898],[152.9215,-28.7543,42.3295],[152.9248,-28.7555,40.7499],[152.9215,-28.7614,41.2078],[152.9265,-28.7646,38.6523],[152.9238,-28.7706,35.1657],[152.932,-28.7742,36.25],[152.9307,-28.7784,35.7606],[152.9386,-28.7801,37.4386],[152.9353,-28.7851,35.0846],[152.9402,-28.7843,36.118],[152.9425,-28.7865,31.988],[152.9423,-28.791,31.4012],[152.9481,-28.7914,32.4547],[152.9446,-28.7952,35.2145],[152.9465,-28.7985,35.4876],[152.953,-28.7981,34.2731],[152.9525,-28.8015,29.8914],[152.9446,-28.8018,31.1071],[152.9438,-28.8038,32.33],[152.9386,-28.8042,36.1307],[152.9369,-28.8027,32.6338],[152.9342,-28.8048,34.8557],[152.929,-28.8044,35.6612],[152.9282,-28.8068,34.8547],[152.9252,-28.8075,35.5438],[152.9229,-28.811,36.5327],[152.9207,-28.8101,37.6799],[152.9179,-28.8153,40.2085],[152.915,-28.8153,40.1798],[152.9138,-28.8213,44.8184],[152.9052,-28.818,46.1475],[152.9047,-28.8217,63.6379],[152.8876,-28.8193,72.1587],[152.8846,-28.836,126.079],[152.8796,-28.8353,134.3246],[152.8784,-28.8427,74.4234],[152.8755,-28.8436,75.4158],[152.8737,-28.8399,74.0716],[152.8704,-28.8414,76.1818],[152.8675,-28.8397,77.3093],[152.8653,-28.8422,80.6488],[152.8632,-28.8527,125.9025],[152.8583,-28.852,105.3259],[152.8563,-28.8637,213.4424],[152.8513,-28.8675,205.0936],[152.846,-28.8815,268.0739],[152.8464,-28.8887,331.0818],[152.8296,-28.8826,223.7308],[152.8209,-28.8828,248.3809],[152.8211,-28.8883,289.6706],[152.8189,-28.8918,292.3237],[152.8204,-28.8949,293.258],[152.8198,-28.9037,315.1],[152.8087,-28.9058,331.8774],[152.8061,-28.909,321.4035],[152.7983,-28.9102,337.2959],[152.7861,-28.9267,349.9671],[152.7761,-28.9258,386.9362],[152.773,-28.9228,400.6744],[152.7737,-28.9214,400.6744],[152.7505,-28.9133,403.2939],[152.7536,-28.9241,411.1747],[152.7529,-28.929,401.0309],[152.7445,-28.9334,348.5802],[152.7438,-28.9412,343.5169],[152.7419,-28.9447,324.4402],[152.7439,-28.9458,315.0619],[152.7446,-28.9501,306.5087],[152.7493,-28.9547,327.8132],[152.7477,-28.9656,342.6995],[152.7427,-28.9708,341.6302],[152.7459,-28.9799,303.642],[152.7443,-28.9833,319.4898],[152.746,-28.9902,321.2563],[152.7448,-28.9936,307.3489],[152.7376,-29.0002,326.5561],[152.7323,-29.0024,326.2374],[152.7244,-29.0111,307.0114],[152.7116,-29.013,299.5066],[152.7029,-29.0192,300.9694],[152.6951,-29.0175,366.3828],[152.689,-29.0228,340.1187],[152.6902,-29.0244,332.6206],[152.69,-29.0352,294.6999],[152.6969,-29.0409,285.3456],[152.6971,-29.0442,287.6348],[152.7068,-29.051,314.597],[152.7072,-29.0562,315.1538],[152.7114,-29.0591,295.5382],[152.7128,-29.0657,285.1307],[152.7178,-29.0726,299.0844],[152.7177,-29.0753,293.6324],[152.7207,-29.0796,328.5056],[152.7237,-29.082,389.851],[152.7344,-29.0811,431.2779],[152.7393,-29.0797,589.6955],[152.7434,-29.0759,639.0237],[152.7591,-29.0904,602.958],[152.7579,-29.1061,499.6318],[152.7486,-29.1103,396.3943],[152.7424,-29.1178,446.1215],[152.7399,-29.1262,530.8134],[152.7355,-29.128,489.1017],[152.7343,-29.1335,481.4734],[152.7311,-29.1371,497.3037],[152.7323,-29.1504,473.095],[152.7247,-29.1607,535.0591],[152.724,-29.1682,483.1647],[152.7209,-29.1733,491.0562],[152.7211,-29.1759,488.2082],[152.7239,-29.1768,451.9549],[152.7199,-29.1785,462.2381],[152.718,-29.1823,347.0815],[152.72,-29.188,357.2517],[152.7217,-29.1887,419.6285],[152.7273,-29.1887,438.2655],[152.7379,-29.192,379.7347],[152.7408,-29.1909,390.9223],[152.7471,-29.192,386.2884],[152.7498,-29.1902,487.2183],[152.7546,-29.1901,495.0573],[152.7621,-29.1978,498.1713],[152.763,-29.2008,486.9302],[152.7736,-29.2032,547.3027],[152.774,-29.2195,478.5645],[152.784,-29.2219,486.7731],[152.7914,-29.2258,496.6368],[152.7965,-29.2248,462.1999],[152.7958,-29.2274,423.0129],[152.7997,-29.2334,373.8852],[152.8043,-29.233,333.5113],[152.8086,-29.2359,289.4519],[152.8169,-29.2566,396.7421],[152.8225,-29.2644,352.2602],[152.8203,-29.2641,353.2478],[152.8199,-29.2669,247.1092],[152.8245,-29.2744,249.5022],[152.8226,-29.2806,286.5467],[152.8197,-29.2806,291.695],[152.8166,-29.2898,241.0057],[152.8136,-29.2917,245.8247],[152.8124,-29.2966,247.7016],[152.8089,-29.2994,253.1132],[152.811,-29.3165,475.8957],[152.8174,-29.3182,373.9843],[152.8253,-29.3142,344.9104],[152.8305,-29.3164,385.0448],[152.8348,-29.3144,379.0145],[152.8413,-29.3222,404.1782],[152.8479,-29.3232,404.3633],[152.8576,-29.316,331.4164],[152.8575,-29.3122,269.9843],[152.8689,-29.311,204.8041],[152.8715,-29.3094,210.4421],[152.8824,-29.3109,199.593],[152.8878,-29.3139,172.5304],[152.8887,-29.316,188.6445],[152.892,-29.3164,178.0049],[152.8974,-29.3215,195.7619],[152.9043,-29.3148,155.0494],[152.91,-29.3138,175.0467],[152.9142,-29.3107,162.9137],[152.9197,-29.3116,151.0964],[152.9231,-29.3148,147.1058],[152.9262,-29.3144,144.6302],[152.9275,-29.3177,164.9758],[152.9394,-29.3249,148.5976],[152.9393,-29.3302,159.7831],[152.9475,-29.3327,124.962],[152.9563,-29.3318,113.3474],[152.9634,-29.3289,111.9799],[152.9767,-29.3286,99.5231],[152.9798,-29.3265,95.118],[152.9844,-29.3279,94.8523],[152.9948,-29.3277,86.1379],[152.9977,-29.3287,87.907],[152.9997,-29.3321,92.8122],[153.0098,-29.3314,84.7555],[153.0201,-29.339,95.044],[153.0207,-29.343,93.4444],[153.0244,-29.3387,98.6246],[153.0293,-29.3377,89.114],[153.0531,-29.3246,110.3914],[153.06,-29.3253,96.8404],[153.0628,-29.3234,101.5354],[153.0688,-29.3233,140.7979],[153.0708,-29.3188,137.0534],[153.0809,-29.3126,188.5114],[153.083,-29.3129,196.9471],[153.0875,-29.3184,222.408],[153.0901,-29.3175,184.7724],[153.0953,-29.3194,140.0681],[153.1006,-29.3169,102.0436],[153.1039,-29.3138,98.6878],[153.1114,-29.2742,86.8917],[153.1282,-29.2767,57.5505],[153.1276,-29.2795,73.4328],[153.1444,-29.2819,37.3465],[153.1466,-29.2626,29.5984],[153.1393,-29.2615,48.8193],[153.143,-29.2425,27.937],[153.1667,-29.2459,19.6536],[153.1658,-29.2504,26.816],[153.1819,-29.2528,64.1831],[153.1805,-29.2599,94.8855],[153.2067,-29.2634,227.9928],[153.2071,-29.2418,150.8845],[153.2579,-29.2491,16.6074],[153.2584,-29.2466,14.3975],[153.2745,-29.2509,12.3906],[153.2809,-29.2488,22.8619],[153.283,-29.2507,16.2737],[153.2884,-29.2514,12.8348],[153.3,-29.2505,8.7025],[153.3054,-29.2463,14.5938],[153.3098,-29.2467,20.1903],[153.3177,-29.2396,15.2673],[153.3598,-29.2637,8.4946],[153.3734,-29.2424,1.4209],[153.3866,-29.2264,1.9826],[153.392,-29.2143,0.0],[153.4125,-29.1853,0.0],[153.4279,-29.1686,6.2613],[153.4465,-29.1525,4.583],[153.4533,-29.1419,0.0],[153.4567,-29.1402,3.3212],[153.4571,-29.1381,7.7333],[153.4528,-29.1388,5.242],[153.4486,-29.1334,1.4891],[153.4513,-29.1187,0.0],[153.4476,-29.1158,0.0],[153.4437,-29.1163,33.5072],[153.4346,-29.112,0.0],[153.4328,-29.1011,0.0],[153.4339,-29.0913,0.9479],[153.4415,-29.0653,0.0],[153.4519,-29.0413,0.0],[153.464,-29.0187,3.0665],[153.4835,-28.9907,0.8587],[153.4665,-28.9942,3.717],[153.4599,-28.9918,0.0],[153.448,-28.9968,0.0],[153.4389,-28.9985,0.7342],[153.4359,-29.0011,1.6615]]]]}
,"properties": {"GID_2": "AUS.5.113_1","GID_0": "AUS","country": "Australia","GID_1": "AUS.5_1","state": "NewSouthWales","NL_NAME_1": "NA","county": "RichmondValley","VARNAME_2": "NA","NL_NAME_2": "NA","TYPE_2": "Area","ENGTYPE_2": "Area","CC_2": "16610","HASC_2": "AU.NS.RV","name": "RichmondValley.county","area_km2": 3051.659,"hist_schema_id": "Elevation0-9000","hist_area_km2": {"0": 379.886,"25": 860.082,"50": 668.732,"75": 352.356,"100": 207.661,"125": 132.429,"150": 96.347,"175": 70.936,"200": 61.175,"225": 47.329,"250": 42.29,"275": 32.632,"300": 26.929,"325": 22.035,"350": 13.615,"375": 10.908,"400": 7.353,"425": 5.445,"450": 4.037,"475": 3.333,"500": 2.334,"525": 1.537,"550": 0.797,"575": 0.667,"600": 0.296,"625": 0.389,"650": 0.111}}}