{"type": "Feature","bbox": [146.7693,-42.2813,148.1462,-41.4785],"geometry": {"type": "MultiPolygon","coordinates": [[[[147.6479,-41.4785,593.1849],[147.5789,-41.5136,754.244],[147.5719,-41.506,666.5549],[147.5621,-41.5112,689.7476],[147.5399,-41.5075,498.1221],[147.5259,-41.5147,432.2264],[147.5274,-41.5163,439.0751],[147.5262,-41.5205,445.8741],[147.5065,-41.5304,635.974],[147.4987,-41.522,489.0524],[147.4864,-41.5286,592.7531],[147.4762,-41.5181,528.9236],[147.4686,-41.5219,585.5652],[147.4672,-41.5205,573.4489],[147.4616,-41.5233,569.5149],[147.4604,-41.5221,589.4965],[147.4281,-41.5387,435.0547],[147.432,-41.543,383.0598],[147.4064,-41.5562,638.5397],[147.4008,-41.5498,607.8994],[147.388,-41.5561,621.3035],[147.3678,-41.5363,479.1232],[147.3468,-41.512,322.6662],[147.3128,-41.5294,215.3427],[147.3028,-41.5204,233.1791],[147.2858,-41.5297,144.8557],[147.2782,-41.5217,211.1568],[147.2627,-41.5301,142.6737],[147.2553,-41.5245,185.99],[147.2485,-41.5282,84.5843],[147.237,-41.5164,59.7922],[147.2309,-41.5196,35.3498],[147.2286,-41.5147,33.3265],[147.2362,-41.5108,55.4336],[147.2329,-41.507,45.4941],[147.2305,-41.5081,35.9769],[147.2271,-41.4992,27.1222],[147.2241,-41.4981,21.7342],[147.2244,-41.4958,24.4992],[147.2222,-41.4937,46.0638],[147.198,-41.5102,137.8732],[147.1937,-41.5054,92.3698],[147.188,-41.5083,164.1934],[147.1794,-41.4999,94.809],[147.1741,-41.502,115.1097],[147.1717,-41.4989,127.4509],[147.1719,-41.4953,111.6304],[147.1694,-41.4929,88.8729],[147.154,-41.501,164.8028],[147.1477,-41.4951,161.5591],[147.1364,-41.5013,268.3791],[147.1292,-41.493899999999996,204.5863],[147.1025,-41.5085,235.0451],[147.1004,-41.5072,205.9361],[147.0939,-41.5131,168.3678],[147.0886,-41.5099,150.7528],[147.0682,-41.5234,128.3429],[147.0776,-41.5288,134.5927],[147.0846,-41.5371,130.5353],[147.0946,-41.5378,130.7588],[147.0895,-41.5441,134.9229],[147.0919,-41.5419,130.1212],[147.0908,-41.5436,130.3709],[147.0847,-41.5469,130.7051],[147.0851,-41.5494,130.3288],[147.0549,-41.5654,160.1464],[147.0649,-41.5761,161.9882],[147.0564,-41.5805,180.205],[147.0516,-41.5753,176.9867],[147.0317,-41.5725,172.0958],[147.0291,-41.5838,184.1815],[146.9967,-41.5793,158.5594],[146.9893,-41.5847,160.0718],[146.9678,-41.6056,164.17],[146.9656,-41.614,166.2389],[146.9626,-41.616,166.819],[146.9593,-41.6227,167.4271],[146.9516,-41.6304,169.8774],[146.9512,-41.6333,170.8802],[146.9541,-41.6373,171.6084],[146.9514,-41.64,172.8642],[146.9538,-41.6433,173.7348],[146.9575,-41.645,175.2651],[146.9548,-41.6476,175.7566],[146.955,-41.6493,176.9866],[146.9532,-41.649,177.3212],[146.9451,-41.6538,180.5879],[146.9475,-41.6562,180.2175],[146.9459,-41.661,181.2288],[146.9442,-41.6615,180.5867],[146.9445,-41.6644,185.5167],[146.9422,-41.665,183.423],[146.9416,-41.6669,183.4847],[146.9372,-41.6668,184.0212],[146.9359,-41.672,186.8767],[146.9338,-41.6709,191.6819],[146.9315,-41.6735,187.521],[146.9272,-41.6713,187.4335],[146.9274,-41.6788,193.9768],[146.9257,-41.6813,191.6989],[146.922,-41.682,192.8784],[146.9201,-41.6776,212.1114],[146.9174,-41.6773,195.9034],[146.9118,-41.6668,203.2738],[146.9088,-41.6675,199.8916],[146.9046,-41.6656,202.9664],[146.8962,-41.6661,207.9428],[146.8955,-41.665,207.9428],[146.8886,-41.6677,214.2535],[146.879,-41.6677,218.3861],[146.8722,-41.6715,226.4835],[146.8711,-41.6705,229.2583],[146.8546,-41.6841,247.6481],[146.8517,-41.6819,257.0054],[146.8447,-41.6804,290.2841],[146.8423,-41.6832,302.287],[146.837,-41.6828,289.2211],[146.8319,-41.6806,296.0753],[146.8287,-41.6812,294.9061],[146.8259,-41.6789,298.5498],[146.8214,-41.681,313.249],[146.8186,-41.68,309.4865],[146.8105,-41.6812,345.3758],[146.8095,-41.6826,327.4485],[146.807,-41.6817,343.1813],[146.7982,-41.6846,422.5651],[146.793,-41.6824,396.9629],[146.7888,-41.6829,389.2467],[146.786,-41.6799,400.5508],[146.7813,-41.6826,433.1652],[146.7775,-41.6822,509.4392],[146.7767,-41.6854,498.4612],[146.7751,-41.6852,543.8291],[146.7726,-41.6955,472.5794],[146.7745,-41.697,484.3098],[146.7718,-41.7001,458.9637],[146.7791,-41.713,677.1333],[146.7723,-41.725,1126.1644],[146.7693,-41.7267,1155.7034],[146.7727,-41.7261,1126.1644],[146.775,-41.7246,1160.4276],[146.7816,-41.7274,1172.3462],[146.7895,-41.7219,1106.937],[146.7952,-41.7204,1126.1683],[146.7998,-41.7216,1156.5608],[146.8042,-41.7206,1224.7559],[146.8051,-41.719,1279.3406],[146.8033,-41.7186,1241.6798],[146.8045,-41.7184,1241.6798],[146.8038,-41.7169,1254.5763],[146.8136,-41.7075,1247.5254],[146.8164,-41.7004,1187.1235],[146.823,-41.7022,1246.9424],[146.8223,-41.703,1274.7904],[146.8248,-41.7038,1280.0032],[146.832,-41.7127,1167.4044],[146.8366,-41.715,1107.8098],[146.8367,-41.718,1144.5667],[146.8419,-41.7179,1023.6819],[146.8477,-41.7219,1117.8447],[146.8462,-41.7297,1070.6509],[146.8416,-41.7338,1132.3347],[146.8403,-41.7417,1091.9304],[146.8361,-41.7408,1124.3584],[146.835,-41.7421,1129.5984],[146.8373,-41.743899999999996,1089.7361],[146.8369,-41.7461,1096.0933],[146.8419,-41.7488,1109.0449],[146.8446,-41.7486,1067.2458],[146.8457,-41.751,1080.3384],[146.8504,-41.7528,1092.9009],[146.8429,-41.7547,1081.5232],[146.8406,-41.7526,1120.63],[146.8337,-41.755,1117.5463],[146.8289,-41.7617,1092.9062],[146.8249,-41.7631,1081.6328],[146.8179,-41.7596,1101.689],[146.8214,-41.7647,1076.629],[146.8203,-41.7659,1104.2673],[146.8236,-41.7669,1112.106],[146.8271,-41.7731,1110.1829],[146.8306,-41.7736,1099.8689],[146.8338,-41.7784,1105.4083],[146.8466,-41.782,1095.1736],[146.8475,-41.7866,1091.6584],[146.8519,-41.7886,1037.7092],[146.8619,-41.785,1074.5737],[146.8686,-41.7912,1035.4972],[146.8688,-41.7927,1053.568],[146.8647,-41.7925,1069.1323],[146.862,-41.7965,1052.0817],[146.8539,-41.7945,1046.7455],[146.8471,-41.7988,1104.9425],[146.8459,-41.8013,1080.436],[146.8496,-41.8027,1069.4138],[146.853,-41.8068,1141.92],[146.8548,-41.8092,1020.6329],[146.8542,-41.8123,1091.6862],[146.8616,-41.8157,1198.4016],[146.8679,-41.8154,1207.9624],[146.8696,-41.8173,1200.8081],[146.8711,-41.8145,1142.1433],[146.8804,-41.8148,1280.5028],[146.8826,-41.8167,1260.3763],[146.8857,-41.8151,1173.1517],[146.8867,-41.8207,1275.627],[146.8926,-41.8227,1268.6121],[146.8956,-41.8263,1292.2004],[146.9018,-41.8274,1247.9292],[146.9056,-41.8335,1229.9426],[146.9084,-41.836,1218.2869],[146.9119,-41.8363,1252.1023],[146.9166,-41.8428,1253.7365],[146.9221,-41.8423,1228.4597],[146.9287,-41.8389,1108.6328],[146.9337,-41.8412,1098.8441],[146.9331,-41.8383,1099.8445],[146.9358,-41.8359,1047.9543],[146.9416,-41.8405,1143.6219],[146.9469,-41.841,1115.0083],[146.9532,-41.8439,1147.0317],[146.9694,-41.8446,1215.1047],[146.9749,-41.8432,1213.2451],[146.9762,-41.8446,1149.4772],[146.9743,-41.8502,1209.6897],[146.9755,-41.8616,1128.0093],[146.9806,-41.869,1151.2609],[146.9809,-41.8736,1151.9233],[146.9887,-41.8793,1010.4026],[146.9908,-41.8863,1004.1021],[147.002,-41.8878,885.5282],[146.9997,-41.8985,1016.3991],[147.0119,-41.8998,1098.0165],[147.0114,-41.9022,1083.5267],[147.0281,-41.9041,1103.6063],[147.0453,-41.9188,1179.3842],[147.0816,-41.9396,913.5287],[147.0934,-41.9385,590.2106],[147.1033,-41.9401,574.7048],[147.1127,-41.9369,646.9346],[147.14,-41.939,1003.4998],[147.164,-41.9164,1189.1287],[147.2328,-42.0764,1083.4512],[147.2505,-42.082,841.0574],[147.2615,-42.093,581.2623],[147.2561,-42.0959,662.5922],[147.2617,-42.1018,527.8613],[147.2583,-42.1034,595.4581],[147.2638,-42.1102,726.1716],[147.2688,-42.108,603.4289],[147.2789,-42.1187,580.2494],[147.2746,-42.121,654.7087],[147.2776,-42.1242,675.4521],[147.2721,-42.1214,749.8431],[147.2726,-42.1249,827.5285],[147.2689,-42.1232,832.1282],[147.2627,-42.1257,833.5309],[147.2565,-42.1216,826.7717],[147.2578,-42.1635,749.194],[147.2594,-42.1653,714.59],[147.2644,-42.1643,704.0342],[147.2674,-42.1654,693.09],[147.2756,-42.1612,673.9679],[147.2826,-42.161,568.1582],[147.2988,-42.1562,386.3068],[147.3251,-42.1354,276.0344],[147.3281,-42.1303,259.0485],[147.3266,-42.1271,255.9148],[147.3277,-42.1258,253.2872],[147.3346,-42.1234,247.7996],[147.3398,-42.1247,243.2517],[147.3582,-42.1228,230.1405],[147.3807,-42.1373,213.893],[147.3841,-42.1373,212.8818],[147.3854,-42.1388,212.8774],[147.3906,-42.1359,212.0525],[147.402,-42.1359,212.6906],[147.4045,-42.1372,211.7718],[147.4046,-42.1401,211.6992],[147.4069,-42.1406,208.3539],[147.4246,-42.1386,208.0391],[147.4277,-42.1325,203.8724],[147.4462,-42.1219,195.4902],[147.4489,-42.117,194.8452],[147.5097,-42.1545,294.7353],[147.5062,-42.1579,299.9608],[147.5038,-42.1676,233.8206],[147.5296,-42.171,352.151],[147.5467,-42.181,471.0093],[147.5435,-42.1951,315.1489],[147.5607,-42.1973,332.6768],[147.5594,-42.2027,271.5391],[147.5565,-42.2026,269.8927],[147.5557,-42.206,270.2095],[147.5502,-42.2069,270.5051],[147.5505,-42.2096,271.6126],[147.5522,-42.2127,272.7574],[147.5582,-42.2135,291.9014],[147.5571,-42.2153,279.6381],[147.56,-42.2194,287.1983],[147.559,-42.2223,282.632],[147.5685,-42.2286,287.505],[147.5681,-42.23,287.141],[147.6732,-42.2399,403.471],[147.6719,-42.2458,466.5535],[147.7033,-42.2495,395.4516],[147.7091,-42.2521,387.8027],[147.7121,-42.2731,369.56],[147.7543,-42.2694,401.5202],[147.7538,-42.266,430.253],[147.7807,-42.2625,538.3981],[147.7824,-42.2723,389.4822],[147.8092,-42.2715,396.3672],[147.8109,-42.2813,464.9677],[147.8306,-42.2788,552.9127],[147.8663,-42.2413,726.0134],[147.8822,-42.2135,700.7302],[147.8892,-42.1432,695.913],[147.8659,-42.0886,560.7626],[147.8396,-42.0478,707.649],[147.8428,-42.0342,722.3671],[147.8465,-42.0348,684.4443],[147.8491,-42.0253,652.4587],[147.8439,-42.0236,628.9544],[147.8475,-42.0106,720.813],[147.8459,-42.0104,720.813],[147.8846,-41.8765,737.4957],[147.9672,-41.8571,684.9044],[148.0141,-41.8728,301.864],[148.022,-41.8738,337.5849],[148.0399,-41.8439,516.8314],[148.0924,-41.833,282.2626],[148.0944,-41.8248,304.0115],[148.1462,-41.8248,254.7838],[148.1443,-41.8145,324.6257],[148.1443,-41.8096,282.2665],[148.1461,-41.806399999999996,335.6752],[148.1379,-41.8079,396.7373],[148.1338,-41.806399999999996,425.7917],[148.1245,-41.7989,491.1544],[148.119,-41.7971,566.1879],[148.1207,-41.7939,634.2552],[148.1373,-41.7851,425.4407],[148.1347,-41.7725,493.6107],[148.1365,-41.7711,507.7412],[148.1372,-41.765,520.6202],[148.1207,-41.7494,785.0151],[148.0813,-41.7537,289.0012],[148.0692,-41.7508,346.87],[148.0715,-41.7404,387.8447],[148.0503,-41.7377,427.8987],[148.047,-41.7519,303.5899],[148.0395,-41.7509,378.2078],[148.0381,-41.7564,344.1837],[148.0405,-41.7568,332.3099],[148.039,-41.763,406.2501],[148.044,-41.7637,265.5456],[148.0408,-41.7765,367.1288],[148.0334,-41.7755,452.6813],[148.0253,-41.7784,289.7005],[148.0266,-41.771,266.9143],[148.0244,-41.7694,281.898],[148.0244,-41.7656,277.1149],[148.0025,-41.7636,483.0429],[148.0011,-41.7687,315.1994],[147.9936,-41.7676,424.5386],[147.9921,-41.7732,348.0706],[147.9742,-41.7706,580.0552],[147.9714,-41.7809,469.5636],[147.9647,-41.78,353.7339],[147.9653,-41.7782,422.6481],[147.959,-41.7774,417.7967],[147.9594,-41.776,433.8907],[147.9415,-41.7737,464.5876],[147.9423,-41.7699,573.1628],[147.9347,-41.7689,532.6017],[147.9361,-41.7627,685.979],[147.921,-41.7607,814.0331],[147.9186,-41.772,588.8359],[147.93,-41.7735,526.5562],[147.9278,-41.7825,427.0009],[147.9234,-41.7819,377.5283],[147.9243,-41.7777,491.6298],[147.919,-41.777,507.1378],[147.916,-41.7924,359.5944],[147.9223,-41.7933,313.9866],[147.9201,-41.8028,298.7133],[147.9063,-41.801,333.7403],[147.9096,-41.7866,425.2969],[147.8946,-41.7847,386.962],[147.8921,-41.795,342.4274],[147.8789,-41.7933,383.752],[147.881,-41.7848,361.131],[147.8265,-41.7775,629.9634],[147.8271,-41.7749,659.9127],[147.8183,-41.7737,683.0081],[147.8257,-41.7696,757.2809],[147.8065,-41.7518,311.9586],[147.7951,-41.7579,284.9108],[147.7934,-41.756,260.0455],[147.7834,-41.761,282.0548],[147.7637,-41.7412,232.3885],[147.7795,-41.7346,228.7458],[147.7776,-41.7325,265.5048],[147.7882,-41.7278,225.5713],[147.7851,-41.7245,282.3796],[147.7943,-41.7193,226.3331],[147.7933,-41.7179,241.9408],[147.7887,-41.7186,236.188],[147.7815,-41.7159,273.6772],[147.773,-41.7076,391.0485],[147.7878,-41.7,334.866],[147.788,-41.697,332.5025],[147.7821,-41.6885,418.6574],[147.7767,-41.6857,403.1872],[147.7771,-41.6815,413.5157],[147.7796,-41.6781,428.4466],[147.7786,-41.6735,447.4735],[147.7641,-41.6698,506.1485],[147.7594,-41.6633,506.2178],[147.7601,-41.6595,555.9515],[147.7582,-41.6595,519.9929],[147.7577,-41.6573,521.7922],[147.7603,-41.656,556.8878],[147.7587,-41.6543,543.6733],[147.7605,-41.6512,574.0232],[147.763,-41.6511,557.6801],[147.7617,-41.6503,557.6801],[147.7639,-41.6479,568.712],[147.7616,-41.6473,563.5605],[147.7648,-41.6454,566.0304],[147.7791,-41.647,669.2378],[147.7787,-41.6489,671.0926],[147.7933,-41.6505,519.7596],[147.7979,-41.6278,631.9159],[147.781,-41.6293,621.4473],[147.782,-41.6225,621.8495],[147.786,-41.623,623.8078],[147.7892,-41.6077,662.369],[147.7801,-41.6064,739.8209],[147.7527,-41.5529,605.7725],[147.7153,-41.5477,983.9701],[147.68,-41.4994,1013.8759],[147.6724,-41.4983,1116.7656],[147.6739,-41.4925,898.0753],[147.6541,-41.4957,865.4847],[147.6425,-41.4848,817.3137],[147.6479,-41.4785,593.1849]]]]}
,"properties": {"GID_2": "AUS.9.24_1","GID_0": "AUS","country": "Australia","GID_1": "AUS.9_1","state": "Tasmania","NL_NAME_1": "NA","county": "NorthernMidlands","VARNAME_2": "NA","NL_NAME_2": "NA","TYPE_2": "Municipality","ENGTYPE_2": "Municipality","CC_2": "64610","HASC_2": "AU.TS.NM","name": "NorthernMidlands.county","area_km2": 5129.546,"hist_schema_id": "Elevation0-9000","hist_area_km2": {"25": 0.969,"50": 3.175,"75": 5.841,"100": 5.65,"125": 34.37,"150": 428.778,"175": 585.099,"200": 498.108,"225": 442.539,"250": 310.131,"275": 219.119,"300": 182.236,"325": 158.865,"350": 135.212,"375": 125.949,"400": 134.941,"425": 137.351,"450": 138.582,"475": 137.332,"500": 125.203,"525": 129.179,"550": 148.929,"575": 148.011,"600": 117.499,"625": 100.678,"650": 84.53,"675": 70.967,"700": 61.908,"725": 55.18,"750": 48.5,"775": 34.217,"800": 22.655,"825": 19.43,"850": 19.398,"875": 16.623,"900": 17.143,"925": 17.036,"950": 13.833,"975": 12.963,"1000": 12.19,"1025": 13.275,"1050": 12.5,"1075": 11.051,"1100": 11.086,"1125": 8.937,"1150": 6.976,"1175": 6.15,"1200": 5.914,"1225": 5.9,"1250": 5.504,"1275": 6.044,"1300": 8.423,"1325": 9.31,"1350": 14.068,"1375": 12.593,"1400": 9.992,"1425": 5.443,"1450": 7.935,"1475": 3.444,"1500": 2.92,"1525": 1.46,"1550": 0.286}}}