{"type":"Feature","properties":{"GID_2":"AUS.11.57_1","GID_0":"AUS","country":"Australia","GID_1":"AUS.11_1","state":"WesternAustralia","NL_NAME_1":"NA","county":"Irwin","VARNAME_2":"NA","NL_NAME_2":"NA","TYPE_2":"Shire","ENGTYPE_2":"Shire","CC_2":"54060","HASC_2":"AU.WA.IR","name":"Irwin.county"},
"geometry":{"type": "MultiPolygon","coordinates": [[[[115.2449,-29.6892,65.4495],[115.2451,-29.6342,79.5238],[115.2536,-29.6342,88.2702],[115.2533,-29.2414,104.2225],[115.2512,-29.2414,99.0102],[115.2511,-29.2363,99.0328],[115.2526,-29.2363,99.2409],[115.2527,-29.2297,95.3745],[115.2548,-29.2278,95.4631],[115.2551,-29.2089,110.5696],[115.2549,-29.1923,125.0222],[115.2502,-29.1923,130.6924],[115.2502,-29.1724,157.1779],[115.2584,-29.1724,140.9974],[115.2584,-29.1504,197.5836],[115.2645,-29.1503,189.0661],[115.2645,-29.0107,260.29],[115.2061,-29.0107,263.7043],[115.2062,-28.9788,239.5191],[115.182,-28.9944,248.7899],[115.1408,-28.9944,233.9067],[115.1407,-29.0167,225.1382],[115.0962,-29.0167,225.2524],[115.0966,-29.0192,223.7101],[114.8839,-29.0192,22.6175],[114.8839,-29.0246,33.7648],[114.8687,-29.0246,37.6504],[114.8266,-29.0618,0.0],[114.8323,-29.0664,0.0],[114.8553,-29.0933,0.0],[114.8722,-29.117,0.0],[114.874,-29.1287,0.0],[114.8776,-29.1357,0.0],[114.8769,-29.1371,0.0],[114.879,-29.1383,9.2839],[114.8877,-29.1583,5.3083],[114.8892,-29.1653,5.9044],[114.8881,-29.1704,3.2848],[114.8918,-29.1761,8.6793],[114.8941,-29.188,0.0],[114.9015,-29.2081,4.854],[114.9015,-29.2123,3.2218],[114.9067,-29.2211,7.5137],[114.9208,-29.2555,0.0],[114.92,-29.2602,0.0],[114.9221,-29.2702,0.8929],[114.9151,-29.2725,0.0],[114.9201,-29.271,0.0],[114.9208,-29.2722,0.7443],[114.9196,-29.2746,2.4764],[114.9159,-29.2765,6.0144],[114.9141,-29.2754,0.0],[114.9141,-29.2723,0.0],[114.9138,-29.2746,0.0],[114.9144,-29.2774,4.1295],[114.9212,-29.2878,0.0],[114.9241,-29.3059,2.7593],[114.9269,-29.3127,0.0],[114.9377,-29.3225,0.0],[114.9455,-29.3325,0.0],[114.9542,-29.3522,0.0],[114.9586,-29.3654,0.0],[114.9601,-29.3793,2.384],[114.9563,-29.3974,0.0],[114.9678,-29.4152,2.0012],[114.9742,-29.4372,0.0],[114.9909,-29.4739,0.0],[114.9976,-29.4935,0.0],[114.9972,-29.5136,0.0],[114.9912,-29.5273,0.0],[114.9866,-29.5323,1.4035],[114.9771,-29.5574,0.4439],[114.9776,-29.5838,8.3244],[114.9757,-29.5881,9.649],[114.9736,-29.6091,2.9136],[114.9667,-29.6286,0.0],[114.9651,-29.6518,1.2618],[114.9592,-29.6697,5.5328],[114.9587,-29.6886,0.0],[114.9929,-29.6886,43.93],[114.9927,-29.7044,29.3296],[115.1025,-29.7051,31.0047],[115.1025,-29.6977,29.34],[115.2093,-29.6969,56.8925],[115.2094,-29.6896,59.8384],[115.2449,-29.6892,65.4495]]]]}}