{"type":"Feature","properties":{"GID_2":"AUS.5.115_1","GID_0":"AUS","country":"Australia","GID_1":"AUS.5_1","state":"NewSouthWales","NL_NAME_1":"NA","county":"Ryde","VARNAME_2":"NA","NL_NAME_2":"NA","TYPE_2":"City","ENGTYPE_2":"City","CC_2":"16700","HASC_2":"AU.NS.RD","name":"Ryde.county"},
"geometry":{"type": "MultiPolygon","coordinates": [[[[151.0827,-33.787,68.4996],[151.0824,-33.7888,67.6746],[151.0766,-33.7874,89.1462],[151.0658,-33.7909,112.2865],[151.0661,-33.8028,60.0765],[151.0702,-33.8062,46.1848],[151.0734,-33.8186,2.6179],[151.0762,-33.8196,1.0524],[151.0844,-33.8187,4.1925],[151.0897,-33.821,6.9748],[151.0928,-33.8196,0.0],[151.0943,-33.8222,0.0],[151.0999,-33.8246,6.4132],[151.1015,-33.8309,1.1237],[151.108,-33.831,13.516],[151.1087,-33.8356,2.8974],[151.1119,-33.8345,2.392],[151.1112,-33.8297,5.7971],[151.1136,-33.8301,6.0957],[151.1161,-33.8337,16.813],[151.1154,-33.8371,0.0],[151.1172,-33.8369,2.9362],[151.1198,-33.8327,11.2363],[151.1212,-33.8351,5.3232],[151.1197,-33.8378,13.457],[151.1253,-33.8418,0.0],[151.1263,-33.8386,16.9908],[151.1283,-33.8417,0.0],[151.1267,-33.8302,52.7628],[151.1302,-33.8281,33.4464],[151.1377,-33.8186,35.9445],[151.1359,-33.815,12.2674],[151.1405,-33.8172,12.963],[151.1437,-33.8168,1.9394],[151.1408,-33.8142,16.5313],[151.1391,-33.8094,13.8109],[151.1418,-33.8098,7.6568],[151.141,-33.8068,23.1915],[151.144,-33.8043,6.6359],[151.1426,-33.8016,4.0801],[151.1489,-33.7991,13.6031],[151.1574,-33.8008,8.9677],[151.159,-33.799,15.1703],[151.1564,-33.7913,20.3276],[151.1525,-33.7904,21.0362],[151.1483,-33.7942,29.1918],[151.1469,-33.7883,11.8826],[151.1489,-33.7875,16.2803],[151.1448,-33.7855,16.6986],[151.1428,-33.7811,40.6819],[151.1397,-33.7823,27.2389],[151.1393,-33.7747,24.3487],[151.1368,-33.776,18.9702],[151.1325,-33.775,30.5783],[151.1329,-33.7731,32.1323],[151.1257,-33.7725,27.7367],[151.1199,-33.7685,34.5221],[151.1193,-33.7629,38.7996],[151.1167,-33.7613,51.7577],[151.1095,-33.7626,38.9938],[151.1054,-33.7612,56.2301],[151.1042,-33.7628,60.4181],[151.1016,-33.7623,56.8867],[151.0985,-33.7644,60.4492],[151.0938,-33.7707,62.7376],[151.0937,-33.7788,62.5464],[151.085,-33.7839,63.9061],[151.0852,-33.7865,70.2759],[151.0827,-33.787,68.4996]]]]}}