{"type": "Feature","bbox": [117.8542,-34.4056,118.7424,-33.7675],"geometry": {"type": "MultiPolygon","coordinates": [[[[118.6534,-34.337,69.6534],[118.6534,-34.3294,75.7785],[118.6484,-34.3238,96.33],[118.6114,-34.3188,115.5918],[118.6069,-34.3167,114.0589],[118.6099,-34.3118,113.9132],[118.6114,-34.2938,120.196],[118.6143,-34.291,110.03],[118.6153,-34.2796,108.3391],[118.623,-34.2758,97.2486],[118.6274,-34.2621,118.2148],[118.6329,-34.2513,117.3431],[118.6303,-34.2402,139.04],[118.6447,-34.2103,169.4901],[118.6313,-34.2028,182.9385],[118.611,-34.1948,188.6871],[118.6155,-34.1875,192.0171],[118.6154,-34.1521,236.6031],[118.6383,-34.1339,235.1345],[118.641,-34.1182,268.3522],[118.6513,-34.1,272.6405],[118.654,-34.074,302.0891],[118.6539,-34.0551,321.5374],[118.6551,-34.0551,321.6112],[118.6535,-33.9539,316.8643],[118.6115,-33.954,305.7432],[118.6114,-33.9201,303.5424],[118.6352,-33.9201,311.5719],[118.6352,-33.924,311.3681],[118.7424,-33.8301,300.4398],[118.7176,-33.8274,315.4971],[118.7176,-33.8047,301.873],[118.6939,-33.8045,307.6187],[118.6939,-33.7763,307.8636],[118.5416,-33.777,294.4087],[118.5237,-33.7676,295.518],[118.5237,-33.7865,294.9024],[118.5002,-33.7866,296.0542],[118.5002,-33.7845,296.1855],[118.4487,-33.7847,306.8438],[118.4487,-33.7738,306.878],[118.4291,-33.7739,310.4858],[118.4291,-33.781,311.8617],[118.3645,-33.7809,354.1248],[118.3645,-33.7723,351.8591],[118.2945,-33.7722,332.2164],[118.2944,-33.779,323.7217],[118.2335,-33.7791,312.0691],[118.2334,-33.7972,303.8239],[118.2099,-33.7972,298.9859],[118.2099,-33.7952,299.7432],[118.1717,-33.7953,298.3159],[118.1717,-33.7807,295.0978],[118.1417,-33.7809,292.2175],[118.1267,-33.7785,291.5981],[118.1218,-33.7791,291.762],[118.1217,-33.7752,295.9936],[118.113,-33.775,291.534],[118.113,-33.7774,291.6319],[118.0762,-33.778,310.7926],[118.0552,-33.7873,294.5269],[118.0552,-33.7716,290.3628],[118.0022,-33.7715,293.8137],[118.0022,-33.7876,302.3347],[117.9895,-33.7875,310.7159],[117.9895,-33.7675,292.8581],[117.9712,-33.7675,303.2877],[117.9711,-33.7875,311.5374],[117.9466,-33.7873,307.2557],[117.9465,-33.7766,317.5544],[117.9081,-33.7766,288.5995],[117.9082,-33.8062,293.5458],[117.8943,-33.8063,299.0496],[117.8943,-33.8091,300.0117],[117.9082,-33.8091,294.4244],[117.9084,-33.8332,305.4295],[117.9035,-33.8332,305.5814],[117.9083,-33.8386,306.238],[117.9035,-33.8387,307.2766],[117.9036,-33.8549,318.9287],[117.9109,-33.8548,318.681],[117.9109,-33.8807,298.7435],[117.895,-33.8805,298.5025],[117.8611,-33.8881,284.2141],[117.8608,-33.8916,279.8438],[117.8542,-33.8915,287.654],[117.8576,-33.9337,263.8074],[117.865,-33.9491,266.7899],[117.8715,-33.9491,272.9088],[117.8715,-33.9552,262.118],[117.8737,-33.9552,262.3003],[117.8737,-33.96,265.9876],[117.8965,-33.96,253.2348],[117.8965,-33.9644,247.8472],[117.8989,-33.9681,248.5926],[117.9021,-33.969,246.4421],[117.9012,-33.9701,247.085],[117.9027,-33.971,247.2308],[117.9012,-33.9718,247.1883],[117.9034,-33.9765,246.1328],[117.9014,-33.9772,247.0722],[117.901,-33.9885,254.9113],[117.8958,-33.9885,255.8193],[117.8958,-33.9957,248.6152],[117.9006,-33.9957,253.2472],[117.9006,-33.9987,247.5936],[117.9025,-33.9987,248.4451],[117.9024,-34.0027,245.6181],[117.9008,-34.0027,247.1251],[117.9008,-34.016,248.8217],[117.9109,-34.0133,261.604],[117.9109,-34.0086,262.2179],[117.9163,-34.0086,257.6551],[117.9165,-34.0235,253.9922],[117.9401,-34.0234,247.7466],[117.9401,-34.0295,246.2833],[117.9464,-34.0234,243.2165],[117.9647,-34.0234,242.8139],[117.9648,-34.0278,244.8999],[117.9776,-34.0277,246.4164],[117.9768,-34.0461,256.0682],[117.9826,-34.0462,249.5115],[117.9826,-34.0515,243.0967],[117.9885,-34.0515,242.5394],[117.9876,-34.1385,230.312],[117.9889,-34.3491,382.9874],[117.987,-34.349,378.7286],[117.9869,-34.4056,251.9818],[118.4103,-34.405,129.8919],[118.4112,-34.3904,149.0853],[118.3741,-34.3828,190.2036],[118.3928,-34.348,193.2506],[118.3998,-34.3444,177.3325],[118.3926,-34.3227,194.8895],[118.3926,-34.318,197.7561],[118.3837,-34.3081,219.8035],[118.3834,-34.305,230.8867],[118.4018,-34.305,248.6886],[118.4018,-34.2953,190.6389],[118.4117,-34.2953,203.7165],[118.4117,-34.2849,135.7256],[118.4272,-34.2896,135.7628],[118.4371,-34.2897,130.7126],[118.4492,-34.2946,129.1519],[118.4532,-34.2945,126.5151],[118.4581,-34.2916,125.6909],[118.4646,-34.2946,125.4426],[118.4665,-34.2986,120.9107],[118.4743,-34.2949,118.7829],[118.4786,-34.2979,116.6669],[118.4834,-34.2989,115.8054],[118.485,-34.3039,109.049],[118.4868,-34.305,113.9835],[118.4985,-34.3045,114.0629],[118.5095,-34.306,102.8314],[118.5109,-34.3106,101.4611],[118.5183,-34.3129,99.4404],[118.5196,-34.3198,98.564],[118.5339,-34.3194,95.2832],[118.535,-34.3265,102.9117],[118.5396,-34.3289,92.4972],[118.548,-34.3284,95.9261],[118.5563,-34.3248,91.2119],[118.5584,-34.3316,89.0793],[118.5609,-34.3337,88.3017],[118.5598,-34.3359,91.5621],[118.5607,-34.3398,91.0968],[118.5716,-34.3445,87.4317],[118.5794,-34.3458,85.8203],[118.5815,-34.3481,89.892],[118.5756,-34.3524,86.5035],[118.5801,-34.355,86.4074],[118.5852,-34.3518,82.314],[118.5896,-34.3533,83.2701],[118.5951,-34.3521,83.6057],[118.6057,-34.3571,84.9476],[118.6155,-34.3515,75.6796],[118.6236,-34.3441,79.6895],[118.6356,-34.3493,74.7448],[118.6391,-34.3492,72.9828],[118.6407,-34.3478,79.2631],[118.6354,-34.3444,72.6269],[118.6354,-34.3395,71.3018],[118.6331,-34.3352,69.53],[118.6336,-34.3318,70.0781],[118.6376,-34.3305,69.751],[118.6419,-34.3329,70.0511],[118.6452,-34.338,74.4379],[118.6534,-34.337,69.6534]]]]}
,"properties": {"GID_2": "AUS.11.52_1","GID_0": "AUS","country": "Australia","GID_1": "AUS.11_1","state": "WesternAustralia","NL_NAME_1": "NA","county": "Gnowangerup","VARNAME_2": "NA","NL_NAME_2": "NA","TYPE_2": "Shire","ENGTYPE_2": "Shire","CC_2": "53640","HASC_2": "AU.WA.GN","name": "Gnowangerup.county","area_km2": 4270.193,"hist_schema_id": "Elevation0-9000","hist_area_km2": {"75": 3.221,"100": 24.922,"125": 61.514,"150": 41.138,"175": 97.117,"200": 305.811,"225": 644.067,"250": 633.716,"275": 663.745,"300": 999.841,"325": 566.499,"350": 119.715,"375": 23.801,"400": 18.113,"425": 12.898,"450": 9.345,"475": 7.0,"500": 5.618,"525": 4.585,"550": 3.798,"575": 3.483,"600": 2.608,"625": 2.345,"650": 2.275,"675": 1.785,"700": 1.733,"725": 1.68,"750": 1.278,"775": 0.735,"800": 0.875,"825": 0.945,"850": 0.805,"875": 0.805,"900": 0.77,"925": 0.595,"950": 0.508,"975": 0.297,"1000": 0.087,"1025": 0.122}}}